<?xml version="1.0" encoding="UTF-8"?>
<gpx xmlns="http://www.topografix.com/GPX/1/1" xmlns:gpxtpx="http://www.garmin.com/xmlschemas/TrackPointExtension/v1" xmlns:xsi="http://www.w3.org/2001/XMLSchema-instance" xsi:schemaLocation="http://www.topografix.com/GPX/1/1 http://www.topografix.com/GPX/1/1/gpx.xsd" version="1.1" creator="gpx.py -- https://github.com/tkrajina/gpxpy">
  <trk>
    <name>gpx from joyrun</name>
    <trkseg>
      <trkpt lat="23.076038" lon="113.272508">
        <time>2026-05-20T22:04:56Z</time>
      </trkpt>
      <trkpt lat="23.075968" lon="113.272394">
        <time>2026-05-20T22:05:01Z</time>
      </trkpt>
      <trkpt lat="23.075868" lon="113.272355">
        <time>2026-05-20T22:05:06Z</time>
      </trkpt>
      <trkpt lat="23.075727" lon="113.272423">
        <time>2026-05-20T22:05:11Z</time>
      </trkpt>
      <trkpt lat="23.075572" lon="113.272483">
        <time>2026-05-20T22:05:16Z</time>
      </trkpt>
      <trkpt lat="23.07544" lon="113.272412">
        <time>2026-05-20T22:05:21Z</time>
      </trkpt>
      <trkpt lat="23.075348" lon="113.272412">
        <time>2026-05-20T22:05:26Z</time>
      </trkpt>
      <trkpt lat="23.07523" lon="113.272354">
        <time>2026-05-20T22:05:31Z</time>
      </trkpt>
      <trkpt lat="23.075153" lon="113.272302">
        <time>2026-05-20T22:05:36Z</time>
      </trkpt>
      <trkpt lat="23.075025" lon="113.272214">
        <time>2026-05-20T22:05:41Z</time>
      </trkpt>
      <trkpt lat="23.074924" lon="113.272156">
        <time>2026-05-20T22:05:46Z</time>
      </trkpt>
      <trkpt lat="23.074786" lon="113.27206">
        <time>2026-05-20T22:05:51Z</time>
      </trkpt>
      <trkpt lat="23.074702" lon="113.271996">
        <time>2026-05-20T22:05:56Z</time>
      </trkpt>
      <trkpt lat="23.074571" lon="113.271934">
        <time>2026-05-20T22:06:01Z</time>
      </trkpt>
      <trkpt lat="23.074488" lon="113.271945">
        <time>2026-05-20T22:06:06Z</time>
      </trkpt>
      <trkpt lat="23.074403" lon="113.272038">
        <time>2026-05-20T22:06:11Z</time>
      </trkpt>
      <trkpt lat="23.074354" lon="113.272126">
        <time>2026-05-20T22:06:16Z</time>
      </trkpt>
      <trkpt lat="23.074298" lon="113.272283">
        <time>2026-05-20T22:06:21Z</time>
      </trkpt>
      <trkpt lat="23.074255" lon="113.272402">
        <time>2026-05-20T22:06:26Z</time>
      </trkpt>
      <trkpt lat="23.074175" lon="113.272559">
        <time>2026-05-20T22:06:31Z</time>
      </trkpt>
      <trkpt lat="23.074141" lon="113.272643">
        <time>2026-05-20T22:06:36Z</time>
      </trkpt>
      <trkpt lat="23.074077" lon="113.272773">
        <time>2026-05-20T22:06:41Z</time>
      </trkpt>
      <trkpt lat="23.07403" lon="113.272867">
        <time>2026-05-20T22:06:46Z</time>
      </trkpt>
      <trkpt lat="23.073976" lon="113.272985">
        <time>2026-05-20T22:06:51Z</time>
      </trkpt>
      <trkpt lat="23.073937" lon="113.273074">
        <time>2026-05-20T22:06:56Z</time>
      </trkpt>
      <trkpt lat="23.073875" lon="113.273217">
        <time>2026-05-20T22:07:01Z</time>
      </trkpt>
      <trkpt lat="23.073837" lon="113.273276">
        <time>2026-05-20T22:07:06Z</time>
      </trkpt>
      <trkpt lat="23.073867" lon="113.273195">
        <time>2026-05-20T22:07:11Z</time>
      </trkpt>
      <trkpt lat="23.073904" lon="113.273106">
        <time>2026-05-20T22:07:16Z</time>
      </trkpt>
      <trkpt lat="23.073928" lon="113.27299">
        <time>2026-05-20T22:07:21Z</time>
      </trkpt>
      <trkpt lat="23.073863" lon="113.272946">
        <time>2026-05-20T22:07:26Z</time>
      </trkpt>
      <trkpt lat="23.07372" lon="113.272894">
        <time>2026-05-20T22:07:31Z</time>
      </trkpt>
      <trkpt lat="23.073692" lon="113.272826">
        <time>2026-05-20T22:07:36Z</time>
      </trkpt>
      <trkpt lat="23.073754" lon="113.272674">
        <time>2026-05-20T22:07:41Z</time>
      </trkpt>
      <trkpt lat="23.073793" lon="113.272571">
        <time>2026-05-20T22:07:46Z</time>
      </trkpt>
      <trkpt lat="23.073834" lon="113.272423">
        <time>2026-05-20T22:07:51Z</time>
      </trkpt>
      <trkpt lat="23.073864" lon="113.272318">
        <time>2026-05-20T22:07:56Z</time>
      </trkpt>
      <trkpt lat="23.073922" lon="113.27216">
        <time>2026-05-20T22:08:01Z</time>
      </trkpt>
      <trkpt lat="23.073965" lon="113.272062">
        <time>2026-05-20T22:08:06Z</time>
      </trkpt>
      <trkpt lat="23.074037" lon="113.27191">
        <time>2026-05-20T22:08:11Z</time>
      </trkpt>
      <trkpt lat="23.074084" lon="113.271801">
        <time>2026-05-20T22:08:16Z</time>
      </trkpt>
      <trkpt lat="23.074038" lon="113.271688">
        <time>2026-05-20T22:08:21Z</time>
      </trkpt>
      <trkpt lat="23.073955" lon="113.271642">
        <time>2026-05-20T22:08:26Z</time>
      </trkpt>
      <trkpt lat="23.07383" lon="113.271594">
        <time>2026-05-20T22:08:31Z</time>
      </trkpt>
      <trkpt lat="23.073741" lon="113.27155">
        <time>2026-05-20T22:08:36Z</time>
      </trkpt>
      <trkpt lat="23.073607" lon="113.271472">
        <time>2026-05-20T22:08:41Z</time>
      </trkpt>
      <trkpt lat="23.07352" lon="113.271431">
        <time>2026-05-20T22:08:46Z</time>
      </trkpt>
      <trkpt lat="23.073397" lon="113.271386">
        <time>2026-05-20T22:08:51Z</time>
      </trkpt>
      <trkpt lat="23.073313" lon="113.271336">
        <time>2026-05-20T22:08:56Z</time>
      </trkpt>
      <trkpt lat="23.073199" lon="113.271202">
        <time>2026-05-20T22:09:01Z</time>
      </trkpt>
      <trkpt lat="23.073107" lon="113.271136">
        <time>2026-05-20T22:09:06Z</time>
      </trkpt>
      <trkpt lat="23.072977" lon="113.271052">
        <time>2026-05-20T22:09:11Z</time>
      </trkpt>
      <trkpt lat="23.072904" lon="113.270987">
        <time>2026-05-20T22:09:16Z</time>
      </trkpt>
      <trkpt lat="23.072781" lon="113.270885">
        <time>2026-05-20T22:09:21Z</time>
      </trkpt>
      <trkpt lat="23.072682" lon="113.270843">
        <time>2026-05-20T22:09:26Z</time>
      </trkpt>
      <trkpt lat="23.072516" lon="113.270799">
        <time>2026-05-20T22:09:31Z</time>
      </trkpt>
      <trkpt lat="23.072424" lon="113.270763">
        <time>2026-05-20T22:09:36Z</time>
      </trkpt>
      <trkpt lat="23.072276" lon="113.270718">
        <time>2026-05-20T22:09:41Z</time>
      </trkpt>
      <trkpt lat="23.072178" lon="113.270689">
        <time>2026-05-20T22:09:46Z</time>
      </trkpt>
      <trkpt lat="23.072038" lon="113.270619">
        <time>2026-05-20T22:09:51Z</time>
      </trkpt>
      <trkpt lat="23.071922" lon="113.270573">
        <time>2026-05-20T22:09:56Z</time>
      </trkpt>
      <trkpt lat="23.071753" lon="113.270513">
        <time>2026-05-20T22:10:01Z</time>
      </trkpt>
      <trkpt lat="23.071661" lon="113.270464">
        <time>2026-05-20T22:10:06Z</time>
      </trkpt>
      <trkpt lat="23.071519" lon="113.270377">
        <time>2026-05-20T22:10:11Z</time>
      </trkpt>
      <trkpt lat="23.071435" lon="113.270308">
        <time>2026-05-20T22:10:16Z</time>
      </trkpt>
      <trkpt lat="23.071307" lon="113.270219">
        <time>2026-05-20T22:10:21Z</time>
      </trkpt>
      <trkpt lat="23.071206" lon="113.270154">
        <time>2026-05-20T22:10:26Z</time>
      </trkpt>
      <trkpt lat="23.071047" lon="113.270053">
        <time>2026-05-20T22:10:31Z</time>
      </trkpt>
      <trkpt lat="23.070934" lon="113.270025">
        <time>2026-05-20T22:10:36Z</time>
      </trkpt>
      <trkpt lat="23.070775" lon="113.269974">
        <time>2026-05-20T22:10:41Z</time>
      </trkpt>
      <trkpt lat="23.070682" lon="113.269921">
        <time>2026-05-20T22:10:46Z</time>
      </trkpt>
      <trkpt lat="23.070566" lon="113.269869">
        <time>2026-05-20T22:10:51Z</time>
      </trkpt>
      <trkpt lat="23.070466" lon="113.269837">
        <time>2026-05-20T22:10:56Z</time>
      </trkpt>
      <trkpt lat="23.0703" lon="113.269794">
        <time>2026-05-20T22:11:01Z</time>
      </trkpt>
      <trkpt lat="23.070194" lon="113.269754">
        <time>2026-05-20T22:11:06Z</time>
      </trkpt>
      <trkpt lat="23.070046" lon="113.269653">
        <time>2026-05-20T22:11:11Z</time>
      </trkpt>
      <trkpt lat="23.069957" lon="113.269574">
        <time>2026-05-20T22:11:16Z</time>
      </trkpt>
      <trkpt lat="23.069813" lon="113.269498">
        <time>2026-05-20T22:11:21Z</time>
      </trkpt>
      <trkpt lat="23.069709" lon="113.269469">
        <time>2026-05-20T22:11:26Z</time>
      </trkpt>
      <trkpt lat="23.069566" lon="113.269391">
        <time>2026-05-20T22:11:31Z</time>
      </trkpt>
      <trkpt lat="23.069473" lon="113.269341">
        <time>2026-05-20T22:11:36Z</time>
      </trkpt>
      <trkpt lat="23.069326" lon="113.269283">
        <time>2026-05-20T22:11:41Z</time>
      </trkpt>
      <trkpt lat="23.069239" lon="113.269224">
        <time>2026-05-20T22:11:46Z</time>
      </trkpt>
      <trkpt lat="23.069107" lon="113.26916">
        <time>2026-05-20T22:11:51Z</time>
      </trkpt>
      <trkpt lat="23.069016" lon="113.269129">
        <time>2026-05-20T22:11:56Z</time>
      </trkpt>
      <trkpt lat="23.06887" lon="113.269068">
        <time>2026-05-20T22:12:01Z</time>
      </trkpt>
      <trkpt lat="23.068776" lon="113.26903">
        <time>2026-05-20T22:12:06Z</time>
      </trkpt>
      <trkpt lat="23.068626" lon="113.268994">
        <time>2026-05-20T22:12:11Z</time>
      </trkpt>
      <trkpt lat="23.068525" lon="113.268974">
        <time>2026-05-20T22:12:16Z</time>
      </trkpt>
      <trkpt lat="23.068383" lon="113.268948">
        <time>2026-05-20T22:12:21Z</time>
      </trkpt>
      <trkpt lat="23.068302" lon="113.26892">
        <time>2026-05-20T22:12:26Z</time>
      </trkpt>
      <trkpt lat="23.068183" lon="113.268877">
        <time>2026-05-20T22:12:31Z</time>
      </trkpt>
      <trkpt lat="23.068104" lon="113.26882">
        <time>2026-05-20T22:12:36Z</time>
      </trkpt>
      <trkpt lat="23.067962" lon="113.268669">
        <time>2026-05-20T22:12:41Z</time>
      </trkpt>
      <trkpt lat="23.067852" lon="113.268594">
        <time>2026-05-20T22:12:46Z</time>
      </trkpt>
      <trkpt lat="23.067694" lon="113.268498">
        <time>2026-05-20T22:12:51Z</time>
      </trkpt>
      <trkpt lat="23.067597" lon="113.268444">
        <time>2026-05-20T22:12:56Z</time>
      </trkpt>
      <trkpt lat="23.067455" lon="113.268368">
        <time>2026-05-20T22:13:01Z</time>
      </trkpt>
      <trkpt lat="23.067359" lon="113.268311">
        <time>2026-05-20T22:13:06Z</time>
      </trkpt>
      <trkpt lat="23.067221" lon="113.268235">
        <time>2026-05-20T22:13:11Z</time>
      </trkpt>
      <trkpt lat="23.067128" lon="113.268187">
        <time>2026-05-20T22:13:16Z</time>
      </trkpt>
      <trkpt lat="23.066999" lon="113.268104">
        <time>2026-05-20T22:13:21Z</time>
      </trkpt>
      <trkpt lat="23.066911" lon="113.268046">
        <time>2026-05-20T22:13:26Z</time>
      </trkpt>
      <trkpt lat="23.066762" lon="113.268009">
        <time>2026-05-20T22:13:31Z</time>
      </trkpt>
      <trkpt lat="23.06666" lon="113.267995">
        <time>2026-05-20T22:13:36Z</time>
      </trkpt>
      <trkpt lat="23.066509" lon="113.267957">
        <time>2026-05-20T22:13:41Z</time>
      </trkpt>
      <trkpt lat="23.066403" lon="113.267942">
        <time>2026-05-20T22:13:46Z</time>
      </trkpt>
      <trkpt lat="23.066248" lon="113.267974">
        <time>2026-05-20T22:13:51Z</time>
      </trkpt>
      <trkpt lat="23.066172" lon="113.268041">
        <time>2026-05-20T22:13:56Z</time>
      </trkpt>
      <trkpt lat="23.066062" lon="113.268167">
        <time>2026-05-20T22:14:01Z</time>
      </trkpt>
      <trkpt lat="23.06599" lon="113.268256">
        <time>2026-05-20T22:14:06Z</time>
      </trkpt>
      <trkpt lat="23.065884" lon="113.268385">
        <time>2026-05-20T22:14:11Z</time>
      </trkpt>
      <trkpt lat="23.065827" lon="113.268482">
        <time>2026-05-20T22:14:16Z</time>
      </trkpt>
      <trkpt lat="23.06575" lon="113.268629">
        <time>2026-05-20T22:14:21Z</time>
      </trkpt>
      <trkpt lat="23.065705" lon="113.268729">
        <time>2026-05-20T22:14:26Z</time>
      </trkpt>
      <trkpt lat="23.065651" lon="113.268878">
        <time>2026-05-20T22:14:31Z</time>
      </trkpt>
      <trkpt lat="23.065624" lon="113.268985">
        <time>2026-05-20T22:14:36Z</time>
      </trkpt>
      <trkpt lat="23.065579" lon="113.269137">
        <time>2026-05-20T22:14:41Z</time>
      </trkpt>
      <trkpt lat="23.065547" lon="113.269238">
        <time>2026-05-20T22:14:46Z</time>
      </trkpt>
      <trkpt lat="23.065503" lon="113.269399">
        <time>2026-05-20T22:14:51Z</time>
      </trkpt>
      <trkpt lat="23.065472" lon="113.269508">
        <time>2026-05-20T22:14:56Z</time>
      </trkpt>
      <trkpt lat="23.065433" lon="113.269675">
        <time>2026-05-20T22:15:01Z</time>
      </trkpt>
      <trkpt lat="23.065403" lon="113.269786">
        <time>2026-05-20T22:15:06Z</time>
      </trkpt>
      <trkpt lat="23.065352" lon="113.269939">
        <time>2026-05-20T22:15:11Z</time>
      </trkpt>
      <trkpt lat="23.065314" lon="113.270036">
        <time>2026-05-20T22:15:16Z</time>
      </trkpt>
      <trkpt lat="23.065242" lon="113.27018">
        <time>2026-05-20T22:15:21Z</time>
      </trkpt>
      <trkpt lat="23.065192" lon="113.270279">
        <time>2026-05-20T22:15:26Z</time>
      </trkpt>
      <trkpt lat="23.065121" lon="113.270429">
        <time>2026-05-20T22:15:31Z</time>
      </trkpt>
      <trkpt lat="23.065076" lon="113.27053">
        <time>2026-05-20T22:15:36Z</time>
      </trkpt>
      <trkpt lat="23.065017" lon="113.270684">
        <time>2026-05-20T22:15:41Z</time>
      </trkpt>
      <trkpt lat="23.064976" lon="113.270784">
        <time>2026-05-20T22:15:46Z</time>
      </trkpt>
      <trkpt lat="23.064911" lon="113.270934">
        <time>2026-05-20T22:15:51Z</time>
      </trkpt>
      <trkpt lat="23.06487" lon="113.271035">
        <time>2026-05-20T22:15:56Z</time>
      </trkpt>
      <trkpt lat="23.064801" lon="113.271184">
        <time>2026-05-20T22:16:01Z</time>
      </trkpt>
      <trkpt lat="23.064757" lon="113.271287">
        <time>2026-05-20T22:16:06Z</time>
      </trkpt>
      <trkpt lat="23.064694" lon="113.271447">
        <time>2026-05-20T22:16:11Z</time>
      </trkpt>
      <trkpt lat="23.064643" lon="113.271548">
        <time>2026-05-20T22:16:16Z</time>
      </trkpt>
      <trkpt lat="23.064571" lon="113.271698">
        <time>2026-05-20T22:16:21Z</time>
      </trkpt>
      <trkpt lat="23.064525" lon="113.2718">
        <time>2026-05-20T22:16:26Z</time>
      </trkpt>
      <trkpt lat="23.06446" lon="113.27195">
        <time>2026-05-20T22:16:31Z</time>
      </trkpt>
      <trkpt lat="23.064415" lon="113.27205">
        <time>2026-05-20T22:16:36Z</time>
      </trkpt>
      <trkpt lat="23.064351" lon="113.272201">
        <time>2026-05-20T22:16:41Z</time>
      </trkpt>
      <trkpt lat="23.064337" lon="113.272309">
        <time>2026-05-20T22:16:46Z</time>
      </trkpt>
      <trkpt lat="23.064331" lon="113.272472">
        <time>2026-05-20T22:16:51Z</time>
      </trkpt>
      <trkpt lat="23.064332" lon="113.27258">
        <time>2026-05-20T22:16:56Z</time>
      </trkpt>
      <trkpt lat="23.06436" lon="113.272733">
        <time>2026-05-20T22:17:01Z</time>
      </trkpt>
      <trkpt lat="23.064394" lon="113.272833">
        <time>2026-05-20T22:17:06Z</time>
      </trkpt>
      <trkpt lat="23.06444" lon="113.272983">
        <time>2026-05-20T22:17:11Z</time>
      </trkpt>
      <trkpt lat="23.064467" lon="113.273082">
        <time>2026-05-20T22:17:16Z</time>
      </trkpt>
      <trkpt lat="23.064461" lon="113.273231">
        <time>2026-05-20T22:17:21Z</time>
      </trkpt>
      <trkpt lat="23.064408" lon="113.273312">
        <time>2026-05-20T22:17:26Z</time>
      </trkpt>
      <trkpt lat="23.064291" lon="113.273405">
        <time>2026-05-20T22:17:31Z</time>
      </trkpt>
      <trkpt lat="23.064204" lon="113.273463">
        <time>2026-05-20T22:17:36Z</time>
      </trkpt>
      <trkpt lat="23.064081" lon="113.27355">
        <time>2026-05-20T22:17:41Z</time>
      </trkpt>
      <trkpt lat="23.064005" lon="113.273617">
        <time>2026-05-20T22:17:46Z</time>
      </trkpt>
      <trkpt lat="23.063904" lon="113.273743">
        <time>2026-05-20T22:17:51Z</time>
      </trkpt>
      <trkpt lat="23.063848" lon="113.273835">
        <time>2026-05-20T22:17:56Z</time>
      </trkpt>
      <trkpt lat="23.06377" lon="113.273973">
        <time>2026-05-20T22:18:01Z</time>
      </trkpt>
      <trkpt lat="23.06371" lon="113.274059">
        <time>2026-05-20T22:18:06Z</time>
      </trkpt>
      <trkpt lat="23.063594" lon="113.274154">
        <time>2026-05-20T22:18:11Z</time>
      </trkpt>
      <trkpt lat="23.063534" lon="113.27424">
        <time>2026-05-20T22:18:16Z</time>
      </trkpt>
      <trkpt lat="23.063473" lon="113.274409">
        <time>2026-05-20T22:18:21Z</time>
      </trkpt>
      <trkpt lat="23.063431" lon="113.274518">
        <time>2026-05-20T22:18:26Z</time>
      </trkpt>
      <trkpt lat="23.063367" lon="113.274688">
        <time>2026-05-20T22:18:31Z</time>
      </trkpt>
      <trkpt lat="23.063324" lon="113.274798">
        <time>2026-05-20T22:18:36Z</time>
      </trkpt>
      <trkpt lat="23.063268" lon="113.274962">
        <time>2026-05-20T22:18:41Z</time>
      </trkpt>
      <trkpt lat="23.063225" lon="113.275069">
        <time>2026-05-20T22:18:46Z</time>
      </trkpt>
      <trkpt lat="23.063141" lon="113.275217">
        <time>2026-05-20T22:18:51Z</time>
      </trkpt>
      <trkpt lat="23.063081" lon="113.275307">
        <time>2026-05-20T22:18:56Z</time>
      </trkpt>
      <trkpt lat="23.063" lon="113.27545">
        <time>2026-05-20T22:19:01Z</time>
      </trkpt>
      <trkpt lat="23.062937" lon="113.275544">
        <time>2026-05-20T22:19:06Z</time>
      </trkpt>
      <trkpt lat="23.062824" lon="113.27567">
        <time>2026-05-20T22:19:11Z</time>
      </trkpt>
      <trkpt lat="23.062744" lon="113.275743">
        <time>2026-05-20T22:19:16Z</time>
      </trkpt>
      <trkpt lat="23.062626" lon="113.275848">
        <time>2026-05-20T22:19:21Z</time>
      </trkpt>
      <trkpt lat="23.062562" lon="113.275937">
        <time>2026-05-20T22:19:26Z</time>
      </trkpt>
      <trkpt lat="23.06248" lon="113.276075">
        <time>2026-05-20T22:19:31Z</time>
      </trkpt>
      <trkpt lat="23.06243" lon="113.27617">
        <time>2026-05-20T22:19:36Z</time>
      </trkpt>
      <trkpt lat="23.062372" lon="113.276314">
        <time>2026-05-20T22:19:41Z</time>
      </trkpt>
      <trkpt lat="23.062334" lon="113.276412">
        <time>2026-05-20T22:19:46Z</time>
      </trkpt>
      <trkpt lat="23.06228" lon="113.276562">
        <time>2026-05-20T22:19:51Z</time>
      </trkpt>
      <trkpt lat="23.062248" lon="113.276667">
        <time>2026-05-20T22:19:56Z</time>
      </trkpt>
      <trkpt lat="23.062201" lon="113.276823">
        <time>2026-05-20T22:20:01Z</time>
      </trkpt>
      <trkpt lat="23.062164" lon="113.276925">
        <time>2026-05-20T22:20:06Z</time>
      </trkpt>
      <trkpt lat="23.062103" lon="113.277083">
        <time>2026-05-20T22:20:11Z</time>
      </trkpt>
      <trkpt lat="23.062056" lon="113.27719">
        <time>2026-05-20T22:20:16Z</time>
      </trkpt>
      <trkpt lat="23.061993" lon="113.27735">
        <time>2026-05-20T22:20:21Z</time>
      </trkpt>
      <trkpt lat="23.06195" lon="113.277455">
        <time>2026-05-20T22:20:26Z</time>
      </trkpt>
      <trkpt lat="23.061895" lon="113.277617">
        <time>2026-05-20T22:20:31Z</time>
      </trkpt>
      <trkpt lat="23.061862" lon="113.277721">
        <time>2026-05-20T22:20:36Z</time>
      </trkpt>
      <trkpt lat="23.06184" lon="113.277879">
        <time>2026-05-20T22:20:41Z</time>
      </trkpt>
      <trkpt lat="23.061835" lon="113.277983">
        <time>2026-05-20T22:20:46Z</time>
      </trkpt>
      <trkpt lat="23.061843" lon="113.278139">
        <time>2026-05-20T22:20:51Z</time>
      </trkpt>
      <trkpt lat="23.061845" lon="113.278247">
        <time>2026-05-20T22:20:56Z</time>
      </trkpt>
      <trkpt lat="23.061849" lon="113.278404">
        <time>2026-05-20T22:21:01Z</time>
      </trkpt>
      <trkpt lat="23.061856" lon="113.278509">
        <time>2026-05-20T22:21:06Z</time>
      </trkpt>
      <trkpt lat="23.061848" lon="113.278671">
        <time>2026-05-20T22:21:11Z</time>
      </trkpt>
      <trkpt lat="23.061827" lon="113.278778">
        <time>2026-05-20T22:21:16Z</time>
      </trkpt>
      <trkpt lat="23.061759" lon="113.278927">
        <time>2026-05-20T22:21:21Z</time>
      </trkpt>
      <trkpt lat="23.061706" lon="113.279025">
        <time>2026-05-20T22:21:26Z</time>
      </trkpt>
      <trkpt lat="23.06163" lon="113.279172">
        <time>2026-05-20T22:21:31Z</time>
      </trkpt>
      <trkpt lat="23.061586" lon="113.279274">
        <time>2026-05-20T22:21:36Z</time>
      </trkpt>
      <trkpt lat="23.061529" lon="113.279425">
        <time>2026-05-20T22:21:41Z</time>
      </trkpt>
      <trkpt lat="23.061492" lon="113.279526">
        <time>2026-05-20T22:21:46Z</time>
      </trkpt>
      <trkpt lat="23.061429" lon="113.279673">
        <time>2026-05-20T22:21:51Z</time>
      </trkpt>
      <trkpt lat="23.061387" lon="113.279776">
        <time>2026-05-20T22:21:56Z</time>
      </trkpt>
      <trkpt lat="23.061328" lon="113.279925">
        <time>2026-05-20T22:22:01Z</time>
      </trkpt>
      <trkpt lat="23.061285" lon="113.280029">
        <time>2026-05-20T22:22:06Z</time>
      </trkpt>
      <trkpt lat="23.061214" lon="113.280188">
        <time>2026-05-20T22:22:11Z</time>
      </trkpt>
      <trkpt lat="23.06117" lon="113.280299">
        <time>2026-05-20T22:22:16Z</time>
      </trkpt>
      <trkpt lat="23.061096" lon="113.280461">
        <time>2026-05-20T22:22:21Z</time>
      </trkpt>
      <trkpt lat="23.061044" lon="113.280562">
        <time>2026-05-20T22:22:26Z</time>
      </trkpt>
      <trkpt lat="23.060971" lon="113.280718">
        <time>2026-05-20T22:22:31Z</time>
      </trkpt>
      <trkpt lat="23.06093" lon="113.280828">
        <time>2026-05-20T22:22:36Z</time>
      </trkpt>
      <trkpt lat="23.06087" lon="113.280984">
        <time>2026-05-20T22:22:41Z</time>
      </trkpt>
      <trkpt lat="23.060825" lon="113.281088">
        <time>2026-05-20T22:22:46Z</time>
      </trkpt>
      <trkpt lat="23.060765" lon="113.281245">
        <time>2026-05-20T22:22:51Z</time>
      </trkpt>
      <trkpt lat="23.060721" lon="113.281343">
        <time>2026-05-20T22:22:56Z</time>
      </trkpt>
      <trkpt lat="23.060655" lon="113.281492">
        <time>2026-05-20T22:23:01Z</time>
      </trkpt>
      <trkpt lat="23.060608" lon="113.281594">
        <time>2026-05-20T22:23:06Z</time>
      </trkpt>
      <trkpt lat="23.060542" lon="113.281744">
        <time>2026-05-20T22:23:11Z</time>
      </trkpt>
      <trkpt lat="23.060499" lon="113.281843">
        <time>2026-05-20T22:23:16Z</time>
      </trkpt>
      <trkpt lat="23.060433" lon="113.281998">
        <time>2026-05-20T22:23:21Z</time>
      </trkpt>
      <trkpt lat="23.060388" lon="113.282103">
        <time>2026-05-20T22:23:26Z</time>
      </trkpt>
      <trkpt lat="23.060323" lon="113.282267">
        <time>2026-05-20T22:23:31Z</time>
      </trkpt>
      <trkpt lat="23.060276" lon="113.282372">
        <time>2026-05-20T22:23:36Z</time>
      </trkpt>
      <trkpt lat="23.060204" lon="113.282525">
        <time>2026-05-20T22:23:41Z</time>
      </trkpt>
      <trkpt lat="23.060163" lon="113.282625">
        <time>2026-05-20T22:23:46Z</time>
      </trkpt>
      <trkpt lat="23.060101" lon="113.282774">
        <time>2026-05-20T22:23:51Z</time>
      </trkpt>
      <trkpt lat="23.06006" lon="113.282874">
        <time>2026-05-20T22:23:56Z</time>
      </trkpt>
      <trkpt lat="23.059993" lon="113.283029">
        <time>2026-05-20T22:24:01Z</time>
      </trkpt>
      <trkpt lat="23.059949" lon="113.283132">
        <time>2026-05-20T22:24:06Z</time>
      </trkpt>
      <trkpt lat="23.059888" lon="113.283293">
        <time>2026-05-20T22:24:11Z</time>
      </trkpt>
      <trkpt lat="23.059845" lon="113.283404">
        <time>2026-05-20T22:24:16Z</time>
      </trkpt>
      <trkpt lat="23.059779" lon="113.283559">
        <time>2026-05-20T22:24:21Z</time>
      </trkpt>
      <trkpt lat="23.059802" lon="113.283606">
        <time>2026-05-20T22:24:26Z</time>
      </trkpt>
      <trkpt lat="23.059909" lon="113.283482">
        <time>2026-05-20T22:24:31Z</time>
      </trkpt>
      <trkpt lat="23.059963" lon="113.283375">
        <time>2026-05-20T22:24:36Z</time>
      </trkpt>
      <trkpt lat="23.060043" lon="113.283223">
        <time>2026-05-20T22:24:41Z</time>
      </trkpt>
      <trkpt lat="23.060104" lon="113.283121">
        <time>2026-05-20T22:24:46Z</time>
      </trkpt>
      <trkpt lat="23.060175" lon="113.282962">
        <time>2026-05-20T22:24:51Z</time>
      </trkpt>
      <trkpt lat="23.060219" lon="113.282862">
        <time>2026-05-20T22:24:56Z</time>
      </trkpt>
      <trkpt lat="23.060291" lon="113.282712">
        <time>2026-05-20T22:25:01Z</time>
      </trkpt>
      <trkpt lat="23.060329" lon="113.282607">
        <time>2026-05-20T22:25:06Z</time>
      </trkpt>
      <trkpt lat="23.060379" lon="113.282455">
        <time>2026-05-20T22:25:11Z</time>
      </trkpt>
      <trkpt lat="23.060412" lon="113.282354">
        <time>2026-05-20T22:25:16Z</time>
      </trkpt>
      <trkpt lat="23.060459" lon="113.282204">
        <time>2026-05-20T22:25:21Z</time>
      </trkpt>
      <trkpt lat="23.060494" lon="113.282102">
        <time>2026-05-20T22:25:26Z</time>
      </trkpt>
      <trkpt lat="23.060553" lon="113.281951">
        <time>2026-05-20T22:25:31Z</time>
      </trkpt>
      <trkpt lat="23.0606" lon="113.28185">
        <time>2026-05-20T22:25:36Z</time>
      </trkpt>
      <trkpt lat="23.060663" lon="113.281701">
        <time>2026-05-20T22:25:41Z</time>
      </trkpt>
      <trkpt lat="23.0607" lon="113.281603">
        <time>2026-05-20T22:25:46Z</time>
      </trkpt>
      <trkpt lat="23.060759" lon="113.281461">
        <time>2026-05-20T22:25:51Z</time>
      </trkpt>
      <trkpt lat="23.060802" lon="113.281361">
        <time>2026-05-20T22:25:56Z</time>
      </trkpt>
      <trkpt lat="23.060867" lon="113.281205">
        <time>2026-05-20T22:26:01Z</time>
      </trkpt>
      <trkpt lat="23.060911" lon="113.281105">
        <time>2026-05-20T22:26:06Z</time>
      </trkpt>
      <trkpt lat="23.060974" lon="113.280957">
        <time>2026-05-20T22:26:11Z</time>
      </trkpt>
      <trkpt lat="23.061018" lon="113.280858">
        <time>2026-05-20T22:26:16Z</time>
      </trkpt>
      <trkpt lat="23.061075" lon="113.280709">
        <time>2026-05-20T22:26:21Z</time>
      </trkpt>
      <trkpt lat="23.061126" lon="113.280609">
        <time>2026-05-20T22:26:26Z</time>
      </trkpt>
      <trkpt lat="23.061204" lon="113.280453">
        <time>2026-05-20T22:26:31Z</time>
      </trkpt>
      <trkpt lat="23.061247" lon="113.280349">
        <time>2026-05-20T22:26:36Z</time>
      </trkpt>
      <trkpt lat="23.061318" lon="113.280198">
        <time>2026-05-20T22:26:41Z</time>
      </trkpt>
      <trkpt lat="23.061367" lon="113.280104">
        <time>2026-05-20T22:26:46Z</time>
      </trkpt>
      <trkpt lat="23.061417" lon="113.27995">
        <time>2026-05-20T22:26:51Z</time>
      </trkpt>
      <trkpt lat="23.061457" lon="113.279857">
        <time>2026-05-20T22:26:56Z</time>
      </trkpt>
      <trkpt lat="23.061524" lon="113.279715">
        <time>2026-05-20T22:27:01Z</time>
      </trkpt>
      <trkpt lat="23.061561" lon="113.279618">
        <time>2026-05-20T22:27:06Z</time>
      </trkpt>
      <trkpt lat="23.061619" lon="113.279464">
        <time>2026-05-20T22:27:11Z</time>
      </trkpt>
      <trkpt lat="23.061661" lon="113.279355">
        <time>2026-05-20T22:27:16Z</time>
      </trkpt>
      <trkpt lat="23.061733" lon="113.279193">
        <time>2026-05-20T22:27:21Z</time>
      </trkpt>
      <trkpt lat="23.061788" lon="113.279088">
        <time>2026-05-20T22:27:26Z</time>
      </trkpt>
      <trkpt lat="23.061879" lon="113.278951">
        <time>2026-05-20T22:27:31Z</time>
      </trkpt>
      <trkpt lat="23.061938" lon="113.278863">
        <time>2026-05-20T22:27:36Z</time>
      </trkpt>
      <trkpt lat="23.061989" lon="113.278707">
        <time>2026-05-20T22:27:41Z</time>
      </trkpt>
      <trkpt lat="23.061992" lon="113.278595">
        <time>2026-05-20T22:27:46Z</time>
      </trkpt>
      <trkpt lat="23.061979" lon="113.278423">
        <time>2026-05-20T22:27:51Z</time>
      </trkpt>
      <trkpt lat="23.061967" lon="113.278309">
        <time>2026-05-20T22:27:56Z</time>
      </trkpt>
      <trkpt lat="23.061951" lon="113.278133">
        <time>2026-05-20T22:28:01Z</time>
      </trkpt>
      <trkpt lat="23.061944" lon="113.278016">
        <time>2026-05-20T22:28:06Z</time>
      </trkpt>
      <trkpt lat="23.061939" lon="113.277844">
        <time>2026-05-20T22:28:11Z</time>
      </trkpt>
      <trkpt lat="23.061952" lon="113.277733">
        <time>2026-05-20T22:28:16Z</time>
      </trkpt>
      <trkpt lat="23.062002" lon="113.277567">
        <time>2026-05-20T22:28:21Z</time>
      </trkpt>
      <trkpt lat="23.062046" lon="113.277459">
        <time>2026-05-20T22:28:26Z</time>
      </trkpt>
      <trkpt lat="23.06211" lon="113.277304">
        <time>2026-05-20T22:28:31Z</time>
      </trkpt>
      <trkpt lat="23.06215" lon="113.2772">
        <time>2026-05-20T22:28:36Z</time>
      </trkpt>
      <trkpt lat="23.062198" lon="113.277041">
        <time>2026-05-20T22:28:41Z</time>
      </trkpt>
      <trkpt lat="23.062242" lon="113.276945">
        <time>2026-05-20T22:28:46Z</time>
      </trkpt>
      <trkpt lat="23.062306" lon="113.276798">
        <time>2026-05-20T22:28:51Z</time>
      </trkpt>
      <trkpt lat="23.062348" lon="113.276695">
        <time>2026-05-20T22:28:56Z</time>
      </trkpt>
      <trkpt lat="23.06241" lon="113.276536">
        <time>2026-05-20T22:29:01Z</time>
      </trkpt>
      <trkpt lat="23.062447" lon="113.276428">
        <time>2026-05-20T22:29:06Z</time>
      </trkpt>
      <trkpt lat="23.062506" lon="113.276267">
        <time>2026-05-20T22:29:11Z</time>
      </trkpt>
      <trkpt lat="23.062552" lon="113.276164">
        <time>2026-05-20T22:29:16Z</time>
      </trkpt>
      <trkpt lat="23.062633" lon="113.276014">
        <time>2026-05-20T22:29:21Z</time>
      </trkpt>
      <trkpt lat="23.062698" lon="113.275925">
        <time>2026-05-20T22:29:26Z</time>
      </trkpt>
      <trkpt lat="23.0628" lon="113.275798">
        <time>2026-05-20T22:29:31Z</time>
      </trkpt>
      <trkpt lat="23.062878" lon="113.275723">
        <time>2026-05-20T22:29:36Z</time>
      </trkpt>
      <trkpt lat="23.062999" lon="113.275608">
        <time>2026-05-20T22:29:41Z</time>
      </trkpt>
      <trkpt lat="23.063065" lon="113.275508">
        <time>2026-05-20T22:29:46Z</time>
      </trkpt>
      <trkpt lat="23.063152" lon="113.275353">
        <time>2026-05-20T22:29:51Z</time>
      </trkpt>
      <trkpt lat="23.063213" lon="113.27526">
        <time>2026-05-20T22:29:56Z</time>
      </trkpt>
      <trkpt lat="23.063314" lon="113.275119">
        <time>2026-05-20T22:30:01Z</time>
      </trkpt>
      <trkpt lat="23.063366" lon="113.275011">
        <time>2026-05-20T22:30:06Z</time>
      </trkpt>
      <trkpt lat="23.063411" lon="113.274839">
        <time>2026-05-20T22:30:11Z</time>
      </trkpt>
      <trkpt lat="23.063438" lon="113.274731">
        <time>2026-05-20T22:30:16Z</time>
      </trkpt>
      <trkpt lat="23.06348" lon="113.274582">
        <time>2026-05-20T22:30:21Z</time>
      </trkpt>
      <trkpt lat="23.063509" lon="113.274475">
        <time>2026-05-20T22:30:26Z</time>
      </trkpt>
      <trkpt lat="23.063575" lon="113.274318">
        <time>2026-05-20T22:30:31Z</time>
      </trkpt>
      <trkpt lat="23.06365" lon="113.274242">
        <time>2026-05-20T22:30:36Z</time>
      </trkpt>
      <trkpt lat="23.063801" lon="113.274166">
        <time>2026-05-20T22:30:41Z</time>
      </trkpt>
      <trkpt lat="23.063869" lon="113.274087">
        <time>2026-05-20T22:30:46Z</time>
      </trkpt>
      <trkpt lat="23.063931" lon="113.273932">
        <time>2026-05-20T22:30:51Z</time>
      </trkpt>
      <trkpt lat="23.063981" lon="113.273836">
        <time>2026-05-20T22:30:56Z</time>
      </trkpt>
      <trkpt lat="23.064089" lon="113.273712">
        <time>2026-05-20T22:31:01Z</time>
      </trkpt>
      <trkpt lat="23.064178" lon="113.273647">
        <time>2026-05-20T22:31:06Z</time>
      </trkpt>
      <trkpt lat="23.064305" lon="113.273551">
        <time>2026-05-20T22:31:11Z</time>
      </trkpt>
      <trkpt lat="23.06439" lon="113.273487">
        <time>2026-05-20T22:31:16Z</time>
      </trkpt>
      <trkpt lat="23.064507" lon="113.273375">
        <time>2026-05-20T22:31:21Z</time>
      </trkpt>
      <trkpt lat="23.064572" lon="113.273282">
        <time>2026-05-20T22:31:26Z</time>
      </trkpt>
      <trkpt lat="23.064607" lon="113.273113">
        <time>2026-05-20T22:31:31Z</time>
      </trkpt>
      <trkpt lat="23.064583" lon="113.272992">
        <time>2026-05-20T22:31:36Z</time>
      </trkpt>
      <trkpt lat="23.064521" lon="113.272819">
        <time>2026-05-20T22:31:41Z</time>
      </trkpt>
      <trkpt lat="23.064485" lon="113.272712">
        <time>2026-05-20T22:31:46Z</time>
      </trkpt>
      <trkpt lat="23.064468" lon="113.272549">
        <time>2026-05-20T22:31:51Z</time>
      </trkpt>
      <trkpt lat="23.06451" lon="113.272445">
        <time>2026-05-20T22:31:56Z</time>
      </trkpt>
      <trkpt lat="23.064572" lon="113.27228">
        <time>2026-05-20T22:32:01Z</time>
      </trkpt>
      <trkpt lat="23.064598" lon="113.27217">
        <time>2026-05-20T22:32:06Z</time>
      </trkpt>
      <trkpt lat="23.064647" lon="113.272017">
        <time>2026-05-20T22:32:11Z</time>
      </trkpt>
      <trkpt lat="23.064695" lon="113.271921">
        <time>2026-05-20T22:32:16Z</time>
      </trkpt>
      <trkpt lat="23.064774" lon="113.271767">
        <time>2026-05-20T22:32:21Z</time>
      </trkpt>
      <trkpt lat="23.064823" lon="113.271662">
        <time>2026-05-20T22:32:26Z</time>
      </trkpt>
      <trkpt lat="23.064892" lon="113.271503">
        <time>2026-05-20T22:32:31Z</time>
      </trkpt>
      <trkpt lat="23.064938" lon="113.271402">
        <time>2026-05-20T22:32:36Z</time>
      </trkpt>
      <trkpt lat="23.065009" lon="113.271247">
        <time>2026-05-20T22:32:41Z</time>
      </trkpt>
      <trkpt lat="23.065066" lon="113.271143">
        <time>2026-05-20T22:32:46Z</time>
      </trkpt>
      <trkpt lat="23.065144" lon="113.270983">
        <time>2026-05-20T22:32:51Z</time>
      </trkpt>
      <trkpt lat="23.065187" lon="113.270878">
        <time>2026-05-20T22:32:56Z</time>
      </trkpt>
      <trkpt lat="23.065253" lon="113.270726">
        <time>2026-05-20T22:33:01Z</time>
      </trkpt>
      <trkpt lat="23.065301" lon="113.270628">
        <time>2026-05-20T22:33:06Z</time>
      </trkpt>
      <trkpt lat="23.065365" lon="113.270482">
        <time>2026-05-20T22:33:11Z</time>
      </trkpt>
      <trkpt lat="23.065407" lon="113.270385">
        <time>2026-05-20T22:33:16Z</time>
      </trkpt>
      <trkpt lat="23.065473" lon="113.270235">
        <time>2026-05-20T22:33:21Z</time>
      </trkpt>
      <trkpt lat="23.065515" lon="113.270131">
        <time>2026-05-20T22:33:26Z</time>
      </trkpt>
      <trkpt lat="23.065574" lon="113.269984">
        <time>2026-05-20T22:33:31Z</time>
      </trkpt>
      <trkpt lat="23.065606" lon="113.269881">
        <time>2026-05-20T22:33:36Z</time>
      </trkpt>
      <trkpt lat="23.065647" lon="113.269718">
        <time>2026-05-20T22:33:41Z</time>
      </trkpt>
      <trkpt lat="23.065682" lon="113.269603">
        <time>2026-05-20T22:33:46Z</time>
      </trkpt>
      <trkpt lat="23.065727" lon="113.269433">
        <time>2026-05-20T22:33:51Z</time>
      </trkpt>
      <trkpt lat="23.065752" lon="113.269325">
        <time>2026-05-20T22:33:56Z</time>
      </trkpt>
      <trkpt lat="23.065803" lon="113.269162">
        <time>2026-05-20T22:34:01Z</time>
      </trkpt>
      <trkpt lat="23.06584" lon="113.269055">
        <time>2026-05-20T22:34:06Z</time>
      </trkpt>
      <trkpt lat="23.065912" lon="113.268897">
        <time>2026-05-20T22:34:11Z</time>
      </trkpt>
      <trkpt lat="23.065955" lon="113.268792">
        <time>2026-05-20T22:34:16Z</time>
      </trkpt>
      <trkpt lat="23.066023" lon="113.268644">
        <time>2026-05-20T22:34:21Z</time>
      </trkpt>
      <trkpt lat="23.066071" lon="113.268545">
        <time>2026-05-20T22:34:26Z</time>
      </trkpt>
      <trkpt lat="23.066155" lon="113.268408">
        <time>2026-05-20T22:34:31Z</time>
      </trkpt>
      <trkpt lat="23.066226" lon="113.268328">
        <time>2026-05-20T22:34:36Z</time>
      </trkpt>
      <trkpt lat="23.06634" lon="113.268204">
        <time>2026-05-20T22:34:41Z</time>
      </trkpt>
      <trkpt lat="23.066432" lon="113.268147">
        <time>2026-05-20T22:34:46Z</time>
      </trkpt>
      <trkpt lat="23.066589" lon="113.268132">
        <time>2026-05-20T22:34:51Z</time>
      </trkpt>
      <trkpt lat="23.066667" lon="113.268099">
        <time>2026-05-20T22:34:56Z</time>
      </trkpt>
      <trkpt lat="23.066559" lon="113.267996">
        <time>2026-05-20T22:35:01Z</time>
      </trkpt>
      <trkpt lat="23.066432" lon="113.267973">
        <time>2026-05-20T22:35:06Z</time>
      </trkpt>
      <trkpt lat="23.066265" lon="113.267991">
        <time>2026-05-20T22:35:11Z</time>
      </trkpt>
      <trkpt lat="23.066176" lon="113.268045">
        <time>2026-05-20T22:35:16Z</time>
      </trkpt>
      <trkpt lat="23.066069" lon="113.268165">
        <time>2026-05-20T22:35:21Z</time>
      </trkpt>
      <trkpt lat="23.066004" lon="113.268247">
        <time>2026-05-20T22:35:26Z</time>
      </trkpt>
      <trkpt lat="23.0659" lon="113.268374">
        <time>2026-05-20T22:35:31Z</time>
      </trkpt>
      <trkpt lat="23.065844" lon="113.268471">
        <time>2026-05-20T22:35:36Z</time>
      </trkpt>
      <trkpt lat="23.065766" lon="113.268615">
        <time>2026-05-20T22:35:41Z</time>
      </trkpt>
      <trkpt lat="23.065722" lon="113.268717">
        <time>2026-05-20T22:35:46Z</time>
      </trkpt>
      <trkpt lat="23.065661" lon="113.268875">
        <time>2026-05-20T22:35:51Z</time>
      </trkpt>
      <trkpt lat="23.065624" lon="113.26898">
        <time>2026-05-20T22:35:56Z</time>
      </trkpt>
      <trkpt lat="23.065574" lon="113.269146">
        <time>2026-05-20T22:36:01Z</time>
      </trkpt>
      <trkpt lat="23.065542" lon="113.269257">
        <time>2026-05-20T22:36:06Z</time>
      </trkpt>
      <trkpt lat="23.065501" lon="113.269422">
        <time>2026-05-20T22:36:11Z</time>
      </trkpt>
      <trkpt lat="23.065476" lon="113.269532">
        <time>2026-05-20T22:36:16Z</time>
      </trkpt>
      <trkpt lat="23.065438" lon="113.269695">
        <time>2026-05-20T22:36:21Z</time>
      </trkpt>
      <trkpt lat="23.065408" lon="113.269805">
        <time>2026-05-20T22:36:26Z</time>
      </trkpt>
      <trkpt lat="23.065357" lon="113.269968">
        <time>2026-05-20T22:36:31Z</time>
      </trkpt>
      <trkpt lat="23.06532" lon="113.270078">
        <time>2026-05-20T22:36:36Z</time>
      </trkpt>
      <trkpt lat="23.065249" lon="113.270237">
        <time>2026-05-20T22:36:41Z</time>
      </trkpt>
      <trkpt lat="23.065197" lon="113.270342">
        <time>2026-05-20T22:36:46Z</time>
      </trkpt>
      <trkpt lat="23.065122" lon="113.270494">
        <time>2026-05-20T22:36:51Z</time>
      </trkpt>
      <trkpt lat="23.065076" lon="113.270588">
        <time>2026-05-20T22:36:56Z</time>
      </trkpt>
      <trkpt lat="23.065019" lon="113.270732">
        <time>2026-05-20T22:37:01Z</time>
      </trkpt>
      <trkpt lat="23.064972" lon="113.270834">
        <time>2026-05-20T22:37:06Z</time>
      </trkpt>
      <trkpt lat="23.064902" lon="113.270988">
        <time>2026-05-20T22:37:11Z</time>
      </trkpt>
      <trkpt lat="23.064856" lon="113.271087">
        <time>2026-05-20T22:37:16Z</time>
      </trkpt>
      <trkpt lat="23.064782" lon="113.27124">
        <time>2026-05-20T22:37:21Z</time>
      </trkpt>
      <trkpt lat="23.064736" lon="113.271344">
        <time>2026-05-20T22:37:26Z</time>
      </trkpt>
      <trkpt lat="23.064666" lon="113.271493">
        <time>2026-05-20T22:37:31Z</time>
      </trkpt>
      <trkpt lat="23.064616" lon="113.271591">
        <time>2026-05-20T22:37:36Z</time>
      </trkpt>
      <trkpt lat="23.064539" lon="113.271743">
        <time>2026-05-20T22:37:41Z</time>
      </trkpt>
      <trkpt lat="23.064498" lon="113.271844">
        <time>2026-05-20T22:37:46Z</time>
      </trkpt>
      <trkpt lat="23.064432" lon="113.271998">
        <time>2026-05-20T22:37:51Z</time>
      </trkpt>
      <trkpt lat="23.064386" lon="113.2721">
        <time>2026-05-20T22:37:56Z</time>
      </trkpt>
      <trkpt lat="23.064336" lon="113.272263">
        <time>2026-05-20T22:38:01Z</time>
      </trkpt>
      <trkpt lat="23.064328" lon="113.272372">
        <time>2026-05-20T22:38:06Z</time>
      </trkpt>
      <trkpt lat="23.064317" lon="113.272533">
        <time>2026-05-20T22:38:11Z</time>
      </trkpt>
      <trkpt lat="23.064321" lon="113.272644">
        <time>2026-05-20T22:38:16Z</time>
      </trkpt>
      <trkpt lat="23.064369" lon="113.272801">
        <time>2026-05-20T22:38:21Z</time>
      </trkpt>
      <trkpt lat="23.064404" lon="113.272899">
        <time>2026-05-20T22:38:26Z</time>
      </trkpt>
      <trkpt lat="23.064454" lon="113.273051">
        <time>2026-05-20T22:38:31Z</time>
      </trkpt>
      <trkpt lat="23.06447" lon="113.273156">
        <time>2026-05-20T22:38:36Z</time>
      </trkpt>
      <trkpt lat="23.06442" lon="113.273304">
        <time>2026-05-20T22:38:41Z</time>
      </trkpt>
      <trkpt lat="23.06434" lon="113.273372">
        <time>2026-05-20T22:38:46Z</time>
      </trkpt>
      <trkpt lat="23.064217" lon="113.273462">
        <time>2026-05-20T22:38:51Z</time>
      </trkpt>
      <trkpt lat="23.064139" lon="113.273524">
        <time>2026-05-20T22:38:56Z</time>
      </trkpt>
      <trkpt lat="23.064011" lon="113.273618">
        <time>2026-05-20T22:39:01Z</time>
      </trkpt>
      <trkpt lat="23.063932" lon="113.273699">
        <time>2026-05-20T22:39:06Z</time>
      </trkpt>
      <trkpt lat="23.063837" lon="113.273833">
        <time>2026-05-20T22:39:11Z</time>
      </trkpt>
      <trkpt lat="23.063779" lon="113.273931">
        <time>2026-05-20T22:39:16Z</time>
      </trkpt>
      <trkpt lat="23.063682" lon="113.274069">
        <time>2026-05-20T22:39:21Z</time>
      </trkpt>
      <trkpt lat="23.063602" lon="113.274132">
        <time>2026-05-20T22:39:26Z</time>
      </trkpt>
      <trkpt lat="23.063501" lon="113.274257">
        <time>2026-05-20T22:39:31Z</time>
      </trkpt>
      <trkpt lat="23.063453" lon="113.274365">
        <time>2026-05-20T22:39:36Z</time>
      </trkpt>
      <trkpt lat="23.063399" lon="113.27453">
        <time>2026-05-20T22:39:41Z</time>
      </trkpt>
      <trkpt lat="23.063365" lon="113.274648">
        <time>2026-05-20T22:39:46Z</time>
      </trkpt>
      <trkpt lat="23.063309" lon="113.274815">
        <time>2026-05-20T22:39:51Z</time>
      </trkpt>
      <trkpt lat="23.063273" lon="113.274922">
        <time>2026-05-20T22:39:56Z</time>
      </trkpt>
      <trkpt lat="23.063204" lon="113.27508">
        <time>2026-05-20T22:40:01Z</time>
      </trkpt>
      <trkpt lat="23.063148" lon="113.275175">
        <time>2026-05-20T22:40:06Z</time>
      </trkpt>
      <trkpt lat="23.063066" lon="113.275315">
        <time>2026-05-20T22:40:11Z</time>
      </trkpt>
      <trkpt lat="23.063012" lon="113.275409">
        <time>2026-05-20T22:40:16Z</time>
      </trkpt>
      <trkpt lat="23.06292" lon="113.275549">
        <time>2026-05-20T22:40:21Z</time>
      </trkpt>
      <trkpt lat="23.062851" lon="113.275634">
        <time>2026-05-20T22:40:26Z</time>
      </trkpt>
      <trkpt lat="23.062728" lon="113.275745">
        <time>2026-05-20T22:40:31Z</time>
      </trkpt>
      <trkpt lat="23.062653" lon="113.275828">
        <time>2026-05-20T22:40:36Z</time>
      </trkpt>
      <trkpt lat="23.06255" lon="113.275965">
        <time>2026-05-20T22:40:41Z</time>
      </trkpt>
      <trkpt lat="23.062491" lon="113.276062">
        <time>2026-05-20T22:40:46Z</time>
      </trkpt>
      <trkpt lat="23.062417" lon="113.276213">
        <time>2026-05-20T22:40:51Z</time>
      </trkpt>
      <trkpt lat="23.062376" lon="113.276322">
        <time>2026-05-20T22:40:56Z</time>
      </trkpt>
      <trkpt lat="23.062317" lon="113.276486">
        <time>2026-05-20T22:41:01Z</time>
      </trkpt>
      <trkpt lat="23.062275" lon="113.276594">
        <time>2026-05-20T22:41:06Z</time>
      </trkpt>
      <trkpt lat="23.062216" lon="113.276755">
        <time>2026-05-20T22:41:11Z</time>
      </trkpt>
      <trkpt lat="23.062175" lon="113.276862">
        <time>2026-05-20T22:41:16Z</time>
      </trkpt>
      <trkpt lat="23.062119" lon="113.277021">
        <time>2026-05-20T22:41:21Z</time>
      </trkpt>
      <trkpt lat="23.062081" lon="113.27713">
        <time>2026-05-20T22:41:26Z</time>
      </trkpt>
      <trkpt lat="23.062017" lon="113.277298">
        <time>2026-05-20T22:41:31Z</time>
      </trkpt>
      <trkpt lat="23.061975" lon="113.277408">
        <time>2026-05-20T22:41:36Z</time>
      </trkpt>
      <trkpt lat="23.061911" lon="113.27757">
        <time>2026-05-20T22:41:41Z</time>
      </trkpt>
      <trkpt lat="23.061864" lon="113.27768">
        <time>2026-05-20T22:41:46Z</time>
      </trkpt>
      <trkpt lat="23.061825" lon="113.277852">
        <time>2026-05-20T22:41:51Z</time>
      </trkpt>
      <trkpt lat="23.061819" lon="113.277968">
        <time>2026-05-20T22:41:56Z</time>
      </trkpt>
      <trkpt lat="23.061834" lon="113.278136">
        <time>2026-05-20T22:42:01Z</time>
      </trkpt>
      <trkpt lat="23.061839" lon="113.27825">
        <time>2026-05-20T22:42:06Z</time>
      </trkpt>
      <trkpt lat="23.061849" lon="113.278419">
        <time>2026-05-20T22:42:11Z</time>
      </trkpt>
      <trkpt lat="23.061857" lon="113.278526">
        <time>2026-05-20T22:42:16Z</time>
      </trkpt>
      <trkpt lat="23.061843" lon="113.278693">
        <time>2026-05-20T22:42:21Z</time>
      </trkpt>
      <trkpt lat="23.061786" lon="113.278744">
        <time>2026-05-20T22:42:26Z</time>
      </trkpt>
      <trkpt lat="23.061694" lon="113.278854">
        <time>2026-05-20T22:42:31Z</time>
      </trkpt>
      <trkpt lat="23.061656" lon="113.278969">
        <time>2026-05-20T22:42:36Z</time>
      </trkpt>
      <trkpt lat="23.061593" lon="113.279131">
        <time>2026-05-20T22:42:41Z</time>
      </trkpt>
      <trkpt lat="23.061551" lon="113.279236">
        <time>2026-05-20T22:42:46Z</time>
      </trkpt>
      <trkpt lat="23.061483" lon="113.279393">
        <time>2026-05-20T22:42:51Z</time>
      </trkpt>
      <trkpt lat="23.061437" lon="113.279505">
        <time>2026-05-20T22:42:56Z</time>
      </trkpt>
      <trkpt lat="23.061372" lon="113.279672">
        <time>2026-05-20T22:43:01Z</time>
      </trkpt>
      <trkpt lat="23.061327" lon="113.279785">
        <time>2026-05-20T22:43:06Z</time>
      </trkpt>
      <trkpt lat="23.061263" lon="113.27996">
        <time>2026-05-20T22:43:11Z</time>
      </trkpt>
      <trkpt lat="23.061218" lon="113.280074">
        <time>2026-05-20T22:43:16Z</time>
      </trkpt>
      <trkpt lat="23.061138" lon="113.280235">
        <time>2026-05-20T22:43:21Z</time>
      </trkpt>
      <trkpt lat="23.06109" lon="113.280345">
        <time>2026-05-20T22:43:26Z</time>
      </trkpt>
      <trkpt lat="23.061017" lon="113.28051">
        <time>2026-05-20T22:43:31Z</time>
      </trkpt>
      <trkpt lat="23.060969" lon="113.280623">
        <time>2026-05-20T22:43:36Z</time>
      </trkpt>
      <trkpt lat="23.060899" lon="113.280789">
        <time>2026-05-20T22:43:41Z</time>
      </trkpt>
      <trkpt lat="23.060855" lon="113.280898">
        <time>2026-05-20T22:43:46Z</time>
      </trkpt>
      <trkpt lat="23.06079" lon="113.281065">
        <time>2026-05-20T22:43:51Z</time>
      </trkpt>
      <trkpt lat="23.060746" lon="113.281175">
        <time>2026-05-20T22:43:56Z</time>
      </trkpt>
      <trkpt lat="23.060681" lon="113.281335">
        <time>2026-05-20T22:44:01Z</time>
      </trkpt>
      <trkpt lat="23.060639" lon="113.281441">
        <time>2026-05-20T22:44:06Z</time>
      </trkpt>
      <trkpt lat="23.060574" lon="113.2816">
        <time>2026-05-20T22:44:11Z</time>
      </trkpt>
      <trkpt lat="23.060528" lon="113.281704">
        <time>2026-05-20T22:44:16Z</time>
      </trkpt>
      <trkpt lat="23.060457" lon="113.281865">
        <time>2026-05-20T22:44:21Z</time>
      </trkpt>
      <trkpt lat="23.060409" lon="113.281973">
        <time>2026-05-20T22:44:26Z</time>
      </trkpt>
      <trkpt lat="23.060336" lon="113.282134">
        <time>2026-05-20T22:44:31Z</time>
      </trkpt>
      <trkpt lat="23.060289" lon="113.282238">
        <time>2026-05-20T22:44:36Z</time>
      </trkpt>
      <trkpt lat="23.060227" lon="113.282396">
        <time>2026-05-20T22:44:41Z</time>
      </trkpt>
      <trkpt lat="23.060179" lon="113.282499">
        <time>2026-05-20T22:44:46Z</time>
      </trkpt>
      <trkpt lat="23.060105" lon="113.282652">
        <time>2026-05-20T22:44:51Z</time>
      </trkpt>
      <trkpt lat="23.060057" lon="113.282755">
        <time>2026-05-20T22:44:56Z</time>
      </trkpt>
      <trkpt lat="23.059984" lon="113.282918">
        <time>2026-05-20T22:45:01Z</time>
      </trkpt>
      <trkpt lat="23.059933" lon="113.283024">
        <time>2026-05-20T22:45:06Z</time>
      </trkpt>
      <trkpt lat="23.059859" lon="113.283185">
        <time>2026-05-20T22:45:11Z</time>
      </trkpt>
      <trkpt lat="23.059823" lon="113.283295">
        <time>2026-05-20T22:45:16Z</time>
      </trkpt>
      <trkpt lat="23.059889" lon="113.28339">
        <time>2026-05-20T22:45:21Z</time>
      </trkpt>
      <trkpt lat="23.059969" lon="113.283322">
        <time>2026-05-20T22:45:26Z</time>
      </trkpt>
      <trkpt lat="23.060051" lon="113.283165">
        <time>2026-05-20T22:45:31Z</time>
      </trkpt>
      <trkpt lat="23.06009" lon="113.28306">
        <time>2026-05-20T22:45:36Z</time>
      </trkpt>
      <trkpt lat="23.060155" lon="113.282896">
        <time>2026-05-20T22:45:41Z</time>
      </trkpt>
      <trkpt lat="23.060204" lon="113.282792">
        <time>2026-05-20T22:45:46Z</time>
      </trkpt>
      <trkpt lat="23.060275" lon="113.282636">
        <time>2026-05-20T22:45:51Z</time>
      </trkpt>
      <trkpt lat="23.060315" lon="113.282522">
        <time>2026-05-20T22:45:56Z</time>
      </trkpt>
      <trkpt lat="23.060381" lon="113.282359">
        <time>2026-05-20T22:46:01Z</time>
      </trkpt>
      <trkpt lat="23.060426" lon="113.282256">
        <time>2026-05-20T22:46:06Z</time>
      </trkpt>
      <trkpt lat="23.060489" lon="113.282103">
        <time>2026-05-20T22:46:11Z</time>
      </trkpt>
      <trkpt lat="23.060528" lon="113.282003">
        <time>2026-05-20T22:46:16Z</time>
      </trkpt>
      <trkpt lat="23.060587" lon="113.281856">
        <time>2026-05-20T22:46:21Z</time>
      </trkpt>
      <trkpt lat="23.060631" lon="113.281755">
        <time>2026-05-20T22:46:26Z</time>
      </trkpt>
      <trkpt lat="23.060702" lon="113.2816">
        <time>2026-05-20T22:46:31Z</time>
      </trkpt>
      <trkpt lat="23.060745" lon="113.2815">
        <time>2026-05-20T22:46:36Z</time>
      </trkpt>
      <trkpt lat="23.060808" lon="113.281349">
        <time>2026-05-20T22:46:41Z</time>
      </trkpt>
      <trkpt lat="23.060853" lon="113.281248">
        <time>2026-05-20T22:46:46Z</time>
      </trkpt>
      <trkpt lat="23.060928" lon="113.281097">
        <time>2026-05-20T22:46:51Z</time>
      </trkpt>
      <trkpt lat="23.060972" lon="113.280993">
        <time>2026-05-20T22:46:56Z</time>
      </trkpt>
      <trkpt lat="23.061038" lon="113.280834">
        <time>2026-05-20T22:47:01Z</time>
      </trkpt>
      <trkpt lat="23.061083" lon="113.280727">
        <time>2026-05-20T22:47:06Z</time>
      </trkpt>
      <trkpt lat="23.061157" lon="113.280567">
        <time>2026-05-20T22:47:11Z</time>
      </trkpt>
      <trkpt lat="23.061205" lon="113.280468">
        <time>2026-05-20T22:47:16Z</time>
      </trkpt>
      <trkpt lat="23.061268" lon="113.280318">
        <time>2026-05-20T22:47:21Z</time>
      </trkpt>
      <trkpt lat="23.061303" lon="113.280212">
        <time>2026-05-20T22:47:26Z</time>
      </trkpt>
      <trkpt lat="23.061374" lon="113.28007">
        <time>2026-05-20T22:47:31Z</time>
      </trkpt>
      <trkpt lat="23.061413" lon="113.27997">
        <time>2026-05-20T22:47:36Z</time>
      </trkpt>
      <trkpt lat="23.061475" lon="113.279812">
        <time>2026-05-20T22:47:41Z</time>
      </trkpt>
      <trkpt lat="23.061512" lon="113.279701">
        <time>2026-05-20T22:47:46Z</time>
      </trkpt>
      <trkpt lat="23.061564" lon="113.279538">
        <time>2026-05-20T22:47:51Z</time>
      </trkpt>
      <trkpt lat="23.061607" lon="113.279431">
        <time>2026-05-20T22:47:56Z</time>
      </trkpt>
      <trkpt lat="23.061676" lon="113.279269">
        <time>2026-05-20T22:48:01Z</time>
      </trkpt>
      <trkpt lat="23.061725" lon="113.279165">
        <time>2026-05-20T22:48:06Z</time>
      </trkpt>
      <trkpt lat="23.061822" lon="113.279025">
        <time>2026-05-20T22:48:11Z</time>
      </trkpt>
      <trkpt lat="23.061893" lon="113.278929">
        <time>2026-05-20T22:48:16Z</time>
      </trkpt>
      <trkpt lat="23.061968" lon="113.278763">
        <time>2026-05-20T22:48:21Z</time>
      </trkpt>
      <trkpt lat="23.06198" lon="113.278639">
        <time>2026-05-20T22:48:26Z</time>
      </trkpt>
      <trkpt lat="23.061969" lon="113.278456">
        <time>2026-05-20T22:48:31Z</time>
      </trkpt>
      <trkpt lat="23.06196" lon="113.278335">
        <time>2026-05-20T22:48:36Z</time>
      </trkpt>
      <trkpt lat="23.061951" lon="113.278147">
        <time>2026-05-20T22:48:41Z</time>
      </trkpt>
      <trkpt lat="23.061947" lon="113.278022">
        <time>2026-05-20T22:48:46Z</time>
      </trkpt>
      <trkpt lat="23.061944" lon="113.277841">
        <time>2026-05-20T22:48:51Z</time>
      </trkpt>
      <trkpt lat="23.061958" lon="113.277722">
        <time>2026-05-20T22:48:56Z</time>
      </trkpt>
      <trkpt lat="23.062012" lon="113.277554">
        <time>2026-05-20T22:49:01Z</time>
      </trkpt>
      <trkpt lat="23.062056" lon="113.277444">
        <time>2026-05-20T22:49:06Z</time>
      </trkpt>
      <trkpt lat="23.062117" lon="113.277281">
        <time>2026-05-20T22:49:11Z</time>
      </trkpt>
      <trkpt lat="23.062159" lon="113.277174">
        <time>2026-05-20T22:49:16Z</time>
      </trkpt>
      <trkpt lat="23.062222" lon="113.277017">
        <time>2026-05-20T22:49:21Z</time>
      </trkpt>
      <trkpt lat="23.062268" lon="113.276913">
        <time>2026-05-20T22:49:26Z</time>
      </trkpt>
      <trkpt lat="23.062327" lon="113.27675">
        <time>2026-05-20T22:49:31Z</time>
      </trkpt>
      <trkpt lat="23.062364" lon="113.276642">
        <time>2026-05-20T22:49:36Z</time>
      </trkpt>
      <trkpt lat="23.062426" lon="113.276483">
        <time>2026-05-20T22:49:41Z</time>
      </trkpt>
      <trkpt lat="23.06247" lon="113.276374">
        <time>2026-05-20T22:49:46Z</time>
      </trkpt>
      <trkpt lat="23.06253" lon="113.276212">
        <time>2026-05-20T22:49:51Z</time>
      </trkpt>
      <trkpt lat="23.062577" lon="113.276116">
        <time>2026-05-20T22:49:56Z</time>
      </trkpt>
      <trkpt lat="23.062668" lon="113.275979">
        <time>2026-05-20T22:50:01Z</time>
      </trkpt>
      <trkpt lat="23.062735" lon="113.275892">
        <time>2026-05-20T22:50:06Z</time>
      </trkpt>
      <trkpt lat="23.062842" lon="113.275767">
        <time>2026-05-20T22:50:11Z</time>
      </trkpt>
      <trkpt lat="23.062919" lon="113.275688">
        <time>2026-05-20T22:50:16Z</time>
      </trkpt>
      <trkpt lat="23.063037" lon="113.275567">
        <time>2026-05-20T22:50:21Z</time>
      </trkpt>
      <trkpt lat="23.063099" lon="113.275476">
        <time>2026-05-20T22:50:26Z</time>
      </trkpt>
      <trkpt lat="23.063181" lon="113.275334">
        <time>2026-05-20T22:50:31Z</time>
      </trkpt>
      <trkpt lat="23.063236" lon="113.275239">
        <time>2026-05-20T22:50:36Z</time>
      </trkpt>
      <trkpt lat="23.063329" lon="113.275107">
        <time>2026-05-20T22:50:41Z</time>
      </trkpt>
      <trkpt lat="23.063388" lon="113.27501">
        <time>2026-05-20T22:50:46Z</time>
      </trkpt>
      <trkpt lat="23.06344" lon="113.27485">
        <time>2026-05-20T22:50:51Z</time>
      </trkpt>
      <trkpt lat="23.063467" lon="113.274745">
        <time>2026-05-20T22:50:56Z</time>
      </trkpt>
      <trkpt lat="23.063509" lon="113.274595">
        <time>2026-05-20T22:51:01Z</time>
      </trkpt>
      <trkpt lat="23.063539" lon="113.274487">
        <time>2026-05-20T22:51:06Z</time>
      </trkpt>
      <trkpt lat="23.063633" lon="113.27434">
        <time>2026-05-20T22:51:11Z</time>
      </trkpt>
      <trkpt lat="23.063716" lon="113.274267">
        <time>2026-05-20T22:51:16Z</time>
      </trkpt>
      <trkpt lat="23.063825" lon="113.274146">
        <time>2026-05-20T22:51:21Z</time>
      </trkpt>
      <trkpt lat="23.063879" lon="113.274044">
        <time>2026-05-20T22:51:26Z</time>
      </trkpt>
      <trkpt lat="23.063955" lon="113.27388">
        <time>2026-05-20T22:51:31Z</time>
      </trkpt>
      <trkpt lat="23.06402" lon="113.273779">
        <time>2026-05-20T22:51:36Z</time>
      </trkpt>
      <trkpt lat="23.064144" lon="113.273662">
        <time>2026-05-20T22:51:41Z</time>
      </trkpt>
      <trkpt lat="23.064237" lon="113.273597">
        <time>2026-05-20T22:51:46Z</time>
      </trkpt>
      <trkpt lat="23.064371" lon="113.273495">
        <time>2026-05-20T22:51:51Z</time>
      </trkpt>
      <trkpt lat="23.064455" lon="113.273423">
        <time>2026-05-20T22:51:56Z</time>
      </trkpt>
      <trkpt lat="23.064563" lon="113.273293">
        <time>2026-05-20T22:52:01Z</time>
      </trkpt>
      <trkpt lat="23.064594" lon="113.273175">
        <time>2026-05-20T22:52:06Z</time>
      </trkpt>
      <trkpt lat="23.064565" lon="113.272983">
        <time>2026-05-20T22:52:11Z</time>
      </trkpt>
      <trkpt lat="23.064521" lon="113.272862">
        <time>2026-05-20T22:52:16Z</time>
      </trkpt>
      <trkpt lat="23.064468" lon="113.27269">
        <time>2026-05-20T22:52:21Z</time>
      </trkpt>
      <trkpt lat="23.064459" lon="113.272576">
        <time>2026-05-20T22:52:26Z</time>
      </trkpt>
      <trkpt lat="23.06453" lon="113.272418">
        <time>2026-05-20T22:52:31Z</time>
      </trkpt>
      <trkpt lat="23.064559" lon="113.272299">
        <time>2026-05-20T22:52:36Z</time>
      </trkpt>
      <trkpt lat="23.064604" lon="113.272122">
        <time>2026-05-20T22:52:41Z</time>
      </trkpt>
      <trkpt lat="23.064645" lon="113.272017">
        <time>2026-05-20T22:52:46Z</time>
      </trkpt>
      <trkpt lat="23.064713" lon="113.271865">
        <time>2026-05-20T22:52:51Z</time>
      </trkpt>
      <trkpt lat="23.064758" lon="113.271764">
        <time>2026-05-20T22:52:56Z</time>
      </trkpt>
      <trkpt lat="23.064834" lon="113.271606">
        <time>2026-05-20T22:53:01Z</time>
      </trkpt>
      <trkpt lat="23.064878" lon="113.271495">
        <time>2026-05-20T22:53:06Z</time>
      </trkpt>
      <trkpt lat="23.064954" lon="113.271334">
        <time>2026-05-20T22:53:11Z</time>
      </trkpt>
      <trkpt lat="23.065006" lon="113.271233">
        <time>2026-05-20T22:53:16Z</time>
      </trkpt>
      <trkpt lat="23.06509" lon="113.271078">
        <time>2026-05-20T22:53:21Z</time>
      </trkpt>
      <trkpt lat="23.065141" lon="113.270964">
        <time>2026-05-20T22:53:26Z</time>
      </trkpt>
      <trkpt lat="23.065197" lon="113.270799">
        <time>2026-05-20T22:53:31Z</time>
      </trkpt>
      <trkpt lat="23.065252" lon="113.270694">
        <time>2026-05-20T22:53:36Z</time>
      </trkpt>
      <trkpt lat="23.065336" lon="113.270537">
        <time>2026-05-20T22:53:41Z</time>
      </trkpt>
      <trkpt lat="23.065386" lon="113.270431">
        <time>2026-05-20T22:53:46Z</time>
      </trkpt>
      <trkpt lat="23.065456" lon="113.270275">
        <time>2026-05-20T22:53:51Z</time>
      </trkpt>
      <trkpt lat="23.065502" lon="113.270171">
        <time>2026-05-20T22:53:56Z</time>
      </trkpt>
      <trkpt lat="23.065559" lon="113.270018">
        <time>2026-05-20T22:54:01Z</time>
      </trkpt>
      <trkpt lat="23.065595" lon="113.269912">
        <time>2026-05-20T22:54:06Z</time>
      </trkpt>
      <trkpt lat="23.065634" lon="113.269746">
        <time>2026-05-20T22:54:11Z</time>
      </trkpt>
      <trkpt lat="23.065663" lon="113.269633">
        <time>2026-05-20T22:54:16Z</time>
      </trkpt>
      <trkpt lat="23.065705" lon="113.269462">
        <time>2026-05-20T22:54:21Z</time>
      </trkpt>
      <trkpt lat="23.065735" lon="113.269356">
        <time>2026-05-20T22:54:26Z</time>
      </trkpt>
      <trkpt lat="23.06579" lon="113.269189">
        <time>2026-05-20T22:54:31Z</time>
      </trkpt>
      <trkpt lat="23.065827" lon="113.269073">
        <time>2026-05-20T22:54:36Z</time>
      </trkpt>
      <trkpt lat="23.065896" lon="113.26891">
        <time>2026-05-20T22:54:41Z</time>
      </trkpt>
      <trkpt lat="23.065946" lon="113.268807">
        <time>2026-05-20T22:54:46Z</time>
      </trkpt>
      <trkpt lat="23.06602" lon="113.26866">
        <time>2026-05-20T22:54:51Z</time>
      </trkpt>
      <trkpt lat="23.06607" lon="113.268564">
        <time>2026-05-20T22:54:56Z</time>
      </trkpt>
      <trkpt lat="23.066157" lon="113.268419">
        <time>2026-05-20T22:55:01Z</time>
      </trkpt>
      <trkpt lat="23.066221" lon="113.268328">
        <time>2026-05-20T22:55:06Z</time>
      </trkpt>
      <trkpt lat="23.066333" lon="113.268204">
        <time>2026-05-20T22:55:11Z</time>
      </trkpt>
      <trkpt lat="23.066433" lon="113.26815">
        <time>2026-05-20T22:55:16Z</time>
      </trkpt>
      <trkpt lat="23.066603" lon="113.268138">
        <time>2026-05-20T22:55:21Z</time>
      </trkpt>
      <trkpt lat="23.066712" lon="113.268161">
        <time>2026-05-20T22:55:26Z</time>
      </trkpt>
      <trkpt lat="23.066872" lon="113.268153">
        <time>2026-05-20T22:55:31Z</time>
      </trkpt>
      <trkpt lat="23.066976" lon="113.26816">
        <time>2026-05-20T22:55:36Z</time>
      </trkpt>
      <trkpt lat="23.067114" lon="113.268221">
        <time>2026-05-20T22:55:41Z</time>
      </trkpt>
      <trkpt lat="23.0672" lon="113.268268">
        <time>2026-05-20T22:55:46Z</time>
      </trkpt>
      <trkpt lat="23.067319" lon="113.268351">
        <time>2026-05-20T22:55:51Z</time>
      </trkpt>
      <trkpt lat="23.067394" lon="113.268412">
        <time>2026-05-20T22:55:56Z</time>
      </trkpt>
      <trkpt lat="23.067533" lon="113.268494">
        <time>2026-05-20T22:56:01Z</time>
      </trkpt>
      <trkpt lat="23.067644" lon="113.268564">
        <time>2026-05-20T22:56:06Z</time>
      </trkpt>
      <trkpt lat="23.067807" lon="113.268655">
        <time>2026-05-20T22:56:11Z</time>
      </trkpt>
      <trkpt lat="23.067909" lon="113.268711">
        <time>2026-05-20T22:56:16Z</time>
      </trkpt>
      <trkpt lat="23.06805" lon="113.268786">
        <time>2026-05-20T22:56:21Z</time>
      </trkpt>
      <trkpt lat="23.068143" lon="113.268829">
        <time>2026-05-20T22:56:26Z</time>
      </trkpt>
      <trkpt lat="23.068293" lon="113.268877">
        <time>2026-05-20T22:56:31Z</time>
      </trkpt>
      <trkpt lat="23.0684" lon="113.268915">
        <time>2026-05-20T22:56:36Z</time>
      </trkpt>
      <trkpt lat="23.068554" lon="113.268974">
        <time>2026-05-20T22:56:41Z</time>
      </trkpt>
      <trkpt lat="23.068641" lon="113.269032">
        <time>2026-05-20T22:56:46Z</time>
      </trkpt>
      <trkpt lat="23.068777" lon="113.269117">
        <time>2026-05-20T22:56:51Z</time>
      </trkpt>
      <trkpt lat="23.068883" lon="113.26916">
        <time>2026-05-20T22:56:56Z</time>
      </trkpt>
      <trkpt lat="23.069035" lon="113.269212">
        <time>2026-05-20T22:57:01Z</time>
      </trkpt>
      <trkpt lat="23.069125" lon="113.26925">
        <time>2026-05-20T22:57:06Z</time>
      </trkpt>
      <trkpt lat="23.069235" lon="113.269349">
        <time>2026-05-20T22:57:11Z</time>
      </trkpt>
      <trkpt lat="23.069333" lon="113.269403">
        <time>2026-05-20T22:57:16Z</time>
      </trkpt>
      <trkpt lat="23.069476" lon="113.269481">
        <time>2026-05-20T22:57:21Z</time>
      </trkpt>
      <trkpt lat="23.069569" lon="113.269532">
        <time>2026-05-20T22:57:26Z</time>
      </trkpt>
      <trkpt lat="23.06972" lon="113.269596">
        <time>2026-05-20T22:57:31Z</time>
      </trkpt>
      <trkpt lat="23.069819" lon="113.269646">
        <time>2026-05-20T22:57:36Z</time>
      </trkpt>
      <trkpt lat="23.069978" lon="113.269733">
        <time>2026-05-20T22:57:41Z</time>
      </trkpt>
      <trkpt lat="23.070079" lon="113.2698">
        <time>2026-05-20T22:57:46Z</time>
      </trkpt>
      <trkpt lat="23.070229" lon="113.269877">
        <time>2026-05-20T22:57:51Z</time>
      </trkpt>
      <trkpt lat="23.070318" lon="113.269926">
        <time>2026-05-20T22:57:56Z</time>
      </trkpt>
      <trkpt lat="23.070441" lon="113.269991">
        <time>2026-05-20T22:58:01Z</time>
      </trkpt>
      <trkpt lat="23.07052" lon="113.270012">
        <time>2026-05-20T22:58:06Z</time>
      </trkpt>
      <trkpt lat="23.070655" lon="113.270048">
        <time>2026-05-20T22:58:11Z</time>
      </trkpt>
      <trkpt lat="23.070746" lon="113.270081">
        <time>2026-05-20T22:58:16Z</time>
      </trkpt>
      <trkpt lat="23.070861" lon="113.270158">
        <time>2026-05-20T22:58:21Z</time>
      </trkpt>
      <trkpt lat="23.07094" lon="113.270192">
        <time>2026-05-20T22:58:26Z</time>
      </trkpt>
      <trkpt lat="23.07107" lon="113.270222">
        <time>2026-05-20T22:58:31Z</time>
      </trkpt>
      <trkpt lat="23.07118" lon="113.270264">
        <time>2026-05-20T22:58:36Z</time>
      </trkpt>
      <trkpt lat="23.071336" lon="113.270344">
        <time>2026-05-20T22:58:41Z</time>
      </trkpt>
      <trkpt lat="23.071433" lon="113.270399">
        <time>2026-05-20T22:58:46Z</time>
      </trkpt>
      <trkpt lat="23.071582" lon="113.270473">
        <time>2026-05-20T22:58:51Z</time>
      </trkpt>
      <trkpt lat="23.071663" lon="113.27051">
        <time>2026-05-20T22:58:56Z</time>
      </trkpt>
      <trkpt lat="23.071796" lon="113.270573">
        <time>2026-05-20T22:59:01Z</time>
      </trkpt>
      <trkpt lat="23.071902" lon="113.270617">
        <time>2026-05-20T22:59:06Z</time>
      </trkpt>
      <trkpt lat="23.072029" lon="113.270703">
        <time>2026-05-20T22:59:11Z</time>
      </trkpt>
      <trkpt lat="23.072141" lon="113.270735">
        <time>2026-05-20T22:59:16Z</time>
      </trkpt>
      <trkpt lat="23.072312" lon="113.270809">
        <time>2026-05-20T22:59:21Z</time>
      </trkpt>
      <trkpt lat="23.072402" lon="113.270864">
        <time>2026-05-20T22:59:26Z</time>
      </trkpt>
      <trkpt lat="23.072544" lon="113.270923">
        <time>2026-05-20T22:59:31Z</time>
      </trkpt>
      <trkpt lat="23.072636" lon="113.270967">
        <time>2026-05-20T22:59:36Z</time>
      </trkpt>
      <trkpt lat="23.072759" lon="113.271043">
        <time>2026-05-20T22:59:41Z</time>
      </trkpt>
      <trkpt lat="23.072845" lon="113.27108">
        <time>2026-05-20T22:59:46Z</time>
      </trkpt>
      <trkpt lat="23.072978" lon="113.271141">
        <time>2026-05-20T22:59:51Z</time>
      </trkpt>
      <trkpt lat="23.073081" lon="113.271167">
        <time>2026-05-20T22:59:56Z</time>
      </trkpt>
      <trkpt lat="23.073168" lon="113.271248">
        <time>2026-05-20T23:00:01Z</time>
      </trkpt>
      <trkpt lat="23.073241" lon="113.271312">
        <time>2026-05-20T23:00:06Z</time>
      </trkpt>
      <trkpt lat="23.073387" lon="113.271361">
        <time>2026-05-20T23:00:11Z</time>
      </trkpt>
      <trkpt lat="23.073489" lon="113.271414">
        <time>2026-05-20T23:00:16Z</time>
      </trkpt>
      <trkpt lat="23.073627" lon="113.271522">
        <time>2026-05-20T23:00:21Z</time>
      </trkpt>
      <trkpt lat="23.07372" lon="113.271585">
        <time>2026-05-20T23:00:26Z</time>
      </trkpt>
      <trkpt lat="23.07385" lon="113.271676">
        <time>2026-05-20T23:00:31Z</time>
      </trkpt>
      <trkpt lat="23.073944" lon="113.271733">
        <time>2026-05-20T23:00:36Z</time>
      </trkpt>
      <trkpt lat="23.074054" lon="113.271789">
        <time>2026-05-20T23:00:41Z</time>
      </trkpt>
      <trkpt lat="23.074031" lon="113.271864">
        <time>2026-05-20T23:00:46Z</time>
      </trkpt>
      <trkpt lat="23.073968" lon="113.272014">
        <time>2026-05-20T23:00:51Z</time>
      </trkpt>
      <trkpt lat="23.073934" lon="113.272123">
        <time>2026-05-20T23:00:56Z</time>
      </trkpt>
      <trkpt lat="23.07388" lon="113.272276">
        <time>2026-05-20T23:01:01Z</time>
      </trkpt>
      <trkpt lat="23.073822" lon="113.272376">
        <time>2026-05-20T23:01:06Z</time>
      </trkpt>
      <trkpt lat="23.073759" lon="113.272539">
        <time>2026-05-20T23:01:11Z</time>
      </trkpt>
      <trkpt lat="23.073731" lon="113.272656">
        <time>2026-05-20T23:01:16Z</time>
      </trkpt>
      <trkpt lat="23.073705" lon="113.272814">
        <time>2026-05-20T23:01:21Z</time>
      </trkpt>
      <trkpt lat="23.073732" lon="113.272906">
        <time>2026-05-20T23:01:26Z</time>
      </trkpt>
      <trkpt lat="23.073854" lon="113.272996">
        <time>2026-05-20T23:01:31Z</time>
      </trkpt>
      <trkpt lat="23.073952" lon="113.273004">
        <time>2026-05-20T23:01:36Z</time>
      </trkpt>
      <trkpt lat="23.074031" lon="113.272882">
        <time>2026-05-20T23:01:41Z</time>
      </trkpt>
      <trkpt lat="23.074074" lon="113.272779">
        <time>2026-05-20T23:01:46Z</time>
      </trkpt>
      <trkpt lat="23.074143" lon="113.272638">
        <time>2026-05-20T23:01:51Z</time>
      </trkpt>
      <trkpt lat="23.07418" lon="113.272545">
        <time>2026-05-20T23:01:56Z</time>
      </trkpt>
      <trkpt lat="23.074237" lon="113.27239">
        <time>2026-05-20T23:02:01Z</time>
      </trkpt>
      <trkpt lat="23.074288" lon="113.272285">
        <time>2026-05-20T23:02:06Z</time>
      </trkpt>
      <trkpt lat="23.07435" lon="113.272124">
        <time>2026-05-20T23:02:11Z</time>
      </trkpt>
      <trkpt lat="23.074406" lon="113.27203">
        <time>2026-05-20T23:02:16Z</time>
      </trkpt>
      <trkpt lat="23.074497" lon="113.271975">
        <time>2026-05-20T23:02:21Z</time>
      </trkpt>
      <trkpt lat="23.074581" lon="113.27204">
        <time>2026-05-20T23:02:26Z</time>
      </trkpt>
      <trkpt lat="23.074719" lon="113.272136">
        <time>2026-05-20T23:02:31Z</time>
      </trkpt>
      <trkpt lat="23.074803" lon="113.272189">
        <time>2026-05-20T23:02:36Z</time>
      </trkpt>
      <trkpt lat="23.074913" lon="113.272286">
        <time>2026-05-20T23:02:41Z</time>
      </trkpt>
      <trkpt lat="23.07499" lon="113.272353">
        <time>2026-05-20T23:02:46Z</time>
      </trkpt>
      <trkpt lat="23.075127" lon="113.272453">
        <time>2026-05-20T23:02:51Z</time>
      </trkpt>
      <trkpt lat="23.07523" lon="113.272497">
        <time>2026-05-20T23:03:00Z</time>
      </trkpt>
    </trkseg>
  </trk>
</gpx>