<?xml version="1.0" encoding="UTF-8"?>
<gpx xmlns="http://www.topografix.com/GPX/1/1" xmlns:gpxtpx="http://www.garmin.com/xmlschemas/TrackPointExtension/v1" xmlns:xsi="http://www.w3.org/2001/XMLSchema-instance" xsi:schemaLocation="http://www.topografix.com/GPX/1/1 http://www.topografix.com/GPX/1/1/gpx.xsd" version="1.1" creator="gpx.py -- https://github.com/tkrajina/gpxpy">
  <trk>
    <name>gpx from joyrun</name>
    <trkseg>
      <trkpt lat="23.075958" lon="113.272578">
        <time>2026-05-18T21:57:22Z</time>
      </trkpt>
      <trkpt lat="23.075935" lon="113.272558">
        <time>2026-05-18T21:57:27Z</time>
      </trkpt>
      <trkpt lat="23.075845" lon="113.272466">
        <time>2026-05-18T21:57:32Z</time>
      </trkpt>
      <trkpt lat="23.075746" lon="113.27248">
        <time>2026-05-18T21:57:37Z</time>
      </trkpt>
      <trkpt lat="23.075668" lon="113.272466">
        <time>2026-05-18T21:57:42Z</time>
      </trkpt>
      <trkpt lat="23.075541" lon="113.272432">
        <time>2026-05-18T21:57:47Z</time>
      </trkpt>
      <trkpt lat="23.075426" lon="113.272414">
        <time>2026-05-18T21:57:52Z</time>
      </trkpt>
      <trkpt lat="23.075273" lon="113.27235">
        <time>2026-05-18T21:57:57Z</time>
      </trkpt>
      <trkpt lat="23.075192" lon="113.272303">
        <time>2026-05-18T21:58:02Z</time>
      </trkpt>
      <trkpt lat="23.075056" lon="113.272252">
        <time>2026-05-18T21:58:07Z</time>
      </trkpt>
      <trkpt lat="23.074973" lon="113.272211">
        <time>2026-05-18T21:58:12Z</time>
      </trkpt>
      <trkpt lat="23.07485" lon="113.272144">
        <time>2026-05-18T21:58:17Z</time>
      </trkpt>
      <trkpt lat="23.074765" lon="113.272091">
        <time>2026-05-18T21:58:22Z</time>
      </trkpt>
      <trkpt lat="23.074622" lon="113.27201">
        <time>2026-05-18T21:58:27Z</time>
      </trkpt>
      <trkpt lat="23.074534" lon="113.271997">
        <time>2026-05-18T21:58:32Z</time>
      </trkpt>
      <trkpt lat="23.074417" lon="113.272068">
        <time>2026-05-18T21:58:37Z</time>
      </trkpt>
      <trkpt lat="23.074358" lon="113.272151">
        <time>2026-05-18T21:58:42Z</time>
      </trkpt>
      <trkpt lat="23.074293" lon="113.272313">
        <time>2026-05-18T21:58:47Z</time>
      </trkpt>
      <trkpt lat="23.074234" lon="113.272415">
        <time>2026-05-18T21:58:52Z</time>
      </trkpt>
      <trkpt lat="23.074136" lon="113.272581">
        <time>2026-05-18T21:58:57Z</time>
      </trkpt>
      <trkpt lat="23.074082" lon="113.272691">
        <time>2026-05-18T21:59:02Z</time>
      </trkpt>
      <trkpt lat="23.074017" lon="113.272841">
        <time>2026-05-18T21:59:07Z</time>
      </trkpt>
      <trkpt lat="23.073976" lon="113.272938">
        <time>2026-05-18T21:59:12Z</time>
      </trkpt>
      <trkpt lat="23.073925" lon="113.273081">
        <time>2026-05-18T21:59:17Z</time>
      </trkpt>
      <trkpt lat="23.073889" lon="113.273172">
        <time>2026-05-18T21:59:22Z</time>
      </trkpt>
      <trkpt lat="23.073848" lon="113.273247">
        <time>2026-05-18T21:59:27Z</time>
      </trkpt>
      <trkpt lat="23.073848" lon="113.273247">
        <time>2026-05-18T21:59:32Z</time>
      </trkpt>
      <trkpt lat="23.073848" lon="113.273247">
        <time>2026-05-18T21:59:37Z</time>
      </trkpt>
      <trkpt lat="23.073848" lon="113.273247">
        <time>2026-05-18T21:59:42Z</time>
      </trkpt>
      <trkpt lat="23.073852" lon="113.273244">
        <time>2026-05-18T21:59:47Z</time>
      </trkpt>
      <trkpt lat="23.073923" lon="113.273122">
        <time>2026-05-18T21:59:52Z</time>
      </trkpt>
      <trkpt lat="23.073939" lon="113.27304">
        <time>2026-05-18T21:59:57Z</time>
      </trkpt>
      <trkpt lat="23.07383" lon="113.272966">
        <time>2026-05-18T22:00:02Z</time>
      </trkpt>
      <trkpt lat="23.073748" lon="113.272904">
        <time>2026-05-18T22:00:07Z</time>
      </trkpt>
      <trkpt lat="23.073723" lon="113.272757">
        <time>2026-05-18T22:00:12Z</time>
      </trkpt>
      <trkpt lat="23.073761" lon="113.272654">
        <time>2026-05-18T22:00:17Z</time>
      </trkpt>
      <trkpt lat="23.073822" lon="113.272517">
        <time>2026-05-18T22:00:22Z</time>
      </trkpt>
      <trkpt lat="23.073862" lon="113.272426">
        <time>2026-05-18T22:00:27Z</time>
      </trkpt>
      <trkpt lat="23.073935" lon="113.27229">
        <time>2026-05-18T22:00:32Z</time>
      </trkpt>
      <trkpt lat="23.07399" lon="113.272198">
        <time>2026-05-18T22:00:37Z</time>
      </trkpt>
      <trkpt lat="23.074067" lon="113.272066">
        <time>2026-05-18T22:00:42Z</time>
      </trkpt>
      <trkpt lat="23.074102" lon="113.271982">
        <time>2026-05-18T22:00:47Z</time>
      </trkpt>
      <trkpt lat="23.074142" lon="113.271839">
        <time>2026-05-18T22:00:52Z</time>
      </trkpt>
      <trkpt lat="23.074127" lon="113.271754">
        <time>2026-05-18T22:00:57Z</time>
      </trkpt>
      <trkpt lat="23.07401" lon="113.271676">
        <time>2026-05-18T22:01:02Z</time>
      </trkpt>
      <trkpt lat="23.073914" lon="113.271623">
        <time>2026-05-18T22:01:07Z</time>
      </trkpt>
      <trkpt lat="23.073783" lon="113.271547">
        <time>2026-05-18T22:01:12Z</time>
      </trkpt>
      <trkpt lat="23.073688" lon="113.271502">
        <time>2026-05-18T22:01:17Z</time>
      </trkpt>
      <trkpt lat="23.07355" lon="113.271434">
        <time>2026-05-18T22:01:22Z</time>
      </trkpt>
      <trkpt lat="23.073455" lon="113.27141">
        <time>2026-05-18T22:01:27Z</time>
      </trkpt>
      <trkpt lat="23.073318" lon="113.271362">
        <time>2026-05-18T22:01:32Z</time>
      </trkpt>
      <trkpt lat="23.073236" lon="113.271293">
        <time>2026-05-18T22:01:37Z</time>
      </trkpt>
      <trkpt lat="23.073109" lon="113.2712">
        <time>2026-05-18T22:01:42Z</time>
      </trkpt>
      <trkpt lat="23.073012" lon="113.271151">
        <time>2026-05-18T22:01:47Z</time>
      </trkpt>
      <trkpt lat="23.072881" lon="113.271071">
        <time>2026-05-18T22:01:52Z</time>
      </trkpt>
      <trkpt lat="23.07278" lon="113.271022">
        <time>2026-05-18T22:01:57Z</time>
      </trkpt>
      <trkpt lat="23.072624" lon="113.270943">
        <time>2026-05-18T22:02:02Z</time>
      </trkpt>
      <trkpt lat="23.07252" lon="113.270906">
        <time>2026-05-18T22:02:07Z</time>
      </trkpt>
      <trkpt lat="23.072379" lon="113.270848">
        <time>2026-05-18T22:02:12Z</time>
      </trkpt>
      <trkpt lat="23.07229" lon="113.270801">
        <time>2026-05-18T22:02:17Z</time>
      </trkpt>
      <trkpt lat="23.072156" lon="113.270741">
        <time>2026-05-18T22:02:22Z</time>
      </trkpt>
      <trkpt lat="23.072066" lon="113.270698">
        <time>2026-05-18T22:02:27Z</time>
      </trkpt>
      <trkpt lat="23.071922" lon="113.270633">
        <time>2026-05-18T22:02:32Z</time>
      </trkpt>
      <trkpt lat="23.071827" lon="113.270591">
        <time>2026-05-18T22:02:37Z</time>
      </trkpt>
      <trkpt lat="23.071692" lon="113.270529">
        <time>2026-05-18T22:02:42Z</time>
      </trkpt>
      <trkpt lat="23.071604" lon="113.270484">
        <time>2026-05-18T22:02:47Z</time>
      </trkpt>
      <trkpt lat="23.071466" lon="113.270386">
        <time>2026-05-18T22:02:52Z</time>
      </trkpt>
      <trkpt lat="23.071376" lon="113.27032">
        <time>2026-05-18T22:02:57Z</time>
      </trkpt>
      <trkpt lat="23.071239" lon="113.270253">
        <time>2026-05-18T22:03:02Z</time>
      </trkpt>
      <trkpt lat="23.071152" lon="113.270211">
        <time>2026-05-18T22:03:07Z</time>
      </trkpt>
      <trkpt lat="23.071037" lon="113.270126">
        <time>2026-05-18T22:03:12Z</time>
      </trkpt>
      <trkpt lat="23.070949" lon="113.270086">
        <time>2026-05-18T22:03:17Z</time>
      </trkpt>
      <trkpt lat="23.070802" lon="113.270039">
        <time>2026-05-18T22:03:22Z</time>
      </trkpt>
      <trkpt lat="23.070703" lon="113.269997">
        <time>2026-05-18T22:03:27Z</time>
      </trkpt>
      <trkpt lat="23.070547" lon="113.269907">
        <time>2026-05-18T22:03:32Z</time>
      </trkpt>
      <trkpt lat="23.070441" lon="113.269862">
        <time>2026-05-18T22:03:37Z</time>
      </trkpt>
      <trkpt lat="23.070295" lon="113.269803">
        <time>2026-05-18T22:03:42Z</time>
      </trkpt>
      <trkpt lat="23.070204" lon="113.269754">
        <time>2026-05-18T22:03:47Z</time>
      </trkpt>
      <trkpt lat="23.070053" lon="113.269657">
        <time>2026-05-18T22:03:52Z</time>
      </trkpt>
      <trkpt lat="23.069959" lon="113.269595">
        <time>2026-05-18T22:03:57Z</time>
      </trkpt>
      <trkpt lat="23.069813" lon="113.269546">
        <time>2026-05-18T22:04:02Z</time>
      </trkpt>
      <trkpt lat="23.069717" lon="113.269507">
        <time>2026-05-18T22:04:07Z</time>
      </trkpt>
      <trkpt lat="23.069589" lon="113.269422">
        <time>2026-05-18T22:04:12Z</time>
      </trkpt>
      <trkpt lat="23.069494" lon="113.269377">
        <time>2026-05-18T22:04:17Z</time>
      </trkpt>
      <trkpt lat="23.069344" lon="113.269338">
        <time>2026-05-18T22:04:22Z</time>
      </trkpt>
      <trkpt lat="23.069252" lon="113.269288">
        <time>2026-05-18T22:04:27Z</time>
      </trkpt>
      <trkpt lat="23.069121" lon="113.269218">
        <time>2026-05-18T22:04:32Z</time>
      </trkpt>
      <trkpt lat="23.069031" lon="113.269195">
        <time>2026-05-18T22:04:37Z</time>
      </trkpt>
      <trkpt lat="23.068901" lon="113.269164">
        <time>2026-05-18T22:04:42Z</time>
      </trkpt>
      <trkpt lat="23.06883" lon="113.269108">
        <time>2026-05-18T22:04:47Z</time>
      </trkpt>
      <trkpt lat="23.068708" lon="113.269033">
        <time>2026-05-18T22:04:52Z</time>
      </trkpt>
      <trkpt lat="23.068614" lon="113.268989">
        <time>2026-05-18T22:04:57Z</time>
      </trkpt>
      <trkpt lat="23.068474" lon="113.268936">
        <time>2026-05-18T22:05:02Z</time>
      </trkpt>
      <trkpt lat="23.068378" lon="113.268917">
        <time>2026-05-18T22:05:07Z</time>
      </trkpt>
      <trkpt lat="23.068234" lon="113.26889">
        <time>2026-05-18T22:05:12Z</time>
      </trkpt>
      <trkpt lat="23.068148" lon="113.268848">
        <time>2026-05-18T22:05:17Z</time>
      </trkpt>
      <trkpt lat="23.068022" lon="113.268756">
        <time>2026-05-18T22:05:22Z</time>
      </trkpt>
      <trkpt lat="23.067924" lon="113.268669">
        <time>2026-05-18T22:05:27Z</time>
      </trkpt>
      <trkpt lat="23.067779" lon="113.26858">
        <time>2026-05-18T22:05:32Z</time>
      </trkpt>
      <trkpt lat="23.067694" lon="113.268525">
        <time>2026-05-18T22:05:37Z</time>
      </trkpt>
      <trkpt lat="23.067562" lon="113.268463">
        <time>2026-05-18T22:05:42Z</time>
      </trkpt>
      <trkpt lat="23.067476" lon="113.268428">
        <time>2026-05-18T22:05:47Z</time>
      </trkpt>
      <trkpt lat="23.067342" lon="113.268365">
        <time>2026-05-18T22:05:52Z</time>
      </trkpt>
      <trkpt lat="23.06726" lon="113.268317">
        <time>2026-05-18T22:05:57Z</time>
      </trkpt>
      <trkpt lat="23.067147" lon="113.268215">
        <time>2026-05-18T22:06:02Z</time>
      </trkpt>
      <trkpt lat="23.06708" lon="113.268137">
        <time>2026-05-18T22:06:07Z</time>
      </trkpt>
      <trkpt lat="23.066939" lon="113.26807">
        <time>2026-05-18T22:06:12Z</time>
      </trkpt>
      <trkpt lat="23.066834" lon="113.268047">
        <time>2026-05-18T22:06:17Z</time>
      </trkpt>
      <trkpt lat="23.066673" lon="113.268032">
        <time>2026-05-18T22:06:22Z</time>
      </trkpt>
      <trkpt lat="23.066577" lon="113.268003">
        <time>2026-05-18T22:06:27Z</time>
      </trkpt>
      <trkpt lat="23.066432" lon="113.26797">
        <time>2026-05-18T22:06:32Z</time>
      </trkpt>
      <trkpt lat="23.066333" lon="113.267977">
        <time>2026-05-18T22:06:37Z</time>
      </trkpt>
      <trkpt lat="23.066199" lon="113.268041">
        <time>2026-05-18T22:06:42Z</time>
      </trkpt>
      <trkpt lat="23.066128" lon="113.268113">
        <time>2026-05-18T22:06:47Z</time>
      </trkpt>
      <trkpt lat="23.066021" lon="113.268219">
        <time>2026-05-18T22:06:52Z</time>
      </trkpt>
      <trkpt lat="23.065963" lon="113.268293">
        <time>2026-05-18T22:06:57Z</time>
      </trkpt>
      <trkpt lat="23.065875" lon="113.268415">
        <time>2026-05-18T22:07:02Z</time>
      </trkpt>
      <trkpt lat="23.065825" lon="113.268511">
        <time>2026-05-18T22:07:07Z</time>
      </trkpt>
      <trkpt lat="23.065766" lon="113.268656">
        <time>2026-05-18T22:07:12Z</time>
      </trkpt>
      <trkpt lat="23.065727" lon="113.268749">
        <time>2026-05-18T22:07:17Z</time>
      </trkpt>
      <trkpt lat="23.065657" lon="113.268885">
        <time>2026-05-18T22:07:22Z</time>
      </trkpt>
      <trkpt lat="23.065625" lon="113.268979">
        <time>2026-05-18T22:07:27Z</time>
      </trkpt>
      <trkpt lat="23.065587" lon="113.269123">
        <time>2026-05-18T22:07:32Z</time>
      </trkpt>
      <trkpt lat="23.06556" lon="113.269222">
        <time>2026-05-18T22:07:37Z</time>
      </trkpt>
      <trkpt lat="23.065517" lon="113.269374">
        <time>2026-05-18T22:07:42Z</time>
      </trkpt>
      <trkpt lat="23.065494" lon="113.269478">
        <time>2026-05-18T22:07:47Z</time>
      </trkpt>
      <trkpt lat="23.065466" lon="113.269644">
        <time>2026-05-18T22:07:52Z</time>
      </trkpt>
      <trkpt lat="23.065438" lon="113.269748">
        <time>2026-05-18T22:07:57Z</time>
      </trkpt>
      <trkpt lat="23.06538" lon="113.269895">
        <time>2026-05-18T22:08:02Z</time>
      </trkpt>
      <trkpt lat="23.065344" lon="113.269994">
        <time>2026-05-18T22:08:07Z</time>
      </trkpt>
      <trkpt lat="23.065289" lon="113.270143">
        <time>2026-05-18T22:08:12Z</time>
      </trkpt>
      <trkpt lat="23.065247" lon="113.270244">
        <time>2026-05-18T22:08:17Z</time>
      </trkpt>
      <trkpt lat="23.06518" lon="113.270386">
        <time>2026-05-18T22:08:22Z</time>
      </trkpt>
      <trkpt lat="23.065133" lon="113.270483">
        <time>2026-05-18T22:08:27Z</time>
      </trkpt>
      <trkpt lat="23.065066" lon="113.270628">
        <time>2026-05-18T22:08:32Z</time>
      </trkpt>
      <trkpt lat="23.065022" lon="113.270727">
        <time>2026-05-18T22:08:37Z</time>
      </trkpt>
      <trkpt lat="23.064959" lon="113.270873">
        <time>2026-05-18T22:08:42Z</time>
      </trkpt>
      <trkpt lat="23.064909" lon="113.270973">
        <time>2026-05-18T22:08:47Z</time>
      </trkpt>
      <trkpt lat="23.064844" lon="113.271121">
        <time>2026-05-18T22:08:52Z</time>
      </trkpt>
      <trkpt lat="23.064803" lon="113.271216">
        <time>2026-05-18T22:08:57Z</time>
      </trkpt>
      <trkpt lat="23.064738" lon="113.271356">
        <time>2026-05-18T22:09:02Z</time>
      </trkpt>
      <trkpt lat="23.064694" lon="113.271453">
        <time>2026-05-18T22:09:07Z</time>
      </trkpt>
      <trkpt lat="23.06463" lon="113.271599">
        <time>2026-05-18T22:09:12Z</time>
      </trkpt>
      <trkpt lat="23.064589" lon="113.2717">
        <time>2026-05-18T22:09:17Z</time>
      </trkpt>
      <trkpt lat="23.064526" lon="113.271849">
        <time>2026-05-18T22:09:22Z</time>
      </trkpt>
      <trkpt lat="23.064483" lon="113.271945">
        <time>2026-05-18T22:09:27Z</time>
      </trkpt>
      <trkpt lat="23.064417" lon="113.272093">
        <time>2026-05-18T22:09:32Z</time>
      </trkpt>
      <trkpt lat="23.064369" lon="113.272189">
        <time>2026-05-18T22:09:37Z</time>
      </trkpt>
      <trkpt lat="23.064346" lon="113.272348">
        <time>2026-05-18T22:09:42Z</time>
      </trkpt>
      <trkpt lat="23.064343" lon="113.272456">
        <time>2026-05-18T22:09:47Z</time>
      </trkpt>
      <trkpt lat="23.064343" lon="113.272615">
        <time>2026-05-18T22:09:52Z</time>
      </trkpt>
      <trkpt lat="23.064364" lon="113.272722">
        <time>2026-05-18T22:09:57Z</time>
      </trkpt>
      <trkpt lat="23.064411" lon="113.272872">
        <time>2026-05-18T22:10:02Z</time>
      </trkpt>
      <trkpt lat="23.064443" lon="113.272972">
        <time>2026-05-18T22:10:07Z</time>
      </trkpt>
      <trkpt lat="23.064479" lon="113.273119">
        <time>2026-05-18T22:10:12Z</time>
      </trkpt>
      <trkpt lat="23.064475" lon="113.273219">
        <time>2026-05-18T22:10:17Z</time>
      </trkpt>
      <trkpt lat="23.064397" lon="113.273345">
        <time>2026-05-18T22:10:22Z</time>
      </trkpt>
      <trkpt lat="23.064314" lon="113.273411">
        <time>2026-05-18T22:10:27Z</time>
      </trkpt>
      <trkpt lat="23.064185" lon="113.273507">
        <time>2026-05-18T22:10:32Z</time>
      </trkpt>
      <trkpt lat="23.064103" lon="113.27357">
        <time>2026-05-18T22:10:37Z</time>
      </trkpt>
      <trkpt lat="23.063984" lon="113.273666">
        <time>2026-05-18T22:10:42Z</time>
      </trkpt>
      <trkpt lat="23.06392" lon="113.273741">
        <time>2026-05-18T22:10:47Z</time>
      </trkpt>
      <trkpt lat="23.06384" lon="113.273864">
        <time>2026-05-18T22:10:52Z</time>
      </trkpt>
      <trkpt lat="23.063791" lon="113.273952">
        <time>2026-05-18T22:10:57Z</time>
      </trkpt>
      <trkpt lat="23.063707" lon="113.274086">
        <time>2026-05-18T22:11:02Z</time>
      </trkpt>
      <trkpt lat="23.063636" lon="113.274137">
        <time>2026-05-18T22:11:07Z</time>
      </trkpt>
      <trkpt lat="23.063537" lon="113.27425">
        <time>2026-05-18T22:11:12Z</time>
      </trkpt>
      <trkpt lat="23.063495" lon="113.274354">
        <time>2026-05-18T22:11:17Z</time>
      </trkpt>
      <trkpt lat="23.063439" lon="113.274508">
        <time>2026-05-18T22:11:22Z</time>
      </trkpt>
      <trkpt lat="23.063407" lon="113.274611">
        <time>2026-05-18T22:11:27Z</time>
      </trkpt>
      <trkpt lat="23.063351" lon="113.274762">
        <time>2026-05-18T22:11:32Z</time>
      </trkpt>
      <trkpt lat="23.063312" lon="113.274866">
        <time>2026-05-18T22:11:37Z</time>
      </trkpt>
      <trkpt lat="23.063255" lon="113.275027">
        <time>2026-05-18T22:11:42Z</time>
      </trkpt>
      <trkpt lat="23.063203" lon="113.275127">
        <time>2026-05-18T22:11:47Z</time>
      </trkpt>
      <trkpt lat="23.063119" lon="113.275272">
        <time>2026-05-18T22:11:52Z</time>
      </trkpt>
      <trkpt lat="23.063064" lon="113.275364">
        <time>2026-05-18T22:11:57Z</time>
      </trkpt>
      <trkpt lat="23.062979" lon="113.275493">
        <time>2026-05-18T22:12:02Z</time>
      </trkpt>
      <trkpt lat="23.062911" lon="113.275575">
        <time>2026-05-18T22:12:07Z</time>
      </trkpt>
      <trkpt lat="23.062802" lon="113.275693">
        <time>2026-05-18T22:12:12Z</time>
      </trkpt>
      <trkpt lat="23.06273" lon="113.275768">
        <time>2026-05-18T22:12:17Z</time>
      </trkpt>
      <trkpt lat="23.062629" lon="113.275886">
        <time>2026-05-18T22:12:22Z</time>
      </trkpt>
      <trkpt lat="23.062565" lon="113.27597">
        <time>2026-05-18T22:12:27Z</time>
      </trkpt>
      <trkpt lat="23.062481" lon="113.276102">
        <time>2026-05-18T22:12:32Z</time>
      </trkpt>
      <trkpt lat="23.062436" lon="113.276195">
        <time>2026-05-18T22:12:37Z</time>
      </trkpt>
      <trkpt lat="23.062378" lon="113.276339">
        <time>2026-05-18T22:12:42Z</time>
      </trkpt>
      <trkpt lat="23.062346" lon="113.276433">
        <time>2026-05-18T22:12:47Z</time>
      </trkpt>
      <trkpt lat="23.062297" lon="113.27658">
        <time>2026-05-18T22:12:52Z</time>
      </trkpt>
      <trkpt lat="23.062262" lon="113.276677">
        <time>2026-05-18T22:12:57Z</time>
      </trkpt>
      <trkpt lat="23.062207" lon="113.276821">
        <time>2026-05-18T22:13:02Z</time>
      </trkpt>
      <trkpt lat="23.06217" lon="113.276916">
        <time>2026-05-18T22:13:07Z</time>
      </trkpt>
      <trkpt lat="23.062117" lon="113.277059">
        <time>2026-05-18T22:13:12Z</time>
      </trkpt>
      <trkpt lat="23.06208" lon="113.27716">
        <time>2026-05-18T22:13:17Z</time>
      </trkpt>
      <trkpt lat="23.062023" lon="113.277313">
        <time>2026-05-18T22:13:22Z</time>
      </trkpt>
      <trkpt lat="23.061985" lon="113.277413">
        <time>2026-05-18T22:13:27Z</time>
      </trkpt>
      <trkpt lat="23.061928" lon="113.277562">
        <time>2026-05-18T22:13:32Z</time>
      </trkpt>
      <trkpt lat="23.061893" lon="113.27766">
        <time>2026-05-18T22:13:37Z</time>
      </trkpt>
      <trkpt lat="23.061855" lon="113.277813">
        <time>2026-05-18T22:13:42Z</time>
      </trkpt>
      <trkpt lat="23.061846" lon="113.277917">
        <time>2026-05-18T22:13:47Z</time>
      </trkpt>
      <trkpt lat="23.061852" lon="113.278068">
        <time>2026-05-18T22:13:52Z</time>
      </trkpt>
      <trkpt lat="23.061858" lon="113.278168">
        <time>2026-05-18T22:13:57Z</time>
      </trkpt>
      <trkpt lat="23.061865" lon="113.278315">
        <time>2026-05-18T22:14:02Z</time>
      </trkpt>
      <trkpt lat="23.06187" lon="113.278414">
        <time>2026-05-18T22:14:07Z</time>
      </trkpt>
      <trkpt lat="23.061878" lon="113.278564">
        <time>2026-05-18T22:14:12Z</time>
      </trkpt>
      <trkpt lat="23.061873" lon="113.278665">
        <time>2026-05-18T22:14:17Z</time>
      </trkpt>
      <trkpt lat="23.06183" lon="113.278809">
        <time>2026-05-18T22:14:22Z</time>
      </trkpt>
      <trkpt lat="23.061785" lon="113.278902">
        <time>2026-05-18T22:14:27Z</time>
      </trkpt>
      <trkpt lat="23.061709" lon="113.279034">
        <time>2026-05-18T22:14:32Z</time>
      </trkpt>
      <trkpt lat="23.061658" lon="113.279118">
        <time>2026-05-18T22:14:37Z</time>
      </trkpt>
      <trkpt lat="23.061596" lon="113.27926">
        <time>2026-05-18T22:14:42Z</time>
      </trkpt>
      <trkpt lat="23.061562" lon="113.279353">
        <time>2026-05-18T22:14:47Z</time>
      </trkpt>
      <trkpt lat="23.061507" lon="113.27949">
        <time>2026-05-18T22:14:52Z</time>
      </trkpt>
      <trkpt lat="23.061469" lon="113.279583">
        <time>2026-05-18T22:14:57Z</time>
      </trkpt>
      <trkpt lat="23.061404" lon="113.27973">
        <time>2026-05-18T22:15:02Z</time>
      </trkpt>
      <trkpt lat="23.061362" lon="113.279832">
        <time>2026-05-18T22:15:07Z</time>
      </trkpt>
      <trkpt lat="23.061303" lon="113.27998">
        <time>2026-05-18T22:15:12Z</time>
      </trkpt>
      <trkpt lat="23.061264" lon="113.280077">
        <time>2026-05-18T22:15:17Z</time>
      </trkpt>
      <trkpt lat="23.061203" lon="113.280223">
        <time>2026-05-18T22:15:22Z</time>
      </trkpt>
      <trkpt lat="23.061163" lon="113.28032">
        <time>2026-05-18T22:15:27Z</time>
      </trkpt>
      <trkpt lat="23.061099" lon="113.280461">
        <time>2026-05-18T22:15:32Z</time>
      </trkpt>
      <trkpt lat="23.061055" lon="113.280556">
        <time>2026-05-18T22:15:37Z</time>
      </trkpt>
      <trkpt lat="23.060991" lon="113.2807">
        <time>2026-05-18T22:15:42Z</time>
      </trkpt>
      <trkpt lat="23.060949" lon="113.280801">
        <time>2026-05-18T22:15:47Z</time>
      </trkpt>
      <trkpt lat="23.060886" lon="113.280947">
        <time>2026-05-18T22:15:52Z</time>
      </trkpt>
      <trkpt lat="23.060845" lon="113.281041">
        <time>2026-05-18T22:15:57Z</time>
      </trkpt>
      <trkpt lat="23.060781" lon="113.281183">
        <time>2026-05-18T22:16:02Z</time>
      </trkpt>
      <trkpt lat="23.060744" lon="113.281278">
        <time>2026-05-18T22:16:07Z</time>
      </trkpt>
      <trkpt lat="23.060681" lon="113.281421">
        <time>2026-05-18T22:16:12Z</time>
      </trkpt>
      <trkpt lat="23.06064" lon="113.281514">
        <time>2026-05-18T22:16:17Z</time>
      </trkpt>
      <trkpt lat="23.060578" lon="113.281657">
        <time>2026-05-18T22:16:22Z</time>
      </trkpt>
      <trkpt lat="23.060535" lon="113.281752">
        <time>2026-05-18T22:16:27Z</time>
      </trkpt>
      <trkpt lat="23.060479" lon="113.281895">
        <time>2026-05-18T22:16:32Z</time>
      </trkpt>
      <trkpt lat="23.060439" lon="113.281993">
        <time>2026-05-18T22:16:37Z</time>
      </trkpt>
      <trkpt lat="23.06038" lon="113.282143">
        <time>2026-05-18T22:16:42Z</time>
      </trkpt>
      <trkpt lat="23.060342" lon="113.282243">
        <time>2026-05-18T22:16:47Z</time>
      </trkpt>
      <trkpt lat="23.060275" lon="113.282393">
        <time>2026-05-18T22:16:52Z</time>
      </trkpt>
      <trkpt lat="23.060228" lon="113.282487">
        <time>2026-05-18T22:16:57Z</time>
      </trkpt>
      <trkpt lat="23.060158" lon="113.282627">
        <time>2026-05-18T22:17:02Z</time>
      </trkpt>
      <trkpt lat="23.060113" lon="113.282724">
        <time>2026-05-18T22:17:07Z</time>
      </trkpt>
      <trkpt lat="23.060053" lon="113.282862">
        <time>2026-05-18T22:17:12Z</time>
      </trkpt>
      <trkpt lat="23.060012" lon="113.282954">
        <time>2026-05-18T22:17:17Z</time>
      </trkpt>
      <trkpt lat="23.059956" lon="113.283105">
        <time>2026-05-18T22:17:22Z</time>
      </trkpt>
      <trkpt lat="23.059921" lon="113.283197">
        <time>2026-05-18T22:17:27Z</time>
      </trkpt>
      <trkpt lat="23.059866" lon="113.283333">
        <time>2026-05-18T22:17:32Z</time>
      </trkpt>
      <trkpt lat="23.059899" lon="113.283379">
        <time>2026-05-18T22:17:37Z</time>
      </trkpt>
      <trkpt lat="23.05999" lon="113.283272">
        <time>2026-05-18T22:17:42Z</time>
      </trkpt>
      <trkpt lat="23.060042" lon="113.28318">
        <time>2026-05-18T22:17:47Z</time>
      </trkpt>
      <trkpt lat="23.060118" lon="113.28305">
        <time>2026-05-18T22:17:52Z</time>
      </trkpt>
      <trkpt lat="23.060164" lon="113.282962">
        <time>2026-05-18T22:17:57Z</time>
      </trkpt>
      <trkpt lat="23.060229" lon="113.282827">
        <time>2026-05-18T22:18:02Z</time>
      </trkpt>
      <trkpt lat="23.060274" lon="113.282735">
        <time>2026-05-18T22:18:07Z</time>
      </trkpt>
      <trkpt lat="23.060336" lon="113.282592">
        <time>2026-05-18T22:18:12Z</time>
      </trkpt>
      <trkpt lat="23.06037" lon="113.282496">
        <time>2026-05-18T22:18:17Z</time>
      </trkpt>
      <trkpt lat="23.060423" lon="113.282354">
        <time>2026-05-18T22:18:22Z</time>
      </trkpt>
      <trkpt lat="23.060454" lon="113.282263">
        <time>2026-05-18T22:18:27Z</time>
      </trkpt>
      <trkpt lat="23.060501" lon="113.282122">
        <time>2026-05-18T22:18:32Z</time>
      </trkpt>
      <trkpt lat="23.060538" lon="113.28203">
        <time>2026-05-18T22:18:37Z</time>
      </trkpt>
      <trkpt lat="23.060594" lon="113.281891">
        <time>2026-05-18T22:18:42Z</time>
      </trkpt>
      <trkpt lat="23.060635" lon="113.281796">
        <time>2026-05-18T22:18:47Z</time>
      </trkpt>
      <trkpt lat="23.060684" lon="113.281657">
        <time>2026-05-18T22:18:52Z</time>
      </trkpt>
      <trkpt lat="23.06072" lon="113.28157">
        <time>2026-05-18T22:18:57Z</time>
      </trkpt>
      <trkpt lat="23.060787" lon="113.281433">
        <time>2026-05-18T22:19:02Z</time>
      </trkpt>
      <trkpt lat="23.060831" lon="113.281334">
        <time>2026-05-18T22:19:07Z</time>
      </trkpt>
      <trkpt lat="23.060896" lon="113.28119">
        <time>2026-05-18T22:19:12Z</time>
      </trkpt>
      <trkpt lat="23.060939" lon="113.281096">
        <time>2026-05-18T22:19:17Z</time>
      </trkpt>
      <trkpt lat="23.060998" lon="113.28095">
        <time>2026-05-18T22:19:22Z</time>
      </trkpt>
      <trkpt lat="23.061037" lon="113.280852">
        <time>2026-05-18T22:19:27Z</time>
      </trkpt>
      <trkpt lat="23.061107" lon="113.280704">
        <time>2026-05-18T22:19:32Z</time>
      </trkpt>
      <trkpt lat="23.061158" lon="113.280605">
        <time>2026-05-18T22:19:37Z</time>
      </trkpt>
      <trkpt lat="23.061234" lon="113.280465">
        <time>2026-05-18T22:19:42Z</time>
      </trkpt>
      <trkpt lat="23.061279" lon="113.280368">
        <time>2026-05-18T22:19:47Z</time>
      </trkpt>
      <trkpt lat="23.061343" lon="113.280223">
        <time>2026-05-18T22:19:52Z</time>
      </trkpt>
      <trkpt lat="23.061395" lon="113.280135">
        <time>2026-05-18T22:19:57Z</time>
      </trkpt>
      <trkpt lat="23.061461" lon="113.279999">
        <time>2026-05-18T22:20:02Z</time>
      </trkpt>
      <trkpt lat="23.061499" lon="113.279902">
        <time>2026-05-18T22:20:07Z</time>
      </trkpt>
      <trkpt lat="23.061549" lon="113.279755">
        <time>2026-05-18T22:20:12Z</time>
      </trkpt>
      <trkpt lat="23.061581" lon="113.27966">
        <time>2026-05-18T22:20:17Z</time>
      </trkpt>
      <trkpt lat="23.061635" lon="113.27952">
        <time>2026-05-18T22:20:22Z</time>
      </trkpt>
      <trkpt lat="23.061669" lon="113.279424">
        <time>2026-05-18T22:20:27Z</time>
      </trkpt>
      <trkpt lat="23.061721" lon="113.279281">
        <time>2026-05-18T22:20:32Z</time>
      </trkpt>
      <trkpt lat="23.061766" lon="113.279187">
        <time>2026-05-18T22:20:37Z</time>
      </trkpt>
      <trkpt lat="23.06184" lon="113.279048">
        <time>2026-05-18T22:20:42Z</time>
      </trkpt>
      <trkpt lat="23.061899" lon="113.278959">
        <time>2026-05-18T22:20:47Z</time>
      </trkpt>
      <trkpt lat="23.061974" lon="113.278814">
        <time>2026-05-18T22:20:52Z</time>
      </trkpt>
      <trkpt lat="23.06199" lon="113.278706">
        <time>2026-05-18T22:20:57Z</time>
      </trkpt>
      <trkpt lat="23.061977" lon="113.278532">
        <time>2026-05-18T22:21:02Z</time>
      </trkpt>
      <trkpt lat="23.061965" lon="113.27842">
        <time>2026-05-18T22:21:07Z</time>
      </trkpt>
      <trkpt lat="23.06196" lon="113.278254">
        <time>2026-05-18T22:21:12Z</time>
      </trkpt>
      <trkpt lat="23.061958" lon="113.278139">
        <time>2026-05-18T22:21:17Z</time>
      </trkpt>
      <trkpt lat="23.061956" lon="113.277966">
        <time>2026-05-18T22:21:22Z</time>
      </trkpt>
      <trkpt lat="23.061956" lon="113.277854">
        <time>2026-05-18T22:21:27Z</time>
      </trkpt>
      <trkpt lat="23.061981" lon="113.277694">
        <time>2026-05-18T22:21:32Z</time>
      </trkpt>
      <trkpt lat="23.062017" lon="113.277589">
        <time>2026-05-18T22:21:37Z</time>
      </trkpt>
      <trkpt lat="23.06208" lon="113.277435">
        <time>2026-05-18T22:21:42Z</time>
      </trkpt>
      <trkpt lat="23.062117" lon="113.277337">
        <time>2026-05-18T22:21:47Z</time>
      </trkpt>
      <trkpt lat="23.06217" lon="113.277184">
        <time>2026-05-18T22:21:52Z</time>
      </trkpt>
      <trkpt lat="23.062207" lon="113.277084">
        <time>2026-05-18T22:21:57Z</time>
      </trkpt>
      <trkpt lat="23.062268" lon="113.276936">
        <time>2026-05-18T22:22:02Z</time>
      </trkpt>
      <trkpt lat="23.062308" lon="113.276837">
        <time>2026-05-18T22:22:07Z</time>
      </trkpt>
      <trkpt lat="23.062369" lon="113.276688">
        <time>2026-05-18T22:22:12Z</time>
      </trkpt>
      <trkpt lat="23.06241" lon="113.276584">
        <time>2026-05-18T22:22:17Z</time>
      </trkpt>
      <trkpt lat="23.062458" lon="113.276428">
        <time>2026-05-18T22:22:22Z</time>
      </trkpt>
      <trkpt lat="23.062493" lon="113.276325">
        <time>2026-05-18T22:22:27Z</time>
      </trkpt>
      <trkpt lat="23.062557" lon="113.27617">
        <time>2026-05-18T22:22:32Z</time>
      </trkpt>
      <trkpt lat="23.062609" lon="113.276073">
        <time>2026-05-18T22:22:37Z</time>
      </trkpt>
      <trkpt lat="23.0627" lon="113.275936">
        <time>2026-05-18T22:22:42Z</time>
      </trkpt>
      <trkpt lat="23.062768" lon="113.275852">
        <time>2026-05-18T22:22:47Z</time>
      </trkpt>
      <trkpt lat="23.062881" lon="113.275736">
        <time>2026-05-18T22:22:52Z</time>
      </trkpt>
      <trkpt lat="23.062957" lon="113.275663">
        <time>2026-05-18T22:22:57Z</time>
      </trkpt>
      <trkpt lat="23.063057" lon="113.275537">
        <time>2026-05-18T22:23:02Z</time>
      </trkpt>
      <trkpt lat="23.063114" lon="113.275444">
        <time>2026-05-18T22:23:07Z</time>
      </trkpt>
      <trkpt lat="23.063197" lon="113.275295">
        <time>2026-05-18T22:23:12Z</time>
      </trkpt>
      <trkpt lat="23.063261" lon="113.275197">
        <time>2026-05-18T22:23:17Z</time>
      </trkpt>
      <trkpt lat="23.06334" lon="113.275043">
        <time>2026-05-18T22:23:22Z</time>
      </trkpt>
      <trkpt lat="23.063379" lon="113.274939">
        <time>2026-05-18T22:23:27Z</time>
      </trkpt>
      <trkpt lat="23.063423" lon="113.274788">
        <time>2026-05-18T22:23:32Z</time>
      </trkpt>
      <trkpt lat="23.063455" lon="113.274687">
        <time>2026-05-18T22:23:37Z</time>
      </trkpt>
      <trkpt lat="23.063512" lon="113.274528">
        <time>2026-05-18T22:23:42Z</time>
      </trkpt>
      <trkpt lat="23.063552" lon="113.274428">
        <time>2026-05-18T22:23:47Z</time>
      </trkpt>
      <trkpt lat="23.063624" lon="113.27429">
        <time>2026-05-18T22:23:52Z</time>
      </trkpt>
      <trkpt lat="23.063697" lon="113.274207">
        <time>2026-05-18T22:23:57Z</time>
      </trkpt>
      <trkpt lat="23.063815" lon="113.2741">
        <time>2026-05-18T22:24:02Z</time>
      </trkpt>
      <trkpt lat="23.063881" lon="113.274007">
        <time>2026-05-18T22:24:07Z</time>
      </trkpt>
      <trkpt lat="23.06397" lon="113.273849">
        <time>2026-05-18T22:24:12Z</time>
      </trkpt>
      <trkpt lat="23.064034" lon="113.273757">
        <time>2026-05-18T22:24:17Z</time>
      </trkpt>
      <trkpt lat="23.064152" lon="113.273648">
        <time>2026-05-18T22:24:22Z</time>
      </trkpt>
      <trkpt lat="23.064235" lon="113.273586">
        <time>2026-05-18T22:24:27Z</time>
      </trkpt>
      <trkpt lat="23.06436" lon="113.273489">
        <time>2026-05-18T22:24:32Z</time>
      </trkpt>
      <trkpt lat="23.064446" lon="113.273421">
        <time>2026-05-18T22:24:37Z</time>
      </trkpt>
      <trkpt lat="23.064553" lon="113.2733">
        <time>2026-05-18T22:24:42Z</time>
      </trkpt>
      <trkpt lat="23.06459" lon="113.273188">
        <time>2026-05-18T22:24:47Z</time>
      </trkpt>
      <trkpt lat="23.064569" lon="113.273005">
        <time>2026-05-18T22:24:52Z</time>
      </trkpt>
      <trkpt lat="23.064527" lon="113.272892">
        <time>2026-05-18T22:24:57Z</time>
      </trkpt>
      <trkpt lat="23.064472" lon="113.272728">
        <time>2026-05-18T22:25:02Z</time>
      </trkpt>
      <trkpt lat="23.064445" lon="113.272619">
        <time>2026-05-18T22:25:07Z</time>
      </trkpt>
      <trkpt lat="23.064479" lon="113.272459">
        <time>2026-05-18T22:25:12Z</time>
      </trkpt>
      <trkpt lat="23.064524" lon="113.272353">
        <time>2026-05-18T22:25:17Z</time>
      </trkpt>
      <trkpt lat="23.064577" lon="113.272191">
        <time>2026-05-18T22:25:22Z</time>
      </trkpt>
      <trkpt lat="23.064619" lon="113.272088">
        <time>2026-05-18T22:25:27Z</time>
      </trkpt>
      <trkpt lat="23.064696" lon="113.271943">
        <time>2026-05-18T22:25:32Z</time>
      </trkpt>
      <trkpt lat="23.064742" lon="113.271845">
        <time>2026-05-18T22:25:37Z</time>
      </trkpt>
      <trkpt lat="23.064805" lon="113.271691">
        <time>2026-05-18T22:25:42Z</time>
      </trkpt>
      <trkpt lat="23.064852" lon="113.27158">
        <time>2026-05-18T22:25:47Z</time>
      </trkpt>
      <trkpt lat="23.06493" lon="113.271424">
        <time>2026-05-18T22:25:52Z</time>
      </trkpt>
      <trkpt lat="23.064981" lon="113.271325">
        <time>2026-05-18T22:25:57Z</time>
      </trkpt>
      <trkpt lat="23.065061" lon="113.271185">
        <time>2026-05-18T22:26:02Z</time>
      </trkpt>
      <trkpt lat="23.065123" lon="113.271081">
        <time>2026-05-18T22:26:07Z</time>
      </trkpt>
      <trkpt lat="23.065198" lon="113.27092">
        <time>2026-05-18T22:26:12Z</time>
      </trkpt>
      <trkpt lat="23.065249" lon="113.270822">
        <time>2026-05-18T22:26:17Z</time>
      </trkpt>
      <trkpt lat="23.065326" lon="113.270669">
        <time>2026-05-18T22:26:22Z</time>
      </trkpt>
      <trkpt lat="23.065368" lon="113.270562">
        <time>2026-05-18T22:26:27Z</time>
      </trkpt>
      <trkpt lat="23.065429" lon="113.270405">
        <time>2026-05-18T22:26:32Z</time>
      </trkpt>
      <trkpt lat="23.065473" lon="113.270307">
        <time>2026-05-18T22:26:37Z</time>
      </trkpt>
      <trkpt lat="23.065533" lon="113.270156">
        <time>2026-05-18T22:26:42Z</time>
      </trkpt>
      <trkpt lat="23.065565" lon="113.270054">
        <time>2026-05-18T22:26:47Z</time>
      </trkpt>
      <trkpt lat="23.065607" lon="113.269897">
        <time>2026-05-18T22:26:52Z</time>
      </trkpt>
      <trkpt lat="23.065639" lon="113.269786">
        <time>2026-05-18T22:26:57Z</time>
      </trkpt>
      <trkpt lat="23.0657" lon="113.269623">
        <time>2026-05-18T22:27:02Z</time>
      </trkpt>
      <trkpt lat="23.06573" lon="113.269511">
        <time>2026-05-18T22:27:07Z</time>
      </trkpt>
      <trkpt lat="23.065758" lon="113.269338">
        <time>2026-05-18T22:27:12Z</time>
      </trkpt>
      <trkpt lat="23.065789" lon="113.269227">
        <time>2026-05-18T22:27:17Z</time>
      </trkpt>
      <trkpt lat="23.065838" lon="113.269069">
        <time>2026-05-18T22:27:22Z</time>
      </trkpt>
      <trkpt lat="23.065881" lon="113.26897">
        <time>2026-05-18T22:27:27Z</time>
      </trkpt>
      <trkpt lat="23.06595" lon="113.268821">
        <time>2026-05-18T22:27:32Z</time>
      </trkpt>
      <trkpt lat="23.065991" lon="113.268716">
        <time>2026-05-18T22:27:37Z</time>
      </trkpt>
      <trkpt lat="23.066066" lon="113.268559">
        <time>2026-05-18T22:27:42Z</time>
      </trkpt>
      <trkpt lat="23.066129" lon="113.268463">
        <time>2026-05-18T22:27:47Z</time>
      </trkpt>
      <trkpt lat="23.066231" lon="113.26833">
        <time>2026-05-18T22:27:52Z</time>
      </trkpt>
      <trkpt lat="23.066311" lon="113.268244">
        <time>2026-05-18T22:27:57Z</time>
      </trkpt>
      <trkpt lat="23.066437" lon="113.268144">
        <time>2026-05-18T22:28:02Z</time>
      </trkpt>
      <trkpt lat="23.066534" lon="113.268123">
        <time>2026-05-18T22:28:07Z</time>
      </trkpt>
      <trkpt lat="23.066675" lon="113.26812">
        <time>2026-05-18T22:28:12Z</time>
      </trkpt>
      <trkpt lat="23.066662" lon="113.268029">
        <time>2026-05-18T22:28:17Z</time>
      </trkpt>
      <trkpt lat="23.066501" lon="113.267959">
        <time>2026-05-18T22:28:22Z</time>
      </trkpt>
      <trkpt lat="23.066387" lon="113.267963">
        <time>2026-05-18T22:28:27Z</time>
      </trkpt>
      <trkpt lat="23.066245" lon="113.268011">
        <time>2026-05-18T22:28:32Z</time>
      </trkpt>
      <trkpt lat="23.066168" lon="113.268084">
        <time>2026-05-18T22:28:37Z</time>
      </trkpt>
      <trkpt lat="23.066052" lon="113.268206">
        <time>2026-05-18T22:28:42Z</time>
      </trkpt>
      <trkpt lat="23.065975" lon="113.268288">
        <time>2026-05-18T22:28:47Z</time>
      </trkpt>
      <trkpt lat="23.065872" lon="113.268423">
        <time>2026-05-18T22:28:52Z</time>
      </trkpt>
      <trkpt lat="23.065816" lon="113.268518">
        <time>2026-05-18T22:28:57Z</time>
      </trkpt>
      <trkpt lat="23.065744" lon="113.268662">
        <time>2026-05-18T22:29:02Z</time>
      </trkpt>
      <trkpt lat="23.065701" lon="113.268759">
        <time>2026-05-18T22:29:07Z</time>
      </trkpt>
      <trkpt lat="23.065647" lon="113.268915">
        <time>2026-05-18T22:29:12Z</time>
      </trkpt>
      <trkpt lat="23.065615" lon="113.269024">
        <time>2026-05-18T22:29:17Z</time>
      </trkpt>
      <trkpt lat="23.06557" lon="113.269188">
        <time>2026-05-18T22:29:22Z</time>
      </trkpt>
      <trkpt lat="23.065541" lon="113.269298">
        <time>2026-05-18T22:29:27Z</time>
      </trkpt>
      <trkpt lat="23.065498" lon="113.269471">
        <time>2026-05-18T22:29:32Z</time>
      </trkpt>
      <trkpt lat="23.065472" lon="113.269579">
        <time>2026-05-18T22:29:37Z</time>
      </trkpt>
      <trkpt lat="23.06543" lon="113.269749">
        <time>2026-05-18T22:29:42Z</time>
      </trkpt>
      <trkpt lat="23.065394" lon="113.269865">
        <time>2026-05-18T22:29:47Z</time>
      </trkpt>
      <trkpt lat="23.06533" lon="113.27003">
        <time>2026-05-18T22:29:52Z</time>
      </trkpt>
      <trkpt lat="23.065287" lon="113.270133">
        <time>2026-05-18T22:29:57Z</time>
      </trkpt>
      <trkpt lat="23.065217" lon="113.270289">
        <time>2026-05-18T22:30:02Z</time>
      </trkpt>
      <trkpt lat="23.065173" lon="113.270392">
        <time>2026-05-18T22:30:07Z</time>
      </trkpt>
      <trkpt lat="23.0651" lon="113.270547">
        <time>2026-05-18T22:30:12Z</time>
      </trkpt>
      <trkpt lat="23.065054" lon="113.270652">
        <time>2026-05-18T22:30:17Z</time>
      </trkpt>
      <trkpt lat="23.064987" lon="113.270804">
        <time>2026-05-18T22:30:22Z</time>
      </trkpt>
      <trkpt lat="23.064945" lon="113.270905">
        <time>2026-05-18T22:30:27Z</time>
      </trkpt>
      <trkpt lat="23.064876" lon="113.271055">
        <time>2026-05-18T22:30:32Z</time>
      </trkpt>
      <trkpt lat="23.064825" lon="113.271153">
        <time>2026-05-18T22:30:37Z</time>
      </trkpt>
      <trkpt lat="23.064766" lon="113.271305">
        <time>2026-05-18T22:30:42Z</time>
      </trkpt>
      <trkpt lat="23.064734" lon="113.271406">
        <time>2026-05-18T22:30:47Z</time>
      </trkpt>
      <trkpt lat="23.064652" lon="113.271551">
        <time>2026-05-18T22:30:52Z</time>
      </trkpt>
      <trkpt lat="23.064598" lon="113.271653">
        <time>2026-05-18T22:30:57Z</time>
      </trkpt>
      <trkpt lat="23.064522" lon="113.271808">
        <time>2026-05-18T22:31:02Z</time>
      </trkpt>
      <trkpt lat="23.064473" lon="113.271912">
        <time>2026-05-18T22:31:07Z</time>
      </trkpt>
      <trkpt lat="23.0644" lon="113.272063">
        <time>2026-05-18T22:31:12Z</time>
      </trkpt>
      <trkpt lat="23.064358" lon="113.272165">
        <time>2026-05-18T22:31:17Z</time>
      </trkpt>
      <trkpt lat="23.064331" lon="113.272337">
        <time>2026-05-18T22:31:22Z</time>
      </trkpt>
      <trkpt lat="23.064326" lon="113.272451">
        <time>2026-05-18T22:31:27Z</time>
      </trkpt>
      <trkpt lat="23.06433" lon="113.272616">
        <time>2026-05-18T22:31:32Z</time>
      </trkpt>
      <trkpt lat="23.064358" lon="113.272719">
        <time>2026-05-18T22:31:37Z</time>
      </trkpt>
      <trkpt lat="23.064408" lon="113.272868">
        <time>2026-05-18T22:31:42Z</time>
      </trkpt>
      <trkpt lat="23.06444" lon="113.272971">
        <time>2026-05-18T22:31:47Z</time>
      </trkpt>
      <trkpt lat="23.06448" lon="113.273132">
        <time>2026-05-18T22:31:52Z</time>
      </trkpt>
      <trkpt lat="23.064466" lon="113.273241">
        <time>2026-05-18T22:31:57Z</time>
      </trkpt>
      <trkpt lat="23.064359" lon="113.273363">
        <time>2026-05-18T22:32:02Z</time>
      </trkpt>
      <trkpt lat="23.064263" lon="113.273425">
        <time>2026-05-18T22:32:07Z</time>
      </trkpt>
      <trkpt lat="23.064127" lon="113.273512">
        <time>2026-05-18T22:32:12Z</time>
      </trkpt>
      <trkpt lat="23.064047" lon="113.273579">
        <time>2026-05-18T22:32:17Z</time>
      </trkpt>
      <trkpt lat="23.063934" lon="113.273691">
        <time>2026-05-18T22:32:22Z</time>
      </trkpt>
      <trkpt lat="23.063869" lon="113.273775">
        <time>2026-05-18T22:32:27Z</time>
      </trkpt>
      <trkpt lat="23.063789" lon="113.273913">
        <time>2026-05-18T22:32:32Z</time>
      </trkpt>
      <trkpt lat="23.063734" lon="113.274003">
        <time>2026-05-18T22:32:37Z</time>
      </trkpt>
      <trkpt lat="23.063626" lon="113.274111">
        <time>2026-05-18T22:32:42Z</time>
      </trkpt>
      <trkpt lat="23.06353" lon="113.274113">
        <time>2026-05-18T22:32:47Z</time>
      </trkpt>
      <trkpt lat="23.063395" lon="113.274112">
        <time>2026-05-18T22:32:52Z</time>
      </trkpt>
      <trkpt lat="23.063348" lon="113.274215">
        <time>2026-05-18T22:32:57Z</time>
      </trkpt>
      <trkpt lat="23.063298" lon="113.274387">
        <time>2026-05-18T22:33:02Z</time>
      </trkpt>
      <trkpt lat="23.063261" lon="113.274493">
        <time>2026-05-18T22:33:07Z</time>
      </trkpt>
      <trkpt lat="23.063193" lon="113.274651">
        <time>2026-05-18T22:33:12Z</time>
      </trkpt>
      <trkpt lat="23.063149" lon="113.274753">
        <time>2026-05-18T22:33:17Z</time>
      </trkpt>
      <trkpt lat="23.063103" lon="113.274906">
        <time>2026-05-18T22:33:22Z</time>
      </trkpt>
      <trkpt lat="23.063079" lon="113.275015">
        <time>2026-05-18T22:33:27Z</time>
      </trkpt>
      <trkpt lat="23.063012" lon="113.275161">
        <time>2026-05-18T22:33:32Z</time>
      </trkpt>
      <trkpt lat="23.062931" lon="113.275229">
        <time>2026-05-18T22:33:37Z</time>
      </trkpt>
      <trkpt lat="23.062917" lon="113.275389">
        <time>2026-05-18T22:33:42Z</time>
      </trkpt>
      <trkpt lat="23.062917" lon="113.2755">
        <time>2026-05-18T22:33:47Z</time>
      </trkpt>
      <trkpt lat="23.062806" lon="113.275644">
        <time>2026-05-18T22:33:52Z</time>
      </trkpt>
      <trkpt lat="23.062719" lon="113.275728">
        <time>2026-05-18T22:33:57Z</time>
      </trkpt>
      <trkpt lat="23.062602" lon="113.275861">
        <time>2026-05-18T22:34:02Z</time>
      </trkpt>
      <trkpt lat="23.062534" lon="113.275956">
        <time>2026-05-18T22:34:07Z</time>
      </trkpt>
      <trkpt lat="23.06245" lon="113.27611">
        <time>2026-05-18T22:34:12Z</time>
      </trkpt>
      <trkpt lat="23.062402" lon="113.276215">
        <time>2026-05-18T22:34:17Z</time>
      </trkpt>
      <trkpt lat="23.062343" lon="113.276368">
        <time>2026-05-18T22:34:22Z</time>
      </trkpt>
      <trkpt lat="23.062299" lon="113.276472">
        <time>2026-05-18T22:34:27Z</time>
      </trkpt>
      <trkpt lat="23.062242" lon="113.276637">
        <time>2026-05-18T22:34:32Z</time>
      </trkpt>
      <trkpt lat="23.06221" lon="113.27675">
        <time>2026-05-18T22:34:37Z</time>
      </trkpt>
      <trkpt lat="23.062147" lon="113.276918">
        <time>2026-05-18T22:34:42Z</time>
      </trkpt>
      <trkpt lat="23.062105" lon="113.277042">
        <time>2026-05-18T22:34:47Z</time>
      </trkpt>
      <trkpt lat="23.062038" lon="113.277243">
        <time>2026-05-18T22:34:52Z</time>
      </trkpt>
      <trkpt lat="23.061999" lon="113.277361">
        <time>2026-05-18T22:34:57Z</time>
      </trkpt>
      <trkpt lat="23.061946" lon="113.277523">
        <time>2026-05-18T22:35:02Z</time>
      </trkpt>
      <trkpt lat="23.061907" lon="113.277629">
        <time>2026-05-18T22:35:07Z</time>
      </trkpt>
      <trkpt lat="23.061862" lon="113.27779">
        <time>2026-05-18T22:35:12Z</time>
      </trkpt>
      <trkpt lat="23.061849" lon="113.277904">
        <time>2026-05-18T22:35:17Z</time>
      </trkpt>
      <trkpt lat="23.061853" lon="113.278074">
        <time>2026-05-18T22:35:22Z</time>
      </trkpt>
      <trkpt lat="23.061857" lon="113.278185">
        <time>2026-05-18T22:35:27Z</time>
      </trkpt>
      <trkpt lat="23.061864" lon="113.278351">
        <time>2026-05-18T22:35:32Z</time>
      </trkpt>
      <trkpt lat="23.061869" lon="113.278465">
        <time>2026-05-18T22:35:37Z</time>
      </trkpt>
      <trkpt lat="23.061874" lon="113.278632">
        <time>2026-05-18T22:35:42Z</time>
      </trkpt>
      <trkpt lat="23.061855" lon="113.278744">
        <time>2026-05-18T22:35:47Z</time>
      </trkpt>
      <trkpt lat="23.061782" lon="113.278908">
        <time>2026-05-18T22:35:52Z</time>
      </trkpt>
      <trkpt lat="23.061722" lon="113.279014">
        <time>2026-05-18T22:35:57Z</time>
      </trkpt>
      <trkpt lat="23.061635" lon="113.279175">
        <time>2026-05-18T22:36:02Z</time>
      </trkpt>
      <trkpt lat="23.061586" lon="113.279288">
        <time>2026-05-18T22:36:07Z</time>
      </trkpt>
      <trkpt lat="23.061515" lon="113.279459">
        <time>2026-05-18T22:36:12Z</time>
      </trkpt>
      <trkpt lat="23.061472" lon="113.27957">
        <time>2026-05-18T22:36:17Z</time>
      </trkpt>
      <trkpt lat="23.061403" lon="113.279735">
        <time>2026-05-18T22:36:22Z</time>
      </trkpt>
      <trkpt lat="23.061353" lon="113.279841">
        <time>2026-05-18T22:36:27Z</time>
      </trkpt>
      <trkpt lat="23.061286" lon="113.279999">
        <time>2026-05-18T22:36:32Z</time>
      </trkpt>
      <trkpt lat="23.06124" lon="113.280105">
        <time>2026-05-18T22:36:37Z</time>
      </trkpt>
      <trkpt lat="23.061172" lon="113.280267">
        <time>2026-05-18T22:36:42Z</time>
      </trkpt>
      <trkpt lat="23.061125" lon="113.280376">
        <time>2026-05-18T22:36:47Z</time>
      </trkpt>
      <trkpt lat="23.061055" lon="113.28054">
        <time>2026-05-18T22:36:52Z</time>
      </trkpt>
      <trkpt lat="23.061008" lon="113.280648">
        <time>2026-05-18T22:36:57Z</time>
      </trkpt>
      <trkpt lat="23.060932" lon="113.280812">
        <time>2026-05-18T22:37:02Z</time>
      </trkpt>
      <trkpt lat="23.060884" lon="113.280919">
        <time>2026-05-18T22:37:07Z</time>
      </trkpt>
      <trkpt lat="23.060812" lon="113.281082">
        <time>2026-05-18T22:37:12Z</time>
      </trkpt>
      <trkpt lat="23.060768" lon="113.28119">
        <time>2026-05-18T22:37:17Z</time>
      </trkpt>
      <trkpt lat="23.060705" lon="113.281342">
        <time>2026-05-18T22:37:22Z</time>
      </trkpt>
      <trkpt lat="23.060659" lon="113.281444">
        <time>2026-05-18T22:37:27Z</time>
      </trkpt>
      <trkpt lat="23.060586" lon="113.281607">
        <time>2026-05-18T22:37:32Z</time>
      </trkpt>
      <trkpt lat="23.060541" lon="113.281724">
        <time>2026-05-18T22:37:37Z</time>
      </trkpt>
      <trkpt lat="23.060472" lon="113.281892">
        <time>2026-05-18T22:37:42Z</time>
      </trkpt>
      <trkpt lat="23.060423" lon="113.281999">
        <time>2026-05-18T22:37:47Z</time>
      </trkpt>
      <trkpt lat="23.060357" lon="113.282159">
        <time>2026-05-18T22:37:52Z</time>
      </trkpt>
      <trkpt lat="23.060312" lon="113.282265">
        <time>2026-05-18T22:37:57Z</time>
      </trkpt>
      <trkpt lat="23.060241" lon="113.282422">
        <time>2026-05-18T22:38:02Z</time>
      </trkpt>
      <trkpt lat="23.060198" lon="113.282531">
        <time>2026-05-18T22:38:07Z</time>
      </trkpt>
      <trkpt lat="23.060135" lon="113.282684">
        <time>2026-05-18T22:38:12Z</time>
      </trkpt>
      <trkpt lat="23.060089" lon="113.28279">
        <time>2026-05-18T22:38:17Z</time>
      </trkpt>
      <trkpt lat="23.060019" lon="113.282946">
        <time>2026-05-18T22:38:22Z</time>
      </trkpt>
      <trkpt lat="23.059977" lon="113.283051">
        <time>2026-05-18T22:38:27Z</time>
      </trkpt>
      <trkpt lat="23.059916" lon="113.283213">
        <time>2026-05-18T22:38:32Z</time>
      </trkpt>
      <trkpt lat="23.059875" lon="113.283322">
        <time>2026-05-18T22:38:37Z</time>
      </trkpt>
      <trkpt lat="23.059932" lon="113.283376">
        <time>2026-05-18T22:38:42Z</time>
      </trkpt>
      <trkpt lat="23.059996" lon="113.283279">
        <time>2026-05-18T22:38:47Z</time>
      </trkpt>
      <trkpt lat="23.060084" lon="113.283118">
        <time>2026-05-18T22:38:52Z</time>
      </trkpt>
      <trkpt lat="23.06014" lon="113.283014">
        <time>2026-05-18T22:38:57Z</time>
      </trkpt>
      <trkpt lat="23.060208" lon="113.282863">
        <time>2026-05-18T22:39:02Z</time>
      </trkpt>
      <trkpt lat="23.060253" lon="113.282762">
        <time>2026-05-18T22:39:07Z</time>
      </trkpt>
      <trkpt lat="23.060318" lon="113.282603">
        <time>2026-05-18T22:39:12Z</time>
      </trkpt>
      <trkpt lat="23.060359" lon="113.282493">
        <time>2026-05-18T22:39:17Z</time>
      </trkpt>
      <trkpt lat="23.060424" lon="113.282328">
        <time>2026-05-18T22:39:22Z</time>
      </trkpt>
      <trkpt lat="23.060468" lon="113.282221">
        <time>2026-05-18T22:39:27Z</time>
      </trkpt>
      <trkpt lat="23.060533" lon="113.282063">
        <time>2026-05-18T22:39:32Z</time>
      </trkpt>
      <trkpt lat="23.060571" lon="113.281956">
        <time>2026-05-18T22:39:37Z</time>
      </trkpt>
      <trkpt lat="23.060624" lon="113.281796">
        <time>2026-05-18T22:39:42Z</time>
      </trkpt>
      <trkpt lat="23.060658" lon="113.281691">
        <time>2026-05-18T22:39:47Z</time>
      </trkpt>
      <trkpt lat="23.060716" lon="113.28153">
        <time>2026-05-18T22:39:52Z</time>
      </trkpt>
      <trkpt lat="23.060763" lon="113.281424">
        <time>2026-05-18T22:39:57Z</time>
      </trkpt>
      <trkpt lat="23.06084" lon="113.281266">
        <time>2026-05-18T22:40:02Z</time>
      </trkpt>
      <trkpt lat="23.060891" lon="113.281157">
        <time>2026-05-18T22:40:07Z</time>
      </trkpt>
      <trkpt lat="23.060966" lon="113.280998">
        <time>2026-05-18T22:40:12Z</time>
      </trkpt>
      <trkpt lat="23.061007" lon="113.280891">
        <time>2026-05-18T22:40:17Z</time>
      </trkpt>
      <trkpt lat="23.06107" lon="113.280731">
        <time>2026-05-18T22:40:22Z</time>
      </trkpt>
      <trkpt lat="23.061123" lon="113.280619">
        <time>2026-05-18T22:40:27Z</time>
      </trkpt>
      <trkpt lat="23.061202" lon="113.280458">
        <time>2026-05-18T22:40:32Z</time>
      </trkpt>
      <trkpt lat="23.061249" lon="113.280354">
        <time>2026-05-18T22:40:37Z</time>
      </trkpt>
      <trkpt lat="23.061318" lon="113.280195">
        <time>2026-05-18T22:40:42Z</time>
      </trkpt>
      <trkpt lat="23.061366" lon="113.280088">
        <time>2026-05-18T22:40:47Z</time>
      </trkpt>
      <trkpt lat="23.061435" lon="113.279931">
        <time>2026-05-18T22:40:52Z</time>
      </trkpt>
      <trkpt lat="23.061478" lon="113.279819">
        <time>2026-05-18T22:40:57Z</time>
      </trkpt>
      <trkpt lat="23.061542" lon="113.279648">
        <time>2026-05-18T22:41:02Z</time>
      </trkpt>
      <trkpt lat="23.06158" lon="113.279544">
        <time>2026-05-18T22:41:07Z</time>
      </trkpt>
      <trkpt lat="23.061644" lon="113.279386">
        <time>2026-05-18T22:41:12Z</time>
      </trkpt>
      <trkpt lat="23.061689" lon="113.279277">
        <time>2026-05-18T22:41:17Z</time>
      </trkpt>
      <trkpt lat="23.061767" lon="113.279118">
        <time>2026-05-18T22:41:22Z</time>
      </trkpt>
      <trkpt lat="23.061834" lon="113.279018">
        <time>2026-05-18T22:41:27Z</time>
      </trkpt>
      <trkpt lat="23.061929" lon="113.278857">
        <time>2026-05-18T22:41:32Z</time>
      </trkpt>
      <trkpt lat="23.061967" lon="113.278736">
        <time>2026-05-18T22:41:37Z</time>
      </trkpt>
      <trkpt lat="23.061976" lon="113.27854">
        <time>2026-05-18T22:41:42Z</time>
      </trkpt>
      <trkpt lat="23.061969" lon="113.278412">
        <time>2026-05-18T22:41:47Z</time>
      </trkpt>
      <trkpt lat="23.061961" lon="113.278219">
        <time>2026-05-18T22:41:52Z</time>
      </trkpt>
      <trkpt lat="23.061954" lon="113.278089">
        <time>2026-05-18T22:41:57Z</time>
      </trkpt>
      <trkpt lat="23.061944" lon="113.277902">
        <time>2026-05-18T22:42:02Z</time>
      </trkpt>
      <trkpt lat="23.061951" lon="113.277785">
        <time>2026-05-18T22:42:07Z</time>
      </trkpt>
      <trkpt lat="23.062001" lon="113.277606">
        <time>2026-05-18T22:42:12Z</time>
      </trkpt>
      <trkpt lat="23.062046" lon="113.27749">
        <time>2026-05-18T22:42:17Z</time>
      </trkpt>
      <trkpt lat="23.062111" lon="113.27732">
        <time>2026-05-18T22:42:22Z</time>
      </trkpt>
      <trkpt lat="23.062151" lon="113.277205">
        <time>2026-05-18T22:42:27Z</time>
      </trkpt>
      <trkpt lat="23.062207" lon="113.27704">
        <time>2026-05-18T22:42:32Z</time>
      </trkpt>
      <trkpt lat="23.062254" lon="113.276929">
        <time>2026-05-18T22:42:37Z</time>
      </trkpt>
      <trkpt lat="23.062322" lon="113.276758">
        <time>2026-05-18T22:42:42Z</time>
      </trkpt>
      <trkpt lat="23.062365" lon="113.276646">
        <time>2026-05-18T22:42:47Z</time>
      </trkpt>
      <trkpt lat="23.062429" lon="113.276475">
        <time>2026-05-18T22:42:52Z</time>
      </trkpt>
      <trkpt lat="23.062469" lon="113.276364">
        <time>2026-05-18T22:42:57Z</time>
      </trkpt>
      <trkpt lat="23.062538" lon="113.2762">
        <time>2026-05-18T22:43:02Z</time>
      </trkpt>
      <trkpt lat="23.062595" lon="113.276096">
        <time>2026-05-18T22:43:07Z</time>
      </trkpt>
      <trkpt lat="23.062689" lon="113.27595">
        <time>2026-05-18T22:43:12Z</time>
      </trkpt>
      <trkpt lat="23.06276" lon="113.27586">
        <time>2026-05-18T22:43:17Z</time>
      </trkpt>
      <trkpt lat="23.062879" lon="113.275738">
        <time>2026-05-18T22:43:22Z</time>
      </trkpt>
      <trkpt lat="23.062961" lon="113.275659">
        <time>2026-05-18T22:43:27Z</time>
      </trkpt>
      <trkpt lat="23.063074" lon="113.275528">
        <time>2026-05-18T22:43:32Z</time>
      </trkpt>
      <trkpt lat="23.063136" lon="113.275434">
        <time>2026-05-18T22:43:37Z</time>
      </trkpt>
      <trkpt lat="23.063224" lon="113.275284">
        <time>2026-05-18T22:43:42Z</time>
      </trkpt>
      <trkpt lat="23.063281" lon="113.275187">
        <time>2026-05-18T22:43:47Z</time>
      </trkpt>
      <trkpt lat="23.063365" lon="113.275032">
        <time>2026-05-18T22:43:52Z</time>
      </trkpt>
      <trkpt lat="23.063396" lon="113.274919">
        <time>2026-05-18T22:43:57Z</time>
      </trkpt>
      <trkpt lat="23.063437" lon="113.274753">
        <time>2026-05-18T22:44:02Z</time>
      </trkpt>
      <trkpt lat="23.063464" lon="113.27465">
        <time>2026-05-18T22:44:07Z</time>
      </trkpt>
      <trkpt lat="23.063509" lon="113.274496">
        <time>2026-05-18T22:44:12Z</time>
      </trkpt>
      <trkpt lat="23.063552" lon="113.274389">
        <time>2026-05-18T22:44:17Z</time>
      </trkpt>
      <trkpt lat="23.063671" lon="113.274251">
        <time>2026-05-18T22:44:22Z</time>
      </trkpt>
      <trkpt lat="23.063767" lon="113.274166">
        <time>2026-05-18T22:44:27Z</time>
      </trkpt>
      <trkpt lat="23.063882" lon="113.274021">
        <time>2026-05-18T22:44:32Z</time>
      </trkpt>
      <trkpt lat="23.063942" lon="113.273906">
        <time>2026-05-18T22:44:37Z</time>
      </trkpt>
      <trkpt lat="23.064038" lon="113.273743">
        <time>2026-05-18T22:44:42Z</time>
      </trkpt>
      <trkpt lat="23.06412" lon="113.273661">
        <time>2026-05-18T22:44:47Z</time>
      </trkpt>
      <trkpt lat="23.064263" lon="113.273561">
        <time>2026-05-18T22:44:52Z</time>
      </trkpt>
      <trkpt lat="23.064356" lon="113.273492">
        <time>2026-05-18T22:44:57Z</time>
      </trkpt>
      <trkpt lat="23.064496" lon="113.273388">
        <time>2026-05-18T22:45:02Z</time>
      </trkpt>
      <trkpt lat="23.064566" lon="113.27329">
        <time>2026-05-18T22:45:07Z</time>
      </trkpt>
      <trkpt lat="23.064593" lon="113.2731">
        <time>2026-05-18T22:45:12Z</time>
      </trkpt>
      <trkpt lat="23.064562" lon="113.272971">
        <time>2026-05-18T22:45:17Z</time>
      </trkpt>
      <trkpt lat="23.064495" lon="113.272788">
        <time>2026-05-18T22:45:22Z</time>
      </trkpt>
      <trkpt lat="23.064461" lon="113.272669">
        <time>2026-05-18T22:45:27Z</time>
      </trkpt>
      <trkpt lat="23.064483" lon="113.272498">
        <time>2026-05-18T22:45:32Z</time>
      </trkpt>
      <trkpt lat="23.064543" lon="113.272393">
        <time>2026-05-18T22:45:37Z</time>
      </trkpt>
      <trkpt lat="23.064576" lon="113.272214">
        <time>2026-05-18T22:45:42Z</time>
      </trkpt>
      <trkpt lat="23.064609" lon="113.272101">
        <time>2026-05-18T22:45:47Z</time>
      </trkpt>
      <trkpt lat="23.064678" lon="113.271951">
        <time>2026-05-18T22:45:52Z</time>
      </trkpt>
      <trkpt lat="23.064721" lon="113.27185">
        <time>2026-05-18T22:45:57Z</time>
      </trkpt>
      <trkpt lat="23.064795" lon="113.271689">
        <time>2026-05-18T22:46:02Z</time>
      </trkpt>
      <trkpt lat="23.064848" lon="113.27158">
        <time>2026-05-18T22:46:07Z</time>
      </trkpt>
      <trkpt lat="23.064928" lon="113.271416">
        <time>2026-05-18T22:46:12Z</time>
      </trkpt>
      <trkpt lat="23.064975" lon="113.271306">
        <time>2026-05-18T22:46:17Z</time>
      </trkpt>
      <trkpt lat="23.065062" lon="113.271153">
        <time>2026-05-18T22:46:22Z</time>
      </trkpt>
      <trkpt lat="23.065109" lon="113.271075">
        <time>2026-05-18T22:46:27Z</time>
      </trkpt>
      <trkpt lat="23.065177" lon="113.270959">
        <time>2026-05-18T22:46:32Z</time>
      </trkpt>
      <trkpt lat="23.065219" lon="113.270849">
        <time>2026-05-18T22:46:37Z</time>
      </trkpt>
      <trkpt lat="23.065288" lon="113.270678">
        <time>2026-05-18T22:46:42Z</time>
      </trkpt>
      <trkpt lat="23.065335" lon="113.270566">
        <time>2026-05-18T22:46:47Z</time>
      </trkpt>
      <trkpt lat="23.065411" lon="113.270404">
        <time>2026-05-18T22:46:52Z</time>
      </trkpt>
      <trkpt lat="23.065461" lon="113.270294">
        <time>2026-05-18T22:46:57Z</time>
      </trkpt>
      <trkpt lat="23.065531" lon="113.27013">
        <time>2026-05-18T22:47:02Z</time>
      </trkpt>
      <trkpt lat="23.065571" lon="113.27002">
        <time>2026-05-18T22:47:07Z</time>
      </trkpt>
      <trkpt lat="23.065625" lon="113.269852">
        <time>2026-05-18T22:47:12Z</time>
      </trkpt>
      <trkpt lat="23.065656" lon="113.269735">
        <time>2026-05-18T22:47:17Z</time>
      </trkpt>
      <trkpt lat="23.065706" lon="113.269561">
        <time>2026-05-18T22:47:22Z</time>
      </trkpt>
      <trkpt lat="23.06573" lon="113.269443">
        <time>2026-05-18T22:47:27Z</time>
      </trkpt>
      <trkpt lat="23.06577" lon="113.269264">
        <time>2026-05-18T22:47:32Z</time>
      </trkpt>
      <trkpt lat="23.065807" lon="113.269145">
        <time>2026-05-18T22:47:37Z</time>
      </trkpt>
      <trkpt lat="23.065877" lon="113.268965">
        <time>2026-05-18T22:47:42Z</time>
      </trkpt>
      <trkpt lat="23.065923" lon="113.268858">
        <time>2026-05-18T22:47:47Z</time>
      </trkpt>
      <trkpt lat="23.065996" lon="113.268701">
        <time>2026-05-18T22:47:52Z</time>
      </trkpt>
      <trkpt lat="23.06605" lon="113.268595">
        <time>2026-05-18T22:47:57Z</time>
      </trkpt>
      <trkpt lat="23.066145" lon="113.26844">
        <time>2026-05-18T22:48:02Z</time>
      </trkpt>
      <trkpt lat="23.066217" lon="113.268341">
        <time>2026-05-18T22:48:07Z</time>
      </trkpt>
      <trkpt lat="23.066335" lon="113.268207">
        <time>2026-05-18T22:48:12Z</time>
      </trkpt>
      <trkpt lat="23.066437" lon="113.268145">
        <time>2026-05-18T22:48:17Z</time>
      </trkpt>
      <trkpt lat="23.066609" lon="113.268133">
        <time>2026-05-18T22:48:22Z</time>
      </trkpt>
      <trkpt lat="23.066725" lon="113.268156">
        <time>2026-05-18T22:48:27Z</time>
      </trkpt>
      <trkpt lat="23.066898" lon="113.26817">
        <time>2026-05-18T22:48:32Z</time>
      </trkpt>
      <trkpt lat="23.067002" lon="113.268187">
        <time>2026-05-18T22:48:37Z</time>
      </trkpt>
      <trkpt lat="23.067136" lon="113.268254">
        <time>2026-05-18T22:48:42Z</time>
      </trkpt>
      <trkpt lat="23.067218" lon="113.268312">
        <time>2026-05-18T22:48:47Z</time>
      </trkpt>
      <trkpt lat="23.067347" lon="113.268405">
        <time>2026-05-18T22:48:52Z</time>
      </trkpt>
      <trkpt lat="23.067444" lon="113.268457">
        <time>2026-05-18T22:48:57Z</time>
      </trkpt>
      <trkpt lat="23.067612" lon="113.268551">
        <time>2026-05-18T22:49:02Z</time>
      </trkpt>
      <trkpt lat="23.067722" lon="113.268609">
        <time>2026-05-18T22:49:07Z</time>
      </trkpt>
      <trkpt lat="23.067893" lon="113.268679">
        <time>2026-05-18T22:49:12Z</time>
      </trkpt>
      <trkpt lat="23.067997" lon="113.268728">
        <time>2026-05-18T22:49:17Z</time>
      </trkpt>
      <trkpt lat="23.068141" lon="113.268792">
        <time>2026-05-18T22:49:22Z</time>
      </trkpt>
      <trkpt lat="23.068247" lon="113.268829">
        <time>2026-05-18T22:49:27Z</time>
      </trkpt>
      <trkpt lat="23.068408" lon="113.268898">
        <time>2026-05-18T22:49:32Z</time>
      </trkpt>
      <trkpt lat="23.068499" lon="113.268946">
        <time>2026-05-18T22:49:37Z</time>
      </trkpt>
      <trkpt lat="23.068625" lon="113.269024">
        <time>2026-05-18T22:49:42Z</time>
      </trkpt>
      <trkpt lat="23.06873" lon="113.269076">
        <time>2026-05-18T22:49:47Z</time>
      </trkpt>
      <trkpt lat="23.068902" lon="113.269152">
        <time>2026-05-18T22:49:52Z</time>
      </trkpt>
      <trkpt lat="23.069015" lon="113.269179">
        <time>2026-05-18T22:49:57Z</time>
      </trkpt>
      <trkpt lat="23.069166" lon="113.269261">
        <time>2026-05-18T22:50:02Z</time>
      </trkpt>
      <trkpt lat="23.069255" lon="113.26932">
        <time>2026-05-18T22:50:07Z</time>
      </trkpt>
      <trkpt lat="23.069433" lon="113.269381">
        <time>2026-05-18T22:50:12Z</time>
      </trkpt>
      <trkpt lat="23.069556" lon="113.269435">
        <time>2026-05-18T22:50:17Z</time>
      </trkpt>
      <trkpt lat="23.06972" lon="113.269523">
        <time>2026-05-18T22:50:22Z</time>
      </trkpt>
      <trkpt lat="23.069822" lon="113.269577">
        <time>2026-05-18T22:50:27Z</time>
      </trkpt>
      <trkpt lat="23.069963" lon="113.269674">
        <time>2026-05-18T22:50:32Z</time>
      </trkpt>
      <trkpt lat="23.070052" lon="113.269748">
        <time>2026-05-18T22:50:37Z</time>
      </trkpt>
      <trkpt lat="23.070186" lon="113.269829">
        <time>2026-05-18T22:50:42Z</time>
      </trkpt>
      <trkpt lat="23.070275" lon="113.269874">
        <time>2026-05-18T22:50:47Z</time>
      </trkpt>
      <trkpt lat="23.070411" lon="113.269948">
        <time>2026-05-18T22:50:52Z</time>
      </trkpt>
      <trkpt lat="23.070515" lon="113.27">
        <time>2026-05-18T22:50:57Z</time>
      </trkpt>
      <trkpt lat="23.070681" lon="113.270047">
        <time>2026-05-18T22:51:02Z</time>
      </trkpt>
      <trkpt lat="23.070781" lon="113.270095">
        <time>2026-05-18T22:51:07Z</time>
      </trkpt>
      <trkpt lat="23.070916" lon="113.270165">
        <time>2026-05-18T22:51:12Z</time>
      </trkpt>
      <trkpt lat="23.07101" lon="113.270201">
        <time>2026-05-18T22:51:17Z</time>
      </trkpt>
      <trkpt lat="23.071143" lon="113.270259">
        <time>2026-05-18T22:51:22Z</time>
      </trkpt>
      <trkpt lat="23.071228" lon="113.270298">
        <time>2026-05-18T22:51:27Z</time>
      </trkpt>
      <trkpt lat="23.07133" lon="113.270341">
        <time>2026-05-18T22:51:32Z</time>
      </trkpt>
      <trkpt lat="23.0714" lon="113.270385">
        <time>2026-05-18T22:51:37Z</time>
      </trkpt>
      <trkpt lat="23.07154" lon="113.270452">
        <time>2026-05-18T22:51:42Z</time>
      </trkpt>
      <trkpt lat="23.071638" lon="113.270482">
        <time>2026-05-18T22:51:47Z</time>
      </trkpt>
      <trkpt lat="23.071778" lon="113.270546">
        <time>2026-05-18T22:51:52Z</time>
      </trkpt>
      <trkpt lat="23.071874" lon="113.270608">
        <time>2026-05-18T22:51:57Z</time>
      </trkpt>
      <trkpt lat="23.071985" lon="113.270645">
        <time>2026-05-18T22:52:02Z</time>
      </trkpt>
      <trkpt lat="23.072059" lon="113.270675">
        <time>2026-05-18T22:52:07Z</time>
      </trkpt>
      <trkpt lat="23.072209" lon="113.270746">
        <time>2026-05-18T22:52:12Z</time>
      </trkpt>
      <trkpt lat="23.072308" lon="113.270785">
        <time>2026-05-18T22:52:17Z</time>
      </trkpt>
      <trkpt lat="23.072484" lon="113.270841">
        <time>2026-05-18T22:52:22Z</time>
      </trkpt>
      <trkpt lat="23.072598" lon="113.270897">
        <time>2026-05-18T22:52:27Z</time>
      </trkpt>
      <trkpt lat="23.072737" lon="113.270978">
        <time>2026-05-18T22:52:32Z</time>
      </trkpt>
      <trkpt lat="23.072827" lon="113.271006">
        <time>2026-05-18T22:52:37Z</time>
      </trkpt>
      <trkpt lat="23.072968" lon="113.271066">
        <time>2026-05-18T22:52:42Z</time>
      </trkpt>
      <trkpt lat="23.073066" lon="113.271117">
        <time>2026-05-18T22:52:47Z</time>
      </trkpt>
      <trkpt lat="23.073181" lon="113.271181">
        <time>2026-05-18T22:52:52Z</time>
      </trkpt>
      <trkpt lat="23.073256" lon="113.27126">
        <time>2026-05-18T22:52:57Z</time>
      </trkpt>
      <trkpt lat="23.0734" lon="113.27134">
        <time>2026-05-18T22:53:02Z</time>
      </trkpt>
      <trkpt lat="23.073495" lon="113.271391">
        <time>2026-05-18T22:53:07Z</time>
      </trkpt>
      <trkpt lat="23.073582" lon="113.271496">
        <time>2026-05-18T22:53:12Z</time>
      </trkpt>
      <trkpt lat="23.073655" lon="113.27157">
        <time>2026-05-18T22:53:17Z</time>
      </trkpt>
      <trkpt lat="23.073805" lon="113.271664">
        <time>2026-05-18T22:53:22Z</time>
      </trkpt>
      <trkpt lat="23.073917" lon="113.271717">
        <time>2026-05-18T22:53:27Z</time>
      </trkpt>
      <trkpt lat="23.074074" lon="113.271763">
        <time>2026-05-18T22:53:32Z</time>
      </trkpt>
      <trkpt lat="23.074082" lon="113.271837">
        <time>2026-05-18T22:53:37Z</time>
      </trkpt>
      <trkpt lat="23.074013" lon="113.272005">
        <time>2026-05-18T22:53:42Z</time>
      </trkpt>
      <trkpt lat="23.073959" lon="113.272122">
        <time>2026-05-18T22:53:47Z</time>
      </trkpt>
      <trkpt lat="23.073882" lon="113.27229">
        <time>2026-05-18T22:53:52Z</time>
      </trkpt>
      <trkpt lat="23.073829" lon="113.272394">
        <time>2026-05-18T22:53:57Z</time>
      </trkpt>
      <trkpt lat="23.073758" lon="113.272544">
        <time>2026-05-18T22:54:02Z</time>
      </trkpt>
      <trkpt lat="23.073714" lon="113.272646">
        <time>2026-05-18T22:54:07Z</time>
      </trkpt>
      <trkpt lat="23.073656" lon="113.272796">
        <time>2026-05-18T22:54:12Z</time>
      </trkpt>
      <trkpt lat="23.073677" lon="113.272878">
        <time>2026-05-18T22:54:17Z</time>
      </trkpt>
      <trkpt lat="23.073797" lon="113.272939">
        <time>2026-05-18T22:54:22Z</time>
      </trkpt>
      <trkpt lat="23.073916" lon="113.272966">
        <time>2026-05-18T22:54:27Z</time>
      </trkpt>
      <trkpt lat="23.074038" lon="113.272904">
        <time>2026-05-18T22:54:32Z</time>
      </trkpt>
      <trkpt lat="23.074073" lon="113.272801">
        <time>2026-05-18T22:54:37Z</time>
      </trkpt>
      <trkpt lat="23.074117" lon="113.272642">
        <time>2026-05-18T22:54:42Z</time>
      </trkpt>
      <trkpt lat="23.074152" lon="113.272544">
        <time>2026-05-18T22:54:47Z</time>
      </trkpt>
      <trkpt lat="23.074243" lon="113.272394">
        <time>2026-05-18T22:54:52Z</time>
      </trkpt>
      <trkpt lat="23.074298" lon="113.272288">
        <time>2026-05-18T22:54:57Z</time>
      </trkpt>
      <trkpt lat="23.07436" lon="113.27213">
        <time>2026-05-18T22:55:02Z</time>
      </trkpt>
      <trkpt lat="23.074414" lon="113.27206">
        <time>2026-05-18T22:55:07Z</time>
      </trkpt>
      <trkpt lat="23.074518" lon="113.272012">
        <time>2026-05-18T22:55:12Z</time>
      </trkpt>
      <trkpt lat="23.074618" lon="113.272047">
        <time>2026-05-18T22:55:17Z</time>
      </trkpt>
      <trkpt lat="23.074759" lon="113.272143">
        <time>2026-05-18T22:55:22Z</time>
      </trkpt>
      <trkpt lat="23.074837" lon="113.272208">
        <time>2026-05-18T22:55:27Z</time>
      </trkpt>
      <trkpt lat="23.074957" lon="113.2723">
        <time>2026-05-18T22:55:32Z</time>
      </trkpt>
      <trkpt lat="23.07505" lon="113.272365">
        <time>2026-05-18T22:55:37Z</time>
      </trkpt>
      <trkpt lat="23.075188" lon="113.272431">
        <time>2026-05-18T22:55:46Z</time>
      </trkpt>
    </trkseg>
  </trk>
</gpx>