<?xml version="1.0" encoding="UTF-8"?>
<gpx xmlns="http://www.topografix.com/GPX/1/1" xmlns:gpxtpx="http://www.garmin.com/xmlschemas/TrackPointExtension/v1" xmlns:xsi="http://www.w3.org/2001/XMLSchema-instance" xsi:schemaLocation="http://www.topografix.com/GPX/1/1 http://www.topografix.com/GPX/1/1/gpx.xsd" version="1.1" creator="gpx.py -- https://github.com/tkrajina/gpxpy">
  <trk>
    <name>gpx from joyrun</name>
    <trkseg>
      <trkpt lat="23.076097" lon="113.27252">
        <time>2026-05-25T21:53:05Z</time>
      </trkpt>
      <trkpt lat="23.076064" lon="113.272454">
        <time>2026-05-25T21:53:10Z</time>
      </trkpt>
      <trkpt lat="23.075944" lon="113.272429">
        <time>2026-05-25T21:53:15Z</time>
      </trkpt>
      <trkpt lat="23.07587" lon="113.272385">
        <time>2026-05-25T21:53:20Z</time>
      </trkpt>
      <trkpt lat="23.075676" lon="113.272551">
        <time>2026-05-25T21:53:25Z</time>
      </trkpt>
      <trkpt lat="23.075562" lon="113.272593">
        <time>2026-05-25T21:53:30Z</time>
      </trkpt>
      <trkpt lat="23.075418" lon="113.272542">
        <time>2026-05-25T21:53:35Z</time>
      </trkpt>
      <trkpt lat="23.075329" lon="113.272512">
        <time>2026-05-25T21:53:40Z</time>
      </trkpt>
      <trkpt lat="23.075205" lon="113.272487">
        <time>2026-05-25T21:53:45Z</time>
      </trkpt>
      <trkpt lat="23.075125" lon="113.272458">
        <time>2026-05-25T21:53:50Z</time>
      </trkpt>
      <trkpt lat="23.075006" lon="113.272385">
        <time>2026-05-25T21:53:55Z</time>
      </trkpt>
      <trkpt lat="23.074924" lon="113.272342">
        <time>2026-05-25T21:54:00Z</time>
      </trkpt>
      <trkpt lat="23.074807" lon="113.272269">
        <time>2026-05-25T21:54:05Z</time>
      </trkpt>
      <trkpt lat="23.074716" lon="113.27224">
        <time>2026-05-25T21:54:10Z</time>
      </trkpt>
      <trkpt lat="23.074577" lon="113.272184">
        <time>2026-05-25T21:54:15Z</time>
      </trkpt>
      <trkpt lat="23.07449" lon="113.272167">
        <time>2026-05-25T21:54:20Z</time>
      </trkpt>
      <trkpt lat="23.074394" lon="113.272211">
        <time>2026-05-25T21:54:25Z</time>
      </trkpt>
      <trkpt lat="23.074334" lon="113.272262">
        <time>2026-05-25T21:54:30Z</time>
      </trkpt>
      <trkpt lat="23.074261" lon="113.272378">
        <time>2026-05-25T21:54:35Z</time>
      </trkpt>
      <trkpt lat="23.074219" lon="113.272447">
        <time>2026-05-25T21:54:40Z</time>
      </trkpt>
      <trkpt lat="23.074156" lon="113.272559">
        <time>2026-05-25T21:54:45Z</time>
      </trkpt>
      <trkpt lat="23.074122" lon="113.272643">
        <time>2026-05-25T21:54:50Z</time>
      </trkpt>
      <trkpt lat="23.074063" lon="113.272774">
        <time>2026-05-25T21:54:55Z</time>
      </trkpt>
      <trkpt lat="23.074024" lon="113.272859">
        <time>2026-05-25T21:55:00Z</time>
      </trkpt>
      <trkpt lat="23.073964" lon="113.272975">
        <time>2026-05-25T21:55:05Z</time>
      </trkpt>
      <trkpt lat="23.073929" lon="113.273052">
        <time>2026-05-25T21:55:10Z</time>
      </trkpt>
      <trkpt lat="23.07387" lon="113.273177">
        <time>2026-05-25T21:55:15Z</time>
      </trkpt>
      <trkpt lat="23.07383" lon="113.273262">
        <time>2026-05-25T21:55:20Z</time>
      </trkpt>
      <trkpt lat="23.073819" lon="113.273329">
        <time>2026-05-25T21:55:25Z</time>
      </trkpt>
      <trkpt lat="23.073841" lon="113.273263">
        <time>2026-05-25T21:55:30Z</time>
      </trkpt>
      <trkpt lat="23.073888" lon="113.273131">
        <time>2026-05-25T21:55:35Z</time>
      </trkpt>
      <trkpt lat="23.073924" lon="113.273048">
        <time>2026-05-25T21:55:40Z</time>
      </trkpt>
      <trkpt lat="23.073869" lon="113.272953">
        <time>2026-05-25T21:55:45Z</time>
      </trkpt>
      <trkpt lat="23.073789" lon="113.272915">
        <time>2026-05-25T21:55:50Z</time>
      </trkpt>
      <trkpt lat="23.073701" lon="113.272832">
        <time>2026-05-25T21:55:55Z</time>
      </trkpt>
      <trkpt lat="23.073722" lon="113.272749">
        <time>2026-05-25T21:56:00Z</time>
      </trkpt>
      <trkpt lat="23.073781" lon="113.27262">
        <time>2026-05-25T21:56:05Z</time>
      </trkpt>
      <trkpt lat="23.073815" lon="113.272537">
        <time>2026-05-25T21:56:10Z</time>
      </trkpt>
      <trkpt lat="23.073873" lon="113.272418">
        <time>2026-05-25T21:56:15Z</time>
      </trkpt>
      <trkpt lat="23.073914" lon="113.272327">
        <time>2026-05-25T21:56:20Z</time>
      </trkpt>
      <trkpt lat="23.07397" lon="113.272193">
        <time>2026-05-25T21:56:25Z</time>
      </trkpt>
      <trkpt lat="23.073999" lon="113.272104">
        <time>2026-05-25T21:56:30Z</time>
      </trkpt>
      <trkpt lat="23.074033" lon="113.271987">
        <time>2026-05-25T21:56:35Z</time>
      </trkpt>
      <trkpt lat="23.074061" lon="113.271916">
        <time>2026-05-25T21:56:40Z</time>
      </trkpt>
      <trkpt lat="23.07411" lon="113.271793">
        <time>2026-05-25T21:56:45Z</time>
      </trkpt>
      <trkpt lat="23.074083" lon="113.27173">
        <time>2026-05-25T21:56:50Z</time>
      </trkpt>
      <trkpt lat="23.07398" lon="113.271686">
        <time>2026-05-25T21:56:55Z</time>
      </trkpt>
      <trkpt lat="23.073906" lon="113.271654">
        <time>2026-05-25T21:57:00Z</time>
      </trkpt>
      <trkpt lat="23.073796" lon="113.271592">
        <time>2026-05-25T21:57:05Z</time>
      </trkpt>
      <trkpt lat="23.073721" lon="113.271546">
        <time>2026-05-25T21:57:10Z</time>
      </trkpt>
      <trkpt lat="23.073603" lon="113.271485">
        <time>2026-05-25T21:57:15Z</time>
      </trkpt>
      <trkpt lat="23.073512" lon="113.271453">
        <time>2026-05-25T21:57:20Z</time>
      </trkpt>
      <trkpt lat="23.073365" lon="113.271413">
        <time>2026-05-25T21:57:25Z</time>
      </trkpt>
      <trkpt lat="23.073287" lon="113.271346">
        <time>2026-05-25T21:57:30Z</time>
      </trkpt>
      <trkpt lat="23.073149" lon="113.271269">
        <time>2026-05-25T21:57:35Z</time>
      </trkpt>
      <trkpt lat="23.073035" lon="113.271227">
        <time>2026-05-25T21:57:40Z</time>
      </trkpt>
      <trkpt lat="23.072908" lon="113.27121">
        <time>2026-05-25T21:57:45Z</time>
      </trkpt>
      <trkpt lat="23.072832" lon="113.271191">
        <time>2026-05-25T21:57:50Z</time>
      </trkpt>
      <trkpt lat="23.072708" lon="113.271122">
        <time>2026-05-25T21:57:55Z</time>
      </trkpt>
      <trkpt lat="23.072624" lon="113.271082">
        <time>2026-05-25T21:58:00Z</time>
      </trkpt>
      <trkpt lat="23.072496" lon="113.271033">
        <time>2026-05-25T21:58:05Z</time>
      </trkpt>
      <trkpt lat="23.072416" lon="113.270991">
        <time>2026-05-25T21:58:10Z</time>
      </trkpt>
      <trkpt lat="23.072287" lon="113.270912">
        <time>2026-05-25T21:58:15Z</time>
      </trkpt>
      <trkpt lat="23.072198" lon="113.270853">
        <time>2026-05-25T21:58:20Z</time>
      </trkpt>
      <trkpt lat="23.072072" lon="113.270753">
        <time>2026-05-25T21:58:25Z</time>
      </trkpt>
      <trkpt lat="23.071991" lon="113.270705">
        <time>2026-05-25T21:58:30Z</time>
      </trkpt>
      <trkpt lat="23.071852" lon="113.270668">
        <time>2026-05-25T21:58:35Z</time>
      </trkpt>
      <trkpt lat="23.071775" lon="113.270635">
        <time>2026-05-25T21:58:40Z</time>
      </trkpt>
      <trkpt lat="23.071672" lon="113.270559">
        <time>2026-05-25T21:58:45Z</time>
      </trkpt>
      <trkpt lat="23.071583" lon="113.2705">
        <time>2026-05-25T21:58:50Z</time>
      </trkpt>
      <trkpt lat="23.071458" lon="113.2704">
        <time>2026-05-25T21:58:55Z</time>
      </trkpt>
      <trkpt lat="23.071361" lon="113.270339">
        <time>2026-05-25T21:59:00Z</time>
      </trkpt>
      <trkpt lat="23.071193" lon="113.270267">
        <time>2026-05-25T21:59:05Z</time>
      </trkpt>
      <trkpt lat="23.071082" lon="113.270235">
        <time>2026-05-25T21:59:10Z</time>
      </trkpt>
      <trkpt lat="23.070938" lon="113.270163">
        <time>2026-05-25T21:59:15Z</time>
      </trkpt>
      <trkpt lat="23.070838" lon="113.270114">
        <time>2026-05-25T21:59:20Z</time>
      </trkpt>
      <trkpt lat="23.070689" lon="113.270065">
        <time>2026-05-25T21:59:25Z</time>
      </trkpt>
      <trkpt lat="23.070595" lon="113.270048">
        <time>2026-05-25T21:59:30Z</time>
      </trkpt>
      <trkpt lat="23.070444" lon="113.270014">
        <time>2026-05-25T21:59:35Z</time>
      </trkpt>
      <trkpt lat="23.070352" lon="113.269968">
        <time>2026-05-25T21:59:40Z</time>
      </trkpt>
      <trkpt lat="23.07024" lon="113.269886">
        <time>2026-05-25T21:59:45Z</time>
      </trkpt>
      <trkpt lat="23.070162" lon="113.269822">
        <time>2026-05-25T21:59:50Z</time>
      </trkpt>
      <trkpt lat="23.070051" lon="113.26973">
        <time>2026-05-25T21:59:55Z</time>
      </trkpt>
      <trkpt lat="23.069985" lon="113.269679">
        <time>2026-05-25T22:00:00Z</time>
      </trkpt>
      <trkpt lat="23.069873" lon="113.269598">
        <time>2026-05-25T22:00:05Z</time>
      </trkpt>
      <trkpt lat="23.069796" lon="113.26956">
        <time>2026-05-25T22:00:10Z</time>
      </trkpt>
      <trkpt lat="23.069666" lon="113.269511">
        <time>2026-05-25T22:00:15Z</time>
      </trkpt>
      <trkpt lat="23.069589" lon="113.269476">
        <time>2026-05-25T22:00:20Z</time>
      </trkpt>
      <trkpt lat="23.06947" lon="113.269422">
        <time>2026-05-25T22:00:25Z</time>
      </trkpt>
      <trkpt lat="23.069379" lon="113.26939">
        <time>2026-05-25T22:00:30Z</time>
      </trkpt>
      <trkpt lat="23.069257" lon="113.269305">
        <time>2026-05-25T22:00:35Z</time>
      </trkpt>
      <trkpt lat="23.069169" lon="113.269266">
        <time>2026-05-25T22:00:40Z</time>
      </trkpt>
      <trkpt lat="23.069036" lon="113.269228">
        <time>2026-05-25T22:00:45Z</time>
      </trkpt>
      <trkpt lat="23.068942" lon="113.269201">
        <time>2026-05-25T22:00:50Z</time>
      </trkpt>
      <trkpt lat="23.068817" lon="113.269143">
        <time>2026-05-25T22:00:55Z</time>
      </trkpt>
      <trkpt lat="23.068734" lon="113.269089">
        <time>2026-05-25T22:01:00Z</time>
      </trkpt>
      <trkpt lat="23.068578" lon="113.269051">
        <time>2026-05-25T22:01:05Z</time>
      </trkpt>
      <trkpt lat="23.068475" lon="113.269036">
        <time>2026-05-25T22:01:10Z</time>
      </trkpt>
      <trkpt lat="23.068351" lon="113.268994">
        <time>2026-05-25T22:01:15Z</time>
      </trkpt>
      <trkpt lat="23.06827" lon="113.268969">
        <time>2026-05-25T22:01:20Z</time>
      </trkpt>
      <trkpt lat="23.068151" lon="113.268911">
        <time>2026-05-25T22:01:25Z</time>
      </trkpt>
      <trkpt lat="23.068076" lon="113.268842">
        <time>2026-05-25T22:01:30Z</time>
      </trkpt>
      <trkpt lat="23.067961" lon="113.268696">
        <time>2026-05-25T22:01:35Z</time>
      </trkpt>
      <trkpt lat="23.067892" lon="113.268562">
        <time>2026-05-25T22:01:40Z</time>
      </trkpt>
      <trkpt lat="23.067782" lon="113.268446">
        <time>2026-05-25T22:01:45Z</time>
      </trkpt>
      <trkpt lat="23.067697" lon="113.268407">
        <time>2026-05-25T22:01:50Z</time>
      </trkpt>
      <trkpt lat="23.067557" lon="113.268329">
        <time>2026-05-25T22:01:55Z</time>
      </trkpt>
      <trkpt lat="23.067459" lon="113.268297">
        <time>2026-05-25T22:02:00Z</time>
      </trkpt>
      <trkpt lat="23.067303" lon="113.268265">
        <time>2026-05-25T22:02:05Z</time>
      </trkpt>
      <trkpt lat="23.067216" lon="113.26823">
        <time>2026-05-25T22:02:10Z</time>
      </trkpt>
      <trkpt lat="23.067098" lon="113.268157">
        <time>2026-05-25T22:02:15Z</time>
      </trkpt>
      <trkpt lat="23.067022" lon="113.268109">
        <time>2026-05-25T22:02:20Z</time>
      </trkpt>
      <trkpt lat="23.066894" lon="113.26807">
        <time>2026-05-25T22:02:25Z</time>
      </trkpt>
      <trkpt lat="23.066804" lon="113.268053">
        <time>2026-05-25T22:02:30Z</time>
      </trkpt>
      <trkpt lat="23.066661" lon="113.268035">
        <time>2026-05-25T22:02:35Z</time>
      </trkpt>
      <trkpt lat="23.066567" lon="113.268006">
        <time>2026-05-25T22:02:40Z</time>
      </trkpt>
      <trkpt lat="23.066424" lon="113.267992">
        <time>2026-05-25T22:02:45Z</time>
      </trkpt>
      <trkpt lat="23.066328" lon="113.268003">
        <time>2026-05-25T22:02:50Z</time>
      </trkpt>
      <trkpt lat="23.066204" lon="113.268071">
        <time>2026-05-25T22:02:55Z</time>
      </trkpt>
      <trkpt lat="23.066134" lon="113.268142">
        <time>2026-05-25T22:03:00Z</time>
      </trkpt>
      <trkpt lat="23.06604" lon="113.268259">
        <time>2026-05-25T22:03:05Z</time>
      </trkpt>
      <trkpt lat="23.065977" lon="113.268334">
        <time>2026-05-25T22:03:10Z</time>
      </trkpt>
      <trkpt lat="23.065888" lon="113.268447">
        <time>2026-05-25T22:03:15Z</time>
      </trkpt>
      <trkpt lat="23.065835" lon="113.268533">
        <time>2026-05-25T22:03:20Z</time>
      </trkpt>
      <trkpt lat="23.065761" lon="113.268667">
        <time>2026-05-25T22:03:25Z</time>
      </trkpt>
      <trkpt lat="23.065715" lon="113.268753">
        <time>2026-05-25T22:03:30Z</time>
      </trkpt>
      <trkpt lat="23.065657" lon="113.268887">
        <time>2026-05-25T22:03:35Z</time>
      </trkpt>
      <trkpt lat="23.065625" lon="113.268979">
        <time>2026-05-25T22:03:40Z</time>
      </trkpt>
      <trkpt lat="23.065588" lon="113.269116">
        <time>2026-05-25T22:03:45Z</time>
      </trkpt>
      <trkpt lat="23.065563" lon="113.269215">
        <time>2026-05-25T22:03:50Z</time>
      </trkpt>
      <trkpt lat="23.065524" lon="113.269367">
        <time>2026-05-25T22:03:55Z</time>
      </trkpt>
      <trkpt lat="23.065501" lon="113.269467">
        <time>2026-05-25T22:04:00Z</time>
      </trkpt>
      <trkpt lat="23.065463" lon="113.269612">
        <time>2026-05-25T22:04:05Z</time>
      </trkpt>
      <trkpt lat="23.065438" lon="113.269708">
        <time>2026-05-25T22:04:10Z</time>
      </trkpt>
      <trkpt lat="23.065395" lon="113.269854">
        <time>2026-05-25T22:04:15Z</time>
      </trkpt>
      <trkpt lat="23.06536" lon="113.269948">
        <time>2026-05-25T22:04:20Z</time>
      </trkpt>
      <trkpt lat="23.065301" lon="113.270087">
        <time>2026-05-25T22:04:25Z</time>
      </trkpt>
      <trkpt lat="23.065259" lon="113.270183">
        <time>2026-05-25T22:04:30Z</time>
      </trkpt>
      <trkpt lat="23.06519" lon="113.270327">
        <time>2026-05-25T22:04:35Z</time>
      </trkpt>
      <trkpt lat="23.065145" lon="113.270419">
        <time>2026-05-25T22:04:40Z</time>
      </trkpt>
      <trkpt lat="23.065088" lon="113.270552">
        <time>2026-05-25T22:04:45Z</time>
      </trkpt>
      <trkpt lat="23.065048" lon="113.270642">
        <time>2026-05-25T22:04:50Z</time>
      </trkpt>
      <trkpt lat="23.064987" lon="113.27078">
        <time>2026-05-25T22:04:55Z</time>
      </trkpt>
      <trkpt lat="23.064948" lon="113.270871">
        <time>2026-05-25T22:05:00Z</time>
      </trkpt>
      <trkpt lat="23.064886" lon="113.271009">
        <time>2026-05-25T22:05:05Z</time>
      </trkpt>
      <trkpt lat="23.064845" lon="113.271099">
        <time>2026-05-25T22:05:10Z</time>
      </trkpt>
      <trkpt lat="23.064782" lon="113.271234">
        <time>2026-05-25T22:05:15Z</time>
      </trkpt>
      <trkpt lat="23.064738" lon="113.271325">
        <time>2026-05-25T22:05:20Z</time>
      </trkpt>
      <trkpt lat="23.064674" lon="113.271464">
        <time>2026-05-25T22:05:25Z</time>
      </trkpt>
      <trkpt lat="23.064632" lon="113.271556">
        <time>2026-05-25T22:05:30Z</time>
      </trkpt>
      <trkpt lat="23.064568" lon="113.271704">
        <time>2026-05-25T22:05:35Z</time>
      </trkpt>
      <trkpt lat="23.064523" lon="113.271805">
        <time>2026-05-25T22:05:40Z</time>
      </trkpt>
      <trkpt lat="23.064456" lon="113.271956">
        <time>2026-05-25T22:05:45Z</time>
      </trkpt>
      <trkpt lat="23.06441" lon="113.272057">
        <time>2026-05-25T22:05:50Z</time>
      </trkpt>
      <trkpt lat="23.064357" lon="113.272207">
        <time>2026-05-25T22:05:55Z</time>
      </trkpt>
      <trkpt lat="23.064346" lon="113.27231">
        <time>2026-05-25T22:06:00Z</time>
      </trkpt>
      <trkpt lat="23.064329" lon="113.272458">
        <time>2026-05-25T22:06:05Z</time>
      </trkpt>
      <trkpt lat="23.064325" lon="113.272556">
        <time>2026-05-25T22:06:10Z</time>
      </trkpt>
      <trkpt lat="23.064353" lon="113.272696">
        <time>2026-05-25T22:06:15Z</time>
      </trkpt>
      <trkpt lat="23.064383" lon="113.272784">
        <time>2026-05-25T22:06:20Z</time>
      </trkpt>
      <trkpt lat="23.064426" lon="113.272923">
        <time>2026-05-25T22:06:25Z</time>
      </trkpt>
      <trkpt lat="23.064454" lon="113.273016">
        <time>2026-05-25T22:06:30Z</time>
      </trkpt>
      <trkpt lat="23.064475" lon="113.27316">
        <time>2026-05-25T22:06:35Z</time>
      </trkpt>
      <trkpt lat="23.064449" lon="113.273259">
        <time>2026-05-25T22:06:40Z</time>
      </trkpt>
      <trkpt lat="23.064356" lon="113.273368">
        <time>2026-05-25T22:06:45Z</time>
      </trkpt>
      <trkpt lat="23.064278" lon="113.273427">
        <time>2026-05-25T22:06:50Z</time>
      </trkpt>
      <trkpt lat="23.064164" lon="113.273515">
        <time>2026-05-25T22:06:55Z</time>
      </trkpt>
      <trkpt lat="23.064092" lon="113.273572">
        <time>2026-05-25T22:07:00Z</time>
      </trkpt>
      <trkpt lat="23.06399" lon="113.273657">
        <time>2026-05-25T22:07:05Z</time>
      </trkpt>
      <trkpt lat="23.063928" lon="113.273727">
        <time>2026-05-25T22:07:10Z</time>
      </trkpt>
      <trkpt lat="23.063857" lon="113.273846">
        <time>2026-05-25T22:07:15Z</time>
      </trkpt>
      <trkpt lat="23.06381" lon="113.273929">
        <time>2026-05-25T22:07:20Z</time>
      </trkpt>
      <trkpt lat="23.063734" lon="113.27405">
        <time>2026-05-25T22:07:25Z</time>
      </trkpt>
      <trkpt lat="23.063669" lon="113.274113">
        <time>2026-05-25T22:07:30Z</time>
      </trkpt>
      <trkpt lat="23.063556" lon="113.274191">
        <time>2026-05-25T22:07:35Z</time>
      </trkpt>
      <trkpt lat="23.063502" lon="113.274275">
        <time>2026-05-25T22:07:40Z</time>
      </trkpt>
      <trkpt lat="23.063452" lon="113.274421">
        <time>2026-05-25T22:07:45Z</time>
      </trkpt>
      <trkpt lat="23.063416" lon="113.274522">
        <time>2026-05-25T22:07:50Z</time>
      </trkpt>
      <trkpt lat="23.063369" lon="113.274673">
        <time>2026-05-25T22:07:55Z</time>
      </trkpt>
      <trkpt lat="23.063337" lon="113.274771">
        <time>2026-05-25T22:08:00Z</time>
      </trkpt>
      <trkpt lat="23.063285" lon="113.274919">
        <time>2026-05-25T22:08:05Z</time>
      </trkpt>
      <trkpt lat="23.06325" lon="113.275014">
        <time>2026-05-25T22:08:10Z</time>
      </trkpt>
      <trkpt lat="23.063183" lon="113.275145">
        <time>2026-05-25T22:08:15Z</time>
      </trkpt>
      <trkpt lat="23.063139" lon="113.275229">
        <time>2026-05-25T22:08:20Z</time>
      </trkpt>
      <trkpt lat="23.063074" lon="113.275354">
        <time>2026-05-25T22:08:25Z</time>
      </trkpt>
      <trkpt lat="23.063025" lon="113.275435">
        <time>2026-05-25T22:08:30Z</time>
      </trkpt>
      <trkpt lat="23.062934" lon="113.275557">
        <time>2026-05-25T22:08:35Z</time>
      </trkpt>
      <trkpt lat="23.06287" lon="113.275631">
        <time>2026-05-25T22:08:40Z</time>
      </trkpt>
      <trkpt lat="23.062761" lon="113.275729">
        <time>2026-05-25T22:08:45Z</time>
      </trkpt>
      <trkpt lat="23.062692" lon="113.275798">
        <time>2026-05-25T22:08:50Z</time>
      </trkpt>
      <trkpt lat="23.062602" lon="113.275908">
        <time>2026-05-25T22:08:55Z</time>
      </trkpt>
      <trkpt lat="23.062548" lon="113.27599">
        <time>2026-05-25T22:09:00Z</time>
      </trkpt>
      <trkpt lat="23.062476" lon="113.276121">
        <time>2026-05-25T22:09:05Z</time>
      </trkpt>
      <trkpt lat="23.062438" lon="113.276211">
        <time>2026-05-25T22:09:10Z</time>
      </trkpt>
      <trkpt lat="23.062388" lon="113.276346">
        <time>2026-05-25T22:09:15Z</time>
      </trkpt>
      <trkpt lat="23.062356" lon="113.276433">
        <time>2026-05-25T22:09:20Z</time>
      </trkpt>
      <trkpt lat="23.062304" lon="113.276569">
        <time>2026-05-25T22:09:25Z</time>
      </trkpt>
      <trkpt lat="23.06227" lon="113.276659">
        <time>2026-05-25T22:09:30Z</time>
      </trkpt>
      <trkpt lat="23.062214" lon="113.276794">
        <time>2026-05-25T22:09:35Z</time>
      </trkpt>
      <trkpt lat="23.06218" lon="113.276884">
        <time>2026-05-25T22:09:40Z</time>
      </trkpt>
      <trkpt lat="23.06213" lon="113.27703">
        <time>2026-05-25T22:09:45Z</time>
      </trkpt>
      <trkpt lat="23.062094" lon="113.277134">
        <time>2026-05-25T22:09:50Z</time>
      </trkpt>
      <trkpt lat="23.062038" lon="113.277293">
        <time>2026-05-25T22:09:55Z</time>
      </trkpt>
      <trkpt lat="23.062002" lon="113.277391">
        <time>2026-05-25T22:10:00Z</time>
      </trkpt>
      <trkpt lat="23.061943" lon="113.277535">
        <time>2026-05-25T22:10:05Z</time>
      </trkpt>
      <trkpt lat="23.061904" lon="113.277634">
        <time>2026-05-25T22:10:10Z</time>
      </trkpt>
      <trkpt lat="23.061867" lon="113.277776">
        <time>2026-05-25T22:10:15Z</time>
      </trkpt>
      <trkpt lat="23.061855" lon="113.277874">
        <time>2026-05-25T22:10:20Z</time>
      </trkpt>
      <trkpt lat="23.061862" lon="113.278019">
        <time>2026-05-25T22:10:25Z</time>
      </trkpt>
      <trkpt lat="23.06187" lon="113.278115">
        <time>2026-05-25T22:10:30Z</time>
      </trkpt>
      <trkpt lat="23.061876" lon="113.278261">
        <time>2026-05-25T22:10:35Z</time>
      </trkpt>
      <trkpt lat="23.061878" lon="113.278358">
        <time>2026-05-25T22:10:40Z</time>
      </trkpt>
      <trkpt lat="23.061883" lon="113.278504">
        <time>2026-05-25T22:10:45Z</time>
      </trkpt>
      <trkpt lat="23.061874" lon="113.278602">
        <time>2026-05-25T22:10:50Z</time>
      </trkpt>
      <trkpt lat="23.061838" lon="113.278732">
        <time>2026-05-25T22:10:55Z</time>
      </trkpt>
      <trkpt lat="23.061769" lon="113.278769">
        <time>2026-05-25T22:11:00Z</time>
      </trkpt>
      <trkpt lat="23.061707" lon="113.278895">
        <time>2026-05-25T22:11:05Z</time>
      </trkpt>
      <trkpt lat="23.061675" lon="113.278988">
        <time>2026-05-25T22:11:10Z</time>
      </trkpt>
      <trkpt lat="23.061627" lon="113.279124">
        <time>2026-05-25T22:11:15Z</time>
      </trkpt>
      <trkpt lat="23.061591" lon="113.279213">
        <time>2026-05-25T22:11:20Z</time>
      </trkpt>
      <trkpt lat="23.061524" lon="113.27935">
        <time>2026-05-25T22:11:25Z</time>
      </trkpt>
      <trkpt lat="23.061485" lon="113.279445">
        <time>2026-05-25T22:11:30Z</time>
      </trkpt>
      <trkpt lat="23.061422" lon="113.27959">
        <time>2026-05-25T22:11:35Z</time>
      </trkpt>
      <trkpt lat="23.061376" lon="113.279685">
        <time>2026-05-25T22:11:40Z</time>
      </trkpt>
      <trkpt lat="23.061316" lon="113.279829">
        <time>2026-05-25T22:11:45Z</time>
      </trkpt>
      <trkpt lat="23.061286" lon="113.279921">
        <time>2026-05-25T22:11:50Z</time>
      </trkpt>
      <trkpt lat="23.061232" lon="113.280062">
        <time>2026-05-25T22:11:55Z</time>
      </trkpt>
      <trkpt lat="23.061192" lon="113.280162">
        <time>2026-05-25T22:12:00Z</time>
      </trkpt>
      <trkpt lat="23.061136" lon="113.280316">
        <time>2026-05-25T22:12:05Z</time>
      </trkpt>
      <trkpt lat="23.061098" lon="113.280418">
        <time>2026-05-25T22:12:10Z</time>
      </trkpt>
      <trkpt lat="23.061037" lon="113.280563">
        <time>2026-05-25T22:12:15Z</time>
      </trkpt>
      <trkpt lat="23.060987" lon="113.280657">
        <time>2026-05-25T22:12:20Z</time>
      </trkpt>
      <trkpt lat="23.060915" lon="113.280804">
        <time>2026-05-25T22:12:25Z</time>
      </trkpt>
      <trkpt lat="23.060876" lon="113.2809">
        <time>2026-05-25T22:12:30Z</time>
      </trkpt>
      <trkpt lat="23.060817" lon="113.281035">
        <time>2026-05-25T22:12:35Z</time>
      </trkpt>
      <trkpt lat="23.060777" lon="113.281127">
        <time>2026-05-25T22:12:40Z</time>
      </trkpt>
      <trkpt lat="23.060716" lon="113.281263">
        <time>2026-05-25T22:12:45Z</time>
      </trkpt>
      <trkpt lat="23.060678" lon="113.281355">
        <time>2026-05-25T22:12:50Z</time>
      </trkpt>
      <trkpt lat="23.060618" lon="113.281489">
        <time>2026-05-25T22:12:55Z</time>
      </trkpt>
      <trkpt lat="23.060578" lon="113.28158">
        <time>2026-05-25T22:13:00Z</time>
      </trkpt>
      <trkpt lat="23.060518" lon="113.28172">
        <time>2026-05-25T22:13:05Z</time>
      </trkpt>
      <trkpt lat="23.060477" lon="113.281815">
        <time>2026-05-25T22:13:10Z</time>
      </trkpt>
      <trkpt lat="23.060409" lon="113.28196">
        <time>2026-05-25T22:13:15Z</time>
      </trkpt>
      <trkpt lat="23.060366" lon="113.282053">
        <time>2026-05-25T22:13:20Z</time>
      </trkpt>
      <trkpt lat="23.060302" lon="113.282198">
        <time>2026-05-25T22:13:25Z</time>
      </trkpt>
      <trkpt lat="23.060261" lon="113.282298">
        <time>2026-05-25T22:13:30Z</time>
      </trkpt>
      <trkpt lat="23.060201" lon="113.282437">
        <time>2026-05-25T22:13:35Z</time>
      </trkpt>
      <trkpt lat="23.060159" lon="113.282528">
        <time>2026-05-25T22:13:40Z</time>
      </trkpt>
      <trkpt lat="23.0601" lon="113.282667">
        <time>2026-05-25T22:13:45Z</time>
      </trkpt>
      <trkpt lat="23.060061" lon="113.282761">
        <time>2026-05-25T22:13:50Z</time>
      </trkpt>
      <trkpt lat="23.059993" lon="113.282904">
        <time>2026-05-25T22:13:55Z</time>
      </trkpt>
      <trkpt lat="23.059953" lon="113.282995">
        <time>2026-05-25T22:14:00Z</time>
      </trkpt>
      <trkpt lat="23.059896" lon="113.283138">
        <time>2026-05-25T22:14:05Z</time>
      </trkpt>
      <trkpt lat="23.059859" lon="113.283236">
        <time>2026-05-25T22:14:10Z</time>
      </trkpt>
      <trkpt lat="23.059856" lon="113.283368">
        <time>2026-05-25T22:14:15Z</time>
      </trkpt>
      <trkpt lat="23.059924" lon="113.283369">
        <time>2026-05-25T22:14:20Z</time>
      </trkpt>
      <trkpt lat="23.060015" lon="113.283257">
        <time>2026-05-25T22:14:25Z</time>
      </trkpt>
      <trkpt lat="23.060056" lon="113.283165">
        <time>2026-05-25T22:14:30Z</time>
      </trkpt>
      <trkpt lat="23.060116" lon="113.283013">
        <time>2026-05-25T22:14:35Z</time>
      </trkpt>
      <trkpt lat="23.060156" lon="113.28291">
        <time>2026-05-25T22:14:40Z</time>
      </trkpt>
      <trkpt lat="23.060222" lon="113.282761">
        <time>2026-05-25T22:14:45Z</time>
      </trkpt>
      <trkpt lat="23.060262" lon="113.282661">
        <time>2026-05-25T22:14:50Z</time>
      </trkpt>
      <trkpt lat="23.060326" lon="113.282511">
        <time>2026-05-25T22:14:55Z</time>
      </trkpt>
      <trkpt lat="23.060371" lon="113.282409">
        <time>2026-05-25T22:15:00Z</time>
      </trkpt>
      <trkpt lat="23.060429" lon="113.282254">
        <time>2026-05-25T22:15:05Z</time>
      </trkpt>
      <trkpt lat="23.060458" lon="113.282149">
        <time>2026-05-25T22:15:10Z</time>
      </trkpt>
      <trkpt lat="23.060514" lon="113.281999">
        <time>2026-05-25T22:15:15Z</time>
      </trkpt>
      <trkpt lat="23.060554" lon="113.281901">
        <time>2026-05-25T22:15:20Z</time>
      </trkpt>
      <trkpt lat="23.060619" lon="113.281745">
        <time>2026-05-25T22:15:25Z</time>
      </trkpt>
      <trkpt lat="23.060666" lon="113.281649">
        <time>2026-05-25T22:15:30Z</time>
      </trkpt>
      <trkpt lat="23.060732" lon="113.28151">
        <time>2026-05-25T22:15:35Z</time>
      </trkpt>
      <trkpt lat="23.060772" lon="113.281415">
        <time>2026-05-25T22:15:40Z</time>
      </trkpt>
      <trkpt lat="23.060841" lon="113.281251">
        <time>2026-05-25T22:15:45Z</time>
      </trkpt>
      <trkpt lat="23.060889" lon="113.281144">
        <time>2026-05-25T22:15:50Z</time>
      </trkpt>
      <trkpt lat="23.060962" lon="113.280983">
        <time>2026-05-25T22:15:55Z</time>
      </trkpt>
      <trkpt lat="23.061004" lon="113.280876">
        <time>2026-05-25T22:16:00Z</time>
      </trkpt>
      <trkpt lat="23.061069" lon="113.280718">
        <time>2026-05-25T22:16:05Z</time>
      </trkpt>
      <trkpt lat="23.061124" lon="113.280609">
        <time>2026-05-25T22:16:10Z</time>
      </trkpt>
      <trkpt lat="23.061204" lon="113.280447">
        <time>2026-05-25T22:16:15Z</time>
      </trkpt>
      <trkpt lat="23.061253" lon="113.280345">
        <time>2026-05-25T22:16:20Z</time>
      </trkpt>
      <trkpt lat="23.061323" lon="113.280191">
        <time>2026-05-25T22:16:25Z</time>
      </trkpt>
      <trkpt lat="23.061369" lon="113.280088">
        <time>2026-05-25T22:16:30Z</time>
      </trkpt>
      <trkpt lat="23.061429" lon="113.279931">
        <time>2026-05-25T22:16:35Z</time>
      </trkpt>
      <trkpt lat="23.061464" lon="113.279828">
        <time>2026-05-25T22:16:40Z</time>
      </trkpt>
      <trkpt lat="23.061516" lon="113.279679">
        <time>2026-05-25T22:16:45Z</time>
      </trkpt>
      <trkpt lat="23.061554" lon="113.279574">
        <time>2026-05-25T22:16:50Z</time>
      </trkpt>
      <trkpt lat="23.061621" lon="113.279418">
        <time>2026-05-25T22:16:55Z</time>
      </trkpt>
      <trkpt lat="23.061667" lon="113.279318">
        <time>2026-05-25T22:17:00Z</time>
      </trkpt>
      <trkpt lat="23.061732" lon="113.279171">
        <time>2026-05-25T22:17:05Z</time>
      </trkpt>
      <trkpt lat="23.061787" lon="113.27908">
        <time>2026-05-25T22:17:10Z</time>
      </trkpt>
      <trkpt lat="23.061883" lon="113.278946">
        <time>2026-05-25T22:17:15Z</time>
      </trkpt>
      <trkpt lat="23.061939" lon="113.278846">
        <time>2026-05-25T22:17:20Z</time>
      </trkpt>
      <trkpt lat="23.06198" lon="113.278677">
        <time>2026-05-25T22:17:25Z</time>
      </trkpt>
      <trkpt lat="23.061978" lon="113.278558">
        <time>2026-05-25T22:17:30Z</time>
      </trkpt>
      <trkpt lat="23.061986" lon="113.278382">
        <time>2026-05-25T22:17:35Z</time>
      </trkpt>
      <trkpt lat="23.061988" lon="113.278265">
        <time>2026-05-25T22:17:40Z</time>
      </trkpt>
      <trkpt lat="23.061977" lon="113.278089">
        <time>2026-05-25T22:17:45Z</time>
      </trkpt>
      <trkpt lat="23.061972" lon="113.277973">
        <time>2026-05-25T22:17:50Z</time>
      </trkpt>
      <trkpt lat="23.061972" lon="113.277797">
        <time>2026-05-25T22:17:55Z</time>
      </trkpt>
      <trkpt lat="23.061991" lon="113.277679">
        <time>2026-05-25T22:18:00Z</time>
      </trkpt>
      <trkpt lat="23.062044" lon="113.2775">
        <time>2026-05-25T22:18:05Z</time>
      </trkpt>
      <trkpt lat="23.062086" lon="113.277389">
        <time>2026-05-25T22:18:10Z</time>
      </trkpt>
      <trkpt lat="23.062149" lon="113.277229">
        <time>2026-05-25T22:18:15Z</time>
      </trkpt>
      <trkpt lat="23.062188" lon="113.277123">
        <time>2026-05-25T22:18:20Z</time>
      </trkpt>
      <trkpt lat="23.062247" lon="113.276968">
        <time>2026-05-25T22:18:25Z</time>
      </trkpt>
      <trkpt lat="23.062287" lon="113.27687">
        <time>2026-05-25T22:18:30Z</time>
      </trkpt>
      <trkpt lat="23.062353" lon="113.276713">
        <time>2026-05-25T22:18:35Z</time>
      </trkpt>
      <trkpt lat="23.062397" lon="113.2766">
        <time>2026-05-25T22:18:40Z</time>
      </trkpt>
      <trkpt lat="23.062452" lon="113.276434">
        <time>2026-05-25T22:18:45Z</time>
      </trkpt>
      <trkpt lat="23.062491" lon="113.276325">
        <time>2026-05-25T22:18:50Z</time>
      </trkpt>
      <trkpt lat="23.062553" lon="113.276167">
        <time>2026-05-25T22:18:55Z</time>
      </trkpt>
      <trkpt lat="23.062603" lon="113.276068">
        <time>2026-05-25T22:19:00Z</time>
      </trkpt>
      <trkpt lat="23.062691" lon="113.275934">
        <time>2026-05-25T22:19:05Z</time>
      </trkpt>
      <trkpt lat="23.062759" lon="113.275847">
        <time>2026-05-25T22:19:10Z</time>
      </trkpt>
      <trkpt lat="23.062877" lon="113.275728">
        <time>2026-05-25T22:19:15Z</time>
      </trkpt>
      <trkpt lat="23.062958" lon="113.275654">
        <time>2026-05-25T22:19:20Z</time>
      </trkpt>
      <trkpt lat="23.063064" lon="113.275534">
        <time>2026-05-25T22:19:25Z</time>
      </trkpt>
      <trkpt lat="23.063126" lon="113.275448">
        <time>2026-05-25T22:19:30Z</time>
      </trkpt>
      <trkpt lat="23.063207" lon="113.275312">
        <time>2026-05-25T22:19:35Z</time>
      </trkpt>
      <trkpt lat="23.06326" lon="113.27522">
        <time>2026-05-25T22:19:40Z</time>
      </trkpt>
      <trkpt lat="23.063339" lon="113.275071">
        <time>2026-05-25T22:19:45Z</time>
      </trkpt>
      <trkpt lat="23.063383" lon="113.274965">
        <time>2026-05-25T22:19:50Z</time>
      </trkpt>
      <trkpt lat="23.06343" lon="113.274804">
        <time>2026-05-25T22:19:55Z</time>
      </trkpt>
      <trkpt lat="23.063465" lon="113.274702">
        <time>2026-05-25T22:20:00Z</time>
      </trkpt>
      <trkpt lat="23.063509" lon="113.274553">
        <time>2026-05-25T22:20:05Z</time>
      </trkpt>
      <trkpt lat="23.063543" lon="113.274447">
        <time>2026-05-25T22:20:10Z</time>
      </trkpt>
      <trkpt lat="23.063619" lon="113.274312">
        <time>2026-05-25T22:20:15Z</time>
      </trkpt>
      <trkpt lat="23.063687" lon="113.274234">
        <time>2026-05-25T22:20:20Z</time>
      </trkpt>
      <trkpt lat="23.063803" lon="113.274124">
        <time>2026-05-25T22:20:25Z</time>
      </trkpt>
      <trkpt lat="23.063862" lon="113.274034">
        <time>2026-05-25T22:20:30Z</time>
      </trkpt>
      <trkpt lat="23.063943" lon="113.273884">
        <time>2026-05-25T22:20:35Z</time>
      </trkpt>
      <trkpt lat="23.063998" lon="113.273788">
        <time>2026-05-25T22:20:40Z</time>
      </trkpt>
      <trkpt lat="23.064111" lon="113.273668">
        <time>2026-05-25T22:20:45Z</time>
      </trkpt>
      <trkpt lat="23.064201" lon="113.273607">
        <time>2026-05-25T22:20:50Z</time>
      </trkpt>
      <trkpt lat="23.064336" lon="113.273516">
        <time>2026-05-25T22:20:55Z</time>
      </trkpt>
      <trkpt lat="23.064428" lon="113.273459">
        <time>2026-05-25T22:21:00Z</time>
      </trkpt>
      <trkpt lat="23.064543" lon="113.273347">
        <time>2026-05-25T22:21:05Z</time>
      </trkpt>
      <trkpt lat="23.064599" lon="113.273243">
        <time>2026-05-25T22:21:10Z</time>
      </trkpt>
      <trkpt lat="23.06461" lon="113.27306">
        <time>2026-05-25T22:21:15Z</time>
      </trkpt>
      <trkpt lat="23.064573" lon="113.272941">
        <time>2026-05-25T22:21:20Z</time>
      </trkpt>
      <trkpt lat="23.064508" lon="113.272775">
        <time>2026-05-25T22:21:25Z</time>
      </trkpt>
      <trkpt lat="23.064473" lon="113.272666">
        <time>2026-05-25T22:21:30Z</time>
      </trkpt>
      <trkpt lat="23.064496" lon="113.272507">
        <time>2026-05-25T22:21:35Z</time>
      </trkpt>
      <trkpt lat="23.064547" lon="113.272406">
        <time>2026-05-25T22:21:40Z</time>
      </trkpt>
      <trkpt lat="23.064576" lon="113.272238">
        <time>2026-05-25T22:21:45Z</time>
      </trkpt>
      <trkpt lat="23.064605" lon="113.272128">
        <time>2026-05-25T22:21:50Z</time>
      </trkpt>
      <trkpt lat="23.064673" lon="113.271979">
        <time>2026-05-25T22:21:55Z</time>
      </trkpt>
      <trkpt lat="23.06472" lon="113.27188">
        <time>2026-05-25T22:22:00Z</time>
      </trkpt>
      <trkpt lat="23.064791" lon="113.271722">
        <time>2026-05-25T22:22:05Z</time>
      </trkpt>
      <trkpt lat="23.064841" lon="113.271614">
        <time>2026-05-25T22:22:10Z</time>
      </trkpt>
      <trkpt lat="23.064911" lon="113.271459">
        <time>2026-05-25T22:22:15Z</time>
      </trkpt>
      <trkpt lat="23.064958" lon="113.271357">
        <time>2026-05-25T22:22:20Z</time>
      </trkpt>
      <trkpt lat="23.065021" lon="113.271209">
        <time>2026-05-25T22:22:25Z</time>
      </trkpt>
      <trkpt lat="23.065071" lon="113.271109">
        <time>2026-05-25T22:22:30Z</time>
      </trkpt>
      <trkpt lat="23.065144" lon="113.270959">
        <time>2026-05-25T22:22:35Z</time>
      </trkpt>
      <trkpt lat="23.065187" lon="113.270861">
        <time>2026-05-25T22:22:40Z</time>
      </trkpt>
      <trkpt lat="23.065257" lon="113.270706">
        <time>2026-05-25T22:22:45Z</time>
      </trkpt>
      <trkpt lat="23.065304" lon="113.270607">
        <time>2026-05-25T22:22:50Z</time>
      </trkpt>
      <trkpt lat="23.065374" lon="113.270462">
        <time>2026-05-25T22:22:55Z</time>
      </trkpt>
      <trkpt lat="23.065417" lon="113.270362">
        <time>2026-05-25T22:23:00Z</time>
      </trkpt>
      <trkpt lat="23.065482" lon="113.270214">
        <time>2026-05-25T22:23:05Z</time>
      </trkpt>
      <trkpt lat="23.065522" lon="113.270117">
        <time>2026-05-25T22:23:10Z</time>
      </trkpt>
      <trkpt lat="23.065576" lon="113.269968">
        <time>2026-05-25T22:23:15Z</time>
      </trkpt>
      <trkpt lat="23.065604" lon="113.269865">
        <time>2026-05-25T22:23:20Z</time>
      </trkpt>
      <trkpt lat="23.065642" lon="113.269711">
        <time>2026-05-25T22:23:25Z</time>
      </trkpt>
      <trkpt lat="23.065678" lon="113.26961">
        <time>2026-05-25T22:23:30Z</time>
      </trkpt>
      <trkpt lat="23.065729" lon="113.26945">
        <time>2026-05-25T22:23:35Z</time>
      </trkpt>
      <trkpt lat="23.065753" lon="113.269346">
        <time>2026-05-25T22:23:40Z</time>
      </trkpt>
      <trkpt lat="23.065799" lon="113.269189">
        <time>2026-05-25T22:23:45Z</time>
      </trkpt>
      <trkpt lat="23.065836" lon="113.269085">
        <time>2026-05-25T22:23:50Z</time>
      </trkpt>
      <trkpt lat="23.065891" lon="113.268934">
        <time>2026-05-25T22:23:55Z</time>
      </trkpt>
      <trkpt lat="23.065926" lon="113.268831">
        <time>2026-05-25T22:24:00Z</time>
      </trkpt>
      <trkpt lat="23.06599" lon="113.268682">
        <time>2026-05-25T22:24:05Z</time>
      </trkpt>
      <trkpt lat="23.066043" lon="113.268593">
        <time>2026-05-25T22:24:10Z</time>
      </trkpt>
      <trkpt lat="23.066134" lon="113.268462">
        <time>2026-05-25T22:24:15Z</time>
      </trkpt>
      <trkpt lat="23.066197" lon="113.268375">
        <time>2026-05-25T22:24:20Z</time>
      </trkpt>
      <trkpt lat="23.066299" lon="113.268247">
        <time>2026-05-25T22:24:25Z</time>
      </trkpt>
      <trkpt lat="23.066384" lon="113.268176">
        <time>2026-05-25T22:24:30Z</time>
      </trkpt>
      <trkpt lat="23.066535" lon="113.268135">
        <time>2026-05-25T22:24:35Z</time>
      </trkpt>
      <trkpt lat="23.06664" lon="113.268143">
        <time>2026-05-25T22:24:40Z</time>
      </trkpt>
      <trkpt lat="23.066698" lon="113.268046">
        <time>2026-05-25T22:24:45Z</time>
      </trkpt>
      <trkpt lat="23.066607" lon="113.267987">
        <time>2026-05-25T22:24:50Z</time>
      </trkpt>
      <trkpt lat="23.066443" lon="113.26795">
        <time>2026-05-25T22:24:55Z</time>
      </trkpt>
      <trkpt lat="23.066341" lon="113.267958">
        <time>2026-05-25T22:25:00Z</time>
      </trkpt>
      <trkpt lat="23.066206" lon="113.268028">
        <time>2026-05-25T22:25:05Z</time>
      </trkpt>
      <trkpt lat="23.066128" lon="113.268099">
        <time>2026-05-25T22:25:10Z</time>
      </trkpt>
      <trkpt lat="23.066022" lon="113.268224">
        <time>2026-05-25T22:25:15Z</time>
      </trkpt>
      <trkpt lat="23.065951" lon="113.268305">
        <time>2026-05-25T22:25:20Z</time>
      </trkpt>
      <trkpt lat="23.065856" lon="113.268441">
        <time>2026-05-25T22:25:25Z</time>
      </trkpt>
      <trkpt lat="23.065803" lon="113.268539">
        <time>2026-05-25T22:25:30Z</time>
      </trkpt>
      <trkpt lat="23.065737" lon="113.268685">
        <time>2026-05-25T22:25:35Z</time>
      </trkpt>
      <trkpt lat="23.065694" lon="113.268784">
        <time>2026-05-25T22:25:40Z</time>
      </trkpt>
      <trkpt lat="23.065639" lon="113.268929">
        <time>2026-05-25T22:25:45Z</time>
      </trkpt>
      <trkpt lat="23.065609" lon="113.269031">
        <time>2026-05-25T22:25:50Z</time>
      </trkpt>
      <trkpt lat="23.065566" lon="113.269197">
        <time>2026-05-25T22:25:55Z</time>
      </trkpt>
      <trkpt lat="23.065534" lon="113.269316">
        <time>2026-05-25T22:26:00Z</time>
      </trkpt>
      <trkpt lat="23.065504" lon="113.269441">
        <time>2026-05-25T22:26:05Z</time>
      </trkpt>
      <trkpt lat="23.065464" lon="113.269605">
        <time>2026-05-25T22:26:10Z</time>
      </trkpt>
      <trkpt lat="23.065441" lon="113.26971">
        <time>2026-05-25T22:26:15Z</time>
      </trkpt>
      <trkpt lat="23.065386" lon="113.269867">
        <time>2026-05-25T22:26:20Z</time>
      </trkpt>
      <trkpt lat="23.065349" lon="113.269969">
        <time>2026-05-25T22:26:25Z</time>
      </trkpt>
      <trkpt lat="23.06529" lon="113.270122">
        <time>2026-05-25T22:26:30Z</time>
      </trkpt>
      <trkpt lat="23.065245" lon="113.270224">
        <time>2026-05-25T22:26:35Z</time>
      </trkpt>
      <trkpt lat="23.065184" lon="113.270374">
        <time>2026-05-25T22:26:40Z</time>
      </trkpt>
      <trkpt lat="23.065142" lon="113.270474">
        <time>2026-05-25T22:26:45Z</time>
      </trkpt>
      <trkpt lat="23.065073" lon="113.270621">
        <time>2026-05-25T22:26:50Z</time>
      </trkpt>
      <trkpt lat="23.065028" lon="113.270722">
        <time>2026-05-25T22:26:55Z</time>
      </trkpt>
      <trkpt lat="23.064958" lon="113.270876">
        <time>2026-05-25T22:27:00Z</time>
      </trkpt>
      <trkpt lat="23.064917" lon="113.270974">
        <time>2026-05-25T22:27:05Z</time>
      </trkpt>
      <trkpt lat="23.064848" lon="113.271118">
        <time>2026-05-25T22:27:10Z</time>
      </trkpt>
      <trkpt lat="23.064798" lon="113.271218">
        <time>2026-05-25T22:27:15Z</time>
      </trkpt>
      <trkpt lat="23.064728" lon="113.271368">
        <time>2026-05-25T22:27:20Z</time>
      </trkpt>
      <trkpt lat="23.064682" lon="113.271471">
        <time>2026-05-25T22:27:25Z</time>
      </trkpt>
      <trkpt lat="23.064616" lon="113.271618">
        <time>2026-05-25T22:27:30Z</time>
      </trkpt>
      <trkpt lat="23.064572" lon="113.271718">
        <time>2026-05-25T22:27:35Z</time>
      </trkpt>
      <trkpt lat="23.064494" lon="113.271871">
        <time>2026-05-25T22:27:40Z</time>
      </trkpt>
      <trkpt lat="23.064444" lon="113.271977">
        <time>2026-05-25T22:27:45Z</time>
      </trkpt>
      <trkpt lat="23.06437" lon="113.272126">
        <time>2026-05-25T22:27:50Z</time>
      </trkpt>
      <trkpt lat="23.064332" lon="113.272231">
        <time>2026-05-25T22:27:55Z</time>
      </trkpt>
      <trkpt lat="23.064319" lon="113.272397">
        <time>2026-05-25T22:28:00Z</time>
      </trkpt>
      <trkpt lat="23.064313" lon="113.272507">
        <time>2026-05-25T22:28:05Z</time>
      </trkpt>
      <trkpt lat="23.064318" lon="113.272676">
        <time>2026-05-25T22:28:10Z</time>
      </trkpt>
      <trkpt lat="23.064356" lon="113.272781">
        <time>2026-05-25T22:28:15Z</time>
      </trkpt>
      <trkpt lat="23.064423" lon="113.272935">
        <time>2026-05-25T22:28:20Z</time>
      </trkpt>
      <trkpt lat="23.06446" lon="113.27304">
        <time>2026-05-25T22:28:25Z</time>
      </trkpt>
      <trkpt lat="23.064478" lon="113.2732">
        <time>2026-05-25T22:28:30Z</time>
      </trkpt>
      <trkpt lat="23.064438" lon="113.273299">
        <time>2026-05-25T22:28:35Z</time>
      </trkpt>
      <trkpt lat="23.064319" lon="113.273403">
        <time>2026-05-25T22:28:40Z</time>
      </trkpt>
      <trkpt lat="23.064229" lon="113.273464">
        <time>2026-05-25T22:28:45Z</time>
      </trkpt>
      <trkpt lat="23.064107" lon="113.273553">
        <time>2026-05-25T22:28:50Z</time>
      </trkpt>
      <trkpt lat="23.064024" lon="113.273616">
        <time>2026-05-25T22:28:55Z</time>
      </trkpt>
      <trkpt lat="23.063911" lon="113.273733">
        <time>2026-05-25T22:29:00Z</time>
      </trkpt>
      <trkpt lat="23.063848" lon="113.27382">
        <time>2026-05-25T22:29:05Z</time>
      </trkpt>
      <trkpt lat="23.063769" lon="113.273962">
        <time>2026-05-25T22:29:10Z</time>
      </trkpt>
      <trkpt lat="23.063714" lon="113.274052">
        <time>2026-05-25T22:29:15Z</time>
      </trkpt>
      <trkpt lat="23.063598" lon="113.274154">
        <time>2026-05-25T22:29:20Z</time>
      </trkpt>
      <trkpt lat="23.063533" lon="113.274233">
        <time>2026-05-25T22:29:25Z</time>
      </trkpt>
      <trkpt lat="23.063463" lon="113.27439">
        <time>2026-05-25T22:29:30Z</time>
      </trkpt>
      <trkpt lat="23.063429" lon="113.2745">
        <time>2026-05-25T22:29:35Z</time>
      </trkpt>
      <trkpt lat="23.06339" lon="113.274659">
        <time>2026-05-25T22:29:40Z</time>
      </trkpt>
      <trkpt lat="23.063356" lon="113.274761">
        <time>2026-05-25T22:29:45Z</time>
      </trkpt>
      <trkpt lat="23.063288" lon="113.274926">
        <time>2026-05-25T22:29:50Z</time>
      </trkpt>
      <trkpt lat="23.063242" lon="113.275036">
        <time>2026-05-25T22:29:55Z</time>
      </trkpt>
      <trkpt lat="23.063176" lon="113.275184">
        <time>2026-05-25T22:30:00Z</time>
      </trkpt>
      <trkpt lat="23.063118" lon="113.275275">
        <time>2026-05-25T22:30:05Z</time>
      </trkpt>
      <trkpt lat="23.063029" lon="113.275406">
        <time>2026-05-25T22:30:10Z</time>
      </trkpt>
      <trkpt lat="23.062967" lon="113.27549">
        <time>2026-05-25T22:30:15Z</time>
      </trkpt>
      <trkpt lat="23.062857" lon="113.275613">
        <time>2026-05-25T22:30:20Z</time>
      </trkpt>
      <trkpt lat="23.062778" lon="113.275687">
        <time>2026-05-25T22:30:25Z</time>
      </trkpt>
      <trkpt lat="23.062655" lon="113.275799">
        <time>2026-05-25T22:30:30Z</time>
      </trkpt>
      <trkpt lat="23.06258" lon="113.275884">
        <time>2026-05-25T22:30:35Z</time>
      </trkpt>
      <trkpt lat="23.062495" lon="113.276027">
        <time>2026-05-25T22:30:40Z</time>
      </trkpt>
      <trkpt lat="23.062445" lon="113.276123">
        <time>2026-05-25T22:30:45Z</time>
      </trkpt>
      <trkpt lat="23.062383" lon="113.276274">
        <time>2026-05-25T22:30:50Z</time>
      </trkpt>
      <trkpt lat="23.062347" lon="113.27637">
        <time>2026-05-25T22:30:55Z</time>
      </trkpt>
      <trkpt lat="23.062296" lon="113.276516">
        <time>2026-05-25T22:31:00Z</time>
      </trkpt>
      <trkpt lat="23.062261" lon="113.276616">
        <time>2026-05-25T22:31:05Z</time>
      </trkpt>
      <trkpt lat="23.062215" lon="113.276761">
        <time>2026-05-25T22:31:10Z</time>
      </trkpt>
      <trkpt lat="23.062183" lon="113.276857">
        <time>2026-05-25T22:31:15Z</time>
      </trkpt>
      <trkpt lat="23.062125" lon="113.277">
        <time>2026-05-25T22:31:20Z</time>
      </trkpt>
      <trkpt lat="23.062082" lon="113.277095">
        <time>2026-05-25T22:31:25Z</time>
      </trkpt>
      <trkpt lat="23.062015" lon="113.277255">
        <time>2026-05-25T22:31:30Z</time>
      </trkpt>
      <trkpt lat="23.061975" lon="113.277362">
        <time>2026-05-25T22:31:35Z</time>
      </trkpt>
      <trkpt lat="23.061914" lon="113.277522">
        <time>2026-05-25T22:31:40Z</time>
      </trkpt>
      <trkpt lat="23.061878" lon="113.277631">
        <time>2026-05-25T22:31:45Z</time>
      </trkpt>
      <trkpt lat="23.061842" lon="113.277801">
        <time>2026-05-25T22:31:50Z</time>
      </trkpt>
      <trkpt lat="23.061838" lon="113.277914">
        <time>2026-05-25T22:31:55Z</time>
      </trkpt>
      <trkpt lat="23.061846" lon="113.278073">
        <time>2026-05-25T22:32:00Z</time>
      </trkpt>
      <trkpt lat="23.061852" lon="113.278177">
        <time>2026-05-25T22:32:05Z</time>
      </trkpt>
      <trkpt lat="23.061851" lon="113.278335">
        <time>2026-05-25T22:32:10Z</time>
      </trkpt>
      <trkpt lat="23.061857" lon="113.278441">
        <time>2026-05-25T22:32:15Z</time>
      </trkpt>
      <trkpt lat="23.061866" lon="113.278597">
        <time>2026-05-25T22:32:20Z</time>
      </trkpt>
      <trkpt lat="23.061856" lon="113.278693">
        <time>2026-05-25T22:32:25Z</time>
      </trkpt>
      <trkpt lat="23.061767" lon="113.278762">
        <time>2026-05-25T22:32:30Z</time>
      </trkpt>
      <trkpt lat="23.061714" lon="113.278842">
        <time>2026-05-25T22:32:35Z</time>
      </trkpt>
      <trkpt lat="23.06166" lon="113.278998">
        <time>2026-05-25T22:32:40Z</time>
      </trkpt>
      <trkpt lat="23.061621" lon="113.279099">
        <time>2026-05-25T22:32:45Z</time>
      </trkpt>
      <trkpt lat="23.061554" lon="113.279242">
        <time>2026-05-25T22:32:50Z</time>
      </trkpt>
      <trkpt lat="23.061517" lon="113.279335">
        <time>2026-05-25T22:32:55Z</time>
      </trkpt>
      <trkpt lat="23.061453" lon="113.279485">
        <time>2026-05-25T22:33:00Z</time>
      </trkpt>
      <trkpt lat="23.061408" lon="113.279591">
        <time>2026-05-25T22:33:05Z</time>
      </trkpt>
      <trkpt lat="23.061343" lon="113.279756">
        <time>2026-05-25T22:33:10Z</time>
      </trkpt>
      <trkpt lat="23.061301" lon="113.279866">
        <time>2026-05-25T22:33:15Z</time>
      </trkpt>
      <trkpt lat="23.061237" lon="113.280023">
        <time>2026-05-25T22:33:20Z</time>
      </trkpt>
      <trkpt lat="23.061194" lon="113.280119">
        <time>2026-05-25T22:33:25Z</time>
      </trkpt>
      <trkpt lat="23.061128" lon="113.280266">
        <time>2026-05-25T22:33:30Z</time>
      </trkpt>
      <trkpt lat="23.061091" lon="113.280369">
        <time>2026-05-25T22:33:35Z</time>
      </trkpt>
      <trkpt lat="23.061028" lon="113.280521">
        <time>2026-05-25T22:33:40Z</time>
      </trkpt>
      <trkpt lat="23.060986" lon="113.280624">
        <time>2026-05-25T22:33:45Z</time>
      </trkpt>
      <trkpt lat="23.060916" lon="113.280782">
        <time>2026-05-25T22:33:50Z</time>
      </trkpt>
      <trkpt lat="23.060872" lon="113.28088">
        <time>2026-05-25T22:33:55Z</time>
      </trkpt>
      <trkpt lat="23.060813" lon="113.281022">
        <time>2026-05-25T22:34:00Z</time>
      </trkpt>
      <trkpt lat="23.060773" lon="113.281113">
        <time>2026-05-25T22:34:05Z</time>
      </trkpt>
      <trkpt lat="23.060712" lon="113.281249">
        <time>2026-05-25T22:34:10Z</time>
      </trkpt>
      <trkpt lat="23.060672" lon="113.281335">
        <time>2026-05-25T22:34:15Z</time>
      </trkpt>
      <trkpt lat="23.060614" lon="113.281473">
        <time>2026-05-25T22:34:20Z</time>
      </trkpt>
      <trkpt lat="23.060581" lon="113.281566">
        <time>2026-05-25T22:34:25Z</time>
      </trkpt>
      <trkpt lat="23.06052" lon="113.28171">
        <time>2026-05-25T22:34:30Z</time>
      </trkpt>
      <trkpt lat="23.060468" lon="113.281809">
        <time>2026-05-25T22:34:35Z</time>
      </trkpt>
      <trkpt lat="23.060396" lon="113.281955">
        <time>2026-05-25T22:34:40Z</time>
      </trkpt>
      <trkpt lat="23.060352" lon="113.282046">
        <time>2026-05-25T22:34:45Z</time>
      </trkpt>
      <trkpt lat="23.060284" lon="113.282179">
        <time>2026-05-25T22:34:50Z</time>
      </trkpt>
      <trkpt lat="23.060246" lon="113.282277">
        <time>2026-05-25T22:34:55Z</time>
      </trkpt>
      <trkpt lat="23.060193" lon="113.282431">
        <time>2026-05-25T22:35:00Z</time>
      </trkpt>
      <trkpt lat="23.06015" lon="113.282528">
        <time>2026-05-25T22:35:05Z</time>
      </trkpt>
      <trkpt lat="23.060087" lon="113.282675">
        <time>2026-05-25T22:35:10Z</time>
      </trkpt>
      <trkpt lat="23.060046" lon="113.282767">
        <time>2026-05-25T22:35:15Z</time>
      </trkpt>
      <trkpt lat="23.059989" lon="113.282907">
        <time>2026-05-25T22:35:20Z</time>
      </trkpt>
      <trkpt lat="23.059947" lon="113.283006">
        <time>2026-05-25T22:35:25Z</time>
      </trkpt>
      <trkpt lat="23.059879" lon="113.283153">
        <time>2026-05-25T22:35:30Z</time>
      </trkpt>
      <trkpt lat="23.059837" lon="113.283248">
        <time>2026-05-25T22:35:35Z</time>
      </trkpt>
      <trkpt lat="23.059862" lon="113.283369">
        <time>2026-05-25T22:35:40Z</time>
      </trkpt>
      <trkpt lat="23.059954" lon="113.28335">
        <time>2026-05-25T22:35:45Z</time>
      </trkpt>
      <trkpt lat="23.060049" lon="113.283216">
        <time>2026-05-25T22:35:50Z</time>
      </trkpt>
      <trkpt lat="23.060099" lon="113.283118">
        <time>2026-05-25T22:35:55Z</time>
      </trkpt>
      <trkpt lat="23.060166" lon="113.28297">
        <time>2026-05-25T22:36:00Z</time>
      </trkpt>
      <trkpt lat="23.060207" lon="113.282869">
        <time>2026-05-25T22:36:05Z</time>
      </trkpt>
      <trkpt lat="23.060267" lon="113.282716">
        <time>2026-05-25T22:36:10Z</time>
      </trkpt>
      <trkpt lat="23.060303" lon="113.282616">
        <time>2026-05-25T22:36:15Z</time>
      </trkpt>
      <trkpt lat="23.060356" lon="113.282459">
        <time>2026-05-25T22:36:20Z</time>
      </trkpt>
      <trkpt lat="23.060389" lon="113.282354">
        <time>2026-05-25T22:36:25Z</time>
      </trkpt>
      <trkpt lat="23.060442" lon="113.2822">
        <time>2026-05-25T22:36:30Z</time>
      </trkpt>
      <trkpt lat="23.060474" lon="113.282097">
        <time>2026-05-25T22:36:35Z</time>
      </trkpt>
      <trkpt lat="23.060535" lon="113.281945">
        <time>2026-05-25T22:36:40Z</time>
      </trkpt>
      <trkpt lat="23.060582" lon="113.281853">
        <time>2026-05-25T22:36:45Z</time>
      </trkpt>
      <trkpt lat="23.06065" lon="113.281715">
        <time>2026-05-25T22:36:50Z</time>
      </trkpt>
      <trkpt lat="23.060688" lon="113.281621">
        <time>2026-05-25T22:36:55Z</time>
      </trkpt>
      <trkpt lat="23.060742" lon="113.281483">
        <time>2026-05-25T22:37:00Z</time>
      </trkpt>
      <trkpt lat="23.060782" lon="113.281386">
        <time>2026-05-25T22:37:05Z</time>
      </trkpt>
      <trkpt lat="23.060852" lon="113.281236">
        <time>2026-05-25T22:37:10Z</time>
      </trkpt>
      <trkpt lat="23.0609" lon="113.28114">
        <time>2026-05-25T22:37:15Z</time>
      </trkpt>
      <trkpt lat="23.06097" lon="113.281002">
        <time>2026-05-25T22:37:20Z</time>
      </trkpt>
      <trkpt lat="23.061012" lon="113.280904">
        <time>2026-05-25T22:37:25Z</time>
      </trkpt>
      <trkpt lat="23.061066" lon="113.280756">
        <time>2026-05-25T22:37:30Z</time>
      </trkpt>
      <trkpt lat="23.061106" lon="113.28066">
        <time>2026-05-25T22:37:35Z</time>
      </trkpt>
      <trkpt lat="23.061178" lon="113.28052">
        <time>2026-05-25T22:37:40Z</time>
      </trkpt>
      <trkpt lat="23.061225" lon="113.280423">
        <time>2026-05-25T22:37:45Z</time>
      </trkpt>
      <trkpt lat="23.06128" lon="113.280271">
        <time>2026-05-25T22:37:50Z</time>
      </trkpt>
      <trkpt lat="23.061325" lon="113.28018">
        <time>2026-05-25T22:37:55Z</time>
      </trkpt>
      <trkpt lat="23.061381" lon="113.28003">
        <time>2026-05-25T22:38:00Z</time>
      </trkpt>
      <trkpt lat="23.061414" lon="113.279922">
        <time>2026-05-25T22:38:05Z</time>
      </trkpt>
      <trkpt lat="23.061465" lon="113.279764">
        <time>2026-05-25T22:38:10Z</time>
      </trkpt>
      <trkpt lat="23.061501" lon="113.279662">
        <time>2026-05-25T22:38:15Z</time>
      </trkpt>
      <trkpt lat="23.061557" lon="113.279504">
        <time>2026-05-25T22:38:20Z</time>
      </trkpt>
      <trkpt lat="23.061601" lon="113.279398">
        <time>2026-05-25T22:38:25Z</time>
      </trkpt>
      <trkpt lat="23.061671" lon="113.279247">
        <time>2026-05-25T22:38:30Z</time>
      </trkpt>
      <trkpt lat="23.061723" lon="113.279146">
        <time>2026-05-25T22:38:35Z</time>
      </trkpt>
      <trkpt lat="23.061816" lon="113.279006">
        <time>2026-05-25T22:38:40Z</time>
      </trkpt>
      <trkpt lat="23.061886" lon="113.278917">
        <time>2026-05-25T22:38:45Z</time>
      </trkpt>
      <trkpt lat="23.061957" lon="113.278762">
        <time>2026-05-25T22:38:50Z</time>
      </trkpt>
      <trkpt lat="23.061965" lon="113.278645">
        <time>2026-05-25T22:38:55Z</time>
      </trkpt>
      <trkpt lat="23.061952" lon="113.27847">
        <time>2026-05-25T22:39:00Z</time>
      </trkpt>
      <trkpt lat="23.061941" lon="113.278356">
        <time>2026-05-25T22:39:05Z</time>
      </trkpt>
      <trkpt lat="23.061934" lon="113.27818">
        <time>2026-05-25T22:39:10Z</time>
      </trkpt>
      <trkpt lat="23.061931" lon="113.278063">
        <time>2026-05-25T22:39:15Z</time>
      </trkpt>
      <trkpt lat="23.061926" lon="113.277889">
        <time>2026-05-25T22:39:20Z</time>
      </trkpt>
      <trkpt lat="23.061932" lon="113.277777">
        <time>2026-05-25T22:39:25Z</time>
      </trkpt>
      <trkpt lat="23.061975" lon="113.277613">
        <time>2026-05-25T22:39:30Z</time>
      </trkpt>
      <trkpt lat="23.062018" lon="113.277509">
        <time>2026-05-25T22:39:35Z</time>
      </trkpt>
      <trkpt lat="23.062081" lon="113.277361">
        <time>2026-05-25T22:39:40Z</time>
      </trkpt>
      <trkpt lat="23.06212" lon="113.277265">
        <time>2026-05-25T22:39:45Z</time>
      </trkpt>
      <trkpt lat="23.062178" lon="113.277116">
        <time>2026-05-25T22:39:50Z</time>
      </trkpt>
      <trkpt lat="23.062214" lon="113.277017">
        <time>2026-05-25T22:39:55Z</time>
      </trkpt>
      <trkpt lat="23.062266" lon="113.276865">
        <time>2026-05-25T22:40:00Z</time>
      </trkpt>
      <trkpt lat="23.062303" lon="113.276764">
        <time>2026-05-25T22:40:05Z</time>
      </trkpt>
      <trkpt lat="23.062361" lon="113.276619">
        <time>2026-05-25T22:40:10Z</time>
      </trkpt>
      <trkpt lat="23.0624" lon="113.276518">
        <time>2026-05-25T22:40:15Z</time>
      </trkpt>
      <trkpt lat="23.06246" lon="113.276365">
        <time>2026-05-25T22:40:20Z</time>
      </trkpt>
      <trkpt lat="23.0625" lon="113.276263">
        <time>2026-05-25T22:40:25Z</time>
      </trkpt>
      <trkpt lat="23.062569" lon="113.276117">
        <time>2026-05-25T22:40:30Z</time>
      </trkpt>
      <trkpt lat="23.062625" lon="113.276028">
        <time>2026-05-25T22:40:35Z</time>
      </trkpt>
      <trkpt lat="23.062717" lon="113.275899">
        <time>2026-05-25T22:40:40Z</time>
      </trkpt>
      <trkpt lat="23.062785" lon="113.275822">
        <time>2026-05-25T22:40:45Z</time>
      </trkpt>
      <trkpt lat="23.062896" lon="113.275715">
        <time>2026-05-25T22:40:50Z</time>
      </trkpt>
      <trkpt lat="23.062972" lon="113.275644">
        <time>2026-05-25T22:40:55Z</time>
      </trkpt>
      <trkpt lat="23.06307" lon="113.275523">
        <time>2026-05-25T22:41:00Z</time>
      </trkpt>
      <trkpt lat="23.063127" lon="113.275437">
        <time>2026-05-25T22:41:05Z</time>
      </trkpt>
      <trkpt lat="23.063205" lon="113.275305">
        <time>2026-05-25T22:41:10Z</time>
      </trkpt>
      <trkpt lat="23.06326" lon="113.275216">
        <time>2026-05-25T22:41:15Z</time>
      </trkpt>
      <trkpt lat="23.063339" lon="113.275078">
        <time>2026-05-25T22:41:20Z</time>
      </trkpt>
      <trkpt lat="23.063377" lon="113.274977">
        <time>2026-05-25T22:41:25Z</time>
      </trkpt>
      <trkpt lat="23.063418" lon="113.274828">
        <time>2026-05-25T22:41:30Z</time>
      </trkpt>
      <trkpt lat="23.06345" lon="113.274727">
        <time>2026-05-25T22:41:35Z</time>
      </trkpt>
      <trkpt lat="23.063497" lon="113.274585">
        <time>2026-05-25T22:41:40Z</time>
      </trkpt>
      <trkpt lat="23.063531" lon="113.274485">
        <time>2026-05-25T22:41:45Z</time>
      </trkpt>
      <trkpt lat="23.063611" lon="113.27435">
        <time>2026-05-25T22:41:50Z</time>
      </trkpt>
      <trkpt lat="23.063681" lon="113.274284">
        <time>2026-05-25T22:41:55Z</time>
      </trkpt>
      <trkpt lat="23.063802" lon="113.274184">
        <time>2026-05-25T22:42:00Z</time>
      </trkpt>
      <trkpt lat="23.063865" lon="113.274095">
        <time>2026-05-25T22:42:05Z</time>
      </trkpt>
      <trkpt lat="23.06394" lon="113.273942">
        <time>2026-05-25T22:42:10Z</time>
      </trkpt>
      <trkpt lat="23.063989" lon="113.273843">
        <time>2026-05-25T22:42:15Z</time>
      </trkpt>
      <trkpt lat="23.064086" lon="113.273714">
        <time>2026-05-25T22:42:20Z</time>
      </trkpt>
      <trkpt lat="23.064166" lon="113.273644">
        <time>2026-05-25T22:42:25Z</time>
      </trkpt>
      <trkpt lat="23.064286" lon="113.273549">
        <time>2026-05-25T22:42:30Z</time>
      </trkpt>
      <trkpt lat="23.064374" lon="113.273494">
        <time>2026-05-25T22:42:35Z</time>
      </trkpt>
      <trkpt lat="23.064496" lon="113.273404">
        <time>2026-05-25T22:42:40Z</time>
      </trkpt>
      <trkpt lat="23.064559" lon="113.273317">
        <time>2026-05-25T22:42:45Z</time>
      </trkpt>
      <trkpt lat="23.064602" lon="113.273149">
        <time>2026-05-25T22:42:50Z</time>
      </trkpt>
      <trkpt lat="23.064587" lon="113.273028">
        <time>2026-05-25T22:42:55Z</time>
      </trkpt>
      <trkpt lat="23.06453" lon="113.272861">
        <time>2026-05-25T22:43:00Z</time>
      </trkpt>
      <trkpt lat="23.064494" lon="113.272751">
        <time>2026-05-25T22:43:05Z</time>
      </trkpt>
      <trkpt lat="23.064474" lon="113.272585">
        <time>2026-05-25T22:43:10Z</time>
      </trkpt>
      <trkpt lat="23.064515" lon="113.272487">
        <time>2026-05-25T22:43:15Z</time>
      </trkpt>
      <trkpt lat="23.064579" lon="113.27232">
        <time>2026-05-25T22:43:20Z</time>
      </trkpt>
      <trkpt lat="23.064602" lon="113.272202">
        <time>2026-05-25T22:43:25Z</time>
      </trkpt>
      <trkpt lat="23.064648" lon="113.272044">
        <time>2026-05-25T22:43:30Z</time>
      </trkpt>
      <trkpt lat="23.064694" lon="113.271947">
        <time>2026-05-25T22:43:35Z</time>
      </trkpt>
      <trkpt lat="23.064763" lon="113.2718">
        <time>2026-05-25T22:43:40Z</time>
      </trkpt>
      <trkpt lat="23.064809" lon="113.271699">
        <time>2026-05-25T22:43:45Z</time>
      </trkpt>
      <trkpt lat="23.064882" lon="113.271552">
        <time>2026-05-25T22:43:50Z</time>
      </trkpt>
      <trkpt lat="23.064931" lon="113.271452">
        <time>2026-05-25T22:43:55Z</time>
      </trkpt>
      <trkpt lat="23.06499" lon="113.271309">
        <time>2026-05-25T22:44:00Z</time>
      </trkpt>
      <trkpt lat="23.06502" lon="113.271215">
        <time>2026-05-25T22:44:05Z</time>
      </trkpt>
      <trkpt lat="23.065092" lon="113.271072">
        <time>2026-05-25T22:44:10Z</time>
      </trkpt>
      <trkpt lat="23.065148" lon="113.270974">
        <time>2026-05-25T22:44:15Z</time>
      </trkpt>
      <trkpt lat="23.065207" lon="113.270822">
        <time>2026-05-25T22:44:20Z</time>
      </trkpt>
      <trkpt lat="23.065249" lon="113.270723">
        <time>2026-05-25T22:44:25Z</time>
      </trkpt>
      <trkpt lat="23.065314" lon="113.270576">
        <time>2026-05-25T22:44:30Z</time>
      </trkpt>
      <trkpt lat="23.065364" lon="113.270486">
        <time>2026-05-25T22:44:35Z</time>
      </trkpt>
      <trkpt lat="23.065435" lon="113.270348">
        <time>2026-05-25T22:44:40Z</time>
      </trkpt>
      <trkpt lat="23.065484" lon="113.270252">
        <time>2026-05-25T22:44:45Z</time>
      </trkpt>
      <trkpt lat="23.065542" lon="113.270101">
        <time>2026-05-25T22:44:50Z</time>
      </trkpt>
      <trkpt lat="23.065569" lon="113.270001">
        <time>2026-05-25T22:44:55Z</time>
      </trkpt>
      <trkpt lat="23.065615" lon="113.269842">
        <time>2026-05-25T22:45:00Z</time>
      </trkpt>
      <trkpt lat="23.06565" lon="113.269728">
        <time>2026-05-25T22:45:05Z</time>
      </trkpt>
      <trkpt lat="23.065697" lon="113.26957">
        <time>2026-05-25T22:45:10Z</time>
      </trkpt>
      <trkpt lat="23.065731" lon="113.269467">
        <time>2026-05-25T22:45:15Z</time>
      </trkpt>
      <trkpt lat="23.06576" lon="113.269305">
        <time>2026-05-25T22:45:20Z</time>
      </trkpt>
      <trkpt lat="23.065794" lon="113.269196">
        <time>2026-05-25T22:45:25Z</time>
      </trkpt>
      <trkpt lat="23.065854" lon="113.269038">
        <time>2026-05-25T22:45:30Z</time>
      </trkpt>
      <trkpt lat="23.0659" lon="113.26894">
        <time>2026-05-25T22:45:35Z</time>
      </trkpt>
      <trkpt lat="23.065963" lon="113.26879">
        <time>2026-05-25T22:45:40Z</time>
      </trkpt>
      <trkpt lat="23.066013" lon="113.268687">
        <time>2026-05-25T22:45:45Z</time>
      </trkpt>
      <trkpt lat="23.066094" lon="113.268545">
        <time>2026-05-25T22:45:50Z</time>
      </trkpt>
      <trkpt lat="23.066155" lon="113.268463">
        <time>2026-05-25T22:45:55Z</time>
      </trkpt>
      <trkpt lat="23.066243" lon="113.268325">
        <time>2026-05-25T22:46:00Z</time>
      </trkpt>
      <trkpt lat="23.066311" lon="113.26824">
        <time>2026-05-25T22:46:05Z</time>
      </trkpt>
      <trkpt lat="23.066447" lon="113.268148">
        <time>2026-05-25T22:46:10Z</time>
      </trkpt>
      <trkpt lat="23.066552" lon="113.268134">
        <time>2026-05-25T22:46:15Z</time>
      </trkpt>
      <trkpt lat="23.066712" lon="113.268156">
        <time>2026-05-25T22:46:20Z</time>
      </trkpt>
      <trkpt lat="23.066816" lon="113.268158">
        <time>2026-05-25T22:46:25Z</time>
      </trkpt>
      <trkpt lat="23.066971" lon="113.268155">
        <time>2026-05-25T22:46:30Z</time>
      </trkpt>
      <trkpt lat="23.067061" lon="113.268185">
        <time>2026-05-25T22:46:35Z</time>
      </trkpt>
      <trkpt lat="23.067178" lon="113.268269">
        <time>2026-05-25T22:46:40Z</time>
      </trkpt>
      <trkpt lat="23.067253" lon="113.268322">
        <time>2026-05-25T22:46:45Z</time>
      </trkpt>
      <trkpt lat="23.06737" lon="113.268389">
        <time>2026-05-25T22:46:50Z</time>
      </trkpt>
      <trkpt lat="23.06745" lon="113.268431">
        <time>2026-05-25T22:46:55Z</time>
      </trkpt>
      <trkpt lat="23.06759" lon="113.2685">
        <time>2026-05-25T22:47:00Z</time>
      </trkpt>
      <trkpt lat="23.067691" lon="113.268545">
        <time>2026-05-25T22:47:05Z</time>
      </trkpt>
      <trkpt lat="23.067825" lon="113.268619">
        <time>2026-05-25T22:47:10Z</time>
      </trkpt>
      <trkpt lat="23.06791" lon="113.268664">
        <time>2026-05-25T22:47:15Z</time>
      </trkpt>
      <trkpt lat="23.067993" lon="113.268751">
        <time>2026-05-25T22:47:20Z</time>
      </trkpt>
      <trkpt lat="23.068064" lon="113.268785">
        <time>2026-05-25T22:47:25Z</time>
      </trkpt>
      <trkpt lat="23.068188" lon="113.268822">
        <time>2026-05-25T22:47:30Z</time>
      </trkpt>
      <trkpt lat="23.068272" lon="113.268856">
        <time>2026-05-25T22:47:35Z</time>
      </trkpt>
      <trkpt lat="23.068403" lon="113.268945">
        <time>2026-05-25T22:47:40Z</time>
      </trkpt>
      <trkpt lat="23.068497" lon="113.269025">
        <time>2026-05-25T22:47:45Z</time>
      </trkpt>
      <trkpt lat="23.068658" lon="113.26913">
        <time>2026-05-25T22:47:50Z</time>
      </trkpt>
      <trkpt lat="23.068768" lon="113.269166">
        <time>2026-05-25T22:47:55Z</time>
      </trkpt>
      <trkpt lat="23.06891" lon="113.269202">
        <time>2026-05-25T22:48:00Z</time>
      </trkpt>
      <trkpt lat="23.068999" lon="113.269211">
        <time>2026-05-25T22:48:05Z</time>
      </trkpt>
      <trkpt lat="23.06913" lon="113.269278">
        <time>2026-05-25T22:48:10Z</time>
      </trkpt>
      <trkpt lat="23.069228" lon="113.269343">
        <time>2026-05-25T22:48:15Z</time>
      </trkpt>
      <trkpt lat="23.069372" lon="113.269405">
        <time>2026-05-25T22:48:20Z</time>
      </trkpt>
      <trkpt lat="23.06947" lon="113.269448">
        <time>2026-05-25T22:48:25Z</time>
      </trkpt>
      <trkpt lat="23.069629" lon="113.269512">
        <time>2026-05-25T22:48:30Z</time>
      </trkpt>
      <trkpt lat="23.069733" lon="113.269558">
        <time>2026-05-25T22:48:35Z</time>
      </trkpt>
      <trkpt lat="23.069867" lon="113.269635">
        <time>2026-05-25T22:48:40Z</time>
      </trkpt>
      <trkpt lat="23.069956" lon="113.269673">
        <time>2026-05-25T22:48:45Z</time>
      </trkpt>
      <trkpt lat="23.070102" lon="113.269765">
        <time>2026-05-25T22:48:50Z</time>
      </trkpt>
      <trkpt lat="23.070196" lon="113.269825">
        <time>2026-05-25T22:48:55Z</time>
      </trkpt>
      <trkpt lat="23.070334" lon="113.269898">
        <time>2026-05-25T22:49:00Z</time>
      </trkpt>
      <trkpt lat="23.07043" lon="113.269934">
        <time>2026-05-25T22:49:05Z</time>
      </trkpt>
      <trkpt lat="23.070573" lon="113.269999">
        <time>2026-05-25T22:49:10Z</time>
      </trkpt>
      <trkpt lat="23.070663" lon="113.270041">
        <time>2026-05-25T22:49:15Z</time>
      </trkpt>
      <trkpt lat="23.070799" lon="113.270092">
        <time>2026-05-25T22:49:20Z</time>
      </trkpt>
      <trkpt lat="23.070882" lon="113.270151">
        <time>2026-05-25T22:49:25Z</time>
      </trkpt>
      <trkpt lat="23.071018" lon="113.270204">
        <time>2026-05-25T22:49:30Z</time>
      </trkpt>
      <trkpt lat="23.071113" lon="113.270241">
        <time>2026-05-25T22:49:35Z</time>
      </trkpt>
      <trkpt lat="23.071246" lon="113.270305">
        <time>2026-05-25T22:49:40Z</time>
      </trkpt>
      <trkpt lat="23.071335" lon="113.270342">
        <time>2026-05-25T22:49:45Z</time>
      </trkpt>
      <trkpt lat="23.071462" lon="113.2704">
        <time>2026-05-25T22:49:50Z</time>
      </trkpt>
      <trkpt lat="23.071551" lon="113.27045">
        <time>2026-05-25T22:49:55Z</time>
      </trkpt>
      <trkpt lat="23.071676" lon="113.270519">
        <time>2026-05-25T22:50:00Z</time>
      </trkpt>
      <trkpt lat="23.071759" lon="113.270563">
        <time>2026-05-25T22:50:05Z</time>
      </trkpt>
      <trkpt lat="23.071884" lon="113.270662">
        <time>2026-05-25T22:50:10Z</time>
      </trkpt>
      <trkpt lat="23.071975" lon="113.270691">
        <time>2026-05-25T22:50:15Z</time>
      </trkpt>
      <trkpt lat="23.072093" lon="113.27075">
        <time>2026-05-25T22:50:20Z</time>
      </trkpt>
      <trkpt lat="23.072186" lon="113.270802">
        <time>2026-05-25T22:50:25Z</time>
      </trkpt>
      <trkpt lat="23.072353" lon="113.270819">
        <time>2026-05-25T22:50:30Z</time>
      </trkpt>
      <trkpt lat="23.072445" lon="113.270858">
        <time>2026-05-25T22:50:35Z</time>
      </trkpt>
      <trkpt lat="23.07258" lon="113.270945">
        <time>2026-05-25T22:50:40Z</time>
      </trkpt>
      <trkpt lat="23.072671" lon="113.270998">
        <time>2026-05-25T22:50:45Z</time>
      </trkpt>
      <trkpt lat="23.072813" lon="113.271048">
        <time>2026-05-25T22:50:50Z</time>
      </trkpt>
      <trkpt lat="23.072913" lon="113.271078">
        <time>2026-05-25T22:50:55Z</time>
      </trkpt>
      <trkpt lat="23.073073" lon="113.271132">
        <time>2026-05-25T22:51:00Z</time>
      </trkpt>
      <trkpt lat="23.073158" lon="113.271178">
        <time>2026-05-25T22:51:05Z</time>
      </trkpt>
      <trkpt lat="23.073255" lon="113.271264">
        <time>2026-05-25T22:51:10Z</time>
      </trkpt>
      <trkpt lat="23.073327" lon="113.271298">
        <time>2026-05-25T22:51:15Z</time>
      </trkpt>
      <trkpt lat="23.073449" lon="113.271348">
        <time>2026-05-25T22:51:20Z</time>
      </trkpt>
      <trkpt lat="23.07353" lon="113.271412">
        <time>2026-05-25T22:51:25Z</time>
      </trkpt>
      <trkpt lat="23.073657" lon="113.271534">
        <time>2026-05-25T22:51:30Z</time>
      </trkpt>
      <trkpt lat="23.073749" lon="113.271605">
        <time>2026-05-25T22:51:35Z</time>
      </trkpt>
      <trkpt lat="23.073889" lon="113.271699">
        <time>2026-05-25T22:51:40Z</time>
      </trkpt>
      <trkpt lat="23.073981" lon="113.271756">
        <time>2026-05-25T22:51:45Z</time>
      </trkpt>
      <trkpt lat="23.074075" lon="113.271815">
        <time>2026-05-25T22:51:50Z</time>
      </trkpt>
      <trkpt lat="23.074046" lon="113.271891">
        <time>2026-05-25T22:51:55Z</time>
      </trkpt>
      <trkpt lat="23.073984" lon="113.27202">
        <time>2026-05-25T22:52:00Z</time>
      </trkpt>
      <trkpt lat="23.073949" lon="113.272111">
        <time>2026-05-25T22:52:05Z</time>
      </trkpt>
      <trkpt lat="23.073897" lon="113.272258">
        <time>2026-05-25T22:52:10Z</time>
      </trkpt>
      <trkpt lat="23.073852" lon="113.27236">
        <time>2026-05-25T22:52:15Z</time>
      </trkpt>
      <trkpt lat="23.073787" lon="113.272506">
        <time>2026-05-25T22:52:20Z</time>
      </trkpt>
      <trkpt lat="23.073741" lon="113.272601">
        <time>2026-05-25T22:52:25Z</time>
      </trkpt>
      <trkpt lat="23.073686" lon="113.272762">
        <time>2026-05-25T22:52:30Z</time>
      </trkpt>
      <trkpt lat="23.073704" lon="113.272865">
        <time>2026-05-25T22:52:35Z</time>
      </trkpt>
      <trkpt lat="23.073846" lon="113.272958">
        <time>2026-05-25T22:52:40Z</time>
      </trkpt>
      <trkpt lat="23.073951" lon="113.272995">
        <time>2026-05-25T22:52:45Z</time>
      </trkpt>
      <trkpt lat="23.074055" lon="113.272911">
        <time>2026-05-25T22:52:50Z</time>
      </trkpt>
      <trkpt lat="23.0741" lon="113.272805">
        <time>2026-05-25T22:52:55Z</time>
      </trkpt>
      <trkpt lat="23.074152" lon="113.27265">
        <time>2026-05-25T22:53:00Z</time>
      </trkpt>
      <trkpt lat="23.074177" lon="113.272563">
        <time>2026-05-25T22:53:05Z</time>
      </trkpt>
      <trkpt lat="23.074239" lon="113.272434">
        <time>2026-05-25T22:53:10Z</time>
      </trkpt>
      <trkpt lat="23.074292" lon="113.272346">
        <time>2026-05-25T22:53:15Z</time>
      </trkpt>
      <trkpt lat="23.07434" lon="113.272209">
        <time>2026-05-25T22:53:20Z</time>
      </trkpt>
      <trkpt lat="23.074392" lon="113.272124">
        <time>2026-05-25T22:53:25Z</time>
      </trkpt>
      <trkpt lat="23.074509" lon="113.272035">
        <time>2026-05-25T22:53:30Z</time>
      </trkpt>
      <trkpt lat="23.074585" lon="113.272029">
        <time>2026-05-25T22:53:35Z</time>
      </trkpt>
      <trkpt lat="23.074712" lon="113.272093">
        <time>2026-05-25T22:53:40Z</time>
      </trkpt>
      <trkpt lat="23.074795" lon="113.27215">
        <time>2026-05-25T22:53:45Z</time>
      </trkpt>
      <trkpt lat="23.074907" lon="113.27225">
        <time>2026-05-25T22:53:50Z</time>
      </trkpt>
      <trkpt lat="23.074989" lon="113.272308">
        <time>2026-05-25T22:54:02Z</time>
      </trkpt>
    </trkseg>
  </trk>
</gpx>