<?xml version="1.0" encoding="UTF-8"?>
<gpx xmlns="http://www.topografix.com/GPX/1/1" xmlns:gpxtpx="http://www.garmin.com/xmlschemas/TrackPointExtension/v1" xmlns:xsi="http://www.w3.org/2001/XMLSchema-instance" xsi:schemaLocation="http://www.topografix.com/GPX/1/1 http://www.topografix.com/GPX/1/1/gpx.xsd" version="1.1" creator="gpx.py -- https://github.com/tkrajina/gpxpy">
  <trk>
    <name>gpx from joyrun</name>
    <trkseg>
      <trkpt lat="23.07608" lon="113.272861">
        <time>2026-05-24T21:51:40Z</time>
      </trkpt>
      <trkpt lat="23.075949" lon="113.272779">
        <time>2026-05-24T21:51:45Z</time>
      </trkpt>
      <trkpt lat="23.075881" lon="113.272664">
        <time>2026-05-24T21:51:50Z</time>
      </trkpt>
      <trkpt lat="23.075754" lon="113.272612">
        <time>2026-05-24T21:51:55Z</time>
      </trkpt>
      <trkpt lat="23.075669" lon="113.27258">
        <time>2026-05-24T21:52:00Z</time>
      </trkpt>
      <trkpt lat="23.075556" lon="113.272524">
        <time>2026-05-24T21:52:05Z</time>
      </trkpt>
      <trkpt lat="23.075499" lon="113.272463">
        <time>2026-05-24T21:52:10Z</time>
      </trkpt>
      <trkpt lat="23.075354" lon="113.272432">
        <time>2026-05-24T21:52:15Z</time>
      </trkpt>
      <trkpt lat="23.075254" lon="113.272413">
        <time>2026-05-24T21:52:20Z</time>
      </trkpt>
      <trkpt lat="23.075117" lon="113.272356">
        <time>2026-05-24T21:52:25Z</time>
      </trkpt>
      <trkpt lat="23.075023" lon="113.272295">
        <time>2026-05-24T21:52:30Z</time>
      </trkpt>
      <trkpt lat="23.074882" lon="113.2722">
        <time>2026-05-24T21:52:35Z</time>
      </trkpt>
      <trkpt lat="23.074788" lon="113.272141">
        <time>2026-05-24T21:52:40Z</time>
      </trkpt>
      <trkpt lat="23.074649" lon="113.272057">
        <time>2026-05-24T21:52:45Z</time>
      </trkpt>
      <trkpt lat="23.074555" lon="113.272009">
        <time>2026-05-24T21:52:50Z</time>
      </trkpt>
      <trkpt lat="23.074433" lon="113.272033">
        <time>2026-05-24T21:52:55Z</time>
      </trkpt>
      <trkpt lat="23.074363" lon="113.272103">
        <time>2026-05-24T21:53:00Z</time>
      </trkpt>
      <trkpt lat="23.074289" lon="113.272243">
        <time>2026-05-24T21:53:05Z</time>
      </trkpt>
      <trkpt lat="23.074252" lon="113.272341">
        <time>2026-05-24T21:53:10Z</time>
      </trkpt>
      <trkpt lat="23.074179" lon="113.272485">
        <time>2026-05-24T21:53:15Z</time>
      </trkpt>
      <trkpt lat="23.074143" lon="113.272578">
        <time>2026-05-24T21:53:20Z</time>
      </trkpt>
      <trkpt lat="23.074099" lon="113.27271">
        <time>2026-05-24T21:53:25Z</time>
      </trkpt>
      <trkpt lat="23.074061" lon="113.272801">
        <time>2026-05-24T21:53:30Z</time>
      </trkpt>
      <trkpt lat="23.073991" lon="113.272946">
        <time>2026-05-24T21:53:35Z</time>
      </trkpt>
      <trkpt lat="23.073952" lon="113.273041">
        <time>2026-05-24T21:53:40Z</time>
      </trkpt>
      <trkpt lat="23.073905" lon="113.273117">
        <time>2026-05-24T21:53:45Z</time>
      </trkpt>
      <trkpt lat="23.073934" lon="113.273048">
        <time>2026-05-24T21:53:50Z</time>
      </trkpt>
      <trkpt lat="23.073891" lon="113.272962">
        <time>2026-05-24T21:53:55Z</time>
      </trkpt>
      <trkpt lat="23.073806" lon="113.272926">
        <time>2026-05-24T21:54:00Z</time>
      </trkpt>
      <trkpt lat="23.073691" lon="113.272867">
        <time>2026-05-24T21:54:05Z</time>
      </trkpt>
      <trkpt lat="23.073703" lon="113.272778">
        <time>2026-05-24T21:54:10Z</time>
      </trkpt>
      <trkpt lat="23.073767" lon="113.272646">
        <time>2026-05-24T21:54:15Z</time>
      </trkpt>
      <trkpt lat="23.073802" lon="113.272567">
        <time>2026-05-24T21:54:20Z</time>
      </trkpt>
      <trkpt lat="23.07386" lon="113.272459">
        <time>2026-05-24T21:54:25Z</time>
      </trkpt>
      <trkpt lat="23.073891" lon="113.27237">
        <time>2026-05-24T21:54:30Z</time>
      </trkpt>
      <trkpt lat="23.073943" lon="113.272232">
        <time>2026-05-24T21:54:35Z</time>
      </trkpt>
      <trkpt lat="23.073996" lon="113.272146">
        <time>2026-05-24T21:54:40Z</time>
      </trkpt>
      <trkpt lat="23.074048" lon="113.272011">
        <time>2026-05-24T21:54:45Z</time>
      </trkpt>
      <trkpt lat="23.074085" lon="113.271924">
        <time>2026-05-24T21:54:50Z</time>
      </trkpt>
      <trkpt lat="23.074135" lon="113.271796">
        <time>2026-05-24T21:54:55Z</time>
      </trkpt>
      <trkpt lat="23.074132" lon="113.271714">
        <time>2026-05-24T21:55:00Z</time>
      </trkpt>
      <trkpt lat="23.074016" lon="113.271648">
        <time>2026-05-24T21:55:05Z</time>
      </trkpt>
      <trkpt lat="23.073931" lon="113.271591">
        <time>2026-05-24T21:55:10Z</time>
      </trkpt>
      <trkpt lat="23.073797" lon="113.271506">
        <time>2026-05-24T21:55:15Z</time>
      </trkpt>
      <trkpt lat="23.073705" lon="113.271462">
        <time>2026-05-24T21:55:20Z</time>
      </trkpt>
      <trkpt lat="23.073574" lon="113.271403">
        <time>2026-05-24T21:55:25Z</time>
      </trkpt>
      <trkpt lat="23.073482" lon="113.27137">
        <time>2026-05-24T21:55:30Z</time>
      </trkpt>
      <trkpt lat="23.07334" lon="113.271326">
        <time>2026-05-24T21:55:35Z</time>
      </trkpt>
      <trkpt lat="23.073257" lon="113.271265">
        <time>2026-05-24T21:55:40Z</time>
      </trkpt>
      <trkpt lat="23.073125" lon="113.271175">
        <time>2026-05-24T21:55:45Z</time>
      </trkpt>
      <trkpt lat="23.073032" lon="113.271113">
        <time>2026-05-24T21:55:50Z</time>
      </trkpt>
      <trkpt lat="23.072892" lon="113.27103">
        <time>2026-05-24T21:55:55Z</time>
      </trkpt>
      <trkpt lat="23.072798" lon="113.270973">
        <time>2026-05-24T21:56:00Z</time>
      </trkpt>
      <trkpt lat="23.072657" lon="113.270909">
        <time>2026-05-24T21:56:05Z</time>
      </trkpt>
      <trkpt lat="23.07257" lon="113.270866">
        <time>2026-05-24T21:56:10Z</time>
      </trkpt>
      <trkpt lat="23.072442" lon="113.270807">
        <time>2026-05-24T21:56:15Z</time>
      </trkpt>
      <trkpt lat="23.072369" lon="113.270782">
        <time>2026-05-24T21:56:20Z</time>
      </trkpt>
      <trkpt lat="23.072213" lon="113.270758">
        <time>2026-05-24T21:56:25Z</time>
      </trkpt>
      <trkpt lat="23.072117" lon="113.270751">
        <time>2026-05-24T21:56:30Z</time>
      </trkpt>
      <trkpt lat="23.071981" lon="113.270721">
        <time>2026-05-24T21:56:35Z</time>
      </trkpt>
      <trkpt lat="23.071886" lon="113.270673">
        <time>2026-05-24T21:56:40Z</time>
      </trkpt>
      <trkpt lat="23.071746" lon="113.270586">
        <time>2026-05-24T21:56:45Z</time>
      </trkpt>
      <trkpt lat="23.071653" lon="113.270544">
        <time>2026-05-24T21:56:50Z</time>
      </trkpt>
      <trkpt lat="23.071531" lon="113.270457">
        <time>2026-05-24T21:56:55Z</time>
      </trkpt>
      <trkpt lat="23.071447" lon="113.270393">
        <time>2026-05-24T21:57:00Z</time>
      </trkpt>
      <trkpt lat="23.07132" lon="113.270312">
        <time>2026-05-24T21:57:05Z</time>
      </trkpt>
      <trkpt lat="23.071233" lon="113.270253">
        <time>2026-05-24T21:57:10Z</time>
      </trkpt>
      <trkpt lat="23.07111" lon="113.270162">
        <time>2026-05-24T21:57:15Z</time>
      </trkpt>
      <trkpt lat="23.071012" lon="113.27013">
        <time>2026-05-24T21:57:20Z</time>
      </trkpt>
      <trkpt lat="23.070881" lon="113.270069">
        <time>2026-05-24T21:57:25Z</time>
      </trkpt>
      <trkpt lat="23.070786" lon="113.270025">
        <time>2026-05-24T21:57:30Z</time>
      </trkpt>
      <trkpt lat="23.070642" lon="113.269932">
        <time>2026-05-24T21:57:35Z</time>
      </trkpt>
      <trkpt lat="23.070541" lon="113.26988">
        <time>2026-05-24T21:57:40Z</time>
      </trkpt>
      <trkpt lat="23.070393" lon="113.26983">
        <time>2026-05-24T21:57:45Z</time>
      </trkpt>
      <trkpt lat="23.070296" lon="113.269797">
        <time>2026-05-24T21:57:50Z</time>
      </trkpt>
      <trkpt lat="23.070158" lon="113.269722">
        <time>2026-05-24T21:57:55Z</time>
      </trkpt>
      <trkpt lat="23.070068" lon="113.269676">
        <time>2026-05-24T21:58:00Z</time>
      </trkpt>
      <trkpt lat="23.069937" lon="113.269609">
        <time>2026-05-24T21:58:05Z</time>
      </trkpt>
      <trkpt lat="23.069852" lon="113.269569">
        <time>2026-05-24T21:58:10Z</time>
      </trkpt>
      <trkpt lat="23.069715" lon="113.269526">
        <time>2026-05-24T21:58:15Z</time>
      </trkpt>
      <trkpt lat="23.06962" lon="113.269479">
        <time>2026-05-24T21:58:20Z</time>
      </trkpt>
      <trkpt lat="23.069481" lon="113.269404">
        <time>2026-05-24T21:58:25Z</time>
      </trkpt>
      <trkpt lat="23.069391" lon="113.269348">
        <time>2026-05-24T21:58:30Z</time>
      </trkpt>
      <trkpt lat="23.069254" lon="113.269268">
        <time>2026-05-24T21:58:35Z</time>
      </trkpt>
      <trkpt lat="23.069166" lon="113.269222">
        <time>2026-05-24T21:58:40Z</time>
      </trkpt>
      <trkpt lat="23.069028" lon="113.269183">
        <time>2026-05-24T21:58:45Z</time>
      </trkpt>
      <trkpt lat="23.068937" lon="113.269146">
        <time>2026-05-24T21:58:50Z</time>
      </trkpt>
      <trkpt lat="23.068801" lon="113.269088">
        <time>2026-05-24T21:58:55Z</time>
      </trkpt>
      <trkpt lat="23.068715" lon="113.269052">
        <time>2026-05-24T21:59:00Z</time>
      </trkpt>
      <trkpt lat="23.068588" lon="113.268999">
        <time>2026-05-24T21:59:05Z</time>
      </trkpt>
      <trkpt lat="23.068501" lon="113.268968">
        <time>2026-05-24T21:59:10Z</time>
      </trkpt>
      <trkpt lat="23.06838" lon="113.268911">
        <time>2026-05-24T21:59:15Z</time>
      </trkpt>
      <trkpt lat="23.068298" lon="113.26888">
        <time>2026-05-24T21:59:20Z</time>
      </trkpt>
      <trkpt lat="23.068158" lon="113.268814">
        <time>2026-05-24T21:59:25Z</time>
      </trkpt>
      <trkpt lat="23.068066" lon="113.268753">
        <time>2026-05-24T21:59:30Z</time>
      </trkpt>
      <trkpt lat="23.067924" lon="113.268606">
        <time>2026-05-24T21:59:35Z</time>
      </trkpt>
      <trkpt lat="23.067838" lon="113.268531">
        <time>2026-05-24T21:59:40Z</time>
      </trkpt>
      <trkpt lat="23.067699" lon="113.268466">
        <time>2026-05-24T21:59:45Z</time>
      </trkpt>
      <trkpt lat="23.067609" lon="113.268414">
        <time>2026-05-24T21:59:50Z</time>
      </trkpt>
      <trkpt lat="23.067476" lon="113.268348">
        <time>2026-05-24T21:59:55Z</time>
      </trkpt>
      <trkpt lat="23.067414" lon="113.268276">
        <time>2026-05-24T22:00:00Z</time>
      </trkpt>
      <trkpt lat="23.067299" lon="113.268172">
        <time>2026-05-24T22:00:05Z</time>
      </trkpt>
      <trkpt lat="23.06721" lon="113.26814">
        <time>2026-05-24T22:00:10Z</time>
      </trkpt>
      <trkpt lat="23.067077" lon="113.268086">
        <time>2026-05-24T22:00:15Z</time>
      </trkpt>
      <trkpt lat="23.066985" lon="113.268056">
        <time>2026-05-24T22:00:20Z</time>
      </trkpt>
      <trkpt lat="23.066844" lon="113.268032">
        <time>2026-05-24T22:00:25Z</time>
      </trkpt>
      <trkpt lat="23.066738" lon="113.268025">
        <time>2026-05-24T22:00:30Z</time>
      </trkpt>
      <trkpt lat="23.066582" lon="113.267986">
        <time>2026-05-24T22:00:35Z</time>
      </trkpt>
      <trkpt lat="23.066481" lon="113.267954">
        <time>2026-05-24T22:00:40Z</time>
      </trkpt>
      <trkpt lat="23.066331" lon="113.267962">
        <time>2026-05-24T22:00:45Z</time>
      </trkpt>
      <trkpt lat="23.066235" lon="113.268">
        <time>2026-05-24T22:00:50Z</time>
      </trkpt>
      <trkpt lat="23.066115" lon="113.268097">
        <time>2026-05-24T22:00:55Z</time>
      </trkpt>
      <trkpt lat="23.066046" lon="113.268177">
        <time>2026-05-24T22:01:00Z</time>
      </trkpt>
      <trkpt lat="23.065959" lon="113.268296">
        <time>2026-05-24T22:01:05Z</time>
      </trkpt>
      <trkpt lat="23.065896" lon="113.268376">
        <time>2026-05-24T22:01:10Z</time>
      </trkpt>
      <trkpt lat="23.065814" lon="113.268513">
        <time>2026-05-24T22:01:15Z</time>
      </trkpt>
      <trkpt lat="23.065766" lon="113.268605">
        <time>2026-05-24T22:01:20Z</time>
      </trkpt>
      <trkpt lat="23.0657" lon="113.268753">
        <time>2026-05-24T22:01:25Z</time>
      </trkpt>
      <trkpt lat="23.065662" lon="113.268855">
        <time>2026-05-24T22:01:30Z</time>
      </trkpt>
      <trkpt lat="23.065609" lon="113.26901">
        <time>2026-05-24T22:01:35Z</time>
      </trkpt>
      <trkpt lat="23.065579" lon="113.269119">
        <time>2026-05-24T22:01:40Z</time>
      </trkpt>
      <trkpt lat="23.065534" lon="113.269285">
        <time>2026-05-24T22:01:45Z</time>
      </trkpt>
      <trkpt lat="23.065512" lon="113.26939">
        <time>2026-05-24T22:01:50Z</time>
      </trkpt>
      <trkpt lat="23.065479" lon="113.269549">
        <time>2026-05-24T22:01:55Z</time>
      </trkpt>
      <trkpt lat="23.065457" lon="113.269656">
        <time>2026-05-24T22:02:00Z</time>
      </trkpt>
      <trkpt lat="23.065418" lon="113.269809">
        <time>2026-05-24T22:02:05Z</time>
      </trkpt>
      <trkpt lat="23.065382" lon="113.269903">
        <time>2026-05-24T22:02:10Z</time>
      </trkpt>
      <trkpt lat="23.065325" lon="113.270057">
        <time>2026-05-24T22:02:15Z</time>
      </trkpt>
      <trkpt lat="23.065282" lon="113.270161">
        <time>2026-05-24T22:02:20Z</time>
      </trkpt>
      <trkpt lat="23.065207" lon="113.270311">
        <time>2026-05-24T22:02:25Z</time>
      </trkpt>
      <trkpt lat="23.06516" lon="113.270411">
        <time>2026-05-24T22:02:30Z</time>
      </trkpt>
      <trkpt lat="23.065096" lon="113.270559">
        <time>2026-05-24T22:02:35Z</time>
      </trkpt>
      <trkpt lat="23.065051" lon="113.270659">
        <time>2026-05-24T22:02:40Z</time>
      </trkpt>
      <trkpt lat="23.064982" lon="113.270804">
        <time>2026-05-24T22:02:45Z</time>
      </trkpt>
      <trkpt lat="23.06494" lon="113.270903">
        <time>2026-05-24T22:02:50Z</time>
      </trkpt>
      <trkpt lat="23.064877" lon="113.271049">
        <time>2026-05-24T22:02:55Z</time>
      </trkpt>
      <trkpt lat="23.064828" lon="113.271142">
        <time>2026-05-24T22:03:00Z</time>
      </trkpt>
      <trkpt lat="23.06476" lon="113.271286">
        <time>2026-05-24T22:03:05Z</time>
      </trkpt>
      <trkpt lat="23.064716" lon="113.271383">
        <time>2026-05-24T22:03:10Z</time>
      </trkpt>
      <trkpt lat="23.06465" lon="113.271534">
        <time>2026-05-24T22:03:15Z</time>
      </trkpt>
      <trkpt lat="23.064603" lon="113.271638">
        <time>2026-05-24T22:03:20Z</time>
      </trkpt>
      <trkpt lat="23.064528" lon="113.271791">
        <time>2026-05-24T22:03:25Z</time>
      </trkpt>
      <trkpt lat="23.064478" lon="113.271894">
        <time>2026-05-24T22:03:30Z</time>
      </trkpt>
      <trkpt lat="23.064409" lon="113.272054">
        <time>2026-05-24T22:03:35Z</time>
      </trkpt>
      <trkpt lat="23.064379" lon="113.272166">
        <time>2026-05-24T22:03:40Z</time>
      </trkpt>
      <trkpt lat="23.064354" lon="113.272334">
        <time>2026-05-24T22:03:45Z</time>
      </trkpt>
      <trkpt lat="23.064335" lon="113.272435">
        <time>2026-05-24T22:03:50Z</time>
      </trkpt>
      <trkpt lat="23.064334" lon="113.2726">
        <time>2026-05-24T22:03:55Z</time>
      </trkpt>
      <trkpt lat="23.064356" lon="113.272709">
        <time>2026-05-24T22:04:00Z</time>
      </trkpt>
      <trkpt lat="23.064407" lon="113.272863">
        <time>2026-05-24T22:04:05Z</time>
      </trkpt>
      <trkpt lat="23.064437" lon="113.272968">
        <time>2026-05-24T22:04:10Z</time>
      </trkpt>
      <trkpt lat="23.064475" lon="113.273121">
        <time>2026-05-24T22:04:15Z</time>
      </trkpt>
      <trkpt lat="23.064463" lon="113.27322">
        <time>2026-05-24T22:04:20Z</time>
      </trkpt>
      <trkpt lat="23.064369" lon="113.273344">
        <time>2026-05-24T22:04:25Z</time>
      </trkpt>
      <trkpt lat="23.064281" lon="113.273406">
        <time>2026-05-24T22:04:30Z</time>
      </trkpt>
      <trkpt lat="23.064156" lon="113.273499">
        <time>2026-05-24T22:04:35Z</time>
      </trkpt>
      <trkpt lat="23.064077" lon="113.273559">
        <time>2026-05-24T22:04:40Z</time>
      </trkpt>
      <trkpt lat="23.063959" lon="113.273667">
        <time>2026-05-24T22:04:45Z</time>
      </trkpt>
      <trkpt lat="23.063891" lon="113.273752">
        <time>2026-05-24T22:04:50Z</time>
      </trkpt>
      <trkpt lat="23.063804" lon="113.273892">
        <time>2026-05-24T22:04:55Z</time>
      </trkpt>
      <trkpt lat="23.063746" lon="113.273987">
        <time>2026-05-24T22:05:00Z</time>
      </trkpt>
      <trkpt lat="23.06364" lon="113.274102">
        <time>2026-05-24T22:05:05Z</time>
      </trkpt>
      <trkpt lat="23.063567" lon="113.274158">
        <time>2026-05-24T22:05:10Z</time>
      </trkpt>
      <trkpt lat="23.063484" lon="113.27429">
        <time>2026-05-24T22:05:15Z</time>
      </trkpt>
      <trkpt lat="23.063442" lon="113.274406">
        <time>2026-05-24T22:05:20Z</time>
      </trkpt>
      <trkpt lat="23.063392" lon="113.274586">
        <time>2026-05-24T22:05:25Z</time>
      </trkpt>
      <trkpt lat="23.063359" lon="113.274689">
        <time>2026-05-24T22:05:30Z</time>
      </trkpt>
      <trkpt lat="23.063304" lon="113.274847">
        <time>2026-05-24T22:05:35Z</time>
      </trkpt>
      <trkpt lat="23.063269" lon="113.274958">
        <time>2026-05-24T22:05:40Z</time>
      </trkpt>
      <trkpt lat="23.0632" lon="113.275109">
        <time>2026-05-24T22:05:45Z</time>
      </trkpt>
      <trkpt lat="23.063147" lon="113.275199">
        <time>2026-05-24T22:05:50Z</time>
      </trkpt>
      <trkpt lat="23.06307" lon="113.275328">
        <time>2026-05-24T22:05:55Z</time>
      </trkpt>
      <trkpt lat="23.063021" lon="113.275413">
        <time>2026-05-24T22:06:00Z</time>
      </trkpt>
      <trkpt lat="23.062935" lon="113.275536">
        <time>2026-05-24T22:06:05Z</time>
      </trkpt>
      <trkpt lat="23.062863" lon="113.275617">
        <time>2026-05-24T22:06:10Z</time>
      </trkpt>
      <trkpt lat="23.062747" lon="113.275727">
        <time>2026-05-24T22:06:15Z</time>
      </trkpt>
      <trkpt lat="23.062676" lon="113.275803">
        <time>2026-05-24T22:06:20Z</time>
      </trkpt>
      <trkpt lat="23.062579" lon="113.275921">
        <time>2026-05-24T22:06:25Z</time>
      </trkpt>
      <trkpt lat="23.06252" lon="113.276009">
        <time>2026-05-24T22:06:30Z</time>
      </trkpt>
      <trkpt lat="23.062446" lon="113.276146">
        <time>2026-05-24T22:06:35Z</time>
      </trkpt>
      <trkpt lat="23.062404" lon="113.276244">
        <time>2026-05-24T22:06:40Z</time>
      </trkpt>
      <trkpt lat="23.062353" lon="113.276388">
        <time>2026-05-24T22:06:45Z</time>
      </trkpt>
      <trkpt lat="23.062317" lon="113.276484">
        <time>2026-05-24T22:06:50Z</time>
      </trkpt>
      <trkpt lat="23.062266" lon="113.276621">
        <time>2026-05-24T22:06:55Z</time>
      </trkpt>
      <trkpt lat="23.062234" lon="113.276708">
        <time>2026-05-24T22:07:00Z</time>
      </trkpt>
      <trkpt lat="23.062187" lon="113.276847">
        <time>2026-05-24T22:07:05Z</time>
      </trkpt>
      <trkpt lat="23.062152" lon="113.276941">
        <time>2026-05-24T22:07:10Z</time>
      </trkpt>
      <trkpt lat="23.062094" lon="113.277088">
        <time>2026-05-24T22:07:15Z</time>
      </trkpt>
      <trkpt lat="23.062049" lon="113.277195">
        <time>2026-05-24T22:07:20Z</time>
      </trkpt>
      <trkpt lat="23.061987" lon="113.277359">
        <time>2026-05-24T22:07:25Z</time>
      </trkpt>
      <trkpt lat="23.06195" lon="113.277463">
        <time>2026-05-24T22:07:30Z</time>
      </trkpt>
      <trkpt lat="23.061892" lon="113.277615">
        <time>2026-05-24T22:07:35Z</time>
      </trkpt>
      <trkpt lat="23.061864" lon="113.277717">
        <time>2026-05-24T22:07:40Z</time>
      </trkpt>
      <trkpt lat="23.061837" lon="113.277877">
        <time>2026-05-24T22:07:45Z</time>
      </trkpt>
      <trkpt lat="23.061834" lon="113.277982">
        <time>2026-05-24T22:07:50Z</time>
      </trkpt>
      <trkpt lat="23.061849" lon="113.278134">
        <time>2026-05-24T22:07:55Z</time>
      </trkpt>
      <trkpt lat="23.061854" lon="113.27823">
        <time>2026-05-24T22:08:00Z</time>
      </trkpt>
      <trkpt lat="23.061856" lon="113.278378">
        <time>2026-05-24T22:08:05Z</time>
      </trkpt>
      <trkpt lat="23.061858" lon="113.278483">
        <time>2026-05-24T22:08:10Z</time>
      </trkpt>
      <trkpt lat="23.061856" lon="113.278646">
        <time>2026-05-24T22:08:15Z</time>
      </trkpt>
      <trkpt lat="23.061841" lon="113.278748">
        <time>2026-05-24T22:08:20Z</time>
      </trkpt>
      <trkpt lat="23.061788" lon="113.278893">
        <time>2026-05-24T22:08:25Z</time>
      </trkpt>
      <trkpt lat="23.061728" lon="113.278985">
        <time>2026-05-24T22:08:30Z</time>
      </trkpt>
      <trkpt lat="23.061643" lon="113.279121">
        <time>2026-05-24T22:08:35Z</time>
      </trkpt>
      <trkpt lat="23.061598" lon="113.279215">
        <time>2026-05-24T22:08:40Z</time>
      </trkpt>
      <trkpt lat="23.061544" lon="113.279361">
        <time>2026-05-24T22:08:45Z</time>
      </trkpt>
      <trkpt lat="23.061504" lon="113.279459">
        <time>2026-05-24T22:08:50Z</time>
      </trkpt>
      <trkpt lat="23.061445" lon="113.279616">
        <time>2026-05-24T22:08:55Z</time>
      </trkpt>
      <trkpt lat="23.0614" lon="113.279719">
        <time>2026-05-24T22:09:00Z</time>
      </trkpt>
      <trkpt lat="23.061333" lon="113.279866">
        <time>2026-05-24T22:09:05Z</time>
      </trkpt>
      <trkpt lat="23.06129" lon="113.27997">
        <time>2026-05-24T22:09:10Z</time>
      </trkpt>
      <trkpt lat="23.061227" lon="113.280121">
        <time>2026-05-24T22:09:15Z</time>
      </trkpt>
      <trkpt lat="23.061186" lon="113.28022">
        <time>2026-05-24T22:09:20Z</time>
      </trkpt>
      <trkpt lat="23.061118" lon="113.280374">
        <time>2026-05-24T22:09:25Z</time>
      </trkpt>
      <trkpt lat="23.061075" lon="113.280475">
        <time>2026-05-24T22:09:30Z</time>
      </trkpt>
      <trkpt lat="23.061015" lon="113.280618">
        <time>2026-05-24T22:09:35Z</time>
      </trkpt>
      <trkpt lat="23.060969" lon="113.280721">
        <time>2026-05-24T22:09:40Z</time>
      </trkpt>
      <trkpt lat="23.060899" lon="113.28087">
        <time>2026-05-24T22:09:45Z</time>
      </trkpt>
      <trkpt lat="23.060856" lon="113.280969">
        <time>2026-05-24T22:09:50Z</time>
      </trkpt>
      <trkpt lat="23.060792" lon="113.281118">
        <time>2026-05-24T22:09:55Z</time>
      </trkpt>
      <trkpt lat="23.06075" lon="113.281214">
        <time>2026-05-24T22:10:00Z</time>
      </trkpt>
      <trkpt lat="23.060681" lon="113.28136">
        <time>2026-05-24T22:10:05Z</time>
      </trkpt>
      <trkpt lat="23.060635" lon="113.281462">
        <time>2026-05-24T22:10:10Z</time>
      </trkpt>
      <trkpt lat="23.060566" lon="113.28162">
        <time>2026-05-24T22:10:15Z</time>
      </trkpt>
      <trkpt lat="23.060521" lon="113.281722">
        <time>2026-05-24T22:10:20Z</time>
      </trkpt>
      <trkpt lat="23.060461" lon="113.281876">
        <time>2026-05-24T22:10:25Z</time>
      </trkpt>
      <trkpt lat="23.060422" lon="113.281974">
        <time>2026-05-24T22:10:30Z</time>
      </trkpt>
      <trkpt lat="23.060363" lon="113.282121">
        <time>2026-05-24T22:10:35Z</time>
      </trkpt>
      <trkpt lat="23.060322" lon="113.282224">
        <time>2026-05-24T22:10:40Z</time>
      </trkpt>
      <trkpt lat="23.060258" lon="113.282373">
        <time>2026-05-24T22:10:45Z</time>
      </trkpt>
      <trkpt lat="23.060216" lon="113.282462">
        <time>2026-05-24T22:10:50Z</time>
      </trkpt>
      <trkpt lat="23.060157" lon="113.282595">
        <time>2026-05-24T22:10:55Z</time>
      </trkpt>
      <trkpt lat="23.060119" lon="113.282691">
        <time>2026-05-24T22:11:00Z</time>
      </trkpt>
      <trkpt lat="23.060064" lon="113.282826">
        <time>2026-05-24T22:11:05Z</time>
      </trkpt>
      <trkpt lat="23.060022" lon="113.282929">
        <time>2026-05-24T22:11:10Z</time>
      </trkpt>
      <trkpt lat="23.05995" lon="113.283085">
        <time>2026-05-24T22:11:15Z</time>
      </trkpt>
      <trkpt lat="23.059908" lon="113.283183">
        <time>2026-05-24T22:11:20Z</time>
      </trkpt>
      <trkpt lat="23.059845" lon="113.283332">
        <time>2026-05-24T22:11:25Z</time>
      </trkpt>
      <trkpt lat="23.059799" lon="113.283437">
        <time>2026-05-24T22:11:30Z</time>
      </trkpt>
      <trkpt lat="23.059734" lon="113.283589">
        <time>2026-05-24T22:11:35Z</time>
      </trkpt>
      <trkpt lat="23.059694" lon="113.283694">
        <time>2026-05-24T22:11:40Z</time>
      </trkpt>
      <trkpt lat="23.059628" lon="113.283852">
        <time>2026-05-24T22:11:45Z</time>
      </trkpt>
      <trkpt lat="23.059583" lon="113.283951">
        <time>2026-05-24T22:11:50Z</time>
      </trkpt>
      <trkpt lat="23.05952" lon="113.2841">
        <time>2026-05-24T22:11:55Z</time>
      </trkpt>
      <trkpt lat="23.059477" lon="113.284197">
        <time>2026-05-24T22:12:00Z</time>
      </trkpt>
      <trkpt lat="23.059415" lon="113.28435">
        <time>2026-05-24T22:12:05Z</time>
      </trkpt>
      <trkpt lat="23.059376" lon="113.284449">
        <time>2026-05-24T22:12:10Z</time>
      </trkpt>
      <trkpt lat="23.059312" lon="113.2846">
        <time>2026-05-24T22:12:15Z</time>
      </trkpt>
      <trkpt lat="23.05927" lon="113.2847">
        <time>2026-05-24T22:12:20Z</time>
      </trkpt>
      <trkpt lat="23.059207" lon="113.284847">
        <time>2026-05-24T22:12:25Z</time>
      </trkpt>
      <trkpt lat="23.059162" lon="113.284949">
        <time>2026-05-24T22:12:30Z</time>
      </trkpt>
      <trkpt lat="23.059088" lon="113.285107">
        <time>2026-05-24T22:12:35Z</time>
      </trkpt>
      <trkpt lat="23.059036" lon="113.285213">
        <time>2026-05-24T22:12:40Z</time>
      </trkpt>
      <trkpt lat="23.058969" lon="113.285377">
        <time>2026-05-24T22:12:45Z</time>
      </trkpt>
      <trkpt lat="23.058931" lon="113.28548">
        <time>2026-05-24T22:12:50Z</time>
      </trkpt>
      <trkpt lat="23.05886" lon="113.285639">
        <time>2026-05-24T22:12:55Z</time>
      </trkpt>
      <trkpt lat="23.058813" lon="113.285744">
        <time>2026-05-24T22:13:00Z</time>
      </trkpt>
      <trkpt lat="23.058747" lon="113.2859">
        <time>2026-05-24T22:13:05Z</time>
      </trkpt>
      <trkpt lat="23.058706" lon="113.286001">
        <time>2026-05-24T22:13:10Z</time>
      </trkpt>
      <trkpt lat="23.058727" lon="113.286117">
        <time>2026-05-24T22:13:15Z</time>
      </trkpt>
      <trkpt lat="23.0588" lon="113.286063">
        <time>2026-05-24T22:13:20Z</time>
      </trkpt>
      <trkpt lat="23.058863" lon="113.28589">
        <time>2026-05-24T22:13:25Z</time>
      </trkpt>
      <trkpt lat="23.058903" lon="113.285787">
        <time>2026-05-24T22:13:30Z</time>
      </trkpt>
      <trkpt lat="23.058964" lon="113.28564">
        <time>2026-05-24T22:13:35Z</time>
      </trkpt>
      <trkpt lat="23.059011" lon="113.285545">
        <time>2026-05-24T22:13:40Z</time>
      </trkpt>
      <trkpt lat="23.059079" lon="113.285395">
        <time>2026-05-24T22:13:45Z</time>
      </trkpt>
      <trkpt lat="23.059118" lon="113.285299">
        <time>2026-05-24T22:13:50Z</time>
      </trkpt>
      <trkpt lat="23.059201" lon="113.285182">
        <time>2026-05-24T22:13:55Z</time>
      </trkpt>
      <trkpt lat="23.059286" lon="113.285134">
        <time>2026-05-24T22:14:00Z</time>
      </trkpt>
      <trkpt lat="23.059338" lon="113.284994">
        <time>2026-05-24T22:14:05Z</time>
      </trkpt>
      <trkpt lat="23.059327" lon="113.284877">
        <time>2026-05-24T22:14:10Z</time>
      </trkpt>
      <trkpt lat="23.059362" lon="113.284717">
        <time>2026-05-24T22:14:15Z</time>
      </trkpt>
      <trkpt lat="23.059407" lon="113.284616">
        <time>2026-05-24T22:14:20Z</time>
      </trkpt>
      <trkpt lat="23.059478" lon="113.28447">
        <time>2026-05-24T22:14:25Z</time>
      </trkpt>
      <trkpt lat="23.059519" lon="113.284372">
        <time>2026-05-24T22:14:30Z</time>
      </trkpt>
      <trkpt lat="23.059577" lon="113.284224">
        <time>2026-05-24T22:14:35Z</time>
      </trkpt>
      <trkpt lat="23.059625" lon="113.284123">
        <time>2026-05-24T22:14:40Z</time>
      </trkpt>
      <trkpt lat="23.059692" lon="113.283965">
        <time>2026-05-24T22:14:45Z</time>
      </trkpt>
      <trkpt lat="23.059735" lon="113.283857">
        <time>2026-05-24T22:14:50Z</time>
      </trkpt>
      <trkpt lat="23.059808" lon="113.283693">
        <time>2026-05-24T22:14:55Z</time>
      </trkpt>
      <trkpt lat="23.059858" lon="113.283588">
        <time>2026-05-24T22:15:00Z</time>
      </trkpt>
      <trkpt lat="23.059921" lon="113.283434">
        <time>2026-05-24T22:15:05Z</time>
      </trkpt>
      <trkpt lat="23.059965" lon="113.28333">
        <time>2026-05-24T22:15:10Z</time>
      </trkpt>
      <trkpt lat="23.06003" lon="113.283178">
        <time>2026-05-24T22:15:15Z</time>
      </trkpt>
      <trkpt lat="23.060075" lon="113.28308">
        <time>2026-05-24T22:15:20Z</time>
      </trkpt>
      <trkpt lat="23.060142" lon="113.282935">
        <time>2026-05-24T22:15:25Z</time>
      </trkpt>
      <trkpt lat="23.060191" lon="113.282839">
        <time>2026-05-24T22:15:30Z</time>
      </trkpt>
      <trkpt lat="23.06026" lon="113.282695">
        <time>2026-05-24T22:15:35Z</time>
      </trkpt>
      <trkpt lat="23.060306" lon="113.282594">
        <time>2026-05-24T22:15:40Z</time>
      </trkpt>
      <trkpt lat="23.060366" lon="113.282439">
        <time>2026-05-24T22:15:45Z</time>
      </trkpt>
      <trkpt lat="23.060406" lon="113.282335">
        <time>2026-05-24T22:15:50Z</time>
      </trkpt>
      <trkpt lat="23.060469" lon="113.282185">
        <time>2026-05-24T22:15:55Z</time>
      </trkpt>
      <trkpt lat="23.06051" lon="113.282092">
        <time>2026-05-24T22:16:00Z</time>
      </trkpt>
      <trkpt lat="23.060568" lon="113.281951">
        <time>2026-05-24T22:16:05Z</time>
      </trkpt>
      <trkpt lat="23.060606" lon="113.28185">
        <time>2026-05-24T22:16:10Z</time>
      </trkpt>
      <trkpt lat="23.060668" lon="113.281702">
        <time>2026-05-24T22:16:15Z</time>
      </trkpt>
      <trkpt lat="23.060713" lon="113.281604">
        <time>2026-05-24T22:16:20Z</time>
      </trkpt>
      <trkpt lat="23.06078" lon="113.28145">
        <time>2026-05-24T22:16:25Z</time>
      </trkpt>
      <trkpt lat="23.060826" lon="113.281342">
        <time>2026-05-24T22:16:30Z</time>
      </trkpt>
      <trkpt lat="23.060896" lon="113.281183">
        <time>2026-05-24T22:16:35Z</time>
      </trkpt>
      <trkpt lat="23.060942" lon="113.281079">
        <time>2026-05-24T22:16:40Z</time>
      </trkpt>
      <trkpt lat="23.061004" lon="113.280924">
        <time>2026-05-24T22:16:45Z</time>
      </trkpt>
      <trkpt lat="23.061045" lon="113.280824">
        <time>2026-05-24T22:16:50Z</time>
      </trkpt>
      <trkpt lat="23.061118" lon="113.28066">
        <time>2026-05-24T22:16:55Z</time>
      </trkpt>
      <trkpt lat="23.061174" lon="113.280552">
        <time>2026-05-24T22:17:00Z</time>
      </trkpt>
      <trkpt lat="23.061251" lon="113.280388">
        <time>2026-05-24T22:17:05Z</time>
      </trkpt>
      <trkpt lat="23.061292" lon="113.280279">
        <time>2026-05-24T22:17:10Z</time>
      </trkpt>
      <trkpt lat="23.061365" lon="113.280127">
        <time>2026-05-24T22:17:15Z</time>
      </trkpt>
      <trkpt lat="23.061408" lon="113.280022">
        <time>2026-05-24T22:17:20Z</time>
      </trkpt>
      <trkpt lat="23.061465" lon="113.279872">
        <time>2026-05-24T22:17:25Z</time>
      </trkpt>
      <trkpt lat="23.061504" lon="113.279773">
        <time>2026-05-24T22:17:30Z</time>
      </trkpt>
      <trkpt lat="23.061558" lon="113.279622">
        <time>2026-05-24T22:17:35Z</time>
      </trkpt>
      <trkpt lat="23.061593" lon="113.279522">
        <time>2026-05-24T22:17:40Z</time>
      </trkpt>
      <trkpt lat="23.061653" lon="113.279365">
        <time>2026-05-24T22:17:45Z</time>
      </trkpt>
      <trkpt lat="23.061694" lon="113.279258">
        <time>2026-05-24T22:17:50Z</time>
      </trkpt>
      <trkpt lat="23.061763" lon="113.279102">
        <time>2026-05-24T22:17:55Z</time>
      </trkpt>
      <trkpt lat="23.061823" lon="113.279013">
        <time>2026-05-24T22:18:00Z</time>
      </trkpt>
      <trkpt lat="23.061915" lon="113.27888">
        <time>2026-05-24T22:18:05Z</time>
      </trkpt>
      <trkpt lat="23.06196" lon="113.278775">
        <time>2026-05-24T22:18:10Z</time>
      </trkpt>
      <trkpt lat="23.061978" lon="113.2786">
        <time>2026-05-24T22:18:15Z</time>
      </trkpt>
      <trkpt lat="23.061975" lon="113.27848">
        <time>2026-05-24T22:18:20Z</time>
      </trkpt>
      <trkpt lat="23.061967" lon="113.278303">
        <time>2026-05-24T22:18:25Z</time>
      </trkpt>
      <trkpt lat="23.061962" lon="113.278188">
        <time>2026-05-24T22:18:30Z</time>
      </trkpt>
      <trkpt lat="23.061953" lon="113.278012">
        <time>2026-05-24T22:18:35Z</time>
      </trkpt>
      <trkpt lat="23.061948" lon="113.277896">
        <time>2026-05-24T22:18:40Z</time>
      </trkpt>
      <trkpt lat="23.061964" lon="113.277721">
        <time>2026-05-24T22:18:45Z</time>
      </trkpt>
      <trkpt lat="23.061997" lon="113.277608">
        <time>2026-05-24T22:18:50Z</time>
      </trkpt>
      <trkpt lat="23.062066" lon="113.27744">
        <time>2026-05-24T22:18:55Z</time>
      </trkpt>
      <trkpt lat="23.062109" lon="113.27733">
        <time>2026-05-24T22:19:00Z</time>
      </trkpt>
      <trkpt lat="23.06217" lon="113.277163">
        <time>2026-05-24T22:19:05Z</time>
      </trkpt>
      <trkpt lat="23.062207" lon="113.277054">
        <time>2026-05-24T22:19:10Z</time>
      </trkpt>
      <trkpt lat="23.062268" lon="113.276895">
        <time>2026-05-24T22:19:15Z</time>
      </trkpt>
      <trkpt lat="23.062312" lon="113.276789">
        <time>2026-05-24T22:19:20Z</time>
      </trkpt>
      <trkpt lat="23.062372" lon="113.276628">
        <time>2026-05-24T22:19:25Z</time>
      </trkpt>
      <trkpt lat="23.062409" lon="113.276524">
        <time>2026-05-24T22:19:30Z</time>
      </trkpt>
      <trkpt lat="23.062461" lon="113.276365">
        <time>2026-05-24T22:19:35Z</time>
      </trkpt>
      <trkpt lat="23.0625" lon="113.27626">
        <time>2026-05-24T22:19:40Z</time>
      </trkpt>
      <trkpt lat="23.062571" lon="113.276109">
        <time>2026-05-24T22:19:45Z</time>
      </trkpt>
      <trkpt lat="23.062625" lon="113.276015">
        <time>2026-05-24T22:19:50Z</time>
      </trkpt>
      <trkpt lat="23.062725" lon="113.27588">
        <time>2026-05-24T22:19:55Z</time>
      </trkpt>
      <trkpt lat="23.062808" lon="113.275799">
        <time>2026-05-24T22:20:00Z</time>
      </trkpt>
      <trkpt lat="23.062935" lon="113.275674">
        <time>2026-05-24T22:20:05Z</time>
      </trkpt>
      <trkpt lat="23.063009" lon="113.275589">
        <time>2026-05-24T22:20:10Z</time>
      </trkpt>
      <trkpt lat="23.063098" lon="113.27546">
        <time>2026-05-24T22:20:15Z</time>
      </trkpt>
      <trkpt lat="23.063142" lon="113.275369">
        <time>2026-05-24T22:20:20Z</time>
      </trkpt>
      <trkpt lat="23.063229" lon="113.275222">
        <time>2026-05-24T22:20:25Z</time>
      </trkpt>
      <trkpt lat="23.063288" lon="113.275122">
        <time>2026-05-24T22:20:30Z</time>
      </trkpt>
      <trkpt lat="23.063364" lon="113.27497">
        <time>2026-05-24T22:20:35Z</time>
      </trkpt>
      <trkpt lat="23.063402" lon="113.274866">
        <time>2026-05-24T22:20:40Z</time>
      </trkpt>
      <trkpt lat="23.063447" lon="113.274712">
        <time>2026-05-24T22:20:45Z</time>
      </trkpt>
      <trkpt lat="23.063474" lon="113.274615">
        <time>2026-05-24T22:20:50Z</time>
      </trkpt>
      <trkpt lat="23.063524" lon="113.274465">
        <time>2026-05-24T22:20:55Z</time>
      </trkpt>
      <trkpt lat="23.063571" lon="113.274369">
        <time>2026-05-24T22:21:00Z</time>
      </trkpt>
      <trkpt lat="23.063675" lon="113.27425">
        <time>2026-05-24T22:21:05Z</time>
      </trkpt>
      <trkpt lat="23.063756" lon="113.274171">
        <time>2026-05-24T22:21:10Z</time>
      </trkpt>
      <trkpt lat="23.06386" lon="113.27403">
        <time>2026-05-24T22:21:15Z</time>
      </trkpt>
      <trkpt lat="23.063908" lon="113.273931">
        <time>2026-05-24T22:21:20Z</time>
      </trkpt>
      <trkpt lat="23.063997" lon="113.273783">
        <time>2026-05-24T22:21:25Z</time>
      </trkpt>
      <trkpt lat="23.064072" lon="113.273696">
        <time>2026-05-24T22:21:30Z</time>
      </trkpt>
      <trkpt lat="23.064203" lon="113.273593">
        <time>2026-05-24T22:21:35Z</time>
      </trkpt>
      <trkpt lat="23.064289" lon="113.273529">
        <time>2026-05-24T22:21:40Z</time>
      </trkpt>
      <trkpt lat="23.064419" lon="113.273439">
        <time>2026-05-24T22:21:45Z</time>
      </trkpt>
      <trkpt lat="23.064499" lon="113.273366">
        <time>2026-05-24T22:21:50Z</time>
      </trkpt>
      <trkpt lat="23.064585" lon="113.273197">
        <time>2026-05-24T22:21:55Z</time>
      </trkpt>
      <trkpt lat="23.064588" lon="113.273071">
        <time>2026-05-24T22:22:00Z</time>
      </trkpt>
      <trkpt lat="23.064533" lon="113.272899">
        <time>2026-05-24T22:22:05Z</time>
      </trkpt>
      <trkpt lat="23.06449" lon="113.272786">
        <time>2026-05-24T22:22:10Z</time>
      </trkpt>
      <trkpt lat="23.064452" lon="113.272609">
        <time>2026-05-24T22:22:15Z</time>
      </trkpt>
      <trkpt lat="23.06448" lon="113.272497">
        <time>2026-05-24T22:22:20Z</time>
      </trkpt>
      <trkpt lat="23.064534" lon="113.272332">
        <time>2026-05-24T22:22:25Z</time>
      </trkpt>
      <trkpt lat="23.064548" lon="113.272216">
        <time>2026-05-24T22:22:30Z</time>
      </trkpt>
      <trkpt lat="23.06462" lon="113.272057">
        <time>2026-05-24T22:22:35Z</time>
      </trkpt>
      <trkpt lat="23.064672" lon="113.271952">
        <time>2026-05-24T22:22:40Z</time>
      </trkpt>
      <trkpt lat="23.064749" lon="113.271794">
        <time>2026-05-24T22:22:45Z</time>
      </trkpt>
      <trkpt lat="23.0648" lon="113.27169">
        <time>2026-05-24T22:22:50Z</time>
      </trkpt>
      <trkpt lat="23.064873" lon="113.271532">
        <time>2026-05-24T22:22:55Z</time>
      </trkpt>
      <trkpt lat="23.064926" lon="113.271425">
        <time>2026-05-24T22:23:00Z</time>
      </trkpt>
      <trkpt lat="23.065001" lon="113.271266">
        <time>2026-05-24T22:23:05Z</time>
      </trkpt>
      <trkpt lat="23.065051" lon="113.271157">
        <time>2026-05-24T22:23:10Z</time>
      </trkpt>
      <trkpt lat="23.065126" lon="113.271">
        <time>2026-05-24T22:23:15Z</time>
      </trkpt>
      <trkpt lat="23.065178" lon="113.270896">
        <time>2026-05-24T22:23:20Z</time>
      </trkpt>
      <trkpt lat="23.065249" lon="113.270741">
        <time>2026-05-24T22:23:25Z</time>
      </trkpt>
      <trkpt lat="23.065304" lon="113.270642">
        <time>2026-05-24T22:23:30Z</time>
      </trkpt>
      <trkpt lat="23.065376" lon="113.27049">
        <time>2026-05-24T22:23:35Z</time>
      </trkpt>
      <trkpt lat="23.065418" lon="113.270391">
        <time>2026-05-24T22:23:40Z</time>
      </trkpt>
      <trkpt lat="23.065484" lon="113.270238">
        <time>2026-05-24T22:23:45Z</time>
      </trkpt>
      <trkpt lat="23.065524" lon="113.270128">
        <time>2026-05-24T22:23:50Z</time>
      </trkpt>
      <trkpt lat="23.065576" lon="113.269968">
        <time>2026-05-24T22:23:55Z</time>
      </trkpt>
      <trkpt lat="23.065607" lon="113.26986">
        <time>2026-05-24T22:24:00Z</time>
      </trkpt>
      <trkpt lat="23.065669" lon="113.269699">
        <time>2026-05-24T22:24:05Z</time>
      </trkpt>
      <trkpt lat="23.065709" lon="113.269591">
        <time>2026-05-24T22:24:10Z</time>
      </trkpt>
      <trkpt lat="23.065738" lon="113.269424">
        <time>2026-05-24T22:24:15Z</time>
      </trkpt>
      <trkpt lat="23.065749" lon="113.269315">
        <time>2026-05-24T22:24:20Z</time>
      </trkpt>
      <trkpt lat="23.065795" lon="113.269149">
        <time>2026-05-24T22:24:25Z</time>
      </trkpt>
      <trkpt lat="23.065832" lon="113.269039">
        <time>2026-05-24T22:24:30Z</time>
      </trkpt>
      <trkpt lat="23.065901" lon="113.268877">
        <time>2026-05-24T22:24:35Z</time>
      </trkpt>
      <trkpt lat="23.065953" lon="113.268771">
        <time>2026-05-24T22:24:40Z</time>
      </trkpt>
      <trkpt lat="23.066035" lon="113.268617">
        <time>2026-05-24T22:24:45Z</time>
      </trkpt>
      <trkpt lat="23.066095" lon="113.268524">
        <time>2026-05-24T22:24:50Z</time>
      </trkpt>
      <trkpt lat="23.066191" lon="113.268391">
        <time>2026-05-24T22:24:55Z</time>
      </trkpt>
      <trkpt lat="23.066254" lon="113.268304">
        <time>2026-05-24T22:25:00Z</time>
      </trkpt>
      <trkpt lat="23.066364" lon="113.268179">
        <time>2026-05-24T22:25:05Z</time>
      </trkpt>
      <trkpt lat="23.066466" lon="113.26813">
        <time>2026-05-24T22:25:10Z</time>
      </trkpt>
      <trkpt lat="23.066627" lon="113.268128">
        <time>2026-05-24T22:25:15Z</time>
      </trkpt>
      <trkpt lat="23.066722" lon="113.268144">
        <time>2026-05-24T22:25:20Z</time>
      </trkpt>
      <trkpt lat="23.066765" lon="113.268081">
        <time>2026-05-24T22:25:25Z</time>
      </trkpt>
      <trkpt lat="23.066665" lon="113.268019">
        <time>2026-05-24T22:25:30Z</time>
      </trkpt>
      <trkpt lat="23.066496" lon="113.267963">
        <time>2026-05-24T22:25:35Z</time>
      </trkpt>
      <trkpt lat="23.066387" lon="113.26795">
        <time>2026-05-24T22:25:40Z</time>
      </trkpt>
      <trkpt lat="23.066228" lon="113.268004">
        <time>2026-05-24T22:25:45Z</time>
      </trkpt>
      <trkpt lat="23.066142" lon="113.268074">
        <time>2026-05-24T22:25:50Z</time>
      </trkpt>
      <trkpt lat="23.066027" lon="113.268201">
        <time>2026-05-24T22:25:55Z</time>
      </trkpt>
      <trkpt lat="23.065954" lon="113.268287">
        <time>2026-05-24T22:26:00Z</time>
      </trkpt>
      <trkpt lat="23.065853" lon="113.268422">
        <time>2026-05-24T22:26:05Z</time>
      </trkpt>
      <trkpt lat="23.065799" lon="113.268521">
        <time>2026-05-24T22:26:10Z</time>
      </trkpt>
      <trkpt lat="23.06573" lon="113.268673">
        <time>2026-05-24T22:26:15Z</time>
      </trkpt>
      <trkpt lat="23.065685" lon="113.268782">
        <time>2026-05-24T22:26:20Z</time>
      </trkpt>
      <trkpt lat="23.065626" lon="113.268947">
        <time>2026-05-24T22:26:25Z</time>
      </trkpt>
      <trkpt lat="23.065591" lon="113.269058">
        <time>2026-05-24T22:26:30Z</time>
      </trkpt>
      <trkpt lat="23.065546" lon="113.269232">
        <time>2026-05-24T22:26:35Z</time>
      </trkpt>
      <trkpt lat="23.065513" lon="113.269348">
        <time>2026-05-24T22:26:40Z</time>
      </trkpt>
      <trkpt lat="23.06548" lon="113.269519">
        <time>2026-05-24T22:26:45Z</time>
      </trkpt>
      <trkpt lat="23.065458" lon="113.269631">
        <time>2026-05-24T22:26:50Z</time>
      </trkpt>
      <trkpt lat="23.065413" lon="113.269802">
        <time>2026-05-24T22:26:55Z</time>
      </trkpt>
      <trkpt lat="23.065376" lon="113.269918">
        <time>2026-05-24T22:27:00Z</time>
      </trkpt>
      <trkpt lat="23.065313" lon="113.270091">
        <time>2026-05-24T22:27:05Z</time>
      </trkpt>
      <trkpt lat="23.065267" lon="113.270203">
        <time>2026-05-24T22:27:10Z</time>
      </trkpt>
      <trkpt lat="23.065185" lon="113.270364">
        <time>2026-05-24T22:27:15Z</time>
      </trkpt>
      <trkpt lat="23.065131" lon="113.270471">
        <time>2026-05-24T22:27:20Z</time>
      </trkpt>
      <trkpt lat="23.065062" lon="113.270635">
        <time>2026-05-24T22:27:25Z</time>
      </trkpt>
      <trkpt lat="23.065014" lon="113.270742">
        <time>2026-05-24T22:27:30Z</time>
      </trkpt>
      <trkpt lat="23.064945" lon="113.270902">
        <time>2026-05-24T22:27:35Z</time>
      </trkpt>
      <trkpt lat="23.064901" lon="113.271009">
        <time>2026-05-24T22:27:40Z</time>
      </trkpt>
      <trkpt lat="23.064823" lon="113.271166">
        <time>2026-05-24T22:27:45Z</time>
      </trkpt>
      <trkpt lat="23.064772" lon="113.271274">
        <time>2026-05-24T22:27:50Z</time>
      </trkpt>
      <trkpt lat="23.064703" lon="113.271429">
        <time>2026-05-24T22:27:55Z</time>
      </trkpt>
      <trkpt lat="23.064658" lon="113.271528">
        <time>2026-05-24T22:28:00Z</time>
      </trkpt>
      <trkpt lat="23.064581" lon="113.271676">
        <time>2026-05-24T22:28:05Z</time>
      </trkpt>
      <trkpt lat="23.064533" lon="113.271779">
        <time>2026-05-24T22:28:10Z</time>
      </trkpt>
      <trkpt lat="23.064457" lon="113.271938">
        <time>2026-05-24T22:28:15Z</time>
      </trkpt>
      <trkpt lat="23.064411" lon="113.272041">
        <time>2026-05-24T22:28:20Z</time>
      </trkpt>
      <trkpt lat="23.064368" lon="113.272192">
        <time>2026-05-24T22:28:25Z</time>
      </trkpt>
      <trkpt lat="23.064351" lon="113.2723">
        <time>2026-05-24T22:28:30Z</time>
      </trkpt>
      <trkpt lat="23.06433" lon="113.272466">
        <time>2026-05-24T22:28:35Z</time>
      </trkpt>
      <trkpt lat="23.064324" lon="113.272583">
        <time>2026-05-24T22:28:40Z</time>
      </trkpt>
      <trkpt lat="23.064353" lon="113.272755">
        <time>2026-05-24T22:28:45Z</time>
      </trkpt>
      <trkpt lat="23.06439" lon="113.272862">
        <time>2026-05-24T22:28:50Z</time>
      </trkpt>
      <trkpt lat="23.064442" lon="113.273024">
        <time>2026-05-24T22:28:55Z</time>
      </trkpt>
      <trkpt lat="23.064461" lon="113.273135">
        <time>2026-05-24T22:29:00Z</time>
      </trkpt>
      <trkpt lat="23.064418" lon="113.273295">
        <time>2026-05-24T22:29:05Z</time>
      </trkpt>
      <trkpt lat="23.064343" lon="113.273371">
        <time>2026-05-24T22:29:10Z</time>
      </trkpt>
      <trkpt lat="23.064214" lon="113.273456">
        <time>2026-05-24T22:29:15Z</time>
      </trkpt>
      <trkpt lat="23.064129" lon="113.273514">
        <time>2026-05-24T22:29:20Z</time>
      </trkpt>
      <trkpt lat="23.064003" lon="113.273615">
        <time>2026-05-24T22:29:25Z</time>
      </trkpt>
      <trkpt lat="23.06393" lon="113.273697">
        <time>2026-05-24T22:29:30Z</time>
      </trkpt>
      <trkpt lat="23.063837" lon="113.27383">
        <time>2026-05-24T22:29:35Z</time>
      </trkpt>
      <trkpt lat="23.06378" lon="113.273926">
        <time>2026-05-24T22:29:40Z</time>
      </trkpt>
      <trkpt lat="23.063691" lon="113.274068">
        <time>2026-05-24T22:29:45Z</time>
      </trkpt>
      <trkpt lat="23.063613" lon="113.274133">
        <time>2026-05-24T22:29:50Z</time>
      </trkpt>
      <trkpt lat="23.063512" lon="113.274248">
        <time>2026-05-24T22:29:55Z</time>
      </trkpt>
      <trkpt lat="23.063464" lon="113.274354">
        <time>2026-05-24T22:30:00Z</time>
      </trkpt>
      <trkpt lat="23.063412" lon="113.274524">
        <time>2026-05-24T22:30:05Z</time>
      </trkpt>
      <trkpt lat="23.063378" lon="113.274634">
        <time>2026-05-24T22:30:10Z</time>
      </trkpt>
      <trkpt lat="23.063321" lon="113.274788">
        <time>2026-05-24T22:30:15Z</time>
      </trkpt>
      <trkpt lat="23.063283" lon="113.274887">
        <time>2026-05-24T22:30:20Z</time>
      </trkpt>
      <trkpt lat="23.063232" lon="113.275034">
        <time>2026-05-24T22:30:25Z</time>
      </trkpt>
      <trkpt lat="23.06318" lon="113.275132">
        <time>2026-05-24T22:30:30Z</time>
      </trkpt>
      <trkpt lat="23.063091" lon="113.275278">
        <time>2026-05-24T22:30:35Z</time>
      </trkpt>
      <trkpt lat="23.063027" lon="113.275373">
        <time>2026-05-24T22:30:40Z</time>
      </trkpt>
      <trkpt lat="23.062939" lon="113.275507">
        <time>2026-05-24T22:30:45Z</time>
      </trkpt>
      <trkpt lat="23.062872" lon="113.275593">
        <time>2026-05-24T22:30:50Z</time>
      </trkpt>
      <trkpt lat="23.062762" lon="113.275714">
        <time>2026-05-24T22:30:55Z</time>
      </trkpt>
      <trkpt lat="23.062685" lon="113.275794">
        <time>2026-05-24T22:31:00Z</time>
      </trkpt>
      <trkpt lat="23.062583" lon="113.275922">
        <time>2026-05-24T22:31:05Z</time>
      </trkpt>
      <trkpt lat="23.062522" lon="113.276015">
        <time>2026-05-24T22:31:10Z</time>
      </trkpt>
      <trkpt lat="23.062445" lon="113.27616">
        <time>2026-05-24T22:31:15Z</time>
      </trkpt>
      <trkpt lat="23.062402" lon="113.276261">
        <time>2026-05-24T22:31:20Z</time>
      </trkpt>
      <trkpt lat="23.062344" lon="113.276413">
        <time>2026-05-24T22:31:25Z</time>
      </trkpt>
      <trkpt lat="23.062305" lon="113.276516">
        <time>2026-05-24T22:31:30Z</time>
      </trkpt>
      <trkpt lat="23.062248" lon="113.276667">
        <time>2026-05-24T22:31:35Z</time>
      </trkpt>
      <trkpt lat="23.06221" lon="113.276765">
        <time>2026-05-24T22:31:40Z</time>
      </trkpt>
      <trkpt lat="23.06216" lon="113.276918">
        <time>2026-05-24T22:31:45Z</time>
      </trkpt>
      <trkpt lat="23.062127" lon="113.277012">
        <time>2026-05-24T22:31:50Z</time>
      </trkpt>
      <trkpt lat="23.062071" lon="113.277166">
        <time>2026-05-24T22:31:55Z</time>
      </trkpt>
      <trkpt lat="23.062033" lon="113.277272">
        <time>2026-05-24T22:32:00Z</time>
      </trkpt>
      <trkpt lat="23.061974" lon="113.277426">
        <time>2026-05-24T22:32:05Z</time>
      </trkpt>
      <trkpt lat="23.061938" lon="113.277523">
        <time>2026-05-24T22:32:10Z</time>
      </trkpt>
      <trkpt lat="23.061887" lon="113.277669">
        <time>2026-05-24T22:32:15Z</time>
      </trkpt>
      <trkpt lat="23.061864" lon="113.277775">
        <time>2026-05-24T22:32:20Z</time>
      </trkpt>
      <trkpt lat="23.061853" lon="113.277934">
        <time>2026-05-24T22:32:25Z</time>
      </trkpt>
      <trkpt lat="23.061857" lon="113.278036">
        <time>2026-05-24T22:32:30Z</time>
      </trkpt>
      <trkpt lat="23.061861" lon="113.278188">
        <time>2026-05-24T22:32:35Z</time>
      </trkpt>
      <trkpt lat="23.061864" lon="113.278292">
        <time>2026-05-24T22:32:40Z</time>
      </trkpt>
      <trkpt lat="23.061871" lon="113.278445">
        <time>2026-05-24T22:32:45Z</time>
      </trkpt>
      <trkpt lat="23.061874" lon="113.278549">
        <time>2026-05-24T22:32:50Z</time>
      </trkpt>
      <trkpt lat="23.061858" lon="113.278707">
        <time>2026-05-24T22:32:55Z</time>
      </trkpt>
      <trkpt lat="23.06182" lon="113.278802">
        <time>2026-05-24T22:33:00Z</time>
      </trkpt>
      <trkpt lat="23.061748" lon="113.278938">
        <time>2026-05-24T22:33:05Z</time>
      </trkpt>
      <trkpt lat="23.061696" lon="113.279023">
        <time>2026-05-24T22:33:10Z</time>
      </trkpt>
      <trkpt lat="23.061625" lon="113.279153">
        <time>2026-05-24T22:33:15Z</time>
      </trkpt>
      <trkpt lat="23.061586" lon="113.279249">
        <time>2026-05-24T22:33:20Z</time>
      </trkpt>
      <trkpt lat="23.061527" lon="113.279394">
        <time>2026-05-24T22:33:25Z</time>
      </trkpt>
      <trkpt lat="23.061487" lon="113.279493">
        <time>2026-05-24T22:33:30Z</time>
      </trkpt>
      <trkpt lat="23.061432" lon="113.279641">
        <time>2026-05-24T22:33:35Z</time>
      </trkpt>
      <trkpt lat="23.061394" lon="113.279741">
        <time>2026-05-24T22:33:40Z</time>
      </trkpt>
      <trkpt lat="23.061329" lon="113.27989">
        <time>2026-05-24T22:33:45Z</time>
      </trkpt>
      <trkpt lat="23.061285" lon="113.279993">
        <time>2026-05-24T22:33:50Z</time>
      </trkpt>
      <trkpt lat="23.061214" lon="113.280151">
        <time>2026-05-24T22:33:55Z</time>
      </trkpt>
      <trkpt lat="23.061169" lon="113.280252">
        <time>2026-05-24T22:34:00Z</time>
      </trkpt>
      <trkpt lat="23.06108" lon="113.280384">
        <time>2026-05-24T22:34:05Z</time>
      </trkpt>
      <trkpt lat="23.061026" lon="113.280482">
        <time>2026-05-24T22:34:10Z</time>
      </trkpt>
      <trkpt lat="23.060955" lon="113.280632">
        <time>2026-05-24T22:34:15Z</time>
      </trkpt>
      <trkpt lat="23.060906" lon="113.280734">
        <time>2026-05-24T22:34:20Z</time>
      </trkpt>
      <trkpt lat="23.060839" lon="113.280884">
        <time>2026-05-24T22:34:25Z</time>
      </trkpt>
      <trkpt lat="23.0608" lon="113.280985">
        <time>2026-05-24T22:34:30Z</time>
      </trkpt>
      <trkpt lat="23.060736" lon="113.281139">
        <time>2026-05-24T22:34:35Z</time>
      </trkpt>
      <trkpt lat="23.060695" lon="113.281237">
        <time>2026-05-24T22:34:40Z</time>
      </trkpt>
      <trkpt lat="23.060634" lon="113.28138">
        <time>2026-05-24T22:34:45Z</time>
      </trkpt>
      <trkpt lat="23.060597" lon="113.281476">
        <time>2026-05-24T22:34:50Z</time>
      </trkpt>
      <trkpt lat="23.060539" lon="113.281619">
        <time>2026-05-24T22:34:55Z</time>
      </trkpt>
      <trkpt lat="23.060496" lon="113.281715">
        <time>2026-05-24T22:35:00Z</time>
      </trkpt>
      <trkpt lat="23.060432" lon="113.281859">
        <time>2026-05-24T22:35:05Z</time>
      </trkpt>
      <trkpt lat="23.060388" lon="113.281954">
        <time>2026-05-24T22:35:10Z</time>
      </trkpt>
      <trkpt lat="23.060325" lon="113.28209">
        <time>2026-05-24T22:35:15Z</time>
      </trkpt>
      <trkpt lat="23.060284" lon="113.282183">
        <time>2026-05-24T22:35:20Z</time>
      </trkpt>
      <trkpt lat="23.060237" lon="113.282333">
        <time>2026-05-24T22:35:25Z</time>
      </trkpt>
      <trkpt lat="23.0602" lon="113.28243">
        <time>2026-05-24T22:35:30Z</time>
      </trkpt>
      <trkpt lat="23.060139" lon="113.282574">
        <time>2026-05-24T22:35:35Z</time>
      </trkpt>
      <trkpt lat="23.060094" lon="113.282672">
        <time>2026-05-24T22:35:40Z</time>
      </trkpt>
      <trkpt lat="23.060029" lon="113.282816">
        <time>2026-05-24T22:35:45Z</time>
      </trkpt>
      <trkpt lat="23.059988" lon="113.282914">
        <time>2026-05-24T22:35:50Z</time>
      </trkpt>
      <trkpt lat="23.059924" lon="113.283061">
        <time>2026-05-24T22:35:55Z</time>
      </trkpt>
      <trkpt lat="23.059879" lon="113.283155">
        <time>2026-05-24T22:36:00Z</time>
      </trkpt>
      <trkpt lat="23.059819" lon="113.283303">
        <time>2026-05-24T22:36:05Z</time>
      </trkpt>
      <trkpt lat="23.059854" lon="113.283374">
        <time>2026-05-24T22:36:10Z</time>
      </trkpt>
      <trkpt lat="23.059966" lon="113.283295">
        <time>2026-05-24T22:36:15Z</time>
      </trkpt>
      <trkpt lat="23.060023" lon="113.283194">
        <time>2026-05-24T22:36:20Z</time>
      </trkpt>
      <trkpt lat="23.060096" lon="113.283037">
        <time>2026-05-24T22:36:25Z</time>
      </trkpt>
      <trkpt lat="23.060147" lon="113.282931">
        <time>2026-05-24T22:36:30Z</time>
      </trkpt>
      <trkpt lat="23.060217" lon="113.282779">
        <time>2026-05-24T22:36:35Z</time>
      </trkpt>
      <trkpt lat="23.060262" lon="113.282674">
        <time>2026-05-24T22:36:40Z</time>
      </trkpt>
      <trkpt lat="23.060327" lon="113.282515">
        <time>2026-05-24T22:36:45Z</time>
      </trkpt>
      <trkpt lat="23.060371" lon="113.282414">
        <time>2026-05-24T22:36:50Z</time>
      </trkpt>
      <trkpt lat="23.060427" lon="113.282263">
        <time>2026-05-24T22:36:55Z</time>
      </trkpt>
      <trkpt lat="23.060462" lon="113.282158">
        <time>2026-05-24T22:37:00Z</time>
      </trkpt>
      <trkpt lat="23.060523" lon="113.282005">
        <time>2026-05-24T22:37:05Z</time>
      </trkpt>
      <trkpt lat="23.060567" lon="113.281912">
        <time>2026-05-24T22:37:10Z</time>
      </trkpt>
      <trkpt lat="23.060627" lon="113.281772">
        <time>2026-05-24T22:37:15Z</time>
      </trkpt>
      <trkpt lat="23.060665" lon="113.281677">
        <time>2026-05-24T22:37:20Z</time>
      </trkpt>
      <trkpt lat="23.060723" lon="113.281539">
        <time>2026-05-24T22:37:25Z</time>
      </trkpt>
      <trkpt lat="23.060763" lon="113.281444">
        <time>2026-05-24T22:37:30Z</time>
      </trkpt>
      <trkpt lat="23.060831" lon="113.281284">
        <time>2026-05-24T22:37:35Z</time>
      </trkpt>
      <trkpt lat="23.060876" lon="113.281183">
        <time>2026-05-24T22:37:40Z</time>
      </trkpt>
      <trkpt lat="23.060938" lon="113.281037">
        <time>2026-05-24T22:37:45Z</time>
      </trkpt>
      <trkpt lat="23.06098" lon="113.280937">
        <time>2026-05-24T22:37:50Z</time>
      </trkpt>
      <trkpt lat="23.061044" lon="113.280786">
        <time>2026-05-24T22:37:55Z</time>
      </trkpt>
      <trkpt lat="23.061093" lon="113.28068">
        <time>2026-05-24T22:38:00Z</time>
      </trkpt>
      <trkpt lat="23.061173" lon="113.28053">
        <time>2026-05-24T22:38:05Z</time>
      </trkpt>
      <trkpt lat="23.061214" lon="113.280429">
        <time>2026-05-24T22:38:10Z</time>
      </trkpt>
      <trkpt lat="23.061267" lon="113.280278">
        <time>2026-05-24T22:38:15Z</time>
      </trkpt>
      <trkpt lat="23.061314" lon="113.280183">
        <time>2026-05-24T22:38:20Z</time>
      </trkpt>
      <trkpt lat="23.061375" lon="113.280039">
        <time>2026-05-24T22:38:25Z</time>
      </trkpt>
      <trkpt lat="23.061411" lon="113.279937">
        <time>2026-05-24T22:38:30Z</time>
      </trkpt>
      <trkpt lat="23.061465" lon="113.279787">
        <time>2026-05-24T22:38:35Z</time>
      </trkpt>
      <trkpt lat="23.061501" lon="113.279685">
        <time>2026-05-24T22:38:40Z</time>
      </trkpt>
      <trkpt lat="23.061559" lon="113.279541">
        <time>2026-05-24T22:38:45Z</time>
      </trkpt>
      <trkpt lat="23.061597" lon="113.279448">
        <time>2026-05-24T22:38:50Z</time>
      </trkpt>
      <trkpt lat="23.061665" lon="113.279303">
        <time>2026-05-24T22:38:55Z</time>
      </trkpt>
      <trkpt lat="23.06171" lon="113.279201">
        <time>2026-05-24T22:39:00Z</time>
      </trkpt>
      <trkpt lat="23.061794" lon="113.279061">
        <time>2026-05-24T22:39:05Z</time>
      </trkpt>
      <trkpt lat="23.061859" lon="113.278976">
        <time>2026-05-24T22:39:10Z</time>
      </trkpt>
      <trkpt lat="23.061945" lon="113.278833">
        <time>2026-05-24T22:39:15Z</time>
      </trkpt>
      <trkpt lat="23.061976" lon="113.278722">
        <time>2026-05-24T22:39:20Z</time>
      </trkpt>
      <trkpt lat="23.061978" lon="113.278546">
        <time>2026-05-24T22:39:25Z</time>
      </trkpt>
      <trkpt lat="23.061975" lon="113.27843">
        <time>2026-05-24T22:39:30Z</time>
      </trkpt>
      <trkpt lat="23.06197" lon="113.27826">
        <time>2026-05-24T22:39:35Z</time>
      </trkpt>
      <trkpt lat="23.061962" lon="113.278147">
        <time>2026-05-24T22:39:40Z</time>
      </trkpt>
      <trkpt lat="23.061951" lon="113.277978">
        <time>2026-05-24T22:39:45Z</time>
      </trkpt>
      <trkpt lat="23.061945" lon="113.277866">
        <time>2026-05-24T22:39:50Z</time>
      </trkpt>
      <trkpt lat="23.061963" lon="113.277699">
        <time>2026-05-24T22:39:55Z</time>
      </trkpt>
      <trkpt lat="23.061999" lon="113.277591">
        <time>2026-05-24T22:40:00Z</time>
      </trkpt>
      <trkpt lat="23.062057" lon="113.277441">
        <time>2026-05-24T22:40:05Z</time>
      </trkpt>
      <trkpt lat="23.062091" lon="113.27734">
        <time>2026-05-24T22:40:10Z</time>
      </trkpt>
      <trkpt lat="23.062151" lon="113.277181">
        <time>2026-05-24T22:40:15Z</time>
      </trkpt>
      <trkpt lat="23.062193" lon="113.277073">
        <time>2026-05-24T22:40:20Z</time>
      </trkpt>
      <trkpt lat="23.062253" lon="113.276921">
        <time>2026-05-24T22:40:25Z</time>
      </trkpt>
      <trkpt lat="23.062293" lon="113.27682">
        <time>2026-05-24T22:40:30Z</time>
      </trkpt>
      <trkpt lat="23.062348" lon="113.27667">
        <time>2026-05-24T22:40:35Z</time>
      </trkpt>
      <trkpt lat="23.062384" lon="113.276572">
        <time>2026-05-24T22:40:40Z</time>
      </trkpt>
      <trkpt lat="23.062438" lon="113.276423">
        <time>2026-05-24T22:40:45Z</time>
      </trkpt>
      <trkpt lat="23.062477" lon="113.276321">
        <time>2026-05-24T22:40:50Z</time>
      </trkpt>
      <trkpt lat="23.06254" lon="113.276172">
        <time>2026-05-24T22:40:55Z</time>
      </trkpt>
      <trkpt lat="23.062591" lon="113.276078">
        <time>2026-05-24T22:41:00Z</time>
      </trkpt>
      <trkpt lat="23.062676" lon="113.275946">
        <time>2026-05-24T22:41:05Z</time>
      </trkpt>
      <trkpt lat="23.062741" lon="113.275866">
        <time>2026-05-24T22:41:10Z</time>
      </trkpt>
      <trkpt lat="23.062848" lon="113.275759">
        <time>2026-05-24T22:41:15Z</time>
      </trkpt>
      <trkpt lat="23.062926" lon="113.27569">
        <time>2026-05-24T22:41:20Z</time>
      </trkpt>
      <trkpt lat="23.063028" lon="113.275573">
        <time>2026-05-24T22:41:25Z</time>
      </trkpt>
      <trkpt lat="23.063086" lon="113.275485">
        <time>2026-05-24T22:41:30Z</time>
      </trkpt>
      <trkpt lat="23.063167" lon="113.275344">
        <time>2026-05-24T22:41:35Z</time>
      </trkpt>
      <trkpt lat="23.063217" lon="113.27525">
        <time>2026-05-24T22:41:40Z</time>
      </trkpt>
      <trkpt lat="23.063297" lon="113.275106">
        <time>2026-05-24T22:41:45Z</time>
      </trkpt>
      <trkpt lat="23.063345" lon="113.275005">
        <time>2026-05-24T22:41:50Z</time>
      </trkpt>
      <trkpt lat="23.063397" lon="113.274848">
        <time>2026-05-24T22:41:55Z</time>
      </trkpt>
      <trkpt lat="23.063427" lon="113.274745">
        <time>2026-05-24T22:42:00Z</time>
      </trkpt>
      <trkpt lat="23.063474" lon="113.274588">
        <time>2026-05-24T22:42:05Z</time>
      </trkpt>
      <trkpt lat="23.063503" lon="113.274483">
        <time>2026-05-24T22:42:10Z</time>
      </trkpt>
      <trkpt lat="23.063562" lon="113.274341">
        <time>2026-05-24T22:42:15Z</time>
      </trkpt>
      <trkpt lat="23.06363" lon="113.274269">
        <time>2026-05-24T22:42:20Z</time>
      </trkpt>
      <trkpt lat="23.063756" lon="113.274165">
        <time>2026-05-24T22:42:25Z</time>
      </trkpt>
      <trkpt lat="23.063828" lon="113.274086">
        <time>2026-05-24T22:42:30Z</time>
      </trkpt>
      <trkpt lat="23.063907" lon="113.273943">
        <time>2026-05-24T22:42:35Z</time>
      </trkpt>
      <trkpt lat="23.063964" lon="113.273847">
        <time>2026-05-24T22:42:40Z</time>
      </trkpt>
      <trkpt lat="23.064074" lon="113.273713">
        <time>2026-05-24T22:42:45Z</time>
      </trkpt>
      <trkpt lat="23.064156" lon="113.273644">
        <time>2026-05-24T22:42:50Z</time>
      </trkpt>
      <trkpt lat="23.064282" lon="113.273552">
        <time>2026-05-24T22:42:55Z</time>
      </trkpt>
      <trkpt lat="23.064366" lon="113.273487">
        <time>2026-05-24T22:43:00Z</time>
      </trkpt>
      <trkpt lat="23.064491" lon="113.273381">
        <time>2026-05-24T22:43:05Z</time>
      </trkpt>
      <trkpt lat="23.064552" lon="113.27329">
        <time>2026-05-24T22:43:10Z</time>
      </trkpt>
      <trkpt lat="23.064577" lon="113.273114">
        <time>2026-05-24T22:43:15Z</time>
      </trkpt>
      <trkpt lat="23.064552" lon="113.272996">
        <time>2026-05-24T22:43:20Z</time>
      </trkpt>
      <trkpt lat="23.064488" lon="113.272835">
        <time>2026-05-24T22:43:25Z</time>
      </trkpt>
      <trkpt lat="23.064457" lon="113.272725">
        <time>2026-05-24T22:43:30Z</time>
      </trkpt>
      <trkpt lat="23.064447" lon="113.272558">
        <time>2026-05-24T22:43:35Z</time>
      </trkpt>
      <trkpt lat="23.064491" lon="113.272455">
        <time>2026-05-24T22:43:40Z</time>
      </trkpt>
      <trkpt lat="23.064553" lon="113.272296">
        <time>2026-05-24T22:43:45Z</time>
      </trkpt>
      <trkpt lat="23.064581" lon="113.272188">
        <time>2026-05-24T22:43:50Z</time>
      </trkpt>
      <trkpt lat="23.064642" lon="113.272027">
        <time>2026-05-24T22:43:55Z</time>
      </trkpt>
      <trkpt lat="23.064685" lon="113.271926">
        <time>2026-05-24T22:44:00Z</time>
      </trkpt>
      <trkpt lat="23.064745" lon="113.271779">
        <time>2026-05-24T22:44:05Z</time>
      </trkpt>
      <trkpt lat="23.064797" lon="113.271685">
        <time>2026-05-24T22:44:10Z</time>
      </trkpt>
      <trkpt lat="23.064886" lon="113.271539">
        <time>2026-05-24T22:44:15Z</time>
      </trkpt>
      <trkpt lat="23.064935" lon="113.271441">
        <time>2026-05-24T22:44:20Z</time>
      </trkpt>
      <trkpt lat="23.065002" lon="113.271298">
        <time>2026-05-24T22:44:25Z</time>
      </trkpt>
      <trkpt lat="23.065048" lon="113.2712">
        <time>2026-05-24T22:44:30Z</time>
      </trkpt>
      <trkpt lat="23.065126" lon="113.271048">
        <time>2026-05-24T22:44:35Z</time>
      </trkpt>
      <trkpt lat="23.065174" lon="113.270942">
        <time>2026-05-24T22:44:40Z</time>
      </trkpt>
      <trkpt lat="23.065231" lon="113.270784">
        <time>2026-05-24T22:44:45Z</time>
      </trkpt>
      <trkpt lat="23.065277" lon="113.270682">
        <time>2026-05-24T22:44:50Z</time>
      </trkpt>
      <trkpt lat="23.065349" lon="113.270533">
        <time>2026-05-24T22:44:55Z</time>
      </trkpt>
      <trkpt lat="23.065395" lon="113.270435">
        <time>2026-05-24T22:45:00Z</time>
      </trkpt>
      <trkpt lat="23.065461" lon="113.270287">
        <time>2026-05-24T22:45:05Z</time>
      </trkpt>
      <trkpt lat="23.065505" lon="113.270187">
        <time>2026-05-24T22:45:10Z</time>
      </trkpt>
      <trkpt lat="23.065557" lon="113.270032">
        <time>2026-05-24T22:45:15Z</time>
      </trkpt>
      <trkpt lat="23.06559" lon="113.269929">
        <time>2026-05-24T22:45:20Z</time>
      </trkpt>
      <trkpt lat="23.065634" lon="113.26977">
        <time>2026-05-24T22:45:25Z</time>
      </trkpt>
      <trkpt lat="23.065669" lon="113.269661">
        <time>2026-05-24T22:45:30Z</time>
      </trkpt>
      <trkpt lat="23.065729" lon="113.269501">
        <time>2026-05-24T22:45:35Z</time>
      </trkpt>
      <trkpt lat="23.065747" lon="113.269389">
        <time>2026-05-24T22:45:40Z</time>
      </trkpt>
      <trkpt lat="23.065785" lon="113.269222">
        <time>2026-05-24T22:45:45Z</time>
      </trkpt>
      <trkpt lat="23.065819" lon="113.269115">
        <time>2026-05-24T22:45:50Z</time>
      </trkpt>
      <trkpt lat="23.065873" lon="113.26896">
        <time>2026-05-24T22:45:55Z</time>
      </trkpt>
      <trkpt lat="23.065909" lon="113.268859">
        <time>2026-05-24T22:46:00Z</time>
      </trkpt>
      <trkpt lat="23.065973" lon="113.268715">
        <time>2026-05-24T22:46:05Z</time>
      </trkpt>
      <trkpt lat="23.066018" lon="113.26863">
        <time>2026-05-24T22:46:10Z</time>
      </trkpt>
      <trkpt lat="23.06611" lon="113.268501">
        <time>2026-05-24T22:46:15Z</time>
      </trkpt>
      <trkpt lat="23.066178" lon="113.268412">
        <time>2026-05-24T22:46:20Z</time>
      </trkpt>
      <trkpt lat="23.066282" lon="113.268277">
        <time>2026-05-24T22:46:25Z</time>
      </trkpt>
      <trkpt lat="23.066358" lon="113.268195">
        <time>2026-05-24T22:46:30Z</time>
      </trkpt>
      <trkpt lat="23.066505" lon="113.268135">
        <time>2026-05-24T22:46:35Z</time>
      </trkpt>
      <trkpt lat="23.066614" lon="113.268139">
        <time>2026-05-24T22:46:40Z</time>
      </trkpt>
      <trkpt lat="23.066771" lon="113.268156">
        <time>2026-05-24T22:46:45Z</time>
      </trkpt>
      <trkpt lat="23.066875" lon="113.26816">
        <time>2026-05-24T22:46:50Z</time>
      </trkpt>
      <trkpt lat="23.067025" lon="113.268189">
        <time>2026-05-24T22:46:55Z</time>
      </trkpt>
      <trkpt lat="23.067112" lon="113.268235">
        <time>2026-05-24T22:47:00Z</time>
      </trkpt>
      <trkpt lat="23.067228" lon="113.268323">
        <time>2026-05-24T22:47:05Z</time>
      </trkpt>
      <trkpt lat="23.067328" lon="113.268384">
        <time>2026-05-24T22:47:10Z</time>
      </trkpt>
      <trkpt lat="23.067469" lon="113.268452">
        <time>2026-05-24T22:47:15Z</time>
      </trkpt>
      <trkpt lat="23.067566" lon="113.268499">
        <time>2026-05-24T22:47:20Z</time>
      </trkpt>
      <trkpt lat="23.067728" lon="113.268575">
        <time>2026-05-24T22:47:25Z</time>
      </trkpt>
      <trkpt lat="23.067833" lon="113.268627">
        <time>2026-05-24T22:47:30Z</time>
      </trkpt>
      <trkpt lat="23.067948" lon="113.268719">
        <time>2026-05-24T22:47:35Z</time>
      </trkpt>
      <trkpt lat="23.068006" lon="113.26874">
        <time>2026-05-24T22:47:40Z</time>
      </trkpt>
      <trkpt lat="23.068136" lon="113.268771">
        <time>2026-05-24T22:47:45Z</time>
      </trkpt>
      <trkpt lat="23.068234" lon="113.268808">
        <time>2026-05-24T22:47:50Z</time>
      </trkpt>
      <trkpt lat="23.068381" lon="113.268869">
        <time>2026-05-24T22:47:55Z</time>
      </trkpt>
      <trkpt lat="23.068476" lon="113.268906">
        <time>2026-05-24T22:48:00Z</time>
      </trkpt>
      <trkpt lat="23.06863" lon="113.268991">
        <time>2026-05-24T22:48:05Z</time>
      </trkpt>
      <trkpt lat="23.068717" lon="113.269041">
        <time>2026-05-24T22:48:10Z</time>
      </trkpt>
      <trkpt lat="23.068858" lon="113.269088">
        <time>2026-05-24T22:48:15Z</time>
      </trkpt>
      <trkpt lat="23.068933" lon="113.26914">
        <time>2026-05-24T22:48:20Z</time>
      </trkpt>
      <trkpt lat="23.069065" lon="113.26918">
        <time>2026-05-24T22:48:25Z</time>
      </trkpt>
      <trkpt lat="23.069153" lon="113.269231">
        <time>2026-05-24T22:48:30Z</time>
      </trkpt>
      <trkpt lat="23.069296" lon="113.269343">
        <time>2026-05-24T22:48:35Z</time>
      </trkpt>
      <trkpt lat="23.069404" lon="113.26938">
        <time>2026-05-24T22:48:40Z</time>
      </trkpt>
      <trkpt lat="23.06955" lon="113.269434">
        <time>2026-05-24T22:48:45Z</time>
      </trkpt>
      <trkpt lat="23.069641" lon="113.269487">
        <time>2026-05-24T22:48:50Z</time>
      </trkpt>
      <trkpt lat="23.06979" lon="113.26957">
        <time>2026-05-24T22:48:55Z</time>
      </trkpt>
      <trkpt lat="23.069888" lon="113.269629">
        <time>2026-05-24T22:49:00Z</time>
      </trkpt>
      <trkpt lat="23.070031" lon="113.269696">
        <time>2026-05-24T22:49:05Z</time>
      </trkpt>
      <trkpt lat="23.070119" lon="113.269761">
        <time>2026-05-24T22:49:10Z</time>
      </trkpt>
      <trkpt lat="23.070258" lon="113.269845">
        <time>2026-05-24T22:49:15Z</time>
      </trkpt>
      <trkpt lat="23.070352" lon="113.269892">
        <time>2026-05-24T22:49:20Z</time>
      </trkpt>
      <trkpt lat="23.070488" lon="113.269964">
        <time>2026-05-24T22:49:25Z</time>
      </trkpt>
      <trkpt lat="23.070592" lon="113.269993">
        <time>2026-05-24T22:49:30Z</time>
      </trkpt>
      <trkpt lat="23.070742" lon="113.270031">
        <time>2026-05-24T22:49:35Z</time>
      </trkpt>
      <trkpt lat="23.070836" lon="113.270062">
        <time>2026-05-24T22:49:40Z</time>
      </trkpt>
      <trkpt lat="23.070979" lon="113.270113">
        <time>2026-05-24T22:49:45Z</time>
      </trkpt>
      <trkpt lat="23.071032" lon="113.270157">
        <time>2026-05-24T22:49:50Z</time>
      </trkpt>
      <trkpt lat="23.07112" lon="113.270196">
        <time>2026-05-24T22:49:55Z</time>
      </trkpt>
      <trkpt lat="23.071203" lon="113.270236">
        <time>2026-05-24T22:50:00Z</time>
      </trkpt>
      <trkpt lat="23.071334" lon="113.270289">
        <time>2026-05-24T22:50:05Z</time>
      </trkpt>
      <trkpt lat="23.07143" lon="113.270328">
        <time>2026-05-24T22:50:10Z</time>
      </trkpt>
      <trkpt lat="23.071568" lon="113.270396">
        <time>2026-05-24T22:50:15Z</time>
      </trkpt>
      <trkpt lat="23.071655" lon="113.270447">
        <time>2026-05-24T22:50:20Z</time>
      </trkpt>
      <trkpt lat="23.071778" lon="113.270533">
        <time>2026-05-24T22:50:25Z</time>
      </trkpt>
      <trkpt lat="23.071876" lon="113.270588">
        <time>2026-05-24T22:50:30Z</time>
      </trkpt>
      <trkpt lat="23.072042" lon="113.270641">
        <time>2026-05-24T22:50:35Z</time>
      </trkpt>
      <trkpt lat="23.072139" lon="113.270684">
        <time>2026-05-24T22:50:40Z</time>
      </trkpt>
      <trkpt lat="23.072272" lon="113.27077">
        <time>2026-05-24T22:50:45Z</time>
      </trkpt>
      <trkpt lat="23.072362" lon="113.270811">
        <time>2026-05-24T22:50:50Z</time>
      </trkpt>
      <trkpt lat="23.072502" lon="113.270862">
        <time>2026-05-24T22:50:55Z</time>
      </trkpt>
      <trkpt lat="23.072605" lon="113.270897">
        <time>2026-05-24T22:51:00Z</time>
      </trkpt>
      <trkpt lat="23.072756" lon="113.27096">
        <time>2026-05-24T22:51:05Z</time>
      </trkpt>
      <trkpt lat="23.072835" lon="113.271019">
        <time>2026-05-24T22:51:10Z</time>
      </trkpt>
      <trkpt lat="23.072958" lon="113.271092">
        <time>2026-05-24T22:51:15Z</time>
      </trkpt>
      <trkpt lat="23.073047" lon="113.271126">
        <time>2026-05-24T22:51:20Z</time>
      </trkpt>
      <trkpt lat="23.073181" lon="113.271171">
        <time>2026-05-24T22:51:25Z</time>
      </trkpt>
      <trkpt lat="23.073239" lon="113.271247">
        <time>2026-05-24T22:51:30Z</time>
      </trkpt>
      <trkpt lat="23.073366" lon="113.271324">
        <time>2026-05-24T22:51:35Z</time>
      </trkpt>
      <trkpt lat="23.073462" lon="113.271391">
        <time>2026-05-24T22:51:40Z</time>
      </trkpt>
      <trkpt lat="23.073591" lon="113.271521">
        <time>2026-05-24T22:51:45Z</time>
      </trkpt>
      <trkpt lat="23.073675" lon="113.271596">
        <time>2026-05-24T22:51:50Z</time>
      </trkpt>
      <trkpt lat="23.073832" lon="113.271671">
        <time>2026-05-24T22:51:55Z</time>
      </trkpt>
      <trkpt lat="23.073932" lon="113.271713">
        <time>2026-05-24T22:52:00Z</time>
      </trkpt>
      <trkpt lat="23.074061" lon="113.271782">
        <time>2026-05-24T22:52:05Z</time>
      </trkpt>
      <trkpt lat="23.074093" lon="113.271835">
        <time>2026-05-24T22:52:10Z</time>
      </trkpt>
      <trkpt lat="23.07403" lon="113.271963">
        <time>2026-05-24T22:52:15Z</time>
      </trkpt>
      <trkpt lat="23.073981" lon="113.27205">
        <time>2026-05-24T22:52:20Z</time>
      </trkpt>
      <trkpt lat="23.073924" lon="113.272176">
        <time>2026-05-24T22:52:25Z</time>
      </trkpt>
      <trkpt lat="23.073884" lon="113.27227">
        <time>2026-05-24T22:52:30Z</time>
      </trkpt>
      <trkpt lat="23.073824" lon="113.27241">
        <time>2026-05-24T22:52:35Z</time>
      </trkpt>
      <trkpt lat="23.073782" lon="113.272499">
        <time>2026-05-24T22:52:40Z</time>
      </trkpt>
      <trkpt lat="23.073721" lon="113.272653">
        <time>2026-05-24T22:52:45Z</time>
      </trkpt>
      <trkpt lat="23.073679" lon="113.272758">
        <time>2026-05-24T22:52:50Z</time>
      </trkpt>
      <trkpt lat="23.073611" lon="113.272906">
        <time>2026-05-24T22:52:55Z</time>
      </trkpt>
      <trkpt lat="23.073566" lon="113.273004">
        <time>2026-05-24T22:53:00Z</time>
      </trkpt>
      <trkpt lat="23.073525" lon="113.27316">
        <time>2026-05-24T22:53:05Z</time>
      </trkpt>
      <trkpt lat="23.073517" lon="113.273227">
        <time>2026-05-24T22:53:10Z</time>
      </trkpt>
      <trkpt lat="23.073595" lon="113.273124">
        <time>2026-05-24T22:53:15Z</time>
      </trkpt>
      <trkpt lat="23.073649" lon="113.273041">
        <time>2026-05-24T22:53:20Z</time>
      </trkpt>
      <trkpt lat="23.073757" lon="113.272977">
        <time>2026-05-24T22:53:25Z</time>
      </trkpt>
      <trkpt lat="23.073858" lon="113.273004">
        <time>2026-05-24T22:53:30Z</time>
      </trkpt>
      <trkpt lat="23.074008" lon="113.273029">
        <time>2026-05-24T22:53:35Z</time>
      </trkpt>
      <trkpt lat="23.074065" lon="113.272953">
        <time>2026-05-24T22:53:40Z</time>
      </trkpt>
      <trkpt lat="23.074124" lon="113.272787">
        <time>2026-05-24T22:53:45Z</time>
      </trkpt>
      <trkpt lat="23.074156" lon="113.27268">
        <time>2026-05-24T22:53:50Z</time>
      </trkpt>
      <trkpt lat="23.074206" lon="113.272534">
        <time>2026-05-24T22:53:55Z</time>
      </trkpt>
      <trkpt lat="23.074258" lon="113.272434">
        <time>2026-05-24T22:54:00Z</time>
      </trkpt>
      <trkpt lat="23.074315" lon="113.272284">
        <time>2026-05-24T22:54:05Z</time>
      </trkpt>
      <trkpt lat="23.074335" lon="113.272183">
        <time>2026-05-24T22:54:10Z</time>
      </trkpt>
      <trkpt lat="23.07445" lon="113.272062">
        <time>2026-05-24T22:54:15Z</time>
      </trkpt>
      <trkpt lat="23.074545" lon="113.272024">
        <time>2026-05-24T22:54:20Z</time>
      </trkpt>
      <trkpt lat="23.074677" lon="113.272085">
        <time>2026-05-24T22:54:25Z</time>
      </trkpt>
      <trkpt lat="23.074756" lon="113.272153">
        <time>2026-05-24T22:54:30Z</time>
      </trkpt>
      <trkpt lat="23.074889" lon="113.272232">
        <time>2026-05-24T22:54:35Z</time>
      </trkpt>
      <trkpt lat="23.074972" lon="113.272294">
        <time>2026-05-24T22:54:40Z</time>
      </trkpt>
      <trkpt lat="23.075112" lon="113.272392">
        <time>2026-05-24T22:54:45Z</time>
      </trkpt>
      <trkpt lat="23.075208" lon="113.272437">
        <time>2026-05-24T22:54:50Z</time>
      </trkpt>
      <trkpt lat="23.075349" lon="113.272492">
        <time>2026-05-24T22:54:55Z</time>
      </trkpt>
      <trkpt lat="23.075432" lon="113.272528">
        <time>2026-05-24T22:55:00Z</time>
      </trkpt>
      <trkpt lat="23.075547" lon="113.272616">
        <time>2026-05-24T22:55:05Z</time>
      </trkpt>
      <trkpt lat="23.075655" lon="113.272645">
        <time>2026-05-24T22:55:10Z</time>
      </trkpt>
      <trkpt lat="23.07582" lon="113.272689">
        <time>2026-05-24T22:55:18Z</time>
      </trkpt>
    </trkseg>
  </trk>
</gpx>