<?xml version="1.0" encoding="UTF-8"?>
<gpx xmlns="http://www.topografix.com/GPX/1/1" xmlns:gpxtpx="http://www.garmin.com/xmlschemas/TrackPointExtension/v1" xmlns:xsi="http://www.w3.org/2001/XMLSchema-instance" xsi:schemaLocation="http://www.topografix.com/GPX/1/1 http://www.topografix.com/GPX/1/1/gpx.xsd" version="1.1" creator="gpx.py -- https://github.com/tkrajina/gpxpy">
  <trk>
    <name>gpx from joyrun</name>
    <trkseg>
      <trkpt lat="23.075297" lon="113.272282">
        <time>2026-05-26T21:54:04Z</time>
      </trkpt>
      <trkpt lat="23.075287" lon="113.272244">
        <time>2026-05-26T21:54:09Z</time>
      </trkpt>
      <trkpt lat="23.075204" lon="113.272207">
        <time>2026-05-26T21:54:14Z</time>
      </trkpt>
      <trkpt lat="23.075131" lon="113.272197">
        <time>2026-05-26T21:54:19Z</time>
      </trkpt>
      <trkpt lat="23.075027" lon="113.272155">
        <time>2026-05-26T21:54:24Z</time>
      </trkpt>
      <trkpt lat="23.074958" lon="113.272143">
        <time>2026-05-26T21:54:29Z</time>
      </trkpt>
      <trkpt lat="23.074843" lon="113.27211">
        <time>2026-05-26T21:54:34Z</time>
      </trkpt>
      <trkpt lat="23.074761" lon="113.272079">
        <time>2026-05-26T21:54:39Z</time>
      </trkpt>
      <trkpt lat="23.074644" lon="113.272013">
        <time>2026-05-26T21:54:44Z</time>
      </trkpt>
      <trkpt lat="23.074553" lon="113.271983">
        <time>2026-05-26T21:54:49Z</time>
      </trkpt>
      <trkpt lat="23.074417" lon="113.272027">
        <time>2026-05-26T21:54:54Z</time>
      </trkpt>
      <trkpt lat="23.074342" lon="113.272086">
        <time>2026-05-26T21:54:59Z</time>
      </trkpt>
      <trkpt lat="23.074273" lon="113.272216">
        <time>2026-05-26T21:55:04Z</time>
      </trkpt>
      <trkpt lat="23.074238" lon="113.272303">
        <time>2026-05-26T21:55:09Z</time>
      </trkpt>
      <trkpt lat="23.07418" lon="113.272435">
        <time>2026-05-26T21:55:14Z</time>
      </trkpt>
      <trkpt lat="23.07414" lon="113.272544">
        <time>2026-05-26T21:55:19Z</time>
      </trkpt>
      <trkpt lat="23.074106" lon="113.272717">
        <time>2026-05-26T21:55:24Z</time>
      </trkpt>
      <trkpt lat="23.074068" lon="113.272813">
        <time>2026-05-26T21:55:29Z</time>
      </trkpt>
      <trkpt lat="23.074006" lon="113.272952">
        <time>2026-05-26T21:55:34Z</time>
      </trkpt>
      <trkpt lat="23.073968" lon="113.273025">
        <time>2026-05-26T21:55:39Z</time>
      </trkpt>
      <trkpt lat="23.073958" lon="113.273029">
        <time>2026-05-26T21:55:44Z</time>
      </trkpt>
      <trkpt lat="23.073958" lon="113.273029">
        <time>2026-05-26T21:55:49Z</time>
      </trkpt>
      <trkpt lat="23.073958" lon="113.273029">
        <time>2026-05-26T21:55:54Z</time>
      </trkpt>
      <trkpt lat="23.073958" lon="113.273029">
        <time>2026-05-26T21:55:59Z</time>
      </trkpt>
      <trkpt lat="23.073958" lon="113.273029">
        <time>2026-05-26T21:56:04Z</time>
      </trkpt>
      <trkpt lat="23.073951" lon="113.273009">
        <time>2026-05-26T21:56:09Z</time>
      </trkpt>
      <trkpt lat="23.073882" lon="113.272927">
        <time>2026-05-26T21:56:14Z</time>
      </trkpt>
      <trkpt lat="23.073781" lon="113.272885">
        <time>2026-05-26T21:56:19Z</time>
      </trkpt>
      <trkpt lat="23.073693" lon="113.272798">
        <time>2026-05-26T21:56:24Z</time>
      </trkpt>
      <trkpt lat="23.073719" lon="113.272702">
        <time>2026-05-26T21:56:29Z</time>
      </trkpt>
      <trkpt lat="23.07379" lon="113.272568">
        <time>2026-05-26T21:56:34Z</time>
      </trkpt>
      <trkpt lat="23.073834" lon="113.27249">
        <time>2026-05-26T21:56:39Z</time>
      </trkpt>
      <trkpt lat="23.073888" lon="113.272357">
        <time>2026-05-26T21:56:44Z</time>
      </trkpt>
      <trkpt lat="23.073924" lon="113.272258">
        <time>2026-05-26T21:56:49Z</time>
      </trkpt>
      <trkpt lat="23.073989" lon="113.272114">
        <time>2026-05-26T21:56:54Z</time>
      </trkpt>
      <trkpt lat="23.074019" lon="113.272023">
        <time>2026-05-26T21:56:59Z</time>
      </trkpt>
      <trkpt lat="23.074083" lon="113.27189">
        <time>2026-05-26T21:57:04Z</time>
      </trkpt>
      <trkpt lat="23.074127" lon="113.271799">
        <time>2026-05-26T21:57:09Z</time>
      </trkpt>
      <trkpt lat="23.074092" lon="113.271705">
        <time>2026-05-26T21:57:14Z</time>
      </trkpt>
      <trkpt lat="23.074023" lon="113.27166">
        <time>2026-05-26T21:57:19Z</time>
      </trkpt>
      <trkpt lat="23.073894" lon="113.271584">
        <time>2026-05-26T21:57:24Z</time>
      </trkpt>
      <trkpt lat="23.073793" lon="113.27154">
        <time>2026-05-26T21:57:29Z</time>
      </trkpt>
      <trkpt lat="23.073654" lon="113.271475">
        <time>2026-05-26T21:57:34Z</time>
      </trkpt>
      <trkpt lat="23.073585" lon="113.271429">
        <time>2026-05-26T21:57:39Z</time>
      </trkpt>
      <trkpt lat="23.073451" lon="113.271378">
        <time>2026-05-26T21:57:44Z</time>
      </trkpt>
      <trkpt lat="23.073359" lon="113.271338">
        <time>2026-05-26T21:57:49Z</time>
      </trkpt>
      <trkpt lat="23.07325" lon="113.271258">
        <time>2026-05-26T21:57:54Z</time>
      </trkpt>
      <trkpt lat="23.073154" lon="113.271192">
        <time>2026-05-26T21:57:59Z</time>
      </trkpt>
      <trkpt lat="23.073005" lon="113.271121">
        <time>2026-05-26T21:58:04Z</time>
      </trkpt>
      <trkpt lat="23.07292" lon="113.271059">
        <time>2026-05-26T21:58:09Z</time>
      </trkpt>
      <trkpt lat="23.072767" lon="113.270971">
        <time>2026-05-26T21:58:14Z</time>
      </trkpt>
      <trkpt lat="23.072655" lon="113.270925">
        <time>2026-05-26T21:58:19Z</time>
      </trkpt>
      <trkpt lat="23.072498" lon="113.270871">
        <time>2026-05-26T21:58:24Z</time>
      </trkpt>
      <trkpt lat="23.072407" lon="113.27084">
        <time>2026-05-26T21:58:29Z</time>
      </trkpt>
      <trkpt lat="23.072278" lon="113.270803">
        <time>2026-05-26T21:58:34Z</time>
      </trkpt>
      <trkpt lat="23.072174" lon="113.270779">
        <time>2026-05-26T21:58:39Z</time>
      </trkpt>
      <trkpt lat="23.072057" lon="113.270706">
        <time>2026-05-26T21:58:44Z</time>
      </trkpt>
      <trkpt lat="23.071969" lon="113.270664">
        <time>2026-05-26T21:58:49Z</time>
      </trkpt>
      <trkpt lat="23.071803" lon="113.270622">
        <time>2026-05-26T21:58:54Z</time>
      </trkpt>
      <trkpt lat="23.071695" lon="113.270578">
        <time>2026-05-26T21:58:59Z</time>
      </trkpt>
      <trkpt lat="23.07157" lon="113.270477">
        <time>2026-05-26T21:59:04Z</time>
      </trkpt>
      <trkpt lat="23.071483" lon="113.270421">
        <time>2026-05-26T21:59:09Z</time>
      </trkpt>
      <trkpt lat="23.071344" lon="113.270358">
        <time>2026-05-26T21:59:14Z</time>
      </trkpt>
      <trkpt lat="23.071251" lon="113.270313">
        <time>2026-05-26T21:59:19Z</time>
      </trkpt>
      <trkpt lat="23.071114" lon="113.270244">
        <time>2026-05-26T21:59:24Z</time>
      </trkpt>
      <trkpt lat="23.071047" lon="113.270204">
        <time>2026-05-26T21:59:29Z</time>
      </trkpt>
      <trkpt lat="23.070916" lon="113.270128">
        <time>2026-05-26T21:59:34Z</time>
      </trkpt>
      <trkpt lat="23.070821" lon="113.270078">
        <time>2026-05-26T21:59:39Z</time>
      </trkpt>
      <trkpt lat="23.070675" lon="113.270002">
        <time>2026-05-26T21:59:44Z</time>
      </trkpt>
      <trkpt lat="23.070574" lon="113.269963">
        <time>2026-05-26T21:59:49Z</time>
      </trkpt>
      <trkpt lat="23.070414" lon="113.269938">
        <time>2026-05-26T21:59:54Z</time>
      </trkpt>
      <trkpt lat="23.070315" lon="113.269908">
        <time>2026-05-26T21:59:59Z</time>
      </trkpt>
      <trkpt lat="23.070177" lon="113.269823">
        <time>2026-05-26T22:00:04Z</time>
      </trkpt>
      <trkpt lat="23.070095" lon="113.269762">
        <time>2026-05-26T22:00:09Z</time>
      </trkpt>
      <trkpt lat="23.069969" lon="113.269673">
        <time>2026-05-26T22:00:14Z</time>
      </trkpt>
      <trkpt lat="23.06988" lon="113.269621">
        <time>2026-05-26T22:00:19Z</time>
      </trkpt>
      <trkpt lat="23.069735" lon="113.269554">
        <time>2026-05-26T22:00:24Z</time>
      </trkpt>
      <trkpt lat="23.069642" lon="113.269509">
        <time>2026-05-26T22:00:29Z</time>
      </trkpt>
      <trkpt lat="23.069518" lon="113.26942">
        <time>2026-05-26T22:00:34Z</time>
      </trkpt>
      <trkpt lat="23.069429" lon="113.269374">
        <time>2026-05-26T22:00:39Z</time>
      </trkpt>
      <trkpt lat="23.069287" lon="113.2693">
        <time>2026-05-26T22:00:44Z</time>
      </trkpt>
      <trkpt lat="23.06921" lon="113.269237">
        <time>2026-05-26T22:00:49Z</time>
      </trkpt>
      <trkpt lat="23.069101" lon="113.269147">
        <time>2026-05-26T22:00:54Z</time>
      </trkpt>
      <trkpt lat="23.069043" lon="113.269051">
        <time>2026-05-26T22:00:59Z</time>
      </trkpt>
      <trkpt lat="23.068928" lon="113.268955">
        <time>2026-05-26T22:01:04Z</time>
      </trkpt>
      <trkpt lat="23.06884" lon="113.268918">
        <time>2026-05-26T22:01:09Z</time>
      </trkpt>
      <trkpt lat="23.068702" lon="113.268862">
        <time>2026-05-26T22:01:14Z</time>
      </trkpt>
      <trkpt lat="23.068613" lon="113.268815">
        <time>2026-05-26T22:01:19Z</time>
      </trkpt>
      <trkpt lat="23.068491" lon="113.268756">
        <time>2026-05-26T22:01:24Z</time>
      </trkpt>
      <trkpt lat="23.068403" lon="113.268712">
        <time>2026-05-26T22:01:29Z</time>
      </trkpt>
      <trkpt lat="23.068259" lon="113.268653">
        <time>2026-05-26T22:01:34Z</time>
      </trkpt>
      <trkpt lat="23.068159" lon="113.268609">
        <time>2026-05-26T22:01:39Z</time>
      </trkpt>
      <trkpt lat="23.068011" lon="113.268554">
        <time>2026-05-26T22:01:44Z</time>
      </trkpt>
      <trkpt lat="23.067917" lon="113.268519">
        <time>2026-05-26T22:01:49Z</time>
      </trkpt>
      <trkpt lat="23.067788" lon="113.268447">
        <time>2026-05-26T22:01:54Z</time>
      </trkpt>
      <trkpt lat="23.067699" lon="113.268398">
        <time>2026-05-26T22:01:59Z</time>
      </trkpt>
      <trkpt lat="23.06756" lon="113.268326">
        <time>2026-05-26T22:02:04Z</time>
      </trkpt>
      <trkpt lat="23.067465" lon="113.268286">
        <time>2026-05-26T22:02:09Z</time>
      </trkpt>
      <trkpt lat="23.06732" lon="113.268237">
        <time>2026-05-26T22:02:14Z</time>
      </trkpt>
      <trkpt lat="23.067232" lon="113.268197">
        <time>2026-05-26T22:02:19Z</time>
      </trkpt>
      <trkpt lat="23.067105" lon="113.268145">
        <time>2026-05-26T22:02:24Z</time>
      </trkpt>
      <trkpt lat="23.06701" lon="113.268106">
        <time>2026-05-26T22:02:29Z</time>
      </trkpt>
      <trkpt lat="23.066857" lon="113.268065">
        <time>2026-05-26T22:02:34Z</time>
      </trkpt>
      <trkpt lat="23.066754" lon="113.268038">
        <time>2026-05-26T22:02:39Z</time>
      </trkpt>
      <trkpt lat="23.066611" lon="113.268001">
        <time>2026-05-26T22:02:44Z</time>
      </trkpt>
      <trkpt lat="23.066522" lon="113.267965">
        <time>2026-05-26T22:02:49Z</time>
      </trkpt>
      <trkpt lat="23.06639" lon="113.267943">
        <time>2026-05-26T22:02:54Z</time>
      </trkpt>
      <trkpt lat="23.066304" lon="113.26796">
        <time>2026-05-26T22:02:59Z</time>
      </trkpt>
      <trkpt lat="23.066183" lon="113.268024">
        <time>2026-05-26T22:03:04Z</time>
      </trkpt>
      <trkpt lat="23.066111" lon="113.268106">
        <time>2026-05-26T22:03:09Z</time>
      </trkpt>
      <trkpt lat="23.066013" lon="113.268221">
        <time>2026-05-26T22:03:14Z</time>
      </trkpt>
      <trkpt lat="23.06595" lon="113.268296">
        <time>2026-05-26T22:03:19Z</time>
      </trkpt>
      <trkpt lat="23.065865" lon="113.268418">
        <time>2026-05-26T22:03:24Z</time>
      </trkpt>
      <trkpt lat="23.065814" lon="113.268511">
        <time>2026-05-26T22:03:29Z</time>
      </trkpt>
      <trkpt lat="23.065746" lon="113.268655">
        <time>2026-05-26T22:03:34Z</time>
      </trkpt>
      <trkpt lat="23.065707" lon="113.268752">
        <time>2026-05-26T22:03:39Z</time>
      </trkpt>
      <trkpt lat="23.065657" lon="113.268895">
        <time>2026-05-26T22:03:44Z</time>
      </trkpt>
      <trkpt lat="23.065621" lon="113.268999">
        <time>2026-05-26T22:03:49Z</time>
      </trkpt>
      <trkpt lat="23.065578" lon="113.269151">
        <time>2026-05-26T22:03:54Z</time>
      </trkpt>
      <trkpt lat="23.065552" lon="113.26925">
        <time>2026-05-26T22:03:59Z</time>
      </trkpt>
      <trkpt lat="23.065511" lon="113.269401">
        <time>2026-05-26T22:04:04Z</time>
      </trkpt>
      <trkpt lat="23.065484" lon="113.269501">
        <time>2026-05-26T22:04:09Z</time>
      </trkpt>
      <trkpt lat="23.065455" lon="113.269658">
        <time>2026-05-26T22:04:14Z</time>
      </trkpt>
      <trkpt lat="23.065442" lon="113.269768">
        <time>2026-05-26T22:04:19Z</time>
      </trkpt>
      <trkpt lat="23.065399" lon="113.269913">
        <time>2026-05-26T22:04:24Z</time>
      </trkpt>
      <trkpt lat="23.065364" lon="113.270006">
        <time>2026-05-26T22:04:29Z</time>
      </trkpt>
      <trkpt lat="23.065307" lon="113.270139">
        <time>2026-05-26T22:04:34Z</time>
      </trkpt>
      <trkpt lat="23.065265" lon="113.270227">
        <time>2026-05-26T22:04:39Z</time>
      </trkpt>
      <trkpt lat="23.065204" lon="113.270362">
        <time>2026-05-26T22:04:44Z</time>
      </trkpt>
      <trkpt lat="23.065164" lon="113.270454">
        <time>2026-05-26T22:04:49Z</time>
      </trkpt>
      <trkpt lat="23.065099" lon="113.270591">
        <time>2026-05-26T22:04:54Z</time>
      </trkpt>
      <trkpt lat="23.065056" lon="113.270687">
        <time>2026-05-26T22:04:59Z</time>
      </trkpt>
      <trkpt lat="23.06499" lon="113.270821">
        <time>2026-05-26T22:05:04Z</time>
      </trkpt>
      <trkpt lat="23.064946" lon="113.270911">
        <time>2026-05-26T22:05:09Z</time>
      </trkpt>
      <trkpt lat="23.064886" lon="113.271054">
        <time>2026-05-26T22:05:14Z</time>
      </trkpt>
      <trkpt lat="23.064843" lon="113.271147">
        <time>2026-05-26T22:05:19Z</time>
      </trkpt>
      <trkpt lat="23.064777" lon="113.271291">
        <time>2026-05-26T22:05:24Z</time>
      </trkpt>
      <trkpt lat="23.064732" lon="113.271387">
        <time>2026-05-26T22:05:29Z</time>
      </trkpt>
      <trkpt lat="23.064666" lon="113.271527">
        <time>2026-05-26T22:05:34Z</time>
      </trkpt>
      <trkpt lat="23.064623" lon="113.271622">
        <time>2026-05-26T22:05:39Z</time>
      </trkpt>
      <trkpt lat="23.064563" lon="113.271768">
        <time>2026-05-26T22:05:44Z</time>
      </trkpt>
      <trkpt lat="23.064521" lon="113.271866">
        <time>2026-05-26T22:05:49Z</time>
      </trkpt>
      <trkpt lat="23.064458" lon="113.272013">
        <time>2026-05-26T22:05:54Z</time>
      </trkpt>
      <trkpt lat="23.064406" lon="113.272102">
        <time>2026-05-26T22:05:59Z</time>
      </trkpt>
      <trkpt lat="23.064327" lon="113.272232">
        <time>2026-05-26T22:06:04Z</time>
      </trkpt>
      <trkpt lat="23.064324" lon="113.272335">
        <time>2026-05-26T22:06:09Z</time>
      </trkpt>
      <trkpt lat="23.064321" lon="113.27249">
        <time>2026-05-26T22:06:14Z</time>
      </trkpt>
      <trkpt lat="23.064327" lon="113.272593">
        <time>2026-05-26T22:06:19Z</time>
      </trkpt>
      <trkpt lat="23.064357" lon="113.272746">
        <time>2026-05-26T22:06:24Z</time>
      </trkpt>
      <trkpt lat="23.064377" lon="113.272845">
        <time>2026-05-26T22:06:29Z</time>
      </trkpt>
      <trkpt lat="23.064419" lon="113.272992">
        <time>2026-05-26T22:06:34Z</time>
      </trkpt>
      <trkpt lat="23.064448" lon="113.273086">
        <time>2026-05-26T22:06:39Z</time>
      </trkpt>
      <trkpt lat="23.064447" lon="113.273227">
        <time>2026-05-26T22:06:44Z</time>
      </trkpt>
      <trkpt lat="23.064396" lon="113.273311">
        <time>2026-05-26T22:06:49Z</time>
      </trkpt>
      <trkpt lat="23.064262" lon="113.273405">
        <time>2026-05-26T22:06:54Z</time>
      </trkpt>
      <trkpt lat="23.064173" lon="113.273469">
        <time>2026-05-26T22:06:59Z</time>
      </trkpt>
      <trkpt lat="23.064044" lon="113.273568">
        <time>2026-05-26T22:07:04Z</time>
      </trkpt>
      <trkpt lat="23.063967" lon="113.273643">
        <time>2026-05-26T22:07:09Z</time>
      </trkpt>
      <trkpt lat="23.063871" lon="113.273771">
        <time>2026-05-26T22:07:14Z</time>
      </trkpt>
      <trkpt lat="23.063816" lon="113.273865">
        <time>2026-05-26T22:07:19Z</time>
      </trkpt>
      <trkpt lat="23.063743" lon="113.274001">
        <time>2026-05-26T22:07:24Z</time>
      </trkpt>
      <trkpt lat="23.063685" lon="113.274079">
        <time>2026-05-26T22:07:29Z</time>
      </trkpt>
      <trkpt lat="23.063556" lon="113.274117">
        <time>2026-05-26T22:07:34Z</time>
      </trkpt>
      <trkpt lat="23.063462" lon="113.274079">
        <time>2026-05-26T22:07:39Z</time>
      </trkpt>
      <trkpt lat="23.063363" lon="113.274166">
        <time>2026-05-26T22:07:44Z</time>
      </trkpt>
      <trkpt lat="23.063324" lon="113.274274">
        <time>2026-05-26T22:07:49Z</time>
      </trkpt>
      <trkpt lat="23.063274" lon="113.274429">
        <time>2026-05-26T22:07:54Z</time>
      </trkpt>
      <trkpt lat="23.063241" lon="113.274534">
        <time>2026-05-26T22:07:59Z</time>
      </trkpt>
      <trkpt lat="23.06319" lon="113.274689">
        <time>2026-05-26T22:08:04Z</time>
      </trkpt>
      <trkpt lat="23.063155" lon="113.274792">
        <time>2026-05-26T22:08:09Z</time>
      </trkpt>
      <trkpt lat="23.063099" lon="113.274943">
        <time>2026-05-26T22:08:14Z</time>
      </trkpt>
      <trkpt lat="23.063064" lon="113.27504">
        <time>2026-05-26T22:08:19Z</time>
      </trkpt>
      <trkpt lat="23.06299" lon="113.275168">
        <time>2026-05-26T22:08:24Z</time>
      </trkpt>
      <trkpt lat="23.062928" lon="113.27524">
        <time>2026-05-26T22:08:29Z</time>
      </trkpt>
      <trkpt lat="23.06293" lon="113.275391">
        <time>2026-05-26T22:08:34Z</time>
      </trkpt>
      <trkpt lat="23.062931" lon="113.275492">
        <time>2026-05-26T22:08:39Z</time>
      </trkpt>
      <trkpt lat="23.062834" lon="113.275614">
        <time>2026-05-26T22:08:44Z</time>
      </trkpt>
      <trkpt lat="23.062758" lon="113.275684">
        <time>2026-05-26T22:08:49Z</time>
      </trkpt>
      <trkpt lat="23.062646" lon="113.275806">
        <time>2026-05-26T22:08:54Z</time>
      </trkpt>
      <trkpt lat="23.062576" lon="113.275893">
        <time>2026-05-26T22:08:59Z</time>
      </trkpt>
      <trkpt lat="23.062486" lon="113.276033">
        <time>2026-05-26T22:09:04Z</time>
      </trkpt>
      <trkpt lat="23.062438" lon="113.276129">
        <time>2026-05-26T22:09:09Z</time>
      </trkpt>
      <trkpt lat="23.062376" lon="113.276273">
        <time>2026-05-26T22:09:14Z</time>
      </trkpt>
      <trkpt lat="23.062342" lon="113.276368">
        <time>2026-05-26T22:09:19Z</time>
      </trkpt>
      <trkpt lat="23.062286" lon="113.276516">
        <time>2026-05-26T22:09:24Z</time>
      </trkpt>
      <trkpt lat="23.062246" lon="113.276613">
        <time>2026-05-26T22:09:29Z</time>
      </trkpt>
      <trkpt lat="23.062198" lon="113.276765">
        <time>2026-05-26T22:09:34Z</time>
      </trkpt>
      <trkpt lat="23.062158" lon="113.276865">
        <time>2026-05-26T22:09:39Z</time>
      </trkpt>
      <trkpt lat="23.062099" lon="113.277021">
        <time>2026-05-26T22:09:44Z</time>
      </trkpt>
      <trkpt lat="23.062065" lon="113.277123">
        <time>2026-05-26T22:09:49Z</time>
      </trkpt>
      <trkpt lat="23.062008" lon="113.277288">
        <time>2026-05-26T22:09:54Z</time>
      </trkpt>
      <trkpt lat="23.061969" lon="113.277393">
        <time>2026-05-26T22:09:59Z</time>
      </trkpt>
      <trkpt lat="23.061908" lon="113.277545">
        <time>2026-05-26T22:10:04Z</time>
      </trkpt>
      <trkpt lat="23.061874" lon="113.277648">
        <time>2026-05-26T22:10:09Z</time>
      </trkpt>
      <trkpt lat="23.061838" lon="113.277799">
        <time>2026-05-26T22:10:14Z</time>
      </trkpt>
      <trkpt lat="23.061833" lon="113.277905">
        <time>2026-05-26T22:10:19Z</time>
      </trkpt>
      <trkpt lat="23.061837" lon="113.278059">
        <time>2026-05-26T22:10:24Z</time>
      </trkpt>
      <trkpt lat="23.061843" lon="113.278156">
        <time>2026-05-26T22:10:29Z</time>
      </trkpt>
      <trkpt lat="23.061842" lon="113.2783">
        <time>2026-05-26T22:10:34Z</time>
      </trkpt>
      <trkpt lat="23.061848" lon="113.2784">
        <time>2026-05-26T22:10:39Z</time>
      </trkpt>
      <trkpt lat="23.061865" lon="113.278551">
        <time>2026-05-26T22:10:44Z</time>
      </trkpt>
      <trkpt lat="23.061859" lon="113.278653">
        <time>2026-05-26T22:10:49Z</time>
      </trkpt>
      <trkpt lat="23.061796" lon="113.278748">
        <time>2026-05-26T22:10:54Z</time>
      </trkpt>
      <trkpt lat="23.061734" lon="113.2788">
        <time>2026-05-26T22:10:59Z</time>
      </trkpt>
      <trkpt lat="23.061676" lon="113.278944">
        <time>2026-05-26T22:11:04Z</time>
      </trkpt>
      <trkpt lat="23.06164" lon="113.279042">
        <time>2026-05-26T22:11:09Z</time>
      </trkpt>
      <trkpt lat="23.061586" lon="113.279185">
        <time>2026-05-26T22:11:14Z</time>
      </trkpt>
      <trkpt lat="23.061548" lon="113.279277">
        <time>2026-05-26T22:11:19Z</time>
      </trkpt>
      <trkpt lat="23.061493" lon="113.279422">
        <time>2026-05-26T22:11:24Z</time>
      </trkpt>
      <trkpt lat="23.061455" lon="113.279521">
        <time>2026-05-26T22:11:29Z</time>
      </trkpt>
      <trkpt lat="23.061392" lon="113.279665">
        <time>2026-05-26T22:11:34Z</time>
      </trkpt>
      <trkpt lat="23.061351" lon="113.279761">
        <time>2026-05-26T22:11:39Z</time>
      </trkpt>
      <trkpt lat="23.061286" lon="113.279911">
        <time>2026-05-26T22:11:44Z</time>
      </trkpt>
      <trkpt lat="23.061238" lon="113.280012">
        <time>2026-05-26T22:11:49Z</time>
      </trkpt>
      <trkpt lat="23.061173" lon="113.280164">
        <time>2026-05-26T22:11:54Z</time>
      </trkpt>
      <trkpt lat="23.061133" lon="113.280262">
        <time>2026-05-26T22:11:59Z</time>
      </trkpt>
      <trkpt lat="23.061068" lon="113.280409">
        <time>2026-05-26T22:12:04Z</time>
      </trkpt>
      <trkpt lat="23.061027" lon="113.280506">
        <time>2026-05-26T22:12:09Z</time>
      </trkpt>
      <trkpt lat="23.060966" lon="113.280642">
        <time>2026-05-26T22:12:14Z</time>
      </trkpt>
      <trkpt lat="23.060922" lon="113.280734">
        <time>2026-05-26T22:12:19Z</time>
      </trkpt>
      <trkpt lat="23.060864" lon="113.280877">
        <time>2026-05-26T22:12:24Z</time>
      </trkpt>
      <trkpt lat="23.060825" lon="113.280973">
        <time>2026-05-26T22:12:29Z</time>
      </trkpt>
      <trkpt lat="23.060765" lon="113.281112">
        <time>2026-05-26T22:12:34Z</time>
      </trkpt>
      <trkpt lat="23.060723" lon="113.281209">
        <time>2026-05-26T22:12:39Z</time>
      </trkpt>
      <trkpt lat="23.060662" lon="113.281355">
        <time>2026-05-26T22:12:44Z</time>
      </trkpt>
      <trkpt lat="23.060628" lon="113.281452">
        <time>2026-05-26T22:12:49Z</time>
      </trkpt>
      <trkpt lat="23.060578" lon="113.281599">
        <time>2026-05-26T22:12:54Z</time>
      </trkpt>
      <trkpt lat="23.060541" lon="113.281696">
        <time>2026-05-26T22:12:59Z</time>
      </trkpt>
      <trkpt lat="23.060481" lon="113.281843">
        <time>2026-05-26T22:13:04Z</time>
      </trkpt>
      <trkpt lat="23.060433" lon="113.281941">
        <time>2026-05-26T22:13:09Z</time>
      </trkpt>
      <trkpt lat="23.060365" lon="113.282092">
        <time>2026-05-26T22:13:14Z</time>
      </trkpt>
      <trkpt lat="23.060327" lon="113.282192">
        <time>2026-05-26T22:13:19Z</time>
      </trkpt>
      <trkpt lat="23.060263" lon="113.282339">
        <time>2026-05-26T22:13:24Z</time>
      </trkpt>
      <trkpt lat="23.06022" lon="113.282434">
        <time>2026-05-26T22:13:29Z</time>
      </trkpt>
      <trkpt lat="23.060154" lon="113.282576">
        <time>2026-05-26T22:13:34Z</time>
      </trkpt>
      <trkpt lat="23.06011" lon="113.282667">
        <time>2026-05-26T22:13:39Z</time>
      </trkpt>
      <trkpt lat="23.060049" lon="113.282807">
        <time>2026-05-26T22:13:44Z</time>
      </trkpt>
      <trkpt lat="23.060006" lon="113.282906">
        <time>2026-05-26T22:13:49Z</time>
      </trkpt>
      <trkpt lat="23.059946" lon="113.283054">
        <time>2026-05-26T22:13:54Z</time>
      </trkpt>
      <trkpt lat="23.059905" lon="113.283148">
        <time>2026-05-26T22:13:59Z</time>
      </trkpt>
      <trkpt lat="23.059839" lon="113.283287">
        <time>2026-05-26T22:14:04Z</time>
      </trkpt>
      <trkpt lat="23.059793" lon="113.283387">
        <time>2026-05-26T22:14:09Z</time>
      </trkpt>
      <trkpt lat="23.059728" lon="113.283539">
        <time>2026-05-26T22:14:14Z</time>
      </trkpt>
      <trkpt lat="23.059681" lon="113.283633">
        <time>2026-05-26T22:14:19Z</time>
      </trkpt>
      <trkpt lat="23.059615" lon="113.283776">
        <time>2026-05-26T22:14:24Z</time>
      </trkpt>
      <trkpt lat="23.059573" lon="113.283875">
        <time>2026-05-26T22:14:29Z</time>
      </trkpt>
      <trkpt lat="23.059507" lon="113.284024">
        <time>2026-05-26T22:14:34Z</time>
      </trkpt>
      <trkpt lat="23.059454" lon="113.284124">
        <time>2026-05-26T22:14:39Z</time>
      </trkpt>
      <trkpt lat="23.059381" lon="113.284276">
        <time>2026-05-26T22:14:44Z</time>
      </trkpt>
      <trkpt lat="23.059341" lon="113.284377">
        <time>2026-05-26T22:14:49Z</time>
      </trkpt>
      <trkpt lat="23.059291" lon="113.28453">
        <time>2026-05-26T22:14:54Z</time>
      </trkpt>
      <trkpt lat="23.05928" lon="113.284635">
        <time>2026-05-26T22:14:59Z</time>
      </trkpt>
      <trkpt lat="23.059325" lon="113.284729">
        <time>2026-05-26T22:15:04Z</time>
      </trkpt>
      <trkpt lat="23.059392" lon="113.28466">
        <time>2026-05-26T22:15:09Z</time>
      </trkpt>
      <trkpt lat="23.059458" lon="113.284501">
        <time>2026-05-26T22:15:14Z</time>
      </trkpt>
      <trkpt lat="23.059501" lon="113.284404">
        <time>2026-05-26T22:15:19Z</time>
      </trkpt>
      <trkpt lat="23.059565" lon="113.284266">
        <time>2026-05-26T22:15:24Z</time>
      </trkpt>
      <trkpt lat="23.05961" lon="113.284166">
        <time>2026-05-26T22:15:29Z</time>
      </trkpt>
      <trkpt lat="23.059674" lon="113.284013">
        <time>2026-05-26T22:15:34Z</time>
      </trkpt>
      <trkpt lat="23.059716" lon="113.283914">
        <time>2026-05-26T22:15:39Z</time>
      </trkpt>
      <trkpt lat="23.059787" lon="113.28377">
        <time>2026-05-26T22:15:44Z</time>
      </trkpt>
      <trkpt lat="23.059831" lon="113.283676">
        <time>2026-05-26T22:15:49Z</time>
      </trkpt>
      <trkpt lat="23.059897" lon="113.283534">
        <time>2026-05-26T22:15:54Z</time>
      </trkpt>
      <trkpt lat="23.059943" lon="113.283441">
        <time>2026-05-26T22:15:59Z</time>
      </trkpt>
      <trkpt lat="23.060004" lon="113.283298">
        <time>2026-05-26T22:16:04Z</time>
      </trkpt>
      <trkpt lat="23.060051" lon="113.283202">
        <time>2026-05-26T22:16:09Z</time>
      </trkpt>
      <trkpt lat="23.060123" lon="113.283052">
        <time>2026-05-26T22:16:14Z</time>
      </trkpt>
      <trkpt lat="23.060164" lon="113.282949">
        <time>2026-05-26T22:16:19Z</time>
      </trkpt>
      <trkpt lat="23.060218" lon="113.282798">
        <time>2026-05-26T22:16:24Z</time>
      </trkpt>
      <trkpt lat="23.060251" lon="113.282697">
        <time>2026-05-26T22:16:29Z</time>
      </trkpt>
      <trkpt lat="23.060305" lon="113.282554">
        <time>2026-05-26T22:16:34Z</time>
      </trkpt>
      <trkpt lat="23.060341" lon="113.282456">
        <time>2026-05-26T22:16:39Z</time>
      </trkpt>
      <trkpt lat="23.06039" lon="113.282311">
        <time>2026-05-26T22:16:44Z</time>
      </trkpt>
      <trkpt lat="23.060423" lon="113.282215">
        <time>2026-05-26T22:16:49Z</time>
      </trkpt>
      <trkpt lat="23.060476" lon="113.282064">
        <time>2026-05-26T22:16:54Z</time>
      </trkpt>
      <trkpt lat="23.060513" lon="113.28196">
        <time>2026-05-26T22:16:59Z</time>
      </trkpt>
      <trkpt lat="23.060571" lon="113.28181">
        <time>2026-05-26T22:17:04Z</time>
      </trkpt>
      <trkpt lat="23.060613" lon="113.281716">
        <time>2026-05-26T22:17:09Z</time>
      </trkpt>
      <trkpt lat="23.060675" lon="113.281574">
        <time>2026-05-26T22:17:14Z</time>
      </trkpt>
      <trkpt lat="23.060725" lon="113.28148">
        <time>2026-05-26T22:17:19Z</time>
      </trkpt>
      <trkpt lat="23.060787" lon="113.281366">
        <time>2026-05-26T22:17:24Z</time>
      </trkpt>
      <trkpt lat="23.060853" lon="113.281222">
        <time>2026-05-26T22:17:29Z</time>
      </trkpt>
      <trkpt lat="23.060894" lon="113.28112">
        <time>2026-05-26T22:17:34Z</time>
      </trkpt>
      <trkpt lat="23.060958" lon="113.28097">
        <time>2026-05-26T22:17:39Z</time>
      </trkpt>
      <trkpt lat="23.061007" lon="113.280872">
        <time>2026-05-26T22:17:44Z</time>
      </trkpt>
      <trkpt lat="23.061083" lon="113.280726">
        <time>2026-05-26T22:17:49Z</time>
      </trkpt>
      <trkpt lat="23.061136" lon="113.280627">
        <time>2026-05-26T22:17:54Z</time>
      </trkpt>
      <trkpt lat="23.061205" lon="113.280471">
        <time>2026-05-26T22:17:59Z</time>
      </trkpt>
      <trkpt lat="23.061248" lon="113.280365">
        <time>2026-05-26T22:18:04Z</time>
      </trkpt>
      <trkpt lat="23.061316" lon="113.280215">
        <time>2026-05-26T22:18:09Z</time>
      </trkpt>
      <trkpt lat="23.061362" lon="113.280119">
        <time>2026-05-26T22:18:14Z</time>
      </trkpt>
      <trkpt lat="23.061412" lon="113.279972">
        <time>2026-05-26T22:18:19Z</time>
      </trkpt>
      <trkpt lat="23.061448" lon="113.279877">
        <time>2026-05-26T22:18:24Z</time>
      </trkpt>
      <trkpt lat="23.0615" lon="113.279734">
        <time>2026-05-26T22:18:29Z</time>
      </trkpt>
      <trkpt lat="23.061534" lon="113.279639">
        <time>2026-05-26T22:18:34Z</time>
      </trkpt>
      <trkpt lat="23.06159" lon="113.279492">
        <time>2026-05-26T22:18:39Z</time>
      </trkpt>
      <trkpt lat="23.061629" lon="113.279395">
        <time>2026-05-26T22:18:44Z</time>
      </trkpt>
      <trkpt lat="23.061688" lon="113.279249">
        <time>2026-05-26T22:18:49Z</time>
      </trkpt>
      <trkpt lat="23.061732" lon="113.279152">
        <time>2026-05-26T22:18:54Z</time>
      </trkpt>
      <trkpt lat="23.061828" lon="113.279017">
        <time>2026-05-26T22:18:59Z</time>
      </trkpt>
      <trkpt lat="23.061894" lon="113.278929">
        <time>2026-05-26T22:19:04Z</time>
      </trkpt>
      <trkpt lat="23.061958" lon="113.278776">
        <time>2026-05-26T22:19:09Z</time>
      </trkpt>
      <trkpt lat="23.061973" lon="113.278667">
        <time>2026-05-26T22:19:14Z</time>
      </trkpt>
      <trkpt lat="23.061972" lon="113.278499">
        <time>2026-05-26T22:19:19Z</time>
      </trkpt>
      <trkpt lat="23.061968" lon="113.278388">
        <time>2026-05-26T22:19:24Z</time>
      </trkpt>
      <trkpt lat="23.061957" lon="113.278223">
        <time>2026-05-26T22:19:29Z</time>
      </trkpt>
      <trkpt lat="23.061951" lon="113.278111">
        <time>2026-05-26T22:19:34Z</time>
      </trkpt>
      <trkpt lat="23.061944" lon="113.27794">
        <time>2026-05-26T22:19:39Z</time>
      </trkpt>
      <trkpt lat="23.061946" lon="113.277827">
        <time>2026-05-26T22:19:44Z</time>
      </trkpt>
      <trkpt lat="23.061982" lon="113.277661">
        <time>2026-05-26T22:19:49Z</time>
      </trkpt>
      <trkpt lat="23.062021" lon="113.277555">
        <time>2026-05-26T22:19:54Z</time>
      </trkpt>
      <trkpt lat="23.06208" lon="113.277404">
        <time>2026-05-26T22:19:59Z</time>
      </trkpt>
      <trkpt lat="23.06212" lon="113.277305">
        <time>2026-05-26T22:20:04Z</time>
      </trkpt>
      <trkpt lat="23.062178" lon="113.277149">
        <time>2026-05-26T22:20:09Z</time>
      </trkpt>
      <trkpt lat="23.062218" lon="113.277045">
        <time>2026-05-26T22:20:14Z</time>
      </trkpt>
      <trkpt lat="23.062279" lon="113.27689">
        <time>2026-05-26T22:20:19Z</time>
      </trkpt>
      <trkpt lat="23.062313" lon="113.276783">
        <time>2026-05-26T22:20:24Z</time>
      </trkpt>
      <trkpt lat="23.062369" lon="113.276626">
        <time>2026-05-26T22:20:29Z</time>
      </trkpt>
      <trkpt lat="23.062408" lon="113.27652">
        <time>2026-05-26T22:20:34Z</time>
      </trkpt>
      <trkpt lat="23.062462" lon="113.276362">
        <time>2026-05-26T22:20:39Z</time>
      </trkpt>
      <trkpt lat="23.062501" lon="113.276258">
        <time>2026-05-26T22:20:44Z</time>
      </trkpt>
      <trkpt lat="23.062577" lon="113.276105">
        <time>2026-05-26T22:20:49Z</time>
      </trkpt>
      <trkpt lat="23.062634" lon="113.276009">
        <time>2026-05-26T22:20:54Z</time>
      </trkpt>
      <trkpt lat="23.062732" lon="113.27588">
        <time>2026-05-26T22:20:59Z</time>
      </trkpt>
      <trkpt lat="23.062807" lon="113.275798">
        <time>2026-05-26T22:21:04Z</time>
      </trkpt>
      <trkpt lat="23.062926" lon="113.275688">
        <time>2026-05-26T22:21:09Z</time>
      </trkpt>
      <trkpt lat="23.062999" lon="113.275609">
        <time>2026-05-26T22:21:14Z</time>
      </trkpt>
      <trkpt lat="23.063091" lon="113.275481">
        <time>2026-05-26T22:21:19Z</time>
      </trkpt>
      <trkpt lat="23.063146" lon="113.275385">
        <time>2026-05-26T22:21:24Z</time>
      </trkpt>
      <trkpt lat="23.063231" lon="113.275242">
        <time>2026-05-26T22:21:29Z</time>
      </trkpt>
      <trkpt lat="23.063285" lon="113.275147">
        <time>2026-05-26T22:21:34Z</time>
      </trkpt>
      <trkpt lat="23.063358" lon="113.274995">
        <time>2026-05-26T22:21:39Z</time>
      </trkpt>
      <trkpt lat="23.0634" lon="113.274894">
        <time>2026-05-26T22:21:44Z</time>
      </trkpt>
      <trkpt lat="23.063454" lon="113.274743">
        <time>2026-05-26T22:21:49Z</time>
      </trkpt>
      <trkpt lat="23.063488" lon="113.274645">
        <time>2026-05-26T22:21:54Z</time>
      </trkpt>
      <trkpt lat="23.063541" lon="113.27449">
        <time>2026-05-26T22:21:59Z</time>
      </trkpt>
      <trkpt lat="23.063588" lon="113.274392">
        <time>2026-05-26T22:22:04Z</time>
      </trkpt>
      <trkpt lat="23.06367" lon="113.274254">
        <time>2026-05-26T22:22:09Z</time>
      </trkpt>
      <trkpt lat="23.063754" lon="113.274183">
        <time>2026-05-26T22:22:14Z</time>
      </trkpt>
      <trkpt lat="23.063861" lon="113.274056">
        <time>2026-05-26T22:22:19Z</time>
      </trkpt>
      <trkpt lat="23.063915" lon="113.273958">
        <time>2026-05-26T22:22:24Z</time>
      </trkpt>
      <trkpt lat="23.063992" lon="113.273817">
        <time>2026-05-26T22:22:29Z</time>
      </trkpt>
      <trkpt lat="23.064067" lon="113.27373">
        <time>2026-05-26T22:22:34Z</time>
      </trkpt>
      <trkpt lat="23.064196" lon="113.273624">
        <time>2026-05-26T22:22:39Z</time>
      </trkpt>
      <trkpt lat="23.064281" lon="113.273559">
        <time>2026-05-26T22:22:44Z</time>
      </trkpt>
      <trkpt lat="23.064412" lon="113.273454">
        <time>2026-05-26T22:22:49Z</time>
      </trkpt>
      <trkpt lat="23.064493" lon="113.273383">
        <time>2026-05-26T22:22:54Z</time>
      </trkpt>
      <trkpt lat="23.064574" lon="113.273242">
        <time>2026-05-26T22:22:59Z</time>
      </trkpt>
      <trkpt lat="23.064584" lon="113.273126">
        <time>2026-05-26T22:23:04Z</time>
      </trkpt>
      <trkpt lat="23.064537" lon="113.272959">
        <time>2026-05-26T22:23:09Z</time>
      </trkpt>
      <trkpt lat="23.064496" lon="113.272849">
        <time>2026-05-26T22:23:14Z</time>
      </trkpt>
      <trkpt lat="23.064453" lon="113.272683">
        <time>2026-05-26T22:23:19Z</time>
      </trkpt>
      <trkpt lat="23.064459" lon="113.272575">
        <time>2026-05-26T22:23:24Z</time>
      </trkpt>
      <trkpt lat="23.064537" lon="113.272412">
        <time>2026-05-26T22:23:29Z</time>
      </trkpt>
      <trkpt lat="23.064556" lon="113.272295">
        <time>2026-05-26T22:23:34Z</time>
      </trkpt>
      <trkpt lat="23.064593" lon="113.272128">
        <time>2026-05-26T22:23:39Z</time>
      </trkpt>
      <trkpt lat="23.06464" lon="113.272029">
        <time>2026-05-26T22:23:44Z</time>
      </trkpt>
      <trkpt lat="23.064722" lon="113.271888">
        <time>2026-05-26T22:23:49Z</time>
      </trkpt>
      <trkpt lat="23.064776" lon="113.271798">
        <time>2026-05-26T22:23:54Z</time>
      </trkpt>
      <trkpt lat="23.064843" lon="113.271654">
        <time>2026-05-26T22:23:59Z</time>
      </trkpt>
      <trkpt lat="23.064885" lon="113.271553">
        <time>2026-05-26T22:24:04Z</time>
      </trkpt>
      <trkpt lat="23.064961" lon="113.271408">
        <time>2026-05-26T22:24:09Z</time>
      </trkpt>
      <trkpt lat="23.065001" lon="113.271309">
        <time>2026-05-26T22:24:14Z</time>
      </trkpt>
      <trkpt lat="23.065069" lon="113.271156">
        <time>2026-05-26T22:24:19Z</time>
      </trkpt>
      <trkpt lat="23.065121" lon="113.271046">
        <time>2026-05-26T22:24:24Z</time>
      </trkpt>
      <trkpt lat="23.065193" lon="113.270888">
        <time>2026-05-26T22:24:29Z</time>
      </trkpt>
      <trkpt lat="23.065241" lon="113.270785">
        <time>2026-05-26T22:24:34Z</time>
      </trkpt>
      <trkpt lat="23.065312" lon="113.270635">
        <time>2026-05-26T22:24:39Z</time>
      </trkpt>
      <trkpt lat="23.065352" lon="113.270534">
        <time>2026-05-26T22:24:44Z</time>
      </trkpt>
      <trkpt lat="23.065414" lon="113.270381">
        <time>2026-05-26T22:24:49Z</time>
      </trkpt>
      <trkpt lat="23.06546" lon="113.270284">
        <time>2026-05-26T22:24:54Z</time>
      </trkpt>
      <trkpt lat="23.065521" lon="113.270143">
        <time>2026-05-26T22:24:59Z</time>
      </trkpt>
      <trkpt lat="23.065557" lon="113.270045">
        <time>2026-05-26T22:25:04Z</time>
      </trkpt>
      <trkpt lat="23.065607" lon="113.269901">
        <time>2026-05-26T22:25:09Z</time>
      </trkpt>
      <trkpt lat="23.065637" lon="113.269804">
        <time>2026-05-26T22:25:14Z</time>
      </trkpt>
      <trkpt lat="23.065688" lon="113.269651">
        <time>2026-05-26T22:25:19Z</time>
      </trkpt>
      <trkpt lat="23.065715" lon="113.269539">
        <time>2026-05-26T22:25:24Z</time>
      </trkpt>
      <trkpt lat="23.065751" lon="113.269368">
        <time>2026-05-26T22:25:29Z</time>
      </trkpt>
      <trkpt lat="23.065781" lon="113.26926">
        <time>2026-05-26T22:25:34Z</time>
      </trkpt>
      <trkpt lat="23.065829" lon="113.269103">
        <time>2026-05-26T22:25:39Z</time>
      </trkpt>
      <trkpt lat="23.065863" lon="113.269003">
        <time>2026-05-26T22:25:44Z</time>
      </trkpt>
      <trkpt lat="23.065927" lon="113.268851">
        <time>2026-05-26T22:25:49Z</time>
      </trkpt>
      <trkpt lat="23.065971" lon="113.268749">
        <time>2026-05-26T22:25:54Z</time>
      </trkpt>
      <trkpt lat="23.066045" lon="113.268605">
        <time>2026-05-26T22:25:59Z</time>
      </trkpt>
      <trkpt lat="23.066098" lon="113.268514">
        <time>2026-05-26T22:26:04Z</time>
      </trkpt>
      <trkpt lat="23.06619" lon="113.268377">
        <time>2026-05-26T22:26:09Z</time>
      </trkpt>
      <trkpt lat="23.066263" lon="113.268288">
        <time>2026-05-26T22:26:14Z</time>
      </trkpt>
      <trkpt lat="23.066388" lon="113.26818">
        <time>2026-05-26T22:26:19Z</time>
      </trkpt>
      <trkpt lat="23.066484" lon="113.268146">
        <time>2026-05-26T22:26:24Z</time>
      </trkpt>
      <trkpt lat="23.066631" lon="113.268148">
        <time>2026-05-26T22:26:29Z</time>
      </trkpt>
      <trkpt lat="23.066649" lon="113.268083">
        <time>2026-05-26T22:26:34Z</time>
      </trkpt>
      <trkpt lat="23.06651" lon="113.267973">
        <time>2026-05-26T22:26:39Z</time>
      </trkpt>
      <trkpt lat="23.066392" lon="113.267961">
        <time>2026-05-26T22:26:44Z</time>
      </trkpt>
      <trkpt lat="23.066234" lon="113.268022">
        <time>2026-05-26T22:26:49Z</time>
      </trkpt>
      <trkpt lat="23.066146" lon="113.268099">
        <time>2026-05-26T22:26:54Z</time>
      </trkpt>
      <trkpt lat="23.066035" lon="113.268232">
        <time>2026-05-26T22:26:59Z</time>
      </trkpt>
      <trkpt lat="23.065963" lon="113.268318">
        <time>2026-05-26T22:27:04Z</time>
      </trkpt>
      <trkpt lat="23.065865" lon="113.268463">
        <time>2026-05-26T22:27:09Z</time>
      </trkpt>
      <trkpt lat="23.065804" lon="113.268565">
        <time>2026-05-26T22:27:14Z</time>
      </trkpt>
      <trkpt lat="23.065728" lon="113.26872">
        <time>2026-05-26T22:27:19Z</time>
      </trkpt>
      <trkpt lat="23.065685" lon="113.268825">
        <time>2026-05-26T22:27:24Z</time>
      </trkpt>
      <trkpt lat="23.065624" lon="113.268979">
        <time>2026-05-26T22:27:29Z</time>
      </trkpt>
      <trkpt lat="23.065591" lon="113.269087">
        <time>2026-05-26T22:27:34Z</time>
      </trkpt>
      <trkpt lat="23.065553" lon="113.269254">
        <time>2026-05-26T22:27:39Z</time>
      </trkpt>
      <trkpt lat="23.06553" lon="113.269367">
        <time>2026-05-26T22:27:44Z</time>
      </trkpt>
      <trkpt lat="23.065495" lon="113.26954">
        <time>2026-05-26T22:27:49Z</time>
      </trkpt>
      <trkpt lat="23.065468" lon="113.269649">
        <time>2026-05-26T22:27:54Z</time>
      </trkpt>
      <trkpt lat="23.065431" lon="113.269812">
        <time>2026-05-26T22:27:59Z</time>
      </trkpt>
      <trkpt lat="23.065406" lon="113.269918">
        <time>2026-05-26T22:28:04Z</time>
      </trkpt>
      <trkpt lat="23.065349" lon="113.27008">
        <time>2026-05-26T22:28:09Z</time>
      </trkpt>
      <trkpt lat="23.065304" lon="113.270186">
        <time>2026-05-26T22:28:14Z</time>
      </trkpt>
      <trkpt lat="23.065229" lon="113.27034">
        <time>2026-05-26T22:28:19Z</time>
      </trkpt>
      <trkpt lat="23.065176" lon="113.270435">
        <time>2026-05-26T22:28:24Z</time>
      </trkpt>
      <trkpt lat="23.065099" lon="113.270582">
        <time>2026-05-26T22:28:29Z</time>
      </trkpt>
      <trkpt lat="23.065056" lon="113.270682">
        <time>2026-05-26T22:28:34Z</time>
      </trkpt>
      <trkpt lat="23.06499" lon="113.270831">
        <time>2026-05-26T22:28:39Z</time>
      </trkpt>
      <trkpt lat="23.064943" lon="113.270926">
        <time>2026-05-26T22:28:44Z</time>
      </trkpt>
      <trkpt lat="23.064874" lon="113.271074">
        <time>2026-05-26T22:28:49Z</time>
      </trkpt>
      <trkpt lat="23.064828" lon="113.271176">
        <time>2026-05-26T22:28:54Z</time>
      </trkpt>
      <trkpt lat="23.064759" lon="113.271322">
        <time>2026-05-26T22:28:59Z</time>
      </trkpt>
      <trkpt lat="23.064716" lon="113.271422">
        <time>2026-05-26T22:29:04Z</time>
      </trkpt>
      <trkpt lat="23.064646" lon="113.271572">
        <time>2026-05-26T22:29:09Z</time>
      </trkpt>
      <trkpt lat="23.064599" lon="113.271671">
        <time>2026-05-26T22:29:14Z</time>
      </trkpt>
      <trkpt lat="23.064527" lon="113.27182">
        <time>2026-05-26T22:29:19Z</time>
      </trkpt>
      <trkpt lat="23.064478" lon="113.271924">
        <time>2026-05-26T22:29:24Z</time>
      </trkpt>
      <trkpt lat="23.064408" lon="113.272081">
        <time>2026-05-26T22:29:29Z</time>
      </trkpt>
      <trkpt lat="23.064346" lon="113.27217">
        <time>2026-05-26T22:29:34Z</time>
      </trkpt>
      <trkpt lat="23.0643" lon="113.272329">
        <time>2026-05-26T22:29:39Z</time>
      </trkpt>
      <trkpt lat="23.064298" lon="113.272444">
        <time>2026-05-26T22:29:44Z</time>
      </trkpt>
      <trkpt lat="23.064298" lon="113.272606">
        <time>2026-05-26T22:29:49Z</time>
      </trkpt>
      <trkpt lat="23.064318" lon="113.272708">
        <time>2026-05-26T22:29:54Z</time>
      </trkpt>
      <trkpt lat="23.064368" lon="113.27286">
        <time>2026-05-26T22:29:59Z</time>
      </trkpt>
      <trkpt lat="23.064405" lon="113.272963">
        <time>2026-05-26T22:30:04Z</time>
      </trkpt>
      <trkpt lat="23.064445" lon="113.273121">
        <time>2026-05-26T22:30:09Z</time>
      </trkpt>
      <trkpt lat="23.06444" lon="113.273227">
        <time>2026-05-26T22:30:14Z</time>
      </trkpt>
      <trkpt lat="23.064363" lon="113.273361">
        <time>2026-05-26T22:30:19Z</time>
      </trkpt>
      <trkpt lat="23.064279" lon="113.273427">
        <time>2026-05-26T22:30:24Z</time>
      </trkpt>
      <trkpt lat="23.06415" lon="113.273525">
        <time>2026-05-26T22:30:29Z</time>
      </trkpt>
      <trkpt lat="23.064064" lon="113.273589">
        <time>2026-05-26T22:30:34Z</time>
      </trkpt>
      <trkpt lat="23.063941" lon="113.273695">
        <time>2026-05-26T22:30:39Z</time>
      </trkpt>
      <trkpt lat="23.063881" lon="113.273775">
        <time>2026-05-26T22:30:44Z</time>
      </trkpt>
      <trkpt lat="23.063811" lon="113.273908">
        <time>2026-05-26T22:30:49Z</time>
      </trkpt>
      <trkpt lat="23.063761" lon="113.273997">
        <time>2026-05-26T22:30:54Z</time>
      </trkpt>
      <trkpt lat="23.063649" lon="113.27411">
        <time>2026-05-26T22:30:59Z</time>
      </trkpt>
      <trkpt lat="23.063556" lon="113.27413">
        <time>2026-05-26T22:31:04Z</time>
      </trkpt>
      <trkpt lat="23.063422" lon="113.274088">
        <time>2026-05-26T22:31:09Z</time>
      </trkpt>
      <trkpt lat="23.063356" lon="113.274163">
        <time>2026-05-26T22:31:14Z</time>
      </trkpt>
      <trkpt lat="23.063295" lon="113.274336">
        <time>2026-05-26T22:31:19Z</time>
      </trkpt>
      <trkpt lat="23.06326" lon="113.274451">
        <time>2026-05-26T22:31:24Z</time>
      </trkpt>
      <trkpt lat="23.063207" lon="113.274621">
        <time>2026-05-26T22:31:29Z</time>
      </trkpt>
      <trkpt lat="23.063173" lon="113.274729">
        <time>2026-05-26T22:31:34Z</time>
      </trkpt>
      <trkpt lat="23.063114" lon="113.274878">
        <time>2026-05-26T22:31:39Z</time>
      </trkpt>
      <trkpt lat="23.063088" lon="113.274982">
        <time>2026-05-26T22:31:44Z</time>
      </trkpt>
      <trkpt lat="23.06305" lon="113.275139">
        <time>2026-05-26T22:31:49Z</time>
      </trkpt>
      <trkpt lat="23.062977" lon="113.275206">
        <time>2026-05-26T22:31:54Z</time>
      </trkpt>
      <trkpt lat="23.062901" lon="113.275338">
        <time>2026-05-26T22:31:59Z</time>
      </trkpt>
      <trkpt lat="23.06292" lon="113.275444">
        <time>2026-05-26T22:32:04Z</time>
      </trkpt>
      <trkpt lat="23.062874" lon="113.275588">
        <time>2026-05-26T22:32:09Z</time>
      </trkpt>
      <trkpt lat="23.062801" lon="113.275668">
        <time>2026-05-26T22:32:14Z</time>
      </trkpt>
      <trkpt lat="23.062689" lon="113.275779">
        <time>2026-05-26T22:32:19Z</time>
      </trkpt>
      <trkpt lat="23.062621" lon="113.275861">
        <time>2026-05-26T22:32:24Z</time>
      </trkpt>
      <trkpt lat="23.06252" lon="113.27599">
        <time>2026-05-26T22:32:29Z</time>
      </trkpt>
      <trkpt lat="23.062467" lon="113.276083">
        <time>2026-05-26T22:32:34Z</time>
      </trkpt>
      <trkpt lat="23.062399" lon="113.276229">
        <time>2026-05-26T22:32:39Z</time>
      </trkpt>
      <trkpt lat="23.062358" lon="113.276326">
        <time>2026-05-26T22:32:44Z</time>
      </trkpt>
      <trkpt lat="23.062302" lon="113.276476">
        <time>2026-05-26T22:32:49Z</time>
      </trkpt>
      <trkpt lat="23.062265" lon="113.276577">
        <time>2026-05-26T22:32:54Z</time>
      </trkpt>
      <trkpt lat="23.062202" lon="113.276723">
        <time>2026-05-26T22:32:59Z</time>
      </trkpt>
      <trkpt lat="23.062162" lon="113.276827">
        <time>2026-05-26T22:33:04Z</time>
      </trkpt>
      <trkpt lat="23.062107" lon="113.276988">
        <time>2026-05-26T22:33:09Z</time>
      </trkpt>
      <trkpt lat="23.062073" lon="113.277091">
        <time>2026-05-26T22:33:14Z</time>
      </trkpt>
      <trkpt lat="23.062013" lon="113.277251">
        <time>2026-05-26T22:33:19Z</time>
      </trkpt>
      <trkpt lat="23.061975" lon="113.277363">
        <time>2026-05-26T22:33:24Z</time>
      </trkpt>
      <trkpt lat="23.061908" lon="113.277525">
        <time>2026-05-26T22:33:29Z</time>
      </trkpt>
      <trkpt lat="23.061869" lon="113.27763">
        <time>2026-05-26T22:33:34Z</time>
      </trkpt>
      <trkpt lat="23.061831" lon="113.277791">
        <time>2026-05-26T22:33:39Z</time>
      </trkpt>
      <trkpt lat="23.061819" lon="113.2779">
        <time>2026-05-26T22:33:44Z</time>
      </trkpt>
      <trkpt lat="23.061823" lon="113.278059">
        <time>2026-05-26T22:33:49Z</time>
      </trkpt>
      <trkpt lat="23.061827" lon="113.278162">
        <time>2026-05-26T22:33:54Z</time>
      </trkpt>
      <trkpt lat="23.061835" lon="113.278312">
        <time>2026-05-26T22:33:59Z</time>
      </trkpt>
      <trkpt lat="23.061842" lon="113.278416">
        <time>2026-05-26T22:34:04Z</time>
      </trkpt>
      <trkpt lat="23.061856" lon="113.278573">
        <time>2026-05-26T22:34:09Z</time>
      </trkpt>
      <trkpt lat="23.061847" lon="113.27868">
        <time>2026-05-26T22:34:14Z</time>
      </trkpt>
      <trkpt lat="23.061763" lon="113.278759">
        <time>2026-05-26T22:34:19Z</time>
      </trkpt>
      <trkpt lat="23.061702" lon="113.278824">
        <time>2026-05-26T22:34:24Z</time>
      </trkpt>
      <trkpt lat="23.061648" lon="113.278987">
        <time>2026-05-26T22:34:29Z</time>
      </trkpt>
      <trkpt lat="23.061618" lon="113.279092">
        <time>2026-05-26T22:34:34Z</time>
      </trkpt>
      <trkpt lat="23.061566" lon="113.279241">
        <time>2026-05-26T22:34:39Z</time>
      </trkpt>
      <trkpt lat="23.061516" lon="113.279337">
        <time>2026-05-26T22:34:44Z</time>
      </trkpt>
      <trkpt lat="23.061449" lon="113.279496">
        <time>2026-05-26T22:34:49Z</time>
      </trkpt>
      <trkpt lat="23.06141" lon="113.279606">
        <time>2026-05-26T22:34:54Z</time>
      </trkpt>
      <trkpt lat="23.061346" lon="113.279764">
        <time>2026-05-26T22:34:59Z</time>
      </trkpt>
      <trkpt lat="23.061304" lon="113.279868">
        <time>2026-05-26T22:35:04Z</time>
      </trkpt>
      <trkpt lat="23.061244" lon="113.280027">
        <time>2026-05-26T22:35:09Z</time>
      </trkpt>
      <trkpt lat="23.061199" lon="113.280132">
        <time>2026-05-26T22:35:14Z</time>
      </trkpt>
      <trkpt lat="23.061119" lon="113.280285">
        <time>2026-05-26T22:35:19Z</time>
      </trkpt>
      <trkpt lat="23.061075" lon="113.28039">
        <time>2026-05-26T22:35:24Z</time>
      </trkpt>
      <trkpt lat="23.061014" lon="113.280543">
        <time>2026-05-26T22:35:29Z</time>
      </trkpt>
      <trkpt lat="23.060967" lon="113.280641">
        <time>2026-05-26T22:35:34Z</time>
      </trkpt>
      <trkpt lat="23.060897" lon="113.280789">
        <time>2026-05-26T22:35:39Z</time>
      </trkpt>
      <trkpt lat="23.060853" lon="113.280893">
        <time>2026-05-26T22:35:44Z</time>
      </trkpt>
      <trkpt lat="23.060792" lon="113.28105">
        <time>2026-05-26T22:35:49Z</time>
      </trkpt>
      <trkpt lat="23.060747" lon="113.281151">
        <time>2026-05-26T22:35:54Z</time>
      </trkpt>
      <trkpt lat="23.060683" lon="113.281301">
        <time>2026-05-26T22:35:59Z</time>
      </trkpt>
      <trkpt lat="23.060642" lon="113.281405">
        <time>2026-05-26T22:36:04Z</time>
      </trkpt>
      <trkpt lat="23.060578" lon="113.28156">
        <time>2026-05-26T22:36:09Z</time>
      </trkpt>
      <trkpt lat="23.060539" lon="113.281658">
        <time>2026-05-26T22:36:14Z</time>
      </trkpt>
      <trkpt lat="23.060479" lon="113.281809">
        <time>2026-05-26T22:36:19Z</time>
      </trkpt>
      <trkpt lat="23.060432" lon="113.281909">
        <time>2026-05-26T22:36:24Z</time>
      </trkpt>
      <trkpt lat="23.060361" lon="113.28206">
        <time>2026-05-26T22:36:29Z</time>
      </trkpt>
      <trkpt lat="23.060316" lon="113.282163">
        <time>2026-05-26T22:36:34Z</time>
      </trkpt>
      <trkpt lat="23.060254" lon="113.282316">
        <time>2026-05-26T22:36:39Z</time>
      </trkpt>
      <trkpt lat="23.060212" lon="113.282414">
        <time>2026-05-26T22:36:44Z</time>
      </trkpt>
      <trkpt lat="23.06015" lon="113.282563">
        <time>2026-05-26T22:36:49Z</time>
      </trkpt>
      <trkpt lat="23.060106" lon="113.282663">
        <time>2026-05-26T22:36:54Z</time>
      </trkpt>
      <trkpt lat="23.060051" lon="113.282807">
        <time>2026-05-26T22:36:59Z</time>
      </trkpt>
      <trkpt lat="23.060002" lon="113.282905">
        <time>2026-05-26T22:37:04Z</time>
      </trkpt>
      <trkpt lat="23.059924" lon="113.283054">
        <time>2026-05-26T22:37:09Z</time>
      </trkpt>
      <trkpt lat="23.059883" lon="113.283153">
        <time>2026-05-26T22:37:14Z</time>
      </trkpt>
      <trkpt lat="23.059825" lon="113.283304">
        <time>2026-05-26T22:37:19Z</time>
      </trkpt>
      <trkpt lat="23.059833" lon="113.283393">
        <time>2026-05-26T22:37:24Z</time>
      </trkpt>
      <trkpt lat="23.059947" lon="113.28336">
        <time>2026-05-26T22:37:29Z</time>
      </trkpt>
      <trkpt lat="23.060013" lon="113.283253">
        <time>2026-05-26T22:37:34Z</time>
      </trkpt>
      <trkpt lat="23.060089" lon="113.283087">
        <time>2026-05-26T22:37:39Z</time>
      </trkpt>
      <trkpt lat="23.06013" lon="113.282977">
        <time>2026-05-26T22:37:44Z</time>
      </trkpt>
      <trkpt lat="23.060201" lon="113.282831">
        <time>2026-05-26T22:37:49Z</time>
      </trkpt>
      <trkpt lat="23.060246" lon="113.282731">
        <time>2026-05-26T22:37:54Z</time>
      </trkpt>
      <trkpt lat="23.060308" lon="113.282575">
        <time>2026-05-26T22:37:59Z</time>
      </trkpt>
      <trkpt lat="23.060347" lon="113.282473">
        <time>2026-05-26T22:38:04Z</time>
      </trkpt>
      <trkpt lat="23.060409" lon="113.282326">
        <time>2026-05-26T22:38:09Z</time>
      </trkpt>
      <trkpt lat="23.060451" lon="113.282226">
        <time>2026-05-26T22:38:14Z</time>
      </trkpt>
      <trkpt lat="23.060511" lon="113.282068">
        <time>2026-05-26T22:38:19Z</time>
      </trkpt>
      <trkpt lat="23.060551" lon="113.281963">
        <time>2026-05-26T22:38:24Z</time>
      </trkpt>
      <trkpt lat="23.060614" lon="113.281807">
        <time>2026-05-26T22:38:29Z</time>
      </trkpt>
      <trkpt lat="23.060656" lon="113.281707">
        <time>2026-05-26T22:38:34Z</time>
      </trkpt>
      <trkpt lat="23.06072" lon="113.281557">
        <time>2026-05-26T22:38:39Z</time>
      </trkpt>
      <trkpt lat="23.060766" lon="113.281463">
        <time>2026-05-26T22:38:44Z</time>
      </trkpt>
      <trkpt lat="23.060838" lon="113.281316">
        <time>2026-05-26T22:38:49Z</time>
      </trkpt>
      <trkpt lat="23.060882" lon="113.281217">
        <time>2026-05-26T22:38:54Z</time>
      </trkpt>
      <trkpt lat="23.060945" lon="113.281067">
        <time>2026-05-26T22:38:59Z</time>
      </trkpt>
      <trkpt lat="23.060978" lon="113.280963">
        <time>2026-05-26T22:39:04Z</time>
      </trkpt>
      <trkpt lat="23.061036" lon="113.28081">
        <time>2026-05-26T22:39:09Z</time>
      </trkpt>
      <trkpt lat="23.061085" lon="113.280708">
        <time>2026-05-26T22:39:14Z</time>
      </trkpt>
      <trkpt lat="23.061158" lon="113.280551">
        <time>2026-05-26T22:39:19Z</time>
      </trkpt>
      <trkpt lat="23.061196" lon="113.280445">
        <time>2026-05-26T22:39:24Z</time>
      </trkpt>
      <trkpt lat="23.061246" lon="113.280287">
        <time>2026-05-26T22:39:29Z</time>
      </trkpt>
      <trkpt lat="23.061289" lon="113.280187">
        <time>2026-05-26T22:39:34Z</time>
      </trkpt>
      <trkpt lat="23.061356" lon="113.280047">
        <time>2026-05-26T22:39:39Z</time>
      </trkpt>
      <trkpt lat="23.061399" lon="113.279953">
        <time>2026-05-26T22:39:44Z</time>
      </trkpt>
      <trkpt lat="23.061467" lon="113.279805">
        <time>2026-05-26T22:39:49Z</time>
      </trkpt>
      <trkpt lat="23.061509" lon="113.279706">
        <time>2026-05-26T22:39:54Z</time>
      </trkpt>
      <trkpt lat="23.061565" lon="113.279554">
        <time>2026-05-26T22:39:59Z</time>
      </trkpt>
      <trkpt lat="23.061602" lon="113.279452">
        <time>2026-05-26T22:40:04Z</time>
      </trkpt>
      <trkpt lat="23.061659" lon="113.279301">
        <time>2026-05-26T22:40:09Z</time>
      </trkpt>
      <trkpt lat="23.061704" lon="113.279204">
        <time>2026-05-26T22:40:14Z</time>
      </trkpt>
      <trkpt lat="23.06179" lon="113.279062">
        <time>2026-05-26T22:40:19Z</time>
      </trkpt>
      <trkpt lat="23.061853" lon="113.278972">
        <time>2026-05-26T22:40:24Z</time>
      </trkpt>
      <trkpt lat="23.061941" lon="113.278832">
        <time>2026-05-26T22:40:29Z</time>
      </trkpt>
      <trkpt lat="23.061972" lon="113.278725">
        <time>2026-05-26T22:40:34Z</time>
      </trkpt>
      <trkpt lat="23.061975" lon="113.278554">
        <time>2026-05-26T22:40:39Z</time>
      </trkpt>
      <trkpt lat="23.061968" lon="113.278439">
        <time>2026-05-26T22:40:44Z</time>
      </trkpt>
      <trkpt lat="23.061961" lon="113.27827">
        <time>2026-05-26T22:40:49Z</time>
      </trkpt>
      <trkpt lat="23.061958" lon="113.278159">
        <time>2026-05-26T22:40:54Z</time>
      </trkpt>
      <trkpt lat="23.06195" lon="113.27799">
        <time>2026-05-26T22:40:59Z</time>
      </trkpt>
      <trkpt lat="23.061944" lon="113.277877">
        <time>2026-05-26T22:41:04Z</time>
      </trkpt>
      <trkpt lat="23.061959" lon="113.277705">
        <time>2026-05-26T22:41:09Z</time>
      </trkpt>
      <trkpt lat="23.061995" lon="113.277596">
        <time>2026-05-26T22:41:14Z</time>
      </trkpt>
      <trkpt lat="23.062057" lon="113.27744">
        <time>2026-05-26T22:41:19Z</time>
      </trkpt>
      <trkpt lat="23.062095" lon="113.277337">
        <time>2026-05-26T22:41:24Z</time>
      </trkpt>
      <trkpt lat="23.062156" lon="113.277183">
        <time>2026-05-26T22:41:29Z</time>
      </trkpt>
      <trkpt lat="23.062195" lon="113.277086">
        <time>2026-05-26T22:41:34Z</time>
      </trkpt>
      <trkpt lat="23.062252" lon="113.276938">
        <time>2026-05-26T22:41:39Z</time>
      </trkpt>
      <trkpt lat="23.062288" lon="113.276836">
        <time>2026-05-26T22:41:44Z</time>
      </trkpt>
      <trkpt lat="23.062339" lon="113.276689">
        <time>2026-05-26T22:41:49Z</time>
      </trkpt>
      <trkpt lat="23.062372" lon="113.276593">
        <time>2026-05-26T22:41:54Z</time>
      </trkpt>
      <trkpt lat="23.062426" lon="113.276443">
        <time>2026-05-26T22:41:59Z</time>
      </trkpt>
      <trkpt lat="23.062461" lon="113.276345">
        <time>2026-05-26T22:42:04Z</time>
      </trkpt>
      <trkpt lat="23.062518" lon="113.276202">
        <time>2026-05-26T22:42:09Z</time>
      </trkpt>
      <trkpt lat="23.062563" lon="113.276109">
        <time>2026-05-26T22:42:14Z</time>
      </trkpt>
      <trkpt lat="23.062647" lon="113.275977">
        <time>2026-05-26T22:42:19Z</time>
      </trkpt>
      <trkpt lat="23.062709" lon="113.275896">
        <time>2026-05-26T22:42:24Z</time>
      </trkpt>
      <trkpt lat="23.062811" lon="113.275782">
        <time>2026-05-26T22:42:29Z</time>
      </trkpt>
      <trkpt lat="23.062887" lon="113.275711">
        <time>2026-05-26T22:42:34Z</time>
      </trkpt>
      <trkpt lat="23.062991" lon="113.275602">
        <time>2026-05-26T22:42:39Z</time>
      </trkpt>
      <trkpt lat="23.063049" lon="113.275523">
        <time>2026-05-26T22:42:44Z</time>
      </trkpt>
      <trkpt lat="23.06313" lon="113.275395">
        <time>2026-05-26T22:42:49Z</time>
      </trkpt>
      <trkpt lat="23.063182" lon="113.275304">
        <time>2026-05-26T22:42:54Z</time>
      </trkpt>
      <trkpt lat="23.063266" lon="113.275162">
        <time>2026-05-26T22:42:59Z</time>
      </trkpt>
      <trkpt lat="23.063327" lon="113.275071">
        <time>2026-05-26T22:43:04Z</time>
      </trkpt>
      <trkpt lat="23.06341" lon="113.274939">
        <time>2026-05-26T22:43:09Z</time>
      </trkpt>
      <trkpt lat="23.063446" lon="113.274844">
        <time>2026-05-26T22:43:14Z</time>
      </trkpt>
      <trkpt lat="23.063504" lon="113.274695">
        <time>2026-05-26T22:43:19Z</time>
      </trkpt>
      <trkpt lat="23.063531" lon="113.274591">
        <time>2026-05-26T22:43:24Z</time>
      </trkpt>
      <trkpt lat="23.063566" lon="113.274435">
        <time>2026-05-26T22:43:29Z</time>
      </trkpt>
      <trkpt lat="23.063612" lon="113.274342">
        <time>2026-05-26T22:43:34Z</time>
      </trkpt>
      <trkpt lat="23.063716" lon="113.274229">
        <time>2026-05-26T22:43:39Z</time>
      </trkpt>
      <trkpt lat="23.063805" lon="113.274159">
        <time>2026-05-26T22:43:44Z</time>
      </trkpt>
      <trkpt lat="23.063898" lon="113.274033">
        <time>2026-05-26T22:43:49Z</time>
      </trkpt>
      <trkpt lat="23.063943" lon="113.273938">
        <time>2026-05-26T22:43:54Z</time>
      </trkpt>
      <trkpt lat="23.064023" lon="113.273794">
        <time>2026-05-26T22:43:59Z</time>
      </trkpt>
      <trkpt lat="23.064102" lon="113.273712">
        <time>2026-05-26T22:44:04Z</time>
      </trkpt>
      <trkpt lat="23.064232" lon="113.273612">
        <time>2026-05-26T22:44:09Z</time>
      </trkpt>
      <trkpt lat="23.064318" lon="113.273544">
        <time>2026-05-26T22:44:14Z</time>
      </trkpt>
      <trkpt lat="23.064442" lon="113.273431">
        <time>2026-05-26T22:44:19Z</time>
      </trkpt>
      <trkpt lat="23.064514" lon="113.273341">
        <time>2026-05-26T22:44:24Z</time>
      </trkpt>
      <trkpt lat="23.064578" lon="113.273182">
        <time>2026-05-26T22:44:29Z</time>
      </trkpt>
      <trkpt lat="23.064574" lon="113.273067">
        <time>2026-05-26T22:44:34Z</time>
      </trkpt>
      <trkpt lat="23.064522" lon="113.272903">
        <time>2026-05-26T22:44:39Z</time>
      </trkpt>
      <trkpt lat="23.064477" lon="113.2728">
        <time>2026-05-26T22:44:44Z</time>
      </trkpt>
      <trkpt lat="23.064448" lon="113.272639">
        <time>2026-05-26T22:44:49Z</time>
      </trkpt>
      <trkpt lat="23.064486" lon="113.272528">
        <time>2026-05-26T22:44:54Z</time>
      </trkpt>
      <trkpt lat="23.064559" lon="113.272361">
        <time>2026-05-26T22:44:59Z</time>
      </trkpt>
      <trkpt lat="23.064572" lon="113.272246">
        <time>2026-05-26T22:45:04Z</time>
      </trkpt>
      <trkpt lat="23.064613" lon="113.272086">
        <time>2026-05-26T22:45:09Z</time>
      </trkpt>
      <trkpt lat="23.06466" lon="113.271988">
        <time>2026-05-26T22:45:14Z</time>
      </trkpt>
      <trkpt lat="23.064735" lon="113.27185">
        <time>2026-05-26T22:45:19Z</time>
      </trkpt>
      <trkpt lat="23.064785" lon="113.271759">
        <time>2026-05-26T22:45:24Z</time>
      </trkpt>
      <trkpt lat="23.064865" lon="113.271618">
        <time>2026-05-26T22:45:29Z</time>
      </trkpt>
      <trkpt lat="23.064905" lon="113.271512">
        <time>2026-05-26T22:45:34Z</time>
      </trkpt>
      <trkpt lat="23.06498" lon="113.271365">
        <time>2026-05-26T22:45:39Z</time>
      </trkpt>
      <trkpt lat="23.06502" lon="113.271267">
        <time>2026-05-26T22:45:44Z</time>
      </trkpt>
      <trkpt lat="23.065084" lon="113.271124">
        <time>2026-05-26T22:45:49Z</time>
      </trkpt>
      <trkpt lat="23.065134" lon="113.271031">
        <time>2026-05-26T22:45:54Z</time>
      </trkpt>
      <trkpt lat="23.065192" lon="113.270881">
        <time>2026-05-26T22:45:59Z</time>
      </trkpt>
      <trkpt lat="23.065235" lon="113.270783">
        <time>2026-05-26T22:46:04Z</time>
      </trkpt>
      <trkpt lat="23.065305" lon="113.270637">
        <time>2026-05-26T22:46:09Z</time>
      </trkpt>
      <trkpt lat="23.065348" lon="113.27054">
        <time>2026-05-26T22:46:14Z</time>
      </trkpt>
      <trkpt lat="23.065413" lon="113.2704">
        <time>2026-05-26T22:46:19Z</time>
      </trkpt>
      <trkpt lat="23.065454" lon="113.270299">
        <time>2026-05-26T22:46:24Z</time>
      </trkpt>
      <trkpt lat="23.06552" lon="113.27015">
        <time>2026-05-26T22:46:29Z</time>
      </trkpt>
      <trkpt lat="23.065551" lon="113.27005">
        <time>2026-05-26T22:46:34Z</time>
      </trkpt>
      <trkpt lat="23.065595" lon="113.269894">
        <time>2026-05-26T22:46:39Z</time>
      </trkpt>
      <trkpt lat="23.065621" lon="113.269784">
        <time>2026-05-26T22:46:44Z</time>
      </trkpt>
      <trkpt lat="23.065664" lon="113.269622">
        <time>2026-05-26T22:46:49Z</time>
      </trkpt>
      <trkpt lat="23.06569" lon="113.269515">
        <time>2026-05-26T22:46:54Z</time>
      </trkpt>
      <trkpt lat="23.065727" lon="113.269358">
        <time>2026-05-26T22:46:59Z</time>
      </trkpt>
      <trkpt lat="23.065762" lon="113.269252">
        <time>2026-05-26T22:47:04Z</time>
      </trkpt>
      <trkpt lat="23.065811" lon="113.269094">
        <time>2026-05-26T22:47:09Z</time>
      </trkpt>
      <trkpt lat="23.06585" lon="113.268989">
        <time>2026-05-26T22:47:14Z</time>
      </trkpt>
      <trkpt lat="23.065916" lon="113.268837">
        <time>2026-05-26T22:47:19Z</time>
      </trkpt>
      <trkpt lat="23.065969" lon="113.268745">
        <time>2026-05-26T22:47:24Z</time>
      </trkpt>
      <trkpt lat="23.06605" lon="113.268608">
        <time>2026-05-26T22:47:29Z</time>
      </trkpt>
      <trkpt lat="23.066107" lon="113.268524">
        <time>2026-05-26T22:47:34Z</time>
      </trkpt>
      <trkpt lat="23.066195" lon="113.268393">
        <time>2026-05-26T22:47:39Z</time>
      </trkpt>
      <trkpt lat="23.066259" lon="113.268307">
        <time>2026-05-26T22:47:44Z</time>
      </trkpt>
      <trkpt lat="23.066373" lon="113.268194">
        <time>2026-05-26T22:47:49Z</time>
      </trkpt>
      <trkpt lat="23.066467" lon="113.268151">
        <time>2026-05-26T22:47:54Z</time>
      </trkpt>
      <trkpt lat="23.066621" lon="113.268154">
        <time>2026-05-26T22:47:59Z</time>
      </trkpt>
      <trkpt lat="23.066723" lon="113.268178">
        <time>2026-05-26T22:48:04Z</time>
      </trkpt>
      <trkpt lat="23.066877" lon="113.268174">
        <time>2026-05-26T22:48:09Z</time>
      </trkpt>
      <trkpt lat="23.066975" lon="113.268184">
        <time>2026-05-26T22:48:14Z</time>
      </trkpt>
      <trkpt lat="23.067102" lon="113.26825">
        <time>2026-05-26T22:48:19Z</time>
      </trkpt>
      <trkpt lat="23.067172" lon="113.268308">
        <time>2026-05-26T22:48:24Z</time>
      </trkpt>
      <trkpt lat="23.067292" lon="113.268392">
        <time>2026-05-26T22:48:29Z</time>
      </trkpt>
      <trkpt lat="23.067387" lon="113.268442">
        <time>2026-05-26T22:48:34Z</time>
      </trkpt>
      <trkpt lat="23.067537" lon="113.268508">
        <time>2026-05-26T22:48:39Z</time>
      </trkpt>
      <trkpt lat="23.067636" lon="113.268561">
        <time>2026-05-26T22:48:44Z</time>
      </trkpt>
      <trkpt lat="23.067773" lon="113.268633">
        <time>2026-05-26T22:48:49Z</time>
      </trkpt>
      <trkpt lat="23.067872" lon="113.26867">
        <time>2026-05-26T22:48:54Z</time>
      </trkpt>
      <trkpt lat="23.068007" lon="113.268743">
        <time>2026-05-26T22:48:59Z</time>
      </trkpt>
      <trkpt lat="23.068097" lon="113.268789">
        <time>2026-05-26T22:49:04Z</time>
      </trkpt>
      <trkpt lat="23.068241" lon="113.268846">
        <time>2026-05-26T22:49:09Z</time>
      </trkpt>
      <trkpt lat="23.068337" lon="113.268878">
        <time>2026-05-26T22:49:14Z</time>
      </trkpt>
      <trkpt lat="23.068472" lon="113.268946">
        <time>2026-05-26T22:49:19Z</time>
      </trkpt>
      <trkpt lat="23.068559" lon="113.269013">
        <time>2026-05-26T22:49:24Z</time>
      </trkpt>
      <trkpt lat="23.068682" lon="113.269085">
        <time>2026-05-26T22:49:29Z</time>
      </trkpt>
      <trkpt lat="23.068761" lon="113.269134">
        <time>2026-05-26T22:49:34Z</time>
      </trkpt>
      <trkpt lat="23.068902" lon="113.269194">
        <time>2026-05-26T22:49:39Z</time>
      </trkpt>
      <trkpt lat="23.068997" lon="113.269219">
        <time>2026-05-26T22:49:44Z</time>
      </trkpt>
      <trkpt lat="23.069132" lon="113.269275">
        <time>2026-05-26T22:49:49Z</time>
      </trkpt>
      <trkpt lat="23.06922" lon="113.269319">
        <time>2026-05-26T22:49:54Z</time>
      </trkpt>
      <trkpt lat="23.069346" lon="113.269421">
        <time>2026-05-26T22:49:59Z</time>
      </trkpt>
      <trkpt lat="23.069435" lon="113.269478">
        <time>2026-05-26T22:50:04Z</time>
      </trkpt>
      <trkpt lat="23.069561" lon="113.269541">
        <time>2026-05-26T22:50:09Z</time>
      </trkpt>
      <trkpt lat="23.069651" lon="113.269584">
        <time>2026-05-26T22:50:14Z</time>
      </trkpt>
      <trkpt lat="23.06978" lon="113.269644">
        <time>2026-05-26T22:50:19Z</time>
      </trkpt>
      <trkpt lat="23.069869" lon="113.269677">
        <time>2026-05-26T22:50:24Z</time>
      </trkpt>
      <trkpt lat="23.070004" lon="113.269759">
        <time>2026-05-26T22:50:29Z</time>
      </trkpt>
      <trkpt lat="23.070094" lon="113.269818">
        <time>2026-05-26T22:50:34Z</time>
      </trkpt>
      <trkpt lat="23.070219" lon="113.269908">
        <time>2026-05-26T22:50:39Z</time>
      </trkpt>
      <trkpt lat="23.070291" lon="113.269982">
        <time>2026-05-26T22:50:44Z</time>
      </trkpt>
      <trkpt lat="23.07044" lon="113.270051">
        <time>2026-05-26T22:50:49Z</time>
      </trkpt>
      <trkpt lat="23.070548" lon="113.270058">
        <time>2026-05-26T22:50:54Z</time>
      </trkpt>
      <trkpt lat="23.070688" lon="113.270085">
        <time>2026-05-26T22:50:59Z</time>
      </trkpt>
      <trkpt lat="23.070773" lon="113.27011">
        <time>2026-05-26T22:51:04Z</time>
      </trkpt>
      <trkpt lat="23.070886" lon="113.270175">
        <time>2026-05-26T22:51:09Z</time>
      </trkpt>
      <trkpt lat="23.070977" lon="113.270213">
        <time>2026-05-26T22:51:14Z</time>
      </trkpt>
      <trkpt lat="23.071116" lon="113.270272">
        <time>2026-05-26T22:51:19Z</time>
      </trkpt>
      <trkpt lat="23.071211" lon="113.270301">
        <time>2026-05-26T22:51:24Z</time>
      </trkpt>
      <trkpt lat="23.071359" lon="113.270353">
        <time>2026-05-26T22:51:29Z</time>
      </trkpt>
      <trkpt lat="23.071451" lon="113.270391">
        <time>2026-05-26T22:51:34Z</time>
      </trkpt>
      <trkpt lat="23.071586" lon="113.270475">
        <time>2026-05-26T22:51:39Z</time>
      </trkpt>
      <trkpt lat="23.071672" lon="113.270514">
        <time>2026-05-26T22:51:44Z</time>
      </trkpt>
      <trkpt lat="23.071789" lon="113.270567">
        <time>2026-05-26T22:51:49Z</time>
      </trkpt>
      <trkpt lat="23.07187" lon="113.270606">
        <time>2026-05-26T22:51:54Z</time>
      </trkpt>
      <trkpt lat="23.072006" lon="113.270691">
        <time>2026-05-26T22:51:59Z</time>
      </trkpt>
      <trkpt lat="23.072107" lon="113.270738">
        <time>2026-05-26T22:52:04Z</time>
      </trkpt>
      <trkpt lat="23.072248" lon="113.270806">
        <time>2026-05-26T22:52:09Z</time>
      </trkpt>
      <trkpt lat="23.072336" lon="113.270848">
        <time>2026-05-26T22:52:14Z</time>
      </trkpt>
      <trkpt lat="23.072468" lon="113.270904">
        <time>2026-05-26T22:52:19Z</time>
      </trkpt>
      <trkpt lat="23.072556" lon="113.270947">
        <time>2026-05-26T22:52:24Z</time>
      </trkpt>
      <trkpt lat="23.072693" lon="113.270991">
        <time>2026-05-26T22:52:29Z</time>
      </trkpt>
      <trkpt lat="23.072765" lon="113.271047">
        <time>2026-05-26T22:52:34Z</time>
      </trkpt>
      <trkpt lat="23.072869" lon="113.271105">
        <time>2026-05-26T22:52:39Z</time>
      </trkpt>
      <trkpt lat="23.072957" lon="113.271133">
        <time>2026-05-26T22:52:44Z</time>
      </trkpt>
      <trkpt lat="23.073106" lon="113.27116">
        <time>2026-05-26T22:52:49Z</time>
      </trkpt>
      <trkpt lat="23.073181" lon="113.271212">
        <time>2026-05-26T22:52:54Z</time>
      </trkpt>
      <trkpt lat="23.07331" lon="113.271297">
        <time>2026-05-26T22:52:59Z</time>
      </trkpt>
      <trkpt lat="23.073422" lon="113.27133">
        <time>2026-05-26T22:53:04Z</time>
      </trkpt>
      <trkpt lat="23.073563" lon="113.271424">
        <time>2026-05-26T22:53:09Z</time>
      </trkpt>
      <trkpt lat="23.073631" lon="113.271509">
        <time>2026-05-26T22:53:14Z</time>
      </trkpt>
      <trkpt lat="23.073769" lon="113.271604">
        <time>2026-05-26T22:53:19Z</time>
      </trkpt>
      <trkpt lat="23.073863" lon="113.271656">
        <time>2026-05-26T22:53:24Z</time>
      </trkpt>
      <trkpt lat="23.073997" lon="113.271736">
        <time>2026-05-26T22:53:29Z</time>
      </trkpt>
      <trkpt lat="23.074081" lon="113.271768">
        <time>2026-05-26T22:53:34Z</time>
      </trkpt>
      <trkpt lat="23.074078" lon="113.271854">
        <time>2026-05-26T22:53:39Z</time>
      </trkpt>
      <trkpt lat="23.074036" lon="113.271941">
        <time>2026-05-26T22:53:44Z</time>
      </trkpt>
      <trkpt lat="23.073972" lon="113.272077">
        <time>2026-05-26T22:53:49Z</time>
      </trkpt>
      <trkpt lat="23.073936" lon="113.27217">
        <time>2026-05-26T22:53:54Z</time>
      </trkpt>
      <trkpt lat="23.073875" lon="113.272305">
        <time>2026-05-26T22:53:59Z</time>
      </trkpt>
      <trkpt lat="23.073827" lon="113.272395">
        <time>2026-05-26T22:54:04Z</time>
      </trkpt>
      <trkpt lat="23.073755" lon="113.272541">
        <time>2026-05-26T22:54:09Z</time>
      </trkpt>
      <trkpt lat="23.073719" lon="113.272631">
        <time>2026-05-26T22:54:14Z</time>
      </trkpt>
      <trkpt lat="23.073668" lon="113.272768">
        <time>2026-05-26T22:54:19Z</time>
      </trkpt>
      <trkpt lat="23.073628" lon="113.272862">
        <time>2026-05-26T22:54:24Z</time>
      </trkpt>
      <trkpt lat="23.073649" lon="113.272959">
        <time>2026-05-26T22:54:29Z</time>
      </trkpt>
      <trkpt lat="23.073748" lon="113.272976">
        <time>2026-05-26T22:54:34Z</time>
      </trkpt>
      <trkpt lat="23.073909" lon="113.273029">
        <time>2026-05-26T22:54:39Z</time>
      </trkpt>
      <trkpt lat="23.073999" lon="113.273021">
        <time>2026-05-26T22:54:44Z</time>
      </trkpt>
      <trkpt lat="23.074056" lon="113.272875">
        <time>2026-05-26T22:54:49Z</time>
      </trkpt>
      <trkpt lat="23.07409" lon="113.272771">
        <time>2026-05-26T22:54:54Z</time>
      </trkpt>
      <trkpt lat="23.074142" lon="113.272633">
        <time>2026-05-26T22:54:59Z</time>
      </trkpt>
      <trkpt lat="23.074171" lon="113.272551">
        <time>2026-05-26T22:55:04Z</time>
      </trkpt>
      <trkpt lat="23.07423" lon="113.272424">
        <time>2026-05-26T22:55:09Z</time>
      </trkpt>
      <trkpt lat="23.074263" lon="113.272336">
        <time>2026-05-26T22:55:14Z</time>
      </trkpt>
      <trkpt lat="23.074304" lon="113.272186">
        <time>2026-05-26T22:55:19Z</time>
      </trkpt>
      <trkpt lat="23.074368" lon="113.272093">
        <time>2026-05-26T22:55:24Z</time>
      </trkpt>
      <trkpt lat="23.074466" lon="113.271994">
        <time>2026-05-26T22:55:29Z</time>
      </trkpt>
      <trkpt lat="23.074555" lon="113.272029">
        <time>2026-05-26T22:55:34Z</time>
      </trkpt>
      <trkpt lat="23.074688" lon="113.272098">
        <time>2026-05-26T22:55:39Z</time>
      </trkpt>
      <trkpt lat="23.074775" lon="113.272142">
        <time>2026-05-26T22:55:44Z</time>
      </trkpt>
      <trkpt lat="23.074905" lon="113.272219">
        <time>2026-05-26T22:55:49Z</time>
      </trkpt>
      <trkpt lat="23.074985" lon="113.272275">
        <time>2026-05-26T22:56:02Z</time>
      </trkpt>
    </trkseg>
  </trk>
</gpx>