<?xml version="1.0" encoding="UTF-8"?>
<gpx xmlns="http://www.topografix.com/GPX/1/1" xmlns:gpxtpx="http://www.garmin.com/xmlschemas/TrackPointExtension/v1" xmlns:xsi="http://www.w3.org/2001/XMLSchema-instance" xsi:schemaLocation="http://www.topografix.com/GPX/1/1 http://www.topografix.com/GPX/1/1/gpx.xsd" version="1.1" creator="gpx.py -- https://github.com/tkrajina/gpxpy">
  <trk>
    <name>gpx from joyrun</name>
    <trkseg>
      <trkpt lat="23.075397" lon="113.272537">
        <time>2026-06-01T21:54:27Z</time>
      </trkpt>
      <trkpt lat="23.075303" lon="113.272546">
        <time>2026-06-01T21:54:32Z</time>
      </trkpt>
      <trkpt lat="23.075201" lon="113.272559">
        <time>2026-06-01T21:54:37Z</time>
      </trkpt>
      <trkpt lat="23.075108" lon="113.27252">
        <time>2026-06-01T21:54:42Z</time>
      </trkpt>
      <trkpt lat="23.07504" lon="113.272504">
        <time>2026-06-01T21:54:47Z</time>
      </trkpt>
      <trkpt lat="23.074921" lon="113.272477">
        <time>2026-06-01T21:54:52Z</time>
      </trkpt>
      <trkpt lat="23.074815" lon="113.272447">
        <time>2026-06-01T21:54:57Z</time>
      </trkpt>
      <trkpt lat="23.074676" lon="113.272274">
        <time>2026-06-01T21:55:02Z</time>
      </trkpt>
      <trkpt lat="23.074595" lon="113.272213">
        <time>2026-06-01T21:55:07Z</time>
      </trkpt>
      <trkpt lat="23.074465" lon="113.27216">
        <time>2026-06-01T21:55:12Z</time>
      </trkpt>
      <trkpt lat="23.074364" lon="113.272153">
        <time>2026-06-01T21:55:17Z</time>
      </trkpt>
      <trkpt lat="23.074236" lon="113.272197">
        <time>2026-06-01T21:55:22Z</time>
      </trkpt>
      <trkpt lat="23.074187" lon="113.272271">
        <time>2026-06-01T21:55:27Z</time>
      </trkpt>
      <trkpt lat="23.074141" lon="113.272404">
        <time>2026-06-01T21:55:32Z</time>
      </trkpt>
      <trkpt lat="23.074136" lon="113.272516">
        <time>2026-06-01T21:55:37Z</time>
      </trkpt>
      <trkpt lat="23.074106" lon="113.272675">
        <time>2026-06-01T21:55:42Z</time>
      </trkpt>
      <trkpt lat="23.074084" lon="113.27276">
        <time>2026-06-01T21:55:47Z</time>
      </trkpt>
      <trkpt lat="23.074037" lon="113.27289">
        <time>2026-06-01T21:55:52Z</time>
      </trkpt>
      <trkpt lat="23.073991" lon="113.272981">
        <time>2026-06-01T21:55:57Z</time>
      </trkpt>
      <trkpt lat="23.073929" lon="113.273101">
        <time>2026-06-01T21:56:02Z</time>
      </trkpt>
      <trkpt lat="23.073892" lon="113.273141">
        <time>2026-06-01T21:56:07Z</time>
      </trkpt>
      <trkpt lat="23.073863" lon="113.273089">
        <time>2026-06-01T21:56:12Z</time>
      </trkpt>
      <trkpt lat="23.073812" lon="113.273029">
        <time>2026-06-01T21:56:17Z</time>
      </trkpt>
      <trkpt lat="23.073707" lon="113.272933">
        <time>2026-06-01T21:56:22Z</time>
      </trkpt>
      <trkpt lat="23.073679" lon="113.272864">
        <time>2026-06-01T21:56:27Z</time>
      </trkpt>
      <trkpt lat="23.073727" lon="113.272759">
        <time>2026-06-01T21:56:32Z</time>
      </trkpt>
      <trkpt lat="23.073769" lon="113.272687">
        <time>2026-06-01T21:56:37Z</time>
      </trkpt>
      <trkpt lat="23.073813" lon="113.272575">
        <time>2026-06-01T21:56:42Z</time>
      </trkpt>
      <trkpt lat="23.073827" lon="113.272496">
        <time>2026-06-01T21:56:47Z</time>
      </trkpt>
      <trkpt lat="23.073887" lon="113.272364">
        <time>2026-06-01T21:56:52Z</time>
      </trkpt>
      <trkpt lat="23.073935" lon="113.272267">
        <time>2026-06-01T21:56:57Z</time>
      </trkpt>
      <trkpt lat="23.074014" lon="113.272123">
        <time>2026-06-01T21:57:02Z</time>
      </trkpt>
      <trkpt lat="23.074057" lon="113.272036">
        <time>2026-06-01T21:57:07Z</time>
      </trkpt>
      <trkpt lat="23.074086" lon="113.271915">
        <time>2026-06-01T21:57:12Z</time>
      </trkpt>
      <trkpt lat="23.074075" lon="113.271843">
        <time>2026-06-01T21:57:17Z</time>
      </trkpt>
      <trkpt lat="23.074041" lon="113.271814">
        <time>2026-06-01T21:57:22Z</time>
      </trkpt>
      <trkpt lat="23.073966" lon="113.271782">
        <time>2026-06-01T21:57:27Z</time>
      </trkpt>
      <trkpt lat="23.073897" lon="113.271758">
        <time>2026-06-01T21:57:32Z</time>
      </trkpt>
      <trkpt lat="23.073776" lon="113.271708">
        <time>2026-06-01T21:57:37Z</time>
      </trkpt>
      <trkpt lat="23.073706" lon="113.271657">
        <time>2026-06-01T21:57:42Z</time>
      </trkpt>
      <trkpt lat="23.073614" lon="113.271581">
        <time>2026-06-01T21:57:47Z</time>
      </trkpt>
      <trkpt lat="23.073543" lon="113.271545">
        <time>2026-06-01T21:57:52Z</time>
      </trkpt>
      <trkpt lat="23.073404" lon="113.271501">
        <time>2026-06-01T21:57:57Z</time>
      </trkpt>
      <trkpt lat="23.073316" lon="113.271449">
        <time>2026-06-01T21:58:02Z</time>
      </trkpt>
      <trkpt lat="23.073202" lon="113.271362">
        <time>2026-06-01T21:58:07Z</time>
      </trkpt>
      <trkpt lat="23.073114" lon="113.271323">
        <time>2026-06-01T21:58:12Z</time>
      </trkpt>
      <trkpt lat="23.072955" lon="113.271261">
        <time>2026-06-01T21:58:17Z</time>
      </trkpt>
      <trkpt lat="23.072845" lon="113.271228">
        <time>2026-06-01T21:58:22Z</time>
      </trkpt>
      <trkpt lat="23.072703" lon="113.271171">
        <time>2026-06-01T21:58:27Z</time>
      </trkpt>
      <trkpt lat="23.072617" lon="113.271131">
        <time>2026-06-01T21:58:32Z</time>
      </trkpt>
      <trkpt lat="23.072478" lon="113.271085">
        <time>2026-06-01T21:58:37Z</time>
      </trkpt>
      <trkpt lat="23.072388" lon="113.271034">
        <time>2026-06-01T21:58:42Z</time>
      </trkpt>
      <trkpt lat="23.072244" lon="113.270973">
        <time>2026-06-01T21:58:47Z</time>
      </trkpt>
      <trkpt lat="23.072149" lon="113.270933">
        <time>2026-06-01T21:58:52Z</time>
      </trkpt>
      <trkpt lat="23.072003" lon="113.270857">
        <time>2026-06-01T21:58:57Z</time>
      </trkpt>
      <trkpt lat="23.071909" lon="113.270816">
        <time>2026-06-01T21:59:02Z</time>
      </trkpt>
      <trkpt lat="23.071774" lon="113.270752">
        <time>2026-06-01T21:59:07Z</time>
      </trkpt>
      <trkpt lat="23.071687" lon="113.270714">
        <time>2026-06-01T21:59:12Z</time>
      </trkpt>
      <trkpt lat="23.071569" lon="113.270641">
        <time>2026-06-01T21:59:17Z</time>
      </trkpt>
      <trkpt lat="23.071486" lon="113.2706">
        <time>2026-06-01T21:59:22Z</time>
      </trkpt>
      <trkpt lat="23.071341" lon="113.270535">
        <time>2026-06-01T21:59:27Z</time>
      </trkpt>
      <trkpt lat="23.071233" lon="113.270466">
        <time>2026-06-01T21:59:32Z</time>
      </trkpt>
      <trkpt lat="23.071086" lon="113.270387">
        <time>2026-06-01T21:59:37Z</time>
      </trkpt>
      <trkpt lat="23.070984" lon="113.270339">
        <time>2026-06-01T21:59:42Z</time>
      </trkpt>
      <trkpt lat="23.070842" lon="113.270273">
        <time>2026-06-01T21:59:47Z</time>
      </trkpt>
      <trkpt lat="23.070749" lon="113.270234">
        <time>2026-06-01T21:59:52Z</time>
      </trkpt>
      <trkpt lat="23.0706" lon="113.270161">
        <time>2026-06-01T21:59:57Z</time>
      </trkpt>
      <trkpt lat="23.07049" lon="113.270126">
        <time>2026-06-01T22:00:02Z</time>
      </trkpt>
      <trkpt lat="23.070334" lon="113.270092">
        <time>2026-06-01T22:00:07Z</time>
      </trkpt>
      <trkpt lat="23.070238" lon="113.270063">
        <time>2026-06-01T22:00:12Z</time>
      </trkpt>
      <trkpt lat="23.070105" lon="113.269998">
        <time>2026-06-01T22:00:17Z</time>
      </trkpt>
      <trkpt lat="23.070032" lon="113.269937">
        <time>2026-06-01T22:00:22Z</time>
      </trkpt>
      <trkpt lat="23.069921" lon="113.269818">
        <time>2026-06-01T22:00:27Z</time>
      </trkpt>
      <trkpt lat="23.069845" lon="113.269734">
        <time>2026-06-01T22:00:32Z</time>
      </trkpt>
      <trkpt lat="23.069723" lon="113.269649">
        <time>2026-06-01T22:00:37Z</time>
      </trkpt>
      <trkpt lat="23.069634" lon="113.269602">
        <time>2026-06-01T22:00:42Z</time>
      </trkpt>
      <trkpt lat="23.069495" lon="113.269536">
        <time>2026-06-01T22:00:47Z</time>
      </trkpt>
      <trkpt lat="23.069409" lon="113.269495">
        <time>2026-06-01T22:00:52Z</time>
      </trkpt>
      <trkpt lat="23.069255" lon="113.269422">
        <time>2026-06-01T22:00:57Z</time>
      </trkpt>
      <trkpt lat="23.069164" lon="113.269381">
        <time>2026-06-01T22:01:02Z</time>
      </trkpt>
      <trkpt lat="23.069049" lon="113.26933">
        <time>2026-06-01T22:01:07Z</time>
      </trkpt>
      <trkpt lat="23.068972" lon="113.269298">
        <time>2026-06-01T22:01:12Z</time>
      </trkpt>
      <trkpt lat="23.068838" lon="113.26923">
        <time>2026-06-01T22:01:17Z</time>
      </trkpt>
      <trkpt lat="23.068744" lon="113.269204">
        <time>2026-06-01T22:01:22Z</time>
      </trkpt>
      <trkpt lat="23.068607" lon="113.269152">
        <time>2026-06-01T22:01:27Z</time>
      </trkpt>
      <trkpt lat="23.068536" lon="113.269102">
        <time>2026-06-01T22:01:32Z</time>
      </trkpt>
      <trkpt lat="23.068433" lon="113.269052">
        <time>2026-06-01T22:01:37Z</time>
      </trkpt>
      <trkpt lat="23.06836" lon="113.269026">
        <time>2026-06-01T22:01:42Z</time>
      </trkpt>
      <trkpt lat="23.06824" lon="113.268999">
        <time>2026-06-01T22:01:47Z</time>
      </trkpt>
      <trkpt lat="23.068116" lon="113.268969">
        <time>2026-06-01T22:01:52Z</time>
      </trkpt>
      <trkpt lat="23.067968" lon="113.268855">
        <time>2026-06-01T22:01:57Z</time>
      </trkpt>
      <trkpt lat="23.067869" lon="113.268781">
        <time>2026-06-01T22:02:02Z</time>
      </trkpt>
      <trkpt lat="23.067722" lon="113.268704">
        <time>2026-06-01T22:02:07Z</time>
      </trkpt>
      <trkpt lat="23.067636" lon="113.268653">
        <time>2026-06-01T22:02:12Z</time>
      </trkpt>
      <trkpt lat="23.067522" lon="113.268559">
        <time>2026-06-01T22:02:17Z</time>
      </trkpt>
      <trkpt lat="23.067453" lon="113.268489">
        <time>2026-06-01T22:02:22Z</time>
      </trkpt>
      <trkpt lat="23.067321" lon="113.268408">
        <time>2026-06-01T22:02:27Z</time>
      </trkpt>
      <trkpt lat="23.067226" lon="113.268356">
        <time>2026-06-01T22:02:32Z</time>
      </trkpt>
      <trkpt lat="23.067086" lon="113.268293">
        <time>2026-06-01T22:02:37Z</time>
      </trkpt>
      <trkpt lat="23.066997" lon="113.268229">
        <time>2026-06-01T22:02:42Z</time>
      </trkpt>
      <trkpt lat="23.066851" lon="113.26818">
        <time>2026-06-01T22:02:47Z</time>
      </trkpt>
      <trkpt lat="23.066751" lon="113.268173">
        <time>2026-06-01T22:02:52Z</time>
      </trkpt>
      <trkpt lat="23.066608" lon="113.268151">
        <time>2026-06-01T22:02:57Z</time>
      </trkpt>
      <trkpt lat="23.066509" lon="113.268117">
        <time>2026-06-01T22:03:02Z</time>
      </trkpt>
      <trkpt lat="23.066368" lon="113.268085">
        <time>2026-06-01T22:03:07Z</time>
      </trkpt>
      <trkpt lat="23.066288" lon="113.268085">
        <time>2026-06-01T22:03:12Z</time>
      </trkpt>
      <trkpt lat="23.066176" lon="113.268153">
        <time>2026-06-01T22:03:17Z</time>
      </trkpt>
      <trkpt lat="23.066109" lon="113.268222">
        <time>2026-06-01T22:03:22Z</time>
      </trkpt>
      <trkpt lat="23.06601" lon="113.268333">
        <time>2026-06-01T22:03:27Z</time>
      </trkpt>
      <trkpt lat="23.065947" lon="113.268407">
        <time>2026-06-01T22:03:32Z</time>
      </trkpt>
      <trkpt lat="23.065861" lon="113.268524">
        <time>2026-06-01T22:03:37Z</time>
      </trkpt>
      <trkpt lat="23.06581" lon="113.268609">
        <time>2026-06-01T22:03:42Z</time>
      </trkpt>
      <trkpt lat="23.065737" lon="113.26873">
        <time>2026-06-01T22:03:47Z</time>
      </trkpt>
      <trkpt lat="23.065695" lon="113.268815">
        <time>2026-06-01T22:03:52Z</time>
      </trkpt>
      <trkpt lat="23.065643" lon="113.268958">
        <time>2026-06-01T22:03:57Z</time>
      </trkpt>
      <trkpt lat="23.065602" lon="113.269073">
        <time>2026-06-01T22:04:02Z</time>
      </trkpt>
      <trkpt lat="23.06557" lon="113.269179">
        <time>2026-06-01T22:04:07Z</time>
      </trkpt>
      <trkpt lat="23.065525" lon="113.269356">
        <time>2026-06-01T22:04:12Z</time>
      </trkpt>
      <trkpt lat="23.065493" lon="113.269464">
        <time>2026-06-01T22:04:17Z</time>
      </trkpt>
      <trkpt lat="23.065454" lon="113.269621">
        <time>2026-06-01T22:04:22Z</time>
      </trkpt>
      <trkpt lat="23.065435" lon="113.269732">
        <time>2026-06-01T22:04:27Z</time>
      </trkpt>
      <trkpt lat="23.065404" lon="113.269894">
        <time>2026-06-01T22:04:32Z</time>
      </trkpt>
      <trkpt lat="23.065373" lon="113.269989">
        <time>2026-06-01T22:04:37Z</time>
      </trkpt>
      <trkpt lat="23.065323" lon="113.270124">
        <time>2026-06-01T22:04:42Z</time>
      </trkpt>
      <trkpt lat="23.065286" lon="113.270218">
        <time>2026-06-01T22:04:47Z</time>
      </trkpt>
      <trkpt lat="23.065223" lon="113.270363">
        <time>2026-06-01T22:04:52Z</time>
      </trkpt>
      <trkpt lat="23.06518" lon="113.270457">
        <time>2026-06-01T22:04:57Z</time>
      </trkpt>
      <trkpt lat="23.06511" lon="113.270592">
        <time>2026-06-01T22:05:02Z</time>
      </trkpt>
      <trkpt lat="23.065067" lon="113.270679">
        <time>2026-06-01T22:05:07Z</time>
      </trkpt>
      <trkpt lat="23.065009" lon="113.270813">
        <time>2026-06-01T22:05:12Z</time>
      </trkpt>
      <trkpt lat="23.064974" lon="113.270905">
        <time>2026-06-01T22:05:17Z</time>
      </trkpt>
      <trkpt lat="23.064916" lon="113.271046">
        <time>2026-06-01T22:05:22Z</time>
      </trkpt>
      <trkpt lat="23.064876" lon="113.271146">
        <time>2026-06-01T22:05:27Z</time>
      </trkpt>
      <trkpt lat="23.064809" lon="113.27129">
        <time>2026-06-01T22:05:32Z</time>
      </trkpt>
      <trkpt lat="23.064765" lon="113.271381">
        <time>2026-06-01T22:05:37Z</time>
      </trkpt>
      <trkpt lat="23.0647" lon="113.271517">
        <time>2026-06-01T22:05:42Z</time>
      </trkpt>
      <trkpt lat="23.064655" lon="113.271615">
        <time>2026-06-01T22:05:47Z</time>
      </trkpt>
      <trkpt lat="23.06459" lon="113.271764">
        <time>2026-06-01T22:05:52Z</time>
      </trkpt>
      <trkpt lat="23.064543" lon="113.271859">
        <time>2026-06-01T22:05:57Z</time>
      </trkpt>
      <trkpt lat="23.064477" lon="113.271992">
        <time>2026-06-01T22:06:02Z</time>
      </trkpt>
      <trkpt lat="23.064434" lon="113.272083">
        <time>2026-06-01T22:06:07Z</time>
      </trkpt>
      <trkpt lat="23.064364" lon="113.27223">
        <time>2026-06-01T22:06:12Z</time>
      </trkpt>
      <trkpt lat="23.064328" lon="113.272315">
        <time>2026-06-01T22:06:17Z</time>
      </trkpt>
      <trkpt lat="23.064275" lon="113.272437">
        <time>2026-06-01T22:06:22Z</time>
      </trkpt>
      <trkpt lat="23.064275" lon="113.27253">
        <time>2026-06-01T22:06:27Z</time>
      </trkpt>
      <trkpt lat="23.064275" lon="113.272668">
        <time>2026-06-01T22:06:32Z</time>
      </trkpt>
      <trkpt lat="23.064285" lon="113.272752">
        <time>2026-06-01T22:06:37Z</time>
      </trkpt>
      <trkpt lat="23.064338" lon="113.272861">
        <time>2026-06-01T22:06:42Z</time>
      </trkpt>
      <trkpt lat="23.064377" lon="113.272953">
        <time>2026-06-01T22:06:47Z</time>
      </trkpt>
      <trkpt lat="23.064421" lon="113.273095">
        <time>2026-06-01T22:06:52Z</time>
      </trkpt>
      <trkpt lat="23.064443" lon="113.273195">
        <time>2026-06-01T22:06:57Z</time>
      </trkpt>
      <trkpt lat="23.064406" lon="113.273341">
        <time>2026-06-01T22:07:02Z</time>
      </trkpt>
      <trkpt lat="23.064338" lon="113.273415">
        <time>2026-06-01T22:07:07Z</time>
      </trkpt>
      <trkpt lat="23.064199" lon="113.273512">
        <time>2026-06-01T22:07:12Z</time>
      </trkpt>
      <trkpt lat="23.064108" lon="113.273577">
        <time>2026-06-01T22:07:17Z</time>
      </trkpt>
      <trkpt lat="23.063983" lon="113.273678">
        <time>2026-06-01T22:07:22Z</time>
      </trkpt>
      <trkpt lat="23.063905" lon="113.273743">
        <time>2026-06-01T22:07:27Z</time>
      </trkpt>
      <trkpt lat="23.063815" lon="113.273857">
        <time>2026-06-01T22:07:32Z</time>
      </trkpt>
      <trkpt lat="23.063769" lon="113.273947">
        <time>2026-06-01T22:07:37Z</time>
      </trkpt>
      <trkpt lat="23.063697" lon="113.274081">
        <time>2026-06-01T22:07:42Z</time>
      </trkpt>
      <trkpt lat="23.063639" lon="113.274157">
        <time>2026-06-01T22:07:47Z</time>
      </trkpt>
      <trkpt lat="23.063528" lon="113.274193">
        <time>2026-06-01T22:07:52Z</time>
      </trkpt>
      <trkpt lat="23.063452" lon="113.274153">
        <time>2026-06-01T22:07:57Z</time>
      </trkpt>
      <trkpt lat="23.063357" lon="113.274219">
        <time>2026-06-01T22:08:02Z</time>
      </trkpt>
      <trkpt lat="23.063315" lon="113.274319">
        <time>2026-06-01T22:08:07Z</time>
      </trkpt>
      <trkpt lat="23.063262" lon="113.27448">
        <time>2026-06-01T22:08:12Z</time>
      </trkpt>
      <trkpt lat="23.063227" lon="113.274586">
        <time>2026-06-01T22:08:17Z</time>
      </trkpt>
      <trkpt lat="23.06318" lon="113.27474">
        <time>2026-06-01T22:08:22Z</time>
      </trkpt>
      <trkpt lat="23.063151" lon="113.274841">
        <time>2026-06-01T22:08:27Z</time>
      </trkpt>
      <trkpt lat="23.063103" lon="113.274994">
        <time>2026-06-01T22:08:32Z</time>
      </trkpt>
      <trkpt lat="23.063074" lon="113.275099">
        <time>2026-06-01T22:08:37Z</time>
      </trkpt>
      <trkpt lat="23.063006" lon="113.275239">
        <time>2026-06-01T22:08:42Z</time>
      </trkpt>
      <trkpt lat="23.062933" lon="113.275304">
        <time>2026-06-01T22:08:47Z</time>
      </trkpt>
      <trkpt lat="23.062919" lon="113.275449">
        <time>2026-06-01T22:08:52Z</time>
      </trkpt>
      <trkpt lat="23.062935" lon="113.275546">
        <time>2026-06-01T22:08:57Z</time>
      </trkpt>
      <trkpt lat="23.062864" lon="113.27567">
        <time>2026-06-01T22:09:02Z</time>
      </trkpt>
      <trkpt lat="23.062793" lon="113.275746">
        <time>2026-06-01T22:09:07Z</time>
      </trkpt>
      <trkpt lat="23.062683" lon="113.275863">
        <time>2026-06-01T22:09:12Z</time>
      </trkpt>
      <trkpt lat="23.062613" lon="113.275945">
        <time>2026-06-01T22:09:17Z</time>
      </trkpt>
      <trkpt lat="23.062535" lon="113.276087">
        <time>2026-06-01T22:09:22Z</time>
      </trkpt>
      <trkpt lat="23.062492" lon="113.276179">
        <time>2026-06-01T22:09:27Z</time>
      </trkpt>
      <trkpt lat="23.062427" lon="113.276314">
        <time>2026-06-01T22:09:32Z</time>
      </trkpt>
      <trkpt lat="23.062386" lon="113.276402">
        <time>2026-06-01T22:09:37Z</time>
      </trkpt>
      <trkpt lat="23.062334" lon="113.276532">
        <time>2026-06-01T22:09:42Z</time>
      </trkpt>
      <trkpt lat="23.062295" lon="113.276625">
        <time>2026-06-01T22:09:47Z</time>
      </trkpt>
      <trkpt lat="23.062235" lon="113.276761">
        <time>2026-06-01T22:09:52Z</time>
      </trkpt>
      <trkpt lat="23.062201" lon="113.276846">
        <time>2026-06-01T22:09:57Z</time>
      </trkpt>
      <trkpt lat="23.062145" lon="113.276972">
        <time>2026-06-01T22:10:02Z</time>
      </trkpt>
      <trkpt lat="23.06211" lon="113.277062">
        <time>2026-06-01T22:10:07Z</time>
      </trkpt>
      <trkpt lat="23.062057" lon="113.277211">
        <time>2026-06-01T22:10:12Z</time>
      </trkpt>
      <trkpt lat="23.062023" lon="113.277323">
        <time>2026-06-01T22:10:17Z</time>
      </trkpt>
      <trkpt lat="23.061973" lon="113.277481">
        <time>2026-06-01T22:10:22Z</time>
      </trkpt>
      <trkpt lat="23.061944" lon="113.277584">
        <time>2026-06-01T22:10:27Z</time>
      </trkpt>
      <trkpt lat="23.061897" lon="113.277738">
        <time>2026-06-01T22:10:32Z</time>
      </trkpt>
      <trkpt lat="23.061873" lon="113.27784">
        <time>2026-06-01T22:10:37Z</time>
      </trkpt>
      <trkpt lat="23.061867" lon="113.277997">
        <time>2026-06-01T22:10:42Z</time>
      </trkpt>
      <trkpt lat="23.06187" lon="113.2781">
        <time>2026-06-01T22:10:47Z</time>
      </trkpt>
      <trkpt lat="23.061885" lon="113.278254">
        <time>2026-06-01T22:10:52Z</time>
      </trkpt>
      <trkpt lat="23.061889" lon="113.278356">
        <time>2026-06-01T22:10:57Z</time>
      </trkpt>
      <trkpt lat="23.061897" lon="113.278509">
        <time>2026-06-01T22:11:02Z</time>
      </trkpt>
      <trkpt lat="23.061877" lon="113.278585">
        <time>2026-06-01T22:11:07Z</time>
      </trkpt>
      <trkpt lat="23.061851" lon="113.278718">
        <time>2026-06-01T22:11:12Z</time>
      </trkpt>
      <trkpt lat="23.061809" lon="113.278772">
        <time>2026-06-01T22:11:17Z</time>
      </trkpt>
      <trkpt lat="23.061731" lon="113.278848">
        <time>2026-06-01T22:11:22Z</time>
      </trkpt>
      <trkpt lat="23.061701" lon="113.27895">
        <time>2026-06-01T22:11:27Z</time>
      </trkpt>
      <trkpt lat="23.061654" lon="113.279105">
        <time>2026-06-01T22:11:32Z</time>
      </trkpt>
      <trkpt lat="23.061621" lon="113.279205">
        <time>2026-06-01T22:11:37Z</time>
      </trkpt>
      <trkpt lat="23.061564" lon="113.279354">
        <time>2026-06-01T22:11:42Z</time>
      </trkpt>
      <trkpt lat="23.061526" lon="113.279455">
        <time>2026-06-01T22:11:47Z</time>
      </trkpt>
      <trkpt lat="23.061474" lon="113.279611">
        <time>2026-06-01T22:11:52Z</time>
      </trkpt>
      <trkpt lat="23.061439" lon="113.279713">
        <time>2026-06-01T22:11:57Z</time>
      </trkpt>
      <trkpt lat="23.061376" lon="113.279856">
        <time>2026-06-01T22:12:02Z</time>
      </trkpt>
      <trkpt lat="23.061338" lon="113.279952">
        <time>2026-06-01T22:12:07Z</time>
      </trkpt>
      <trkpt lat="23.061278" lon="113.280096">
        <time>2026-06-01T22:12:12Z</time>
      </trkpt>
      <trkpt lat="23.061233" lon="113.28019">
        <time>2026-06-01T22:12:17Z</time>
      </trkpt>
      <trkpt lat="23.061167" lon="113.280336">
        <time>2026-06-01T22:12:22Z</time>
      </trkpt>
      <trkpt lat="23.061127" lon="113.280432">
        <time>2026-06-01T22:12:27Z</time>
      </trkpt>
      <trkpt lat="23.061067" lon="113.280573">
        <time>2026-06-01T22:12:32Z</time>
      </trkpt>
      <trkpt lat="23.061022" lon="113.280667">
        <time>2026-06-01T22:12:37Z</time>
      </trkpt>
      <trkpt lat="23.060952" lon="113.280807">
        <time>2026-06-01T22:12:42Z</time>
      </trkpt>
      <trkpt lat="23.06091" lon="113.280901">
        <time>2026-06-01T22:12:47Z</time>
      </trkpt>
      <trkpt lat="23.060844" lon="113.281041">
        <time>2026-06-01T22:12:52Z</time>
      </trkpt>
      <trkpt lat="23.060802" lon="113.281132">
        <time>2026-06-01T22:12:57Z</time>
      </trkpt>
      <trkpt lat="23.060746" lon="113.281273">
        <time>2026-06-01T22:13:02Z</time>
      </trkpt>
      <trkpt lat="23.060707" lon="113.28137">
        <time>2026-06-01T22:13:07Z</time>
      </trkpt>
      <trkpt lat="23.060649" lon="113.281516">
        <time>2026-06-01T22:13:12Z</time>
      </trkpt>
      <trkpt lat="23.060609" lon="113.281611">
        <time>2026-06-01T22:13:17Z</time>
      </trkpt>
      <trkpt lat="23.060547" lon="113.281753">
        <time>2026-06-01T22:13:22Z</time>
      </trkpt>
      <trkpt lat="23.060511" lon="113.28185">
        <time>2026-06-01T22:13:27Z</time>
      </trkpt>
      <trkpt lat="23.06046" lon="113.281995">
        <time>2026-06-01T22:13:32Z</time>
      </trkpt>
      <trkpt lat="23.060419" lon="113.282087">
        <time>2026-06-01T22:13:37Z</time>
      </trkpt>
      <trkpt lat="23.060351" lon="113.282221">
        <time>2026-06-01T22:13:42Z</time>
      </trkpt>
      <trkpt lat="23.060308" lon="113.282311">
        <time>2026-06-01T22:13:47Z</time>
      </trkpt>
      <trkpt lat="23.060248" lon="113.282456">
        <time>2026-06-01T22:13:52Z</time>
      </trkpt>
      <trkpt lat="23.06021" lon="113.282546">
        <time>2026-06-01T22:13:57Z</time>
      </trkpt>
      <trkpt lat="23.060149" lon="113.282682">
        <time>2026-06-01T22:14:02Z</time>
      </trkpt>
      <trkpt lat="23.060108" lon="113.282774">
        <time>2026-06-01T22:14:07Z</time>
      </trkpt>
      <trkpt lat="23.06006" lon="113.282912">
        <time>2026-06-01T22:14:12Z</time>
      </trkpt>
      <trkpt lat="23.060021" lon="113.283">
        <time>2026-06-01T22:14:17Z</time>
      </trkpt>
      <trkpt lat="23.05995" lon="113.283129">
        <time>2026-06-01T22:14:22Z</time>
      </trkpt>
      <trkpt lat="23.059904" lon="113.283213">
        <time>2026-06-01T22:14:27Z</time>
      </trkpt>
      <trkpt lat="23.059841" lon="113.283349">
        <time>2026-06-01T22:14:32Z</time>
      </trkpt>
      <trkpt lat="23.059802" lon="113.283442">
        <time>2026-06-01T22:14:37Z</time>
      </trkpt>
      <trkpt lat="23.05974" lon="113.283586">
        <time>2026-06-01T22:14:42Z</time>
      </trkpt>
      <trkpt lat="23.059702" lon="113.283678">
        <time>2026-06-01T22:14:47Z</time>
      </trkpt>
      <trkpt lat="23.059634" lon="113.283816">
        <time>2026-06-01T22:14:52Z</time>
      </trkpt>
      <trkpt lat="23.059597" lon="113.283914">
        <time>2026-06-01T22:14:57Z</time>
      </trkpt>
      <trkpt lat="23.059543" lon="113.284061">
        <time>2026-06-01T22:15:02Z</time>
      </trkpt>
      <trkpt lat="23.059488" lon="113.284148">
        <time>2026-06-01T22:15:07Z</time>
      </trkpt>
      <trkpt lat="23.059397" lon="113.284274">
        <time>2026-06-01T22:15:12Z</time>
      </trkpt>
      <trkpt lat="23.05936" lon="113.284368">
        <time>2026-06-01T22:15:17Z</time>
      </trkpt>
      <trkpt lat="23.059314" lon="113.284507">
        <time>2026-06-01T22:15:22Z</time>
      </trkpt>
      <trkpt lat="23.059281" lon="113.284602">
        <time>2026-06-01T22:15:27Z</time>
      </trkpt>
      <trkpt lat="23.05926" lon="113.284754">
        <time>2026-06-01T22:15:32Z</time>
      </trkpt>
      <trkpt lat="23.059231" lon="113.284849">
        <time>2026-06-01T22:15:37Z</time>
      </trkpt>
      <trkpt lat="23.059177" lon="113.284984">
        <time>2026-06-01T22:15:42Z</time>
      </trkpt>
      <trkpt lat="23.059147" lon="113.285076">
        <time>2026-06-01T22:15:47Z</time>
      </trkpt>
      <trkpt lat="23.059098" lon="113.285221">
        <time>2026-06-01T22:15:52Z</time>
      </trkpt>
      <trkpt lat="23.059063" lon="113.285303">
        <time>2026-06-01T22:15:57Z</time>
      </trkpt>
      <trkpt lat="23.059003" lon="113.285432">
        <time>2026-06-01T22:16:02Z</time>
      </trkpt>
      <trkpt lat="23.058957" lon="113.285516">
        <time>2026-06-01T22:16:07Z</time>
      </trkpt>
      <trkpt lat="23.058894" lon="113.285645">
        <time>2026-06-01T22:16:12Z</time>
      </trkpt>
      <trkpt lat="23.058854" lon="113.285735">
        <time>2026-06-01T22:16:17Z</time>
      </trkpt>
      <trkpt lat="23.058788" lon="113.285863">
        <time>2026-06-01T22:16:22Z</time>
      </trkpt>
      <trkpt lat="23.058743" lon="113.28595">
        <time>2026-06-01T22:16:27Z</time>
      </trkpt>
      <trkpt lat="23.058678" lon="113.286083">
        <time>2026-06-01T22:16:32Z</time>
      </trkpt>
      <trkpt lat="23.058714" lon="113.286142">
        <time>2026-06-01T22:16:37Z</time>
      </trkpt>
      <trkpt lat="23.058858" lon="113.286134">
        <time>2026-06-01T22:16:42Z</time>
      </trkpt>
      <trkpt lat="23.058923" lon="113.286059">
        <time>2026-06-01T22:16:47Z</time>
      </trkpt>
      <trkpt lat="23.058995" lon="113.285924">
        <time>2026-06-01T22:16:52Z</time>
      </trkpt>
      <trkpt lat="23.05904" lon="113.285832">
        <time>2026-06-01T22:16:57Z</time>
      </trkpt>
      <trkpt lat="23.0591" lon="113.285686">
        <time>2026-06-01T22:17:02Z</time>
      </trkpt>
      <trkpt lat="23.059139" lon="113.285592">
        <time>2026-06-01T22:17:07Z</time>
      </trkpt>
      <trkpt lat="23.059191" lon="113.285447">
        <time>2026-06-01T22:17:12Z</time>
      </trkpt>
      <trkpt lat="23.059224" lon="113.285352">
        <time>2026-06-01T22:17:17Z</time>
      </trkpt>
      <trkpt lat="23.059281" lon="113.285214">
        <time>2026-06-01T22:17:22Z</time>
      </trkpt>
      <trkpt lat="23.059319" lon="113.285123">
        <time>2026-06-01T22:17:27Z</time>
      </trkpt>
      <trkpt lat="23.059387" lon="113.284983">
        <time>2026-06-01T22:17:32Z</time>
      </trkpt>
      <trkpt lat="23.059438" lon="113.284889">
        <time>2026-06-01T22:17:37Z</time>
      </trkpt>
      <trkpt lat="23.059499" lon="113.284757">
        <time>2026-06-01T22:17:42Z</time>
      </trkpt>
      <trkpt lat="23.059537" lon="113.284666">
        <time>2026-06-01T22:17:47Z</time>
      </trkpt>
      <trkpt lat="23.059592" lon="113.284528">
        <time>2026-06-01T22:17:52Z</time>
      </trkpt>
      <trkpt lat="23.059618" lon="113.284437">
        <time>2026-06-01T22:17:57Z</time>
      </trkpt>
      <trkpt lat="23.059644" lon="113.284301">
        <time>2026-06-01T22:18:02Z</time>
      </trkpt>
      <trkpt lat="23.059668" lon="113.284208">
        <time>2026-06-01T22:18:07Z</time>
      </trkpt>
      <trkpt lat="23.059719" lon="113.284075">
        <time>2026-06-01T22:18:12Z</time>
      </trkpt>
      <trkpt lat="23.05975" lon="113.283988">
        <time>2026-06-01T22:18:17Z</time>
      </trkpt>
      <trkpt lat="23.059786" lon="113.283854">
        <time>2026-06-01T22:18:22Z</time>
      </trkpt>
      <trkpt lat="23.05981" lon="113.283761">
        <time>2026-06-01T22:18:27Z</time>
      </trkpt>
      <trkpt lat="23.05984" lon="113.283617">
        <time>2026-06-01T22:18:32Z</time>
      </trkpt>
      <trkpt lat="23.059869" lon="113.28352">
        <time>2026-06-01T22:18:37Z</time>
      </trkpt>
      <trkpt lat="23.059939" lon="113.283377">
        <time>2026-06-01T22:18:42Z</time>
      </trkpt>
      <trkpt lat="23.059986" lon="113.283289">
        <time>2026-06-01T22:18:47Z</time>
      </trkpt>
      <trkpt lat="23.060046" lon="113.283153">
        <time>2026-06-01T22:18:52Z</time>
      </trkpt>
      <trkpt lat="23.060082" lon="113.283054">
        <time>2026-06-01T22:18:57Z</time>
      </trkpt>
      <trkpt lat="23.060141" lon="113.282914">
        <time>2026-06-01T22:19:02Z</time>
      </trkpt>
      <trkpt lat="23.060182" lon="113.282827">
        <time>2026-06-01T22:19:07Z</time>
      </trkpt>
      <trkpt lat="23.060247" lon="113.282685">
        <time>2026-06-01T22:19:12Z</time>
      </trkpt>
      <trkpt lat="23.060288" lon="113.282594">
        <time>2026-06-01T22:19:17Z</time>
      </trkpt>
      <trkpt lat="23.060349" lon="113.282451">
        <time>2026-06-01T22:19:22Z</time>
      </trkpt>
      <trkpt lat="23.06039" lon="113.282354">
        <time>2026-06-01T22:19:27Z</time>
      </trkpt>
      <trkpt lat="23.060449" lon="113.282217">
        <time>2026-06-01T22:19:32Z</time>
      </trkpt>
      <trkpt lat="23.060493" lon="113.282129">
        <time>2026-06-01T22:19:37Z</time>
      </trkpt>
      <trkpt lat="23.060557" lon="113.281987">
        <time>2026-06-01T22:19:42Z</time>
      </trkpt>
      <trkpt lat="23.060599" lon="113.281894">
        <time>2026-06-01T22:19:47Z</time>
      </trkpt>
      <trkpt lat="23.06066" lon="113.281757">
        <time>2026-06-01T22:19:52Z</time>
      </trkpt>
      <trkpt lat="23.060695" lon="113.281669">
        <time>2026-06-01T22:19:57Z</time>
      </trkpt>
      <trkpt lat="23.060752" lon="113.281532">
        <time>2026-06-01T22:20:02Z</time>
      </trkpt>
      <trkpt lat="23.060792" lon="113.281438">
        <time>2026-06-01T22:20:07Z</time>
      </trkpt>
      <trkpt lat="23.060852" lon="113.281295">
        <time>2026-06-01T22:20:12Z</time>
      </trkpt>
      <trkpt lat="23.060892" lon="113.2812">
        <time>2026-06-01T22:20:17Z</time>
      </trkpt>
      <trkpt lat="23.060951" lon="113.281052">
        <time>2026-06-01T22:20:22Z</time>
      </trkpt>
      <trkpt lat="23.060988" lon="113.28094">
        <time>2026-06-01T22:20:27Z</time>
      </trkpt>
      <trkpt lat="23.061046" lon="113.280788">
        <time>2026-06-01T22:20:32Z</time>
      </trkpt>
      <trkpt lat="23.061086" lon="113.280683">
        <time>2026-06-01T22:20:37Z</time>
      </trkpt>
      <trkpt lat="23.061153" lon="113.280529">
        <time>2026-06-01T22:20:42Z</time>
      </trkpt>
      <trkpt lat="23.061201" lon="113.280437">
        <time>2026-06-01T22:20:47Z</time>
      </trkpt>
      <trkpt lat="23.061265" lon="113.280296">
        <time>2026-06-01T22:20:52Z</time>
      </trkpt>
      <trkpt lat="23.061311" lon="113.280208">
        <time>2026-06-01T22:20:57Z</time>
      </trkpt>
      <trkpt lat="23.061372" lon="113.280083">
        <time>2026-06-01T22:21:02Z</time>
      </trkpt>
      <trkpt lat="23.061411" lon="113.279998">
        <time>2026-06-01T22:21:07Z</time>
      </trkpt>
      <trkpt lat="23.061465" lon="113.279865">
        <time>2026-06-01T22:21:12Z</time>
      </trkpt>
      <trkpt lat="23.0615" lon="113.279777">
        <time>2026-06-01T22:21:17Z</time>
      </trkpt>
      <trkpt lat="23.061558" lon="113.279642">
        <time>2026-06-01T22:21:22Z</time>
      </trkpt>
      <trkpt lat="23.061596" lon="113.279548">
        <time>2026-06-01T22:21:27Z</time>
      </trkpt>
      <trkpt lat="23.061645" lon="113.279406">
        <time>2026-06-01T22:21:32Z</time>
      </trkpt>
      <trkpt lat="23.06168" lon="113.279312">
        <time>2026-06-01T22:21:37Z</time>
      </trkpt>
      <trkpt lat="23.061746" lon="113.279172">
        <time>2026-06-01T22:21:42Z</time>
      </trkpt>
      <trkpt lat="23.0618" lon="113.27908">
        <time>2026-06-01T22:21:47Z</time>
      </trkpt>
      <trkpt lat="23.06189" lon="113.278949">
        <time>2026-06-01T22:21:52Z</time>
      </trkpt>
      <trkpt lat="23.06194" lon="113.278866">
        <time>2026-06-01T22:21:57Z</time>
      </trkpt>
      <trkpt lat="23.061975" lon="113.278732">
        <time>2026-06-01T22:22:02Z</time>
      </trkpt>
      <trkpt lat="23.061975" lon="113.278635">
        <time>2026-06-01T22:22:07Z</time>
      </trkpt>
      <trkpt lat="23.061968" lon="113.278484">
        <time>2026-06-01T22:22:12Z</time>
      </trkpt>
      <trkpt lat="23.061968" lon="113.278381">
        <time>2026-06-01T22:22:17Z</time>
      </trkpt>
      <trkpt lat="23.061961" lon="113.278224">
        <time>2026-06-01T22:22:22Z</time>
      </trkpt>
      <trkpt lat="23.061954" lon="113.278117">
        <time>2026-06-01T22:22:27Z</time>
      </trkpt>
      <trkpt lat="23.061948" lon="113.277958">
        <time>2026-06-01T22:22:32Z</time>
      </trkpt>
      <trkpt lat="23.061945" lon="113.277852">
        <time>2026-06-01T22:22:37Z</time>
      </trkpt>
      <trkpt lat="23.061968" lon="113.277693">
        <time>2026-06-01T22:22:42Z</time>
      </trkpt>
      <trkpt lat="23.062003" lon="113.277591">
        <time>2026-06-01T22:22:47Z</time>
      </trkpt>
      <trkpt lat="23.06206" lon="113.277447">
        <time>2026-06-01T22:22:52Z</time>
      </trkpt>
      <trkpt lat="23.062096" lon="113.277352">
        <time>2026-06-01T22:22:57Z</time>
      </trkpt>
      <trkpt lat="23.062144" lon="113.277206">
        <time>2026-06-01T22:23:02Z</time>
      </trkpt>
      <trkpt lat="23.062174" lon="113.27711">
        <time>2026-06-01T22:23:07Z</time>
      </trkpt>
      <trkpt lat="23.062227" lon="113.276973">
        <time>2026-06-01T22:23:12Z</time>
      </trkpt>
      <trkpt lat="23.062262" lon="113.276878">
        <time>2026-06-01T22:23:17Z</time>
      </trkpt>
      <trkpt lat="23.062316" lon="113.276734">
        <time>2026-06-01T22:23:22Z</time>
      </trkpt>
      <trkpt lat="23.062352" lon="113.276641">
        <time>2026-06-01T22:23:27Z</time>
      </trkpt>
      <trkpt lat="23.062415" lon="113.276507">
        <time>2026-06-01T22:23:32Z</time>
      </trkpt>
      <trkpt lat="23.062456" lon="113.276415">
        <time>2026-06-01T22:23:37Z</time>
      </trkpt>
      <trkpt lat="23.0625" lon="113.276277">
        <time>2026-06-01T22:23:42Z</time>
      </trkpt>
      <trkpt lat="23.062533" lon="113.276185">
        <time>2026-06-01T22:23:47Z</time>
      </trkpt>
      <trkpt lat="23.062601" lon="113.276048">
        <time>2026-06-01T22:23:52Z</time>
      </trkpt>
      <trkpt lat="23.062659" lon="113.275966">
        <time>2026-06-01T22:23:57Z</time>
      </trkpt>
      <trkpt lat="23.062753" lon="113.275852">
        <time>2026-06-01T22:24:02Z</time>
      </trkpt>
      <trkpt lat="23.062821" lon="113.275777">
        <time>2026-06-01T22:24:07Z</time>
      </trkpt>
      <trkpt lat="23.062933" lon="113.275663">
        <time>2026-06-01T22:24:12Z</time>
      </trkpt>
      <trkpt lat="23.063001" lon="113.275591">
        <time>2026-06-01T22:24:17Z</time>
      </trkpt>
      <trkpt lat="23.063084" lon="113.275475">
        <time>2026-06-01T22:24:22Z</time>
      </trkpt>
      <trkpt lat="23.063133" lon="113.275387">
        <time>2026-06-01T22:24:27Z</time>
      </trkpt>
      <trkpt lat="23.063211" lon="113.275261">
        <time>2026-06-01T22:24:32Z</time>
      </trkpt>
      <trkpt lat="23.063266" lon="113.275179">
        <time>2026-06-01T22:24:37Z</time>
      </trkpt>
      <trkpt lat="23.063353" lon="113.275064">
        <time>2026-06-01T22:24:42Z</time>
      </trkpt>
      <trkpt lat="23.063396" lon="113.274976">
        <time>2026-06-01T22:24:47Z</time>
      </trkpt>
      <trkpt lat="23.063443" lon="113.27483">
        <time>2026-06-01T22:24:52Z</time>
      </trkpt>
      <trkpt lat="23.06347" lon="113.274736">
        <time>2026-06-01T22:24:57Z</time>
      </trkpt>
      <trkpt lat="23.063502" lon="113.274602">
        <time>2026-06-01T22:25:02Z</time>
      </trkpt>
      <trkpt lat="23.063524" lon="113.27451">
        <time>2026-06-01T22:25:07Z</time>
      </trkpt>
      <trkpt lat="23.063571" lon="113.274378">
        <time>2026-06-01T22:25:12Z</time>
      </trkpt>
      <trkpt lat="23.063628" lon="113.274308">
        <time>2026-06-01T22:25:17Z</time>
      </trkpt>
      <trkpt lat="23.063734" lon="113.27421">
        <time>2026-06-01T22:25:22Z</time>
      </trkpt>
      <trkpt lat="23.063805" lon="113.274136">
        <time>2026-06-01T22:25:27Z</time>
      </trkpt>
      <trkpt lat="23.063888" lon="113.274001">
        <time>2026-06-01T22:25:32Z</time>
      </trkpt>
      <trkpt lat="23.063938" lon="113.273901">
        <time>2026-06-01T22:25:37Z</time>
      </trkpt>
      <trkpt lat="23.064015" lon="113.273779">
        <time>2026-06-01T22:25:42Z</time>
      </trkpt>
      <trkpt lat="23.064084" lon="113.273707">
        <time>2026-06-01T22:25:47Z</time>
      </trkpt>
      <trkpt lat="23.064205" lon="113.273614">
        <time>2026-06-01T22:25:52Z</time>
      </trkpt>
      <trkpt lat="23.064281" lon="113.273554">
        <time>2026-06-01T22:25:57Z</time>
      </trkpt>
      <trkpt lat="23.064401" lon="113.273467">
        <time>2026-06-01T22:26:02Z</time>
      </trkpt>
      <trkpt lat="23.064477" lon="113.273399">
        <time>2026-06-01T22:26:07Z</time>
      </trkpt>
      <trkpt lat="23.064563" lon="113.273265">
        <time>2026-06-01T22:26:12Z</time>
      </trkpt>
      <trkpt lat="23.06458" lon="113.273157">
        <time>2026-06-01T22:26:17Z</time>
      </trkpt>
      <trkpt lat="23.064546" lon="113.272997">
        <time>2026-06-01T22:26:22Z</time>
      </trkpt>
      <trkpt lat="23.064507" lon="113.272892">
        <time>2026-06-01T22:26:27Z</time>
      </trkpt>
      <trkpt lat="23.064464" lon="113.272737">
        <time>2026-06-01T22:26:32Z</time>
      </trkpt>
      <trkpt lat="23.064447" lon="113.272633">
        <time>2026-06-01T22:26:37Z</time>
      </trkpt>
      <trkpt lat="23.06449" lon="113.272496">
        <time>2026-06-01T22:26:42Z</time>
      </trkpt>
      <trkpt lat="23.064531" lon="113.272394">
        <time>2026-06-01T22:26:47Z</time>
      </trkpt>
      <trkpt lat="23.064542" lon="113.272225">
        <time>2026-06-01T22:26:52Z</time>
      </trkpt>
      <trkpt lat="23.064575" lon="113.272117">
        <time>2026-06-01T22:26:57Z</time>
      </trkpt>
      <trkpt lat="23.064651" lon="113.271967">
        <time>2026-06-01T22:27:02Z</time>
      </trkpt>
      <trkpt lat="23.0647" lon="113.271872">
        <time>2026-06-01T22:27:07Z</time>
      </trkpt>
      <trkpt lat="23.064779" lon="113.271734">
        <time>2026-06-01T22:27:12Z</time>
      </trkpt>
      <trkpt lat="23.064831" lon="113.271639">
        <time>2026-06-01T22:27:17Z</time>
      </trkpt>
      <trkpt lat="23.064894" lon="113.271493">
        <time>2026-06-01T22:27:22Z</time>
      </trkpt>
      <trkpt lat="23.064936" lon="113.271401">
        <time>2026-06-01T22:27:27Z</time>
      </trkpt>
      <trkpt lat="23.065001" lon="113.271277">
        <time>2026-06-01T22:27:32Z</time>
      </trkpt>
      <trkpt lat="23.065044" lon="113.271188">
        <time>2026-06-01T22:27:37Z</time>
      </trkpt>
      <trkpt lat="23.065114" lon="113.271042">
        <time>2026-06-01T22:27:42Z</time>
      </trkpt>
      <trkpt lat="23.065155" lon="113.270939">
        <time>2026-06-01T22:27:47Z</time>
      </trkpt>
      <trkpt lat="23.065215" lon="113.270785">
        <time>2026-06-01T22:27:52Z</time>
      </trkpt>
      <trkpt lat="23.065254" lon="113.270687">
        <time>2026-06-01T22:27:57Z</time>
      </trkpt>
      <trkpt lat="23.065316" lon="113.270556">
        <time>2026-06-01T22:28:02Z</time>
      </trkpt>
      <trkpt lat="23.065358" lon="113.270468">
        <time>2026-06-01T22:28:07Z</time>
      </trkpt>
      <trkpt lat="23.065422" lon="113.270334">
        <time>2026-06-01T22:28:12Z</time>
      </trkpt>
      <trkpt lat="23.065466" lon="113.270245">
        <time>2026-06-01T22:28:17Z</time>
      </trkpt>
      <trkpt lat="23.065524" lon="113.270106">
        <time>2026-06-01T22:28:22Z</time>
      </trkpt>
      <trkpt lat="23.065558" lon="113.270009">
        <time>2026-06-01T22:28:27Z</time>
      </trkpt>
      <trkpt lat="23.065604" lon="113.269858">
        <time>2026-06-01T22:28:32Z</time>
      </trkpt>
      <trkpt lat="23.065633" lon="113.269759">
        <time>2026-06-01T22:28:37Z</time>
      </trkpt>
      <trkpt lat="23.065676" lon="113.269613">
        <time>2026-06-01T22:28:42Z</time>
      </trkpt>
      <trkpt lat="23.065703" lon="113.269515">
        <time>2026-06-01T22:28:47Z</time>
      </trkpt>
      <trkpt lat="23.065736" lon="113.26936">
        <time>2026-06-01T22:28:52Z</time>
      </trkpt>
      <trkpt lat="23.065755" lon="113.269257">
        <time>2026-06-01T22:28:57Z</time>
      </trkpt>
      <trkpt lat="23.065796" lon="113.269113">
        <time>2026-06-01T22:29:02Z</time>
      </trkpt>
      <trkpt lat="23.065829" lon="113.26902">
        <time>2026-06-01T22:29:07Z</time>
      </trkpt>
      <trkpt lat="23.065905" lon="113.268883">
        <time>2026-06-01T22:29:12Z</time>
      </trkpt>
      <trkpt lat="23.06596" lon="113.268789">
        <time>2026-06-01T22:29:17Z</time>
      </trkpt>
      <trkpt lat="23.066029" lon="113.268647">
        <time>2026-06-01T22:29:22Z</time>
      </trkpt>
      <trkpt lat="23.066079" lon="113.268553">
        <time>2026-06-01T22:29:27Z</time>
      </trkpt>
      <trkpt lat="23.06617" lon="113.268415">
        <time>2026-06-01T22:29:32Z</time>
      </trkpt>
      <trkpt lat="23.066227" lon="113.268327">
        <time>2026-06-01T22:29:37Z</time>
      </trkpt>
      <trkpt lat="23.066333" lon="113.26821">
        <time>2026-06-01T22:29:42Z</time>
      </trkpt>
      <trkpt lat="23.066417" lon="113.268153">
        <time>2026-06-01T22:29:47Z</time>
      </trkpt>
      <trkpt lat="23.066562" lon="113.268126">
        <time>2026-06-01T22:29:52Z</time>
      </trkpt>
      <trkpt lat="23.066658" lon="113.268142">
        <time>2026-06-01T22:29:57Z</time>
      </trkpt>
      <trkpt lat="23.066808" lon="113.268147">
        <time>2026-06-01T22:30:02Z</time>
      </trkpt>
      <trkpt lat="23.06691" lon="113.268152">
        <time>2026-06-01T22:30:07Z</time>
      </trkpt>
      <trkpt lat="23.067047" lon="113.268194">
        <time>2026-06-01T22:30:12Z</time>
      </trkpt>
      <trkpt lat="23.067125" lon="113.268242">
        <time>2026-06-01T22:30:17Z</time>
      </trkpt>
      <trkpt lat="23.06723" lon="113.268334">
        <time>2026-06-01T22:30:22Z</time>
      </trkpt>
      <trkpt lat="23.067317" lon="113.268395">
        <time>2026-06-01T22:30:27Z</time>
      </trkpt>
      <trkpt lat="23.067458" lon="113.268465">
        <time>2026-06-01T22:30:32Z</time>
      </trkpt>
      <trkpt lat="23.067549" lon="113.268511">
        <time>2026-06-01T22:30:37Z</time>
      </trkpt>
      <trkpt lat="23.067694" lon="113.268587">
        <time>2026-06-01T22:30:42Z</time>
      </trkpt>
      <trkpt lat="23.067793" lon="113.268639">
        <time>2026-06-01T22:30:47Z</time>
      </trkpt>
      <trkpt lat="23.06793" lon="113.268709">
        <time>2026-06-01T22:30:52Z</time>
      </trkpt>
      <trkpt lat="23.068013" lon="113.268749">
        <time>2026-06-01T22:30:57Z</time>
      </trkpt>
      <trkpt lat="23.06815" lon="113.268789">
        <time>2026-06-01T22:31:02Z</time>
      </trkpt>
      <trkpt lat="23.068243" lon="113.268818">
        <time>2026-06-01T22:31:07Z</time>
      </trkpt>
      <trkpt lat="23.068372" lon="113.268858">
        <time>2026-06-01T22:31:12Z</time>
      </trkpt>
      <trkpt lat="23.068456" lon="113.268897">
        <time>2026-06-01T22:31:17Z</time>
      </trkpt>
      <trkpt lat="23.068583" lon="113.268967">
        <time>2026-06-01T22:31:22Z</time>
      </trkpt>
      <trkpt lat="23.068664" lon="113.269032">
        <time>2026-06-01T22:31:27Z</time>
      </trkpt>
      <trkpt lat="23.068783" lon="113.26915">
        <time>2026-06-01T22:31:32Z</time>
      </trkpt>
      <trkpt lat="23.068851" lon="113.269225">
        <time>2026-06-01T22:31:37Z</time>
      </trkpt>
      <trkpt lat="23.068973" lon="113.269312">
        <time>2026-06-01T22:31:42Z</time>
      </trkpt>
      <trkpt lat="23.069068" lon="113.269363">
        <time>2026-06-01T22:31:47Z</time>
      </trkpt>
      <trkpt lat="23.069197" lon="113.269461">
        <time>2026-06-01T22:31:52Z</time>
      </trkpt>
      <trkpt lat="23.069307" lon="113.269508">
        <time>2026-06-01T22:31:57Z</time>
      </trkpt>
      <trkpt lat="23.069459" lon="113.269579">
        <time>2026-06-01T22:32:02Z</time>
      </trkpt>
      <trkpt lat="23.069553" lon="113.269615">
        <time>2026-06-01T22:32:07Z</time>
      </trkpt>
      <trkpt lat="23.069699" lon="113.269683">
        <time>2026-06-01T22:32:12Z</time>
      </trkpt>
      <trkpt lat="23.06979" lon="113.26974">
        <time>2026-06-01T22:32:17Z</time>
      </trkpt>
      <trkpt lat="23.069904" lon="113.26984">
        <time>2026-06-01T22:32:22Z</time>
      </trkpt>
      <trkpt lat="23.069982" lon="113.2699">
        <time>2026-06-01T22:32:27Z</time>
      </trkpt>
      <trkpt lat="23.070116" lon="113.269989">
        <time>2026-06-01T22:32:32Z</time>
      </trkpt>
      <trkpt lat="23.070208" lon="113.270047">
        <time>2026-06-01T22:32:37Z</time>
      </trkpt>
      <trkpt lat="23.070335" lon="113.270143">
        <time>2026-06-01T22:32:42Z</time>
      </trkpt>
      <trkpt lat="23.070436" lon="113.270193">
        <time>2026-06-01T22:32:47Z</time>
      </trkpt>
      <trkpt lat="23.070567" lon="113.270258">
        <time>2026-06-01T22:32:52Z</time>
      </trkpt>
      <trkpt lat="23.070653" lon="113.270286">
        <time>2026-06-01T22:32:57Z</time>
      </trkpt>
      <trkpt lat="23.07078" lon="113.270349">
        <time>2026-06-01T22:33:02Z</time>
      </trkpt>
      <trkpt lat="23.070857" lon="113.270387">
        <time>2026-06-01T22:33:07Z</time>
      </trkpt>
      <trkpt lat="23.070971" lon="113.270449">
        <time>2026-06-01T22:33:12Z</time>
      </trkpt>
      <trkpt lat="23.071061" lon="113.270488">
        <time>2026-06-01T22:33:17Z</time>
      </trkpt>
      <trkpt lat="23.071193" lon="113.270558">
        <time>2026-06-01T22:33:22Z</time>
      </trkpt>
      <trkpt lat="23.071297" lon="113.270587">
        <time>2026-06-01T22:33:27Z</time>
      </trkpt>
      <trkpt lat="23.071448" lon="113.270639">
        <time>2026-06-01T22:33:32Z</time>
      </trkpt>
      <trkpt lat="23.071538" lon="113.270671">
        <time>2026-06-01T22:33:37Z</time>
      </trkpt>
      <trkpt lat="23.071666" lon="113.270713">
        <time>2026-06-01T22:33:42Z</time>
      </trkpt>
      <trkpt lat="23.071755" lon="113.270757">
        <time>2026-06-01T22:33:47Z</time>
      </trkpt>
      <trkpt lat="23.071893" lon="113.270836">
        <time>2026-06-01T22:33:52Z</time>
      </trkpt>
      <trkpt lat="23.071988" lon="113.270882">
        <time>2026-06-01T22:33:57Z</time>
      </trkpt>
      <trkpt lat="23.072118" lon="113.270948">
        <time>2026-06-01T22:34:02Z</time>
      </trkpt>
      <trkpt lat="23.072201" lon="113.271">
        <time>2026-06-01T22:34:07Z</time>
      </trkpt>
      <trkpt lat="23.072314" lon="113.271092">
        <time>2026-06-01T22:34:12Z</time>
      </trkpt>
      <trkpt lat="23.072403" lon="113.271132">
        <time>2026-06-01T22:34:17Z</time>
      </trkpt>
      <trkpt lat="23.072549" lon="113.271184">
        <time>2026-06-01T22:34:22Z</time>
      </trkpt>
      <trkpt lat="23.072646" lon="113.271217">
        <time>2026-06-01T22:34:27Z</time>
      </trkpt>
      <trkpt lat="23.072757" lon="113.271282">
        <time>2026-06-01T22:34:32Z</time>
      </trkpt>
      <trkpt lat="23.072819" lon="113.271318">
        <time>2026-06-01T22:34:37Z</time>
      </trkpt>
      <trkpt lat="23.072945" lon="113.271347">
        <time>2026-06-01T22:34:42Z</time>
      </trkpt>
      <trkpt lat="23.073046" lon="113.271362">
        <time>2026-06-01T22:34:47Z</time>
      </trkpt>
      <trkpt lat="23.073158" lon="113.271426">
        <time>2026-06-01T22:34:52Z</time>
      </trkpt>
      <trkpt lat="23.073216" lon="113.271472">
        <time>2026-06-01T22:34:57Z</time>
      </trkpt>
      <trkpt lat="23.073387" lon="113.271483">
        <time>2026-06-01T22:35:02Z</time>
      </trkpt>
      <trkpt lat="23.0735" lon="113.27149">
        <time>2026-06-01T22:35:07Z</time>
      </trkpt>
      <trkpt lat="23.073622" lon="113.271563">
        <time>2026-06-01T22:35:12Z</time>
      </trkpt>
      <trkpt lat="23.073702" lon="113.271621">
        <time>2026-06-01T22:35:17Z</time>
      </trkpt>
      <trkpt lat="23.073827" lon="113.271691">
        <time>2026-06-01T22:35:22Z</time>
      </trkpt>
      <trkpt lat="23.073894" lon="113.271727">
        <time>2026-06-01T22:35:27Z</time>
      </trkpt>
      <trkpt lat="23.074027" lon="113.271751">
        <time>2026-06-01T22:35:32Z</time>
      </trkpt>
      <trkpt lat="23.0741" lon="113.271786">
        <time>2026-06-01T22:35:37Z</time>
      </trkpt>
      <trkpt lat="23.074107" lon="113.271917">
        <time>2026-06-01T22:35:42Z</time>
      </trkpt>
      <trkpt lat="23.07406" lon="113.27202">
        <time>2026-06-01T22:35:47Z</time>
      </trkpt>
      <trkpt lat="23.073986" lon="113.272163">
        <time>2026-06-01T22:35:52Z</time>
      </trkpt>
      <trkpt lat="23.073951" lon="113.272264">
        <time>2026-06-01T22:35:57Z</time>
      </trkpt>
      <trkpt lat="23.073868" lon="113.27243">
        <time>2026-06-01T22:36:02Z</time>
      </trkpt>
      <trkpt lat="23.073811" lon="113.272536">
        <time>2026-06-01T22:36:07Z</time>
      </trkpt>
      <trkpt lat="23.073749" lon="113.272694">
        <time>2026-06-01T22:36:12Z</time>
      </trkpt>
      <trkpt lat="23.073725" lon="113.272814">
        <time>2026-06-01T22:36:17Z</time>
      </trkpt>
      <trkpt lat="23.073755" lon="113.272967">
        <time>2026-06-01T22:36:22Z</time>
      </trkpt>
      <trkpt lat="23.073863" lon="113.273043">
        <time>2026-06-01T22:36:27Z</time>
      </trkpt>
      <trkpt lat="23.074026" lon="113.27309">
        <time>2026-06-01T22:36:32Z</time>
      </trkpt>
      <trkpt lat="23.074074" lon="113.273005">
        <time>2026-06-01T22:36:37Z</time>
      </trkpt>
      <trkpt lat="23.074111" lon="113.272835">
        <time>2026-06-01T22:36:42Z</time>
      </trkpt>
      <trkpt lat="23.07413" lon="113.272728">
        <time>2026-06-01T22:36:47Z</time>
      </trkpt>
      <trkpt lat="23.074157" lon="113.272585">
        <time>2026-06-01T22:36:52Z</time>
      </trkpt>
      <trkpt lat="23.074199" lon="113.272496">
        <time>2026-06-01T22:36:57Z</time>
      </trkpt>
      <trkpt lat="23.074245" lon="113.272357">
        <time>2026-06-01T22:37:02Z</time>
      </trkpt>
      <trkpt lat="23.074276" lon="113.272266">
        <time>2026-06-01T22:37:07Z</time>
      </trkpt>
      <trkpt lat="23.074339" lon="113.272144">
        <time>2026-06-01T22:37:12Z</time>
      </trkpt>
      <trkpt lat="23.074422" lon="113.272086">
        <time>2026-06-01T22:37:17Z</time>
      </trkpt>
      <trkpt lat="23.074534" lon="113.27205">
        <time>2026-06-01T22:37:22Z</time>
      </trkpt>
      <trkpt lat="23.074606" lon="113.272081">
        <time>2026-06-01T22:37:27Z</time>
      </trkpt>
      <trkpt lat="23.074724" lon="113.27215">
        <time>2026-06-01T22:37:32Z</time>
      </trkpt>
      <trkpt lat="23.074779" lon="113.2722">
        <time>2026-06-01T22:37:37Z</time>
      </trkpt>
      <trkpt lat="23.074885" lon="113.272255">
        <time>2026-06-01T22:37:42Z</time>
      </trkpt>
      <trkpt lat="23.074977" lon="113.272324">
        <time>2026-06-01T22:37:47Z</time>
      </trkpt>
      <trkpt lat="23.07512" lon="113.272422">
        <time>2026-06-01T22:37:52Z</time>
      </trkpt>
      <trkpt lat="23.075208" lon="113.272493">
        <time>2026-06-01T22:37:57Z</time>
      </trkpt>
      <trkpt lat="23.075267" lon="113.272646">
        <time>2026-06-01T22:38:02Z</time>
      </trkpt>
      <trkpt lat="23.075299" lon="113.272758">
        <time>2026-06-01T22:38:07Z</time>
      </trkpt>
      <trkpt lat="23.075355" lon="113.272934">
        <time>2026-06-01T22:38:12Z</time>
      </trkpt>
      <trkpt lat="23.075378" lon="113.273033">
        <time>2026-06-01T22:38:17Z</time>
      </trkpt>
      <trkpt lat="23.075373" lon="113.273178">
        <time>2026-06-01T22:38:22Z</time>
      </trkpt>
      <trkpt lat="23.07542" lon="113.273253">
        <time>2026-06-01T22:38:28Z</time>
      </trkpt>
    </trkseg>
  </trk>
</gpx>