<?xml version="1.0" encoding="UTF-8"?>
<gpx xmlns="http://www.topografix.com/GPX/1/1" xmlns:gpxtpx="http://www.garmin.com/xmlschemas/TrackPointExtension/v1" xmlns:xsi="http://www.w3.org/2001/XMLSchema-instance" xsi:schemaLocation="http://www.topografix.com/GPX/1/1 http://www.topografix.com/GPX/1/1/gpx.xsd" version="1.1" creator="gpx.py -- https://github.com/tkrajina/gpxpy">
  <trk>
    <name>gpx from joyrun</name>
    <trkseg>
      <trkpt lat="23.075817" lon="113.272648">
        <time>2026-06-02T22:08:50Z</time>
      </trkpt>
      <trkpt lat="23.075804" lon="113.272636">
        <time>2026-06-02T22:08:55Z</time>
      </trkpt>
      <trkpt lat="23.075729" lon="113.272567">
        <time>2026-06-02T22:09:00Z</time>
      </trkpt>
      <trkpt lat="23.075662" lon="113.272537">
        <time>2026-06-02T22:09:05Z</time>
      </trkpt>
      <trkpt lat="23.075525" lon="113.272468">
        <time>2026-06-02T22:09:10Z</time>
      </trkpt>
      <trkpt lat="23.075423" lon="113.27244">
        <time>2026-06-02T22:09:15Z</time>
      </trkpt>
      <trkpt lat="23.075276" lon="113.272391">
        <time>2026-06-02T22:09:20Z</time>
      </trkpt>
      <trkpt lat="23.075192" lon="113.27234">
        <time>2026-06-02T22:09:25Z</time>
      </trkpt>
      <trkpt lat="23.07508" lon="113.272267">
        <time>2026-06-02T22:09:30Z</time>
      </trkpt>
      <trkpt lat="23.074996" lon="113.272232">
        <time>2026-06-02T22:09:35Z</time>
      </trkpt>
      <trkpt lat="23.074858" lon="113.272167">
        <time>2026-06-02T22:09:40Z</time>
      </trkpt>
      <trkpt lat="23.074767" lon="113.272128">
        <time>2026-06-02T22:09:45Z</time>
      </trkpt>
      <trkpt lat="23.074617" lon="113.27208">
        <time>2026-06-02T22:09:50Z</time>
      </trkpt>
      <trkpt lat="23.074518" lon="113.272049">
        <time>2026-06-02T22:09:55Z</time>
      </trkpt>
      <trkpt lat="23.074375" lon="113.271995">
        <time>2026-06-02T22:10:00Z</time>
      </trkpt>
      <trkpt lat="23.074299" lon="113.272059">
        <time>2026-06-02T22:10:05Z</time>
      </trkpt>
      <trkpt lat="23.074241" lon="113.272214">
        <time>2026-06-02T22:10:10Z</time>
      </trkpt>
      <trkpt lat="23.07423" lon="113.272313">
        <time>2026-06-02T22:10:15Z</time>
      </trkpt>
      <trkpt lat="23.07417" lon="113.272457">
        <time>2026-06-02T22:10:20Z</time>
      </trkpt>
      <trkpt lat="23.074137" lon="113.272551">
        <time>2026-06-02T22:10:25Z</time>
      </trkpt>
      <trkpt lat="23.07408" lon="113.272724">
        <time>2026-06-02T22:10:30Z</time>
      </trkpt>
      <trkpt lat="23.074028" lon="113.272835">
        <time>2026-06-02T22:10:35Z</time>
      </trkpt>
      <trkpt lat="23.073949" lon="113.272991">
        <time>2026-06-02T22:10:40Z</time>
      </trkpt>
      <trkpt lat="23.073902" lon="113.273091">
        <time>2026-06-02T22:10:45Z</time>
      </trkpt>
      <trkpt lat="23.073833" lon="113.273233">
        <time>2026-06-02T22:10:50Z</time>
      </trkpt>
      <trkpt lat="23.073785" lon="113.273326">
        <time>2026-06-02T22:10:55Z</time>
      </trkpt>
      <trkpt lat="23.073747" lon="113.273451">
        <time>2026-06-02T22:11:00Z</time>
      </trkpt>
      <trkpt lat="23.073771" lon="113.273406">
        <time>2026-06-02T22:11:05Z</time>
      </trkpt>
      <trkpt lat="23.07383" lon="113.273265">
        <time>2026-06-02T22:11:10Z</time>
      </trkpt>
      <trkpt lat="23.073878" lon="113.273185">
        <time>2026-06-02T22:11:15Z</time>
      </trkpt>
      <trkpt lat="23.073946" lon="113.273062">
        <time>2026-06-02T22:11:20Z</time>
      </trkpt>
      <trkpt lat="23.073925" lon="113.273014">
        <time>2026-06-02T22:11:25Z</time>
      </trkpt>
      <trkpt lat="23.073795" lon="113.272962">
        <time>2026-06-02T22:11:30Z</time>
      </trkpt>
      <trkpt lat="23.073717" lon="113.272896">
        <time>2026-06-02T22:11:35Z</time>
      </trkpt>
      <trkpt lat="23.073717" lon="113.272738">
        <time>2026-06-02T22:11:40Z</time>
      </trkpt>
      <trkpt lat="23.073753" lon="113.272636">
        <time>2026-06-02T22:11:45Z</time>
      </trkpt>
      <trkpt lat="23.0738" lon="113.272502">
        <time>2026-06-02T22:11:50Z</time>
      </trkpt>
      <trkpt lat="23.07384" lon="113.272414">
        <time>2026-06-02T22:11:55Z</time>
      </trkpt>
      <trkpt lat="23.073892" lon="113.272268">
        <time>2026-06-02T22:12:00Z</time>
      </trkpt>
      <trkpt lat="23.073917" lon="113.272172">
        <time>2026-06-02T22:12:05Z</time>
      </trkpt>
      <trkpt lat="23.073962" lon="113.272038">
        <time>2026-06-02T22:12:10Z</time>
      </trkpt>
      <trkpt lat="23.074004" lon="113.271947">
        <time>2026-06-02T22:12:15Z</time>
      </trkpt>
      <trkpt lat="23.074067" lon="113.271804">
        <time>2026-06-02T22:12:20Z</time>
      </trkpt>
      <trkpt lat="23.074045" lon="113.271729">
        <time>2026-06-02T22:12:25Z</time>
      </trkpt>
      <trkpt lat="23.073944" lon="113.271656">
        <time>2026-06-02T22:12:30Z</time>
      </trkpt>
      <trkpt lat="23.073858" lon="113.271608">
        <time>2026-06-02T22:12:35Z</time>
      </trkpt>
      <trkpt lat="23.073737" lon="113.271541">
        <time>2026-06-02T22:12:40Z</time>
      </trkpt>
      <trkpt lat="23.07365" lon="113.271506">
        <time>2026-06-02T22:12:45Z</time>
      </trkpt>
      <trkpt lat="23.073536" lon="113.271437">
        <time>2026-06-02T22:12:50Z</time>
      </trkpt>
      <trkpt lat="23.073458" lon="113.271391">
        <time>2026-06-02T22:12:55Z</time>
      </trkpt>
      <trkpt lat="23.073323" lon="113.271326">
        <time>2026-06-02T22:13:00Z</time>
      </trkpt>
      <trkpt lat="23.073259" lon="113.271249">
        <time>2026-06-02T22:13:05Z</time>
      </trkpt>
      <trkpt lat="23.073123" lon="113.271169">
        <time>2026-06-02T22:13:10Z</time>
      </trkpt>
      <trkpt lat="23.073021" lon="113.271119">
        <time>2026-06-02T22:13:15Z</time>
      </trkpt>
      <trkpt lat="23.072899" lon="113.271021">
        <time>2026-06-02T22:13:20Z</time>
      </trkpt>
      <trkpt lat="23.072803" lon="113.270964">
        <time>2026-06-02T22:13:25Z</time>
      </trkpt>
      <trkpt lat="23.072651" lon="113.270897">
        <time>2026-06-02T22:13:30Z</time>
      </trkpt>
      <trkpt lat="23.072549" lon="113.270848">
        <time>2026-06-02T22:13:35Z</time>
      </trkpt>
      <trkpt lat="23.072407" lon="113.270773">
        <time>2026-06-02T22:13:40Z</time>
      </trkpt>
      <trkpt lat="23.072313" lon="113.27071">
        <time>2026-06-02T22:13:45Z</time>
      </trkpt>
      <trkpt lat="23.072185" lon="113.270626">
        <time>2026-06-02T22:13:50Z</time>
      </trkpt>
      <trkpt lat="23.072056" lon="113.270581">
        <time>2026-06-02T22:13:55Z</time>
      </trkpt>
      <trkpt lat="23.071896" lon="113.270493">
        <time>2026-06-02T22:14:00Z</time>
      </trkpt>
      <trkpt lat="23.071787" lon="113.270441">
        <time>2026-06-02T22:14:05Z</time>
      </trkpt>
      <trkpt lat="23.071631" lon="113.270366">
        <time>2026-06-02T22:14:10Z</time>
      </trkpt>
      <trkpt lat="23.071529" lon="113.270328">
        <time>2026-06-02T22:14:15Z</time>
      </trkpt>
      <trkpt lat="23.071366" lon="113.270274">
        <time>2026-06-02T22:14:20Z</time>
      </trkpt>
      <trkpt lat="23.071272" lon="113.270243">
        <time>2026-06-02T22:14:25Z</time>
      </trkpt>
      <trkpt lat="23.071142" lon="113.270178">
        <time>2026-06-02T22:14:30Z</time>
      </trkpt>
      <trkpt lat="23.071079" lon="113.270144">
        <time>2026-06-02T22:14:35Z</time>
      </trkpt>
      <trkpt lat="23.070932" lon="113.270102">
        <time>2026-06-02T22:14:40Z</time>
      </trkpt>
      <trkpt lat="23.07083" lon="113.270059">
        <time>2026-06-02T22:14:45Z</time>
      </trkpt>
      <trkpt lat="23.070666" lon="113.269997">
        <time>2026-06-02T22:14:50Z</time>
      </trkpt>
      <trkpt lat="23.070563" lon="113.269948">
        <time>2026-06-02T22:14:55Z</time>
      </trkpt>
      <trkpt lat="23.070406" lon="113.269927">
        <time>2026-06-02T22:15:00Z</time>
      </trkpt>
      <trkpt lat="23.070304" lon="113.269889">
        <time>2026-06-02T22:15:05Z</time>
      </trkpt>
      <trkpt lat="23.070171" lon="113.269801">
        <time>2026-06-02T22:15:10Z</time>
      </trkpt>
      <trkpt lat="23.070075" lon="113.269727">
        <time>2026-06-02T22:15:15Z</time>
      </trkpt>
      <trkpt lat="23.069923" lon="113.269627">
        <time>2026-06-02T22:15:20Z</time>
      </trkpt>
      <trkpt lat="23.069824" lon="113.269569">
        <time>2026-06-02T22:15:25Z</time>
      </trkpt>
      <trkpt lat="23.069676" lon="113.26951">
        <time>2026-06-02T22:15:30Z</time>
      </trkpt>
      <trkpt lat="23.069581" lon="113.269451">
        <time>2026-06-02T22:15:35Z</time>
      </trkpt>
      <trkpt lat="23.069435" lon="113.269388">
        <time>2026-06-02T22:15:40Z</time>
      </trkpt>
      <trkpt lat="23.069326" lon="113.269343">
        <time>2026-06-02T22:15:45Z</time>
      </trkpt>
      <trkpt lat="23.06917" lon="113.269247">
        <time>2026-06-02T22:15:50Z</time>
      </trkpt>
      <trkpt lat="23.069069" lon="113.269206">
        <time>2026-06-02T22:15:55Z</time>
      </trkpt>
      <trkpt lat="23.068922" lon="113.26916">
        <time>2026-06-02T22:16:00Z</time>
      </trkpt>
      <trkpt lat="23.068824" lon="113.269127">
        <time>2026-06-02T22:16:05Z</time>
      </trkpt>
      <trkpt lat="23.068678" lon="113.269073">
        <time>2026-06-02T22:16:10Z</time>
      </trkpt>
      <trkpt lat="23.068585" lon="113.269021">
        <time>2026-06-02T22:16:15Z</time>
      </trkpt>
      <trkpt lat="23.068449" lon="113.268951">
        <time>2026-06-02T22:16:20Z</time>
      </trkpt>
      <trkpt lat="23.068354" lon="113.268906">
        <time>2026-06-02T22:16:25Z</time>
      </trkpt>
      <trkpt lat="23.068215" lon="113.268824">
        <time>2026-06-02T22:16:30Z</time>
      </trkpt>
      <trkpt lat="23.06812" lon="113.268785">
        <time>2026-06-02T22:16:35Z</time>
      </trkpt>
      <trkpt lat="23.067964" lon="113.268673">
        <time>2026-06-02T22:16:40Z</time>
      </trkpt>
      <trkpt lat="23.067908" lon="113.268557">
        <time>2026-06-02T22:16:45Z</time>
      </trkpt>
      <trkpt lat="23.06778" lon="113.268464">
        <time>2026-06-02T22:16:50Z</time>
      </trkpt>
      <trkpt lat="23.067679" lon="113.268418">
        <time>2026-06-02T22:16:55Z</time>
      </trkpt>
      <trkpt lat="23.067528" lon="113.268351">
        <time>2026-06-02T22:17:00Z</time>
      </trkpt>
      <trkpt lat="23.067433" lon="113.268306">
        <time>2026-06-02T22:17:05Z</time>
      </trkpt>
      <trkpt lat="23.067298" lon="113.268241">
        <time>2026-06-02T22:17:10Z</time>
      </trkpt>
      <trkpt lat="23.067203" lon="113.268205">
        <time>2026-06-02T22:17:15Z</time>
      </trkpt>
      <trkpt lat="23.067054" lon="113.26815">
        <time>2026-06-02T22:17:20Z</time>
      </trkpt>
      <trkpt lat="23.066957" lon="113.268104">
        <time>2026-06-02T22:17:25Z</time>
      </trkpt>
      <trkpt lat="23.066816" lon="113.268042">
        <time>2026-06-02T22:17:30Z</time>
      </trkpt>
      <trkpt lat="23.066715" lon="113.268017">
        <time>2026-06-02T22:17:35Z</time>
      </trkpt>
      <trkpt lat="23.066569" lon="113.26799">
        <time>2026-06-02T22:17:40Z</time>
      </trkpt>
      <trkpt lat="23.06647" lon="113.267967">
        <time>2026-06-02T22:17:45Z</time>
      </trkpt>
      <trkpt lat="23.066316" lon="113.267967">
        <time>2026-06-02T22:17:50Z</time>
      </trkpt>
      <trkpt lat="23.066221" lon="113.268003">
        <time>2026-06-02T22:17:55Z</time>
      </trkpt>
      <trkpt lat="23.066103" lon="113.268119">
        <time>2026-06-02T22:18:00Z</time>
      </trkpt>
      <trkpt lat="23.066026" lon="113.268203">
        <time>2026-06-02T22:18:05Z</time>
      </trkpt>
      <trkpt lat="23.065921" lon="113.26834">
        <time>2026-06-02T22:18:10Z</time>
      </trkpt>
      <trkpt lat="23.065853" lon="113.268433">
        <time>2026-06-02T22:18:15Z</time>
      </trkpt>
      <trkpt lat="23.065768" lon="113.268584">
        <time>2026-06-02T22:18:20Z</time>
      </trkpt>
      <trkpt lat="23.065721" lon="113.268691">
        <time>2026-06-02T22:18:25Z</time>
      </trkpt>
      <trkpt lat="23.065655" lon="113.26885">
        <time>2026-06-02T22:18:30Z</time>
      </trkpt>
      <trkpt lat="23.065613" lon="113.268957">
        <time>2026-06-02T22:18:35Z</time>
      </trkpt>
      <trkpt lat="23.065561" lon="113.269122">
        <time>2026-06-02T22:18:40Z</time>
      </trkpt>
      <trkpt lat="23.065534" lon="113.269236">
        <time>2026-06-02T22:18:45Z</time>
      </trkpt>
      <trkpt lat="23.06549" lon="113.269403">
        <time>2026-06-02T22:18:50Z</time>
      </trkpt>
      <trkpt lat="23.065464" lon="113.269519">
        <time>2026-06-02T22:18:55Z</time>
      </trkpt>
      <trkpt lat="23.065431" lon="113.269692">
        <time>2026-06-02T22:19:00Z</time>
      </trkpt>
      <trkpt lat="23.065405" lon="113.2698">
        <time>2026-06-02T22:19:05Z</time>
      </trkpt>
      <trkpt lat="23.065346" lon="113.269957">
        <time>2026-06-02T22:19:10Z</time>
      </trkpt>
      <trkpt lat="23.065309" lon="113.270065">
        <time>2026-06-02T22:19:15Z</time>
      </trkpt>
      <trkpt lat="23.065251" lon="113.270236">
        <time>2026-06-02T22:19:20Z</time>
      </trkpt>
      <trkpt lat="23.065204" lon="113.270339">
        <time>2026-06-02T22:19:25Z</time>
      </trkpt>
      <trkpt lat="23.065125" lon="113.270491">
        <time>2026-06-02T22:19:30Z</time>
      </trkpt>
      <trkpt lat="23.065071" lon="113.270589">
        <time>2026-06-02T22:19:35Z</time>
      </trkpt>
      <trkpt lat="23.065001" lon="113.270743">
        <time>2026-06-02T22:19:40Z</time>
      </trkpt>
      <trkpt lat="23.064951" lon="113.27085">
        <time>2026-06-02T22:19:45Z</time>
      </trkpt>
      <trkpt lat="23.064875" lon="113.271016">
        <time>2026-06-02T22:19:50Z</time>
      </trkpt>
      <trkpt lat="23.064826" lon="113.271123">
        <time>2026-06-02T22:19:55Z</time>
      </trkpt>
      <trkpt lat="23.064761" lon="113.271281">
        <time>2026-06-02T22:20:00Z</time>
      </trkpt>
      <trkpt lat="23.064714" lon="113.271384">
        <time>2026-06-02T22:20:05Z</time>
      </trkpt>
      <trkpt lat="23.064634" lon="113.271535">
        <time>2026-06-02T22:20:10Z</time>
      </trkpt>
      <trkpt lat="23.064583" lon="113.271637">
        <time>2026-06-02T22:20:15Z</time>
      </trkpt>
      <trkpt lat="23.064514" lon="113.271799">
        <time>2026-06-02T22:20:20Z</time>
      </trkpt>
      <trkpt lat="23.064464" lon="113.27191">
        <time>2026-06-02T22:20:25Z</time>
      </trkpt>
      <trkpt lat="23.064389" lon="113.272078">
        <time>2026-06-02T22:20:30Z</time>
      </trkpt>
      <trkpt lat="23.064329" lon="113.272175">
        <time>2026-06-02T22:20:35Z</time>
      </trkpt>
      <trkpt lat="23.064286" lon="113.272333">
        <time>2026-06-02T22:20:40Z</time>
      </trkpt>
      <trkpt lat="23.064277" lon="113.272447">
        <time>2026-06-02T22:20:45Z</time>
      </trkpt>
      <trkpt lat="23.064268" lon="113.272616">
        <time>2026-06-02T22:20:50Z</time>
      </trkpt>
      <trkpt lat="23.064288" lon="113.272729">
        <time>2026-06-02T22:20:55Z</time>
      </trkpt>
      <trkpt lat="23.064344" lon="113.272891">
        <time>2026-06-02T22:21:00Z</time>
      </trkpt>
      <trkpt lat="23.064378" lon="113.273002">
        <time>2026-06-02T22:21:05Z</time>
      </trkpt>
      <trkpt lat="23.064415" lon="113.273174">
        <time>2026-06-02T22:21:10Z</time>
      </trkpt>
      <trkpt lat="23.064393" lon="113.273279">
        <time>2026-06-02T22:21:15Z</time>
      </trkpt>
      <trkpt lat="23.064286" lon="113.273389">
        <time>2026-06-02T22:21:20Z</time>
      </trkpt>
      <trkpt lat="23.064192" lon="113.273446">
        <time>2026-06-02T22:21:25Z</time>
      </trkpt>
      <trkpt lat="23.064055" lon="113.273541">
        <time>2026-06-02T22:21:30Z</time>
      </trkpt>
      <trkpt lat="23.063969" lon="113.273617">
        <time>2026-06-02T22:21:35Z</time>
      </trkpt>
      <trkpt lat="23.063861" lon="113.273747">
        <time>2026-06-02T22:21:40Z</time>
      </trkpt>
      <trkpt lat="23.063804" lon="113.273839">
        <time>2026-06-02T22:21:45Z</time>
      </trkpt>
      <trkpt lat="23.063724" lon="113.273976">
        <time>2026-06-02T22:21:50Z</time>
      </trkpt>
      <trkpt lat="23.063667" lon="113.274069">
        <time>2026-06-02T22:21:55Z</time>
      </trkpt>
      <trkpt lat="23.063552" lon="113.27414">
        <time>2026-06-02T22:22:00Z</time>
      </trkpt>
      <trkpt lat="23.063458" lon="113.274103">
        <time>2026-06-02T22:22:05Z</time>
      </trkpt>
      <trkpt lat="23.06334" lon="113.274172">
        <time>2026-06-02T22:22:10Z</time>
      </trkpt>
      <trkpt lat="23.063299" lon="113.274297">
        <time>2026-06-02T22:22:15Z</time>
      </trkpt>
      <trkpt lat="23.063246" lon="113.274478">
        <time>2026-06-02T22:22:20Z</time>
      </trkpt>
      <trkpt lat="23.063206" lon="113.27459">
        <time>2026-06-02T22:22:25Z</time>
      </trkpt>
      <trkpt lat="23.063134" lon="113.274759">
        <time>2026-06-02T22:22:30Z</time>
      </trkpt>
      <trkpt lat="23.06309" lon="113.274868">
        <time>2026-06-02T22:22:35Z</time>
      </trkpt>
      <trkpt lat="23.063036" lon="113.275031">
        <time>2026-06-02T22:22:40Z</time>
      </trkpt>
      <trkpt lat="23.063011" lon="113.275141">
        <time>2026-06-02T22:22:45Z</time>
      </trkpt>
      <trkpt lat="23.062899" lon="113.275255">
        <time>2026-06-02T22:22:50Z</time>
      </trkpt>
      <trkpt lat="23.062873" lon="113.275365">
        <time>2026-06-02T22:22:55Z</time>
      </trkpt>
      <trkpt lat="23.062884" lon="113.275535">
        <time>2026-06-02T22:23:00Z</time>
      </trkpt>
      <trkpt lat="23.062828" lon="113.275626">
        <time>2026-06-02T22:23:05Z</time>
      </trkpt>
      <trkpt lat="23.062709" lon="113.275738">
        <time>2026-06-02T22:23:10Z</time>
      </trkpt>
      <trkpt lat="23.062631" lon="113.275819">
        <time>2026-06-02T22:23:15Z</time>
      </trkpt>
      <trkpt lat="23.062527" lon="113.275957">
        <time>2026-06-02T22:23:20Z</time>
      </trkpt>
      <trkpt lat="23.06247" lon="113.276054">
        <time>2026-06-02T22:23:25Z</time>
      </trkpt>
      <trkpt lat="23.062392" lon="113.276198">
        <time>2026-06-02T22:23:30Z</time>
      </trkpt>
      <trkpt lat="23.062352" lon="113.276306">
        <time>2026-06-02T22:23:35Z</time>
      </trkpt>
      <trkpt lat="23.062296" lon="113.276474">
        <time>2026-06-02T22:23:40Z</time>
      </trkpt>
      <trkpt lat="23.062257" lon="113.276582">
        <time>2026-06-02T22:23:45Z</time>
      </trkpt>
      <trkpt lat="23.062198" lon="113.276734">
        <time>2026-06-02T22:23:50Z</time>
      </trkpt>
      <trkpt lat="23.062163" lon="113.276833">
        <time>2026-06-02T22:23:55Z</time>
      </trkpt>
      <trkpt lat="23.062107" lon="113.276985">
        <time>2026-06-02T22:24:00Z</time>
      </trkpt>
      <trkpt lat="23.06207" lon="113.27709">
        <time>2026-06-02T22:24:05Z</time>
      </trkpt>
      <trkpt lat="23.062001" lon="113.277263">
        <time>2026-06-02T22:24:10Z</time>
      </trkpt>
      <trkpt lat="23.061957" lon="113.27738">
        <time>2026-06-02T22:24:15Z</time>
      </trkpt>
      <trkpt lat="23.061894" lon="113.27755">
        <time>2026-06-02T22:24:20Z</time>
      </trkpt>
      <trkpt lat="23.061858" lon="113.277662">
        <time>2026-06-02T22:24:25Z</time>
      </trkpt>
      <trkpt lat="23.061823" lon="113.277832">
        <time>2026-06-02T22:24:30Z</time>
      </trkpt>
      <trkpt lat="23.061819" lon="113.277945">
        <time>2026-06-02T22:24:35Z</time>
      </trkpt>
      <trkpt lat="23.061828" lon="113.27811">
        <time>2026-06-02T22:24:40Z</time>
      </trkpt>
      <trkpt lat="23.061839" lon="113.278219">
        <time>2026-06-02T22:24:45Z</time>
      </trkpt>
      <trkpt lat="23.061846" lon="113.278381">
        <time>2026-06-02T22:24:50Z</time>
      </trkpt>
      <trkpt lat="23.061851" lon="113.27849">
        <time>2026-06-02T22:24:55Z</time>
      </trkpt>
      <trkpt lat="23.061841" lon="113.278658">
        <time>2026-06-02T22:25:00Z</time>
      </trkpt>
      <trkpt lat="23.061809" lon="113.278751">
        <time>2026-06-02T22:25:05Z</time>
      </trkpt>
      <trkpt lat="23.06171" lon="113.27883">
        <time>2026-06-02T22:25:10Z</time>
      </trkpt>
      <trkpt lat="23.061672" lon="113.278938">
        <time>2026-06-02T22:25:15Z</time>
      </trkpt>
      <trkpt lat="23.06161" lon="113.279098">
        <time>2026-06-02T22:25:20Z</time>
      </trkpt>
      <trkpt lat="23.061568" lon="113.279203">
        <time>2026-06-02T22:25:25Z</time>
      </trkpt>
      <trkpt lat="23.061502" lon="113.279366">
        <time>2026-06-02T22:25:30Z</time>
      </trkpt>
      <trkpt lat="23.061459" lon="113.279471">
        <time>2026-06-02T22:25:35Z</time>
      </trkpt>
      <trkpt lat="23.061397" lon="113.279636">
        <time>2026-06-02T22:25:40Z</time>
      </trkpt>
      <trkpt lat="23.06135" lon="113.279744">
        <time>2026-06-02T22:25:45Z</time>
      </trkpt>
      <trkpt lat="23.061277" lon="113.279917">
        <time>2026-06-02T22:25:50Z</time>
      </trkpt>
      <trkpt lat="23.061232" lon="113.28003">
        <time>2026-06-02T22:25:55Z</time>
      </trkpt>
      <trkpt lat="23.061165" lon="113.28019">
        <time>2026-06-02T22:26:00Z</time>
      </trkpt>
      <trkpt lat="23.061112" lon="113.280294">
        <time>2026-06-02T22:26:05Z</time>
      </trkpt>
      <trkpt lat="23.061041" lon="113.280454">
        <time>2026-06-02T22:26:10Z</time>
      </trkpt>
      <trkpt lat="23.060994" lon="113.280557">
        <time>2026-06-02T22:26:15Z</time>
      </trkpt>
      <trkpt lat="23.060927" lon="113.280712">
        <time>2026-06-02T22:26:20Z</time>
      </trkpt>
      <trkpt lat="23.060884" lon="113.280821">
        <time>2026-06-02T22:26:25Z</time>
      </trkpt>
      <trkpt lat="23.060822" lon="113.280976">
        <time>2026-06-02T22:26:30Z</time>
      </trkpt>
      <trkpt lat="23.060778" lon="113.281074">
        <time>2026-06-02T22:26:35Z</time>
      </trkpt>
      <trkpt lat="23.060709" lon="113.281219">
        <time>2026-06-02T22:26:40Z</time>
      </trkpt>
      <trkpt lat="23.060662" lon="113.281321">
        <time>2026-06-02T22:26:45Z</time>
      </trkpt>
      <trkpt lat="23.06059" lon="113.281472">
        <time>2026-06-02T22:26:50Z</time>
      </trkpt>
      <trkpt lat="23.060546" lon="113.281573">
        <time>2026-06-02T22:26:55Z</time>
      </trkpt>
      <trkpt lat="23.060487" lon="113.281732">
        <time>2026-06-02T22:27:00Z</time>
      </trkpt>
      <trkpt lat="23.060445" lon="113.281844">
        <time>2026-06-02T22:27:05Z</time>
      </trkpt>
      <trkpt lat="23.060379" lon="113.282012">
        <time>2026-06-02T22:27:10Z</time>
      </trkpt>
      <trkpt lat="23.06033" lon="113.282119">
        <time>2026-06-02T22:27:15Z</time>
      </trkpt>
      <trkpt lat="23.060268" lon="113.28227">
        <time>2026-06-02T22:27:20Z</time>
      </trkpt>
      <trkpt lat="23.06023" lon="113.282373">
        <time>2026-06-02T22:27:25Z</time>
      </trkpt>
      <trkpt lat="23.06016" lon="113.282531">
        <time>2026-06-02T22:27:30Z</time>
      </trkpt>
      <trkpt lat="23.06011" lon="113.282633">
        <time>2026-06-02T22:27:35Z</time>
      </trkpt>
      <trkpt lat="23.060036" lon="113.282785">
        <time>2026-06-02T22:27:40Z</time>
      </trkpt>
      <trkpt lat="23.059985" lon="113.282885">
        <time>2026-06-02T22:27:45Z</time>
      </trkpt>
      <trkpt lat="23.059923" lon="113.283061">
        <time>2026-06-02T22:27:50Z</time>
      </trkpt>
      <trkpt lat="23.059877" lon="113.283175">
        <time>2026-06-02T22:27:55Z</time>
      </trkpt>
      <trkpt lat="23.059811" lon="113.283331">
        <time>2026-06-02T22:28:00Z</time>
      </trkpt>
      <trkpt lat="23.059771" lon="113.283437">
        <time>2026-06-02T22:28:05Z</time>
      </trkpt>
      <trkpt lat="23.059699" lon="113.283594">
        <time>2026-06-02T22:28:10Z</time>
      </trkpt>
      <trkpt lat="23.059641" lon="113.283699">
        <time>2026-06-02T22:28:15Z</time>
      </trkpt>
      <trkpt lat="23.059571" lon="113.283862">
        <time>2026-06-02T22:28:20Z</time>
      </trkpt>
      <trkpt lat="23.059524" lon="113.283972">
        <time>2026-06-02T22:28:25Z</time>
      </trkpt>
      <trkpt lat="23.059451" lon="113.284133">
        <time>2026-06-02T22:28:30Z</time>
      </trkpt>
      <trkpt lat="23.059395" lon="113.284242">
        <time>2026-06-02T22:28:35Z</time>
      </trkpt>
      <trkpt lat="23.059319" lon="113.284403">
        <time>2026-06-02T22:28:40Z</time>
      </trkpt>
      <trkpt lat="23.059281" lon="113.284512">
        <time>2026-06-02T22:28:45Z</time>
      </trkpt>
      <trkpt lat="23.05924" lon="113.284677">
        <time>2026-06-02T22:28:50Z</time>
      </trkpt>
      <trkpt lat="23.059209" lon="113.284784">
        <time>2026-06-02T22:28:55Z</time>
      </trkpt>
      <trkpt lat="23.059146" lon="113.284934">
        <time>2026-06-02T22:29:00Z</time>
      </trkpt>
      <trkpt lat="23.059108" lon="113.285035">
        <time>2026-06-02T22:29:05Z</time>
      </trkpt>
      <trkpt lat="23.059045" lon="113.285189">
        <time>2026-06-02T22:29:10Z</time>
      </trkpt>
      <trkpt lat="23.058998" lon="113.285298">
        <time>2026-06-02T22:29:15Z</time>
      </trkpt>
      <trkpt lat="23.058926" lon="113.285458">
        <time>2026-06-02T22:29:20Z</time>
      </trkpt>
      <trkpt lat="23.058879" lon="113.285563">
        <time>2026-06-02T22:29:25Z</time>
      </trkpt>
      <trkpt lat="23.058817" lon="113.285718">
        <time>2026-06-02T22:29:30Z</time>
      </trkpt>
      <trkpt lat="23.058772" lon="113.285824">
        <time>2026-06-02T22:29:35Z</time>
      </trkpt>
      <trkpt lat="23.058702" lon="113.28598">
        <time>2026-06-02T22:29:40Z</time>
      </trkpt>
      <trkpt lat="23.0587" lon="113.286079">
        <time>2026-06-02T22:29:45Z</time>
      </trkpt>
      <trkpt lat="23.058849" lon="113.286104">
        <time>2026-06-02T22:29:50Z</time>
      </trkpt>
      <trkpt lat="23.058935" lon="113.286025">
        <time>2026-06-02T22:29:55Z</time>
      </trkpt>
      <trkpt lat="23.059026" lon="113.285873">
        <time>2026-06-02T22:30:00Z</time>
      </trkpt>
      <trkpt lat="23.059078" lon="113.285771">
        <time>2026-06-02T22:30:05Z</time>
      </trkpt>
      <trkpt lat="23.059138" lon="113.285612">
        <time>2026-06-02T22:30:10Z</time>
      </trkpt>
      <trkpt lat="23.059177" lon="113.285507">
        <time>2026-06-02T22:30:15Z</time>
      </trkpt>
      <trkpt lat="23.059232" lon="113.285345">
        <time>2026-06-02T22:30:20Z</time>
      </trkpt>
      <trkpt lat="23.059266" lon="113.28524">
        <time>2026-06-02T22:30:25Z</time>
      </trkpt>
      <trkpt lat="23.059321" lon="113.285084">
        <time>2026-06-02T22:30:30Z</time>
      </trkpt>
      <trkpt lat="23.059349" lon="113.284973">
        <time>2026-06-02T22:30:35Z</time>
      </trkpt>
      <trkpt lat="23.059433" lon="113.284834">
        <time>2026-06-02T22:30:40Z</time>
      </trkpt>
      <trkpt lat="23.059484" lon="113.284742">
        <time>2026-06-02T22:30:45Z</time>
      </trkpt>
      <trkpt lat="23.059549" lon="113.284589">
        <time>2026-06-02T22:30:50Z</time>
      </trkpt>
      <trkpt lat="23.059587" lon="113.284485">
        <time>2026-06-02T22:30:55Z</time>
      </trkpt>
      <trkpt lat="23.05964" lon="113.284331">
        <time>2026-06-02T22:31:00Z</time>
      </trkpt>
      <trkpt lat="23.059672" lon="113.284219">
        <time>2026-06-02T22:31:05Z</time>
      </trkpt>
      <trkpt lat="23.059748" lon="113.284059">
        <time>2026-06-02T22:31:10Z</time>
      </trkpt>
      <trkpt lat="23.059803" lon="113.283963">
        <time>2026-06-02T22:31:15Z</time>
      </trkpt>
      <trkpt lat="23.059857" lon="113.283801">
        <time>2026-06-02T22:31:20Z</time>
      </trkpt>
      <trkpt lat="23.059885" lon="113.283681">
        <time>2026-06-02T22:31:25Z</time>
      </trkpt>
      <trkpt lat="23.059943" lon="113.283501">
        <time>2026-06-02T22:31:30Z</time>
      </trkpt>
      <trkpt lat="23.059988" lon="113.283391">
        <time>2026-06-02T22:31:35Z</time>
      </trkpt>
      <trkpt lat="23.060055" lon="113.283235">
        <time>2026-06-02T22:31:40Z</time>
      </trkpt>
      <trkpt lat="23.060098" lon="113.283145">
        <time>2026-06-02T22:31:45Z</time>
      </trkpt>
      <trkpt lat="23.060167" lon="113.283002">
        <time>2026-06-02T22:31:50Z</time>
      </trkpt>
      <trkpt lat="23.060206" lon="113.282899">
        <time>2026-06-02T22:31:55Z</time>
      </trkpt>
      <trkpt lat="23.06027" lon="113.282753">
        <time>2026-06-02T22:32:00Z</time>
      </trkpt>
      <trkpt lat="23.060312" lon="113.282652">
        <time>2026-06-02T22:32:05Z</time>
      </trkpt>
      <trkpt lat="23.060384" lon="113.282507">
        <time>2026-06-02T22:32:10Z</time>
      </trkpt>
      <trkpt lat="23.060429" lon="113.282399">
        <time>2026-06-02T22:32:15Z</time>
      </trkpt>
      <trkpt lat="23.06048" lon="113.282227">
        <time>2026-06-02T22:32:20Z</time>
      </trkpt>
      <trkpt lat="23.060515" lon="113.282114">
        <time>2026-06-02T22:32:25Z</time>
      </trkpt>
      <trkpt lat="23.060579" lon="113.281947">
        <time>2026-06-02T22:32:30Z</time>
      </trkpt>
      <trkpt lat="23.060627" lon="113.28183">
        <time>2026-06-02T22:32:35Z</time>
      </trkpt>
      <trkpt lat="23.060693" lon="113.281664">
        <time>2026-06-02T22:32:40Z</time>
      </trkpt>
      <trkpt lat="23.06073" lon="113.281556">
        <time>2026-06-02T22:32:45Z</time>
      </trkpt>
      <trkpt lat="23.060801" lon="113.281388">
        <time>2026-06-02T22:32:50Z</time>
      </trkpt>
      <trkpt lat="23.060845" lon="113.281275">
        <time>2026-06-02T22:32:55Z</time>
      </trkpt>
      <trkpt lat="23.060904" lon="113.281118">
        <time>2026-06-02T22:33:00Z</time>
      </trkpt>
      <trkpt lat="23.060946" lon="113.281018">
        <time>2026-06-02T22:33:05Z</time>
      </trkpt>
      <trkpt lat="23.061011" lon="113.280863">
        <time>2026-06-02T22:33:10Z</time>
      </trkpt>
      <trkpt lat="23.061063" lon="113.280753">
        <time>2026-06-02T22:33:15Z</time>
      </trkpt>
      <trkpt lat="23.061138" lon="113.28058">
        <time>2026-06-02T22:33:20Z</time>
      </trkpt>
      <trkpt lat="23.061183" lon="113.280471">
        <time>2026-06-02T22:33:25Z</time>
      </trkpt>
      <trkpt lat="23.061253" lon="113.280322">
        <time>2026-06-02T22:33:30Z</time>
      </trkpt>
      <trkpt lat="23.061308" lon="113.280228">
        <time>2026-06-02T22:33:35Z</time>
      </trkpt>
      <trkpt lat="23.06139" lon="113.28008">
        <time>2026-06-02T22:33:40Z</time>
      </trkpt>
      <trkpt lat="23.061425" lon="113.279975">
        <time>2026-06-02T22:33:45Z</time>
      </trkpt>
      <trkpt lat="23.06149" lon="113.279818">
        <time>2026-06-02T22:33:50Z</time>
      </trkpt>
      <trkpt lat="23.06154" lon="113.279717">
        <time>2026-06-02T22:33:55Z</time>
      </trkpt>
      <trkpt lat="23.061603" lon="113.279566">
        <time>2026-06-02T22:34:00Z</time>
      </trkpt>
      <trkpt lat="23.061638" lon="113.279466">
        <time>2026-06-02T22:34:05Z</time>
      </trkpt>
      <trkpt lat="23.061703" lon="113.279301">
        <time>2026-06-02T22:34:10Z</time>
      </trkpt>
      <trkpt lat="23.061754" lon="113.279191">
        <time>2026-06-02T22:34:15Z</time>
      </trkpt>
      <trkpt lat="23.061839" lon="113.279038">
        <time>2026-06-02T22:34:20Z</time>
      </trkpt>
      <trkpt lat="23.061899" lon="113.27894">
        <time>2026-06-02T22:34:25Z</time>
      </trkpt>
      <trkpt lat="23.061965" lon="113.278784">
        <time>2026-06-02T22:34:30Z</time>
      </trkpt>
      <trkpt lat="23.061972" lon="113.278668">
        <time>2026-06-02T22:34:35Z</time>
      </trkpt>
      <trkpt lat="23.061957" lon="113.278497">
        <time>2026-06-02T22:34:40Z</time>
      </trkpt>
      <trkpt lat="23.061952" lon="113.278386">
        <time>2026-06-02T22:34:45Z</time>
      </trkpt>
      <trkpt lat="23.061946" lon="113.278211">
        <time>2026-06-02T22:34:50Z</time>
      </trkpt>
      <trkpt lat="23.061941" lon="113.278093">
        <time>2026-06-02T22:34:55Z</time>
      </trkpt>
      <trkpt lat="23.061933" lon="113.277917">
        <time>2026-06-02T22:35:00Z</time>
      </trkpt>
      <trkpt lat="23.061936" lon="113.277799">
        <time>2026-06-02T22:35:05Z</time>
      </trkpt>
      <trkpt lat="23.061974" lon="113.277637">
        <time>2026-06-02T22:35:10Z</time>
      </trkpt>
      <trkpt lat="23.062013" lon="113.277533">
        <time>2026-06-02T22:35:15Z</time>
      </trkpt>
      <trkpt lat="23.062079" lon="113.277373">
        <time>2026-06-02T22:35:20Z</time>
      </trkpt>
      <trkpt lat="23.062123" lon="113.277263">
        <time>2026-06-02T22:35:25Z</time>
      </trkpt>
      <trkpt lat="23.062176" lon="113.277099">
        <time>2026-06-02T22:35:30Z</time>
      </trkpt>
      <trkpt lat="23.062216" lon="113.276995">
        <time>2026-06-02T22:35:35Z</time>
      </trkpt>
      <trkpt lat="23.062275" lon="113.276837">
        <time>2026-06-02T22:35:40Z</time>
      </trkpt>
      <trkpt lat="23.062314" lon="113.276726">
        <time>2026-06-02T22:35:45Z</time>
      </trkpt>
      <trkpt lat="23.062379" lon="113.276568">
        <time>2026-06-02T22:35:50Z</time>
      </trkpt>
      <trkpt lat="23.062424" lon="113.276469">
        <time>2026-06-02T22:35:55Z</time>
      </trkpt>
      <trkpt lat="23.062487" lon="113.276311">
        <time>2026-06-02T22:36:00Z</time>
      </trkpt>
      <trkpt lat="23.062536" lon="113.276201">
        <time>2026-06-02T22:36:05Z</time>
      </trkpt>
      <trkpt lat="23.06262" lon="113.276042">
        <time>2026-06-02T22:36:10Z</time>
      </trkpt>
      <trkpt lat="23.062684" lon="113.275943">
        <time>2026-06-02T22:36:15Z</time>
      </trkpt>
      <trkpt lat="23.062795" lon="113.27582">
        <time>2026-06-02T22:36:20Z</time>
      </trkpt>
      <trkpt lat="23.06288" lon="113.275749">
        <time>2026-06-02T22:36:25Z</time>
      </trkpt>
      <trkpt lat="23.062999" lon="113.275631">
        <time>2026-06-02T22:36:30Z</time>
      </trkpt>
      <trkpt lat="23.06306" lon="113.275539">
        <time>2026-06-02T22:36:35Z</time>
      </trkpt>
      <trkpt lat="23.063138" lon="113.275382">
        <time>2026-06-02T22:36:40Z</time>
      </trkpt>
      <trkpt lat="23.063196" lon="113.275287">
        <time>2026-06-02T22:36:45Z</time>
      </trkpt>
      <trkpt lat="23.063301" lon="113.275149">
        <time>2026-06-02T22:36:50Z</time>
      </trkpt>
      <trkpt lat="23.063369" lon="113.27506">
        <time>2026-06-02T22:36:55Z</time>
      </trkpt>
      <trkpt lat="23.063434" lon="113.274908">
        <time>2026-06-02T22:37:00Z</time>
      </trkpt>
      <trkpt lat="23.06347" lon="113.274801">
        <time>2026-06-02T22:37:05Z</time>
      </trkpt>
      <trkpt lat="23.06351" lon="113.274641">
        <time>2026-06-02T22:37:10Z</time>
      </trkpt>
      <trkpt lat="23.063523" lon="113.274531">
        <time>2026-06-02T22:37:15Z</time>
      </trkpt>
      <trkpt lat="23.063603" lon="113.27437">
        <time>2026-06-02T22:37:20Z</time>
      </trkpt>
      <trkpt lat="23.063679" lon="113.27427">
        <time>2026-06-02T22:37:25Z</time>
      </trkpt>
      <trkpt lat="23.063801" lon="113.27414">
        <time>2026-06-02T22:37:30Z</time>
      </trkpt>
      <trkpt lat="23.063864" lon="113.274036">
        <time>2026-06-02T22:37:35Z</time>
      </trkpt>
      <trkpt lat="23.063945" lon="113.273866">
        <time>2026-06-02T22:37:40Z</time>
      </trkpt>
      <trkpt lat="23.064019" lon="113.273763">
        <time>2026-06-02T22:37:45Z</time>
      </trkpt>
      <trkpt lat="23.064169" lon="113.273648">
        <time>2026-06-02T22:37:50Z</time>
      </trkpt>
      <trkpt lat="23.064262" lon="113.273574">
        <time>2026-06-02T22:37:55Z</time>
      </trkpt>
      <trkpt lat="23.06437" lon="113.273496">
        <time>2026-06-02T22:38:00Z</time>
      </trkpt>
      <trkpt lat="23.064457" lon="113.273424">
        <time>2026-06-02T22:38:05Z</time>
      </trkpt>
      <trkpt lat="23.064566" lon="113.273265">
        <time>2026-06-02T22:38:10Z</time>
      </trkpt>
      <trkpt lat="23.064583" lon="113.273131">
        <time>2026-06-02T22:38:15Z</time>
      </trkpt>
      <trkpt lat="23.064536" lon="113.272927">
        <time>2026-06-02T22:38:20Z</time>
      </trkpt>
      <trkpt lat="23.06449" lon="113.272792">
        <time>2026-06-02T22:38:25Z</time>
      </trkpt>
      <trkpt lat="23.06445" lon="113.272597">
        <time>2026-06-02T22:38:30Z</time>
      </trkpt>
      <trkpt lat="23.064489" lon="113.272483">
        <time>2026-06-02T22:38:35Z</time>
      </trkpt>
      <trkpt lat="23.064543" lon="113.272301">
        <time>2026-06-02T22:38:40Z</time>
      </trkpt>
      <trkpt lat="23.064569" lon="113.272172">
        <time>2026-06-02T22:38:45Z</time>
      </trkpt>
      <trkpt lat="23.064648" lon="113.271996">
        <time>2026-06-02T22:38:50Z</time>
      </trkpt>
      <trkpt lat="23.064708" lon="113.271884">
        <time>2026-06-02T22:38:55Z</time>
      </trkpt>
      <trkpt lat="23.064802" lon="113.271725">
        <time>2026-06-02T22:39:00Z</time>
      </trkpt>
      <trkpt lat="23.064864" lon="113.271613">
        <time>2026-06-02T22:39:05Z</time>
      </trkpt>
      <trkpt lat="23.064946" lon="113.271444">
        <time>2026-06-02T22:39:10Z</time>
      </trkpt>
      <trkpt lat="23.065005" lon="113.271333">
        <time>2026-06-02T22:39:15Z</time>
      </trkpt>
      <trkpt lat="23.065095" lon="113.271156">
        <time>2026-06-02T22:39:20Z</time>
      </trkpt>
      <trkpt lat="23.065147" lon="113.271028">
        <time>2026-06-02T22:39:25Z</time>
      </trkpt>
      <trkpt lat="23.065218" lon="113.270827">
        <time>2026-06-02T22:39:30Z</time>
      </trkpt>
      <trkpt lat="23.065277" lon="113.270708">
        <time>2026-06-02T22:39:35Z</time>
      </trkpt>
      <trkpt lat="23.065367" lon="113.270531">
        <time>2026-06-02T22:39:40Z</time>
      </trkpt>
      <trkpt lat="23.065422" lon="113.270406">
        <time>2026-06-02T22:39:45Z</time>
      </trkpt>
      <trkpt lat="23.065495" lon="113.270224">
        <time>2026-06-02T22:39:50Z</time>
      </trkpt>
      <trkpt lat="23.06554" lon="113.270099">
        <time>2026-06-02T22:39:55Z</time>
      </trkpt>
      <trkpt lat="23.065602" lon="113.269918">
        <time>2026-06-02T22:40:00Z</time>
      </trkpt>
      <trkpt lat="23.065632" lon="113.269794">
        <time>2026-06-02T22:40:05Z</time>
      </trkpt>
      <trkpt lat="23.065682" lon="113.269622">
        <time>2026-06-02T22:40:10Z</time>
      </trkpt>
      <trkpt lat="23.065721" lon="113.269512">
        <time>2026-06-02T22:40:15Z</time>
      </trkpt>
      <trkpt lat="23.06576" lon="113.269344">
        <time>2026-06-02T22:40:20Z</time>
      </trkpt>
      <trkpt lat="23.065791" lon="113.26923">
        <time>2026-06-02T22:40:25Z</time>
      </trkpt>
      <trkpt lat="23.065853" lon="113.269066">
        <time>2026-06-02T22:40:30Z</time>
      </trkpt>
      <trkpt lat="23.0659" lon="113.268968">
        <time>2026-06-02T22:40:35Z</time>
      </trkpt>
      <trkpt lat="23.065979" lon="113.268823">
        <time>2026-06-02T22:40:40Z</time>
      </trkpt>
      <trkpt lat="23.066027" lon="113.268725">
        <time>2026-06-02T22:40:45Z</time>
      </trkpt>
      <trkpt lat="23.066079" lon="113.268565">
        <time>2026-06-02T22:40:50Z</time>
      </trkpt>
      <trkpt lat="23.066137" lon="113.268464">
        <time>2026-06-02T22:40:55Z</time>
      </trkpt>
      <trkpt lat="23.066249" lon="113.268327">
        <time>2026-06-02T22:41:00Z</time>
      </trkpt>
      <trkpt lat="23.066326" lon="113.268239">
        <time>2026-06-02T22:41:05Z</time>
      </trkpt>
      <trkpt lat="23.066471" lon="113.268158">
        <time>2026-06-02T22:41:10Z</time>
      </trkpt>
      <trkpt lat="23.06658" lon="113.268155">
        <time>2026-06-02T22:41:15Z</time>
      </trkpt>
      <trkpt lat="23.066737" lon="113.268183">
        <time>2026-06-02T22:41:20Z</time>
      </trkpt>
      <trkpt lat="23.066844" lon="113.268192">
        <time>2026-06-02T22:41:25Z</time>
      </trkpt>
      <trkpt lat="23.067001" lon="113.268224">
        <time>2026-06-02T22:41:30Z</time>
      </trkpt>
      <trkpt lat="23.067098" lon="113.268268">
        <time>2026-06-02T22:41:35Z</time>
      </trkpt>
      <trkpt lat="23.067218" lon="113.268364">
        <time>2026-06-02T22:41:40Z</time>
      </trkpt>
      <trkpt lat="23.0673" lon="113.268413">
        <time>2026-06-02T22:41:45Z</time>
      </trkpt>
      <trkpt lat="23.067435" lon="113.268497">
        <time>2026-06-02T22:41:50Z</time>
      </trkpt>
      <trkpt lat="23.06753" lon="113.268551">
        <time>2026-06-02T22:41:55Z</time>
      </trkpt>
      <trkpt lat="23.067684" lon="113.268604">
        <time>2026-06-02T22:42:00Z</time>
      </trkpt>
      <trkpt lat="23.067789" lon="113.268634">
        <time>2026-06-02T22:42:05Z</time>
      </trkpt>
      <trkpt lat="23.067943" lon="113.268708">
        <time>2026-06-02T22:42:10Z</time>
      </trkpt>
      <trkpt lat="23.068046" lon="113.268752">
        <time>2026-06-02T22:42:15Z</time>
      </trkpt>
      <trkpt lat="23.068197" lon="113.268824">
        <time>2026-06-02T22:42:20Z</time>
      </trkpt>
      <trkpt lat="23.068313" lon="113.268867">
        <time>2026-06-02T22:42:25Z</time>
      </trkpt>
      <trkpt lat="23.068465" lon="113.26894">
        <time>2026-06-02T22:42:30Z</time>
      </trkpt>
      <trkpt lat="23.068568" lon="113.268987">
        <time>2026-06-02T22:42:35Z</time>
      </trkpt>
      <trkpt lat="23.068724" lon="113.269061">
        <time>2026-06-02T22:42:40Z</time>
      </trkpt>
      <trkpt lat="23.068812" lon="113.26912">
        <time>2026-06-02T22:42:45Z</time>
      </trkpt>
      <trkpt lat="23.068953" lon="113.26918">
        <time>2026-06-02T22:42:50Z</time>
      </trkpt>
      <trkpt lat="23.069051" lon="113.269194">
        <time>2026-06-02T22:42:55Z</time>
      </trkpt>
      <trkpt lat="23.069181" lon="113.269268">
        <time>2026-06-02T22:43:00Z</time>
      </trkpt>
      <trkpt lat="23.069256" lon="113.269345">
        <time>2026-06-02T22:43:05Z</time>
      </trkpt>
      <trkpt lat="23.069406" lon="113.269407">
        <time>2026-06-02T22:43:10Z</time>
      </trkpt>
      <trkpt lat="23.069506" lon="113.269451">
        <time>2026-06-02T22:43:15Z</time>
      </trkpt>
      <trkpt lat="23.069646" lon="113.269525">
        <time>2026-06-02T22:43:20Z</time>
      </trkpt>
      <trkpt lat="23.069752" lon="113.269595">
        <time>2026-06-02T22:43:25Z</time>
      </trkpt>
      <trkpt lat="23.069869" lon="113.269676">
        <time>2026-06-02T22:43:30Z</time>
      </trkpt>
      <trkpt lat="23.070012" lon="113.269773">
        <time>2026-06-02T22:43:35Z</time>
      </trkpt>
      <trkpt lat="23.070103" lon="113.269828">
        <time>2026-06-02T22:43:40Z</time>
      </trkpt>
      <trkpt lat="23.070248" lon="113.269897">
        <time>2026-06-02T22:43:45Z</time>
      </trkpt>
      <trkpt lat="23.070341" lon="113.269945">
        <time>2026-06-02T22:43:50Z</time>
      </trkpt>
      <trkpt lat="23.0705" lon="113.270015">
        <time>2026-06-02T22:43:55Z</time>
      </trkpt>
      <trkpt lat="23.070597" lon="113.270051">
        <time>2026-06-02T22:44:00Z</time>
      </trkpt>
      <trkpt lat="23.070746" lon="113.2701">
        <time>2026-06-02T22:44:05Z</time>
      </trkpt>
      <trkpt lat="23.070837" lon="113.27013">
        <time>2026-06-02T22:44:10Z</time>
      </trkpt>
      <trkpt lat="23.070967" lon="113.270185">
        <time>2026-06-02T22:44:15Z</time>
      </trkpt>
      <trkpt lat="23.071047" lon="113.270242">
        <time>2026-06-02T22:44:20Z</time>
      </trkpt>
      <trkpt lat="23.071187" lon="113.270294">
        <time>2026-06-02T22:44:25Z</time>
      </trkpt>
      <trkpt lat="23.071278" lon="113.270324">
        <time>2026-06-02T22:44:30Z</time>
      </trkpt>
      <trkpt lat="23.071419" lon="113.270373">
        <time>2026-06-02T22:44:35Z</time>
      </trkpt>
      <trkpt lat="23.071512" lon="113.270408">
        <time>2026-06-02T22:44:40Z</time>
      </trkpt>
      <trkpt lat="23.071643" lon="113.270475">
        <time>2026-06-02T22:44:45Z</time>
      </trkpt>
      <trkpt lat="23.071727" lon="113.270528">
        <time>2026-06-02T22:44:50Z</time>
      </trkpt>
      <trkpt lat="23.071857" lon="113.270606">
        <time>2026-06-02T22:44:55Z</time>
      </trkpt>
      <trkpt lat="23.071943" lon="113.270632">
        <time>2026-06-02T22:45:00Z</time>
      </trkpt>
      <trkpt lat="23.072066" lon="113.270692">
        <time>2026-06-02T22:45:05Z</time>
      </trkpt>
      <trkpt lat="23.072159" lon="113.270717">
        <time>2026-06-02T22:45:10Z</time>
      </trkpt>
      <trkpt lat="23.072297" lon="113.270763">
        <time>2026-06-02T22:45:15Z</time>
      </trkpt>
      <trkpt lat="23.072397" lon="113.270796">
        <time>2026-06-02T22:45:20Z</time>
      </trkpt>
      <trkpt lat="23.07255" lon="113.270816">
        <time>2026-06-02T22:45:25Z</time>
      </trkpt>
      <trkpt lat="23.072662" lon="113.270871">
        <time>2026-06-02T22:45:30Z</time>
      </trkpt>
      <trkpt lat="23.07282" lon="113.270968">
        <time>2026-06-02T22:45:35Z</time>
      </trkpt>
      <trkpt lat="23.072916" lon="113.271027">
        <time>2026-06-02T22:45:40Z</time>
      </trkpt>
      <trkpt lat="23.073057" lon="113.271106">
        <time>2026-06-02T22:45:45Z</time>
      </trkpt>
      <trkpt lat="23.07313" lon="113.271161">
        <time>2026-06-02T22:45:50Z</time>
      </trkpt>
      <trkpt lat="23.073194" lon="113.271258">
        <time>2026-06-02T22:45:55Z</time>
      </trkpt>
      <trkpt lat="23.073281" lon="113.271293">
        <time>2026-06-02T22:46:00Z</time>
      </trkpt>
      <trkpt lat="23.07345" lon="113.271423">
        <time>2026-06-02T22:46:05Z</time>
      </trkpt>
      <trkpt lat="23.073543" lon="113.2715">
        <time>2026-06-02T22:46:10Z</time>
      </trkpt>
      <trkpt lat="23.07367" lon="113.271591">
        <time>2026-06-02T22:46:15Z</time>
      </trkpt>
      <trkpt lat="23.073737" lon="113.271655">
        <time>2026-06-02T22:46:20Z</time>
      </trkpt>
      <trkpt lat="23.073849" lon="113.271731">
        <time>2026-06-02T22:46:25Z</time>
      </trkpt>
      <trkpt lat="23.073932" lon="113.271782">
        <time>2026-06-02T22:46:30Z</time>
      </trkpt>
      <trkpt lat="23.07402" lon="113.271847">
        <time>2026-06-02T22:46:35Z</time>
      </trkpt>
      <trkpt lat="23.074003" lon="113.27192">
        <time>2026-06-02T22:46:40Z</time>
      </trkpt>
      <trkpt lat="23.073941" lon="113.272046">
        <time>2026-06-02T22:46:45Z</time>
      </trkpt>
      <trkpt lat="23.073905" lon="113.272138">
        <time>2026-06-02T22:46:50Z</time>
      </trkpt>
      <trkpt lat="23.07387" lon="113.272273">
        <time>2026-06-02T22:46:55Z</time>
      </trkpt>
      <trkpt lat="23.073852" lon="113.272352">
        <time>2026-06-02T22:47:00Z</time>
      </trkpt>
      <trkpt lat="23.073795" lon="113.272492">
        <time>2026-06-02T22:47:05Z</time>
      </trkpt>
      <trkpt lat="23.07375" lon="113.272598">
        <time>2026-06-02T22:47:10Z</time>
      </trkpt>
      <trkpt lat="23.073696" lon="113.272754">
        <time>2026-06-02T22:47:15Z</time>
      </trkpt>
      <trkpt lat="23.073659" lon="113.27285">
        <time>2026-06-02T22:47:20Z</time>
      </trkpt>
      <trkpt lat="23.073618" lon="113.272997">
        <time>2026-06-02T22:47:25Z</time>
      </trkpt>
      <trkpt lat="23.073605" lon="113.273082">
        <time>2026-06-02T22:47:30Z</time>
      </trkpt>
      <trkpt lat="23.073624" lon="113.273042">
        <time>2026-06-02T22:47:35Z</time>
      </trkpt>
      <trkpt lat="23.073712" lon="113.272992">
        <time>2026-06-02T22:47:40Z</time>
      </trkpt>
      <trkpt lat="23.073854" lon="113.273005">
        <time>2026-06-02T22:47:45Z</time>
      </trkpt>
      <trkpt lat="23.073968" lon="113.273027">
        <time>2026-06-02T22:47:50Z</time>
      </trkpt>
      <trkpt lat="23.074064" lon="113.272926">
        <time>2026-06-02T22:47:55Z</time>
      </trkpt>
      <trkpt lat="23.074091" lon="113.272824">
        <time>2026-06-02T22:48:00Z</time>
      </trkpt>
      <trkpt lat="23.074138" lon="113.272673">
        <time>2026-06-02T22:48:05Z</time>
      </trkpt>
      <trkpt lat="23.074173" lon="113.272577">
        <time>2026-06-02T22:48:10Z</time>
      </trkpt>
      <trkpt lat="23.074232" lon="113.272425">
        <time>2026-06-02T22:48:15Z</time>
      </trkpt>
      <trkpt lat="23.074274" lon="113.272331">
        <time>2026-06-02T22:48:20Z</time>
      </trkpt>
      <trkpt lat="23.074344" lon="113.272192">
        <time>2026-06-02T22:48:25Z</time>
      </trkpt>
      <trkpt lat="23.074395" lon="113.272112">
        <time>2026-06-02T22:48:30Z</time>
      </trkpt>
      <trkpt lat="23.074513" lon="113.272016">
        <time>2026-06-02T22:48:35Z</time>
      </trkpt>
      <trkpt lat="23.074615" lon="113.272052">
        <time>2026-06-02T22:48:40Z</time>
      </trkpt>
      <trkpt lat="23.074771" lon="113.272133">
        <time>2026-06-02T22:48:45Z</time>
      </trkpt>
      <trkpt lat="23.074859" lon="113.272188">
        <time>2026-06-02T22:48:50Z</time>
      </trkpt>
      <trkpt lat="23.074982" lon="113.272266">
        <time>2026-06-02T22:48:55Z</time>
      </trkpt>
      <trkpt lat="23.075055" lon="113.272314">
        <time>2026-06-02T22:49:03Z</time>
      </trkpt>
    </trkseg>
  </trk>
</gpx>