<?xml version="1.0" encoding="UTF-8"?>
<gpx xmlns="http://www.topografix.com/GPX/1/1" xmlns:gpxtpx="http://www.garmin.com/xmlschemas/TrackPointExtension/v1" xmlns:xsi="http://www.w3.org/2001/XMLSchema-instance" xsi:schemaLocation="http://www.topografix.com/GPX/1/1 http://www.topografix.com/GPX/1/1/gpx.xsd" version="1.1" creator="gpx.py -- https://github.com/tkrajina/gpxpy">
  <trk>
    <name>gpx from joyrun</name>
    <trkseg>
      <trkpt lat="23.075076" lon="113.272055">
        <time>2026-06-03T22:02:04Z</time>
      </trkpt>
      <trkpt lat="23.075032" lon="113.27207">
        <time>2026-06-03T22:02:09Z</time>
      </trkpt>
      <trkpt lat="23.074919" lon="113.272096">
        <time>2026-06-03T22:02:14Z</time>
      </trkpt>
      <trkpt lat="23.074747" lon="113.272081">
        <time>2026-06-03T22:02:19Z</time>
      </trkpt>
      <trkpt lat="23.074661" lon="113.272047">
        <time>2026-06-03T22:02:24Z</time>
      </trkpt>
      <trkpt lat="23.07452" lon="113.271983">
        <time>2026-06-03T22:02:29Z</time>
      </trkpt>
      <trkpt lat="23.074429" lon="113.271936">
        <time>2026-06-03T22:02:34Z</time>
      </trkpt>
      <trkpt lat="23.074358" lon="113.272064">
        <time>2026-06-03T22:02:39Z</time>
      </trkpt>
      <trkpt lat="23.074321" lon="113.272174">
        <time>2026-06-03T22:02:44Z</time>
      </trkpt>
      <trkpt lat="23.074268" lon="113.27234">
        <time>2026-06-03T22:02:49Z</time>
      </trkpt>
      <trkpt lat="23.07423" lon="113.272439">
        <time>2026-06-03T22:02:54Z</time>
      </trkpt>
      <trkpt lat="23.07418" lon="113.272572">
        <time>2026-06-03T22:02:59Z</time>
      </trkpt>
      <trkpt lat="23.074122" lon="113.272674">
        <time>2026-06-03T22:03:04Z</time>
      </trkpt>
      <trkpt lat="23.074051" lon="113.272804">
        <time>2026-06-03T22:03:09Z</time>
      </trkpt>
      <trkpt lat="23.074013" lon="113.272889">
        <time>2026-06-03T22:03:14Z</time>
      </trkpt>
      <trkpt lat="23.073955" lon="113.273033">
        <time>2026-06-03T22:03:19Z</time>
      </trkpt>
      <trkpt lat="23.073912" lon="113.273132">
        <time>2026-06-03T22:03:24Z</time>
      </trkpt>
      <trkpt lat="23.073865" lon="113.273275">
        <time>2026-06-03T22:03:29Z</time>
      </trkpt>
      <trkpt lat="23.073838" lon="113.273384">
        <time>2026-06-03T22:03:34Z</time>
      </trkpt>
      <trkpt lat="23.073821" lon="113.273399">
        <time>2026-06-03T22:03:39Z</time>
      </trkpt>
      <trkpt lat="23.073841" lon="113.273321">
        <time>2026-06-03T22:03:44Z</time>
      </trkpt>
      <trkpt lat="23.073889" lon="113.27318">
        <time>2026-06-03T22:03:49Z</time>
      </trkpt>
      <trkpt lat="23.073885" lon="113.273086">
        <time>2026-06-03T22:03:54Z</time>
      </trkpt>
      <trkpt lat="23.073803" lon="113.272961">
        <time>2026-06-03T22:03:59Z</time>
      </trkpt>
      <trkpt lat="23.073721" lon="113.27288">
        <time>2026-06-03T22:04:04Z</time>
      </trkpt>
      <trkpt lat="23.073698" lon="113.272739">
        <time>2026-06-03T22:04:09Z</time>
      </trkpt>
      <trkpt lat="23.073762" lon="113.272642">
        <time>2026-06-03T22:04:14Z</time>
      </trkpt>
      <trkpt lat="23.073864" lon="113.272499">
        <time>2026-06-03T22:04:19Z</time>
      </trkpt>
      <trkpt lat="23.07391" lon="113.272404">
        <time>2026-06-03T22:04:24Z</time>
      </trkpt>
      <trkpt lat="23.073972" lon="113.272262">
        <time>2026-06-03T22:04:29Z</time>
      </trkpt>
      <trkpt lat="23.074015" lon="113.272169">
        <time>2026-06-03T22:04:34Z</time>
      </trkpt>
      <trkpt lat="23.074074" lon="113.272025">
        <time>2026-06-03T22:04:39Z</time>
      </trkpt>
      <trkpt lat="23.074112" lon="113.271936">
        <time>2026-06-03T22:04:44Z</time>
      </trkpt>
      <trkpt lat="23.074153" lon="113.271796">
        <time>2026-06-03T22:04:49Z</time>
      </trkpt>
      <trkpt lat="23.074119" lon="113.271707">
        <time>2026-06-03T22:04:54Z</time>
      </trkpt>
      <trkpt lat="23.073989" lon="113.271637">
        <time>2026-06-03T22:04:59Z</time>
      </trkpt>
      <trkpt lat="23.073908" lon="113.271606">
        <time>2026-06-03T22:05:04Z</time>
      </trkpt>
      <trkpt lat="23.073784" lon="113.271548">
        <time>2026-06-03T22:05:09Z</time>
      </trkpt>
      <trkpt lat="23.0737" lon="113.271507">
        <time>2026-06-03T22:05:14Z</time>
      </trkpt>
      <trkpt lat="23.073574" lon="113.271441">
        <time>2026-06-03T22:05:19Z</time>
      </trkpt>
      <trkpt lat="23.073486" lon="113.271403">
        <time>2026-06-03T22:05:24Z</time>
      </trkpt>
      <trkpt lat="23.073346" lon="113.271341">
        <time>2026-06-03T22:05:29Z</time>
      </trkpt>
      <trkpt lat="23.073274" lon="113.271267">
        <time>2026-06-03T22:05:34Z</time>
      </trkpt>
      <trkpt lat="23.073142" lon="113.271189">
        <time>2026-06-03T22:05:39Z</time>
      </trkpt>
      <trkpt lat="23.073053" lon="113.271132">
        <time>2026-06-03T22:05:44Z</time>
      </trkpt>
      <trkpt lat="23.072913" lon="113.271053">
        <time>2026-06-03T22:05:49Z</time>
      </trkpt>
      <trkpt lat="23.072814" lon="113.270999">
        <time>2026-06-03T22:05:54Z</time>
      </trkpt>
      <trkpt lat="23.072673" lon="113.270915">
        <time>2026-06-03T22:05:59Z</time>
      </trkpt>
      <trkpt lat="23.072579" lon="113.270868">
        <time>2026-06-03T22:06:04Z</time>
      </trkpt>
      <trkpt lat="23.072441" lon="113.270805">
        <time>2026-06-03T22:06:09Z</time>
      </trkpt>
      <trkpt lat="23.072354" lon="113.270762">
        <time>2026-06-03T22:06:14Z</time>
      </trkpt>
      <trkpt lat="23.072223" lon="113.270683">
        <time>2026-06-03T22:06:19Z</time>
      </trkpt>
      <trkpt lat="23.072138" lon="113.270631">
        <time>2026-06-03T22:06:24Z</time>
      </trkpt>
      <trkpt lat="23.071998" lon="113.270551">
        <time>2026-06-03T22:06:29Z</time>
      </trkpt>
      <trkpt lat="23.071907" lon="113.270498">
        <time>2026-06-03T22:06:34Z</time>
      </trkpt>
      <trkpt lat="23.071756" lon="113.270431">
        <time>2026-06-03T22:06:39Z</time>
      </trkpt>
      <trkpt lat="23.071658" lon="113.270403">
        <time>2026-06-03T22:06:44Z</time>
      </trkpt>
      <trkpt lat="23.071509" lon="113.270336">
        <time>2026-06-03T22:06:49Z</time>
      </trkpt>
      <trkpt lat="23.07141" lon="113.27028">
        <time>2026-06-03T22:06:54Z</time>
      </trkpt>
      <trkpt lat="23.071263" lon="113.270201">
        <time>2026-06-03T22:06:59Z</time>
      </trkpt>
      <trkpt lat="23.071157" lon="113.270161">
        <time>2026-06-03T22:07:04Z</time>
      </trkpt>
      <trkpt lat="23.070998" lon="113.270092">
        <time>2026-06-03T22:07:09Z</time>
      </trkpt>
      <trkpt lat="23.070912" lon="113.27005">
        <time>2026-06-03T22:07:14Z</time>
      </trkpt>
      <trkpt lat="23.070781" lon="113.269975">
        <time>2026-06-03T22:07:19Z</time>
      </trkpt>
      <trkpt lat="23.0707" lon="113.269931">
        <time>2026-06-03T22:07:24Z</time>
      </trkpt>
      <trkpt lat="23.070551" lon="113.269884">
        <time>2026-06-03T22:07:29Z</time>
      </trkpt>
      <trkpt lat="23.070454" lon="113.269849">
        <time>2026-06-03T22:07:34Z</time>
      </trkpt>
      <trkpt lat="23.070313" lon="113.269791">
        <time>2026-06-03T22:07:39Z</time>
      </trkpt>
      <trkpt lat="23.070224" lon="113.269744">
        <time>2026-06-03T22:07:44Z</time>
      </trkpt>
      <trkpt lat="23.070091" lon="113.269659">
        <time>2026-06-03T22:07:49Z</time>
      </trkpt>
      <trkpt lat="23.07" lon="113.269601">
        <time>2026-06-03T22:07:54Z</time>
      </trkpt>
      <trkpt lat="23.069859" lon="113.269532">
        <time>2026-06-03T22:07:59Z</time>
      </trkpt>
      <trkpt lat="23.069752" lon="113.269493">
        <time>2026-06-03T22:08:04Z</time>
      </trkpt>
      <trkpt lat="23.069589" lon="113.269414">
        <time>2026-06-03T22:08:09Z</time>
      </trkpt>
      <trkpt lat="23.069493" lon="113.269361">
        <time>2026-06-03T22:08:14Z</time>
      </trkpt>
      <trkpt lat="23.069329" lon="113.269261">
        <time>2026-06-03T22:08:19Z</time>
      </trkpt>
      <trkpt lat="23.069233" lon="113.269195">
        <time>2026-06-03T22:08:24Z</time>
      </trkpt>
      <trkpt lat="23.069096" lon="113.269135">
        <time>2026-06-03T22:08:29Z</time>
      </trkpt>
      <trkpt lat="23.068993" lon="113.269113">
        <time>2026-06-03T22:08:34Z</time>
      </trkpt>
      <trkpt lat="23.068834" lon="113.269087">
        <time>2026-06-03T22:08:39Z</time>
      </trkpt>
      <trkpt lat="23.068737" lon="113.269051">
        <time>2026-06-03T22:08:44Z</time>
      </trkpt>
      <trkpt lat="23.068591" lon="113.268996">
        <time>2026-06-03T22:08:49Z</time>
      </trkpt>
      <trkpt lat="23.068485" lon="113.268978">
        <time>2026-06-03T22:08:54Z</time>
      </trkpt>
      <trkpt lat="23.068341" lon="113.268911">
        <time>2026-06-03T22:08:59Z</time>
      </trkpt>
      <trkpt lat="23.068252" lon="113.268864">
        <time>2026-06-03T22:09:04Z</time>
      </trkpt>
      <trkpt lat="23.068121" lon="113.268799">
        <time>2026-06-03T22:09:09Z</time>
      </trkpt>
      <trkpt lat="23.068039" lon="113.268716">
        <time>2026-06-03T22:09:14Z</time>
      </trkpt>
      <trkpt lat="23.067917" lon="113.268565">
        <time>2026-06-03T22:09:19Z</time>
      </trkpt>
      <trkpt lat="23.067844" lon="113.268466">
        <time>2026-06-03T22:09:24Z</time>
      </trkpt>
      <trkpt lat="23.067701" lon="113.26838">
        <time>2026-06-03T22:09:29Z</time>
      </trkpt>
      <trkpt lat="23.067599" lon="113.268334">
        <time>2026-06-03T22:09:34Z</time>
      </trkpt>
      <trkpt lat="23.067441" lon="113.268275">
        <time>2026-06-03T22:09:39Z</time>
      </trkpt>
      <trkpt lat="23.067344" lon="113.26824">
        <time>2026-06-03T22:09:44Z</time>
      </trkpt>
      <trkpt lat="23.067211" lon="113.26818">
        <time>2026-06-03T22:09:49Z</time>
      </trkpt>
      <trkpt lat="23.067119" lon="113.268138">
        <time>2026-06-03T22:09:54Z</time>
      </trkpt>
      <trkpt lat="23.066971" lon="113.268071">
        <time>2026-06-03T22:09:59Z</time>
      </trkpt>
      <trkpt lat="23.066873" lon="113.26804">
        <time>2026-06-03T22:10:04Z</time>
      </trkpt>
      <trkpt lat="23.066717" lon="113.268015">
        <time>2026-06-03T22:10:09Z</time>
      </trkpt>
      <trkpt lat="23.066616" lon="113.26799">
        <time>2026-06-03T22:10:14Z</time>
      </trkpt>
      <trkpt lat="23.066456" lon="113.267955">
        <time>2026-06-03T22:10:19Z</time>
      </trkpt>
      <trkpt lat="23.066348" lon="113.267964">
        <time>2026-06-03T22:10:24Z</time>
      </trkpt>
      <trkpt lat="23.066208" lon="113.268039">
        <time>2026-06-03T22:10:29Z</time>
      </trkpt>
      <trkpt lat="23.066131" lon="113.268114">
        <time>2026-06-03T22:10:34Z</time>
      </trkpt>
      <trkpt lat="23.066017" lon="113.26824">
        <time>2026-06-03T22:10:39Z</time>
      </trkpt>
      <trkpt lat="23.065942" lon="113.268322">
        <time>2026-06-03T22:10:44Z</time>
      </trkpt>
      <trkpt lat="23.065847" lon="113.268451">
        <time>2026-06-03T22:10:49Z</time>
      </trkpt>
      <trkpt lat="23.065794" lon="113.268546">
        <time>2026-06-03T22:10:54Z</time>
      </trkpt>
      <trkpt lat="23.065721" lon="113.268692">
        <time>2026-06-03T22:10:59Z</time>
      </trkpt>
      <trkpt lat="23.065677" lon="113.26879">
        <time>2026-06-03T22:11:04Z</time>
      </trkpt>
      <trkpt lat="23.065617" lon="113.268934">
        <time>2026-06-03T22:11:09Z</time>
      </trkpt>
      <trkpt lat="23.065585" lon="113.269036">
        <time>2026-06-03T22:11:14Z</time>
      </trkpt>
      <trkpt lat="23.065549" lon="113.269198">
        <time>2026-06-03T22:11:19Z</time>
      </trkpt>
      <trkpt lat="23.065526" lon="113.26931">
        <time>2026-06-03T22:11:24Z</time>
      </trkpt>
      <trkpt lat="23.065487" lon="113.269477">
        <time>2026-06-03T22:11:29Z</time>
      </trkpt>
      <trkpt lat="23.065458" lon="113.26958">
        <time>2026-06-03T22:11:34Z</time>
      </trkpt>
      <trkpt lat="23.06542" lon="113.269737">
        <time>2026-06-03T22:11:39Z</time>
      </trkpt>
      <trkpt lat="23.065392" lon="113.269847">
        <time>2026-06-03T22:11:44Z</time>
      </trkpt>
      <trkpt lat="23.065341" lon="113.270008">
        <time>2026-06-03T22:11:49Z</time>
      </trkpt>
      <trkpt lat="23.065302" lon="113.270112">
        <time>2026-06-03T22:11:54Z</time>
      </trkpt>
      <trkpt lat="23.065235" lon="113.270265">
        <time>2026-06-03T22:11:59Z</time>
      </trkpt>
      <trkpt lat="23.065189" lon="113.270366">
        <time>2026-06-03T22:12:04Z</time>
      </trkpt>
      <trkpt lat="23.06512" lon="113.270516">
        <time>2026-06-03T22:12:09Z</time>
      </trkpt>
      <trkpt lat="23.065071" lon="113.270614">
        <time>2026-06-03T22:12:14Z</time>
      </trkpt>
      <trkpt lat="23.065" lon="113.270764">
        <time>2026-06-03T22:12:19Z</time>
      </trkpt>
      <trkpt lat="23.064952" lon="113.270862">
        <time>2026-06-03T22:12:24Z</time>
      </trkpt>
      <trkpt lat="23.064867" lon="113.271003">
        <time>2026-06-03T22:12:29Z</time>
      </trkpt>
      <trkpt lat="23.064814" lon="113.271102">
        <time>2026-06-03T22:12:34Z</time>
      </trkpt>
      <trkpt lat="23.064749" lon="113.271251">
        <time>2026-06-03T22:12:39Z</time>
      </trkpt>
      <trkpt lat="23.064701" lon="113.271352">
        <time>2026-06-03T22:12:44Z</time>
      </trkpt>
      <trkpt lat="23.06462" lon="113.271502">
        <time>2026-06-03T22:12:49Z</time>
      </trkpt>
      <trkpt lat="23.064568" lon="113.271611">
        <time>2026-06-03T22:12:54Z</time>
      </trkpt>
      <trkpt lat="23.064488" lon="113.271782">
        <time>2026-06-03T22:12:59Z</time>
      </trkpt>
      <trkpt lat="23.064439" lon="113.271896">
        <time>2026-06-03T22:13:04Z</time>
      </trkpt>
      <trkpt lat="23.064372" lon="113.272058">
        <time>2026-06-03T22:13:09Z</time>
      </trkpt>
      <trkpt lat="23.064326" lon="113.272168">
        <time>2026-06-03T22:13:14Z</time>
      </trkpt>
      <trkpt lat="23.0643" lon="113.272339">
        <time>2026-06-03T22:13:19Z</time>
      </trkpt>
      <trkpt lat="23.064297" lon="113.27245">
        <time>2026-06-03T22:13:24Z</time>
      </trkpt>
      <trkpt lat="23.06431" lon="113.272614">
        <time>2026-06-03T22:13:29Z</time>
      </trkpt>
      <trkpt lat="23.064337" lon="113.272727">
        <time>2026-06-03T22:13:34Z</time>
      </trkpt>
      <trkpt lat="23.064391" lon="113.27289">
        <time>2026-06-03T22:13:39Z</time>
      </trkpt>
      <trkpt lat="23.064428" lon="113.272994">
        <time>2026-06-03T22:13:44Z</time>
      </trkpt>
      <trkpt lat="23.064471" lon="113.273152">
        <time>2026-06-03T22:13:49Z</time>
      </trkpt>
      <trkpt lat="23.064449" lon="113.273255">
        <time>2026-06-03T22:13:54Z</time>
      </trkpt>
      <trkpt lat="23.064334" lon="113.273372">
        <time>2026-06-03T22:13:59Z</time>
      </trkpt>
      <trkpt lat="23.064236" lon="113.273438">
        <time>2026-06-03T22:14:04Z</time>
      </trkpt>
      <trkpt lat="23.064103" lon="113.273538">
        <time>2026-06-03T22:14:09Z</time>
      </trkpt>
      <trkpt lat="23.064019" lon="113.273608">
        <time>2026-06-03T22:14:14Z</time>
      </trkpt>
      <trkpt lat="23.063907" lon="113.273723">
        <time>2026-06-03T22:14:19Z</time>
      </trkpt>
      <trkpt lat="23.063849" lon="113.273808">
        <time>2026-06-03T22:14:24Z</time>
      </trkpt>
      <trkpt lat="23.063775" lon="113.273943">
        <time>2026-06-03T22:14:29Z</time>
      </trkpt>
      <trkpt lat="23.063727" lon="113.274028">
        <time>2026-06-03T22:14:34Z</time>
      </trkpt>
      <trkpt lat="23.063603" lon="113.274122">
        <time>2026-06-03T22:14:39Z</time>
      </trkpt>
      <trkpt lat="23.063518" lon="113.274107">
        <time>2026-06-03T22:14:44Z</time>
      </trkpt>
      <trkpt lat="23.063402" lon="113.274133">
        <time>2026-06-03T22:14:49Z</time>
      </trkpt>
      <trkpt lat="23.063358" lon="113.274246">
        <time>2026-06-03T22:14:54Z</time>
      </trkpt>
      <trkpt lat="23.063303" lon="113.274422">
        <time>2026-06-03T22:14:59Z</time>
      </trkpt>
      <trkpt lat="23.063265" lon="113.274534">
        <time>2026-06-03T22:15:04Z</time>
      </trkpt>
      <trkpt lat="23.063202" lon="113.274695">
        <time>2026-06-03T22:15:09Z</time>
      </trkpt>
      <trkpt lat="23.063161" lon="113.274798">
        <time>2026-06-03T22:15:14Z</time>
      </trkpt>
      <trkpt lat="23.063094" lon="113.274956">
        <time>2026-06-03T22:15:19Z</time>
      </trkpt>
      <trkpt lat="23.06307" lon="113.275065">
        <time>2026-06-03T22:15:24Z</time>
      </trkpt>
      <trkpt lat="23.062984" lon="113.275193">
        <time>2026-06-03T22:15:29Z</time>
      </trkpt>
      <trkpt lat="23.062915" lon="113.275271">
        <time>2026-06-03T22:15:34Z</time>
      </trkpt>
      <trkpt lat="23.062924" lon="113.27543">
        <time>2026-06-03T22:15:39Z</time>
      </trkpt>
      <trkpt lat="23.06291" lon="113.275533">
        <time>2026-06-03T22:15:44Z</time>
      </trkpt>
      <trkpt lat="23.062806" lon="113.27566">
        <time>2026-06-03T22:15:49Z</time>
      </trkpt>
      <trkpt lat="23.062723" lon="113.275735">
        <time>2026-06-03T22:15:54Z</time>
      </trkpt>
      <trkpt lat="23.062605" lon="113.275863">
        <time>2026-06-03T22:15:59Z</time>
      </trkpt>
      <trkpt lat="23.062536" lon="113.275953">
        <time>2026-06-03T22:16:04Z</time>
      </trkpt>
      <trkpt lat="23.062459" lon="113.276104">
        <time>2026-06-03T22:16:09Z</time>
      </trkpt>
      <trkpt lat="23.062418" lon="113.27621">
        <time>2026-06-03T22:16:14Z</time>
      </trkpt>
      <trkpt lat="23.062362" lon="113.276356">
        <time>2026-06-03T22:16:19Z</time>
      </trkpt>
      <trkpt lat="23.062323" lon="113.276457">
        <time>2026-06-03T22:16:24Z</time>
      </trkpt>
      <trkpt lat="23.062271" lon="113.276612">
        <time>2026-06-03T22:16:29Z</time>
      </trkpt>
      <trkpt lat="23.062234" lon="113.27671">
        <time>2026-06-03T22:16:34Z</time>
      </trkpt>
      <trkpt lat="23.062182" lon="113.276861">
        <time>2026-06-03T22:16:39Z</time>
      </trkpt>
      <trkpt lat="23.062146" lon="113.276965">
        <time>2026-06-03T22:16:44Z</time>
      </trkpt>
      <trkpt lat="23.062084" lon="113.27713">
        <time>2026-06-03T22:16:49Z</time>
      </trkpt>
      <trkpt lat="23.062038" lon="113.27724">
        <time>2026-06-03T22:16:54Z</time>
      </trkpt>
      <trkpt lat="23.061973" lon="113.277406">
        <time>2026-06-03T22:16:59Z</time>
      </trkpt>
      <trkpt lat="23.06193" lon="113.277515">
        <time>2026-06-03T22:17:04Z</time>
      </trkpt>
      <trkpt lat="23.061872" lon="113.277679">
        <time>2026-06-03T22:17:09Z</time>
      </trkpt>
      <trkpt lat="23.061844" lon="113.277788">
        <time>2026-06-03T22:17:14Z</time>
      </trkpt>
      <trkpt lat="23.061831" lon="113.277954">
        <time>2026-06-03T22:17:19Z</time>
      </trkpt>
      <trkpt lat="23.061832" lon="113.278067">
        <time>2026-06-03T22:17:24Z</time>
      </trkpt>
      <trkpt lat="23.06184" lon="113.278235">
        <time>2026-06-03T22:17:29Z</time>
      </trkpt>
      <trkpt lat="23.061841" lon="113.278351">
        <time>2026-06-03T22:17:34Z</time>
      </trkpt>
      <trkpt lat="23.061852" lon="113.278529">
        <time>2026-06-03T22:17:39Z</time>
      </trkpt>
      <trkpt lat="23.061851" lon="113.278646">
        <time>2026-06-03T22:17:44Z</time>
      </trkpt>
      <trkpt lat="23.061793" lon="113.278765">
        <time>2026-06-03T22:17:49Z</time>
      </trkpt>
      <trkpt lat="23.061728" lon="113.278824">
        <time>2026-06-03T22:17:54Z</time>
      </trkpt>
      <trkpt lat="23.061666" lon="113.278979">
        <time>2026-06-03T22:17:59Z</time>
      </trkpt>
      <trkpt lat="23.061628" lon="113.279087">
        <time>2026-06-03T22:18:04Z</time>
      </trkpt>
      <trkpt lat="23.061569" lon="113.27924">
        <time>2026-06-03T22:18:09Z</time>
      </trkpt>
      <trkpt lat="23.06152" lon="113.279347">
        <time>2026-06-03T22:18:14Z</time>
      </trkpt>
      <trkpt lat="23.061455" lon="113.279507">
        <time>2026-06-03T22:18:19Z</time>
      </trkpt>
      <trkpt lat="23.061412" lon="113.27961">
        <time>2026-06-03T22:18:24Z</time>
      </trkpt>
      <trkpt lat="23.061339" lon="113.279773">
        <time>2026-06-03T22:18:29Z</time>
      </trkpt>
      <trkpt lat="23.061292" lon="113.279884">
        <time>2026-06-03T22:18:34Z</time>
      </trkpt>
      <trkpt lat="23.06123" lon="113.280047">
        <time>2026-06-03T22:18:39Z</time>
      </trkpt>
      <trkpt lat="23.061183" lon="113.280156">
        <time>2026-06-03T22:18:44Z</time>
      </trkpt>
      <trkpt lat="23.061114" lon="113.280318">
        <time>2026-06-03T22:18:49Z</time>
      </trkpt>
      <trkpt lat="23.061063" lon="113.280423">
        <time>2026-06-03T22:18:54Z</time>
      </trkpt>
      <trkpt lat="23.060995" lon="113.280583">
        <time>2026-06-03T22:18:59Z</time>
      </trkpt>
      <trkpt lat="23.060948" lon="113.280684">
        <time>2026-06-03T22:19:04Z</time>
      </trkpt>
      <trkpt lat="23.060879" lon="113.280836">
        <time>2026-06-03T22:19:09Z</time>
      </trkpt>
      <trkpt lat="23.060837" lon="113.280936">
        <time>2026-06-03T22:19:14Z</time>
      </trkpt>
      <trkpt lat="23.06077" lon="113.281083">
        <time>2026-06-03T22:19:19Z</time>
      </trkpt>
      <trkpt lat="23.060724" lon="113.281181">
        <time>2026-06-03T22:19:24Z</time>
      </trkpt>
      <trkpt lat="23.060659" lon="113.281331">
        <time>2026-06-03T22:19:29Z</time>
      </trkpt>
      <trkpt lat="23.060617" lon="113.281434">
        <time>2026-06-03T22:19:34Z</time>
      </trkpt>
      <trkpt lat="23.060553" lon="113.281587">
        <time>2026-06-03T22:19:39Z</time>
      </trkpt>
      <trkpt lat="23.060513" lon="113.281687">
        <time>2026-06-03T22:19:44Z</time>
      </trkpt>
      <trkpt lat="23.060452" lon="113.281841">
        <time>2026-06-03T22:19:49Z</time>
      </trkpt>
      <trkpt lat="23.060404" lon="113.281939">
        <time>2026-06-03T22:19:54Z</time>
      </trkpt>
      <trkpt lat="23.060339" lon="113.28209">
        <time>2026-06-03T22:19:59Z</time>
      </trkpt>
      <trkpt lat="23.0603" lon="113.282191">
        <time>2026-06-03T22:20:04Z</time>
      </trkpt>
      <trkpt lat="23.060238" lon="113.282342">
        <time>2026-06-03T22:20:09Z</time>
      </trkpt>
      <trkpt lat="23.060193" lon="113.282447">
        <time>2026-06-03T22:20:14Z</time>
      </trkpt>
      <trkpt lat="23.060135" lon="113.282603">
        <time>2026-06-03T22:20:19Z</time>
      </trkpt>
      <trkpt lat="23.060097" lon="113.282708">
        <time>2026-06-03T22:20:24Z</time>
      </trkpt>
      <trkpt lat="23.060024" lon="113.282856">
        <time>2026-06-03T22:20:29Z</time>
      </trkpt>
      <trkpt lat="23.059974" lon="113.282956">
        <time>2026-06-03T22:20:34Z</time>
      </trkpt>
      <trkpt lat="23.059906" lon="113.28311">
        <time>2026-06-03T22:20:39Z</time>
      </trkpt>
      <trkpt lat="23.059858" lon="113.283217">
        <time>2026-06-03T22:20:44Z</time>
      </trkpt>
      <trkpt lat="23.059787" lon="113.283379">
        <time>2026-06-03T22:20:49Z</time>
      </trkpt>
      <trkpt lat="23.059742" lon="113.283486">
        <time>2026-06-03T22:20:54Z</time>
      </trkpt>
      <trkpt lat="23.059664" lon="113.283639">
        <time>2026-06-03T22:20:59Z</time>
      </trkpt>
      <trkpt lat="23.059618" lon="113.283745">
        <time>2026-06-03T22:21:04Z</time>
      </trkpt>
      <trkpt lat="23.059559" lon="113.283905">
        <time>2026-06-03T22:21:09Z</time>
      </trkpt>
      <trkpt lat="23.059521" lon="113.284014">
        <time>2026-06-03T22:21:14Z</time>
      </trkpt>
      <trkpt lat="23.059462" lon="113.284181">
        <time>2026-06-03T22:21:19Z</time>
      </trkpt>
      <trkpt lat="23.059419" lon="113.284294">
        <time>2026-06-03T22:21:24Z</time>
      </trkpt>
      <trkpt lat="23.059358" lon="113.284449">
        <time>2026-06-03T22:21:29Z</time>
      </trkpt>
      <trkpt lat="23.059317" lon="113.284553">
        <time>2026-06-03T22:21:34Z</time>
      </trkpt>
      <trkpt lat="23.059252" lon="113.284712">
        <time>2026-06-03T22:21:39Z</time>
      </trkpt>
      <trkpt lat="23.059204" lon="113.284818">
        <time>2026-06-03T22:21:44Z</time>
      </trkpt>
      <trkpt lat="23.059134" lon="113.284971">
        <time>2026-06-03T22:21:49Z</time>
      </trkpt>
      <trkpt lat="23.059091" lon="113.285072">
        <time>2026-06-03T22:21:54Z</time>
      </trkpt>
      <trkpt lat="23.059028" lon="113.285227">
        <time>2026-06-03T22:21:59Z</time>
      </trkpt>
      <trkpt lat="23.05899" lon="113.28534">
        <time>2026-06-03T22:22:04Z</time>
      </trkpt>
      <trkpt lat="23.058922" lon="113.285501">
        <time>2026-06-03T22:22:09Z</time>
      </trkpt>
      <trkpt lat="23.058881" lon="113.285606">
        <time>2026-06-03T22:22:14Z</time>
      </trkpt>
      <trkpt lat="23.058811" lon="113.285762">
        <time>2026-06-03T22:22:19Z</time>
      </trkpt>
      <trkpt lat="23.058764" lon="113.285869">
        <time>2026-06-03T22:22:24Z</time>
      </trkpt>
      <trkpt lat="23.058695" lon="113.286019">
        <time>2026-06-03T22:22:29Z</time>
      </trkpt>
      <trkpt lat="23.058691" lon="113.286109">
        <time>2026-06-03T22:22:34Z</time>
      </trkpt>
      <trkpt lat="23.058839" lon="113.28613">
        <time>2026-06-03T22:22:39Z</time>
      </trkpt>
      <trkpt lat="23.058924" lon="113.286046">
        <time>2026-06-03T22:22:44Z</time>
      </trkpt>
      <trkpt lat="23.059015" lon="113.285896">
        <time>2026-06-03T22:22:49Z</time>
      </trkpt>
      <trkpt lat="23.059066" lon="113.285795">
        <time>2026-06-03T22:22:54Z</time>
      </trkpt>
      <trkpt lat="23.059135" lon="113.285639">
        <time>2026-06-03T22:22:59Z</time>
      </trkpt>
      <trkpt lat="23.059177" lon="113.285527">
        <time>2026-06-03T22:23:04Z</time>
      </trkpt>
      <trkpt lat="23.059226" lon="113.285354">
        <time>2026-06-03T22:23:09Z</time>
      </trkpt>
      <trkpt lat="23.059263" lon="113.285244">
        <time>2026-06-03T22:23:14Z</time>
      </trkpt>
      <trkpt lat="23.059327" lon="113.285083">
        <time>2026-06-03T22:23:19Z</time>
      </trkpt>
      <trkpt lat="23.05937" lon="113.284984">
        <time>2026-06-03T22:23:24Z</time>
      </trkpt>
      <trkpt lat="23.059422" lon="113.284827">
        <time>2026-06-03T22:23:29Z</time>
      </trkpt>
      <trkpt lat="23.059463" lon="113.284729">
        <time>2026-06-03T22:23:34Z</time>
      </trkpt>
      <trkpt lat="23.059569" lon="113.28467">
        <time>2026-06-03T22:23:39Z</time>
      </trkpt>
      <trkpt lat="23.059629" lon="113.284606">
        <time>2026-06-03T22:23:44Z</time>
      </trkpt>
      <trkpt lat="23.059691" lon="113.284447">
        <time>2026-06-03T22:23:49Z</time>
      </trkpt>
      <trkpt lat="23.059733" lon="113.28434">
        <time>2026-06-03T22:23:54Z</time>
      </trkpt>
      <trkpt lat="23.059769" lon="113.284162">
        <time>2026-06-03T22:23:59Z</time>
      </trkpt>
      <trkpt lat="23.059782" lon="113.284043">
        <time>2026-06-03T22:24:04Z</time>
      </trkpt>
      <trkpt lat="23.059828" lon="113.283886">
        <time>2026-06-03T22:24:09Z</time>
      </trkpt>
      <trkpt lat="23.059852" lon="113.28377">
        <time>2026-06-03T22:24:14Z</time>
      </trkpt>
      <trkpt lat="23.059872" lon="113.283599">
        <time>2026-06-03T22:24:19Z</time>
      </trkpt>
      <trkpt lat="23.05989" lon="113.28349">
        <time>2026-06-03T22:24:24Z</time>
      </trkpt>
      <trkpt lat="23.059952" lon="113.283339">
        <time>2026-06-03T22:24:29Z</time>
      </trkpt>
      <trkpt lat="23.060015" lon="113.283248">
        <time>2026-06-03T22:24:34Z</time>
      </trkpt>
      <trkpt lat="23.0601" lon="113.283107">
        <time>2026-06-03T22:24:39Z</time>
      </trkpt>
      <trkpt lat="23.060145" lon="113.283006">
        <time>2026-06-03T22:24:44Z</time>
      </trkpt>
      <trkpt lat="23.060204" lon="113.282866">
        <time>2026-06-03T22:24:49Z</time>
      </trkpt>
      <trkpt lat="23.060244" lon="113.282772">
        <time>2026-06-03T22:24:54Z</time>
      </trkpt>
      <trkpt lat="23.060303" lon="113.28262">
        <time>2026-06-03T22:24:59Z</time>
      </trkpt>
      <trkpt lat="23.060344" lon="113.282518">
        <time>2026-06-03T22:25:04Z</time>
      </trkpt>
      <trkpt lat="23.060403" lon="113.282354">
        <time>2026-06-03T22:25:09Z</time>
      </trkpt>
      <trkpt lat="23.060438" lon="113.28224">
        <time>2026-06-03T22:25:14Z</time>
      </trkpt>
      <trkpt lat="23.060488" lon="113.282073">
        <time>2026-06-03T22:25:19Z</time>
      </trkpt>
      <trkpt lat="23.060531" lon="113.28197">
        <time>2026-06-03T22:25:24Z</time>
      </trkpt>
      <trkpt lat="23.060596" lon="113.281819">
        <time>2026-06-03T22:25:29Z</time>
      </trkpt>
      <trkpt lat="23.060641" lon="113.281719">
        <time>2026-06-03T22:25:34Z</time>
      </trkpt>
      <trkpt lat="23.060706" lon="113.281573">
        <time>2026-06-03T22:25:39Z</time>
      </trkpt>
      <trkpt lat="23.060748" lon="113.281476">
        <time>2026-06-03T22:25:44Z</time>
      </trkpt>
      <trkpt lat="23.060816" lon="113.281328">
        <time>2026-06-03T22:25:49Z</time>
      </trkpt>
      <trkpt lat="23.060864" lon="113.281227">
        <time>2026-06-03T22:25:54Z</time>
      </trkpt>
      <trkpt lat="23.060928" lon="113.281078">
        <time>2026-06-03T22:25:59Z</time>
      </trkpt>
      <trkpt lat="23.060968" lon="113.280972">
        <time>2026-06-03T22:26:04Z</time>
      </trkpt>
      <trkpt lat="23.061026" lon="113.280817">
        <time>2026-06-03T22:26:09Z</time>
      </trkpt>
      <trkpt lat="23.06107" lon="113.280715">
        <time>2026-06-03T22:26:14Z</time>
      </trkpt>
      <trkpt lat="23.061143" lon="113.280561">
        <time>2026-06-03T22:26:19Z</time>
      </trkpt>
      <trkpt lat="23.061194" lon="113.280462">
        <time>2026-06-03T22:26:24Z</time>
      </trkpt>
      <trkpt lat="23.061262" lon="113.280313">
        <time>2026-06-03T22:26:29Z</time>
      </trkpt>
      <trkpt lat="23.061309" lon="113.280218">
        <time>2026-06-03T22:26:34Z</time>
      </trkpt>
      <trkpt lat="23.061374" lon="113.280072">
        <time>2026-06-03T22:26:39Z</time>
      </trkpt>
      <trkpt lat="23.061416" lon="113.279973">
        <time>2026-06-03T22:26:44Z</time>
      </trkpt>
      <trkpt lat="23.061476" lon="113.279821">
        <time>2026-06-03T22:26:49Z</time>
      </trkpt>
      <trkpt lat="23.061518" lon="113.279717">
        <time>2026-06-03T22:26:54Z</time>
      </trkpt>
      <trkpt lat="23.06158" lon="113.279557">
        <time>2026-06-03T22:26:59Z</time>
      </trkpt>
      <trkpt lat="23.061624" lon="113.279456">
        <time>2026-06-03T22:27:04Z</time>
      </trkpt>
      <trkpt lat="23.061684" lon="113.279299">
        <time>2026-06-03T22:27:09Z</time>
      </trkpt>
      <trkpt lat="23.061728" lon="113.279194">
        <time>2026-06-03T22:27:14Z</time>
      </trkpt>
      <trkpt lat="23.061813" lon="113.279053">
        <time>2026-06-03T22:27:19Z</time>
      </trkpt>
      <trkpt lat="23.061879" lon="113.278962">
        <time>2026-06-03T22:27:24Z</time>
      </trkpt>
      <trkpt lat="23.061959" lon="113.278805">
        <time>2026-06-03T22:27:29Z</time>
      </trkpt>
      <trkpt lat="23.061978" lon="113.278687">
        <time>2026-06-03T22:27:34Z</time>
      </trkpt>
      <trkpt lat="23.061969" lon="113.278512">
        <time>2026-06-03T22:27:39Z</time>
      </trkpt>
      <trkpt lat="23.06196" lon="113.278398">
        <time>2026-06-03T22:27:44Z</time>
      </trkpt>
      <trkpt lat="23.061947" lon="113.278228">
        <time>2026-06-03T22:27:49Z</time>
      </trkpt>
      <trkpt lat="23.061941" lon="113.278113">
        <time>2026-06-03T22:27:54Z</time>
      </trkpt>
      <trkpt lat="23.061932" lon="113.277934">
        <time>2026-06-03T22:27:59Z</time>
      </trkpt>
      <trkpt lat="23.061934" lon="113.277818">
        <time>2026-06-03T22:28:04Z</time>
      </trkpt>
      <trkpt lat="23.061968" lon="113.27765">
        <time>2026-06-03T22:28:09Z</time>
      </trkpt>
      <trkpt lat="23.062009" lon="113.277538">
        <time>2026-06-03T22:28:14Z</time>
      </trkpt>
      <trkpt lat="23.062072" lon="113.277378">
        <time>2026-06-03T22:28:19Z</time>
      </trkpt>
      <trkpt lat="23.062109" lon="113.277272">
        <time>2026-06-03T22:28:24Z</time>
      </trkpt>
      <trkpt lat="23.062163" lon="113.277111">
        <time>2026-06-03T22:28:29Z</time>
      </trkpt>
      <trkpt lat="23.062202" lon="113.27701">
        <time>2026-06-03T22:28:34Z</time>
      </trkpt>
      <trkpt lat="23.062262" lon="113.276857">
        <time>2026-06-03T22:28:39Z</time>
      </trkpt>
      <trkpt lat="23.062304" lon="113.276753">
        <time>2026-06-03T22:28:44Z</time>
      </trkpt>
      <trkpt lat="23.062362" lon="113.276594">
        <time>2026-06-03T22:28:49Z</time>
      </trkpt>
      <trkpt lat="23.062404" lon="113.276483">
        <time>2026-06-03T22:28:54Z</time>
      </trkpt>
      <trkpt lat="23.06247" lon="113.276315">
        <time>2026-06-03T22:28:59Z</time>
      </trkpt>
      <trkpt lat="23.062515" lon="113.276206">
        <time>2026-06-03T22:29:04Z</time>
      </trkpt>
      <trkpt lat="23.062599" lon="113.276056">
        <time>2026-06-03T22:29:09Z</time>
      </trkpt>
      <trkpt lat="23.062662" lon="113.275967">
        <time>2026-06-03T22:29:14Z</time>
      </trkpt>
      <trkpt lat="23.06277" lon="113.275837">
        <time>2026-06-03T22:29:19Z</time>
      </trkpt>
      <trkpt lat="23.062848" lon="113.275759">
        <time>2026-06-03T22:29:24Z</time>
      </trkpt>
      <trkpt lat="23.062969" lon="113.275643">
        <time>2026-06-03T22:29:29Z</time>
      </trkpt>
      <trkpt lat="23.063038" lon="113.275556">
        <time>2026-06-03T22:29:34Z</time>
      </trkpt>
      <trkpt lat="23.06312" lon="113.275411">
        <time>2026-06-03T22:29:39Z</time>
      </trkpt>
      <trkpt lat="23.063173" lon="113.275311">
        <time>2026-06-03T22:29:44Z</time>
      </trkpt>
      <trkpt lat="23.063261" lon="113.275162">
        <time>2026-06-03T22:29:49Z</time>
      </trkpt>
      <trkpt lat="23.063322" lon="113.275062">
        <time>2026-06-03T22:29:54Z</time>
      </trkpt>
      <trkpt lat="23.063387" lon="113.274904">
        <time>2026-06-03T22:29:59Z</time>
      </trkpt>
      <trkpt lat="23.063419" lon="113.274798">
        <time>2026-06-03T22:30:04Z</time>
      </trkpt>
      <trkpt lat="23.063465" lon="113.274635">
        <time>2026-06-03T22:30:09Z</time>
      </trkpt>
      <trkpt lat="23.063492" lon="113.274526">
        <time>2026-06-03T22:30:14Z</time>
      </trkpt>
      <trkpt lat="23.06357" lon="113.274369">
        <time>2026-06-03T22:30:19Z</time>
      </trkpt>
      <trkpt lat="23.063636" lon="113.27428">
        <time>2026-06-03T22:30:24Z</time>
      </trkpt>
      <trkpt lat="23.063754" lon="113.27417">
        <time>2026-06-03T22:30:29Z</time>
      </trkpt>
      <trkpt lat="23.063831" lon="113.274091">
        <time>2026-06-03T22:30:34Z</time>
      </trkpt>
      <trkpt lat="23.063919" lon="113.273935">
        <time>2026-06-03T22:30:39Z</time>
      </trkpt>
      <trkpt lat="23.063978" lon="113.273831">
        <time>2026-06-03T22:30:44Z</time>
      </trkpt>
      <trkpt lat="23.064085" lon="113.273699">
        <time>2026-06-03T22:30:49Z</time>
      </trkpt>
      <trkpt lat="23.064172" lon="113.273631">
        <time>2026-06-03T22:30:54Z</time>
      </trkpt>
      <trkpt lat="23.064309" lon="113.273529">
        <time>2026-06-03T22:30:59Z</time>
      </trkpt>
      <trkpt lat="23.064394" lon="113.27346">
        <time>2026-06-03T22:31:04Z</time>
      </trkpt>
      <trkpt lat="23.064513" lon="113.273348">
        <time>2026-06-03T22:31:09Z</time>
      </trkpt>
      <trkpt lat="23.064567" lon="113.273251">
        <time>2026-06-03T22:31:14Z</time>
      </trkpt>
      <trkpt lat="23.064576" lon="113.273066">
        <time>2026-06-03T22:31:19Z</time>
      </trkpt>
      <trkpt lat="23.064543" lon="113.272946">
        <time>2026-06-03T22:31:24Z</time>
      </trkpt>
      <trkpt lat="23.064476" lon="113.272772">
        <time>2026-06-03T22:31:29Z</time>
      </trkpt>
      <trkpt lat="23.064447" lon="113.272657">
        <time>2026-06-03T22:31:34Z</time>
      </trkpt>
      <trkpt lat="23.064471" lon="113.272491">
        <time>2026-06-03T22:31:39Z</time>
      </trkpt>
      <trkpt lat="23.064512" lon="113.272383">
        <time>2026-06-03T22:31:44Z</time>
      </trkpt>
      <trkpt lat="23.064545" lon="113.272218">
        <time>2026-06-03T22:31:49Z</time>
      </trkpt>
      <trkpt lat="23.064592" lon="113.272112">
        <time>2026-06-03T22:31:54Z</time>
      </trkpt>
      <trkpt lat="23.064663" lon="113.27196">
        <time>2026-06-03T22:31:59Z</time>
      </trkpt>
      <trkpt lat="23.064713" lon="113.271857">
        <time>2026-06-03T22:32:04Z</time>
      </trkpt>
      <trkpt lat="23.064791" lon="113.271703">
        <time>2026-06-03T22:32:09Z</time>
      </trkpt>
      <trkpt lat="23.064842" lon="113.271599">
        <time>2026-06-03T22:32:14Z</time>
      </trkpt>
      <trkpt lat="23.064909" lon="113.271446">
        <time>2026-06-03T22:32:19Z</time>
      </trkpt>
      <trkpt lat="23.064951" lon="113.27134">
        <time>2026-06-03T22:32:24Z</time>
      </trkpt>
      <trkpt lat="23.065029" lon="113.271187">
        <time>2026-06-03T22:32:29Z</time>
      </trkpt>
      <trkpt lat="23.065079" lon="113.271079">
        <time>2026-06-03T22:32:34Z</time>
      </trkpt>
      <trkpt lat="23.065161" lon="113.270918">
        <time>2026-06-03T22:32:39Z</time>
      </trkpt>
      <trkpt lat="23.065207" lon="113.270812">
        <time>2026-06-03T22:32:44Z</time>
      </trkpt>
      <trkpt lat="23.065277" lon="113.27066">
        <time>2026-06-03T22:32:49Z</time>
      </trkpt>
      <trkpt lat="23.065322" lon="113.270557">
        <time>2026-06-03T22:32:54Z</time>
      </trkpt>
      <trkpt lat="23.065388" lon="113.270404">
        <time>2026-06-03T22:32:59Z</time>
      </trkpt>
      <trkpt lat="23.065436" lon="113.270304">
        <time>2026-06-03T22:33:04Z</time>
      </trkpt>
      <trkpt lat="23.065508" lon="113.270143">
        <time>2026-06-03T22:33:09Z</time>
      </trkpt>
      <trkpt lat="23.065545" lon="113.270042">
        <time>2026-06-03T22:33:14Z</time>
      </trkpt>
      <trkpt lat="23.065595" lon="113.26989">
        <time>2026-06-03T22:33:19Z</time>
      </trkpt>
      <trkpt lat="23.065629" lon="113.26978">
        <time>2026-06-03T22:33:24Z</time>
      </trkpt>
      <trkpt lat="23.065683" lon="113.269608">
        <time>2026-06-03T22:33:29Z</time>
      </trkpt>
      <trkpt lat="23.06572" lon="113.269496">
        <time>2026-06-03T22:33:34Z</time>
      </trkpt>
      <trkpt lat="23.065757" lon="113.269327">
        <time>2026-06-03T22:33:39Z</time>
      </trkpt>
      <trkpt lat="23.065785" lon="113.26921">
        <time>2026-06-03T22:33:44Z</time>
      </trkpt>
      <trkpt lat="23.06584" lon="113.26904">
        <time>2026-06-03T22:33:49Z</time>
      </trkpt>
      <trkpt lat="23.065889" lon="113.268932">
        <time>2026-06-03T22:33:54Z</time>
      </trkpt>
      <trkpt lat="23.065959" lon="113.268772">
        <time>2026-06-03T22:33:59Z</time>
      </trkpt>
      <trkpt lat="23.066008" lon="113.268667">
        <time>2026-06-03T22:34:04Z</time>
      </trkpt>
      <trkpt lat="23.066101" lon="113.268513">
        <time>2026-06-03T22:34:09Z</time>
      </trkpt>
      <trkpt lat="23.066167" lon="113.268414">
        <time>2026-06-03T22:34:14Z</time>
      </trkpt>
      <trkpt lat="23.066274" lon="113.268273">
        <time>2026-06-03T22:34:19Z</time>
      </trkpt>
      <trkpt lat="23.066357" lon="113.268192">
        <time>2026-06-03T22:34:24Z</time>
      </trkpt>
      <trkpt lat="23.06651" lon="113.268143">
        <time>2026-06-03T22:34:29Z</time>
      </trkpt>
      <trkpt lat="23.066618" lon="113.268158">
        <time>2026-06-03T22:34:34Z</time>
      </trkpt>
      <trkpt lat="23.066784" lon="113.268175">
        <time>2026-06-03T22:34:39Z</time>
      </trkpt>
      <trkpt lat="23.066895" lon="113.268174">
        <time>2026-06-03T22:34:44Z</time>
      </trkpt>
      <trkpt lat="23.067044" lon="113.268212">
        <time>2026-06-03T22:34:49Z</time>
      </trkpt>
      <trkpt lat="23.067133" lon="113.26826">
        <time>2026-06-03T22:34:54Z</time>
      </trkpt>
      <trkpt lat="23.06727" lon="113.268346">
        <time>2026-06-03T22:34:59Z</time>
      </trkpt>
      <trkpt lat="23.067365" lon="113.2684">
        <time>2026-06-03T22:35:04Z</time>
      </trkpt>
      <trkpt lat="23.067505" lon="113.268485">
        <time>2026-06-03T22:35:09Z</time>
      </trkpt>
      <trkpt lat="23.06761" lon="113.268549">
        <time>2026-06-03T22:35:14Z</time>
      </trkpt>
      <trkpt lat="23.067769" lon="113.268623">
        <time>2026-06-03T22:35:19Z</time>
      </trkpt>
      <trkpt lat="23.067836" lon="113.268655">
        <time>2026-06-03T22:35:24Z</time>
      </trkpt>
      <trkpt lat="23.067906" lon="113.268732">
        <time>2026-06-03T22:35:29Z</time>
      </trkpt>
      <trkpt lat="23.068" lon="113.26877">
        <time>2026-06-03T22:35:34Z</time>
      </trkpt>
      <trkpt lat="23.068147" lon="113.26881">
        <time>2026-06-03T22:35:39Z</time>
      </trkpt>
      <trkpt lat="23.068238" lon="113.268834">
        <time>2026-06-03T22:35:44Z</time>
      </trkpt>
      <trkpt lat="23.068387" lon="113.268908">
        <time>2026-06-03T22:35:49Z</time>
      </trkpt>
      <trkpt lat="23.068485" lon="113.268973">
        <time>2026-06-03T22:35:54Z</time>
      </trkpt>
      <trkpt lat="23.068612" lon="113.269092">
        <time>2026-06-03T22:35:59Z</time>
      </trkpt>
      <trkpt lat="23.068703" lon="113.269173">
        <time>2026-06-03T22:36:04Z</time>
      </trkpt>
      <trkpt lat="23.068901" lon="113.269224">
        <time>2026-06-03T22:36:09Z</time>
      </trkpt>
      <trkpt lat="23.069022" lon="113.269245">
        <time>2026-06-03T22:36:14Z</time>
      </trkpt>
      <trkpt lat="23.069187" lon="113.26935">
        <time>2026-06-03T22:36:19Z</time>
      </trkpt>
      <trkpt lat="23.069295" lon="113.269398">
        <time>2026-06-03T22:36:24Z</time>
      </trkpt>
      <trkpt lat="23.06945" lon="113.269455">
        <time>2026-06-03T22:36:29Z</time>
      </trkpt>
      <trkpt lat="23.069553" lon="113.269497">
        <time>2026-06-03T22:36:34Z</time>
      </trkpt>
      <trkpt lat="23.069704" lon="113.269562">
        <time>2026-06-03T22:36:39Z</time>
      </trkpt>
      <trkpt lat="23.069799" lon="113.269615">
        <time>2026-06-03T22:36:44Z</time>
      </trkpt>
      <trkpt lat="23.069944" lon="113.269721">
        <time>2026-06-03T22:36:49Z</time>
      </trkpt>
      <trkpt lat="23.070037" lon="113.269794">
        <time>2026-06-03T22:36:54Z</time>
      </trkpt>
      <trkpt lat="23.070182" lon="113.269874">
        <time>2026-06-03T22:36:59Z</time>
      </trkpt>
      <trkpt lat="23.070276" lon="113.269919">
        <time>2026-06-03T22:37:04Z</time>
      </trkpt>
      <trkpt lat="23.070407" lon="113.269988">
        <time>2026-06-03T22:37:09Z</time>
      </trkpt>
      <trkpt lat="23.070519" lon="113.27001">
        <time>2026-06-03T22:37:14Z</time>
      </trkpt>
      <trkpt lat="23.07069" lon="113.270033">
        <time>2026-06-03T22:37:19Z</time>
      </trkpt>
      <trkpt lat="23.070791" lon="113.270073">
        <time>2026-06-03T22:37:24Z</time>
      </trkpt>
      <trkpt lat="23.070905" lon="113.270153">
        <time>2026-06-03T22:37:29Z</time>
      </trkpt>
      <trkpt lat="23.070991" lon="113.270189">
        <time>2026-06-03T22:37:34Z</time>
      </trkpt>
      <trkpt lat="23.071123" lon="113.27026">
        <time>2026-06-03T22:37:39Z</time>
      </trkpt>
      <trkpt lat="23.071221" lon="113.270298">
        <time>2026-06-03T22:37:44Z</time>
      </trkpt>
      <trkpt lat="23.071376" lon="113.270368">
        <time>2026-06-03T22:37:49Z</time>
      </trkpt>
      <trkpt lat="23.071471" lon="113.270422">
        <time>2026-06-03T22:37:54Z</time>
      </trkpt>
      <trkpt lat="23.071605" lon="113.270494">
        <time>2026-06-03T22:37:59Z</time>
      </trkpt>
      <trkpt lat="23.0717" lon="113.270534">
        <time>2026-06-03T22:38:04Z</time>
      </trkpt>
      <trkpt lat="23.071831" lon="113.270622">
        <time>2026-06-03T22:38:09Z</time>
      </trkpt>
      <trkpt lat="23.071921" lon="113.270695">
        <time>2026-06-03T22:38:14Z</time>
      </trkpt>
      <trkpt lat="23.072074" lon="113.270769">
        <time>2026-06-03T22:38:19Z</time>
      </trkpt>
      <trkpt lat="23.072172" lon="113.270813">
        <time>2026-06-03T22:38:24Z</time>
      </trkpt>
      <trkpt lat="23.072316" lon="113.270881">
        <time>2026-06-03T22:38:29Z</time>
      </trkpt>
      <trkpt lat="23.072416" lon="113.27092">
        <time>2026-06-03T22:38:34Z</time>
      </trkpt>
      <trkpt lat="23.072568" lon="113.270991">
        <time>2026-06-03T22:38:39Z</time>
      </trkpt>
      <trkpt lat="23.072658" lon="113.271046">
        <time>2026-06-03T22:38:44Z</time>
      </trkpt>
      <trkpt lat="23.07279" lon="113.271116">
        <time>2026-06-03T22:38:49Z</time>
      </trkpt>
      <trkpt lat="23.072877" lon="113.271163">
        <time>2026-06-03T22:38:54Z</time>
      </trkpt>
      <trkpt lat="23.073011" lon="113.271233">
        <time>2026-06-03T22:38:59Z</time>
      </trkpt>
      <trkpt lat="23.073111" lon="113.271271">
        <time>2026-06-03T22:39:04Z</time>
      </trkpt>
      <trkpt lat="23.073232" lon="113.27131">
        <time>2026-06-03T22:39:09Z</time>
      </trkpt>
      <trkpt lat="23.073312" lon="113.27135">
        <time>2026-06-03T22:39:14Z</time>
      </trkpt>
      <trkpt lat="23.073466" lon="113.27145">
        <time>2026-06-03T22:39:19Z</time>
      </trkpt>
      <trkpt lat="23.073555" lon="113.271519">
        <time>2026-06-03T22:39:24Z</time>
      </trkpt>
      <trkpt lat="23.073692" lon="113.271608">
        <time>2026-06-03T22:39:29Z</time>
      </trkpt>
      <trkpt lat="23.073783" lon="113.271667">
        <time>2026-06-03T22:39:34Z</time>
      </trkpt>
      <trkpt lat="23.073929" lon="113.271754">
        <time>2026-06-03T22:39:39Z</time>
      </trkpt>
      <trkpt lat="23.074004" lon="113.271799">
        <time>2026-06-03T22:39:44Z</time>
      </trkpt>
      <trkpt lat="23.074068" lon="113.271844">
        <time>2026-06-03T22:39:49Z</time>
      </trkpt>
      <trkpt lat="23.074049" lon="113.271926">
        <time>2026-06-03T22:39:54Z</time>
      </trkpt>
      <trkpt lat="23.07399" lon="113.272089">
        <time>2026-06-03T22:39:59Z</time>
      </trkpt>
      <trkpt lat="23.073946" lon="113.272205">
        <time>2026-06-03T22:40:04Z</time>
      </trkpt>
      <trkpt lat="23.073877" lon="113.2724">
        <time>2026-06-03T22:40:09Z</time>
      </trkpt>
      <trkpt lat="23.07382" lon="113.272534">
        <time>2026-06-03T22:40:14Z</time>
      </trkpt>
      <trkpt lat="23.073729" lon="113.27274">
        <time>2026-06-03T22:40:19Z</time>
      </trkpt>
      <trkpt lat="23.073703" lon="113.272858">
        <time>2026-06-03T22:40:24Z</time>
      </trkpt>
      <trkpt lat="23.07388" lon="113.272941">
        <time>2026-06-03T22:40:29Z</time>
      </trkpt>
      <trkpt lat="23.074008" lon="113.272925">
        <time>2026-06-03T22:40:34Z</time>
      </trkpt>
      <trkpt lat="23.07409" lon="113.27276">
        <time>2026-06-03T22:40:39Z</time>
      </trkpt>
      <trkpt lat="23.074123" lon="113.272657">
        <time>2026-06-03T22:40:44Z</time>
      </trkpt>
      <trkpt lat="23.07418" lon="113.272524">
        <time>2026-06-03T22:40:49Z</time>
      </trkpt>
      <trkpt lat="23.074225" lon="113.272435">
        <time>2026-06-03T22:40:54Z</time>
      </trkpt>
      <trkpt lat="23.074286" lon="113.272279">
        <time>2026-06-03T22:40:59Z</time>
      </trkpt>
      <trkpt lat="23.074326" lon="113.272176">
        <time>2026-06-03T22:41:04Z</time>
      </trkpt>
      <trkpt lat="23.074423" lon="113.272017">
        <time>2026-06-03T22:41:09Z</time>
      </trkpt>
      <trkpt lat="23.074495" lon="113.271967">
        <time>2026-06-03T22:41:14Z</time>
      </trkpt>
      <trkpt lat="23.074621" lon="113.272045">
        <time>2026-06-03T22:41:19Z</time>
      </trkpt>
      <trkpt lat="23.074709" lon="113.272111">
        <time>2026-06-03T22:41:24Z</time>
      </trkpt>
      <trkpt lat="23.074848" lon="113.272187">
        <time>2026-06-03T22:41:29Z</time>
      </trkpt>
      <trkpt lat="23.074932" lon="113.272248">
        <time>2026-06-03T22:41:34Z</time>
      </trkpt>
      <trkpt lat="23.075057" lon="113.272356">
        <time>2026-06-03T22:41:39Z</time>
      </trkpt>
      <trkpt lat="23.075142" lon="113.272414">
        <time>2026-06-03T22:41:44Z</time>
      </trkpt>
      <trkpt lat="23.075285" lon="113.272468">
        <time>2026-06-03T22:41:49Z</time>
      </trkpt>
      <trkpt lat="23.075384" lon="113.272502">
        <time>2026-06-03T22:41:54Z</time>
      </trkpt>
      <trkpt lat="23.075529" lon="113.272571">
        <time>2026-06-03T22:41:59Z</time>
      </trkpt>
      <trkpt lat="23.075629" lon="113.272618">
        <time>2026-06-03T22:42:04Z</time>
      </trkpt>
      <trkpt lat="23.075765" lon="113.272704">
        <time>2026-06-03T22:42:11Z</time>
      </trkpt>
    </trkseg>
  </trk>
</gpx>