<?xml version="1.0" encoding="UTF-8"?>
<gpx xmlns="http://www.topografix.com/GPX/1/1" xmlns:gpxtpx="http://www.garmin.com/xmlschemas/TrackPointExtension/v1" xmlns:xsi="http://www.w3.org/2001/XMLSchema-instance" xsi:schemaLocation="http://www.topografix.com/GPX/1/1 http://www.topografix.com/GPX/1/1/gpx.xsd" version="1.1" creator="gpx.py -- https://github.com/tkrajina/gpxpy">
  <trk>
    <name>gpx from joyrun</name>
    <trkseg>
      <trkpt lat="23.075909" lon="113.272746">
        <time>2026-06-06T22:54:07Z</time>
      </trkpt>
      <trkpt lat="23.075891" lon="113.272703">
        <time>2026-06-06T22:54:12Z</time>
      </trkpt>
      <trkpt lat="23.075794" lon="113.272596">
        <time>2026-06-06T22:54:17Z</time>
      </trkpt>
      <trkpt lat="23.075692" lon="113.272563">
        <time>2026-06-06T22:54:22Z</time>
      </trkpt>
      <trkpt lat="23.075543" lon="113.27251">
        <time>2026-06-06T22:54:27Z</time>
      </trkpt>
      <trkpt lat="23.075473" lon="113.272436">
        <time>2026-06-06T22:54:32Z</time>
      </trkpt>
      <trkpt lat="23.075338" lon="113.272388">
        <time>2026-06-06T22:54:37Z</time>
      </trkpt>
      <trkpt lat="23.075244" lon="113.272348">
        <time>2026-06-06T22:54:42Z</time>
      </trkpt>
      <trkpt lat="23.075115" lon="113.272265">
        <time>2026-06-06T22:54:47Z</time>
      </trkpt>
      <trkpt lat="23.075033" lon="113.272224">
        <time>2026-06-06T22:54:52Z</time>
      </trkpt>
      <trkpt lat="23.074921" lon="113.272133">
        <time>2026-06-06T22:54:57Z</time>
      </trkpt>
      <trkpt lat="23.074844" lon="113.27207">
        <time>2026-06-06T22:55:02Z</time>
      </trkpt>
      <trkpt lat="23.07471" lon="113.271991">
        <time>2026-06-06T22:55:07Z</time>
      </trkpt>
      <trkpt lat="23.074609" lon="113.271952">
        <time>2026-06-06T22:55:12Z</time>
      </trkpt>
      <trkpt lat="23.074467" lon="113.271904">
        <time>2026-06-06T22:55:17Z</time>
      </trkpt>
      <trkpt lat="23.074398" lon="113.271953">
        <time>2026-06-06T22:55:22Z</time>
      </trkpt>
      <trkpt lat="23.074325" lon="113.272107">
        <time>2026-06-06T22:55:27Z</time>
      </trkpt>
      <trkpt lat="23.074298" lon="113.272212">
        <time>2026-06-06T22:55:32Z</time>
      </trkpt>
      <trkpt lat="23.074258" lon="113.272358">
        <time>2026-06-06T22:55:37Z</time>
      </trkpt>
      <trkpt lat="23.07422" lon="113.272453">
        <time>2026-06-06T22:55:42Z</time>
      </trkpt>
      <trkpt lat="23.074156" lon="113.272595">
        <time>2026-06-06T22:55:47Z</time>
      </trkpt>
      <trkpt lat="23.07411" lon="113.272678">
        <time>2026-06-06T22:55:52Z</time>
      </trkpt>
      <trkpt lat="23.074066" lon="113.272773">
        <time>2026-06-06T22:55:57Z</time>
      </trkpt>
      <trkpt lat="23.074029" lon="113.272858">
        <time>2026-06-06T22:56:02Z</time>
      </trkpt>
      <trkpt lat="23.073975" lon="113.272994">
        <time>2026-06-06T22:56:07Z</time>
      </trkpt>
      <trkpt lat="23.073941" lon="113.273087">
        <time>2026-06-06T22:56:12Z</time>
      </trkpt>
      <trkpt lat="23.073888" lon="113.273227">
        <time>2026-06-06T22:56:17Z</time>
      </trkpt>
      <trkpt lat="23.073851" lon="113.273288">
        <time>2026-06-06T22:56:22Z</time>
      </trkpt>
      <trkpt lat="23.073875" lon="113.273236">
        <time>2026-06-06T22:56:27Z</time>
      </trkpt>
      <trkpt lat="23.07391" lon="113.273159">
        <time>2026-06-06T22:56:32Z</time>
      </trkpt>
      <trkpt lat="23.073945" lon="113.273048">
        <time>2026-06-06T22:56:37Z</time>
      </trkpt>
      <trkpt lat="23.073902" lon="113.272997">
        <time>2026-06-06T22:56:42Z</time>
      </trkpt>
      <trkpt lat="23.073784" lon="113.272944">
        <time>2026-06-06T22:56:47Z</time>
      </trkpt>
      <trkpt lat="23.073726" lon="113.272878">
        <time>2026-06-06T22:56:52Z</time>
      </trkpt>
      <trkpt lat="23.073729" lon="113.272754">
        <time>2026-06-06T22:56:57Z</time>
      </trkpt>
      <trkpt lat="23.073771" lon="113.272667">
        <time>2026-06-06T22:57:02Z</time>
      </trkpt>
      <trkpt lat="23.073833" lon="113.272538">
        <time>2026-06-06T22:57:07Z</time>
      </trkpt>
      <trkpt lat="23.073863" lon="113.272453">
        <time>2026-06-06T22:57:12Z</time>
      </trkpt>
      <trkpt lat="23.073932" lon="113.272318">
        <time>2026-06-06T22:57:17Z</time>
      </trkpt>
      <trkpt lat="23.073981" lon="113.272225">
        <time>2026-06-06T22:57:22Z</time>
      </trkpt>
      <trkpt lat="23.074035" lon="113.272091">
        <time>2026-06-06T22:57:27Z</time>
      </trkpt>
      <trkpt lat="23.07406" lon="113.272006">
        <time>2026-06-06T22:57:32Z</time>
      </trkpt>
      <trkpt lat="23.074103" lon="113.271869">
        <time>2026-06-06T22:57:37Z</time>
      </trkpt>
      <trkpt lat="23.074142" lon="113.271774">
        <time>2026-06-06T22:57:42Z</time>
      </trkpt>
      <trkpt lat="23.074057" lon="113.271686">
        <time>2026-06-06T22:57:47Z</time>
      </trkpt>
      <trkpt lat="23.073976" lon="113.271649">
        <time>2026-06-06T22:57:52Z</time>
      </trkpt>
      <trkpt lat="23.073855" lon="113.271596">
        <time>2026-06-06T22:57:57Z</time>
      </trkpt>
      <trkpt lat="23.073777" lon="113.271556">
        <time>2026-06-06T22:58:02Z</time>
      </trkpt>
      <trkpt lat="23.073644" lon="113.271507">
        <time>2026-06-06T22:58:07Z</time>
      </trkpt>
      <trkpt lat="23.07355" lon="113.271474">
        <time>2026-06-06T22:58:12Z</time>
      </trkpt>
      <trkpt lat="23.073419" lon="113.271416">
        <time>2026-06-06T22:58:17Z</time>
      </trkpt>
      <trkpt lat="23.073335" lon="113.27138">
        <time>2026-06-06T22:58:22Z</time>
      </trkpt>
      <trkpt lat="23.07325" lon="113.271265">
        <time>2026-06-06T22:58:27Z</time>
      </trkpt>
      <trkpt lat="23.073178" lon="113.271202">
        <time>2026-06-06T22:58:32Z</time>
      </trkpt>
      <trkpt lat="23.073063" lon="113.271139">
        <time>2026-06-06T22:58:37Z</time>
      </trkpt>
      <trkpt lat="23.072986" lon="113.271083">
        <time>2026-06-06T22:58:42Z</time>
      </trkpt>
      <trkpt lat="23.072863" lon="113.270978">
        <time>2026-06-06T22:58:47Z</time>
      </trkpt>
      <trkpt lat="23.072771" lon="113.270917">
        <time>2026-06-06T22:58:52Z</time>
      </trkpt>
      <trkpt lat="23.072639" lon="113.270855">
        <time>2026-06-06T22:58:57Z</time>
      </trkpt>
      <trkpt lat="23.072544" lon="113.270836">
        <time>2026-06-06T22:59:02Z</time>
      </trkpt>
      <trkpt lat="23.072403" lon="113.270809">
        <time>2026-06-06T22:59:07Z</time>
      </trkpt>
      <trkpt lat="23.072311" lon="113.270755">
        <time>2026-06-06T22:59:12Z</time>
      </trkpt>
      <trkpt lat="23.072182" lon="113.270692">
        <time>2026-06-06T22:59:17Z</time>
      </trkpt>
      <trkpt lat="23.07211" lon="113.270642">
        <time>2026-06-06T22:59:22Z</time>
      </trkpt>
      <trkpt lat="23.071998" lon="113.27056">
        <time>2026-06-06T22:59:27Z</time>
      </trkpt>
      <trkpt lat="23.071917" lon="113.270504">
        <time>2026-06-06T22:59:32Z</time>
      </trkpt>
      <trkpt lat="23.071788" lon="113.270424">
        <time>2026-06-06T22:59:37Z</time>
      </trkpt>
      <trkpt lat="23.07171" lon="113.27038">
        <time>2026-06-06T22:59:42Z</time>
      </trkpt>
      <trkpt lat="23.071576" lon="113.270325">
        <time>2026-06-06T22:59:47Z</time>
      </trkpt>
      <trkpt lat="23.071482" lon="113.270296">
        <time>2026-06-06T22:59:52Z</time>
      </trkpt>
      <trkpt lat="23.071341" lon="113.270259">
        <time>2026-06-06T22:59:57Z</time>
      </trkpt>
      <trkpt lat="23.071251" lon="113.270222">
        <time>2026-06-06T23:00:02Z</time>
      </trkpt>
      <trkpt lat="23.071115" lon="113.270179">
        <time>2026-06-06T23:00:07Z</time>
      </trkpt>
      <trkpt lat="23.071018" lon="113.270151">
        <time>2026-06-06T23:00:12Z</time>
      </trkpt>
      <trkpt lat="23.070889" lon="113.270082">
        <time>2026-06-06T23:00:17Z</time>
      </trkpt>
      <trkpt lat="23.070796" lon="113.270032">
        <time>2026-06-06T23:00:22Z</time>
      </trkpt>
      <trkpt lat="23.070647" lon="113.269953">
        <time>2026-06-06T23:00:27Z</time>
      </trkpt>
      <trkpt lat="23.07055" lon="113.26991">
        <time>2026-06-06T23:00:32Z</time>
      </trkpt>
      <trkpt lat="23.070414" lon="113.269849">
        <time>2026-06-06T23:00:37Z</time>
      </trkpt>
      <trkpt lat="23.070332" lon="113.269797">
        <time>2026-06-06T23:00:42Z</time>
      </trkpt>
      <trkpt lat="23.070199" lon="113.269738">
        <time>2026-06-06T23:00:47Z</time>
      </trkpt>
      <trkpt lat="23.070105" lon="113.26971">
        <time>2026-06-06T23:00:52Z</time>
      </trkpt>
      <trkpt lat="23.069974" lon="113.269638">
        <time>2026-06-06T23:00:57Z</time>
      </trkpt>
      <trkpt lat="23.069889" lon="113.269579">
        <time>2026-06-06T23:01:02Z</time>
      </trkpt>
      <trkpt lat="23.069767" lon="113.269513">
        <time>2026-06-06T23:01:07Z</time>
      </trkpt>
      <trkpt lat="23.069682" lon="113.269472">
        <time>2026-06-06T23:01:12Z</time>
      </trkpt>
      <trkpt lat="23.069551" lon="113.269406">
        <time>2026-06-06T23:01:17Z</time>
      </trkpt>
      <trkpt lat="23.069471" lon="113.269363">
        <time>2026-06-06T23:01:22Z</time>
      </trkpt>
      <trkpt lat="23.069338" lon="113.2693">
        <time>2026-06-06T23:01:27Z</time>
      </trkpt>
      <trkpt lat="23.069257" lon="113.269239">
        <time>2026-06-06T23:01:32Z</time>
      </trkpt>
      <trkpt lat="23.069131" lon="113.269184">
        <time>2026-06-06T23:01:37Z</time>
      </trkpt>
      <trkpt lat="23.069051" lon="113.269164">
        <time>2026-06-06T23:01:42Z</time>
      </trkpt>
      <trkpt lat="23.068921" lon="113.269106">
        <time>2026-06-06T23:01:47Z</time>
      </trkpt>
      <trkpt lat="23.068829" lon="113.269083">
        <time>2026-06-06T23:01:52Z</time>
      </trkpt>
      <trkpt lat="23.0687" lon="113.269027">
        <time>2026-06-06T23:01:57Z</time>
      </trkpt>
      <trkpt lat="23.068619" lon="113.268977">
        <time>2026-06-06T23:02:02Z</time>
      </trkpt>
      <trkpt lat="23.068487" lon="113.268933">
        <time>2026-06-06T23:02:07Z</time>
      </trkpt>
      <trkpt lat="23.068399" lon="113.268904">
        <time>2026-06-06T23:02:12Z</time>
      </trkpt>
      <trkpt lat="23.068275" lon="113.268837">
        <time>2026-06-06T23:02:17Z</time>
      </trkpt>
      <trkpt lat="23.06819" lon="113.268795">
        <time>2026-06-06T23:02:22Z</time>
      </trkpt>
      <trkpt lat="23.068069" lon="113.26872">
        <time>2026-06-06T23:02:27Z</time>
      </trkpt>
      <trkpt lat="23.067991" lon="113.268637">
        <time>2026-06-06T23:02:32Z</time>
      </trkpt>
      <trkpt lat="23.067867" lon="113.26852">
        <time>2026-06-06T23:02:37Z</time>
      </trkpt>
      <trkpt lat="23.067799" lon="113.26843">
        <time>2026-06-06T23:02:42Z</time>
      </trkpt>
      <trkpt lat="23.067664" lon="113.268344">
        <time>2026-06-06T23:02:47Z</time>
      </trkpt>
      <trkpt lat="23.067571" lon="113.268302">
        <time>2026-06-06T23:02:52Z</time>
      </trkpt>
      <trkpt lat="23.067428" lon="113.268252">
        <time>2026-06-06T23:02:57Z</time>
      </trkpt>
      <trkpt lat="23.06734" lon="113.268213">
        <time>2026-06-06T23:03:02Z</time>
      </trkpt>
      <trkpt lat="23.067218" lon="113.268163">
        <time>2026-06-06T23:03:07Z</time>
      </trkpt>
      <trkpt lat="23.067138" lon="113.268139">
        <time>2026-06-06T23:03:12Z</time>
      </trkpt>
      <trkpt lat="23.067016" lon="113.268074">
        <time>2026-06-06T23:03:17Z</time>
      </trkpt>
      <trkpt lat="23.066925" lon="113.268043">
        <time>2026-06-06T23:03:22Z</time>
      </trkpt>
      <trkpt lat="23.066776" lon="113.268003">
        <time>2026-06-06T23:03:27Z</time>
      </trkpt>
      <trkpt lat="23.066684" lon="113.267994">
        <time>2026-06-06T23:03:32Z</time>
      </trkpt>
      <trkpt lat="23.066551" lon="113.267958">
        <time>2026-06-06T23:03:37Z</time>
      </trkpt>
      <trkpt lat="23.066459" lon="113.267936">
        <time>2026-06-06T23:03:42Z</time>
      </trkpt>
      <trkpt lat="23.066322" lon="113.267953">
        <time>2026-06-06T23:03:47Z</time>
      </trkpt>
      <trkpt lat="23.066242" lon="113.268005">
        <time>2026-06-06T23:03:52Z</time>
      </trkpt>
      <trkpt lat="23.066134" lon="113.26811">
        <time>2026-06-06T23:03:57Z</time>
      </trkpt>
      <trkpt lat="23.066069" lon="113.268187">
        <time>2026-06-06T23:04:02Z</time>
      </trkpt>
      <trkpt lat="23.065978" lon="113.268301">
        <time>2026-06-06T23:04:07Z</time>
      </trkpt>
      <trkpt lat="23.065917" lon="113.268383">
        <time>2026-06-06T23:04:12Z</time>
      </trkpt>
      <trkpt lat="23.065825" lon="113.268507">
        <time>2026-06-06T23:04:17Z</time>
      </trkpt>
      <trkpt lat="23.065772" lon="113.26859">
        <time>2026-06-06T23:04:22Z</time>
      </trkpt>
      <trkpt lat="23.06571" lon="113.268723">
        <time>2026-06-06T23:04:27Z</time>
      </trkpt>
      <trkpt lat="23.065675" lon="113.268817">
        <time>2026-06-06T23:04:32Z</time>
      </trkpt>
      <trkpt lat="23.065633" lon="113.268948">
        <time>2026-06-06T23:04:37Z</time>
      </trkpt>
      <trkpt lat="23.065602" lon="113.269036">
        <time>2026-06-06T23:04:42Z</time>
      </trkpt>
      <trkpt lat="23.065558" lon="113.269169">
        <time>2026-06-06T23:04:47Z</time>
      </trkpt>
      <trkpt lat="23.065532" lon="113.26926">
        <time>2026-06-06T23:04:52Z</time>
      </trkpt>
      <trkpt lat="23.065497" lon="113.269406">
        <time>2026-06-06T23:04:57Z</time>
      </trkpt>
      <trkpt lat="23.065476" lon="113.269503">
        <time>2026-06-06T23:05:02Z</time>
      </trkpt>
      <trkpt lat="23.065443" lon="113.26965">
        <time>2026-06-06T23:05:07Z</time>
      </trkpt>
      <trkpt lat="23.065416" lon="113.269744">
        <time>2026-06-06T23:05:12Z</time>
      </trkpt>
      <trkpt lat="23.065368" lon="113.269884">
        <time>2026-06-06T23:05:17Z</time>
      </trkpt>
      <trkpt lat="23.065337" lon="113.269981">
        <time>2026-06-06T23:05:22Z</time>
      </trkpt>
      <trkpt lat="23.065293" lon="113.270122">
        <time>2026-06-06T23:05:27Z</time>
      </trkpt>
      <trkpt lat="23.065254" lon="113.270212">
        <time>2026-06-06T23:05:32Z</time>
      </trkpt>
      <trkpt lat="23.065192" lon="113.270339">
        <time>2026-06-06T23:05:37Z</time>
      </trkpt>
      <trkpt lat="23.06515" lon="113.270422">
        <time>2026-06-06T23:05:42Z</time>
      </trkpt>
      <trkpt lat="23.065087" lon="113.270546">
        <time>2026-06-06T23:05:47Z</time>
      </trkpt>
      <trkpt lat="23.06505" lon="113.270632">
        <time>2026-06-06T23:05:52Z</time>
      </trkpt>
      <trkpt lat="23.064995" lon="113.270761">
        <time>2026-06-06T23:05:57Z</time>
      </trkpt>
      <trkpt lat="23.064956" lon="113.270846">
        <time>2026-06-06T23:06:02Z</time>
      </trkpt>
      <trkpt lat="23.064898" lon="113.270977">
        <time>2026-06-06T23:06:07Z</time>
      </trkpt>
      <trkpt lat="23.064863" lon="113.271064">
        <time>2026-06-06T23:06:12Z</time>
      </trkpt>
      <trkpt lat="23.064804" lon="113.271196">
        <time>2026-06-06T23:06:17Z</time>
      </trkpt>
      <trkpt lat="23.064766" lon="113.271284">
        <time>2026-06-06T23:06:22Z</time>
      </trkpt>
      <trkpt lat="23.064708" lon="113.27141">
        <time>2026-06-06T23:06:27Z</time>
      </trkpt>
      <trkpt lat="23.064667" lon="113.271492">
        <time>2026-06-06T23:06:32Z</time>
      </trkpt>
      <trkpt lat="23.064605" lon="113.271621">
        <time>2026-06-06T23:06:37Z</time>
      </trkpt>
      <trkpt lat="23.064568" lon="113.27171">
        <time>2026-06-06T23:06:42Z</time>
      </trkpt>
      <trkpt lat="23.064511" lon="113.271844">
        <time>2026-06-06T23:06:47Z</time>
      </trkpt>
      <trkpt lat="23.064471" lon="113.271935">
        <time>2026-06-06T23:06:52Z</time>
      </trkpt>
      <trkpt lat="23.064403" lon="113.272064">
        <time>2026-06-06T23:06:57Z</time>
      </trkpt>
      <trkpt lat="23.064339" lon="113.272131">
        <time>2026-06-06T23:07:02Z</time>
      </trkpt>
      <trkpt lat="23.064295" lon="113.272257">
        <time>2026-06-06T23:07:07Z</time>
      </trkpt>
      <trkpt lat="23.064296" lon="113.272356">
        <time>2026-06-06T23:07:12Z</time>
      </trkpt>
      <trkpt lat="23.064288" lon="113.272498">
        <time>2026-06-06T23:07:17Z</time>
      </trkpt>
      <trkpt lat="23.064293" lon="113.272591">
        <time>2026-06-06T23:07:22Z</time>
      </trkpt>
      <trkpt lat="23.064329" lon="113.27273">
        <time>2026-06-06T23:07:27Z</time>
      </trkpt>
      <trkpt lat="23.06436" lon="113.272818">
        <time>2026-06-06T23:07:32Z</time>
      </trkpt>
      <trkpt lat="23.064415" lon="113.272941">
        <time>2026-06-06T23:07:37Z</time>
      </trkpt>
      <trkpt lat="23.064441" lon="113.273031">
        <time>2026-06-06T23:07:42Z</time>
      </trkpt>
      <trkpt lat="23.064446" lon="113.273174">
        <time>2026-06-06T23:07:47Z</time>
      </trkpt>
      <trkpt lat="23.064412" lon="113.27326">
        <time>2026-06-06T23:07:52Z</time>
      </trkpt>
      <trkpt lat="23.06431" lon="113.273354">
        <time>2026-06-06T23:07:57Z</time>
      </trkpt>
      <trkpt lat="23.064232" lon="113.273415">
        <time>2026-06-06T23:08:02Z</time>
      </trkpt>
      <trkpt lat="23.064122" lon="113.273512">
        <time>2026-06-06T23:08:07Z</time>
      </trkpt>
      <trkpt lat="23.06405" lon="113.273572">
        <time>2026-06-06T23:08:12Z</time>
      </trkpt>
      <trkpt lat="23.063946" lon="113.273672">
        <time>2026-06-06T23:08:17Z</time>
      </trkpt>
      <trkpt lat="23.063883" lon="113.273746">
        <time>2026-06-06T23:08:22Z</time>
      </trkpt>
      <trkpt lat="23.063813" lon="113.273875">
        <time>2026-06-06T23:08:27Z</time>
      </trkpt>
      <trkpt lat="23.063772" lon="113.273961">
        <time>2026-06-06T23:08:32Z</time>
      </trkpt>
      <trkpt lat="23.063695" lon="113.274077">
        <time>2026-06-06T23:08:37Z</time>
      </trkpt>
      <trkpt lat="23.063613" lon="113.274123">
        <time>2026-06-06T23:08:42Z</time>
      </trkpt>
      <trkpt lat="23.063495" lon="113.2741">
        <time>2026-06-06T23:08:47Z</time>
      </trkpt>
      <trkpt lat="23.063419" lon="113.274093">
        <time>2026-06-06T23:08:52Z</time>
      </trkpt>
      <trkpt lat="23.063347" lon="113.274229">
        <time>2026-06-06T23:08:57Z</time>
      </trkpt>
      <trkpt lat="23.063312" lon="113.274336">
        <time>2026-06-06T23:09:02Z</time>
      </trkpt>
      <trkpt lat="23.063269" lon="113.274484">
        <time>2026-06-06T23:09:07Z</time>
      </trkpt>
      <trkpt lat="23.06324" lon="113.274575">
        <time>2026-06-06T23:09:12Z</time>
      </trkpt>
      <trkpt lat="23.063194" lon="113.274709">
        <time>2026-06-06T23:09:17Z</time>
      </trkpt>
      <trkpt lat="23.063157" lon="113.274805">
        <time>2026-06-06T23:09:22Z</time>
      </trkpt>
      <trkpt lat="23.063102" lon="113.274946">
        <time>2026-06-06T23:09:27Z</time>
      </trkpt>
      <trkpt lat="23.063076" lon="113.275043">
        <time>2026-06-06T23:09:32Z</time>
      </trkpt>
      <trkpt lat="23.063004" lon="113.275166">
        <time>2026-06-06T23:09:37Z</time>
      </trkpt>
      <trkpt lat="23.062928" lon="113.275226">
        <time>2026-06-06T23:09:42Z</time>
      </trkpt>
      <trkpt lat="23.062908" lon="113.275376">
        <time>2026-06-06T23:09:47Z</time>
      </trkpt>
      <trkpt lat="23.06292" lon="113.275473">
        <time>2026-06-06T23:09:52Z</time>
      </trkpt>
      <trkpt lat="23.062849" lon="113.275595">
        <time>2026-06-06T23:09:57Z</time>
      </trkpt>
      <trkpt lat="23.062778" lon="113.275666">
        <time>2026-06-06T23:10:02Z</time>
      </trkpt>
      <trkpt lat="23.062672" lon="113.275771">
        <time>2026-06-06T23:10:07Z</time>
      </trkpt>
      <trkpt lat="23.062605" lon="113.275847">
        <time>2026-06-06T23:10:12Z</time>
      </trkpt>
      <trkpt lat="23.062519" lon="113.27597">
        <time>2026-06-06T23:10:17Z</time>
      </trkpt>
      <trkpt lat="23.062471" lon="113.276057">
        <time>2026-06-06T23:10:22Z</time>
      </trkpt>
      <trkpt lat="23.062403" lon="113.276187">
        <time>2026-06-06T23:10:27Z</time>
      </trkpt>
      <trkpt lat="23.062368" lon="113.276273">
        <time>2026-06-06T23:10:32Z</time>
      </trkpt>
      <trkpt lat="23.062315" lon="113.276411">
        <time>2026-06-06T23:10:37Z</time>
      </trkpt>
      <trkpt lat="23.062282" lon="113.276502">
        <time>2026-06-06T23:10:42Z</time>
      </trkpt>
      <trkpt lat="23.062232" lon="113.276638">
        <time>2026-06-06T23:10:47Z</time>
      </trkpt>
      <trkpt lat="23.062201" lon="113.276729">
        <time>2026-06-06T23:10:52Z</time>
      </trkpt>
      <trkpt lat="23.062158" lon="113.276858">
        <time>2026-06-06T23:10:57Z</time>
      </trkpt>
      <trkpt lat="23.062128" lon="113.276943">
        <time>2026-06-06T23:11:02Z</time>
      </trkpt>
      <trkpt lat="23.062077" lon="113.277083">
        <time>2026-06-06T23:11:07Z</time>
      </trkpt>
      <trkpt lat="23.06204" lon="113.277177">
        <time>2026-06-06T23:11:12Z</time>
      </trkpt>
      <trkpt lat="23.06199" lon="113.277318">
        <time>2026-06-06T23:11:17Z</time>
      </trkpt>
      <trkpt lat="23.061956" lon="113.277409">
        <time>2026-06-06T23:11:22Z</time>
      </trkpt>
      <trkpt lat="23.0619" lon="113.277546">
        <time>2026-06-06T23:11:27Z</time>
      </trkpt>
      <trkpt lat="23.061865" lon="113.277634">
        <time>2026-06-06T23:11:32Z</time>
      </trkpt>
      <trkpt lat="23.061826" lon="113.27777">
        <time>2026-06-06T23:11:37Z</time>
      </trkpt>
      <trkpt lat="23.061811" lon="113.277861">
        <time>2026-06-06T23:11:42Z</time>
      </trkpt>
      <trkpt lat="23.061811" lon="113.277995">
        <time>2026-06-06T23:11:47Z</time>
      </trkpt>
      <trkpt lat="23.061818" lon="113.278087">
        <time>2026-06-06T23:11:52Z</time>
      </trkpt>
      <trkpt lat="23.061826" lon="113.27823">
        <time>2026-06-06T23:11:57Z</time>
      </trkpt>
      <trkpt lat="23.061831" lon="113.278321">
        <time>2026-06-06T23:12:02Z</time>
      </trkpt>
      <trkpt lat="23.061843" lon="113.278459">
        <time>2026-06-06T23:12:07Z</time>
      </trkpt>
      <trkpt lat="23.061852" lon="113.27855">
        <time>2026-06-06T23:12:12Z</time>
      </trkpt>
      <trkpt lat="23.061843" lon="113.278684">
        <time>2026-06-06T23:12:17Z</time>
      </trkpt>
      <trkpt lat="23.061806" lon="113.27874">
        <time>2026-06-06T23:12:22Z</time>
      </trkpt>
      <trkpt lat="23.061721" lon="113.278805">
        <time>2026-06-06T23:12:27Z</time>
      </trkpt>
      <trkpt lat="23.061687" lon="113.278898">
        <time>2026-06-06T23:12:32Z</time>
      </trkpt>
      <trkpt lat="23.061643" lon="113.279033">
        <time>2026-06-06T23:12:37Z</time>
      </trkpt>
      <trkpt lat="23.061614" lon="113.279115">
        <time>2026-06-06T23:12:42Z</time>
      </trkpt>
      <trkpt lat="23.061563" lon="113.279243">
        <time>2026-06-06T23:12:47Z</time>
      </trkpt>
      <trkpt lat="23.061528" lon="113.279334">
        <time>2026-06-06T23:12:52Z</time>
      </trkpt>
      <trkpt lat="23.061472" lon="113.279474">
        <time>2026-06-06T23:12:57Z</time>
      </trkpt>
      <trkpt lat="23.061431" lon="113.279565">
        <time>2026-06-06T23:13:02Z</time>
      </trkpt>
      <trkpt lat="23.06137" lon="113.279698">
        <time>2026-06-06T23:13:07Z</time>
      </trkpt>
      <trkpt lat="23.061328" lon="113.279787">
        <time>2026-06-06T23:13:12Z</time>
      </trkpt>
      <trkpt lat="23.061274" lon="113.279922">
        <time>2026-06-06T23:13:17Z</time>
      </trkpt>
      <trkpt lat="23.06124" lon="113.280009">
        <time>2026-06-06T23:13:22Z</time>
      </trkpt>
      <trkpt lat="23.061182" lon="113.280144">
        <time>2026-06-06T23:13:27Z</time>
      </trkpt>
      <trkpt lat="23.061145" lon="113.28023">
        <time>2026-06-06T23:13:32Z</time>
      </trkpt>
      <trkpt lat="23.061092" lon="113.280363">
        <time>2026-06-06T23:13:37Z</time>
      </trkpt>
      <trkpt lat="23.061054" lon="113.280455">
        <time>2026-06-06T23:13:42Z</time>
      </trkpt>
      <trkpt lat="23.060992" lon="113.280597">
        <time>2026-06-06T23:13:47Z</time>
      </trkpt>
      <trkpt lat="23.060941" lon="113.280687">
        <time>2026-06-06T23:13:52Z</time>
      </trkpt>
      <trkpt lat="23.06088" lon="113.280821">
        <time>2026-06-06T23:13:57Z</time>
      </trkpt>
      <trkpt lat="23.060848" lon="113.280913">
        <time>2026-06-06T23:14:02Z</time>
      </trkpt>
      <trkpt lat="23.060789" lon="113.28105">
        <time>2026-06-06T23:14:07Z</time>
      </trkpt>
      <trkpt lat="23.06075" lon="113.281138">
        <time>2026-06-06T23:14:12Z</time>
      </trkpt>
      <trkpt lat="23.060693" lon="113.281267">
        <time>2026-06-06T23:14:17Z</time>
      </trkpt>
      <trkpt lat="23.060658" lon="113.281355">
        <time>2026-06-06T23:14:22Z</time>
      </trkpt>
      <trkpt lat="23.06061" lon="113.281488">
        <time>2026-06-06T23:14:27Z</time>
      </trkpt>
      <trkpt lat="23.060573" lon="113.281572">
        <time>2026-06-06T23:14:32Z</time>
      </trkpt>
      <trkpt lat="23.060519" lon="113.281701">
        <time>2026-06-06T23:14:37Z</time>
      </trkpt>
      <trkpt lat="23.060484" lon="113.281789">
        <time>2026-06-06T23:14:42Z</time>
      </trkpt>
      <trkpt lat="23.06043" lon="113.281922">
        <time>2026-06-06T23:14:47Z</time>
      </trkpt>
      <trkpt lat="23.060388" lon="113.282013">
        <time>2026-06-06T23:14:52Z</time>
      </trkpt>
      <trkpt lat="23.060324" lon="113.282148">
        <time>2026-06-06T23:14:57Z</time>
      </trkpt>
      <trkpt lat="23.060283" lon="113.282236">
        <time>2026-06-06T23:15:02Z</time>
      </trkpt>
      <trkpt lat="23.060226" lon="113.282365">
        <time>2026-06-06T23:15:07Z</time>
      </trkpt>
      <trkpt lat="23.060191" lon="113.282451">
        <time>2026-06-06T23:15:12Z</time>
      </trkpt>
      <trkpt lat="23.060139" lon="113.282577">
        <time>2026-06-06T23:15:17Z</time>
      </trkpt>
      <trkpt lat="23.060105" lon="113.282667">
        <time>2026-06-06T23:15:22Z</time>
      </trkpt>
      <trkpt lat="23.060055" lon="113.282814">
        <time>2026-06-06T23:15:27Z</time>
      </trkpt>
      <trkpt lat="23.06002" lon="113.282909">
        <time>2026-06-06T23:15:32Z</time>
      </trkpt>
      <trkpt lat="23.059968" lon="113.283044">
        <time>2026-06-06T23:15:37Z</time>
      </trkpt>
      <trkpt lat="23.059923" lon="113.283132">
        <time>2026-06-06T23:15:42Z</time>
      </trkpt>
      <trkpt lat="23.059845" lon="113.283262">
        <time>2026-06-06T23:15:47Z</time>
      </trkpt>
      <trkpt lat="23.0598" lon="113.283352">
        <time>2026-06-06T23:15:52Z</time>
      </trkpt>
      <trkpt lat="23.059741" lon="113.283493">
        <time>2026-06-06T23:15:57Z</time>
      </trkpt>
      <trkpt lat="23.059707" lon="113.283584">
        <time>2026-06-06T23:16:02Z</time>
      </trkpt>
      <trkpt lat="23.05965" lon="113.283721">
        <time>2026-06-06T23:16:07Z</time>
      </trkpt>
      <trkpt lat="23.059602" lon="113.283806">
        <time>2026-06-06T23:16:12Z</time>
      </trkpt>
      <trkpt lat="23.059543" lon="113.283941">
        <time>2026-06-06T23:16:17Z</time>
      </trkpt>
      <trkpt lat="23.059502" lon="113.284031">
        <time>2026-06-06T23:16:22Z</time>
      </trkpt>
      <trkpt lat="23.059416" lon="113.284154">
        <time>2026-06-06T23:16:27Z</time>
      </trkpt>
      <trkpt lat="23.059371" lon="113.28424">
        <time>2026-06-06T23:16:32Z</time>
      </trkpt>
      <trkpt lat="23.05932" lon="113.284374">
        <time>2026-06-06T23:16:37Z</time>
      </trkpt>
      <trkpt lat="23.059289" lon="113.284464">
        <time>2026-06-06T23:16:42Z</time>
      </trkpt>
      <trkpt lat="23.059267" lon="113.284602">
        <time>2026-06-06T23:16:47Z</time>
      </trkpt>
      <trkpt lat="23.059248" lon="113.284696">
        <time>2026-06-06T23:16:52Z</time>
      </trkpt>
      <trkpt lat="23.059195" lon="113.284836">
        <time>2026-06-06T23:16:57Z</time>
      </trkpt>
      <trkpt lat="23.059156" lon="113.284927">
        <time>2026-06-06T23:17:02Z</time>
      </trkpt>
      <trkpt lat="23.059097" lon="113.285066">
        <time>2026-06-06T23:17:07Z</time>
      </trkpt>
      <trkpt lat="23.059059" lon="113.285157">
        <time>2026-06-06T23:17:12Z</time>
      </trkpt>
      <trkpt lat="23.059006" lon="113.285291">
        <time>2026-06-06T23:17:17Z</time>
      </trkpt>
      <trkpt lat="23.058965" lon="113.285379">
        <time>2026-06-06T23:17:22Z</time>
      </trkpt>
      <trkpt lat="23.058907" lon="113.285511">
        <time>2026-06-06T23:17:27Z</time>
      </trkpt>
      <trkpt lat="23.058869" lon="113.285601">
        <time>2026-06-06T23:17:32Z</time>
      </trkpt>
      <trkpt lat="23.058809" lon="113.28574">
        <time>2026-06-06T23:17:37Z</time>
      </trkpt>
      <trkpt lat="23.058772" lon="113.285831">
        <time>2026-06-06T23:17:42Z</time>
      </trkpt>
      <trkpt lat="23.058718" lon="113.285967">
        <time>2026-06-06T23:17:47Z</time>
      </trkpt>
      <trkpt lat="23.058681" lon="113.286054">
        <time>2026-06-06T23:17:52Z</time>
      </trkpt>
      <trkpt lat="23.058728" lon="113.286137">
        <time>2026-06-06T23:17:57Z</time>
      </trkpt>
      <trkpt lat="23.058822" lon="113.286123">
        <time>2026-06-06T23:18:02Z</time>
      </trkpt>
      <trkpt lat="23.05893" lon="113.286019">
        <time>2026-06-06T23:18:07Z</time>
      </trkpt>
      <trkpt lat="23.058984" lon="113.285934">
        <time>2026-06-06T23:18:12Z</time>
      </trkpt>
      <trkpt lat="23.059063" lon="113.285804">
        <time>2026-06-06T23:18:17Z</time>
      </trkpt>
      <trkpt lat="23.059107" lon="113.285714">
        <time>2026-06-06T23:18:22Z</time>
      </trkpt>
      <trkpt lat="23.059165" lon="113.285574">
        <time>2026-06-06T23:18:27Z</time>
      </trkpt>
      <trkpt lat="23.059193" lon="113.285481">
        <time>2026-06-06T23:18:32Z</time>
      </trkpt>
      <trkpt lat="23.05924" lon="113.285339">
        <time>2026-06-06T23:18:37Z</time>
      </trkpt>
      <trkpt lat="23.059269" lon="113.285246">
        <time>2026-06-06T23:18:42Z</time>
      </trkpt>
      <trkpt lat="23.059316" lon="113.285115">
        <time>2026-06-06T23:18:47Z</time>
      </trkpt>
      <trkpt lat="23.059358" lon="113.285031">
        <time>2026-06-06T23:18:52Z</time>
      </trkpt>
      <trkpt lat="23.059419" lon="113.284903">
        <time>2026-06-06T23:18:57Z</time>
      </trkpt>
      <trkpt lat="23.059455" lon="113.284815">
        <time>2026-06-06T23:19:02Z</time>
      </trkpt>
      <trkpt lat="23.059517" lon="113.284685">
        <time>2026-06-06T23:19:07Z</time>
      </trkpt>
      <trkpt lat="23.059556" lon="113.284595">
        <time>2026-06-06T23:19:12Z</time>
      </trkpt>
      <trkpt lat="23.059601" lon="113.284462">
        <time>2026-06-06T23:19:17Z</time>
      </trkpt>
      <trkpt lat="23.059632" lon="113.284376">
        <time>2026-06-06T23:19:22Z</time>
      </trkpt>
      <trkpt lat="23.059691" lon="113.284247">
        <time>2026-06-06T23:19:27Z</time>
      </trkpt>
      <trkpt lat="23.059736" lon="113.284158">
        <time>2026-06-06T23:19:32Z</time>
      </trkpt>
      <trkpt lat="23.059796" lon="113.284026">
        <time>2026-06-06T23:19:37Z</time>
      </trkpt>
      <trkpt lat="23.059833" lon="113.283937">
        <time>2026-06-06T23:19:42Z</time>
      </trkpt>
      <trkpt lat="23.05988" lon="113.283796">
        <time>2026-06-06T23:19:47Z</time>
      </trkpt>
      <trkpt lat="23.0599" lon="113.283698">
        <time>2026-06-06T23:19:52Z</time>
      </trkpt>
      <trkpt lat="23.059917" lon="113.283544">
        <time>2026-06-06T23:19:57Z</time>
      </trkpt>
      <trkpt lat="23.059925" lon="113.283438">
        <time>2026-06-06T23:20:02Z</time>
      </trkpt>
      <trkpt lat="23.059975" lon="113.283298">
        <time>2026-06-06T23:20:07Z</time>
      </trkpt>
      <trkpt lat="23.060028" lon="113.283222">
        <time>2026-06-06T23:20:12Z</time>
      </trkpt>
      <trkpt lat="23.060111" lon="113.283114">
        <time>2026-06-06T23:20:17Z</time>
      </trkpt>
      <trkpt lat="23.060162" lon="113.283034">
        <time>2026-06-06T23:20:22Z</time>
      </trkpt>
      <trkpt lat="23.060217" lon="113.282911">
        <time>2026-06-06T23:20:27Z</time>
      </trkpt>
      <trkpt lat="23.060247" lon="113.282824">
        <time>2026-06-06T23:20:32Z</time>
      </trkpt>
      <trkpt lat="23.060301" lon="113.282685">
        <time>2026-06-06T23:20:37Z</time>
      </trkpt>
      <trkpt lat="23.060334" lon="113.282596">
        <time>2026-06-06T23:20:42Z</time>
      </trkpt>
      <trkpt lat="23.060378" lon="113.282459">
        <time>2026-06-06T23:20:47Z</time>
      </trkpt>
      <trkpt lat="23.060407" lon="113.282368">
        <time>2026-06-06T23:20:52Z</time>
      </trkpt>
      <trkpt lat="23.060461" lon="113.282238">
        <time>2026-06-06T23:20:57Z</time>
      </trkpt>
      <trkpt lat="23.060497" lon="113.282149">
        <time>2026-06-06T23:21:02Z</time>
      </trkpt>
      <trkpt lat="23.060552" lon="113.282022">
        <time>2026-06-06T23:21:07Z</time>
      </trkpt>
      <trkpt lat="23.060584" lon="113.281934">
        <time>2026-06-06T23:21:12Z</time>
      </trkpt>
      <trkpt lat="23.060633" lon="113.281805">
        <time>2026-06-06T23:21:17Z</time>
      </trkpt>
      <trkpt lat="23.06067" lon="113.28172">
        <time>2026-06-06T23:21:22Z</time>
      </trkpt>
      <trkpt lat="23.060723" lon="113.281595">
        <time>2026-06-06T23:21:27Z</time>
      </trkpt>
      <trkpt lat="23.060758" lon="113.281513">
        <time>2026-06-06T23:21:32Z</time>
      </trkpt>
      <trkpt lat="23.060813" lon="113.281383">
        <time>2026-06-06T23:21:37Z</time>
      </trkpt>
      <trkpt lat="23.060847" lon="113.281287">
        <time>2026-06-06T23:21:42Z</time>
      </trkpt>
      <trkpt lat="23.060907" lon="113.281146">
        <time>2026-06-06T23:21:47Z</time>
      </trkpt>
      <trkpt lat="23.060946" lon="113.28105">
        <time>2026-06-06T23:21:52Z</time>
      </trkpt>
      <trkpt lat="23.060997" lon="113.280914">
        <time>2026-06-06T23:21:57Z</time>
      </trkpt>
      <trkpt lat="23.06103" lon="113.280828">
        <time>2026-06-06T23:22:02Z</time>
      </trkpt>
      <trkpt lat="23.061082" lon="113.280696">
        <time>2026-06-06T23:22:07Z</time>
      </trkpt>
      <trkpt lat="23.061128" lon="113.280606">
        <time>2026-06-06T23:22:12Z</time>
      </trkpt>
      <trkpt lat="23.061196" lon="113.280471">
        <time>2026-06-06T23:22:17Z</time>
      </trkpt>
      <trkpt lat="23.061233" lon="113.280381">
        <time>2026-06-06T23:22:22Z</time>
      </trkpt>
      <trkpt lat="23.061293" lon="113.280252">
        <time>2026-06-06T23:22:27Z</time>
      </trkpt>
      <trkpt lat="23.061345" lon="113.280175">
        <time>2026-06-06T23:22:32Z</time>
      </trkpt>
      <trkpt lat="23.061406" lon="113.280052">
        <time>2026-06-06T23:22:37Z</time>
      </trkpt>
      <trkpt lat="23.061442" lon="113.279967">
        <time>2026-06-06T23:22:42Z</time>
      </trkpt>
      <trkpt lat="23.061483" lon="113.279832">
        <time>2026-06-06T23:22:47Z</time>
      </trkpt>
      <trkpt lat="23.061512" lon="113.279745">
        <time>2026-06-06T23:22:52Z</time>
      </trkpt>
      <trkpt lat="23.061559" lon="113.279614">
        <time>2026-06-06T23:22:57Z</time>
      </trkpt>
      <trkpt lat="23.061596" lon="113.279525">
        <time>2026-06-06T23:23:02Z</time>
      </trkpt>
      <trkpt lat="23.061649" lon="113.279397">
        <time>2026-06-06T23:23:07Z</time>
      </trkpt>
      <trkpt lat="23.061685" lon="113.279313">
        <time>2026-06-06T23:23:12Z</time>
      </trkpt>
      <trkpt lat="23.061733" lon="113.279185">
        <time>2026-06-06T23:23:17Z</time>
      </trkpt>
      <trkpt lat="23.061773" lon="113.279103">
        <time>2026-06-06T23:23:22Z</time>
      </trkpt>
      <trkpt lat="23.061851" lon="113.278987">
        <time>2026-06-06T23:23:27Z</time>
      </trkpt>
      <trkpt lat="23.061903" lon="113.278905">
        <time>2026-06-06T23:23:32Z</time>
      </trkpt>
      <trkpt lat="23.061953" lon="113.278762">
        <time>2026-06-06T23:23:37Z</time>
      </trkpt>
      <trkpt lat="23.061957" lon="113.278661">
        <time>2026-06-06T23:23:42Z</time>
      </trkpt>
      <trkpt lat="23.061949" lon="113.27851">
        <time>2026-06-06T23:23:47Z</time>
      </trkpt>
      <trkpt lat="23.061944" lon="113.278411">
        <time>2026-06-06T23:23:52Z</time>
      </trkpt>
      <trkpt lat="23.061939" lon="113.278258">
        <time>2026-06-06T23:23:57Z</time>
      </trkpt>
      <trkpt lat="23.061938" lon="113.278153">
        <time>2026-06-06T23:24:02Z</time>
      </trkpt>
      <trkpt lat="23.061931" lon="113.278002">
        <time>2026-06-06T23:24:07Z</time>
      </trkpt>
      <trkpt lat="23.061926" lon="113.277902">
        <time>2026-06-06T23:24:12Z</time>
      </trkpt>
      <trkpt lat="23.061935" lon="113.277751">
        <time>2026-06-06T23:24:17Z</time>
      </trkpt>
      <trkpt lat="23.061961" lon="113.277653">
        <time>2026-06-06T23:24:22Z</time>
      </trkpt>
      <trkpt lat="23.062019" lon="113.277512">
        <time>2026-06-06T23:24:27Z</time>
      </trkpt>
      <trkpt lat="23.062057" lon="113.277417">
        <time>2026-06-06T23:24:32Z</time>
      </trkpt>
      <trkpt lat="23.062114" lon="113.27728">
        <time>2026-06-06T23:24:37Z</time>
      </trkpt>
      <trkpt lat="23.062148" lon="113.27719">
        <time>2026-06-06T23:24:42Z</time>
      </trkpt>
      <trkpt lat="23.062193" lon="113.277058">
        <time>2026-06-06T23:24:47Z</time>
      </trkpt>
      <trkpt lat="23.062227" lon="113.276974">
        <time>2026-06-06T23:24:52Z</time>
      </trkpt>
      <trkpt lat="23.062273" lon="113.276847">
        <time>2026-06-06T23:24:57Z</time>
      </trkpt>
      <trkpt lat="23.062307" lon="113.27676">
        <time>2026-06-06T23:25:02Z</time>
      </trkpt>
      <trkpt lat="23.062355" lon="113.276626">
        <time>2026-06-06T23:25:07Z</time>
      </trkpt>
      <trkpt lat="23.062388" lon="113.276534">
        <time>2026-06-06T23:25:12Z</time>
      </trkpt>
      <trkpt lat="23.062438" lon="113.276396">
        <time>2026-06-06T23:25:17Z</time>
      </trkpt>
      <trkpt lat="23.062473" lon="113.276305">
        <time>2026-06-06T23:25:22Z</time>
      </trkpt>
      <trkpt lat="23.062533" lon="113.276171">
        <time>2026-06-06T23:25:27Z</time>
      </trkpt>
      <trkpt lat="23.06258" lon="113.276084">
        <time>2026-06-06T23:25:32Z</time>
      </trkpt>
      <trkpt lat="23.06266" lon="113.275963">
        <time>2026-06-06T23:25:37Z</time>
      </trkpt>
      <trkpt lat="23.06272" lon="113.275888">
        <time>2026-06-06T23:25:42Z</time>
      </trkpt>
      <trkpt lat="23.062815" lon="113.275786">
        <time>2026-06-06T23:25:47Z</time>
      </trkpt>
      <trkpt lat="23.062884" lon="113.275722">
        <time>2026-06-06T23:25:52Z</time>
      </trkpt>
      <trkpt lat="23.062975" lon="113.275625">
        <time>2026-06-06T23:25:57Z</time>
      </trkpt>
      <trkpt lat="23.063028" lon="113.275553">
        <time>2026-06-06T23:26:02Z</time>
      </trkpt>
      <trkpt lat="23.063104" lon="113.275435">
        <time>2026-06-06T23:26:07Z</time>
      </trkpt>
      <trkpt lat="23.063157" lon="113.275358">
        <time>2026-06-06T23:26:12Z</time>
      </trkpt>
      <trkpt lat="23.063229" lon="113.275236">
        <time>2026-06-06T23:26:17Z</time>
      </trkpt>
      <trkpt lat="23.063281" lon="113.275154">
        <time>2026-06-06T23:26:22Z</time>
      </trkpt>
      <trkpt lat="23.063343" lon="113.275029">
        <time>2026-06-06T23:26:27Z</time>
      </trkpt>
      <trkpt lat="23.063374" lon="113.274939">
        <time>2026-06-06T23:26:32Z</time>
      </trkpt>
      <trkpt lat="23.063414" lon="113.274813">
        <time>2026-06-06T23:26:37Z</time>
      </trkpt>
      <trkpt lat="23.063444" lon="113.27473">
        <time>2026-06-06T23:26:42Z</time>
      </trkpt>
      <trkpt lat="23.063486" lon="113.274598">
        <time>2026-06-06T23:26:47Z</time>
      </trkpt>
      <trkpt lat="23.063509" lon="113.274511">
        <time>2026-06-06T23:26:52Z</time>
      </trkpt>
      <trkpt lat="23.063575" lon="113.274386">
        <time>2026-06-06T23:26:57Z</time>
      </trkpt>
      <trkpt lat="23.063632" lon="113.274306">
        <time>2026-06-06T23:27:02Z</time>
      </trkpt>
      <trkpt lat="23.063724" lon="113.274208">
        <time>2026-06-06T23:27:07Z</time>
      </trkpt>
      <trkpt lat="23.063781" lon="113.274144">
        <time>2026-06-06T23:27:12Z</time>
      </trkpt>
      <trkpt lat="23.063854" lon="113.274024">
        <time>2026-06-06T23:27:17Z</time>
      </trkpt>
      <trkpt lat="23.063904" lon="113.27394">
        <time>2026-06-06T23:27:22Z</time>
      </trkpt>
      <trkpt lat="23.063986" lon="113.273808">
        <time>2026-06-06T23:27:27Z</time>
      </trkpt>
      <trkpt lat="23.064051" lon="113.273732">
        <time>2026-06-06T23:27:32Z</time>
      </trkpt>
      <trkpt lat="23.064154" lon="113.273647">
        <time>2026-06-06T23:27:37Z</time>
      </trkpt>
      <trkpt lat="23.06423" lon="113.27359">
        <time>2026-06-06T23:27:42Z</time>
      </trkpt>
      <trkpt lat="23.064342" lon="113.273509">
        <time>2026-06-06T23:27:47Z</time>
      </trkpt>
      <trkpt lat="23.064416" lon="113.273457">
        <time>2026-06-06T23:27:52Z</time>
      </trkpt>
      <trkpt lat="23.06451" lon="113.273363">
        <time>2026-06-06T23:27:57Z</time>
      </trkpt>
      <trkpt lat="23.064562" lon="113.273281">
        <time>2026-06-06T23:28:02Z</time>
      </trkpt>
      <trkpt lat="23.064581" lon="113.27313">
        <time>2026-06-06T23:28:07Z</time>
      </trkpt>
      <trkpt lat="23.064557" lon="113.273029">
        <time>2026-06-06T23:28:12Z</time>
      </trkpt>
      <trkpt lat="23.064504" lon="113.272885">
        <time>2026-06-06T23:28:17Z</time>
      </trkpt>
      <trkpt lat="23.064474" lon="113.27279">
        <time>2026-06-06T23:28:22Z</time>
      </trkpt>
      <trkpt lat="23.064438" lon="113.272648">
        <time>2026-06-06T23:28:27Z</time>
      </trkpt>
      <trkpt lat="23.064449" lon="113.272559">
        <time>2026-06-06T23:28:32Z</time>
      </trkpt>
      <trkpt lat="23.06453" lon="113.272433">
        <time>2026-06-06T23:28:37Z</time>
      </trkpt>
      <trkpt lat="23.064554" lon="113.272334">
        <time>2026-06-06T23:28:42Z</time>
      </trkpt>
      <trkpt lat="23.064568" lon="113.272186">
        <time>2026-06-06T23:28:47Z</time>
      </trkpt>
      <trkpt lat="23.064607" lon="113.272099">
        <time>2026-06-06T23:28:52Z</time>
      </trkpt>
      <trkpt lat="23.064676" lon="113.271978">
        <time>2026-06-06T23:28:57Z</time>
      </trkpt>
      <trkpt lat="23.064718" lon="113.271898">
        <time>2026-06-06T23:29:02Z</time>
      </trkpt>
      <trkpt lat="23.064789" lon="113.271773">
        <time>2026-06-06T23:29:07Z</time>
      </trkpt>
      <trkpt lat="23.06483" lon="113.271684">
        <time>2026-06-06T23:29:12Z</time>
      </trkpt>
      <trkpt lat="23.064901" lon="113.271552">
        <time>2026-06-06T23:29:17Z</time>
      </trkpt>
      <trkpt lat="23.064941" lon="113.271469">
        <time>2026-06-06T23:29:22Z</time>
      </trkpt>
      <trkpt lat="23.065003" lon="113.27134">
        <time>2026-06-06T23:29:27Z</time>
      </trkpt>
      <trkpt lat="23.065039" lon="113.271253">
        <time>2026-06-06T23:29:32Z</time>
      </trkpt>
      <trkpt lat="23.065103" lon="113.271117">
        <time>2026-06-06T23:29:37Z</time>
      </trkpt>
      <trkpt lat="23.065144" lon="113.271031">
        <time>2026-06-06T23:29:42Z</time>
      </trkpt>
      <trkpt lat="23.065198" lon="113.270899">
        <time>2026-06-06T23:29:47Z</time>
      </trkpt>
      <trkpt lat="23.065234" lon="113.27081">
        <time>2026-06-06T23:29:52Z</time>
      </trkpt>
      <trkpt lat="23.065295" lon="113.270683">
        <time>2026-06-06T23:29:57Z</time>
      </trkpt>
      <trkpt lat="23.065331" lon="113.270592">
        <time>2026-06-06T23:30:02Z</time>
      </trkpt>
      <trkpt lat="23.065385" lon="113.270455">
        <time>2026-06-06T23:30:07Z</time>
      </trkpt>
      <trkpt lat="23.065424" lon="113.270366">
        <time>2026-06-06T23:30:12Z</time>
      </trkpt>
      <trkpt lat="23.065483" lon="113.270232">
        <time>2026-06-06T23:30:17Z</time>
      </trkpt>
      <trkpt lat="23.065515" lon="113.270139">
        <time>2026-06-06T23:30:22Z</time>
      </trkpt>
      <trkpt lat="23.065562" lon="113.269999">
        <time>2026-06-06T23:30:27Z</time>
      </trkpt>
      <trkpt lat="23.065587" lon="113.269907">
        <time>2026-06-06T23:30:32Z</time>
      </trkpt>
      <trkpt lat="23.065624" lon="113.269769">
        <time>2026-06-06T23:30:37Z</time>
      </trkpt>
      <trkpt lat="23.065655" lon="113.269677">
        <time>2026-06-06T23:30:42Z</time>
      </trkpt>
      <trkpt lat="23.065704" lon="113.269535">
        <time>2026-06-06T23:30:47Z</time>
      </trkpt>
      <trkpt lat="23.065729" lon="113.269436">
        <time>2026-06-06T23:30:52Z</time>
      </trkpt>
      <trkpt lat="23.065773" lon="113.269289">
        <time>2026-06-06T23:30:57Z</time>
      </trkpt>
      <trkpt lat="23.065802" lon="113.269198">
        <time>2026-06-06T23:31:02Z</time>
      </trkpt>
      <trkpt lat="23.065845" lon="113.269063">
        <time>2026-06-06T23:31:07Z</time>
      </trkpt>
      <trkpt lat="23.065884" lon="113.268975">
        <time>2026-06-06T23:31:12Z</time>
      </trkpt>
      <trkpt lat="23.065942" lon="113.26884">
        <time>2026-06-06T23:31:17Z</time>
      </trkpt>
      <trkpt lat="23.065981" lon="113.268752">
        <time>2026-06-06T23:31:22Z</time>
      </trkpt>
      <trkpt lat="23.066036" lon="113.26862">
        <time>2026-06-06T23:31:27Z</time>
      </trkpt>
      <trkpt lat="23.066086" lon="113.268536">
        <time>2026-06-06T23:31:32Z</time>
      </trkpt>
      <trkpt lat="23.066169" lon="113.268422">
        <time>2026-06-06T23:31:37Z</time>
      </trkpt>
      <trkpt lat="23.066228" lon="113.268344">
        <time>2026-06-06T23:31:42Z</time>
      </trkpt>
      <trkpt lat="23.066325" lon="113.268238">
        <time>2026-06-06T23:31:47Z</time>
      </trkpt>
      <trkpt lat="23.066401" lon="113.268178">
        <time>2026-06-06T23:31:52Z</time>
      </trkpt>
      <trkpt lat="23.066524" lon="113.268144">
        <time>2026-06-06T23:31:57Z</time>
      </trkpt>
      <trkpt lat="23.066611" lon="113.268161">
        <time>2026-06-06T23:32:02Z</time>
      </trkpt>
      <trkpt lat="23.066746" lon="113.268185">
        <time>2026-06-06T23:32:07Z</time>
      </trkpt>
      <trkpt lat="23.06684" lon="113.268176">
        <time>2026-06-06T23:32:12Z</time>
      </trkpt>
      <trkpt lat="23.066975" lon="113.268179">
        <time>2026-06-06T23:32:17Z</time>
      </trkpt>
      <trkpt lat="23.067051" lon="113.268209">
        <time>2026-06-06T23:32:22Z</time>
      </trkpt>
      <trkpt lat="23.067157" lon="113.268266">
        <time>2026-06-06T23:32:27Z</time>
      </trkpt>
      <trkpt lat="23.067231" lon="113.268309">
        <time>2026-06-06T23:32:32Z</time>
      </trkpt>
      <trkpt lat="23.067336" lon="113.268377">
        <time>2026-06-06T23:32:37Z</time>
      </trkpt>
      <trkpt lat="23.067403" lon="113.268418">
        <time>2026-06-06T23:32:42Z</time>
      </trkpt>
      <trkpt lat="23.067524" lon="113.26849">
        <time>2026-06-06T23:32:47Z</time>
      </trkpt>
      <trkpt lat="23.067615" lon="113.268536">
        <time>2026-06-06T23:32:52Z</time>
      </trkpt>
      <trkpt lat="23.067741" lon="113.268595">
        <time>2026-06-06T23:32:57Z</time>
      </trkpt>
      <trkpt lat="23.067819" lon="113.268642">
        <time>2026-06-06T23:33:02Z</time>
      </trkpt>
      <trkpt lat="23.067932" lon="113.268707">
        <time>2026-06-06T23:33:07Z</time>
      </trkpt>
      <trkpt lat="23.067994" lon="113.268737">
        <time>2026-06-06T23:33:12Z</time>
      </trkpt>
      <trkpt lat="23.068115" lon="113.268776">
        <time>2026-06-06T23:33:17Z</time>
      </trkpt>
      <trkpt lat="23.06819" lon="113.268798">
        <time>2026-06-06T23:33:22Z</time>
      </trkpt>
      <trkpt lat="23.068313" lon="113.268844">
        <time>2026-06-06T23:33:27Z</time>
      </trkpt>
      <trkpt lat="23.068403" lon="113.268878">
        <time>2026-06-06T23:33:32Z</time>
      </trkpt>
      <trkpt lat="23.068527" lon="113.268934">
        <time>2026-06-06T23:33:37Z</time>
      </trkpt>
      <trkpt lat="23.068604" lon="113.269">
        <time>2026-06-06T23:33:42Z</time>
      </trkpt>
      <trkpt lat="23.06873" lon="113.269066">
        <time>2026-06-06T23:33:47Z</time>
      </trkpt>
      <trkpt lat="23.068819" lon="113.269096">
        <time>2026-06-06T23:33:52Z</time>
      </trkpt>
      <trkpt lat="23.068954" lon="113.269141">
        <time>2026-06-06T23:33:57Z</time>
      </trkpt>
      <trkpt lat="23.069051" lon="113.269178">
        <time>2026-06-06T23:34:02Z</time>
      </trkpt>
      <trkpt lat="23.069161" lon="113.269265">
        <time>2026-06-06T23:34:07Z</time>
      </trkpt>
      <trkpt lat="23.069235" lon="113.269318">
        <time>2026-06-06T23:34:12Z</time>
      </trkpt>
      <trkpt lat="23.069369" lon="113.269376">
        <time>2026-06-06T23:34:17Z</time>
      </trkpt>
      <trkpt lat="23.069462" lon="113.269408">
        <time>2026-06-06T23:34:22Z</time>
      </trkpt>
      <trkpt lat="23.069581" lon="113.269491">
        <time>2026-06-06T23:34:27Z</time>
      </trkpt>
      <trkpt lat="23.069668" lon="113.269526">
        <time>2026-06-06T23:34:32Z</time>
      </trkpt>
      <trkpt lat="23.069793" lon="113.269591">
        <time>2026-06-06T23:34:37Z</time>
      </trkpt>
      <trkpt lat="23.069876" lon="113.269633">
        <time>2026-06-06T23:34:42Z</time>
      </trkpt>
      <trkpt lat="23.069994" lon="113.269714">
        <time>2026-06-06T23:34:47Z</time>
      </trkpt>
      <trkpt lat="23.070066" lon="113.269761">
        <time>2026-06-06T23:34:52Z</time>
      </trkpt>
      <trkpt lat="23.070186" lon="113.269822">
        <time>2026-06-06T23:34:57Z</time>
      </trkpt>
      <trkpt lat="23.070268" lon="113.269865">
        <time>2026-06-06T23:35:02Z</time>
      </trkpt>
      <trkpt lat="23.070387" lon="113.269946">
        <time>2026-06-06T23:35:07Z</time>
      </trkpt>
      <trkpt lat="23.070472" lon="113.269981">
        <time>2026-06-06T23:35:12Z</time>
      </trkpt>
      <trkpt lat="23.070617" lon="113.270003">
        <time>2026-06-06T23:35:17Z</time>
      </trkpt>
      <trkpt lat="23.070708" lon="113.270022">
        <time>2026-06-06T23:35:22Z</time>
      </trkpt>
      <trkpt lat="23.070825" lon="113.270087">
        <time>2026-06-06T23:35:27Z</time>
      </trkpt>
      <trkpt lat="23.070893" lon="113.270147">
        <time>2026-06-06T23:35:32Z</time>
      </trkpt>
      <trkpt lat="23.070984" lon="113.270185">
        <time>2026-06-06T23:35:37Z</time>
      </trkpt>
      <trkpt lat="23.071012" lon="113.27022">
        <time>2026-06-06T23:35:42Z</time>
      </trkpt>
      <trkpt lat="23.071071" lon="113.270227">
        <time>2026-06-06T23:35:47Z</time>
      </trkpt>
      <trkpt lat="23.071143" lon="113.270248">
        <time>2026-06-06T23:35:52Z</time>
      </trkpt>
      <trkpt lat="23.07124" lon="113.270316">
        <time>2026-06-06T23:35:57Z</time>
      </trkpt>
      <trkpt lat="23.071311" lon="113.270365">
        <time>2026-06-06T23:36:02Z</time>
      </trkpt>
      <trkpt lat="23.071423" lon="113.270422">
        <time>2026-06-06T23:36:07Z</time>
      </trkpt>
      <trkpt lat="23.071499" lon="113.270456">
        <time>2026-06-06T23:36:12Z</time>
      </trkpt>
      <trkpt lat="23.0716" lon="113.270514">
        <time>2026-06-06T23:36:17Z</time>
      </trkpt>
      <trkpt lat="23.07168" lon="113.270567">
        <time>2026-06-06T23:36:22Z</time>
      </trkpt>
      <trkpt lat="23.071797" lon="113.270641">
        <time>2026-06-06T23:36:27Z</time>
      </trkpt>
      <trkpt lat="23.07189" lon="113.270662">
        <time>2026-06-06T23:36:32Z</time>
      </trkpt>
      <trkpt lat="23.072018" lon="113.270702">
        <time>2026-06-06T23:36:37Z</time>
      </trkpt>
      <trkpt lat="23.072099" lon="113.270746">
        <time>2026-06-06T23:36:42Z</time>
      </trkpt>
      <trkpt lat="23.072221" lon="113.270827">
        <time>2026-06-06T23:36:47Z</time>
      </trkpt>
      <trkpt lat="23.072299" lon="113.270865">
        <time>2026-06-06T23:36:52Z</time>
      </trkpt>
      <trkpt lat="23.072428" lon="113.27089">
        <time>2026-06-06T23:36:57Z</time>
      </trkpt>
      <trkpt lat="23.072512" lon="113.270929">
        <time>2026-06-06T23:37:02Z</time>
      </trkpt>
      <trkpt lat="23.072624" lon="113.270993">
        <time>2026-06-06T23:37:07Z</time>
      </trkpt>
      <trkpt lat="23.0727" lon="113.271028">
        <time>2026-06-06T23:37:12Z</time>
      </trkpt>
      <trkpt lat="23.072828" lon="113.271077">
        <time>2026-06-06T23:37:17Z</time>
      </trkpt>
      <trkpt lat="23.07291" lon="113.271119">
        <time>2026-06-06T23:37:22Z</time>
      </trkpt>
      <trkpt lat="23.073039" lon="113.271176">
        <time>2026-06-06T23:37:27Z</time>
      </trkpt>
      <trkpt lat="23.073142" lon="113.271201">
        <time>2026-06-06T23:37:32Z</time>
      </trkpt>
      <trkpt lat="23.073241" lon="113.271282">
        <time>2026-06-06T23:37:37Z</time>
      </trkpt>
      <trkpt lat="23.073326" lon="113.271327">
        <time>2026-06-06T23:37:42Z</time>
      </trkpt>
      <trkpt lat="23.073455" lon="113.271405">
        <time>2026-06-06T23:37:47Z</time>
      </trkpt>
      <trkpt lat="23.073526" lon="113.27146">
        <time>2026-06-06T23:37:52Z</time>
      </trkpt>
      <trkpt lat="23.073625" lon="113.271554">
        <time>2026-06-06T23:37:57Z</time>
      </trkpt>
      <trkpt lat="23.073711" lon="113.2716">
        <time>2026-06-06T23:38:02Z</time>
      </trkpt>
      <trkpt lat="23.073829" lon="113.271663">
        <time>2026-06-06T23:38:07Z</time>
      </trkpt>
      <trkpt lat="23.073912" lon="113.2717">
        <time>2026-06-06T23:38:12Z</time>
      </trkpt>
      <trkpt lat="23.074019" lon="113.271761">
        <time>2026-06-06T23:38:17Z</time>
      </trkpt>
      <trkpt lat="23.074063" lon="113.2718">
        <time>2026-06-06T23:38:22Z</time>
      </trkpt>
      <trkpt lat="23.074038" lon="113.27191">
        <time>2026-06-06T23:38:27Z</time>
      </trkpt>
      <trkpt lat="23.074001" lon="113.271987">
        <time>2026-06-06T23:38:32Z</time>
      </trkpt>
      <trkpt lat="23.073954" lon="113.272098">
        <time>2026-06-06T23:38:37Z</time>
      </trkpt>
      <trkpt lat="23.07392" lon="113.272181">
        <time>2026-06-06T23:38:42Z</time>
      </trkpt>
      <trkpt lat="23.073869" lon="113.272332">
        <time>2026-06-06T23:38:47Z</time>
      </trkpt>
      <trkpt lat="23.073838" lon="113.272424">
        <time>2026-06-06T23:38:52Z</time>
      </trkpt>
      <trkpt lat="23.073792" lon="113.272549">
        <time>2026-06-06T23:38:57Z</time>
      </trkpt>
      <trkpt lat="23.073759" lon="113.272629">
        <time>2026-06-06T23:39:02Z</time>
      </trkpt>
      <trkpt lat="23.073703" lon="113.272755">
        <time>2026-06-06T23:39:07Z</time>
      </trkpt>
      <trkpt lat="23.073686" lon="113.272843">
        <time>2026-06-06T23:39:12Z</time>
      </trkpt>
      <trkpt lat="23.073778" lon="113.272941">
        <time>2026-06-06T23:39:17Z</time>
      </trkpt>
      <trkpt lat="23.07387" lon="113.272978">
        <time>2026-06-06T23:39:22Z</time>
      </trkpt>
      <trkpt lat="23.073984" lon="113.272975">
        <time>2026-06-06T23:39:27Z</time>
      </trkpt>
      <trkpt lat="23.074021" lon="113.272904">
        <time>2026-06-06T23:39:32Z</time>
      </trkpt>
      <trkpt lat="23.074082" lon="113.272782">
        <time>2026-06-06T23:39:37Z</time>
      </trkpt>
      <trkpt lat="23.07412" lon="113.272696">
        <time>2026-06-06T23:39:42Z</time>
      </trkpt>
      <trkpt lat="23.074157" lon="113.272593">
        <time>2026-06-06T23:39:47Z</time>
      </trkpt>
      <trkpt lat="23.074186" lon="113.272522">
        <time>2026-06-06T23:39:52Z</time>
      </trkpt>
      <trkpt lat="23.07425" lon="113.272391">
        <time>2026-06-06T23:39:57Z</time>
      </trkpt>
      <trkpt lat="23.074299" lon="113.272307">
        <time>2026-06-06T23:40:02Z</time>
      </trkpt>
      <trkpt lat="23.074349" lon="113.272202">
        <time>2026-06-06T23:40:07Z</time>
      </trkpt>
      <trkpt lat="23.074396" lon="113.272119">
        <time>2026-06-06T23:40:12Z</time>
      </trkpt>
      <trkpt lat="23.074483" lon="113.272054">
        <time>2026-06-06T23:40:17Z</time>
      </trkpt>
      <trkpt lat="23.074552" lon="113.27204">
        <time>2026-06-06T23:40:22Z</time>
      </trkpt>
      <trkpt lat="23.074666" lon="113.272086">
        <time>2026-06-06T23:40:27Z</time>
      </trkpt>
      <trkpt lat="23.074735" lon="113.272136">
        <time>2026-06-06T23:40:32Z</time>
      </trkpt>
      <trkpt lat="23.074824" lon="113.272229">
        <time>2026-06-06T23:40:37Z</time>
      </trkpt>
      <trkpt lat="23.074891" lon="113.272283">
        <time>2026-06-06T23:40:42Z</time>
      </trkpt>
      <trkpt lat="23.07499" lon="113.27235">
        <time>2026-06-06T23:40:50Z</time>
      </trkpt>
    </trkseg>
  </trk>
</gpx>