<?xml version="1.0" encoding="UTF-8"?>
<gpx xmlns="http://www.topografix.com/GPX/1/1" xmlns:gpxtpx="http://www.garmin.com/xmlschemas/TrackPointExtension/v1" xmlns:xsi="http://www.w3.org/2001/XMLSchema-instance" xsi:schemaLocation="http://www.topografix.com/GPX/1/1 http://www.topografix.com/GPX/1/1/gpx.xsd" version="1.1" creator="gpx.py -- https://github.com/tkrajina/gpxpy">
  <trk>
    <name>gpx from joyrun</name>
    <trkseg>
      <trkpt lat="23.076158" lon="113.272223">
        <time>2026-06-05T23:06:28Z</time>
      </trkpt>
      <trkpt lat="23.076137" lon="113.272168">
        <time>2026-06-05T23:06:33Z</time>
      </trkpt>
      <trkpt lat="23.075765" lon="113.272163">
        <time>2026-06-05T23:06:38Z</time>
      </trkpt>
      <trkpt lat="23.075614" lon="113.272192">
        <time>2026-06-05T23:06:43Z</time>
      </trkpt>
      <trkpt lat="23.075461" lon="113.272239">
        <time>2026-06-05T23:06:48Z</time>
      </trkpt>
      <trkpt lat="23.075358" lon="113.272241">
        <time>2026-06-05T23:06:53Z</time>
      </trkpt>
      <trkpt lat="23.075298" lon="113.272184">
        <time>2026-06-05T23:06:58Z</time>
      </trkpt>
      <trkpt lat="23.075311" lon="113.272133">
        <time>2026-06-05T23:07:03Z</time>
      </trkpt>
      <trkpt lat="23.075313" lon="113.272064">
        <time>2026-06-05T23:07:08Z</time>
      </trkpt>
      <trkpt lat="23.075379" lon="113.272066">
        <time>2026-06-05T23:07:13Z</time>
      </trkpt>
      <trkpt lat="23.075512" lon="113.272135">
        <time>2026-06-05T23:07:18Z</time>
      </trkpt>
      <trkpt lat="23.075598" lon="113.272204">
        <time>2026-06-05T23:07:23Z</time>
      </trkpt>
      <trkpt lat="23.075727" lon="113.272289">
        <time>2026-06-05T23:07:28Z</time>
      </trkpt>
      <trkpt lat="23.075812" lon="113.272338">
        <time>2026-06-05T23:07:33Z</time>
      </trkpt>
      <trkpt lat="23.075926" lon="113.272439">
        <time>2026-06-05T23:07:38Z</time>
      </trkpt>
      <trkpt lat="23.075986" lon="113.272537">
        <time>2026-06-05T23:07:43Z</time>
      </trkpt>
      <trkpt lat="23.076079" lon="113.272659">
        <time>2026-06-05T23:07:48Z</time>
      </trkpt>
      <trkpt lat="23.076147" lon="113.272724">
        <time>2026-06-05T23:07:53Z</time>
      </trkpt>
      <trkpt lat="23.076276" lon="113.272768">
        <time>2026-06-05T23:07:58Z</time>
      </trkpt>
      <trkpt lat="23.076358" lon="113.272787">
        <time>2026-06-05T23:08:03Z</time>
      </trkpt>
      <trkpt lat="23.076497" lon="113.272882">
        <time>2026-06-05T23:08:08Z</time>
      </trkpt>
      <trkpt lat="23.076559" lon="113.272973">
        <time>2026-06-05T23:08:13Z</time>
      </trkpt>
      <trkpt lat="23.076646" lon="113.2731">
        <time>2026-06-05T23:08:18Z</time>
      </trkpt>
      <trkpt lat="23.076718" lon="113.273163">
        <time>2026-06-05T23:08:23Z</time>
      </trkpt>
      <trkpt lat="23.07682" lon="113.273268">
        <time>2026-06-05T23:08:28Z</time>
      </trkpt>
      <trkpt lat="23.076877" lon="113.273361">
        <time>2026-06-05T23:08:33Z</time>
      </trkpt>
      <trkpt lat="23.076982" lon="113.273478">
        <time>2026-06-05T23:08:38Z</time>
      </trkpt>
      <trkpt lat="23.077063" lon="113.273528">
        <time>2026-06-05T23:08:43Z</time>
      </trkpt>
      <trkpt lat="23.077183" lon="113.273581">
        <time>2026-06-05T23:08:48Z</time>
      </trkpt>
      <trkpt lat="23.077268" lon="113.273606">
        <time>2026-06-05T23:08:53Z</time>
      </trkpt>
      <trkpt lat="23.077397" lon="113.273588">
        <time>2026-06-05T23:08:58Z</time>
      </trkpt>
      <trkpt lat="23.077462" lon="113.273529">
        <time>2026-06-05T23:09:03Z</time>
      </trkpt>
      <trkpt lat="23.077564" lon="113.273417">
        <time>2026-06-05T23:09:08Z</time>
      </trkpt>
      <trkpt lat="23.077635" lon="113.273347">
        <time>2026-06-05T23:09:13Z</time>
      </trkpt>
      <trkpt lat="23.077756" lon="113.273264">
        <time>2026-06-05T23:09:18Z</time>
      </trkpt>
      <trkpt lat="23.077843" lon="113.273224">
        <time>2026-06-05T23:09:23Z</time>
      </trkpt>
      <trkpt lat="23.077986" lon="113.273167">
        <time>2026-06-05T23:09:28Z</time>
      </trkpt>
      <trkpt lat="23.078073" lon="113.27312">
        <time>2026-06-05T23:09:33Z</time>
      </trkpt>
      <trkpt lat="23.078197" lon="113.273061">
        <time>2026-06-05T23:09:38Z</time>
      </trkpt>
      <trkpt lat="23.078281" lon="113.273027">
        <time>2026-06-05T23:09:43Z</time>
      </trkpt>
      <trkpt lat="23.078399" lon="113.27295">
        <time>2026-06-05T23:09:48Z</time>
      </trkpt>
      <trkpt lat="23.078467" lon="113.272891">
        <time>2026-06-05T23:09:53Z</time>
      </trkpt>
      <trkpt lat="23.078567" lon="113.272773">
        <time>2026-06-05T23:09:58Z</time>
      </trkpt>
      <trkpt lat="23.078641" lon="113.272683">
        <time>2026-06-05T23:10:03Z</time>
      </trkpt>
      <trkpt lat="23.07875" lon="113.272565">
        <time>2026-06-05T23:10:08Z</time>
      </trkpt>
      <trkpt lat="23.078826" lon="113.272496">
        <time>2026-06-05T23:10:13Z</time>
      </trkpt>
      <trkpt lat="23.07894" lon="113.272406">
        <time>2026-06-05T23:10:18Z</time>
      </trkpt>
      <trkpt lat="23.079019" lon="113.272349">
        <time>2026-06-05T23:10:23Z</time>
      </trkpt>
      <trkpt lat="23.07914" lon="113.272271">
        <time>2026-06-05T23:10:28Z</time>
      </trkpt>
      <trkpt lat="23.079216" lon="113.272215">
        <time>2026-06-05T23:10:33Z</time>
      </trkpt>
      <trkpt lat="23.07932" lon="113.272126">
        <time>2026-06-05T23:10:38Z</time>
      </trkpt>
      <trkpt lat="23.079388" lon="113.272073">
        <time>2026-06-05T23:10:43Z</time>
      </trkpt>
      <trkpt lat="23.079484" lon="113.272098">
        <time>2026-06-05T23:10:48Z</time>
      </trkpt>
      <trkpt lat="23.079565" lon="113.272126">
        <time>2026-06-05T23:10:53Z</time>
      </trkpt>
      <trkpt lat="23.079691" lon="113.272169">
        <time>2026-06-05T23:10:58Z</time>
      </trkpt>
      <trkpt lat="23.079775" lon="113.272202">
        <time>2026-06-05T23:11:03Z</time>
      </trkpt>
      <trkpt lat="23.079888" lon="113.272243">
        <time>2026-06-05T23:11:08Z</time>
      </trkpt>
      <trkpt lat="23.079957" lon="113.272284">
        <time>2026-06-05T23:11:13Z</time>
      </trkpt>
      <trkpt lat="23.08007" lon="113.272341">
        <time>2026-06-05T23:11:18Z</time>
      </trkpt>
      <trkpt lat="23.080152" lon="113.272383">
        <time>2026-06-05T23:11:23Z</time>
      </trkpt>
      <trkpt lat="23.080291" lon="113.272437">
        <time>2026-06-05T23:11:28Z</time>
      </trkpt>
      <trkpt lat="23.080385" lon="113.272471">
        <time>2026-06-05T23:11:33Z</time>
      </trkpt>
      <trkpt lat="23.080525" lon="113.272503">
        <time>2026-06-05T23:11:38Z</time>
      </trkpt>
      <trkpt lat="23.080625" lon="113.272532">
        <time>2026-06-05T23:11:43Z</time>
      </trkpt>
      <trkpt lat="23.080754" lon="113.27261">
        <time>2026-06-05T23:11:48Z</time>
      </trkpt>
      <trkpt lat="23.080841" lon="113.272651">
        <time>2026-06-05T23:11:53Z</time>
      </trkpt>
      <trkpt lat="23.080995" lon="113.2727">
        <time>2026-06-05T23:11:58Z</time>
      </trkpt>
      <trkpt lat="23.081101" lon="113.272733">
        <time>2026-06-05T23:12:03Z</time>
      </trkpt>
      <trkpt lat="23.081257" lon="113.272803">
        <time>2026-06-05T23:12:08Z</time>
      </trkpt>
      <trkpt lat="23.081349" lon="113.272843">
        <time>2026-06-05T23:12:13Z</time>
      </trkpt>
      <trkpt lat="23.081395" lon="113.272909">
        <time>2026-06-05T23:12:18Z</time>
      </trkpt>
      <trkpt lat="23.08133" lon="113.273102">
        <time>2026-06-05T23:12:23Z</time>
      </trkpt>
      <trkpt lat="23.081219" lon="113.273163">
        <time>2026-06-05T23:12:28Z</time>
      </trkpt>
      <trkpt lat="23.081153" lon="113.273109">
        <time>2026-06-05T23:12:33Z</time>
      </trkpt>
      <trkpt lat="23.081051" lon="113.273026">
        <time>2026-06-05T23:12:46Z</time>
      </trkpt>
    </trkseg>
  </trk>
</gpx>