<?xml version="1.0" encoding="UTF-8"?>
<gpx xmlns="http://www.topografix.com/GPX/1/1" xmlns:gpxtpx="http://www.garmin.com/xmlschemas/TrackPointExtension/v1" xmlns:xsi="http://www.w3.org/2001/XMLSchema-instance" xsi:schemaLocation="http://www.topografix.com/GPX/1/1 http://www.topografix.com/GPX/1/1/gpx.xsd" version="1.1" creator="gpx.py -- https://github.com/tkrajina/gpxpy">
  <trk>
    <name>gpx from joyrun</name>
    <trkseg>
      <trkpt lat="23.075877" lon="113.27266">
        <time>2026-06-08T21:44:37Z</time>
      </trkpt>
      <trkpt lat="23.075838" lon="113.272637">
        <time>2026-06-08T21:44:42Z</time>
      </trkpt>
      <trkpt lat="23.075782" lon="113.272602">
        <time>2026-06-08T21:44:47Z</time>
      </trkpt>
      <trkpt lat="23.07567" lon="113.272542">
        <time>2026-06-08T21:44:52Z</time>
      </trkpt>
      <trkpt lat="23.075587" lon="113.272489">
        <time>2026-06-08T21:44:57Z</time>
      </trkpt>
      <trkpt lat="23.075455" lon="113.272419">
        <time>2026-06-08T21:45:02Z</time>
      </trkpt>
      <trkpt lat="23.075361" lon="113.272392">
        <time>2026-06-08T21:45:07Z</time>
      </trkpt>
      <trkpt lat="23.075215" lon="113.272348">
        <time>2026-06-08T21:45:12Z</time>
      </trkpt>
      <trkpt lat="23.075127" lon="113.272307">
        <time>2026-06-08T21:45:17Z</time>
      </trkpt>
      <trkpt lat="23.074999" lon="113.272241">
        <time>2026-06-08T21:45:22Z</time>
      </trkpt>
      <trkpt lat="23.07491" lon="113.272188">
        <time>2026-06-08T21:45:27Z</time>
      </trkpt>
      <trkpt lat="23.074782" lon="113.272098">
        <time>2026-06-08T21:45:32Z</time>
      </trkpt>
      <trkpt lat="23.074708" lon="113.272058">
        <time>2026-06-08T21:45:37Z</time>
      </trkpt>
      <trkpt lat="23.074611" lon="113.271969">
        <time>2026-06-08T21:45:42Z</time>
      </trkpt>
      <trkpt lat="23.074536" lon="113.271908">
        <time>2026-06-08T21:45:47Z</time>
      </trkpt>
      <trkpt lat="23.074414" lon="113.271951">
        <time>2026-06-08T21:45:52Z</time>
      </trkpt>
      <trkpt lat="23.074367" lon="113.27205">
        <time>2026-06-08T21:45:57Z</time>
      </trkpt>
      <trkpt lat="23.074318" lon="113.272213">
        <time>2026-06-08T21:46:02Z</time>
      </trkpt>
      <trkpt lat="23.074274" lon="113.272324">
        <time>2026-06-08T21:46:07Z</time>
      </trkpt>
      <trkpt lat="23.074209" lon="113.272486">
        <time>2026-06-08T21:46:12Z</time>
      </trkpt>
      <trkpt lat="23.074164" lon="113.27259">
        <time>2026-06-08T21:46:17Z</time>
      </trkpt>
      <trkpt lat="23.074094" lon="113.272738">
        <time>2026-06-08T21:46:22Z</time>
      </trkpt>
      <trkpt lat="23.074024" lon="113.272819">
        <time>2026-06-08T21:46:27Z</time>
      </trkpt>
      <trkpt lat="23.073813" lon="113.272866">
        <time>2026-06-08T21:46:32Z</time>
      </trkpt>
      <trkpt lat="23.073701" lon="113.272837">
        <time>2026-06-08T21:46:37Z</time>
      </trkpt>
      <trkpt lat="23.0737" lon="113.272717">
        <time>2026-06-08T21:46:42Z</time>
      </trkpt>
      <trkpt lat="23.073738" lon="113.272627">
        <time>2026-06-08T21:46:47Z</time>
      </trkpt>
      <trkpt lat="23.073799" lon="113.27249">
        <time>2026-06-08T21:46:52Z</time>
      </trkpt>
      <trkpt lat="23.073837" lon="113.272411">
        <time>2026-06-08T21:46:57Z</time>
      </trkpt>
      <trkpt lat="23.073898" lon="113.2723">
        <time>2026-06-08T21:47:02Z</time>
      </trkpt>
      <trkpt lat="23.073948" lon="113.272213">
        <time>2026-06-08T21:47:07Z</time>
      </trkpt>
      <trkpt lat="23.07401" lon="113.27208">
        <time>2026-06-08T21:47:12Z</time>
      </trkpt>
      <trkpt lat="23.074043" lon="113.27199">
        <time>2026-06-08T21:47:17Z</time>
      </trkpt>
      <trkpt lat="23.074096" lon="113.271856">
        <time>2026-06-08T21:47:22Z</time>
      </trkpt>
      <trkpt lat="23.074114" lon="113.271773">
        <time>2026-06-08T21:47:27Z</time>
      </trkpt>
      <trkpt lat="23.074038" lon="113.271682">
        <time>2026-06-08T21:47:32Z</time>
      </trkpt>
      <trkpt lat="23.073957" lon="113.271643">
        <time>2026-06-08T21:47:37Z</time>
      </trkpt>
      <trkpt lat="23.073841" lon="113.271577">
        <time>2026-06-08T21:47:42Z</time>
      </trkpt>
      <trkpt lat="23.073767" lon="113.271523">
        <time>2026-06-08T21:47:47Z</time>
      </trkpt>
      <trkpt lat="23.073647" lon="113.271447">
        <time>2026-06-08T21:47:52Z</time>
      </trkpt>
      <trkpt lat="23.073535" lon="113.271429">
        <time>2026-06-08T21:47:57Z</time>
      </trkpt>
      <trkpt lat="23.073379" lon="113.271398">
        <time>2026-06-08T21:48:02Z</time>
      </trkpt>
      <trkpt lat="23.073303" lon="113.271353">
        <time>2026-06-08T21:48:07Z</time>
      </trkpt>
      <trkpt lat="23.073193" lon="113.271261">
        <time>2026-06-08T21:48:12Z</time>
      </trkpt>
      <trkpt lat="23.073098" lon="113.271219">
        <time>2026-06-08T21:48:17Z</time>
      </trkpt>
      <trkpt lat="23.072972" lon="113.271154">
        <time>2026-06-08T21:48:22Z</time>
      </trkpt>
      <trkpt lat="23.072887" lon="113.271089">
        <time>2026-06-08T21:48:27Z</time>
      </trkpt>
      <trkpt lat="23.072743" lon="113.271002">
        <time>2026-06-08T21:48:32Z</time>
      </trkpt>
      <trkpt lat="23.072641" lon="113.270971">
        <time>2026-06-08T21:48:37Z</time>
      </trkpt>
      <trkpt lat="23.0725" lon="113.270928">
        <time>2026-06-08T21:48:42Z</time>
      </trkpt>
      <trkpt lat="23.072409" lon="113.270896">
        <time>2026-06-08T21:48:47Z</time>
      </trkpt>
      <trkpt lat="23.072273" lon="113.270828">
        <time>2026-06-08T21:48:52Z</time>
      </trkpt>
      <trkpt lat="23.072186" lon="113.270779">
        <time>2026-06-08T21:48:57Z</time>
      </trkpt>
      <trkpt lat="23.072052" lon="113.2707">
        <time>2026-06-08T21:49:02Z</time>
      </trkpt>
      <trkpt lat="23.071952" lon="113.270653">
        <time>2026-06-08T21:49:07Z</time>
      </trkpt>
      <trkpt lat="23.07179" lon="113.270592">
        <time>2026-06-08T21:49:12Z</time>
      </trkpt>
      <trkpt lat="23.071689" lon="113.270551">
        <time>2026-06-08T21:49:17Z</time>
      </trkpt>
      <trkpt lat="23.071547" lon="113.270483">
        <time>2026-06-08T21:49:22Z</time>
      </trkpt>
      <trkpt lat="23.071457" lon="113.270413">
        <time>2026-06-08T21:49:27Z</time>
      </trkpt>
      <trkpt lat="23.071307" lon="113.270323">
        <time>2026-06-08T21:49:32Z</time>
      </trkpt>
      <trkpt lat="23.071222" lon="113.270257">
        <time>2026-06-08T21:49:37Z</time>
      </trkpt>
      <trkpt lat="23.07109" lon="113.270143">
        <time>2026-06-08T21:49:42Z</time>
      </trkpt>
      <trkpt lat="23.070991" lon="113.270099">
        <time>2026-06-08T21:49:47Z</time>
      </trkpt>
      <trkpt lat="23.070852" lon="113.27004">
        <time>2026-06-08T21:49:52Z</time>
      </trkpt>
      <trkpt lat="23.070755" lon="113.269998">
        <time>2026-06-08T21:49:57Z</time>
      </trkpt>
      <trkpt lat="23.070622" lon="113.269919">
        <time>2026-06-08T21:50:02Z</time>
      </trkpt>
      <trkpt lat="23.070521" lon="113.269896">
        <time>2026-06-08T21:50:07Z</time>
      </trkpt>
      <trkpt lat="23.070371" lon="113.269847">
        <time>2026-06-08T21:50:12Z</time>
      </trkpt>
      <trkpt lat="23.070279" lon="113.269807">
        <time>2026-06-08T21:50:17Z</time>
      </trkpt>
      <trkpt lat="23.070124" lon="113.26978">
        <time>2026-06-08T21:50:22Z</time>
      </trkpt>
      <trkpt lat="23.070025" lon="113.269743">
        <time>2026-06-08T21:50:27Z</time>
      </trkpt>
      <trkpt lat="23.069894" lon="113.269647">
        <time>2026-06-08T21:50:32Z</time>
      </trkpt>
      <trkpt lat="23.069811" lon="113.269585">
        <time>2026-06-08T21:50:37Z</time>
      </trkpt>
      <trkpt lat="23.069681" lon="113.269509">
        <time>2026-06-08T21:50:42Z</time>
      </trkpt>
      <trkpt lat="23.069592" lon="113.269468">
        <time>2026-06-08T21:50:47Z</time>
      </trkpt>
      <trkpt lat="23.069462" lon="113.269415">
        <time>2026-06-08T21:50:52Z</time>
      </trkpt>
      <trkpt lat="23.069373" lon="113.269352">
        <time>2026-06-08T21:50:57Z</time>
      </trkpt>
      <trkpt lat="23.069229" lon="113.269255">
        <time>2026-06-08T21:51:02Z</time>
      </trkpt>
      <trkpt lat="23.069128" lon="113.269223">
        <time>2026-06-08T21:51:07Z</time>
      </trkpt>
      <trkpt lat="23.068985" lon="113.26918">
        <time>2026-06-08T21:51:12Z</time>
      </trkpt>
      <trkpt lat="23.068891" lon="113.26915">
        <time>2026-06-08T21:51:17Z</time>
      </trkpt>
      <trkpt lat="23.068761" lon="113.269092">
        <time>2026-06-08T21:51:22Z</time>
      </trkpt>
      <trkpt lat="23.068673" lon="113.269048">
        <time>2026-06-08T21:51:27Z</time>
      </trkpt>
      <trkpt lat="23.068539" lon="113.268988">
        <time>2026-06-08T21:51:32Z</time>
      </trkpt>
      <trkpt lat="23.068445" lon="113.268949">
        <time>2026-06-08T21:51:37Z</time>
      </trkpt>
      <trkpt lat="23.0683" lon="113.268883">
        <time>2026-06-08T21:51:42Z</time>
      </trkpt>
      <trkpt lat="23.068207" lon="113.268845">
        <time>2026-06-08T21:51:47Z</time>
      </trkpt>
      <trkpt lat="23.068077" lon="113.2688">
        <time>2026-06-08T21:51:52Z</time>
      </trkpt>
      <trkpt lat="23.06799" lon="113.268723">
        <time>2026-06-08T21:51:57Z</time>
      </trkpt>
      <trkpt lat="23.067895" lon="113.268538">
        <time>2026-06-08T21:52:02Z</time>
      </trkpt>
      <trkpt lat="23.067802" lon="113.26847">
        <time>2026-06-08T21:52:07Z</time>
      </trkpt>
      <trkpt lat="23.067646" lon="113.268387">
        <time>2026-06-08T21:52:12Z</time>
      </trkpt>
      <trkpt lat="23.06754" lon="113.268332">
        <time>2026-06-08T21:52:17Z</time>
      </trkpt>
      <trkpt lat="23.067393" lon="113.26826">
        <time>2026-06-08T21:52:22Z</time>
      </trkpt>
      <trkpt lat="23.067301" lon="113.268215">
        <time>2026-06-08T21:52:27Z</time>
      </trkpt>
      <trkpt lat="23.067165" lon="113.268158">
        <time>2026-06-08T21:52:32Z</time>
      </trkpt>
      <trkpt lat="23.067076" lon="113.268119">
        <time>2026-06-08T21:52:37Z</time>
      </trkpt>
      <trkpt lat="23.066944" lon="113.268071">
        <time>2026-06-08T21:52:42Z</time>
      </trkpt>
      <trkpt lat="23.066852" lon="113.268037">
        <time>2026-06-08T21:52:47Z</time>
      </trkpt>
      <trkpt lat="23.06671" lon="113.268021">
        <time>2026-06-08T21:52:52Z</time>
      </trkpt>
      <trkpt lat="23.066623" lon="113.268009">
        <time>2026-06-08T21:52:57Z</time>
      </trkpt>
      <trkpt lat="23.066479" lon="113.267959">
        <time>2026-06-08T21:53:02Z</time>
      </trkpt>
      <trkpt lat="23.066374" lon="113.267954">
        <time>2026-06-08T21:53:07Z</time>
      </trkpt>
      <trkpt lat="23.066231" lon="113.268008">
        <time>2026-06-08T21:53:12Z</time>
      </trkpt>
      <trkpt lat="23.066153" lon="113.268077">
        <time>2026-06-08T21:53:17Z</time>
      </trkpt>
      <trkpt lat="23.066045" lon="113.268193">
        <time>2026-06-08T21:53:22Z</time>
      </trkpt>
      <trkpt lat="23.065979" lon="113.268273">
        <time>2026-06-08T21:53:27Z</time>
      </trkpt>
      <trkpt lat="23.065891" lon="113.268397">
        <time>2026-06-08T21:53:32Z</time>
      </trkpt>
      <trkpt lat="23.065837" lon="113.268484">
        <time>2026-06-08T21:53:37Z</time>
      </trkpt>
      <trkpt lat="23.065763" lon="113.268625">
        <time>2026-06-08T21:53:42Z</time>
      </trkpt>
      <trkpt lat="23.065718" lon="113.268723">
        <time>2026-06-08T21:53:47Z</time>
      </trkpt>
      <trkpt lat="23.065656" lon="113.268869">
        <time>2026-06-08T21:53:52Z</time>
      </trkpt>
      <trkpt lat="23.06562" lon="113.26897">
        <time>2026-06-08T21:53:57Z</time>
      </trkpt>
      <trkpt lat="23.065577" lon="113.269127">
        <time>2026-06-08T21:54:02Z</time>
      </trkpt>
      <trkpt lat="23.06555" lon="113.269228">
        <time>2026-06-08T21:54:07Z</time>
      </trkpt>
      <trkpt lat="23.06551" lon="113.269377">
        <time>2026-06-08T21:54:12Z</time>
      </trkpt>
      <trkpt lat="23.065483" lon="113.269478">
        <time>2026-06-08T21:54:17Z</time>
      </trkpt>
      <trkpt lat="23.065453" lon="113.26964">
        <time>2026-06-08T21:54:22Z</time>
      </trkpt>
      <trkpt lat="23.065433" lon="113.269743">
        <time>2026-06-08T21:54:27Z</time>
      </trkpt>
      <trkpt lat="23.06539" lon="113.26989">
        <time>2026-06-08T21:54:32Z</time>
      </trkpt>
      <trkpt lat="23.065353" lon="113.269986">
        <time>2026-06-08T21:54:37Z</time>
      </trkpt>
      <trkpt lat="23.065297" lon="113.270139">
        <time>2026-06-08T21:54:42Z</time>
      </trkpt>
      <trkpt lat="23.065251" lon="113.27023">
        <time>2026-06-08T21:54:47Z</time>
      </trkpt>
      <trkpt lat="23.065189" lon="113.270364">
        <time>2026-06-08T21:54:52Z</time>
      </trkpt>
      <trkpt lat="23.065142" lon="113.27046">
        <time>2026-06-08T21:54:57Z</time>
      </trkpt>
      <trkpt lat="23.065072" lon="113.270603">
        <time>2026-06-08T21:55:02Z</time>
      </trkpt>
      <trkpt lat="23.065029" lon="113.270699">
        <time>2026-06-08T21:55:07Z</time>
      </trkpt>
      <trkpt lat="23.064968" lon="113.270839">
        <time>2026-06-08T21:55:12Z</time>
      </trkpt>
      <trkpt lat="23.064924" lon="113.270934">
        <time>2026-06-08T21:55:17Z</time>
      </trkpt>
      <trkpt lat="23.064861" lon="113.271083">
        <time>2026-06-08T21:55:22Z</time>
      </trkpt>
      <trkpt lat="23.064817" lon="113.271179">
        <time>2026-06-08T21:55:27Z</time>
      </trkpt>
      <trkpt lat="23.064754" lon="113.271318">
        <time>2026-06-08T21:55:32Z</time>
      </trkpt>
      <trkpt lat="23.064712" lon="113.271412">
        <time>2026-06-08T21:55:37Z</time>
      </trkpt>
      <trkpt lat="23.064644" lon="113.271555">
        <time>2026-06-08T21:55:42Z</time>
      </trkpt>
      <trkpt lat="23.064598" lon="113.271653">
        <time>2026-06-08T21:55:47Z</time>
      </trkpt>
      <trkpt lat="23.06453" lon="113.271808">
        <time>2026-06-08T21:55:52Z</time>
      </trkpt>
      <trkpt lat="23.064482" lon="113.271907">
        <time>2026-06-08T21:55:57Z</time>
      </trkpt>
      <trkpt lat="23.064413" lon="113.272057">
        <time>2026-06-08T21:56:02Z</time>
      </trkpt>
      <trkpt lat="23.064371" lon="113.272161">
        <time>2026-06-08T21:56:07Z</time>
      </trkpt>
      <trkpt lat="23.064347" lon="113.272331">
        <time>2026-06-08T21:56:12Z</time>
      </trkpt>
      <trkpt lat="23.064341" lon="113.272441">
        <time>2026-06-08T21:56:17Z</time>
      </trkpt>
      <trkpt lat="23.064338" lon="113.272597">
        <time>2026-06-08T21:56:22Z</time>
      </trkpt>
      <trkpt lat="23.064358" lon="113.272702">
        <time>2026-06-08T21:56:27Z</time>
      </trkpt>
      <trkpt lat="23.064407" lon="113.272852">
        <time>2026-06-08T21:56:32Z</time>
      </trkpt>
      <trkpt lat="23.064438" lon="113.272951">
        <time>2026-06-08T21:56:37Z</time>
      </trkpt>
      <trkpt lat="23.064481" lon="113.273102">
        <time>2026-06-08T21:56:42Z</time>
      </trkpt>
      <trkpt lat="23.064473" lon="113.27321">
        <time>2026-06-08T21:56:47Z</time>
      </trkpt>
      <trkpt lat="23.064392" lon="113.273335">
        <time>2026-06-08T21:56:52Z</time>
      </trkpt>
      <trkpt lat="23.06431" lon="113.273399">
        <time>2026-06-08T21:56:57Z</time>
      </trkpt>
      <trkpt lat="23.064181" lon="113.273489">
        <time>2026-06-08T21:57:02Z</time>
      </trkpt>
      <trkpt lat="23.0641" lon="113.273553">
        <time>2026-06-08T21:57:07Z</time>
      </trkpt>
      <trkpt lat="23.063984" lon="113.273652">
        <time>2026-06-08T21:57:12Z</time>
      </trkpt>
      <trkpt lat="23.063918" lon="113.273732">
        <time>2026-06-08T21:57:17Z</time>
      </trkpt>
      <trkpt lat="23.063833" lon="113.273866">
        <time>2026-06-08T21:57:22Z</time>
      </trkpt>
      <trkpt lat="23.063777" lon="113.273958">
        <time>2026-06-08T21:57:27Z</time>
      </trkpt>
      <trkpt lat="23.063683" lon="113.27408">
        <time>2026-06-08T21:57:32Z</time>
      </trkpt>
      <trkpt lat="23.063605" lon="113.274136">
        <time>2026-06-08T21:57:37Z</time>
      </trkpt>
      <trkpt lat="23.063502" lon="113.274252">
        <time>2026-06-08T21:57:42Z</time>
      </trkpt>
      <trkpt lat="23.063455" lon="113.274352">
        <time>2026-06-08T21:57:47Z</time>
      </trkpt>
      <trkpt lat="23.063404" lon="113.274514">
        <time>2026-06-08T21:57:52Z</time>
      </trkpt>
      <trkpt lat="23.063378" lon="113.274621">
        <time>2026-06-08T21:57:57Z</time>
      </trkpt>
      <trkpt lat="23.063324" lon="113.274776">
        <time>2026-06-08T21:58:02Z</time>
      </trkpt>
      <trkpt lat="23.063295" lon="113.274886">
        <time>2026-06-08T21:58:07Z</time>
      </trkpt>
      <trkpt lat="23.063235" lon="113.275046">
        <time>2026-06-08T21:58:12Z</time>
      </trkpt>
      <trkpt lat="23.06318" lon="113.275147">
        <time>2026-06-08T21:58:17Z</time>
      </trkpt>
      <trkpt lat="23.063095" lon="113.275287">
        <time>2026-06-08T21:58:22Z</time>
      </trkpt>
      <trkpt lat="23.063048" lon="113.275378">
        <time>2026-06-08T21:58:27Z</time>
      </trkpt>
      <trkpt lat="23.062961" lon="113.275506">
        <time>2026-06-08T21:58:32Z</time>
      </trkpt>
      <trkpt lat="23.062887" lon="113.275592">
        <time>2026-06-08T21:58:37Z</time>
      </trkpt>
      <trkpt lat="23.062769" lon="113.275708">
        <time>2026-06-08T21:58:42Z</time>
      </trkpt>
      <trkpt lat="23.062697" lon="113.275782">
        <time>2026-06-08T21:58:47Z</time>
      </trkpt>
      <trkpt lat="23.062597" lon="113.2759">
        <time>2026-06-08T21:58:52Z</time>
      </trkpt>
      <trkpt lat="23.062536" lon="113.275985">
        <time>2026-06-08T21:58:57Z</time>
      </trkpt>
      <trkpt lat="23.062459" lon="113.276125">
        <time>2026-06-08T21:59:02Z</time>
      </trkpt>
      <trkpt lat="23.062421" lon="113.276236">
        <time>2026-06-08T21:59:07Z</time>
      </trkpt>
      <trkpt lat="23.062366" lon="113.276397">
        <time>2026-06-08T21:59:12Z</time>
      </trkpt>
      <trkpt lat="23.062326" lon="113.276502">
        <time>2026-06-08T21:59:17Z</time>
      </trkpt>
      <trkpt lat="23.062267" lon="113.276657">
        <time>2026-06-08T21:59:22Z</time>
      </trkpt>
      <trkpt lat="23.062229" lon="113.276757">
        <time>2026-06-08T21:59:27Z</time>
      </trkpt>
      <trkpt lat="23.062174" lon="113.276911">
        <time>2026-06-08T21:59:32Z</time>
      </trkpt>
      <trkpt lat="23.062138" lon="113.277011">
        <time>2026-06-08T21:59:37Z</time>
      </trkpt>
      <trkpt lat="23.062082" lon="113.277158">
        <time>2026-06-08T21:59:42Z</time>
      </trkpt>
      <trkpt lat="23.062041" lon="113.277266">
        <time>2026-06-08T21:59:47Z</time>
      </trkpt>
      <trkpt lat="23.061982" lon="113.277421">
        <time>2026-06-08T21:59:52Z</time>
      </trkpt>
      <trkpt lat="23.061946" lon="113.27752">
        <time>2026-06-08T21:59:57Z</time>
      </trkpt>
      <trkpt lat="23.061894" lon="113.277663">
        <time>2026-06-08T22:00:02Z</time>
      </trkpt>
      <trkpt lat="23.061866" lon="113.277761">
        <time>2026-06-08T22:00:07Z</time>
      </trkpt>
      <trkpt lat="23.061849" lon="113.277918">
        <time>2026-06-08T22:00:12Z</time>
      </trkpt>
      <trkpt lat="23.061855" lon="113.278023">
        <time>2026-06-08T22:00:17Z</time>
      </trkpt>
      <trkpt lat="23.061865" lon="113.278175">
        <time>2026-06-08T22:00:22Z</time>
      </trkpt>
      <trkpt lat="23.061871" lon="113.278276">
        <time>2026-06-08T22:00:27Z</time>
      </trkpt>
      <trkpt lat="23.061878" lon="113.27843">
        <time>2026-06-08T22:00:32Z</time>
      </trkpt>
      <trkpt lat="23.061883" lon="113.278535">
        <time>2026-06-08T22:00:37Z</time>
      </trkpt>
      <trkpt lat="23.061874" lon="113.278696">
        <time>2026-06-08T22:00:42Z</time>
      </trkpt>
      <trkpt lat="23.061839" lon="113.278791">
        <time>2026-06-08T22:00:47Z</time>
      </trkpt>
      <trkpt lat="23.061769" lon="113.278929">
        <time>2026-06-08T22:00:52Z</time>
      </trkpt>
      <trkpt lat="23.061718" lon="113.27902">
        <time>2026-06-08T22:00:57Z</time>
      </trkpt>
      <trkpt lat="23.061647" lon="113.279157">
        <time>2026-06-08T22:01:02Z</time>
      </trkpt>
      <trkpt lat="23.061604" lon="113.279249">
        <time>2026-06-08T22:01:07Z</time>
      </trkpt>
      <trkpt lat="23.061541" lon="113.279392">
        <time>2026-06-08T22:01:12Z</time>
      </trkpt>
      <trkpt lat="23.061502" lon="113.279486">
        <time>2026-06-08T22:01:17Z</time>
      </trkpt>
      <trkpt lat="23.061446" lon="113.279632">
        <time>2026-06-08T22:01:22Z</time>
      </trkpt>
      <trkpt lat="23.061405" lon="113.279732">
        <time>2026-06-08T22:01:27Z</time>
      </trkpt>
      <trkpt lat="23.061343" lon="113.279884">
        <time>2026-06-08T22:01:32Z</time>
      </trkpt>
      <trkpt lat="23.061306" lon="113.279983">
        <time>2026-06-08T22:01:37Z</time>
      </trkpt>
      <trkpt lat="23.061245" lon="113.280129">
        <time>2026-06-08T22:01:42Z</time>
      </trkpt>
      <trkpt lat="23.061205" lon="113.280229">
        <time>2026-06-08T22:01:47Z</time>
      </trkpt>
      <trkpt lat="23.061138" lon="113.280376">
        <time>2026-06-08T22:01:52Z</time>
      </trkpt>
      <trkpt lat="23.061093" lon="113.280473">
        <time>2026-06-08T22:01:57Z</time>
      </trkpt>
      <trkpt lat="23.061025" lon="113.280617">
        <time>2026-06-08T22:02:02Z</time>
      </trkpt>
      <trkpt lat="23.060981" lon="113.280716">
        <time>2026-06-08T22:02:07Z</time>
      </trkpt>
      <trkpt lat="23.060921" lon="113.280856">
        <time>2026-06-08T22:02:12Z</time>
      </trkpt>
      <trkpt lat="23.060883" lon="113.280949">
        <time>2026-06-08T22:02:17Z</time>
      </trkpt>
      <trkpt lat="23.060823" lon="113.281098">
        <time>2026-06-08T22:02:22Z</time>
      </trkpt>
      <trkpt lat="23.06078" lon="113.281202">
        <time>2026-06-08T22:02:27Z</time>
      </trkpt>
      <trkpt lat="23.060711" lon="113.28135">
        <time>2026-06-08T22:02:32Z</time>
      </trkpt>
      <trkpt lat="23.060669" lon="113.281449">
        <time>2026-06-08T22:02:37Z</time>
      </trkpt>
      <trkpt lat="23.060605" lon="113.281596">
        <time>2026-06-08T22:02:42Z</time>
      </trkpt>
      <trkpt lat="23.060563" lon="113.281694">
        <time>2026-06-08T22:02:47Z</time>
      </trkpt>
      <trkpt lat="23.060504" lon="113.281846">
        <time>2026-06-08T22:02:52Z</time>
      </trkpt>
      <trkpt lat="23.060458" lon="113.281948">
        <time>2026-06-08T22:02:57Z</time>
      </trkpt>
      <trkpt lat="23.060395" lon="113.282101">
        <time>2026-06-08T22:03:02Z</time>
      </trkpt>
      <trkpt lat="23.060352" lon="113.282201">
        <time>2026-06-08T22:03:07Z</time>
      </trkpt>
      <trkpt lat="23.060288" lon="113.282354">
        <time>2026-06-08T22:03:12Z</time>
      </trkpt>
      <trkpt lat="23.060243" lon="113.282452">
        <time>2026-06-08T22:03:17Z</time>
      </trkpt>
      <trkpt lat="23.060177" lon="113.282602">
        <time>2026-06-08T22:03:22Z</time>
      </trkpt>
      <trkpt lat="23.06014" lon="113.282703">
        <time>2026-06-08T22:03:27Z</time>
      </trkpt>
      <trkpt lat="23.060084" lon="113.282847">
        <time>2026-06-08T22:03:32Z</time>
      </trkpt>
      <trkpt lat="23.060042" lon="113.282944">
        <time>2026-06-08T22:03:37Z</time>
      </trkpt>
      <trkpt lat="23.05998" lon="113.283092">
        <time>2026-06-08T22:03:42Z</time>
      </trkpt>
      <trkpt lat="23.059934" lon="113.283193">
        <time>2026-06-08T22:03:47Z</time>
      </trkpt>
      <trkpt lat="23.059863" lon="113.283343">
        <time>2026-06-08T22:03:52Z</time>
      </trkpt>
      <trkpt lat="23.059818" lon="113.283442">
        <time>2026-06-08T22:03:57Z</time>
      </trkpt>
      <trkpt lat="23.059757" lon="113.283593">
        <time>2026-06-08T22:04:02Z</time>
      </trkpt>
      <trkpt lat="23.059718" lon="113.283694">
        <time>2026-06-08T22:04:07Z</time>
      </trkpt>
      <trkpt lat="23.059654" lon="113.283842">
        <time>2026-06-08T22:04:12Z</time>
      </trkpt>
      <trkpt lat="23.059609" lon="113.283939">
        <time>2026-06-08T22:04:17Z</time>
      </trkpt>
      <trkpt lat="23.059541" lon="113.284091">
        <time>2026-06-08T22:04:22Z</time>
      </trkpt>
      <trkpt lat="23.059497" lon="113.28419">
        <time>2026-06-08T22:04:27Z</time>
      </trkpt>
      <trkpt lat="23.059433" lon="113.28434">
        <time>2026-06-08T22:04:32Z</time>
      </trkpt>
      <trkpt lat="23.059394" lon="113.284437">
        <time>2026-06-08T22:04:37Z</time>
      </trkpt>
      <trkpt lat="23.059333" lon="113.284587">
        <time>2026-06-08T22:04:42Z</time>
      </trkpt>
      <trkpt lat="23.05929" lon="113.284686">
        <time>2026-06-08T22:04:47Z</time>
      </trkpt>
      <trkpt lat="23.059227" lon="113.284831">
        <time>2026-06-08T22:04:52Z</time>
      </trkpt>
      <trkpt lat="23.05918" lon="113.284928">
        <time>2026-06-08T22:04:57Z</time>
      </trkpt>
      <trkpt lat="23.059116" lon="113.285076">
        <time>2026-06-08T22:05:02Z</time>
      </trkpt>
      <trkpt lat="23.059075" lon="113.285175">
        <time>2026-06-08T22:05:07Z</time>
      </trkpt>
      <trkpt lat="23.059014" lon="113.285319">
        <time>2026-06-08T22:05:12Z</time>
      </trkpt>
      <trkpt lat="23.058973" lon="113.285415">
        <time>2026-06-08T22:05:17Z</time>
      </trkpt>
      <trkpt lat="23.058915" lon="113.285565">
        <time>2026-06-08T22:05:22Z</time>
      </trkpt>
      <trkpt lat="23.058866" lon="113.285665">
        <time>2026-06-08T22:05:27Z</time>
      </trkpt>
      <trkpt lat="23.058793" lon="113.285822">
        <time>2026-06-08T22:05:32Z</time>
      </trkpt>
      <trkpt lat="23.058748" lon="113.285924">
        <time>2026-06-08T22:05:37Z</time>
      </trkpt>
      <trkpt lat="23.058687" lon="113.286078">
        <time>2026-06-08T22:05:42Z</time>
      </trkpt>
      <trkpt lat="23.058674" lon="113.28619">
        <time>2026-06-08T22:05:47Z</time>
      </trkpt>
      <trkpt lat="23.058749" lon="113.286319">
        <time>2026-06-08T22:05:52Z</time>
      </trkpt>
      <trkpt lat="23.058849" lon="113.286348">
        <time>2026-06-08T22:05:57Z</time>
      </trkpt>
      <trkpt lat="23.058999" lon="113.286372">
        <time>2026-06-08T22:06:02Z</time>
      </trkpt>
      <trkpt lat="23.059098" lon="113.286394">
        <time>2026-06-08T22:06:07Z</time>
      </trkpt>
      <trkpt lat="23.059245" lon="113.286415">
        <time>2026-06-08T22:06:12Z</time>
      </trkpt>
      <trkpt lat="23.059345" lon="113.286427">
        <time>2026-06-08T22:06:17Z</time>
      </trkpt>
      <trkpt lat="23.059492" lon="113.286445">
        <time>2026-06-08T22:06:22Z</time>
      </trkpt>
      <trkpt lat="23.059586" lon="113.28646">
        <time>2026-06-08T22:06:27Z</time>
      </trkpt>
      <trkpt lat="23.059725" lon="113.286472">
        <time>2026-06-08T22:06:32Z</time>
      </trkpt>
      <trkpt lat="23.059819" lon="113.286471">
        <time>2026-06-08T22:06:37Z</time>
      </trkpt>
      <trkpt lat="23.059976" lon="113.286469">
        <time>2026-06-08T22:06:42Z</time>
      </trkpt>
      <trkpt lat="23.060065" lon="113.286506">
        <time>2026-06-08T22:06:47Z</time>
      </trkpt>
      <trkpt lat="23.060125" lon="113.286639">
        <time>2026-06-08T22:06:52Z</time>
      </trkpt>
      <trkpt lat="23.060135" lon="113.286757">
        <time>2026-06-08T22:06:57Z</time>
      </trkpt>
      <trkpt lat="23.060184" lon="113.28692">
        <time>2026-06-08T22:07:02Z</time>
      </trkpt>
      <trkpt lat="23.060214" lon="113.287022">
        <time>2026-06-08T22:07:07Z</time>
      </trkpt>
      <trkpt lat="23.060253" lon="113.287182">
        <time>2026-06-08T22:07:12Z</time>
      </trkpt>
      <trkpt lat="23.060274" lon="113.287286">
        <time>2026-06-08T22:07:17Z</time>
      </trkpt>
      <trkpt lat="23.06033" lon="113.287458">
        <time>2026-06-08T22:07:22Z</time>
      </trkpt>
      <trkpt lat="23.060326" lon="113.287571">
        <time>2026-06-08T22:07:27Z</time>
      </trkpt>
      <trkpt lat="23.060301" lon="113.287734">
        <time>2026-06-08T22:07:32Z</time>
      </trkpt>
      <trkpt lat="23.060279" lon="113.287842">
        <time>2026-06-08T22:07:37Z</time>
      </trkpt>
      <trkpt lat="23.06032" lon="113.287814">
        <time>2026-06-08T22:07:42Z</time>
      </trkpt>
      <trkpt lat="23.060309" lon="113.287704">
        <time>2026-06-08T22:07:47Z</time>
      </trkpt>
      <trkpt lat="23.060313" lon="113.287537">
        <time>2026-06-08T22:07:52Z</time>
      </trkpt>
      <trkpt lat="23.060301" lon="113.287431">
        <time>2026-06-08T22:07:57Z</time>
      </trkpt>
      <trkpt lat="23.060278" lon="113.287269">
        <time>2026-06-08T22:08:02Z</time>
      </trkpt>
      <trkpt lat="23.060308" lon="113.287155">
        <time>2026-06-08T22:08:07Z</time>
      </trkpt>
      <trkpt lat="23.060316" lon="113.286982">
        <time>2026-06-08T22:08:12Z</time>
      </trkpt>
      <trkpt lat="23.0603" lon="113.286875">
        <time>2026-06-08T22:08:17Z</time>
      </trkpt>
      <trkpt lat="23.060287" lon="113.286718">
        <time>2026-06-08T22:08:22Z</time>
      </trkpt>
      <trkpt lat="23.060284" lon="113.286609">
        <time>2026-06-08T22:08:27Z</time>
      </trkpt>
      <trkpt lat="23.060275" lon="113.286476">
        <time>2026-06-08T22:08:32Z</time>
      </trkpt>
      <trkpt lat="23.060195" lon="113.286424">
        <time>2026-06-08T22:08:37Z</time>
      </trkpt>
      <trkpt lat="23.060027" lon="113.286393">
        <time>2026-06-08T22:08:42Z</time>
      </trkpt>
      <trkpt lat="23.059925" lon="113.286363">
        <time>2026-06-08T22:08:47Z</time>
      </trkpt>
      <trkpt lat="23.05977" lon="113.286287">
        <time>2026-06-08T22:08:52Z</time>
      </trkpt>
      <trkpt lat="23.059667" lon="113.286241">
        <time>2026-06-08T22:08:57Z</time>
      </trkpt>
      <trkpt lat="23.059501" lon="113.286217">
        <time>2026-06-08T22:09:02Z</time>
      </trkpt>
      <trkpt lat="23.059396" lon="113.286221">
        <time>2026-06-08T22:09:07Z</time>
      </trkpt>
      <trkpt lat="23.059246" lon="113.286218">
        <time>2026-06-08T22:09:12Z</time>
      </trkpt>
      <trkpt lat="23.059153" lon="113.286202">
        <time>2026-06-08T22:09:17Z</time>
      </trkpt>
      <trkpt lat="23.059039" lon="113.28611">
        <time>2026-06-08T22:09:22Z</time>
      </trkpt>
      <trkpt lat="23.059005" lon="113.286013">
        <time>2026-06-08T22:09:27Z</time>
      </trkpt>
      <trkpt lat="23.059031" lon="113.285864">
        <time>2026-06-08T22:09:32Z</time>
      </trkpt>
      <trkpt lat="23.059067" lon="113.285769">
        <time>2026-06-08T22:09:37Z</time>
      </trkpt>
      <trkpt lat="23.059116" lon="113.285633">
        <time>2026-06-08T22:09:42Z</time>
      </trkpt>
      <trkpt lat="23.059159" lon="113.285544">
        <time>2026-06-08T22:09:47Z</time>
      </trkpt>
      <trkpt lat="23.059215" lon="113.285399">
        <time>2026-06-08T22:09:52Z</time>
      </trkpt>
      <trkpt lat="23.059253" lon="113.285299">
        <time>2026-06-08T22:09:57Z</time>
      </trkpt>
      <trkpt lat="23.059304" lon="113.28515">
        <time>2026-06-08T22:10:02Z</time>
      </trkpt>
      <trkpt lat="23.059345" lon="113.285053">
        <time>2026-06-08T22:10:07Z</time>
      </trkpt>
      <trkpt lat="23.059415" lon="113.284914">
        <time>2026-06-08T22:10:12Z</time>
      </trkpt>
      <trkpt lat="23.059452" lon="113.28482">
        <time>2026-06-08T22:10:17Z</time>
      </trkpt>
      <trkpt lat="23.059508" lon="113.284676">
        <time>2026-06-08T22:10:22Z</time>
      </trkpt>
      <trkpt lat="23.059546" lon="113.284587">
        <time>2026-06-08T22:10:27Z</time>
      </trkpt>
      <trkpt lat="23.059595" lon="113.284444">
        <time>2026-06-08T22:10:32Z</time>
      </trkpt>
      <trkpt lat="23.059628" lon="113.284345">
        <time>2026-06-08T22:10:37Z</time>
      </trkpt>
      <trkpt lat="23.059684" lon="113.284214">
        <time>2026-06-08T22:10:42Z</time>
      </trkpt>
      <trkpt lat="23.059729" lon="113.284128">
        <time>2026-06-08T22:10:47Z</time>
      </trkpt>
      <trkpt lat="23.059777" lon="113.283984">
        <time>2026-06-08T22:10:52Z</time>
      </trkpt>
      <trkpt lat="23.059811" lon="113.283891">
        <time>2026-06-08T22:10:57Z</time>
      </trkpt>
      <trkpt lat="23.059856" lon="113.283761">
        <time>2026-06-08T22:11:02Z</time>
      </trkpt>
      <trkpt lat="23.059876" lon="113.283669">
        <time>2026-06-08T22:11:07Z</time>
      </trkpt>
      <trkpt lat="23.059915" lon="113.283516">
        <time>2026-06-08T22:11:12Z</time>
      </trkpt>
      <trkpt lat="23.059943" lon="113.283421">
        <time>2026-06-08T22:11:17Z</time>
      </trkpt>
      <trkpt lat="23.060021" lon="113.283282">
        <time>2026-06-08T22:11:22Z</time>
      </trkpt>
      <trkpt lat="23.060079" lon="113.28318">
        <time>2026-06-08T22:11:27Z</time>
      </trkpt>
      <trkpt lat="23.060162" lon="113.283027">
        <time>2026-06-08T22:11:32Z</time>
      </trkpt>
      <trkpt lat="23.060197" lon="113.282929">
        <time>2026-06-08T22:11:37Z</time>
      </trkpt>
      <trkpt lat="23.060257" lon="113.2828">
        <time>2026-06-08T22:11:42Z</time>
      </trkpt>
      <trkpt lat="23.0603" lon="113.282715">
        <time>2026-06-08T22:11:47Z</time>
      </trkpt>
      <trkpt lat="23.060355" lon="113.282575">
        <time>2026-06-08T22:11:52Z</time>
      </trkpt>
      <trkpt lat="23.060392" lon="113.282479">
        <time>2026-06-08T22:11:57Z</time>
      </trkpt>
      <trkpt lat="23.060443" lon="113.282341">
        <time>2026-06-08T22:12:02Z</time>
      </trkpt>
      <trkpt lat="23.060474" lon="113.282248">
        <time>2026-06-08T22:12:07Z</time>
      </trkpt>
      <trkpt lat="23.060532" lon="113.282113">
        <time>2026-06-08T22:12:12Z</time>
      </trkpt>
      <trkpt lat="23.060572" lon="113.282025">
        <time>2026-06-08T22:12:17Z</time>
      </trkpt>
      <trkpt lat="23.060635" lon="113.281877">
        <time>2026-06-08T22:12:22Z</time>
      </trkpt>
      <trkpt lat="23.060671" lon="113.281779">
        <time>2026-06-08T22:12:27Z</time>
      </trkpt>
      <trkpt lat="23.060723" lon="113.281635">
        <time>2026-06-08T22:12:32Z</time>
      </trkpt>
      <trkpt lat="23.060759" lon="113.281539">
        <time>2026-06-08T22:12:37Z</time>
      </trkpt>
      <trkpt lat="23.060813" lon="113.281389">
        <time>2026-06-08T22:12:42Z</time>
      </trkpt>
      <trkpt lat="23.060848" lon="113.281292">
        <time>2026-06-08T22:12:47Z</time>
      </trkpt>
      <trkpt lat="23.060906" lon="113.281153">
        <time>2026-06-08T22:12:52Z</time>
      </trkpt>
      <trkpt lat="23.060946" lon="113.281069">
        <time>2026-06-08T22:12:57Z</time>
      </trkpt>
      <trkpt lat="23.061001" lon="113.280941">
        <time>2026-06-08T22:13:02Z</time>
      </trkpt>
      <trkpt lat="23.061042" lon="113.280846">
        <time>2026-06-08T22:13:07Z</time>
      </trkpt>
      <trkpt lat="23.061115" lon="113.280694">
        <time>2026-06-08T22:13:12Z</time>
      </trkpt>
      <trkpt lat="23.061159" lon="113.280596">
        <time>2026-06-08T22:13:17Z</time>
      </trkpt>
      <trkpt lat="23.061219" lon="113.280455">
        <time>2026-06-08T22:13:22Z</time>
      </trkpt>
      <trkpt lat="23.061263" lon="113.280366">
        <time>2026-06-08T22:13:27Z</time>
      </trkpt>
      <trkpt lat="23.061329" lon="113.280227">
        <time>2026-06-08T22:13:32Z</time>
      </trkpt>
      <trkpt lat="23.061376" lon="113.280136">
        <time>2026-06-08T22:13:37Z</time>
      </trkpt>
      <trkpt lat="23.061437" lon="113.280004">
        <time>2026-06-08T22:13:42Z</time>
      </trkpt>
      <trkpt lat="23.061474" lon="113.279916">
        <time>2026-06-08T22:13:47Z</time>
      </trkpt>
      <trkpt lat="23.061527" lon="113.279779">
        <time>2026-06-08T22:13:52Z</time>
      </trkpt>
      <trkpt lat="23.061564" lon="113.279689">
        <time>2026-06-08T22:13:57Z</time>
      </trkpt>
      <trkpt lat="23.061623" lon="113.279544">
        <time>2026-06-08T22:14:02Z</time>
      </trkpt>
      <trkpt lat="23.061657" lon="113.279441">
        <time>2026-06-08T22:14:07Z</time>
      </trkpt>
      <trkpt lat="23.061709" lon="113.279288">
        <time>2026-06-08T22:14:12Z</time>
      </trkpt>
      <trkpt lat="23.06175" lon="113.279189">
        <time>2026-06-08T22:14:17Z</time>
      </trkpt>
      <trkpt lat="23.061837" lon="113.279046">
        <time>2026-06-08T22:14:22Z</time>
      </trkpt>
      <trkpt lat="23.061905" lon="113.278954">
        <time>2026-06-08T22:14:27Z</time>
      </trkpt>
      <trkpt lat="23.061969" lon="113.278805">
        <time>2026-06-08T22:14:32Z</time>
      </trkpt>
      <trkpt lat="23.061981" lon="113.278698">
        <time>2026-06-08T22:14:37Z</time>
      </trkpt>
      <trkpt lat="23.061974" lon="113.278533">
        <time>2026-06-08T22:14:42Z</time>
      </trkpt>
      <trkpt lat="23.061967" lon="113.278421">
        <time>2026-06-08T22:14:47Z</time>
      </trkpt>
      <trkpt lat="23.061959" lon="113.278262">
        <time>2026-06-08T22:14:52Z</time>
      </trkpt>
      <trkpt lat="23.061953" lon="113.278154">
        <time>2026-06-08T22:14:57Z</time>
      </trkpt>
      <trkpt lat="23.061952" lon="113.27799">
        <time>2026-06-08T22:15:02Z</time>
      </trkpt>
      <trkpt lat="23.061955" lon="113.277881">
        <time>2026-06-08T22:15:07Z</time>
      </trkpt>
      <trkpt lat="23.061973" lon="113.277728">
        <time>2026-06-08T22:15:12Z</time>
      </trkpt>
      <trkpt lat="23.061996" lon="113.277627">
        <time>2026-06-08T22:15:17Z</time>
      </trkpt>
      <trkpt lat="23.062039" lon="113.277477">
        <time>2026-06-08T22:15:22Z</time>
      </trkpt>
      <trkpt lat="23.062086" lon="113.277385">
        <time>2026-06-08T22:15:27Z</time>
      </trkpt>
      <trkpt lat="23.062143" lon="113.277248">
        <time>2026-06-08T22:15:32Z</time>
      </trkpt>
      <trkpt lat="23.062169" lon="113.27715">
        <time>2026-06-08T22:15:37Z</time>
      </trkpt>
      <trkpt lat="23.062216" lon="113.277004">
        <time>2026-06-08T22:15:42Z</time>
      </trkpt>
      <trkpt lat="23.062255" lon="113.276906">
        <time>2026-06-08T22:15:47Z</time>
      </trkpt>
      <trkpt lat="23.062313" lon="113.276761">
        <time>2026-06-08T22:15:52Z</time>
      </trkpt>
      <trkpt lat="23.062353" lon="113.276664">
        <time>2026-06-08T22:15:57Z</time>
      </trkpt>
      <trkpt lat="23.062407" lon="113.276514">
        <time>2026-06-08T22:16:02Z</time>
      </trkpt>
      <trkpt lat="23.062442" lon="113.276412">
        <time>2026-06-08T22:16:07Z</time>
      </trkpt>
      <trkpt lat="23.062497" lon="113.276265">
        <time>2026-06-08T22:16:12Z</time>
      </trkpt>
      <trkpt lat="23.06254" lon="113.276172">
        <time>2026-06-08T22:16:17Z</time>
      </trkpt>
      <trkpt lat="23.062619" lon="113.276036">
        <time>2026-06-08T22:16:22Z</time>
      </trkpt>
      <trkpt lat="23.062678" lon="113.275952">
        <time>2026-06-08T22:16:27Z</time>
      </trkpt>
      <trkpt lat="23.062779" lon="113.27584">
        <time>2026-06-08T22:16:32Z</time>
      </trkpt>
      <trkpt lat="23.062851" lon="113.27577">
        <time>2026-06-08T22:16:37Z</time>
      </trkpt>
      <trkpt lat="23.062967" lon="113.275662">
        <time>2026-06-08T22:16:42Z</time>
      </trkpt>
      <trkpt lat="23.063037" lon="113.275578">
        <time>2026-06-08T22:16:47Z</time>
      </trkpt>
      <trkpt lat="23.063124" lon="113.275445">
        <time>2026-06-08T22:16:52Z</time>
      </trkpt>
      <trkpt lat="23.063176" lon="113.275353">
        <time>2026-06-08T22:16:57Z</time>
      </trkpt>
      <trkpt lat="23.063253" lon="113.275216">
        <time>2026-06-08T22:17:02Z</time>
      </trkpt>
      <trkpt lat="23.063313" lon="113.275133">
        <time>2026-06-08T22:17:07Z</time>
      </trkpt>
      <trkpt lat="23.063403" lon="113.275006">
        <time>2026-06-08T22:17:12Z</time>
      </trkpt>
      <trkpt lat="23.063437" lon="113.274914">
        <time>2026-06-08T22:17:17Z</time>
      </trkpt>
      <trkpt lat="23.063475" lon="113.274778">
        <time>2026-06-08T22:17:22Z</time>
      </trkpt>
      <trkpt lat="23.063499" lon="113.274679">
        <time>2026-06-08T22:17:27Z</time>
      </trkpt>
      <trkpt lat="23.063533" lon="113.274534">
        <time>2026-06-08T22:17:32Z</time>
      </trkpt>
      <trkpt lat="23.06358" lon="113.274453">
        <time>2026-06-08T22:17:37Z</time>
      </trkpt>
      <trkpt lat="23.063669" lon="113.274332">
        <time>2026-06-08T22:17:42Z</time>
      </trkpt>
      <trkpt lat="23.063742" lon="113.274254">
        <time>2026-06-08T22:17:47Z</time>
      </trkpt>
      <trkpt lat="23.063837" lon="113.274134">
        <time>2026-06-08T22:17:52Z</time>
      </trkpt>
      <trkpt lat="23.063889" lon="113.274039">
        <time>2026-06-08T22:17:57Z</time>
      </trkpt>
      <trkpt lat="23.06396" lon="113.273899">
        <time>2026-06-08T22:18:02Z</time>
      </trkpt>
      <trkpt lat="23.064012" lon="113.273818">
        <time>2026-06-08T22:18:07Z</time>
      </trkpt>
      <trkpt lat="23.064121" lon="113.273711">
        <time>2026-06-08T22:18:12Z</time>
      </trkpt>
      <trkpt lat="23.064204" lon="113.27365">
        <time>2026-06-08T22:18:17Z</time>
      </trkpt>
      <trkpt lat="23.064323" lon="113.273552">
        <time>2026-06-08T22:18:22Z</time>
      </trkpt>
      <trkpt lat="23.064404" lon="113.273483">
        <time>2026-06-08T22:18:27Z</time>
      </trkpt>
      <trkpt lat="23.064511" lon="113.273382">
        <time>2026-06-08T22:18:32Z</time>
      </trkpt>
      <trkpt lat="23.064565" lon="113.273301">
        <time>2026-06-08T22:18:37Z</time>
      </trkpt>
      <trkpt lat="23.06459" lon="113.273142">
        <time>2026-06-08T22:18:42Z</time>
      </trkpt>
      <trkpt lat="23.064566" lon="113.273032">
        <time>2026-06-08T22:18:47Z</time>
      </trkpt>
      <trkpt lat="23.064507" lon="113.272866">
        <time>2026-06-08T22:18:52Z</time>
      </trkpt>
      <trkpt lat="23.064477" lon="113.272757">
        <time>2026-06-08T22:18:57Z</time>
      </trkpt>
      <trkpt lat="23.064456" lon="113.272604">
        <time>2026-06-08T22:19:02Z</time>
      </trkpt>
      <trkpt lat="23.064494" lon="113.272515">
        <time>2026-06-08T22:19:07Z</time>
      </trkpt>
      <trkpt lat="23.064553" lon="113.27236">
        <time>2026-06-08T22:19:12Z</time>
      </trkpt>
      <trkpt lat="23.064564" lon="113.27225">
        <time>2026-06-08T22:19:17Z</time>
      </trkpt>
      <trkpt lat="23.064606" lon="113.272111">
        <time>2026-06-08T22:19:22Z</time>
      </trkpt>
      <trkpt lat="23.064653" lon="113.272022">
        <time>2026-06-08T22:19:27Z</time>
      </trkpt>
      <trkpt lat="23.064729" lon="113.271892">
        <time>2026-06-08T22:19:32Z</time>
      </trkpt>
      <trkpt lat="23.064779" lon="113.271802">
        <time>2026-06-08T22:19:37Z</time>
      </trkpt>
      <trkpt lat="23.064854" lon="113.271663">
        <time>2026-06-08T22:19:42Z</time>
      </trkpt>
      <trkpt lat="23.064903" lon="113.271569">
        <time>2026-06-08T22:19:47Z</time>
      </trkpt>
      <trkpt lat="23.064956" lon="113.271429">
        <time>2026-06-08T22:19:52Z</time>
      </trkpt>
      <trkpt lat="23.064992" lon="113.271333">
        <time>2026-06-08T22:19:57Z</time>
      </trkpt>
      <trkpt lat="23.065063" lon="113.271189">
        <time>2026-06-08T22:20:02Z</time>
      </trkpt>
      <trkpt lat="23.065116" lon="113.271093">
        <time>2026-06-08T22:20:07Z</time>
      </trkpt>
      <trkpt lat="23.065181" lon="113.270949">
        <time>2026-06-08T22:20:12Z</time>
      </trkpt>
      <trkpt lat="23.065219" lon="113.270852">
        <time>2026-06-08T22:20:17Z</time>
      </trkpt>
      <trkpt lat="23.065281" lon="113.270705">
        <time>2026-06-08T22:20:22Z</time>
      </trkpt>
      <trkpt lat="23.065322" lon="113.270613">
        <time>2026-06-08T22:20:27Z</time>
      </trkpt>
      <trkpt lat="23.065384" lon="113.270471">
        <time>2026-06-08T22:20:32Z</time>
      </trkpt>
      <trkpt lat="23.065423" lon="113.270376">
        <time>2026-06-08T22:20:37Z</time>
      </trkpt>
      <trkpt lat="23.065487" lon="113.270231">
        <time>2026-06-08T22:20:42Z</time>
      </trkpt>
      <trkpt lat="23.065522" lon="113.270133">
        <time>2026-06-08T22:20:47Z</time>
      </trkpt>
      <trkpt lat="23.065574" lon="113.269995">
        <time>2026-06-08T22:20:52Z</time>
      </trkpt>
      <trkpt lat="23.065608" lon="113.2699">
        <time>2026-06-08T22:20:57Z</time>
      </trkpt>
      <trkpt lat="23.06565" lon="113.269751">
        <time>2026-06-08T22:21:02Z</time>
      </trkpt>
      <trkpt lat="23.06568" lon="113.269653">
        <time>2026-06-08T22:21:07Z</time>
      </trkpt>
      <trkpt lat="23.06572" lon="113.269507">
        <time>2026-06-08T22:21:12Z</time>
      </trkpt>
      <trkpt lat="23.065749" lon="113.269407">
        <time>2026-06-08T22:21:17Z</time>
      </trkpt>
      <trkpt lat="23.065805" lon="113.269259">
        <time>2026-06-08T22:21:22Z</time>
      </trkpt>
      <trkpt lat="23.065838" lon="113.269164">
        <time>2026-06-08T22:21:27Z</time>
      </trkpt>
      <trkpt lat="23.065881" lon="113.269027">
        <time>2026-06-08T22:21:32Z</time>
      </trkpt>
      <trkpt lat="23.065916" lon="113.268936">
        <time>2026-06-08T22:21:37Z</time>
      </trkpt>
      <trkpt lat="23.065977" lon="113.268795">
        <time>2026-06-08T22:21:42Z</time>
      </trkpt>
      <trkpt lat="23.066024" lon="113.268705">
        <time>2026-06-08T22:21:47Z</time>
      </trkpt>
      <trkpt lat="23.066103" lon="113.268571">
        <time>2026-06-08T22:21:52Z</time>
      </trkpt>
      <trkpt lat="23.066161" lon="113.268482">
        <time>2026-06-08T22:21:57Z</time>
      </trkpt>
      <trkpt lat="23.066246" lon="113.268353">
        <time>2026-06-08T22:22:02Z</time>
      </trkpt>
      <trkpt lat="23.06631" lon="113.268274">
        <time>2026-06-08T22:22:07Z</time>
      </trkpt>
      <trkpt lat="23.066425" lon="113.268182">
        <time>2026-06-08T22:22:12Z</time>
      </trkpt>
      <trkpt lat="23.066513" lon="113.268157">
        <time>2026-06-08T22:22:17Z</time>
      </trkpt>
      <trkpt lat="23.066651" lon="113.268162">
        <time>2026-06-08T22:22:22Z</time>
      </trkpt>
      <trkpt lat="23.066674" lon="113.268088">
        <time>2026-06-08T22:22:27Z</time>
      </trkpt>
      <trkpt lat="23.066555" lon="113.267989">
        <time>2026-06-08T22:22:32Z</time>
      </trkpt>
      <trkpt lat="23.066451" lon="113.267969">
        <time>2026-06-08T22:22:37Z</time>
      </trkpt>
      <trkpt lat="23.066299" lon="113.267982">
        <time>2026-06-08T22:22:42Z</time>
      </trkpt>
      <trkpt lat="23.066214" lon="113.268031">
        <time>2026-06-08T22:22:47Z</time>
      </trkpt>
      <trkpt lat="23.066107" lon="113.268141">
        <time>2026-06-08T22:22:52Z</time>
      </trkpt>
      <trkpt lat="23.066045" lon="113.268222">
        <time>2026-06-08T22:22:57Z</time>
      </trkpt>
      <trkpt lat="23.06595" lon="113.26834">
        <time>2026-06-08T22:23:02Z</time>
      </trkpt>
      <trkpt lat="23.065887" lon="113.268423">
        <time>2026-06-08T22:23:07Z</time>
      </trkpt>
      <trkpt lat="23.065802" lon="113.268555">
        <time>2026-06-08T22:23:12Z</time>
      </trkpt>
      <trkpt lat="23.065753" lon="113.268646">
        <time>2026-06-08T22:23:17Z</time>
      </trkpt>
      <trkpt lat="23.065686" lon="113.268783">
        <time>2026-06-08T22:23:22Z</time>
      </trkpt>
      <trkpt lat="23.065648" lon="113.268879">
        <time>2026-06-08T22:23:27Z</time>
      </trkpt>
      <trkpt lat="23.065596" lon="113.269024">
        <time>2026-06-08T22:23:32Z</time>
      </trkpt>
      <trkpt lat="23.065564" lon="113.269126">
        <time>2026-06-08T22:23:37Z</time>
      </trkpt>
      <trkpt lat="23.065524" lon="113.26928">
        <time>2026-06-08T22:23:42Z</time>
      </trkpt>
      <trkpt lat="23.065501" lon="113.269382">
        <time>2026-06-08T22:23:47Z</time>
      </trkpt>
      <trkpt lat="23.065468" lon="113.269541">
        <time>2026-06-08T22:23:52Z</time>
      </trkpt>
      <trkpt lat="23.065447" lon="113.269651">
        <time>2026-06-08T22:23:57Z</time>
      </trkpt>
      <trkpt lat="23.065405" lon="113.26982">
        <time>2026-06-08T22:24:02Z</time>
      </trkpt>
      <trkpt lat="23.065373" lon="113.269928">
        <time>2026-06-08T22:24:07Z</time>
      </trkpt>
      <trkpt lat="23.065321" lon="113.270079">
        <time>2026-06-08T22:24:12Z</time>
      </trkpt>
      <trkpt lat="23.065281" lon="113.270176">
        <time>2026-06-08T22:24:17Z</time>
      </trkpt>
      <trkpt lat="23.065213" lon="113.270324">
        <time>2026-06-08T22:24:22Z</time>
      </trkpt>
      <trkpt lat="23.065169" lon="113.270421">
        <time>2026-06-08T22:24:27Z</time>
      </trkpt>
      <trkpt lat="23.065095" lon="113.270566">
        <time>2026-06-08T22:24:32Z</time>
      </trkpt>
      <trkpt lat="23.065049" lon="113.270667">
        <time>2026-06-08T22:24:37Z</time>
      </trkpt>
      <trkpt lat="23.064982" lon="113.270813">
        <time>2026-06-08T22:24:42Z</time>
      </trkpt>
      <trkpt lat="23.064936" lon="113.270912">
        <time>2026-06-08T22:24:47Z</time>
      </trkpt>
      <trkpt lat="23.064873" lon="113.271063">
        <time>2026-06-08T22:24:52Z</time>
      </trkpt>
      <trkpt lat="23.064828" lon="113.271162">
        <time>2026-06-08T22:24:57Z</time>
      </trkpt>
      <trkpt lat="23.064753" lon="113.271312">
        <time>2026-06-08T22:25:02Z</time>
      </trkpt>
      <trkpt lat="23.064708" lon="113.271412">
        <time>2026-06-08T22:25:07Z</time>
      </trkpt>
      <trkpt lat="23.064642" lon="113.271553">
        <time>2026-06-08T22:25:12Z</time>
      </trkpt>
      <trkpt lat="23.064598" lon="113.271656">
        <time>2026-06-08T22:25:17Z</time>
      </trkpt>
      <trkpt lat="23.064528" lon="113.271803">
        <time>2026-06-08T22:25:22Z</time>
      </trkpt>
      <trkpt lat="23.064482" lon="113.271904">
        <time>2026-06-08T22:25:27Z</time>
      </trkpt>
      <trkpt lat="23.064413" lon="113.272065">
        <time>2026-06-08T22:25:32Z</time>
      </trkpt>
      <trkpt lat="23.064364" lon="113.272164">
        <time>2026-06-08T22:25:37Z</time>
      </trkpt>
      <trkpt lat="23.064319" lon="113.272313">
        <time>2026-06-08T22:25:42Z</time>
      </trkpt>
      <trkpt lat="23.064315" lon="113.272421">
        <time>2026-06-08T22:25:47Z</time>
      </trkpt>
      <trkpt lat="23.064324" lon="113.27259">
        <time>2026-06-08T22:25:52Z</time>
      </trkpt>
      <trkpt lat="23.064345" lon="113.272701">
        <time>2026-06-08T22:25:57Z</time>
      </trkpt>
      <trkpt lat="23.064396" lon="113.272855">
        <time>2026-06-08T22:26:02Z</time>
      </trkpt>
      <trkpt lat="23.064431" lon="113.272959">
        <time>2026-06-08T22:26:07Z</time>
      </trkpt>
      <trkpt lat="23.064474" lon="113.273113">
        <time>2026-06-08T22:26:12Z</time>
      </trkpt>
      <trkpt lat="23.064468" lon="113.27322">
        <time>2026-06-08T22:26:17Z</time>
      </trkpt>
      <trkpt lat="23.06439" lon="113.273352">
        <time>2026-06-08T22:26:22Z</time>
      </trkpt>
      <trkpt lat="23.064307" lon="113.273413">
        <time>2026-06-08T22:26:27Z</time>
      </trkpt>
      <trkpt lat="23.064175" lon="113.273511">
        <time>2026-06-08T22:26:32Z</time>
      </trkpt>
      <trkpt lat="23.064088" lon="113.273577">
        <time>2026-06-08T22:26:37Z</time>
      </trkpt>
      <trkpt lat="23.063964" lon="113.273681">
        <time>2026-06-08T22:26:42Z</time>
      </trkpt>
      <trkpt lat="23.063898" lon="113.273765">
        <time>2026-06-08T22:26:47Z</time>
      </trkpt>
      <trkpt lat="23.063818" lon="113.273902">
        <time>2026-06-08T22:26:52Z</time>
      </trkpt>
      <trkpt lat="23.063766" lon="113.273994">
        <time>2026-06-08T22:26:57Z</time>
      </trkpt>
      <trkpt lat="23.06367" lon="113.274113">
        <time>2026-06-08T22:27:02Z</time>
      </trkpt>
      <trkpt lat="23.063586" lon="113.274173">
        <time>2026-06-08T22:27:07Z</time>
      </trkpt>
      <trkpt lat="23.0635" lon="113.274316">
        <time>2026-06-08T22:27:12Z</time>
      </trkpt>
      <trkpt lat="23.063456" lon="113.274427">
        <time>2026-06-08T22:27:17Z</time>
      </trkpt>
      <trkpt lat="23.063398" lon="113.274596">
        <time>2026-06-08T22:27:22Z</time>
      </trkpt>
      <trkpt lat="23.063359" lon="113.274711">
        <time>2026-06-08T22:27:27Z</time>
      </trkpt>
      <trkpt lat="23.0633" lon="113.274872">
        <time>2026-06-08T22:27:32Z</time>
      </trkpt>
      <trkpt lat="23.063263" lon="113.274981">
        <time>2026-06-08T22:27:37Z</time>
      </trkpt>
      <trkpt lat="23.063184" lon="113.275134">
        <time>2026-06-08T22:27:42Z</time>
      </trkpt>
      <trkpt lat="23.063124" lon="113.275237">
        <time>2026-06-08T22:27:47Z</time>
      </trkpt>
      <trkpt lat="23.063046" lon="113.275382">
        <time>2026-06-08T22:27:52Z</time>
      </trkpt>
      <trkpt lat="23.062991" lon="113.275472">
        <time>2026-06-08T22:27:57Z</time>
      </trkpt>
      <trkpt lat="23.062892" lon="113.275607">
        <time>2026-06-08T22:28:02Z</time>
      </trkpt>
      <trkpt lat="23.062816" lon="113.275687">
        <time>2026-06-08T22:28:07Z</time>
      </trkpt>
      <trkpt lat="23.062703" lon="113.275799">
        <time>2026-06-08T22:28:12Z</time>
      </trkpt>
      <trkpt lat="23.062629" lon="113.275879">
        <time>2026-06-08T22:28:17Z</time>
      </trkpt>
      <trkpt lat="23.062529" lon="113.27601">
        <time>2026-06-08T22:28:22Z</time>
      </trkpt>
      <trkpt lat="23.062475" lon="113.276103">
        <time>2026-06-08T22:28:27Z</time>
      </trkpt>
      <trkpt lat="23.062402" lon="113.276248">
        <time>2026-06-08T22:28:32Z</time>
      </trkpt>
      <trkpt lat="23.06236" lon="113.276349">
        <time>2026-06-08T22:28:37Z</time>
      </trkpt>
      <trkpt lat="23.062306" lon="113.276498">
        <time>2026-06-08T22:28:42Z</time>
      </trkpt>
      <trkpt lat="23.062266" lon="113.276598">
        <time>2026-06-08T22:28:47Z</time>
      </trkpt>
      <trkpt lat="23.062219" lon="113.276745">
        <time>2026-06-08T22:28:52Z</time>
      </trkpt>
      <trkpt lat="23.062189" lon="113.276842">
        <time>2026-06-08T22:28:57Z</time>
      </trkpt>
      <trkpt lat="23.062136" lon="113.276989">
        <time>2026-06-08T22:29:02Z</time>
      </trkpt>
      <trkpt lat="23.062095" lon="113.277088">
        <time>2026-06-08T22:29:07Z</time>
      </trkpt>
      <trkpt lat="23.062036" lon="113.27725">
        <time>2026-06-08T22:29:12Z</time>
      </trkpt>
      <trkpt lat="23.061994" lon="113.277358">
        <time>2026-06-08T22:29:17Z</time>
      </trkpt>
      <trkpt lat="23.061934" lon="113.277512">
        <time>2026-06-08T22:29:22Z</time>
      </trkpt>
      <trkpt lat="23.061895" lon="113.277611">
        <time>2026-06-08T22:29:27Z</time>
      </trkpt>
      <trkpt lat="23.061849" lon="113.277759">
        <time>2026-06-08T22:29:32Z</time>
      </trkpt>
      <trkpt lat="23.061833" lon="113.277863">
        <time>2026-06-08T22:29:37Z</time>
      </trkpt>
      <trkpt lat="23.061835" lon="113.278018">
        <time>2026-06-08T22:29:42Z</time>
      </trkpt>
      <trkpt lat="23.061841" lon="113.278123">
        <time>2026-06-08T22:29:47Z</time>
      </trkpt>
      <trkpt lat="23.061851" lon="113.278281">
        <time>2026-06-08T22:29:52Z</time>
      </trkpt>
      <trkpt lat="23.061858" lon="113.278385">
        <time>2026-06-08T22:29:57Z</time>
      </trkpt>
      <trkpt lat="23.061868" lon="113.278544">
        <time>2026-06-08T22:30:02Z</time>
      </trkpt>
      <trkpt lat="23.061865" lon="113.278653">
        <time>2026-06-08T22:30:07Z</time>
      </trkpt>
      <trkpt lat="23.061818" lon="113.278809">
        <time>2026-06-08T22:30:12Z</time>
      </trkpt>
      <trkpt lat="23.061767" lon="113.278909">
        <time>2026-06-08T22:30:17Z</time>
      </trkpt>
      <trkpt lat="23.061687" lon="113.27905">
        <time>2026-06-08T22:30:22Z</time>
      </trkpt>
      <trkpt lat="23.061637" lon="113.279141">
        <time>2026-06-08T22:30:27Z</time>
      </trkpt>
      <trkpt lat="23.061568" lon="113.279291">
        <time>2026-06-08T22:30:32Z</time>
      </trkpt>
      <trkpt lat="23.061526" lon="113.279389">
        <time>2026-06-08T22:30:37Z</time>
      </trkpt>
      <trkpt lat="23.061467" lon="113.279539">
        <time>2026-06-08T22:30:42Z</time>
      </trkpt>
      <trkpt lat="23.061426" lon="113.279642">
        <time>2026-06-08T22:30:47Z</time>
      </trkpt>
      <trkpt lat="23.061365" lon="113.2798">
        <time>2026-06-08T22:30:52Z</time>
      </trkpt>
      <trkpt lat="23.061324" lon="113.279906">
        <time>2026-06-08T22:30:57Z</time>
      </trkpt>
      <trkpt lat="23.061257" lon="113.280068">
        <time>2026-06-08T22:31:02Z</time>
      </trkpt>
      <trkpt lat="23.061212" lon="113.280175">
        <time>2026-06-08T22:31:07Z</time>
      </trkpt>
      <trkpt lat="23.061143" lon="113.280329">
        <time>2026-06-08T22:31:12Z</time>
      </trkpt>
      <trkpt lat="23.061095" lon="113.280429">
        <time>2026-06-08T22:31:17Z</time>
      </trkpt>
      <trkpt lat="23.061025" lon="113.280582">
        <time>2026-06-08T22:31:22Z</time>
      </trkpt>
      <trkpt lat="23.060983" lon="113.280684">
        <time>2026-06-08T22:31:27Z</time>
      </trkpt>
      <trkpt lat="23.060919" lon="113.280837">
        <time>2026-06-08T22:31:32Z</time>
      </trkpt>
      <trkpt lat="23.060874" lon="113.280939">
        <time>2026-06-08T22:31:37Z</time>
      </trkpt>
      <trkpt lat="23.060814" lon="113.281086">
        <time>2026-06-08T22:31:42Z</time>
      </trkpt>
      <trkpt lat="23.060772" lon="113.281186">
        <time>2026-06-08T22:31:47Z</time>
      </trkpt>
      <trkpt lat="23.060704" lon="113.281337">
        <time>2026-06-08T22:31:52Z</time>
      </trkpt>
      <trkpt lat="23.060665" lon="113.281436">
        <time>2026-06-08T22:31:57Z</time>
      </trkpt>
      <trkpt lat="23.060606" lon="113.281582">
        <time>2026-06-08T22:32:02Z</time>
      </trkpt>
      <trkpt lat="23.060565" lon="113.281681">
        <time>2026-06-08T22:32:07Z</time>
      </trkpt>
      <trkpt lat="23.0605" lon="113.281828">
        <time>2026-06-08T22:32:12Z</time>
      </trkpt>
      <trkpt lat="23.060456" lon="113.281929">
        <time>2026-06-08T22:32:17Z</time>
      </trkpt>
      <trkpt lat="23.060392" lon="113.282082">
        <time>2026-06-08T22:32:22Z</time>
      </trkpt>
      <trkpt lat="23.060351" lon="113.282188">
        <time>2026-06-08T22:32:27Z</time>
      </trkpt>
      <trkpt lat="23.060285" lon="113.282351">
        <time>2026-06-08T22:32:32Z</time>
      </trkpt>
      <trkpt lat="23.060244" lon="113.282449">
        <time>2026-06-08T22:32:37Z</time>
      </trkpt>
      <trkpt lat="23.060181" lon="113.282594">
        <time>2026-06-08T22:32:42Z</time>
      </trkpt>
      <trkpt lat="23.060137" lon="113.282693">
        <time>2026-06-08T22:32:47Z</time>
      </trkpt>
      <trkpt lat="23.060076" lon="113.282842">
        <time>2026-06-08T22:32:52Z</time>
      </trkpt>
      <trkpt lat="23.060035" lon="113.282941">
        <time>2026-06-08T22:32:57Z</time>
      </trkpt>
      <trkpt lat="23.059968" lon="113.283088">
        <time>2026-06-08T22:33:02Z</time>
      </trkpt>
      <trkpt lat="23.059926" lon="113.283186">
        <time>2026-06-08T22:33:07Z</time>
      </trkpt>
      <trkpt lat="23.059863" lon="113.283337">
        <time>2026-06-08T22:33:12Z</time>
      </trkpt>
      <trkpt lat="23.059821" lon="113.283437">
        <time>2026-06-08T22:33:17Z</time>
      </trkpt>
      <trkpt lat="23.059759" lon="113.283582">
        <time>2026-06-08T22:33:22Z</time>
      </trkpt>
      <trkpt lat="23.059718" lon="113.283678">
        <time>2026-06-08T22:33:27Z</time>
      </trkpt>
      <trkpt lat="23.059653" lon="113.283827">
        <time>2026-06-08T22:33:32Z</time>
      </trkpt>
      <trkpt lat="23.059608" lon="113.28393">
        <time>2026-06-08T22:33:37Z</time>
      </trkpt>
      <trkpt lat="23.059533" lon="113.284087">
        <time>2026-06-08T22:33:42Z</time>
      </trkpt>
      <trkpt lat="23.059481" lon="113.284191">
        <time>2026-06-08T22:33:47Z</time>
      </trkpt>
      <trkpt lat="23.059404" lon="113.284345">
        <time>2026-06-08T22:33:52Z</time>
      </trkpt>
      <trkpt lat="23.05936" lon="113.284451">
        <time>2026-06-08T22:33:57Z</time>
      </trkpt>
      <trkpt lat="23.0593" lon="113.284607">
        <time>2026-06-08T22:34:02Z</time>
      </trkpt>
      <trkpt lat="23.059259" lon="113.284708">
        <time>2026-06-08T22:34:07Z</time>
      </trkpt>
      <trkpt lat="23.0592" lon="113.284857">
        <time>2026-06-08T22:34:12Z</time>
      </trkpt>
      <trkpt lat="23.059164" lon="113.28495">
        <time>2026-06-08T22:34:17Z</time>
      </trkpt>
      <trkpt lat="23.059109" lon="113.285098">
        <time>2026-06-08T22:34:22Z</time>
      </trkpt>
      <trkpt lat="23.059062" lon="113.285193">
        <time>2026-06-08T22:34:27Z</time>
      </trkpt>
      <trkpt lat="23.058994" lon="113.285344">
        <time>2026-06-08T22:34:32Z</time>
      </trkpt>
      <trkpt lat="23.058949" lon="113.285444">
        <time>2026-06-08T22:34:37Z</time>
      </trkpt>
      <trkpt lat="23.058888" lon="113.285587">
        <time>2026-06-08T22:34:42Z</time>
      </trkpt>
      <trkpt lat="23.058846" lon="113.285685">
        <time>2026-06-08T22:34:47Z</time>
      </trkpt>
      <trkpt lat="23.058782" lon="113.28583">
        <time>2026-06-08T22:34:52Z</time>
      </trkpt>
      <trkpt lat="23.05874" lon="113.285926">
        <time>2026-06-08T22:34:57Z</time>
      </trkpt>
      <trkpt lat="23.058676" lon="113.28607">
        <time>2026-06-08T22:35:02Z</time>
      </trkpt>
      <trkpt lat="23.058698" lon="113.286136">
        <time>2026-06-08T22:35:07Z</time>
      </trkpt>
      <trkpt lat="23.058792" lon="113.286046">
        <time>2026-06-08T22:35:12Z</time>
      </trkpt>
      <trkpt lat="23.058835" lon="113.285932">
        <time>2026-06-08T22:35:17Z</time>
      </trkpt>
      <trkpt lat="23.0589" lon="113.285779">
        <time>2026-06-08T22:35:22Z</time>
      </trkpt>
      <trkpt lat="23.058944" lon="113.285681">
        <time>2026-06-08T22:35:27Z</time>
      </trkpt>
      <trkpt lat="23.059012" lon="113.285541">
        <time>2026-06-08T22:35:32Z</time>
      </trkpt>
      <trkpt lat="23.059054" lon="113.285444">
        <time>2026-06-08T22:35:37Z</time>
      </trkpt>
      <trkpt lat="23.059115" lon="113.285303">
        <time>2026-06-08T22:35:42Z</time>
      </trkpt>
      <trkpt lat="23.059148" lon="113.285211">
        <time>2026-06-08T22:35:47Z</time>
      </trkpt>
      <trkpt lat="23.059209" lon="113.285063">
        <time>2026-06-08T22:35:52Z</time>
      </trkpt>
      <trkpt lat="23.05925" lon="113.28497">
        <time>2026-06-08T22:35:57Z</time>
      </trkpt>
      <trkpt lat="23.05931" lon="113.284821">
        <time>2026-06-08T22:36:02Z</time>
      </trkpt>
      <trkpt lat="23.059356" lon="113.284726">
        <time>2026-06-08T22:36:07Z</time>
      </trkpt>
      <trkpt lat="23.059433" lon="113.284591">
        <time>2026-06-08T22:36:12Z</time>
      </trkpt>
      <trkpt lat="23.059476" lon="113.284496">
        <time>2026-06-08T22:36:17Z</time>
      </trkpt>
      <trkpt lat="23.059539" lon="113.284355">
        <time>2026-06-08T22:36:22Z</time>
      </trkpt>
      <trkpt lat="23.05958" lon="113.284259">
        <time>2026-06-08T22:36:27Z</time>
      </trkpt>
      <trkpt lat="23.059634" lon="113.284115">
        <time>2026-06-08T22:36:32Z</time>
      </trkpt>
      <trkpt lat="23.059672" lon="113.28402">
        <time>2026-06-08T22:36:37Z</time>
      </trkpt>
      <trkpt lat="23.059741" lon="113.283885">
        <time>2026-06-08T22:36:42Z</time>
      </trkpt>
      <trkpt lat="23.059785" lon="113.28379">
        <time>2026-06-08T22:36:47Z</time>
      </trkpt>
      <trkpt lat="23.059839" lon="113.283652">
        <time>2026-06-08T22:36:52Z</time>
      </trkpt>
      <trkpt lat="23.059881" lon="113.283545">
        <time>2026-06-08T22:36:57Z</time>
      </trkpt>
      <trkpt lat="23.059959" lon="113.283379">
        <time>2026-06-08T22:37:02Z</time>
      </trkpt>
      <trkpt lat="23.060017" lon="113.283281">
        <time>2026-06-08T22:37:07Z</time>
      </trkpt>
      <trkpt lat="23.060096" lon="113.283137">
        <time>2026-06-08T22:37:12Z</time>
      </trkpt>
      <trkpt lat="23.060144" lon="113.283041">
        <time>2026-06-08T22:37:17Z</time>
      </trkpt>
      <trkpt lat="23.060206" lon="113.282903">
        <time>2026-06-08T22:37:22Z</time>
      </trkpt>
      <trkpt lat="23.060248" lon="113.28281">
        <time>2026-06-08T22:37:27Z</time>
      </trkpt>
      <trkpt lat="23.0603" lon="113.28266">
        <time>2026-06-08T22:37:32Z</time>
      </trkpt>
      <trkpt lat="23.060332" lon="113.282552">
        <time>2026-06-08T22:37:37Z</time>
      </trkpt>
      <trkpt lat="23.060378" lon="113.28239">
        <time>2026-06-08T22:37:42Z</time>
      </trkpt>
      <trkpt lat="23.060416" lon="113.282281">
        <time>2026-06-08T22:37:47Z</time>
      </trkpt>
      <trkpt lat="23.060473" lon="113.282127">
        <time>2026-06-08T22:37:52Z</time>
      </trkpt>
      <trkpt lat="23.060516" lon="113.282035">
        <time>2026-06-08T22:37:57Z</time>
      </trkpt>
      <trkpt lat="23.060582" lon="113.281896">
        <time>2026-06-08T22:38:02Z</time>
      </trkpt>
      <trkpt lat="23.060624" lon="113.281805">
        <time>2026-06-08T22:38:07Z</time>
      </trkpt>
      <trkpt lat="23.060692" lon="113.281673">
        <time>2026-06-08T22:38:12Z</time>
      </trkpt>
      <trkpt lat="23.060736" lon="113.28158">
        <time>2026-06-08T22:38:17Z</time>
      </trkpt>
      <trkpt lat="23.060795" lon="113.281433">
        <time>2026-06-08T22:38:22Z</time>
      </trkpt>
      <trkpt lat="23.060835" lon="113.281336">
        <time>2026-06-08T22:38:27Z</time>
      </trkpt>
      <trkpt lat="23.060891" lon="113.281191">
        <time>2026-06-08T22:38:32Z</time>
      </trkpt>
      <trkpt lat="23.060925" lon="113.281103">
        <time>2026-06-08T22:38:37Z</time>
      </trkpt>
      <trkpt lat="23.06097" lon="113.280968">
        <time>2026-06-08T22:38:42Z</time>
      </trkpt>
      <trkpt lat="23.061006" lon="113.280878">
        <time>2026-06-08T22:38:47Z</time>
      </trkpt>
      <trkpt lat="23.06107" lon="113.280733">
        <time>2026-06-08T22:38:52Z</time>
      </trkpt>
      <trkpt lat="23.061118" lon="113.280628">
        <time>2026-06-08T22:38:57Z</time>
      </trkpt>
      <trkpt lat="23.061185" lon="113.280471">
        <time>2026-06-08T22:39:02Z</time>
      </trkpt>
      <trkpt lat="23.061229" lon="113.280376">
        <time>2026-06-08T22:39:07Z</time>
      </trkpt>
      <trkpt lat="23.061301" lon="113.280243">
        <time>2026-06-08T22:39:12Z</time>
      </trkpt>
      <trkpt lat="23.061356" lon="113.280159">
        <time>2026-06-08T22:39:17Z</time>
      </trkpt>
      <trkpt lat="23.061421" lon="113.280018">
        <time>2026-06-08T22:39:22Z</time>
      </trkpt>
      <trkpt lat="23.061456" lon="113.279923">
        <time>2026-06-08T22:39:27Z</time>
      </trkpt>
      <trkpt lat="23.061508" lon="113.279779">
        <time>2026-06-08T22:39:32Z</time>
      </trkpt>
      <trkpt lat="23.061544" lon="113.279683">
        <time>2026-06-08T22:39:37Z</time>
      </trkpt>
      <trkpt lat="23.061602" lon="113.27954">
        <time>2026-06-08T22:39:42Z</time>
      </trkpt>
      <trkpt lat="23.06164" lon="113.27944">
        <time>2026-06-08T22:39:47Z</time>
      </trkpt>
      <trkpt lat="23.061693" lon="113.279292">
        <time>2026-06-08T22:39:52Z</time>
      </trkpt>
      <trkpt lat="23.061737" lon="113.279195">
        <time>2026-06-08T22:39:57Z</time>
      </trkpt>
      <trkpt lat="23.06182" lon="113.27906">
        <time>2026-06-08T22:40:02Z</time>
      </trkpt>
      <trkpt lat="23.061876" lon="113.278976">
        <time>2026-06-08T22:40:07Z</time>
      </trkpt>
      <trkpt lat="23.06195" lon="113.27883">
        <time>2026-06-08T22:40:12Z</time>
      </trkpt>
      <trkpt lat="23.061972" lon="113.278715">
        <time>2026-06-08T22:40:17Z</time>
      </trkpt>
      <trkpt lat="23.061964" lon="113.278539">
        <time>2026-06-08T22:40:22Z</time>
      </trkpt>
      <trkpt lat="23.061955" lon="113.27843">
        <time>2026-06-08T22:40:27Z</time>
      </trkpt>
      <trkpt lat="23.061946" lon="113.278268">
        <time>2026-06-08T22:40:32Z</time>
      </trkpt>
      <trkpt lat="23.061938" lon="113.278158">
        <time>2026-06-08T22:40:37Z</time>
      </trkpt>
      <trkpt lat="23.061929" lon="113.277989">
        <time>2026-06-08T22:40:42Z</time>
      </trkpt>
      <trkpt lat="23.061928" lon="113.277876">
        <time>2026-06-08T22:40:47Z</time>
      </trkpt>
      <trkpt lat="23.061955" lon="113.27771">
        <time>2026-06-08T22:40:52Z</time>
      </trkpt>
      <trkpt lat="23.061992" lon="113.277602">
        <time>2026-06-08T22:40:57Z</time>
      </trkpt>
      <trkpt lat="23.062054" lon="113.277446">
        <time>2026-06-08T22:41:02Z</time>
      </trkpt>
      <trkpt lat="23.062094" lon="113.277352">
        <time>2026-06-08T22:41:07Z</time>
      </trkpt>
      <trkpt lat="23.062146" lon="113.277208">
        <time>2026-06-08T22:41:12Z</time>
      </trkpt>
      <trkpt lat="23.062181" lon="113.277106">
        <time>2026-06-08T22:41:17Z</time>
      </trkpt>
      <trkpt lat="23.062239" lon="113.276957">
        <time>2026-06-08T22:41:22Z</time>
      </trkpt>
      <trkpt lat="23.062278" lon="113.276855">
        <time>2026-06-08T22:41:27Z</time>
      </trkpt>
      <trkpt lat="23.062335" lon="113.276709">
        <time>2026-06-08T22:41:32Z</time>
      </trkpt>
      <trkpt lat="23.062372" lon="113.276612">
        <time>2026-06-08T22:41:37Z</time>
      </trkpt>
      <trkpt lat="23.062421" lon="113.276474">
        <time>2026-06-08T22:41:42Z</time>
      </trkpt>
      <trkpt lat="23.062455" lon="113.276382">
        <time>2026-06-08T22:41:47Z</time>
      </trkpt>
      <trkpt lat="23.062516" lon="113.276239">
        <time>2026-06-08T22:41:52Z</time>
      </trkpt>
      <trkpt lat="23.06256" lon="113.276142">
        <time>2026-06-08T22:41:57Z</time>
      </trkpt>
      <trkpt lat="23.062649" lon="113.276003">
        <time>2026-06-08T22:42:02Z</time>
      </trkpt>
      <trkpt lat="23.062718" lon="113.27592">
        <time>2026-06-08T22:42:07Z</time>
      </trkpt>
      <trkpt lat="23.062828" lon="113.275803">
        <time>2026-06-08T22:42:12Z</time>
      </trkpt>
      <trkpt lat="23.062903" lon="113.275732">
        <time>2026-06-08T22:42:17Z</time>
      </trkpt>
      <trkpt lat="23.063011" lon="113.275624">
        <time>2026-06-08T22:42:22Z</time>
      </trkpt>
      <trkpt lat="23.063072" lon="113.275551">
        <time>2026-06-08T22:42:27Z</time>
      </trkpt>
      <trkpt lat="23.063146" lon="113.275419">
        <time>2026-06-08T22:42:32Z</time>
      </trkpt>
      <trkpt lat="23.063196" lon="113.275324">
        <time>2026-06-08T22:42:37Z</time>
      </trkpt>
      <trkpt lat="23.06328" lon="113.275195">
        <time>2026-06-08T22:42:42Z</time>
      </trkpt>
      <trkpt lat="23.063336" lon="113.275109">
        <time>2026-06-08T22:42:47Z</time>
      </trkpt>
      <trkpt lat="23.063385" lon="113.274957">
        <time>2026-06-08T22:42:52Z</time>
      </trkpt>
      <trkpt lat="23.06341" lon="113.27486">
        <time>2026-06-08T22:42:57Z</time>
      </trkpt>
      <trkpt lat="23.06346" lon="113.274721">
        <time>2026-06-08T22:43:02Z</time>
      </trkpt>
      <trkpt lat="23.063494" lon="113.274626">
        <time>2026-06-08T22:43:07Z</time>
      </trkpt>
      <trkpt lat="23.063532" lon="113.274478">
        <time>2026-06-08T22:43:12Z</time>
      </trkpt>
      <trkpt lat="23.063572" lon="113.274386">
        <time>2026-06-08T22:43:17Z</time>
      </trkpt>
      <trkpt lat="23.063658" lon="113.274265">
        <time>2026-06-08T22:43:22Z</time>
      </trkpt>
      <trkpt lat="23.063726" lon="113.274199">
        <time>2026-06-08T22:43:27Z</time>
      </trkpt>
      <trkpt lat="23.063839" lon="113.274092">
        <time>2026-06-08T22:43:32Z</time>
      </trkpt>
      <trkpt lat="23.063902" lon="113.274008">
        <time>2026-06-08T22:43:37Z</time>
      </trkpt>
      <trkpt lat="23.063977" lon="113.273865">
        <time>2026-06-08T22:43:42Z</time>
      </trkpt>
      <trkpt lat="23.064031" lon="113.273781">
        <time>2026-06-08T22:43:47Z</time>
      </trkpt>
      <trkpt lat="23.064134" lon="113.273681">
        <time>2026-06-08T22:43:52Z</time>
      </trkpt>
      <trkpt lat="23.064213" lon="113.273625">
        <time>2026-06-08T22:43:57Z</time>
      </trkpt>
      <trkpt lat="23.064332" lon="113.273536">
        <time>2026-06-08T22:44:02Z</time>
      </trkpt>
      <trkpt lat="23.06441" lon="113.273475">
        <time>2026-06-08T22:44:07Z</time>
      </trkpt>
      <trkpt lat="23.064514" lon="113.273369">
        <time>2026-06-08T22:44:12Z</time>
      </trkpt>
      <trkpt lat="23.064565" lon="113.27328">
        <time>2026-06-08T22:44:17Z</time>
      </trkpt>
      <trkpt lat="23.064587" lon="113.273121">
        <time>2026-06-08T22:44:22Z</time>
      </trkpt>
      <trkpt lat="23.064562" lon="113.273011">
        <time>2026-06-08T22:44:27Z</time>
      </trkpt>
      <trkpt lat="23.064504" lon="113.272857">
        <time>2026-06-08T22:44:32Z</time>
      </trkpt>
      <trkpt lat="23.064467" lon="113.272756">
        <time>2026-06-08T22:44:37Z</time>
      </trkpt>
      <trkpt lat="23.064442" lon="113.272603">
        <time>2026-06-08T22:44:42Z</time>
      </trkpt>
      <trkpt lat="23.064475" lon="113.272513">
        <time>2026-06-08T22:44:47Z</time>
      </trkpt>
      <trkpt lat="23.064605" lon="113.27248">
        <time>2026-06-08T22:44:52Z</time>
      </trkpt>
      <trkpt lat="23.064702" lon="113.272515">
        <time>2026-06-08T22:44:57Z</time>
      </trkpt>
      <trkpt lat="23.064819" lon="113.272528">
        <time>2026-06-08T22:45:02Z</time>
      </trkpt>
      <trkpt lat="23.064776" lon="113.272478">
        <time>2026-06-08T22:45:07Z</time>
      </trkpt>
      <trkpt lat="23.064638" lon="113.272424">
        <time>2026-06-08T22:45:12Z</time>
      </trkpt>
      <trkpt lat="23.064574" lon="113.272355">
        <time>2026-06-08T22:45:17Z</time>
      </trkpt>
      <trkpt lat="23.064594" lon="113.272145">
        <time>2026-06-08T22:45:22Z</time>
      </trkpt>
      <trkpt lat="23.064659" lon="113.27199">
        <time>2026-06-08T22:45:27Z</time>
      </trkpt>
      <trkpt lat="23.064765" lon="113.271762">
        <time>2026-06-08T22:45:32Z</time>
      </trkpt>
      <trkpt lat="23.064837" lon="113.271605">
        <time>2026-06-08T22:45:37Z</time>
      </trkpt>
      <trkpt lat="23.064933" lon="113.27141">
        <time>2026-06-08T22:45:42Z</time>
      </trkpt>
      <trkpt lat="23.064968" lon="113.271343">
        <time>2026-06-08T22:45:47Z</time>
      </trkpt>
      <trkpt lat="23.064987" lon="113.271272">
        <time>2026-06-08T22:45:52Z</time>
      </trkpt>
      <trkpt lat="23.065013" lon="113.271233">
        <time>2026-06-08T22:45:57Z</time>
      </trkpt>
      <trkpt lat="23.065083" lon="113.271191">
        <time>2026-06-08T22:46:02Z</time>
      </trkpt>
      <trkpt lat="23.065131" lon="113.271177">
        <time>2026-06-08T22:46:07Z</time>
      </trkpt>
      <trkpt lat="23.065186" lon="113.271151">
        <time>2026-06-08T22:46:12Z</time>
      </trkpt>
      <trkpt lat="23.0652" lon="113.271106">
        <time>2026-06-08T22:46:17Z</time>
      </trkpt>
      <trkpt lat="23.065189" lon="113.271035">
        <time>2026-06-08T22:46:22Z</time>
      </trkpt>
      <trkpt lat="23.065169" lon="113.27099">
        <time>2026-06-08T22:46:27Z</time>
      </trkpt>
      <trkpt lat="23.065166" lon="113.270916">
        <time>2026-06-08T22:46:32Z</time>
      </trkpt>
      <trkpt lat="23.065199" lon="113.270833">
        <time>2026-06-08T22:46:37Z</time>
      </trkpt>
      <trkpt lat="23.065308" lon="113.270569">
        <time>2026-06-08T22:46:42Z</time>
      </trkpt>
      <trkpt lat="23.065387" lon="113.270378">
        <time>2026-06-08T22:46:47Z</time>
      </trkpt>
      <trkpt lat="23.065513" lon="113.270105">
        <time>2026-06-08T22:46:52Z</time>
      </trkpt>
      <trkpt lat="23.065577" lon="113.269922">
        <time>2026-06-08T22:46:57Z</time>
      </trkpt>
      <trkpt lat="23.065646" lon="113.269679">
        <time>2026-06-08T22:47:02Z</time>
      </trkpt>
      <trkpt lat="23.06567" lon="113.269611">
        <time>2026-06-08T22:47:07Z</time>
      </trkpt>
      <trkpt lat="23.065651" lon="113.269644">
        <time>2026-06-08T22:47:12Z</time>
      </trkpt>
      <trkpt lat="23.065643" lon="113.2697">
        <time>2026-06-08T22:47:17Z</time>
      </trkpt>
      <trkpt lat="23.065618" lon="113.26978">
        <time>2026-06-08T22:47:22Z</time>
      </trkpt>
      <trkpt lat="23.065606" lon="113.269831">
        <time>2026-06-08T22:47:27Z</time>
      </trkpt>
      <trkpt lat="23.065586" lon="113.269904">
        <time>2026-06-08T22:47:32Z</time>
      </trkpt>
      <trkpt lat="23.065571" lon="113.269951">
        <time>2026-06-08T22:47:37Z</time>
      </trkpt>
      <trkpt lat="23.065548" lon="113.270026">
        <time>2026-06-08T22:47:42Z</time>
      </trkpt>
      <trkpt lat="23.065529" lon="113.270079">
        <time>2026-06-08T22:47:47Z</time>
      </trkpt>
      <trkpt lat="23.06551" lon="113.270123">
        <time>2026-06-08T22:47:52Z</time>
      </trkpt>
      <trkpt lat="23.065529" lon="113.270056">
        <time>2026-06-08T22:47:57Z</time>
      </trkpt>
      <trkpt lat="23.065603" lon="113.269796">
        <time>2026-06-08T22:48:02Z</time>
      </trkpt>
      <trkpt lat="23.065659" lon="113.269586">
        <time>2026-06-08T22:48:07Z</time>
      </trkpt>
      <trkpt lat="23.065732" lon="113.26928">
        <time>2026-06-08T22:48:12Z</time>
      </trkpt>
      <trkpt lat="23.065786" lon="113.269092">
        <time>2026-06-08T22:48:17Z</time>
      </trkpt>
      <trkpt lat="23.065845" lon="113.268953">
        <time>2026-06-08T22:48:22Z</time>
      </trkpt>
      <trkpt lat="23.065836" lon="113.268996">
        <time>2026-06-08T22:48:27Z</time>
      </trkpt>
      <trkpt lat="23.06581" lon="113.269086">
        <time>2026-06-08T22:48:32Z</time>
      </trkpt>
      <trkpt lat="23.065798" lon="113.269142">
        <time>2026-06-08T22:48:37Z</time>
      </trkpt>
      <trkpt lat="23.065778" lon="113.26922">
        <time>2026-06-08T22:48:42Z</time>
      </trkpt>
      <trkpt lat="23.065764" lon="113.269273">
        <time>2026-06-08T22:48:47Z</time>
      </trkpt>
      <trkpt lat="23.065742" lon="113.269352">
        <time>2026-06-08T22:48:52Z</time>
      </trkpt>
      <trkpt lat="23.065735" lon="113.269405">
        <time>2026-06-08T22:48:57Z</time>
      </trkpt>
      <trkpt lat="23.065728" lon="113.269485">
        <time>2026-06-08T22:49:02Z</time>
      </trkpt>
      <trkpt lat="23.065714" lon="113.269537">
        <time>2026-06-08T22:49:07Z</time>
      </trkpt>
      <trkpt lat="23.065693" lon="113.269572">
        <time>2026-06-08T22:49:12Z</time>
      </trkpt>
      <trkpt lat="23.065698" lon="113.269479">
        <time>2026-06-08T22:49:17Z</time>
      </trkpt>
      <trkpt lat="23.065761" lon="113.2692">
        <time>2026-06-08T22:49:22Z</time>
      </trkpt>
      <trkpt lat="23.065825" lon="113.268993">
        <time>2026-06-08T22:49:27Z</time>
      </trkpt>
      <trkpt lat="23.065945" lon="113.268724">
        <time>2026-06-08T22:49:32Z</time>
      </trkpt>
      <trkpt lat="23.066047" lon="113.268564">
        <time>2026-06-08T22:49:37Z</time>
      </trkpt>
      <trkpt lat="23.066182" lon="113.268377">
        <time>2026-06-08T22:49:42Z</time>
      </trkpt>
      <trkpt lat="23.06622" lon="113.268327">
        <time>2026-06-08T22:49:47Z</time>
      </trkpt>
      <trkpt lat="23.066257" lon="113.268277">
        <time>2026-06-08T22:49:52Z</time>
      </trkpt>
      <trkpt lat="23.066271" lon="113.26826">
        <time>2026-06-08T22:49:57Z</time>
      </trkpt>
      <trkpt lat="23.066281" lon="113.268255">
        <time>2026-06-08T22:50:02Z</time>
      </trkpt>
      <trkpt lat="23.066272" lon="113.26828">
        <time>2026-06-08T22:50:07Z</time>
      </trkpt>
      <trkpt lat="23.066233" lon="113.268314">
        <time>2026-06-08T22:50:12Z</time>
      </trkpt>
      <trkpt lat="23.066188" lon="113.268366">
        <time>2026-06-08T22:50:17Z</time>
      </trkpt>
      <trkpt lat="23.06616" lon="113.268405">
        <time>2026-06-08T22:50:22Z</time>
      </trkpt>
      <trkpt lat="23.066111" lon="113.26847">
        <time>2026-06-08T22:50:27Z</time>
      </trkpt>
      <trkpt lat="23.06608" lon="113.268515">
        <time>2026-06-08T22:50:32Z</time>
      </trkpt>
      <trkpt lat="23.066118" lon="113.268484">
        <time>2026-06-08T22:50:37Z</time>
      </trkpt>
      <trkpt lat="23.066214" lon="113.268342">
        <time>2026-06-08T22:50:42Z</time>
      </trkpt>
      <trkpt lat="23.066434" lon="113.268143">
        <time>2026-06-08T22:50:47Z</time>
      </trkpt>
      <trkpt lat="23.066615" lon="113.268119">
        <time>2026-06-08T22:50:52Z</time>
      </trkpt>
      <trkpt lat="23.066889" lon="113.26812">
        <time>2026-06-08T22:50:57Z</time>
      </trkpt>
      <trkpt lat="23.067025" lon="113.268149">
        <time>2026-06-08T22:51:02Z</time>
      </trkpt>
      <trkpt lat="23.067103" lon="113.268219">
        <time>2026-06-08T22:51:07Z</time>
      </trkpt>
      <trkpt lat="23.067139" lon="113.268251">
        <time>2026-06-08T22:51:12Z</time>
      </trkpt>
      <trkpt lat="23.0672" lon="113.268291">
        <time>2026-06-08T22:51:17Z</time>
      </trkpt>
      <trkpt lat="23.067247" lon="113.268322">
        <time>2026-06-08T22:51:22Z</time>
      </trkpt>
      <trkpt lat="23.067314" lon="113.268364">
        <time>2026-06-08T22:51:27Z</time>
      </trkpt>
      <trkpt lat="23.067359" lon="113.268391">
        <time>2026-06-08T22:51:32Z</time>
      </trkpt>
      <trkpt lat="23.067429" lon="113.268418">
        <time>2026-06-08T22:51:37Z</time>
      </trkpt>
      <trkpt lat="23.067481" lon="113.26844">
        <time>2026-06-08T22:51:42Z</time>
      </trkpt>
      <trkpt lat="23.067566" lon="113.268485">
        <time>2026-06-08T22:51:47Z</time>
      </trkpt>
      <trkpt lat="23.067626" lon="113.268518">
        <time>2026-06-08T22:51:52Z</time>
      </trkpt>
      <trkpt lat="23.067705" lon="113.268558">
        <time>2026-06-08T22:51:57Z</time>
      </trkpt>
      <trkpt lat="23.067773" lon="113.268589">
        <time>2026-06-08T22:52:02Z</time>
      </trkpt>
      <trkpt lat="23.067895" lon="113.268674">
        <time>2026-06-08T22:52:07Z</time>
      </trkpt>
      <trkpt lat="23.067971" lon="113.268739">
        <time>2026-06-08T22:52:12Z</time>
      </trkpt>
      <trkpt lat="23.068075" lon="113.268795">
        <time>2026-06-08T22:52:17Z</time>
      </trkpt>
      <trkpt lat="23.068141" lon="113.268817">
        <time>2026-06-08T22:52:22Z</time>
      </trkpt>
      <trkpt lat="23.06826" lon="113.268864">
        <time>2026-06-08T22:52:27Z</time>
      </trkpt>
      <trkpt lat="23.068348" lon="113.268919">
        <time>2026-06-08T22:52:32Z</time>
      </trkpt>
      <trkpt lat="23.068476" lon="113.269036">
        <time>2026-06-08T22:52:37Z</time>
      </trkpt>
      <trkpt lat="23.068564" lon="113.269114">
        <time>2026-06-08T22:52:42Z</time>
      </trkpt>
      <trkpt lat="23.06869" lon="113.2692">
        <time>2026-06-08T22:52:47Z</time>
      </trkpt>
      <trkpt lat="23.068786" lon="113.269218">
        <time>2026-06-08T22:52:52Z</time>
      </trkpt>
      <trkpt lat="23.06892" lon="113.269241">
        <time>2026-06-08T22:52:57Z</time>
      </trkpt>
      <trkpt lat="23.06899" lon="113.26927">
        <time>2026-06-08T22:53:02Z</time>
      </trkpt>
      <trkpt lat="23.069106" lon="113.269275">
        <time>2026-06-08T22:53:07Z</time>
      </trkpt>
      <trkpt lat="23.069186" lon="113.269312">
        <time>2026-06-08T22:53:12Z</time>
      </trkpt>
      <trkpt lat="23.069317" lon="113.269385">
        <time>2026-06-08T22:53:17Z</time>
      </trkpt>
      <trkpt lat="23.069415" lon="113.269415">
        <time>2026-06-08T22:53:22Z</time>
      </trkpt>
      <trkpt lat="23.069553" lon="113.269497">
        <time>2026-06-08T22:53:27Z</time>
      </trkpt>
      <trkpt lat="23.069642" lon="113.269555">
        <time>2026-06-08T22:53:32Z</time>
      </trkpt>
      <trkpt lat="23.069776" lon="113.269623">
        <time>2026-06-08T22:53:37Z</time>
      </trkpt>
      <trkpt lat="23.069865" lon="113.26967">
        <time>2026-06-08T22:53:42Z</time>
      </trkpt>
      <trkpt lat="23.069977" lon="113.269755">
        <time>2026-06-08T22:53:47Z</time>
      </trkpt>
      <trkpt lat="23.070059" lon="113.269809">
        <time>2026-06-08T22:53:52Z</time>
      </trkpt>
      <trkpt lat="23.070199" lon="113.269859">
        <time>2026-06-08T22:53:57Z</time>
      </trkpt>
      <trkpt lat="23.070284" lon="113.269893">
        <time>2026-06-08T22:54:02Z</time>
      </trkpt>
      <trkpt lat="23.070407" lon="113.269939">
        <time>2026-06-08T22:54:07Z</time>
      </trkpt>
      <trkpt lat="23.070473" lon="113.269969">
        <time>2026-06-08T22:54:12Z</time>
      </trkpt>
      <trkpt lat="23.070557" lon="113.270015">
        <time>2026-06-08T22:54:17Z</time>
      </trkpt>
      <trkpt lat="23.070643" lon="113.270049">
        <time>2026-06-08T22:54:22Z</time>
      </trkpt>
      <trkpt lat="23.070778" lon="113.270106">
        <time>2026-06-08T22:54:27Z</time>
      </trkpt>
      <trkpt lat="23.070859" lon="113.270151">
        <time>2026-06-08T22:54:32Z</time>
      </trkpt>
      <trkpt lat="23.070958" lon="113.270226">
        <time>2026-06-08T22:54:37Z</time>
      </trkpt>
      <trkpt lat="23.07104" lon="113.270254">
        <time>2026-06-08T22:54:42Z</time>
      </trkpt>
      <trkpt lat="23.071153" lon="113.270308">
        <time>2026-06-08T22:54:47Z</time>
      </trkpt>
      <trkpt lat="23.07124" lon="113.270338">
        <time>2026-06-08T22:54:52Z</time>
      </trkpt>
      <trkpt lat="23.071371" lon="113.270386">
        <time>2026-06-08T22:54:57Z</time>
      </trkpt>
      <trkpt lat="23.071463" lon="113.270423">
        <time>2026-06-08T22:55:02Z</time>
      </trkpt>
      <trkpt lat="23.071595" lon="113.270496">
        <time>2026-06-08T22:55:07Z</time>
      </trkpt>
      <trkpt lat="23.071678" lon="113.27054">
        <time>2026-06-08T22:55:12Z</time>
      </trkpt>
      <trkpt lat="23.071808" lon="113.270599">
        <time>2026-06-08T22:55:17Z</time>
      </trkpt>
      <trkpt lat="23.071905" lon="113.270643">
        <time>2026-06-08T22:55:22Z</time>
      </trkpt>
      <trkpt lat="23.072043" lon="113.270707">
        <time>2026-06-08T22:55:27Z</time>
      </trkpt>
      <trkpt lat="23.072125" lon="113.27074">
        <time>2026-06-08T22:55:32Z</time>
      </trkpt>
      <trkpt lat="23.072264" lon="113.270796">
        <time>2026-06-08T22:55:37Z</time>
      </trkpt>
      <trkpt lat="23.072356" lon="113.270845">
        <time>2026-06-08T22:55:42Z</time>
      </trkpt>
      <trkpt lat="23.072503" lon="113.270897">
        <time>2026-06-08T22:55:47Z</time>
      </trkpt>
      <trkpt lat="23.072593" lon="113.270931">
        <time>2026-06-08T22:55:52Z</time>
      </trkpt>
      <trkpt lat="23.072717" lon="113.270978">
        <time>2026-06-08T22:55:57Z</time>
      </trkpt>
      <trkpt lat="23.072785" lon="113.271034">
        <time>2026-06-08T22:56:02Z</time>
      </trkpt>
      <trkpt lat="23.072916" lon="113.271107">
        <time>2026-06-08T22:56:07Z</time>
      </trkpt>
      <trkpt lat="23.07301" lon="113.271139">
        <time>2026-06-08T22:56:12Z</time>
      </trkpt>
      <trkpt lat="23.073131" lon="113.271204">
        <time>2026-06-08T22:56:17Z</time>
      </trkpt>
      <trkpt lat="23.073187" lon="113.271268">
        <time>2026-06-08T22:56:22Z</time>
      </trkpt>
      <trkpt lat="23.073284" lon="113.271331">
        <time>2026-06-08T22:56:27Z</time>
      </trkpt>
      <trkpt lat="23.07338" lon="113.271379">
        <time>2026-06-08T22:56:32Z</time>
      </trkpt>
      <trkpt lat="23.073535" lon="113.271484">
        <time>2026-06-08T22:56:37Z</time>
      </trkpt>
      <trkpt lat="23.073617" lon="113.271545">
        <time>2026-06-08T22:56:42Z</time>
      </trkpt>
      <trkpt lat="23.07373" lon="113.271632">
        <time>2026-06-08T22:56:47Z</time>
      </trkpt>
      <trkpt lat="23.0738" lon="113.271687">
        <time>2026-06-08T22:56:52Z</time>
      </trkpt>
      <trkpt lat="23.073909" lon="113.271747">
        <time>2026-06-08T22:56:57Z</time>
      </trkpt>
      <trkpt lat="23.073983" lon="113.271785">
        <time>2026-06-08T22:57:02Z</time>
      </trkpt>
      <trkpt lat="23.074048" lon="113.271826">
        <time>2026-06-08T22:57:07Z</time>
      </trkpt>
      <trkpt lat="23.074029" lon="113.271892">
        <time>2026-06-08T22:57:12Z</time>
      </trkpt>
      <trkpt lat="23.073976" lon="113.272021">
        <time>2026-06-08T22:57:17Z</time>
      </trkpt>
      <trkpt lat="23.073946" lon="113.272106">
        <time>2026-06-08T22:57:22Z</time>
      </trkpt>
      <trkpt lat="23.073904" lon="113.272249">
        <time>2026-06-08T22:57:27Z</time>
      </trkpt>
      <trkpt lat="23.073867" lon="113.27234">
        <time>2026-06-08T22:57:32Z</time>
      </trkpt>
      <trkpt lat="23.07379" lon="113.272462">
        <time>2026-06-08T22:57:37Z</time>
      </trkpt>
      <trkpt lat="23.073755" lon="113.272547">
        <time>2026-06-08T22:57:42Z</time>
      </trkpt>
      <trkpt lat="23.073698" lon="113.272679">
        <time>2026-06-08T22:57:47Z</time>
      </trkpt>
      <trkpt lat="23.073665" lon="113.272762">
        <time>2026-06-08T22:57:52Z</time>
      </trkpt>
      <trkpt lat="23.073632" lon="113.2729">
        <time>2026-06-08T22:57:57Z</time>
      </trkpt>
      <trkpt lat="23.073631" lon="113.27297">
        <time>2026-06-08T22:58:02Z</time>
      </trkpt>
      <trkpt lat="23.073717" lon="113.272947">
        <time>2026-06-08T22:58:07Z</time>
      </trkpt>
      <trkpt lat="23.073779" lon="113.272957">
        <time>2026-06-08T22:58:12Z</time>
      </trkpt>
      <trkpt lat="23.073901" lon="113.273026">
        <time>2026-06-08T22:58:17Z</time>
      </trkpt>
      <trkpt lat="23.073979" lon="113.273031">
        <time>2026-06-08T22:58:22Z</time>
      </trkpt>
      <trkpt lat="23.074038" lon="113.272908">
        <time>2026-06-08T22:58:27Z</time>
      </trkpt>
      <trkpt lat="23.074075" lon="113.272811">
        <time>2026-06-08T22:58:32Z</time>
      </trkpt>
      <trkpt lat="23.074129" lon="113.272684">
        <time>2026-06-08T22:58:37Z</time>
      </trkpt>
      <trkpt lat="23.074168" lon="113.272611">
        <time>2026-06-08T22:58:42Z</time>
      </trkpt>
      <trkpt lat="23.074221" lon="113.272494">
        <time>2026-06-08T22:58:47Z</time>
      </trkpt>
      <trkpt lat="23.074247" lon="113.27243">
        <time>2026-06-08T22:58:54Z</time>
      </trkpt>
    </trkseg>
  </trk>
</gpx>