<?xml version="1.0" encoding="UTF-8"?>
<gpx xmlns="http://www.topografix.com/GPX/1/1" xmlns:gpxtpx="http://www.garmin.com/xmlschemas/TrackPointExtension/v1" xmlns:xsi="http://www.w3.org/2001/XMLSchema-instance" xsi:schemaLocation="http://www.topografix.com/GPX/1/1 http://www.topografix.com/GPX/1/1/gpx.xsd" version="1.1" creator="gpx.py -- https://github.com/tkrajina/gpxpy">
  <trk>
    <name>gpx from joyrun</name>
    <trkseg>
      <trkpt lat="23.075995" lon="113.272726">
        <time>2026-06-11T22:11:47Z</time>
      </trkpt>
      <trkpt lat="23.075966" lon="113.272699">
        <time>2026-06-11T22:11:52Z</time>
      </trkpt>
      <trkpt lat="23.075904" lon="113.272644">
        <time>2026-06-11T22:11:57Z</time>
      </trkpt>
      <trkpt lat="23.07575" lon="113.272574">
        <time>2026-06-11T22:12:02Z</time>
      </trkpt>
      <trkpt lat="23.075657" lon="113.272522">
        <time>2026-06-11T22:12:07Z</time>
      </trkpt>
      <trkpt lat="23.075533" lon="113.272436">
        <time>2026-06-11T22:12:12Z</time>
      </trkpt>
      <trkpt lat="23.075475" lon="113.272361">
        <time>2026-06-11T22:12:17Z</time>
      </trkpt>
      <trkpt lat="23.075384" lon="113.272259">
        <time>2026-06-11T22:12:22Z</time>
      </trkpt>
      <trkpt lat="23.075295" lon="113.27223">
        <time>2026-06-11T22:12:27Z</time>
      </trkpt>
      <trkpt lat="23.075179" lon="113.272186">
        <time>2026-06-11T22:12:32Z</time>
      </trkpt>
      <trkpt lat="23.075096" lon="113.272145">
        <time>2026-06-11T22:12:37Z</time>
      </trkpt>
      <trkpt lat="23.07496" lon="113.272088">
        <time>2026-06-11T22:12:42Z</time>
      </trkpt>
      <trkpt lat="23.074871" lon="113.272053">
        <time>2026-06-11T22:12:47Z</time>
      </trkpt>
      <trkpt lat="23.074735" lon="113.271989">
        <time>2026-06-11T22:12:52Z</time>
      </trkpt>
      <trkpt lat="23.074643" lon="113.271957">
        <time>2026-06-11T22:12:57Z</time>
      </trkpt>
      <trkpt lat="23.074502" lon="113.271949">
        <time>2026-06-11T22:13:02Z</time>
      </trkpt>
      <trkpt lat="23.074441" lon="113.271993">
        <time>2026-06-11T22:13:07Z</time>
      </trkpt>
      <trkpt lat="23.074386" lon="113.272128">
        <time>2026-06-11T22:13:12Z</time>
      </trkpt>
      <trkpt lat="23.07436" lon="113.272228">
        <time>2026-06-11T22:13:17Z</time>
      </trkpt>
      <trkpt lat="23.07431" lon="113.272366">
        <time>2026-06-11T22:13:22Z</time>
      </trkpt>
      <trkpt lat="23.074268" lon="113.272452">
        <time>2026-06-11T22:13:27Z</time>
      </trkpt>
      <trkpt lat="23.07422" lon="113.272591">
        <time>2026-06-11T22:13:32Z</time>
      </trkpt>
      <trkpt lat="23.074192" lon="113.272685">
        <time>2026-06-11T22:13:37Z</time>
      </trkpt>
      <trkpt lat="23.074145" lon="113.272814">
        <time>2026-06-11T22:13:42Z</time>
      </trkpt>
      <trkpt lat="23.074113" lon="113.272907">
        <time>2026-06-11T22:13:47Z</time>
      </trkpt>
      <trkpt lat="23.07407" lon="113.273042">
        <time>2026-06-11T22:13:52Z</time>
      </trkpt>
      <trkpt lat="23.074026" lon="113.273085">
        <time>2026-06-11T22:13:57Z</time>
      </trkpt>
      <trkpt lat="23.073982" lon="113.273023">
        <time>2026-06-11T22:14:02Z</time>
      </trkpt>
      <trkpt lat="23.073916" lon="113.272969">
        <time>2026-06-11T22:14:07Z</time>
      </trkpt>
      <trkpt lat="23.073808" lon="113.272909">
        <time>2026-06-11T22:14:12Z</time>
      </trkpt>
      <trkpt lat="23.073746" lon="113.272868">
        <time>2026-06-11T22:14:17Z</time>
      </trkpt>
      <trkpt lat="23.073755" lon="113.272785">
        <time>2026-06-11T22:14:22Z</time>
      </trkpt>
      <trkpt lat="23.073789" lon="113.272704">
        <time>2026-06-11T22:14:27Z</time>
      </trkpt>
      <trkpt lat="23.07382" lon="113.272571">
        <time>2026-06-11T22:14:32Z</time>
      </trkpt>
      <trkpt lat="23.073841" lon="113.272491">
        <time>2026-06-11T22:14:37Z</time>
      </trkpt>
      <trkpt lat="23.073887" lon="113.272373">
        <time>2026-06-11T22:14:42Z</time>
      </trkpt>
      <trkpt lat="23.07392" lon="113.272296">
        <time>2026-06-11T22:14:47Z</time>
      </trkpt>
      <trkpt lat="23.07397" lon="113.27218">
        <time>2026-06-11T22:14:52Z</time>
      </trkpt>
      <trkpt lat="23.074003" lon="113.272102">
        <time>2026-06-11T22:14:57Z</time>
      </trkpt>
      <trkpt lat="23.07405" lon="113.271985">
        <time>2026-06-11T22:15:02Z</time>
      </trkpt>
      <trkpt lat="23.074084" lon="113.271903">
        <time>2026-06-11T22:15:07Z</time>
      </trkpt>
      <trkpt lat="23.074103" lon="113.271763">
        <time>2026-06-11T22:15:12Z</time>
      </trkpt>
      <trkpt lat="23.074076" lon="113.271675">
        <time>2026-06-11T22:15:17Z</time>
      </trkpt>
      <trkpt lat="23.073984" lon="113.271586">
        <time>2026-06-11T22:15:22Z</time>
      </trkpt>
      <trkpt lat="23.073906" lon="113.271547">
        <time>2026-06-11T22:15:27Z</time>
      </trkpt>
      <trkpt lat="23.073788" lon="113.271474">
        <time>2026-06-11T22:15:32Z</time>
      </trkpt>
      <trkpt lat="23.073713" lon="113.271423">
        <time>2026-06-11T22:15:37Z</time>
      </trkpt>
      <trkpt lat="23.073599" lon="113.271365">
        <time>2026-06-11T22:15:42Z</time>
      </trkpt>
      <trkpt lat="23.07352" lon="113.271322">
        <time>2026-06-11T22:15:47Z</time>
      </trkpt>
      <trkpt lat="23.073394" lon="113.271252">
        <time>2026-06-11T22:15:52Z</time>
      </trkpt>
      <trkpt lat="23.07332" lon="113.271198">
        <time>2026-06-11T22:15:57Z</time>
      </trkpt>
      <trkpt lat="23.073231" lon="113.271133">
        <time>2026-06-11T22:16:02Z</time>
      </trkpt>
      <trkpt lat="23.073162" lon="113.27112">
        <time>2026-06-11T22:16:07Z</time>
      </trkpt>
      <trkpt lat="23.073071" lon="113.271077">
        <time>2026-06-11T22:16:12Z</time>
      </trkpt>
      <trkpt lat="23.073001" lon="113.27104">
        <time>2026-06-11T22:16:17Z</time>
      </trkpt>
      <trkpt lat="23.072875" lon="113.270975">
        <time>2026-06-11T22:16:22Z</time>
      </trkpt>
      <trkpt lat="23.072781" lon="113.270939">
        <time>2026-06-11T22:16:27Z</time>
      </trkpt>
      <trkpt lat="23.072651" lon="113.270894">
        <time>2026-06-11T22:16:32Z</time>
      </trkpt>
      <trkpt lat="23.072561" lon="113.27086">
        <time>2026-06-11T22:16:37Z</time>
      </trkpt>
      <trkpt lat="23.072434" lon="113.270806">
        <time>2026-06-11T22:16:42Z</time>
      </trkpt>
      <trkpt lat="23.072355" lon="113.270757">
        <time>2026-06-11T22:16:47Z</time>
      </trkpt>
      <trkpt lat="23.072241" lon="113.270675">
        <time>2026-06-11T22:16:52Z</time>
      </trkpt>
      <trkpt lat="23.072163" lon="113.270623">
        <time>2026-06-11T22:16:57Z</time>
      </trkpt>
      <trkpt lat="23.072031" lon="113.270562">
        <time>2026-06-11T22:17:02Z</time>
      </trkpt>
      <trkpt lat="23.07194" lon="113.27052">
        <time>2026-06-11T22:17:07Z</time>
      </trkpt>
      <trkpt lat="23.071803" lon="113.270465">
        <time>2026-06-11T22:17:12Z</time>
      </trkpt>
      <trkpt lat="23.071726" lon="113.270436">
        <time>2026-06-11T22:17:17Z</time>
      </trkpt>
      <trkpt lat="23.071608" lon="113.27041">
        <time>2026-06-11T22:17:22Z</time>
      </trkpt>
      <trkpt lat="23.071516" lon="113.270379">
        <time>2026-06-11T22:17:27Z</time>
      </trkpt>
      <trkpt lat="23.071384" lon="113.270314">
        <time>2026-06-11T22:17:32Z</time>
      </trkpt>
      <trkpt lat="23.071296" lon="113.270274">
        <time>2026-06-11T22:17:37Z</time>
      </trkpt>
      <trkpt lat="23.071166" lon="113.270219">
        <time>2026-06-11T22:17:42Z</time>
      </trkpt>
      <trkpt lat="23.071073" lon="113.27016">
        <time>2026-06-11T22:17:47Z</time>
      </trkpt>
      <trkpt lat="23.070951" lon="113.27009">
        <time>2026-06-11T22:17:52Z</time>
      </trkpt>
      <trkpt lat="23.070871" lon="113.270042">
        <time>2026-06-11T22:17:57Z</time>
      </trkpt>
      <trkpt lat="23.070729" lon="113.269979">
        <time>2026-06-11T22:18:02Z</time>
      </trkpt>
      <trkpt lat="23.070643" lon="113.269923">
        <time>2026-06-11T22:18:07Z</time>
      </trkpt>
      <trkpt lat="23.07051" lon="113.269876">
        <time>2026-06-11T22:18:12Z</time>
      </trkpt>
      <trkpt lat="23.070434" lon="113.269834">
        <time>2026-06-11T22:18:17Z</time>
      </trkpt>
      <trkpt lat="23.070319" lon="113.269764">
        <time>2026-06-11T22:18:22Z</time>
      </trkpt>
      <trkpt lat="23.070236" lon="113.269719">
        <time>2026-06-11T22:18:27Z</time>
      </trkpt>
      <trkpt lat="23.070092" lon="113.269687">
        <time>2026-06-11T22:18:32Z</time>
      </trkpt>
      <trkpt lat="23.07001" lon="113.269656">
        <time>2026-06-11T22:18:37Z</time>
      </trkpt>
      <trkpt lat="23.069896" lon="113.269584">
        <time>2026-06-11T22:18:42Z</time>
      </trkpt>
      <trkpt lat="23.069818" lon="113.269543">
        <time>2026-06-11T22:18:47Z</time>
      </trkpt>
      <trkpt lat="23.069699" lon="113.269494">
        <time>2026-06-11T22:18:52Z</time>
      </trkpt>
      <trkpt lat="23.069624" lon="113.269458">
        <time>2026-06-11T22:18:57Z</time>
      </trkpt>
      <trkpt lat="23.069517" lon="113.269413">
        <time>2026-06-11T22:19:02Z</time>
      </trkpt>
      <trkpt lat="23.069441" lon="113.269387">
        <time>2026-06-11T22:19:07Z</time>
      </trkpt>
      <trkpt lat="23.069328" lon="113.269319">
        <time>2026-06-11T22:19:12Z</time>
      </trkpt>
      <trkpt lat="23.069261" lon="113.269256">
        <time>2026-06-11T22:19:17Z</time>
      </trkpt>
      <trkpt lat="23.069146" lon="113.269214">
        <time>2026-06-11T22:19:22Z</time>
      </trkpt>
      <trkpt lat="23.069075" lon="113.269203">
        <time>2026-06-11T22:19:27Z</time>
      </trkpt>
      <trkpt lat="23.068962" lon="113.269153">
        <time>2026-06-11T22:19:32Z</time>
      </trkpt>
      <trkpt lat="23.068881" lon="113.26911">
        <time>2026-06-11T22:19:37Z</time>
      </trkpt>
      <trkpt lat="23.068763" lon="113.269062">
        <time>2026-06-11T22:19:42Z</time>
      </trkpt>
      <trkpt lat="23.068685" lon="113.269031">
        <time>2026-06-11T22:19:47Z</time>
      </trkpt>
      <trkpt lat="23.068576" lon="113.268983">
        <time>2026-06-11T22:19:52Z</time>
      </trkpt>
      <trkpt lat="23.068497" lon="113.268962">
        <time>2026-06-11T22:19:57Z</time>
      </trkpt>
      <trkpt lat="23.068384" lon="113.268901">
        <time>2026-06-11T22:20:02Z</time>
      </trkpt>
      <trkpt lat="23.068311" lon="113.268861">
        <time>2026-06-11T22:20:07Z</time>
      </trkpt>
      <trkpt lat="23.068192" lon="113.268798">
        <time>2026-06-11T22:20:12Z</time>
      </trkpt>
      <trkpt lat="23.068111" lon="113.268754">
        <time>2026-06-11T22:20:17Z</time>
      </trkpt>
      <trkpt lat="23.067986" lon="113.268655">
        <time>2026-06-11T22:20:22Z</time>
      </trkpt>
      <trkpt lat="23.067898" lon="113.268602">
        <time>2026-06-11T22:20:27Z</time>
      </trkpt>
      <trkpt lat="23.067775" lon="113.268534">
        <time>2026-06-11T22:20:32Z</time>
      </trkpt>
      <trkpt lat="23.067711" lon="113.268473">
        <time>2026-06-11T22:20:37Z</time>
      </trkpt>
      <trkpt lat="23.067636" lon="113.268372">
        <time>2026-06-11T22:20:42Z</time>
      </trkpt>
      <trkpt lat="23.067562" lon="113.268327">
        <time>2026-06-11T22:20:47Z</time>
      </trkpt>
      <trkpt lat="23.067434" lon="113.268275">
        <time>2026-06-11T22:20:52Z</time>
      </trkpt>
      <trkpt lat="23.067346" lon="113.268239">
        <time>2026-06-11T22:20:57Z</time>
      </trkpt>
      <trkpt lat="23.06723" lon="113.268192">
        <time>2026-06-11T22:21:02Z</time>
      </trkpt>
      <trkpt lat="23.067162" lon="113.26816">
        <time>2026-06-11T22:21:07Z</time>
      </trkpt>
      <trkpt lat="23.067057" lon="113.268103">
        <time>2026-06-11T22:21:12Z</time>
      </trkpt>
      <trkpt lat="23.066982" lon="113.268075">
        <time>2026-06-11T22:21:17Z</time>
      </trkpt>
      <trkpt lat="23.06685" lon="113.268034">
        <time>2026-06-11T22:21:22Z</time>
      </trkpt>
      <trkpt lat="23.066765" lon="113.268026">
        <time>2026-06-11T22:21:27Z</time>
      </trkpt>
      <trkpt lat="23.066649" lon="113.268006">
        <time>2026-06-11T22:21:32Z</time>
      </trkpt>
      <trkpt lat="23.066573" lon="113.267974">
        <time>2026-06-11T22:21:37Z</time>
      </trkpt>
      <trkpt lat="23.066451" lon="113.267948">
        <time>2026-06-11T22:21:42Z</time>
      </trkpt>
      <trkpt lat="23.066368" lon="113.267964">
        <time>2026-06-11T22:21:47Z</time>
      </trkpt>
      <trkpt lat="23.066252" lon="113.268022">
        <time>2026-06-11T22:21:52Z</time>
      </trkpt>
      <trkpt lat="23.066193" lon="113.268086">
        <time>2026-06-11T22:21:57Z</time>
      </trkpt>
      <trkpt lat="23.06609" lon="113.268192">
        <time>2026-06-11T22:22:02Z</time>
      </trkpt>
      <trkpt lat="23.066028" lon="113.268251">
        <time>2026-06-11T22:22:07Z</time>
      </trkpt>
      <trkpt lat="23.065926" lon="113.268355">
        <time>2026-06-11T22:22:12Z</time>
      </trkpt>
      <trkpt lat="23.065875" lon="113.268424">
        <time>2026-06-11T22:22:17Z</time>
      </trkpt>
      <trkpt lat="23.065811" lon="113.268529">
        <time>2026-06-11T22:22:22Z</time>
      </trkpt>
      <trkpt lat="23.065769" lon="113.268606">
        <time>2026-06-11T22:22:27Z</time>
      </trkpt>
      <trkpt lat="23.065715" lon="113.268727">
        <time>2026-06-11T22:22:32Z</time>
      </trkpt>
      <trkpt lat="23.06568" lon="113.268811">
        <time>2026-06-11T22:22:37Z</time>
      </trkpt>
      <trkpt lat="23.065629" lon="113.26894">
        <time>2026-06-11T22:22:42Z</time>
      </trkpt>
      <trkpt lat="23.065601" lon="113.269025">
        <time>2026-06-11T22:22:47Z</time>
      </trkpt>
      <trkpt lat="23.065564" lon="113.269158">
        <time>2026-06-11T22:22:52Z</time>
      </trkpt>
      <trkpt lat="23.065542" lon="113.269248">
        <time>2026-06-11T22:22:57Z</time>
      </trkpt>
      <trkpt lat="23.065508" lon="113.269374">
        <time>2026-06-11T22:23:02Z</time>
      </trkpt>
      <trkpt lat="23.065481" lon="113.269454">
        <time>2026-06-11T22:23:07Z</time>
      </trkpt>
      <trkpt lat="23.06544" lon="113.269578">
        <time>2026-06-11T22:23:12Z</time>
      </trkpt>
      <trkpt lat="23.065422" lon="113.269663">
        <time>2026-06-11T22:23:17Z</time>
      </trkpt>
      <trkpt lat="23.065386" lon="113.269789">
        <time>2026-06-11T22:23:22Z</time>
      </trkpt>
      <trkpt lat="23.065356" lon="113.26987">
        <time>2026-06-11T22:23:27Z</time>
      </trkpt>
      <trkpt lat="23.065298" lon="113.269986">
        <time>2026-06-11T22:23:32Z</time>
      </trkpt>
      <trkpt lat="23.065269" lon="113.270074">
        <time>2026-06-11T22:23:37Z</time>
      </trkpt>
      <trkpt lat="23.065217" lon="113.270205">
        <time>2026-06-11T22:23:42Z</time>
      </trkpt>
      <trkpt lat="23.065182" lon="113.270289">
        <time>2026-06-11T22:23:47Z</time>
      </trkpt>
      <trkpt lat="23.065135" lon="113.270409">
        <time>2026-06-11T22:23:52Z</time>
      </trkpt>
      <trkpt lat="23.0651" lon="113.27049">
        <time>2026-06-11T22:23:57Z</time>
      </trkpt>
      <trkpt lat="23.065041" lon="113.270611">
        <time>2026-06-11T22:24:02Z</time>
      </trkpt>
      <trkpt lat="23.065004" lon="113.270695">
        <time>2026-06-11T22:24:07Z</time>
      </trkpt>
      <trkpt lat="23.064948" lon="113.27082">
        <time>2026-06-11T22:24:12Z</time>
      </trkpt>
      <trkpt lat="23.064909" lon="113.270906">
        <time>2026-06-11T22:24:17Z</time>
      </trkpt>
      <trkpt lat="23.064856" lon="113.271036">
        <time>2026-06-11T22:24:22Z</time>
      </trkpt>
      <trkpt lat="23.064821" lon="113.271122">
        <time>2026-06-11T22:24:27Z</time>
      </trkpt>
      <trkpt lat="23.06477" lon="113.271243">
        <time>2026-06-11T22:24:32Z</time>
      </trkpt>
      <trkpt lat="23.064732" lon="113.271324">
        <time>2026-06-11T22:24:37Z</time>
      </trkpt>
      <trkpt lat="23.064673" lon="113.271442">
        <time>2026-06-11T22:24:42Z</time>
      </trkpt>
      <trkpt lat="23.064638" lon="113.27152">
        <time>2026-06-11T22:24:47Z</time>
      </trkpt>
      <trkpt lat="23.064575" lon="113.271639">
        <time>2026-06-11T22:24:52Z</time>
      </trkpt>
      <trkpt lat="23.064534" lon="113.271721">
        <time>2026-06-11T22:24:57Z</time>
      </trkpt>
      <trkpt lat="23.06448" lon="113.271844">
        <time>2026-06-11T22:25:02Z</time>
      </trkpt>
      <trkpt lat="23.064443" lon="113.27192">
        <time>2026-06-11T22:25:07Z</time>
      </trkpt>
      <trkpt lat="23.064381" lon="113.272035">
        <time>2026-06-11T22:25:12Z</time>
      </trkpt>
      <trkpt lat="23.06434" lon="113.272111">
        <time>2026-06-11T22:25:17Z</time>
      </trkpt>
      <trkpt lat="23.064296" lon="113.272239">
        <time>2026-06-11T22:25:22Z</time>
      </trkpt>
      <trkpt lat="23.064294" lon="113.272332">
        <time>2026-06-11T22:25:27Z</time>
      </trkpt>
      <trkpt lat="23.064288" lon="113.272463">
        <time>2026-06-11T22:25:32Z</time>
      </trkpt>
      <trkpt lat="23.064286" lon="113.272549">
        <time>2026-06-11T22:25:37Z</time>
      </trkpt>
      <trkpt lat="23.064305" lon="113.272675">
        <time>2026-06-11T22:25:42Z</time>
      </trkpt>
      <trkpt lat="23.064331" lon="113.272758">
        <time>2026-06-11T22:25:47Z</time>
      </trkpt>
      <trkpt lat="23.06437" lon="113.272878">
        <time>2026-06-11T22:25:52Z</time>
      </trkpt>
      <trkpt lat="23.064392" lon="113.27296">
        <time>2026-06-11T22:25:57Z</time>
      </trkpt>
      <trkpt lat="23.064421" lon="113.273082">
        <time>2026-06-11T22:26:02Z</time>
      </trkpt>
      <trkpt lat="23.064424" lon="113.273164">
        <time>2026-06-11T22:26:07Z</time>
      </trkpt>
      <trkpt lat="23.064381" lon="113.273283">
        <time>2026-06-11T22:26:12Z</time>
      </trkpt>
      <trkpt lat="23.064321" lon="113.273342">
        <time>2026-06-11T22:26:17Z</time>
      </trkpt>
      <trkpt lat="23.064216" lon="113.273424">
        <time>2026-06-11T22:26:22Z</time>
      </trkpt>
      <trkpt lat="23.064153" lon="113.273481">
        <time>2026-06-11T22:26:27Z</time>
      </trkpt>
      <trkpt lat="23.064056" lon="113.273559">
        <time>2026-06-11T22:26:32Z</time>
      </trkpt>
      <trkpt lat="23.063987" lon="113.273616">
        <time>2026-06-11T22:26:37Z</time>
      </trkpt>
      <trkpt lat="23.0639" lon="113.27371">
        <time>2026-06-11T22:26:42Z</time>
      </trkpt>
      <trkpt lat="23.063855" lon="113.27378">
        <time>2026-06-11T22:26:47Z</time>
      </trkpt>
      <trkpt lat="23.063795" lon="113.273892">
        <time>2026-06-11T22:26:52Z</time>
      </trkpt>
      <trkpt lat="23.063755" lon="113.273961">
        <time>2026-06-11T22:26:57Z</time>
      </trkpt>
      <trkpt lat="23.063687" lon="113.274063">
        <time>2026-06-11T22:27:02Z</time>
      </trkpt>
      <trkpt lat="23.063626" lon="113.274116">
        <time>2026-06-11T22:27:07Z</time>
      </trkpt>
      <trkpt lat="23.063514" lon="113.274118">
        <time>2026-06-11T22:27:12Z</time>
      </trkpt>
      <trkpt lat="23.063444" lon="113.274091">
        <time>2026-06-11T22:27:17Z</time>
      </trkpt>
      <trkpt lat="23.063357" lon="113.274186">
        <time>2026-06-11T22:27:22Z</time>
      </trkpt>
      <trkpt lat="23.063313" lon="113.274274">
        <time>2026-06-11T22:27:27Z</time>
      </trkpt>
      <trkpt lat="23.063258" lon="113.274402">
        <time>2026-06-11T22:27:32Z</time>
      </trkpt>
      <trkpt lat="23.063238" lon="113.274491">
        <time>2026-06-11T22:27:37Z</time>
      </trkpt>
      <trkpt lat="23.063199" lon="113.274624">
        <time>2026-06-11T22:27:42Z</time>
      </trkpt>
      <trkpt lat="23.063172" lon="113.274711">
        <time>2026-06-11T22:27:47Z</time>
      </trkpt>
      <trkpt lat="23.063131" lon="113.274838">
        <time>2026-06-11T22:27:52Z</time>
      </trkpt>
      <trkpt lat="23.063102" lon="113.274923">
        <time>2026-06-11T22:27:57Z</time>
      </trkpt>
      <trkpt lat="23.063063" lon="113.275055">
        <time>2026-06-11T22:28:02Z</time>
      </trkpt>
      <trkpt lat="23.063028" lon="113.275136">
        <time>2026-06-11T22:28:07Z</time>
      </trkpt>
      <trkpt lat="23.062919" lon="113.275212">
        <time>2026-06-11T22:28:12Z</time>
      </trkpt>
      <trkpt lat="23.062884" lon="113.275293">
        <time>2026-06-11T22:28:17Z</time>
      </trkpt>
      <trkpt lat="23.062906" lon="113.275427">
        <time>2026-06-11T22:28:22Z</time>
      </trkpt>
      <trkpt lat="23.062901" lon="113.27551">
        <time>2026-06-11T22:28:27Z</time>
      </trkpt>
      <trkpt lat="23.062816" lon="113.275608">
        <time>2026-06-11T22:28:32Z</time>
      </trkpt>
      <trkpt lat="23.062751" lon="113.275669">
        <time>2026-06-11T22:28:37Z</time>
      </trkpt>
      <trkpt lat="23.062657" lon="113.275771">
        <time>2026-06-11T22:28:42Z</time>
      </trkpt>
      <trkpt lat="23.062597" lon="113.275844">
        <time>2026-06-11T22:28:47Z</time>
      </trkpt>
      <trkpt lat="23.062514" lon="113.275957">
        <time>2026-06-11T22:28:52Z</time>
      </trkpt>
      <trkpt lat="23.062469" lon="113.276037">
        <time>2026-06-11T22:28:57Z</time>
      </trkpt>
      <trkpt lat="23.062411" lon="113.276162">
        <time>2026-06-11T22:29:02Z</time>
      </trkpt>
      <trkpt lat="23.062378" lon="113.276246">
        <time>2026-06-11T22:29:07Z</time>
      </trkpt>
      <trkpt lat="23.062336" lon="113.276362">
        <time>2026-06-11T22:29:12Z</time>
      </trkpt>
      <trkpt lat="23.062305" lon="113.276442">
        <time>2026-06-11T22:29:17Z</time>
      </trkpt>
      <trkpt lat="23.06226" lon="113.27656">
        <time>2026-06-11T22:29:22Z</time>
      </trkpt>
      <trkpt lat="23.062235" lon="113.27664">
        <time>2026-06-11T22:29:27Z</time>
      </trkpt>
      <trkpt lat="23.062197" lon="113.276758">
        <time>2026-06-11T22:29:32Z</time>
      </trkpt>
      <trkpt lat="23.062166" lon="113.276835">
        <time>2026-06-11T22:29:37Z</time>
      </trkpt>
      <trkpt lat="23.062116" lon="113.276952">
        <time>2026-06-11T22:29:42Z</time>
      </trkpt>
      <trkpt lat="23.062091" lon="113.277039">
        <time>2026-06-11T22:29:47Z</time>
      </trkpt>
      <trkpt lat="23.062033" lon="113.277185">
        <time>2026-06-11T22:29:52Z</time>
      </trkpt>
      <trkpt lat="23.061991" lon="113.277286">
        <time>2026-06-11T22:29:57Z</time>
      </trkpt>
      <trkpt lat="23.061937" lon="113.277426">
        <time>2026-06-11T22:30:02Z</time>
      </trkpt>
      <trkpt lat="23.061906" lon="113.277509">
        <time>2026-06-11T22:30:07Z</time>
      </trkpt>
      <trkpt lat="23.061866" lon="113.277635">
        <time>2026-06-11T22:30:12Z</time>
      </trkpt>
      <trkpt lat="23.061846" lon="113.277719">
        <time>2026-06-11T22:30:17Z</time>
      </trkpt>
      <trkpt lat="23.061825" lon="113.277847">
        <time>2026-06-11T22:30:22Z</time>
      </trkpt>
      <trkpt lat="23.061812" lon="113.277934">
        <time>2026-06-11T22:30:27Z</time>
      </trkpt>
      <trkpt lat="23.061817" lon="113.278066">
        <time>2026-06-11T22:30:32Z</time>
      </trkpt>
      <trkpt lat="23.061815" lon="113.278149">
        <time>2026-06-11T22:30:37Z</time>
      </trkpt>
      <trkpt lat="23.061817" lon="113.278276">
        <time>2026-06-11T22:30:42Z</time>
      </trkpt>
      <trkpt lat="23.061821" lon="113.278363">
        <time>2026-06-11T22:30:47Z</time>
      </trkpt>
      <trkpt lat="23.061829" lon="113.278495">
        <time>2026-06-11T22:30:52Z</time>
      </trkpt>
      <trkpt lat="23.061836" lon="113.278582">
        <time>2026-06-11T22:30:57Z</time>
      </trkpt>
      <trkpt lat="23.061826" lon="113.278706">
        <time>2026-06-11T22:31:02Z</time>
      </trkpt>
      <trkpt lat="23.061784" lon="113.278741">
        <time>2026-06-11T22:31:07Z</time>
      </trkpt>
      <trkpt lat="23.061708" lon="113.27881">
        <time>2026-06-11T22:31:12Z</time>
      </trkpt>
      <trkpt lat="23.061675" lon="113.278891">
        <time>2026-06-11T22:31:17Z</time>
      </trkpt>
      <trkpt lat="23.061628" lon="113.279013">
        <time>2026-06-11T22:31:22Z</time>
      </trkpt>
      <trkpt lat="23.061602" lon="113.279097">
        <time>2026-06-11T22:31:27Z</time>
      </trkpt>
      <trkpt lat="23.061557" lon="113.279214">
        <time>2026-06-11T22:31:32Z</time>
      </trkpt>
      <trkpt lat="23.061525" lon="113.279287">
        <time>2026-06-11T22:31:37Z</time>
      </trkpt>
      <trkpt lat="23.061474" lon="113.279406">
        <time>2026-06-11T22:31:42Z</time>
      </trkpt>
      <trkpt lat="23.061442" lon="113.279492">
        <time>2026-06-11T22:31:47Z</time>
      </trkpt>
      <trkpt lat="23.061395" lon="113.279622">
        <time>2026-06-11T22:31:52Z</time>
      </trkpt>
      <trkpt lat="23.061358" lon="113.279702">
        <time>2026-06-11T22:31:57Z</time>
      </trkpt>
      <trkpt lat="23.061301" lon="113.27982">
        <time>2026-06-11T22:32:02Z</time>
      </trkpt>
      <trkpt lat="23.061266" lon="113.279898">
        <time>2026-06-11T22:32:07Z</time>
      </trkpt>
      <trkpt lat="23.061217" lon="113.280021">
        <time>2026-06-11T22:32:12Z</time>
      </trkpt>
      <trkpt lat="23.061183" lon="113.280108">
        <time>2026-06-11T22:32:17Z</time>
      </trkpt>
      <trkpt lat="23.061128" lon="113.280236">
        <time>2026-06-11T22:32:22Z</time>
      </trkpt>
      <trkpt lat="23.061089" lon="113.28032">
        <time>2026-06-11T22:32:27Z</time>
      </trkpt>
      <trkpt lat="23.061034" lon="113.280454">
        <time>2026-06-11T22:32:32Z</time>
      </trkpt>
      <trkpt lat="23.061004" lon="113.280543">
        <time>2026-06-11T22:32:37Z</time>
      </trkpt>
      <trkpt lat="23.060948" lon="113.280666">
        <time>2026-06-11T22:32:42Z</time>
      </trkpt>
      <trkpt lat="23.060908" lon="113.280752">
        <time>2026-06-11T22:32:47Z</time>
      </trkpt>
      <trkpt lat="23.060848" lon="113.280875">
        <time>2026-06-11T22:32:52Z</time>
      </trkpt>
      <trkpt lat="23.060815" lon="113.280961">
        <time>2026-06-11T22:32:57Z</time>
      </trkpt>
      <trkpt lat="23.060766" lon="113.281084">
        <time>2026-06-11T22:33:02Z</time>
      </trkpt>
      <trkpt lat="23.060731" lon="113.281162">
        <time>2026-06-11T22:33:07Z</time>
      </trkpt>
      <trkpt lat="23.060681" lon="113.281281">
        <time>2026-06-11T22:33:12Z</time>
      </trkpt>
      <trkpt lat="23.060646" lon="113.281359">
        <time>2026-06-11T22:33:17Z</time>
      </trkpt>
      <trkpt lat="23.060592" lon="113.281477">
        <time>2026-06-11T22:33:22Z</time>
      </trkpt>
      <trkpt lat="23.060558" lon="113.281554">
        <time>2026-06-11T22:33:27Z</time>
      </trkpt>
      <trkpt lat="23.060504" lon="113.281674">
        <time>2026-06-11T22:33:32Z</time>
      </trkpt>
      <trkpt lat="23.060469" lon="113.281755">
        <time>2026-06-11T22:33:37Z</time>
      </trkpt>
      <trkpt lat="23.060416" lon="113.281875">
        <time>2026-06-11T22:33:42Z</time>
      </trkpt>
      <trkpt lat="23.060385" lon="113.281956">
        <time>2026-06-11T22:33:47Z</time>
      </trkpt>
      <trkpt lat="23.060337" lon="113.282079">
        <time>2026-06-11T22:33:52Z</time>
      </trkpt>
      <trkpt lat="23.060303" lon="113.28216">
        <time>2026-06-11T22:33:57Z</time>
      </trkpt>
      <trkpt lat="23.060249" lon="113.282272">
        <time>2026-06-11T22:34:02Z</time>
      </trkpt>
      <trkpt lat="23.060213" lon="113.282349">
        <time>2026-06-11T22:34:07Z</time>
      </trkpt>
      <trkpt lat="23.060162" lon="113.282464">
        <time>2026-06-11T22:34:12Z</time>
      </trkpt>
      <trkpt lat="23.06013" lon="113.282541">
        <time>2026-06-11T22:34:17Z</time>
      </trkpt>
      <trkpt lat="23.060079" lon="113.282668">
        <time>2026-06-11T22:34:22Z</time>
      </trkpt>
      <trkpt lat="23.060043" lon="113.282754">
        <time>2026-06-11T22:34:27Z</time>
      </trkpt>
      <trkpt lat="23.059983" lon="113.282876">
        <time>2026-06-11T22:34:32Z</time>
      </trkpt>
      <trkpt lat="23.059947" lon="113.282961">
        <time>2026-06-11T22:34:37Z</time>
      </trkpt>
      <trkpt lat="23.059898" lon="113.283092">
        <time>2026-06-11T22:34:42Z</time>
      </trkpt>
      <trkpt lat="23.059865" lon="113.283177">
        <time>2026-06-11T22:34:47Z</time>
      </trkpt>
      <trkpt lat="23.059813" lon="113.283298">
        <time>2026-06-11T22:34:52Z</time>
      </trkpt>
      <trkpt lat="23.05978" lon="113.283381">
        <time>2026-06-11T22:34:57Z</time>
      </trkpt>
      <trkpt lat="23.059718" lon="113.2835">
        <time>2026-06-11T22:35:02Z</time>
      </trkpt>
      <trkpt lat="23.059677" lon="113.283577">
        <time>2026-06-11T22:35:07Z</time>
      </trkpt>
      <trkpt lat="23.059624" lon="113.283703">
        <time>2026-06-11T22:35:12Z</time>
      </trkpt>
      <trkpt lat="23.059596" lon="113.283793">
        <time>2026-06-11T22:35:17Z</time>
      </trkpt>
      <trkpt lat="23.059536" lon="113.283913">
        <time>2026-06-11T22:35:22Z</time>
      </trkpt>
      <trkpt lat="23.059498" lon="113.283991">
        <time>2026-06-11T22:35:27Z</time>
      </trkpt>
      <trkpt lat="23.059425" lon="113.2841">
        <time>2026-06-11T22:35:32Z</time>
      </trkpt>
      <trkpt lat="23.059383" lon="113.284176">
        <time>2026-06-11T22:35:37Z</time>
      </trkpt>
      <trkpt lat="23.059334" lon="113.284293">
        <time>2026-06-11T22:35:42Z</time>
      </trkpt>
      <trkpt lat="23.059307" lon="113.284376">
        <time>2026-06-11T22:35:47Z</time>
      </trkpt>
      <trkpt lat="23.059292" lon="113.284513">
        <time>2026-06-11T22:35:52Z</time>
      </trkpt>
      <trkpt lat="23.059273" lon="113.2846">
        <time>2026-06-11T22:35:57Z</time>
      </trkpt>
      <trkpt lat="23.059228" lon="113.284719">
        <time>2026-06-11T22:36:02Z</time>
      </trkpt>
      <trkpt lat="23.059203" lon="113.284803">
        <time>2026-06-11T22:36:07Z</time>
      </trkpt>
      <trkpt lat="23.059156" lon="113.28493">
        <time>2026-06-11T22:36:12Z</time>
      </trkpt>
      <trkpt lat="23.059122" lon="113.285008">
        <time>2026-06-11T22:36:17Z</time>
      </trkpt>
      <trkpt lat="23.059072" lon="113.285123">
        <time>2026-06-11T22:36:22Z</time>
      </trkpt>
      <trkpt lat="23.059041" lon="113.285201">
        <time>2026-06-11T22:36:27Z</time>
      </trkpt>
      <trkpt lat="23.058988" lon="113.285323">
        <time>2026-06-11T22:36:32Z</time>
      </trkpt>
      <trkpt lat="23.05895" lon="113.285404">
        <time>2026-06-11T22:36:37Z</time>
      </trkpt>
      <trkpt lat="23.058899" lon="113.285527">
        <time>2026-06-11T22:36:42Z</time>
      </trkpt>
      <trkpt lat="23.058864" lon="113.285611">
        <time>2026-06-11T22:36:47Z</time>
      </trkpt>
      <trkpt lat="23.058804" lon="113.285737">
        <time>2026-06-11T22:36:52Z</time>
      </trkpt>
      <trkpt lat="23.05877" lon="113.285819">
        <time>2026-06-11T22:36:57Z</time>
      </trkpt>
      <trkpt lat="23.058716" lon="113.285937">
        <time>2026-06-11T22:37:02Z</time>
      </trkpt>
      <trkpt lat="23.058678" lon="113.286019">
        <time>2026-06-11T22:37:07Z</time>
      </trkpt>
      <trkpt lat="23.058643" lon="113.286152">
        <time>2026-06-11T22:37:12Z</time>
      </trkpt>
      <trkpt lat="23.058643" lon="113.286238">
        <time>2026-06-11T22:37:17Z</time>
      </trkpt>
      <trkpt lat="23.058716" lon="113.286334">
        <time>2026-06-11T22:37:22Z</time>
      </trkpt>
      <trkpt lat="23.058791" lon="113.286357">
        <time>2026-06-11T22:37:27Z</time>
      </trkpt>
      <trkpt lat="23.058905" lon="113.286375">
        <time>2026-06-11T22:37:32Z</time>
      </trkpt>
      <trkpt lat="23.058981" lon="113.286378">
        <time>2026-06-11T22:37:37Z</time>
      </trkpt>
      <trkpt lat="23.059109" lon="113.286387">
        <time>2026-06-11T22:37:42Z</time>
      </trkpt>
      <trkpt lat="23.059193" lon="113.286397">
        <time>2026-06-11T22:37:47Z</time>
      </trkpt>
      <trkpt lat="23.059317" lon="113.286418">
        <time>2026-06-11T22:37:52Z</time>
      </trkpt>
      <trkpt lat="23.059395" lon="113.286429">
        <time>2026-06-11T22:37:57Z</time>
      </trkpt>
      <trkpt lat="23.059515" lon="113.286446">
        <time>2026-06-11T22:38:02Z</time>
      </trkpt>
      <trkpt lat="23.059594" lon="113.286454">
        <time>2026-06-11T22:38:07Z</time>
      </trkpt>
      <trkpt lat="23.059714" lon="113.286458">
        <time>2026-06-11T22:38:12Z</time>
      </trkpt>
      <trkpt lat="23.059796" lon="113.286459">
        <time>2026-06-11T22:38:17Z</time>
      </trkpt>
      <trkpt lat="23.059922" lon="113.286457">
        <time>2026-06-11T22:38:22Z</time>
      </trkpt>
      <trkpt lat="23.059999" lon="113.286475">
        <time>2026-06-11T22:38:27Z</time>
      </trkpt>
      <trkpt lat="23.060075" lon="113.286553">
        <time>2026-06-11T22:38:32Z</time>
      </trkpt>
      <trkpt lat="23.060087" lon="113.286646">
        <time>2026-06-11T22:38:37Z</time>
      </trkpt>
      <trkpt lat="23.060095" lon="113.286773">
        <time>2026-06-11T22:38:42Z</time>
      </trkpt>
      <trkpt lat="23.060117" lon="113.286852">
        <time>2026-06-11T22:38:47Z</time>
      </trkpt>
      <trkpt lat="23.06018" lon="113.286942">
        <time>2026-06-11T22:38:52Z</time>
      </trkpt>
      <trkpt lat="23.060224" lon="113.287005">
        <time>2026-06-11T22:38:57Z</time>
      </trkpt>
      <trkpt lat="23.060271" lon="113.28714">
        <time>2026-06-11T22:39:02Z</time>
      </trkpt>
      <trkpt lat="23.060284" lon="113.287216">
        <time>2026-06-11T22:39:07Z</time>
      </trkpt>
      <trkpt lat="23.060301" lon="113.287325">
        <time>2026-06-11T22:39:12Z</time>
      </trkpt>
      <trkpt lat="23.060341" lon="113.287431">
        <time>2026-06-11T22:39:17Z</time>
      </trkpt>
      <trkpt lat="23.060382" lon="113.287602">
        <time>2026-06-11T22:39:22Z</time>
      </trkpt>
      <trkpt lat="23.060331" lon="113.28773">
        <time>2026-06-11T22:39:27Z</time>
      </trkpt>
      <trkpt lat="23.060256" lon="113.287893">
        <time>2026-06-11T22:39:32Z</time>
      </trkpt>
      <trkpt lat="23.060299" lon="113.287915">
        <time>2026-06-11T22:39:37Z</time>
      </trkpt>
      <trkpt lat="23.060327" lon="113.287821">
        <time>2026-06-11T22:39:42Z</time>
      </trkpt>
      <trkpt lat="23.06031" lon="113.287739">
        <time>2026-06-11T22:39:47Z</time>
      </trkpt>
      <trkpt lat="23.060272" lon="113.287601">
        <time>2026-06-11T22:39:52Z</time>
      </trkpt>
      <trkpt lat="23.060249" lon="113.287501">
        <time>2026-06-11T22:39:57Z</time>
      </trkpt>
      <trkpt lat="23.060203" lon="113.287364">
        <time>2026-06-11T22:40:02Z</time>
      </trkpt>
      <trkpt lat="23.060178" lon="113.287283">
        <time>2026-06-11T22:40:07Z</time>
      </trkpt>
      <trkpt lat="23.060133" lon="113.287158">
        <time>2026-06-11T22:40:12Z</time>
      </trkpt>
      <trkpt lat="23.060129" lon="113.28707">
        <time>2026-06-11T22:40:17Z</time>
      </trkpt>
      <trkpt lat="23.060134" lon="113.286942">
        <time>2026-06-11T22:40:22Z</time>
      </trkpt>
      <trkpt lat="23.0602" lon="113.286845">
        <time>2026-06-11T22:40:27Z</time>
      </trkpt>
      <trkpt lat="23.06025" lon="113.286701">
        <time>2026-06-11T22:40:32Z</time>
      </trkpt>
      <trkpt lat="23.060252" lon="113.286608">
        <time>2026-06-11T22:40:37Z</time>
      </trkpt>
      <trkpt lat="23.06031" lon="113.28652">
        <time>2026-06-11T22:40:42Z</time>
      </trkpt>
      <trkpt lat="23.060341" lon="113.286468">
        <time>2026-06-11T22:40:47Z</time>
      </trkpt>
      <trkpt lat="23.06024" lon="113.28643">
        <time>2026-06-11T22:40:52Z</time>
      </trkpt>
      <trkpt lat="23.060152" lon="113.286407">
        <time>2026-06-11T22:40:57Z</time>
      </trkpt>
      <trkpt lat="23.060029" lon="113.286352">
        <time>2026-06-11T22:41:02Z</time>
      </trkpt>
      <trkpt lat="23.059946" lon="113.286306">
        <time>2026-06-11T22:41:07Z</time>
      </trkpt>
      <trkpt lat="23.059822" lon="113.286252">
        <time>2026-06-11T22:41:12Z</time>
      </trkpt>
      <trkpt lat="23.059741" lon="113.286224">
        <time>2026-06-11T22:41:17Z</time>
      </trkpt>
      <trkpt lat="23.059618" lon="113.286196">
        <time>2026-06-11T22:41:22Z</time>
      </trkpt>
      <trkpt lat="23.05953" lon="113.286196">
        <time>2026-06-11T22:41:27Z</time>
      </trkpt>
      <trkpt lat="23.059419" lon="113.28619">
        <time>2026-06-11T22:41:32Z</time>
      </trkpt>
      <trkpt lat="23.059348" lon="113.286186">
        <time>2026-06-11T22:41:37Z</time>
      </trkpt>
      <trkpt lat="23.059237" lon="113.286186">
        <time>2026-06-11T22:41:42Z</time>
      </trkpt>
      <trkpt lat="23.059159" lon="113.286183">
        <time>2026-06-11T22:41:47Z</time>
      </trkpt>
      <trkpt lat="23.059049" lon="113.286129">
        <time>2026-06-11T22:41:52Z</time>
      </trkpt>
      <trkpt lat="23.059003" lon="113.286064">
        <time>2026-06-11T22:41:57Z</time>
      </trkpt>
      <trkpt lat="23.059007" lon="113.285942">
        <time>2026-06-11T22:42:02Z</time>
      </trkpt>
      <trkpt lat="23.059041" lon="113.285863">
        <time>2026-06-11T22:42:07Z</time>
      </trkpt>
      <trkpt lat="23.059099" lon="113.28575">
        <time>2026-06-11T22:42:12Z</time>
      </trkpt>
      <trkpt lat="23.059136" lon="113.285679">
        <time>2026-06-11T22:42:17Z</time>
      </trkpt>
      <trkpt lat="23.059197" lon="113.285574">
        <time>2026-06-11T22:42:22Z</time>
      </trkpt>
      <trkpt lat="23.059232" lon="113.285495">
        <time>2026-06-11T22:42:27Z</time>
      </trkpt>
      <trkpt lat="23.059253" lon="113.285363">
        <time>2026-06-11T22:42:32Z</time>
      </trkpt>
      <trkpt lat="23.059275" lon="113.285286">
        <time>2026-06-11T22:42:37Z</time>
      </trkpt>
      <trkpt lat="23.059324" lon="113.285179">
        <time>2026-06-11T22:42:42Z</time>
      </trkpt>
      <trkpt lat="23.059355" lon="113.285104">
        <time>2026-06-11T22:42:47Z</time>
      </trkpt>
      <trkpt lat="23.059396" lon="113.284987">
        <time>2026-06-11T22:42:52Z</time>
      </trkpt>
      <trkpt lat="23.059416" lon="113.2849">
        <time>2026-06-11T22:42:57Z</time>
      </trkpt>
      <trkpt lat="23.059455" lon="113.284779">
        <time>2026-06-11T22:43:02Z</time>
      </trkpt>
      <trkpt lat="23.059487" lon="113.284701">
        <time>2026-06-11T22:43:07Z</time>
      </trkpt>
      <trkpt lat="23.059535" lon="113.284583">
        <time>2026-06-11T22:43:12Z</time>
      </trkpt>
      <trkpt lat="23.05956" lon="113.284507">
        <time>2026-06-11T22:43:17Z</time>
      </trkpt>
      <trkpt lat="23.059594" lon="113.284391">
        <time>2026-06-11T22:43:22Z</time>
      </trkpt>
      <trkpt lat="23.059624" lon="113.284313">
        <time>2026-06-11T22:43:27Z</time>
      </trkpt>
      <trkpt lat="23.059672" lon="113.284192">
        <time>2026-06-11T22:43:32Z</time>
      </trkpt>
      <trkpt lat="23.059707" lon="113.28411">
        <time>2026-06-11T22:43:37Z</time>
      </trkpt>
      <trkpt lat="23.059766" lon="113.283991">
        <time>2026-06-11T22:43:42Z</time>
      </trkpt>
      <trkpt lat="23.059804" lon="113.283911">
        <time>2026-06-11T22:43:47Z</time>
      </trkpt>
      <trkpt lat="23.05985" lon="113.283784">
        <time>2026-06-11T22:43:52Z</time>
      </trkpt>
      <trkpt lat="23.059865" lon="113.283699">
        <time>2026-06-11T22:43:57Z</time>
      </trkpt>
      <trkpt lat="23.059892" lon="113.283576">
        <time>2026-06-11T22:44:02Z</time>
      </trkpt>
      <trkpt lat="23.059908" lon="113.28349">
        <time>2026-06-11T22:44:07Z</time>
      </trkpt>
      <trkpt lat="23.059944" lon="113.283361">
        <time>2026-06-11T22:44:12Z</time>
      </trkpt>
      <trkpt lat="23.059982" lon="113.283288">
        <time>2026-06-11T22:44:17Z</time>
      </trkpt>
      <trkpt lat="23.06006" lon="113.283178">
        <time>2026-06-11T22:44:22Z</time>
      </trkpt>
      <trkpt lat="23.0601" lon="113.283098">
        <time>2026-06-11T22:44:27Z</time>
      </trkpt>
      <trkpt lat="23.060152" lon="113.282968">
        <time>2026-06-11T22:44:32Z</time>
      </trkpt>
      <trkpt lat="23.060181" lon="113.282886">
        <time>2026-06-11T22:44:37Z</time>
      </trkpt>
      <trkpt lat="23.060229" lon="113.282768">
        <time>2026-06-11T22:44:42Z</time>
      </trkpt>
      <trkpt lat="23.060261" lon="113.282688">
        <time>2026-06-11T22:44:47Z</time>
      </trkpt>
      <trkpt lat="23.06031" lon="113.282559">
        <time>2026-06-11T22:44:52Z</time>
      </trkpt>
      <trkpt lat="23.060351" lon="113.282477">
        <time>2026-06-11T22:44:57Z</time>
      </trkpt>
      <trkpt lat="23.060401" lon="113.282347">
        <time>2026-06-11T22:45:02Z</time>
      </trkpt>
      <trkpt lat="23.060429" lon="113.282258">
        <time>2026-06-11T22:45:07Z</time>
      </trkpt>
      <trkpt lat="23.060473" lon="113.282127">
        <time>2026-06-11T22:45:12Z</time>
      </trkpt>
      <trkpt lat="23.060504" lon="113.282043">
        <time>2026-06-11T22:45:17Z</time>
      </trkpt>
      <trkpt lat="23.060559" lon="113.281926">
        <time>2026-06-11T22:45:22Z</time>
      </trkpt>
      <trkpt lat="23.060597" lon="113.281842">
        <time>2026-06-11T22:45:27Z</time>
      </trkpt>
      <trkpt lat="23.060652" lon="113.281715">
        <time>2026-06-11T22:45:32Z</time>
      </trkpt>
      <trkpt lat="23.060688" lon="113.281632">
        <time>2026-06-11T22:45:37Z</time>
      </trkpt>
      <trkpt lat="23.060742" lon="113.281505">
        <time>2026-06-11T22:45:42Z</time>
      </trkpt>
      <trkpt lat="23.060776" lon="113.281423">
        <time>2026-06-11T22:45:47Z</time>
      </trkpt>
      <trkpt lat="23.060828" lon="113.281303">
        <time>2026-06-11T22:45:52Z</time>
      </trkpt>
      <trkpt lat="23.06086" lon="113.281226">
        <time>2026-06-11T22:45:57Z</time>
      </trkpt>
      <trkpt lat="23.060907" lon="113.281108">
        <time>2026-06-11T22:46:02Z</time>
      </trkpt>
      <trkpt lat="23.060938" lon="113.281028">
        <time>2026-06-11T22:46:07Z</time>
      </trkpt>
      <trkpt lat="23.060984" lon="113.28091">
        <time>2026-06-11T22:46:12Z</time>
      </trkpt>
      <trkpt lat="23.061018" lon="113.28083">
        <time>2026-06-11T22:46:17Z</time>
      </trkpt>
      <trkpt lat="23.061076" lon="113.280714">
        <time>2026-06-11T22:46:22Z</time>
      </trkpt>
      <trkpt lat="23.061118" lon="113.280634">
        <time>2026-06-11T22:46:27Z</time>
      </trkpt>
      <trkpt lat="23.061173" lon="113.280519">
        <time>2026-06-11T22:46:32Z</time>
      </trkpt>
      <trkpt lat="23.061211" lon="113.280447">
        <time>2026-06-11T22:46:37Z</time>
      </trkpt>
      <trkpt lat="23.061262" lon="113.280334">
        <time>2026-06-11T22:46:42Z</time>
      </trkpt>
      <trkpt lat="23.061284" lon="113.280254">
        <time>2026-06-11T22:46:47Z</time>
      </trkpt>
      <trkpt lat="23.061339" lon="113.280144">
        <time>2026-06-11T22:46:52Z</time>
      </trkpt>
      <trkpt lat="23.061373" lon="113.280076">
        <time>2026-06-11T22:46:57Z</time>
      </trkpt>
      <trkpt lat="23.061422" lon="113.279968">
        <time>2026-06-11T22:47:02Z</time>
      </trkpt>
      <trkpt lat="23.061455" lon="113.279893">
        <time>2026-06-11T22:47:07Z</time>
      </trkpt>
      <trkpt lat="23.061501" lon="113.27978">
        <time>2026-06-11T22:47:12Z</time>
      </trkpt>
      <trkpt lat="23.061535" lon="113.279707">
        <time>2026-06-11T22:47:17Z</time>
      </trkpt>
      <trkpt lat="23.061581" lon="113.27959">
        <time>2026-06-11T22:47:22Z</time>
      </trkpt>
      <trkpt lat="23.061613" lon="113.279514">
        <time>2026-06-11T22:47:27Z</time>
      </trkpt>
      <trkpt lat="23.061657" lon="113.279398">
        <time>2026-06-11T22:47:32Z</time>
      </trkpt>
      <trkpt lat="23.061686" lon="113.279317">
        <time>2026-06-11T22:47:37Z</time>
      </trkpt>
      <trkpt lat="23.061731" lon="113.279198">
        <time>2026-06-11T22:47:42Z</time>
      </trkpt>
      <trkpt lat="23.061768" lon="113.279123">
        <time>2026-06-11T22:47:47Z</time>
      </trkpt>
      <trkpt lat="23.061844" lon="113.279018">
        <time>2026-06-11T22:47:52Z</time>
      </trkpt>
      <trkpt lat="23.061893" lon="113.278947">
        <time>2026-06-11T22:47:57Z</time>
      </trkpt>
      <trkpt lat="23.061952" lon="113.278823">
        <time>2026-06-11T22:48:02Z</time>
      </trkpt>
      <trkpt lat="23.061971" lon="113.278734">
        <time>2026-06-11T22:48:07Z</time>
      </trkpt>
      <trkpt lat="23.061971" lon="113.278596">
        <time>2026-06-11T22:48:12Z</time>
      </trkpt>
      <trkpt lat="23.061963" lon="113.278505">
        <time>2026-06-11T22:48:17Z</time>
      </trkpt>
      <trkpt lat="23.061959" lon="113.278371">
        <time>2026-06-11T22:48:22Z</time>
      </trkpt>
      <trkpt lat="23.061958" lon="113.27828">
        <time>2026-06-11T22:48:27Z</time>
      </trkpt>
      <trkpt lat="23.061956" lon="113.278138">
        <time>2026-06-11T22:48:32Z</time>
      </trkpt>
      <trkpt lat="23.061948" lon="113.278046">
        <time>2026-06-11T22:48:37Z</time>
      </trkpt>
      <trkpt lat="23.061947" lon="113.277913">
        <time>2026-06-11T22:48:42Z</time>
      </trkpt>
      <trkpt lat="23.061956" lon="113.277822">
        <time>2026-06-11T22:48:47Z</time>
      </trkpt>
      <trkpt lat="23.061982" lon="113.27768">
        <time>2026-06-11T22:48:52Z</time>
      </trkpt>
      <trkpt lat="23.062008" lon="113.277588">
        <time>2026-06-11T22:48:57Z</time>
      </trkpt>
      <trkpt lat="23.062053" lon="113.277465">
        <time>2026-06-11T22:49:02Z</time>
      </trkpt>
      <trkpt lat="23.062085" lon="113.277382">
        <time>2026-06-11T22:49:07Z</time>
      </trkpt>
      <trkpt lat="23.062125" lon="113.277252">
        <time>2026-06-11T22:49:12Z</time>
      </trkpt>
      <trkpt lat="23.062154" lon="113.277166">
        <time>2026-06-11T22:49:17Z</time>
      </trkpt>
      <trkpt lat="23.062212" lon="113.277049">
        <time>2026-06-11T22:49:22Z</time>
      </trkpt>
      <trkpt lat="23.062243" lon="113.276968">
        <time>2026-06-11T22:49:27Z</time>
      </trkpt>
      <trkpt lat="23.062285" lon="113.27686">
        <time>2026-06-11T22:49:32Z</time>
      </trkpt>
      <trkpt lat="23.062296" lon="113.27684">
        <time>2026-06-11T22:49:37Z</time>
      </trkpt>
      <trkpt lat="23.062313" lon="113.276803">
        <time>2026-06-11T22:49:42Z</time>
      </trkpt>
      <trkpt lat="23.062338" lon="113.276718">
        <time>2026-06-11T22:49:47Z</time>
      </trkpt>
      <trkpt lat="23.062389" lon="113.276576">
        <time>2026-06-11T22:49:52Z</time>
      </trkpt>
      <trkpt lat="23.062422" lon="113.276486">
        <time>2026-06-11T22:49:57Z</time>
      </trkpt>
      <trkpt lat="23.062474" lon="113.276352">
        <time>2026-06-11T22:50:02Z</time>
      </trkpt>
      <trkpt lat="23.062504" lon="113.276261">
        <time>2026-06-11T22:50:07Z</time>
      </trkpt>
      <trkpt lat="23.062566" lon="113.276137">
        <time>2026-06-11T22:50:12Z</time>
      </trkpt>
      <trkpt lat="23.062616" lon="113.27606">
        <time>2026-06-11T22:50:17Z</time>
      </trkpt>
      <trkpt lat="23.062701" lon="113.275948">
        <time>2026-06-11T22:50:22Z</time>
      </trkpt>
      <trkpt lat="23.06276" lon="113.27588">
        <time>2026-06-11T22:50:27Z</time>
      </trkpt>
      <trkpt lat="23.062851" lon="113.275781">
        <time>2026-06-11T22:50:32Z</time>
      </trkpt>
      <trkpt lat="23.062911" lon="113.275716">
        <time>2026-06-11T22:50:37Z</time>
      </trkpt>
      <trkpt lat="23.063" lon="113.275616">
        <time>2026-06-11T22:50:42Z</time>
      </trkpt>
      <trkpt lat="23.063054" lon="113.275543">
        <time>2026-06-11T22:50:47Z</time>
      </trkpt>
      <trkpt lat="23.063118" lon="113.275429">
        <time>2026-06-11T22:50:52Z</time>
      </trkpt>
      <trkpt lat="23.063162" lon="113.275352">
        <time>2026-06-11T22:50:57Z</time>
      </trkpt>
      <trkpt lat="23.06323" lon="113.275242">
        <time>2026-06-11T22:51:02Z</time>
      </trkpt>
      <trkpt lat="23.063289" lon="113.275174">
        <time>2026-06-11T22:51:07Z</time>
      </trkpt>
      <trkpt lat="23.063366" lon="113.275066">
        <time>2026-06-11T22:51:12Z</time>
      </trkpt>
      <trkpt lat="23.0634" lon="113.274986">
        <time>2026-06-11T22:51:17Z</time>
      </trkpt>
      <trkpt lat="23.063437" lon="113.274859">
        <time>2026-06-11T22:51:22Z</time>
      </trkpt>
      <trkpt lat="23.063463" lon="113.27478">
        <time>2026-06-11T22:51:27Z</time>
      </trkpt>
      <trkpt lat="23.063507" lon="113.274661">
        <time>2026-06-11T22:51:32Z</time>
      </trkpt>
      <trkpt lat="23.063532" lon="113.274581">
        <time>2026-06-11T22:51:37Z</time>
      </trkpt>
      <trkpt lat="23.063575" lon="113.274464">
        <time>2026-06-11T22:51:42Z</time>
      </trkpt>
      <trkpt lat="23.06362" lon="113.274388">
        <time>2026-06-11T22:51:47Z</time>
      </trkpt>
      <trkpt lat="23.063703" lon="113.274286">
        <time>2026-06-11T22:51:52Z</time>
      </trkpt>
      <trkpt lat="23.063766" lon="113.274222">
        <time>2026-06-11T22:51:57Z</time>
      </trkpt>
      <trkpt lat="23.063856" lon="113.274127">
        <time>2026-06-11T22:52:02Z</time>
      </trkpt>
      <trkpt lat="23.063898" lon="113.274047">
        <time>2026-06-11T22:52:07Z</time>
      </trkpt>
      <trkpt lat="23.063958" lon="113.273917">
        <time>2026-06-11T22:52:12Z</time>
      </trkpt>
      <trkpt lat="23.063998" lon="113.273835">
        <time>2026-06-11T22:52:17Z</time>
      </trkpt>
      <trkpt lat="23.064084" lon="113.273732">
        <time>2026-06-11T22:52:22Z</time>
      </trkpt>
      <trkpt lat="23.064149" lon="113.273682">
        <time>2026-06-11T22:52:27Z</time>
      </trkpt>
      <trkpt lat="23.064248" lon="113.273611">
        <time>2026-06-11T22:52:32Z</time>
      </trkpt>
      <trkpt lat="23.064314" lon="113.273561">
        <time>2026-06-11T22:52:37Z</time>
      </trkpt>
      <trkpt lat="23.064414" lon="113.273475">
        <time>2026-06-11T22:52:42Z</time>
      </trkpt>
      <trkpt lat="23.064474" lon="113.273416">
        <time>2026-06-11T22:52:47Z</time>
      </trkpt>
      <trkpt lat="23.064561" lon="113.27331">
        <time>2026-06-11T22:52:52Z</time>
      </trkpt>
      <trkpt lat="23.064596" lon="113.273222">
        <time>2026-06-11T22:52:57Z</time>
      </trkpt>
      <trkpt lat="23.064589" lon="113.273081">
        <time>2026-06-11T22:53:02Z</time>
      </trkpt>
      <trkpt lat="23.06456" lon="113.272985">
        <time>2026-06-11T22:53:07Z</time>
      </trkpt>
      <trkpt lat="23.06451" lon="113.272845">
        <time>2026-06-11T22:53:12Z</time>
      </trkpt>
      <trkpt lat="23.06448" lon="113.272758">
        <time>2026-06-11T22:53:17Z</time>
      </trkpt>
      <trkpt lat="23.064452" lon="113.272621">
        <time>2026-06-11T22:53:22Z</time>
      </trkpt>
      <trkpt lat="23.064473" lon="113.272537">
        <time>2026-06-11T22:53:27Z</time>
      </trkpt>
      <trkpt lat="23.06455" lon="113.272423">
        <time>2026-06-11T22:53:32Z</time>
      </trkpt>
      <trkpt lat="23.064569" lon="113.272327">
        <time>2026-06-11T22:53:37Z</time>
      </trkpt>
      <trkpt lat="23.064591" lon="113.272181">
        <time>2026-06-11T22:53:42Z</time>
      </trkpt>
      <trkpt lat="23.064625" lon="113.272097">
        <time>2026-06-11T22:53:47Z</time>
      </trkpt>
      <trkpt lat="23.064681" lon="113.271981">
        <time>2026-06-11T22:53:52Z</time>
      </trkpt>
      <trkpt lat="23.064716" lon="113.271906">
        <time>2026-06-11T22:53:57Z</time>
      </trkpt>
      <trkpt lat="23.064773" lon="113.271789">
        <time>2026-06-11T22:54:02Z</time>
      </trkpt>
      <trkpt lat="23.064813" lon="113.271711">
        <time>2026-06-11T22:54:07Z</time>
      </trkpt>
      <trkpt lat="23.064875" lon="113.271599">
        <time>2026-06-11T22:54:12Z</time>
      </trkpt>
      <trkpt lat="23.06491" lon="113.271522">
        <time>2026-06-11T22:54:17Z</time>
      </trkpt>
      <trkpt lat="23.06497" lon="113.271409">
        <time>2026-06-11T22:54:22Z</time>
      </trkpt>
      <trkpt lat="23.065012" lon="113.271334">
        <time>2026-06-11T22:54:27Z</time>
      </trkpt>
      <trkpt lat="23.065074" lon="113.271216">
        <time>2026-06-11T22:54:32Z</time>
      </trkpt>
      <trkpt lat="23.065119" lon="113.271142">
        <time>2026-06-11T22:54:37Z</time>
      </trkpt>
      <trkpt lat="23.065173" lon="113.271016">
        <time>2026-06-11T22:54:42Z</time>
      </trkpt>
      <trkpt lat="23.065205" lon="113.270928">
        <time>2026-06-11T22:54:47Z</time>
      </trkpt>
      <trkpt lat="23.065252" lon="113.270793">
        <time>2026-06-11T22:54:52Z</time>
      </trkpt>
      <trkpt lat="23.065286" lon="113.270705">
        <time>2026-06-11T22:54:57Z</time>
      </trkpt>
      <trkpt lat="23.065343" lon="113.270576">
        <time>2026-06-11T22:55:02Z</time>
      </trkpt>
      <trkpt lat="23.065382" lon="113.270489">
        <time>2026-06-11T22:55:07Z</time>
      </trkpt>
      <trkpt lat="23.065437" lon="113.270362">
        <time>2026-06-11T22:55:12Z</time>
      </trkpt>
      <trkpt lat="23.065477" lon="113.270279">
        <time>2026-06-11T22:55:17Z</time>
      </trkpt>
      <trkpt lat="23.065525" lon="113.270144">
        <time>2026-06-11T22:55:22Z</time>
      </trkpt>
      <trkpt lat="23.065553" lon="113.27006">
        <time>2026-06-11T22:55:27Z</time>
      </trkpt>
      <trkpt lat="23.065597" lon="113.269928">
        <time>2026-06-11T22:55:32Z</time>
      </trkpt>
      <trkpt lat="23.065623" lon="113.269837">
        <time>2026-06-11T22:55:37Z</time>
      </trkpt>
      <trkpt lat="23.065673" lon="113.269706">
        <time>2026-06-11T22:55:42Z</time>
      </trkpt>
      <trkpt lat="23.065716" lon="113.269621">
        <time>2026-06-11T22:55:47Z</time>
      </trkpt>
      <trkpt lat="23.065743" lon="113.269479">
        <time>2026-06-11T22:55:52Z</time>
      </trkpt>
      <trkpt lat="23.065763" lon="113.269384">
        <time>2026-06-11T22:55:57Z</time>
      </trkpt>
      <trkpt lat="23.065794" lon="113.269246">
        <time>2026-06-11T22:56:02Z</time>
      </trkpt>
      <trkpt lat="23.065816" lon="113.269158">
        <time>2026-06-11T22:56:07Z</time>
      </trkpt>
      <trkpt lat="23.065863" lon="113.269034">
        <time>2026-06-11T22:56:12Z</time>
      </trkpt>
      <trkpt lat="23.0659" lon="113.268949">
        <time>2026-06-11T22:56:17Z</time>
      </trkpt>
      <trkpt lat="23.065948" lon="113.268822">
        <time>2026-06-11T22:56:22Z</time>
      </trkpt>
      <trkpt lat="23.065981" lon="113.268741">
        <time>2026-06-11T22:56:27Z</time>
      </trkpt>
      <trkpt lat="23.066034" lon="113.268622">
        <time>2026-06-11T22:56:32Z</time>
      </trkpt>
      <trkpt lat="23.066076" lon="113.268544">
        <time>2026-06-11T22:56:37Z</time>
      </trkpt>
      <trkpt lat="23.066145" lon="113.268434">
        <time>2026-06-11T22:56:42Z</time>
      </trkpt>
      <trkpt lat="23.066189" lon="113.268366">
        <time>2026-06-11T22:56:47Z</time>
      </trkpt>
      <trkpt lat="23.066267" lon="113.268269">
        <time>2026-06-11T22:56:52Z</time>
      </trkpt>
      <trkpt lat="23.066333" lon="113.268215">
        <time>2026-06-11T22:56:57Z</time>
      </trkpt>
      <trkpt lat="23.066449" lon="113.268159">
        <time>2026-06-11T22:57:02Z</time>
      </trkpt>
      <trkpt lat="23.066537" lon="113.268153">
        <time>2026-06-11T22:57:07Z</time>
      </trkpt>
      <trkpt lat="23.066661" lon="113.268178">
        <time>2026-06-11T22:57:12Z</time>
      </trkpt>
      <trkpt lat="23.066744" lon="113.268189">
        <time>2026-06-11T22:57:17Z</time>
      </trkpt>
      <trkpt lat="23.066873" lon="113.268183">
        <time>2026-06-11T22:57:22Z</time>
      </trkpt>
      <trkpt lat="23.066958" lon="113.268191">
        <time>2026-06-11T22:57:27Z</time>
      </trkpt>
      <trkpt lat="23.067068" lon="113.268246">
        <time>2026-06-11T22:57:32Z</time>
      </trkpt>
      <trkpt lat="23.067137" lon="113.268285">
        <time>2026-06-11T22:57:37Z</time>
      </trkpt>
      <trkpt lat="23.067247" lon="113.268346">
        <time>2026-06-11T22:57:42Z</time>
      </trkpt>
      <trkpt lat="23.067315" lon="113.268395">
        <time>2026-06-11T22:57:47Z</time>
      </trkpt>
      <trkpt lat="23.067409" lon="113.26845">
        <time>2026-06-11T22:57:52Z</time>
      </trkpt>
      <trkpt lat="23.067482" lon="113.268494">
        <time>2026-06-11T22:57:57Z</time>
      </trkpt>
      <trkpt lat="23.067609" lon="113.268565">
        <time>2026-06-11T22:58:02Z</time>
      </trkpt>
      <trkpt lat="23.067692" lon="113.268607">
        <time>2026-06-11T22:58:07Z</time>
      </trkpt>
      <trkpt lat="23.067817" lon="113.26866">
        <time>2026-06-11T22:58:12Z</time>
      </trkpt>
      <trkpt lat="23.067905" lon="113.268692">
        <time>2026-06-11T22:58:17Z</time>
      </trkpt>
      <trkpt lat="23.068028" lon="113.26875">
        <time>2026-06-11T22:58:22Z</time>
      </trkpt>
      <trkpt lat="23.0681" lon="113.268784">
        <time>2026-06-11T22:58:27Z</time>
      </trkpt>
      <trkpt lat="23.068212" lon="113.268828">
        <time>2026-06-11T22:58:32Z</time>
      </trkpt>
      <trkpt lat="23.068289" lon="113.268854">
        <time>2026-06-11T22:58:37Z</time>
      </trkpt>
      <trkpt lat="23.068406" lon="113.268902">
        <time>2026-06-11T22:58:42Z</time>
      </trkpt>
      <trkpt lat="23.06849" lon="113.268947">
        <time>2026-06-11T22:58:47Z</time>
      </trkpt>
      <trkpt lat="23.068613" lon="113.269016">
        <time>2026-06-11T22:58:52Z</time>
      </trkpt>
      <trkpt lat="23.068689" lon="113.269064">
        <time>2026-06-11T22:58:57Z</time>
      </trkpt>
      <trkpt lat="23.068803" lon="113.269119">
        <time>2026-06-11T22:59:02Z</time>
      </trkpt>
      <trkpt lat="23.068879" lon="113.269153">
        <time>2026-06-11T22:59:07Z</time>
      </trkpt>
      <trkpt lat="23.068987" lon="113.269211">
        <time>2026-06-11T22:59:12Z</time>
      </trkpt>
      <trkpt lat="23.069062" lon="113.269245">
        <time>2026-06-11T22:59:17Z</time>
      </trkpt>
      <trkpt lat="23.069178" lon="113.269301">
        <time>2026-06-11T22:59:22Z</time>
      </trkpt>
      <trkpt lat="23.069242" lon="113.269366">
        <time>2026-06-11T22:59:27Z</time>
      </trkpt>
      <trkpt lat="23.069361" lon="113.269426">
        <time>2026-06-11T22:59:32Z</time>
      </trkpt>
      <trkpt lat="23.069445" lon="113.269456">
        <time>2026-06-11T22:59:37Z</time>
      </trkpt>
      <trkpt lat="23.06957" lon="113.269505">
        <time>2026-06-11T22:59:42Z</time>
      </trkpt>
      <trkpt lat="23.069656" lon="113.269539">
        <time>2026-06-11T22:59:47Z</time>
      </trkpt>
      <trkpt lat="23.069777" lon="113.269609">
        <time>2026-06-11T22:59:52Z</time>
      </trkpt>
      <trkpt lat="23.069848" lon="113.26967">
        <time>2026-06-11T22:59:57Z</time>
      </trkpt>
      <trkpt lat="23.069958" lon="113.269729">
        <time>2026-06-11T23:00:02Z</time>
      </trkpt>
      <trkpt lat="23.070026" lon="113.269778">
        <time>2026-06-11T23:00:07Z</time>
      </trkpt>
      <trkpt lat="23.070138" lon="113.269844">
        <time>2026-06-11T23:00:12Z</time>
      </trkpt>
      <trkpt lat="23.070212" lon="113.269888">
        <time>2026-06-11T23:00:17Z</time>
      </trkpt>
      <trkpt lat="23.070315" lon="113.269967">
        <time>2026-06-11T23:00:22Z</time>
      </trkpt>
      <trkpt lat="23.070398" lon="113.269986">
        <time>2026-06-11T23:00:27Z</time>
      </trkpt>
      <trkpt lat="23.070506" lon="113.269989">
        <time>2026-06-11T23:00:32Z</time>
      </trkpt>
      <trkpt lat="23.07057" lon="113.270003">
        <time>2026-06-11T23:00:37Z</time>
      </trkpt>
      <trkpt lat="23.070683" lon="113.270022">
        <time>2026-06-11T23:00:42Z</time>
      </trkpt>
      <trkpt lat="23.07076" lon="113.270039">
        <time>2026-06-11T23:00:47Z</time>
      </trkpt>
      <trkpt lat="23.070877" lon="113.270095">
        <time>2026-06-11T23:00:52Z</time>
      </trkpt>
      <trkpt lat="23.070936" lon="113.270158">
        <time>2026-06-11T23:00:57Z</time>
      </trkpt>
      <trkpt lat="23.071049" lon="113.270226">
        <time>2026-06-11T23:01:02Z</time>
      </trkpt>
      <trkpt lat="23.071114" lon="113.270262">
        <time>2026-06-11T23:01:07Z</time>
      </trkpt>
      <trkpt lat="23.071229" lon="113.270327">
        <time>2026-06-11T23:01:12Z</time>
      </trkpt>
      <trkpt lat="23.071303" lon="113.270364">
        <time>2026-06-11T23:01:17Z</time>
      </trkpt>
      <trkpt lat="23.071411" lon="113.270417">
        <time>2026-06-11T23:01:22Z</time>
      </trkpt>
      <trkpt lat="23.071491" lon="113.270458">
        <time>2026-06-11T23:01:27Z</time>
      </trkpt>
      <trkpt lat="23.071615" lon="113.270516">
        <time>2026-06-11T23:01:32Z</time>
      </trkpt>
      <trkpt lat="23.071689" lon="113.270554">
        <time>2026-06-11T23:01:37Z</time>
      </trkpt>
      <trkpt lat="23.071804" lon="113.270607">
        <time>2026-06-11T23:01:42Z</time>
      </trkpt>
      <trkpt lat="23.071891" lon="113.270636">
        <time>2026-06-11T23:01:47Z</time>
      </trkpt>
      <trkpt lat="23.072014" lon="113.270689">
        <time>2026-06-11T23:01:52Z</time>
      </trkpt>
      <trkpt lat="23.07208" lon="113.270733">
        <time>2026-06-11T23:01:57Z</time>
      </trkpt>
      <trkpt lat="23.072182" lon="113.270809">
        <time>2026-06-11T23:02:02Z</time>
      </trkpt>
      <trkpt lat="23.072249" lon="113.270857">
        <time>2026-06-11T23:02:07Z</time>
      </trkpt>
      <trkpt lat="23.072362" lon="113.270888">
        <time>2026-06-11T23:02:12Z</time>
      </trkpt>
      <trkpt lat="23.07244" lon="113.270928">
        <time>2026-06-11T23:02:17Z</time>
      </trkpt>
      <trkpt lat="23.072557" lon="113.270991">
        <time>2026-06-11T23:02:22Z</time>
      </trkpt>
      <trkpt lat="23.072637" lon="113.271021">
        <time>2026-06-11T23:02:27Z</time>
      </trkpt>
      <trkpt lat="23.072734" lon="113.271049">
        <time>2026-06-11T23:02:32Z</time>
      </trkpt>
      <trkpt lat="23.072808" lon="113.271075">
        <time>2026-06-11T23:02:37Z</time>
      </trkpt>
      <trkpt lat="23.07293" lon="113.271131">
        <time>2026-06-11T23:02:42Z</time>
      </trkpt>
      <trkpt lat="23.07302" lon="113.271177">
        <time>2026-06-11T23:02:47Z</time>
      </trkpt>
      <trkpt lat="23.073147" lon="113.271245">
        <time>2026-06-11T23:02:52Z</time>
      </trkpt>
      <trkpt lat="23.073213" lon="113.271288">
        <time>2026-06-11T23:02:57Z</time>
      </trkpt>
      <trkpt lat="23.073324" lon="113.271347">
        <time>2026-06-11T23:03:02Z</time>
      </trkpt>
      <trkpt lat="23.073399" lon="113.271395">
        <time>2026-06-11T23:03:07Z</time>
      </trkpt>
      <trkpt lat="23.073497" lon="113.271474">
        <time>2026-06-11T23:03:12Z</time>
      </trkpt>
      <trkpt lat="23.073563" lon="113.271535">
        <time>2026-06-11T23:03:17Z</time>
      </trkpt>
      <trkpt lat="23.073679" lon="113.271596">
        <time>2026-06-11T23:03:22Z</time>
      </trkpt>
      <trkpt lat="23.073776" lon="113.271604">
        <time>2026-06-11T23:03:27Z</time>
      </trkpt>
      <trkpt lat="23.073907" lon="113.271621">
        <time>2026-06-11T23:03:32Z</time>
      </trkpt>
      <trkpt lat="23.073986" lon="113.271639">
        <time>2026-06-11T23:03:37Z</time>
      </trkpt>
      <trkpt lat="23.074064" lon="113.271729">
        <time>2026-06-11T23:03:42Z</time>
      </trkpt>
      <trkpt lat="23.074088" lon="113.27179">
        <time>2026-06-11T23:03:47Z</time>
      </trkpt>
      <trkpt lat="23.074038" lon="113.271897">
        <time>2026-06-11T23:03:52Z</time>
      </trkpt>
      <trkpt lat="23.074005" lon="113.271981">
        <time>2026-06-11T23:03:57Z</time>
      </trkpt>
      <trkpt lat="23.073962" lon="113.272116">
        <time>2026-06-11T23:04:02Z</time>
      </trkpt>
      <trkpt lat="23.073929" lon="113.272201">
        <time>2026-06-11T23:04:07Z</time>
      </trkpt>
      <trkpt lat="23.073864" lon="113.272337">
        <time>2026-06-11T23:04:12Z</time>
      </trkpt>
      <trkpt lat="23.07382" lon="113.272427">
        <time>2026-06-11T23:04:17Z</time>
      </trkpt>
      <trkpt lat="23.073771" lon="113.272564">
        <time>2026-06-11T23:04:22Z</time>
      </trkpt>
      <trkpt lat="23.073742" lon="113.272656">
        <time>2026-06-11T23:04:27Z</time>
      </trkpt>
      <trkpt lat="23.073734" lon="113.272817">
        <time>2026-06-11T23:04:32Z</time>
      </trkpt>
      <trkpt lat="23.073789" lon="113.272932">
        <time>2026-06-11T23:04:37Z</time>
      </trkpt>
      <trkpt lat="23.073925" lon="113.273003">
        <time>2026-06-11T23:04:42Z</time>
      </trkpt>
      <trkpt lat="23.074004" lon="113.272955">
        <time>2026-06-11T23:04:47Z</time>
      </trkpt>
      <trkpt lat="23.074066" lon="113.272825">
        <time>2026-06-11T23:04:52Z</time>
      </trkpt>
      <trkpt lat="23.074097" lon="113.272742">
        <time>2026-06-11T23:04:57Z</time>
      </trkpt>
      <trkpt lat="23.074151" lon="113.272625">
        <time>2026-06-11T23:05:02Z</time>
      </trkpt>
      <trkpt lat="23.074189" lon="113.272557">
        <time>2026-06-11T23:05:07Z</time>
      </trkpt>
      <trkpt lat="23.074253" lon="113.272437">
        <time>2026-06-11T23:05:12Z</time>
      </trkpt>
      <trkpt lat="23.074299" lon="113.272359">
        <time>2026-06-11T23:05:17Z</time>
      </trkpt>
      <trkpt lat="23.074344" lon="113.27225">
        <time>2026-06-11T23:05:22Z</time>
      </trkpt>
      <trkpt lat="23.07439" lon="113.272169">
        <time>2026-06-11T23:05:27Z</time>
      </trkpt>
      <trkpt lat="23.074476" lon="113.272088">
        <time>2026-06-11T23:05:32Z</time>
      </trkpt>
      <trkpt lat="23.074525" lon="113.272041">
        <time>2026-06-11T23:05:37Z</time>
      </trkpt>
      <trkpt lat="23.074622" lon="113.272074">
        <time>2026-06-11T23:05:42Z</time>
      </trkpt>
      <trkpt lat="23.07469" lon="113.272112">
        <time>2026-06-11T23:05:47Z</time>
      </trkpt>
      <trkpt lat="23.074782" lon="113.27217">
        <time>2026-06-11T23:05:52Z</time>
      </trkpt>
      <trkpt lat="23.074836" lon="113.272224">
        <time>2026-06-11T23:05:57Z</time>
      </trkpt>
      <trkpt lat="23.074926" lon="113.272306">
        <time>2026-06-11T23:06:02Z</time>
      </trkpt>
      <trkpt lat="23.074993" lon="113.272355">
        <time>2026-06-11T23:06:07Z</time>
      </trkpt>
      <trkpt lat="23.075108" lon="113.272421">
        <time>2026-06-11T23:06:12Z</time>
      </trkpt>
      <trkpt lat="23.075171" lon="113.272483">
        <time>2026-06-11T23:06:17Z</time>
      </trkpt>
      <trkpt lat="23.075213" lon="113.272616">
        <time>2026-06-11T23:06:22Z</time>
      </trkpt>
      <trkpt lat="23.075223" lon="113.2727">
        <time>2026-06-11T23:06:27Z</time>
      </trkpt>
      <trkpt lat="23.075249" lon="113.272816">
        <time>2026-06-11T23:06:32Z</time>
      </trkpt>
      <trkpt lat="23.075283" lon="113.272876">
        <time>2026-06-11T23:06:37Z</time>
      </trkpt>
      <trkpt lat="23.075304" lon="113.272988">
        <time>2026-06-11T23:06:42Z</time>
      </trkpt>
      <trkpt lat="23.075318" lon="113.273079">
        <time>2026-06-11T23:06:47Z</time>
      </trkpt>
      <trkpt lat="23.075387" lon="113.273234">
        <time>2026-06-11T23:06:52Z</time>
      </trkpt>
      <trkpt lat="23.075438" lon="113.273323">
        <time>2026-06-11T23:06:57Z</time>
      </trkpt>
      <trkpt lat="23.075571" lon="113.273404">
        <time>2026-06-11T23:07:02Z</time>
      </trkpt>
      <trkpt lat="23.07566" lon="113.273399">
        <time>2026-06-11T23:07:07Z</time>
      </trkpt>
      <trkpt lat="23.07577" lon="113.273298">
        <time>2026-06-11T23:07:12Z</time>
      </trkpt>
      <trkpt lat="23.075815" lon="113.273195">
        <time>2026-06-11T23:07:17Z</time>
      </trkpt>
      <trkpt lat="23.075883" lon="113.273077">
        <time>2026-06-11T23:07:22Z</time>
      </trkpt>
      <trkpt lat="23.075921" lon="113.273">
        <time>2026-06-11T23:07:27Z</time>
      </trkpt>
      <trkpt lat="23.075974" lon="113.272883">
        <time>2026-06-11T23:07:32Z</time>
      </trkpt>
      <trkpt lat="23.075986" lon="113.272804">
        <time>2026-06-11T23:07:37Z</time>
      </trkpt>
      <trkpt lat="23.075885" lon="113.272716">
        <time>2026-06-11T23:07:42Z</time>
      </trkpt>
      <trkpt lat="23.075805" lon="113.272668">
        <time>2026-06-11T23:07:47Z</time>
      </trkpt>
      <trkpt lat="23.075693" lon="113.272611">
        <time>2026-06-11T23:07:52Z</time>
      </trkpt>
      <trkpt lat="23.075619" lon="113.27258">
        <time>2026-06-11T23:07:57Z</time>
      </trkpt>
      <trkpt lat="23.075517" lon="113.272508">
        <time>2026-06-11T23:08:02Z</time>
      </trkpt>
      <trkpt lat="23.075452" lon="113.272462">
        <time>2026-06-11T23:08:07Z</time>
      </trkpt>
      <trkpt lat="23.075323" lon="113.272447">
        <time>2026-06-11T23:08:12Z</time>
      </trkpt>
      <trkpt lat="23.075262" lon="113.272499">
        <time>2026-06-11T23:08:17Z</time>
      </trkpt>
      <trkpt lat="23.075271" lon="113.272649">
        <time>2026-06-11T23:08:22Z</time>
      </trkpt>
      <trkpt lat="23.07529" lon="113.272746">
        <time>2026-06-11T23:08:27Z</time>
      </trkpt>
      <trkpt lat="23.075342" lon="113.272851">
        <time>2026-06-11T23:08:32Z</time>
      </trkpt>
      <trkpt lat="23.075373" lon="113.272928">
        <time>2026-06-11T23:08:37Z</time>
      </trkpt>
      <trkpt lat="23.075395" lon="113.273077">
        <time>2026-06-11T23:08:42Z</time>
      </trkpt>
      <trkpt lat="23.075431" lon="113.273175">
        <time>2026-06-11T23:08:47Z</time>
      </trkpt>
      <trkpt lat="23.075505" lon="113.27331">
        <time>2026-06-11T23:08:52Z</time>
      </trkpt>
      <trkpt lat="23.075572" lon="113.273386">
        <time>2026-06-11T23:08:57Z</time>
      </trkpt>
      <trkpt lat="23.075694" lon="113.273387">
        <time>2026-06-11T23:09:02Z</time>
      </trkpt>
      <trkpt lat="23.075774" lon="113.273317">
        <time>2026-06-11T23:09:07Z</time>
      </trkpt>
      <trkpt lat="23.075853" lon="113.273147">
        <time>2026-06-11T23:09:12Z</time>
      </trkpt>
    </trkseg>
  </trk>
</gpx>