<?xml version="1.0" encoding="UTF-8"?>
<gpx xmlns="http://www.topografix.com/GPX/1/1" xmlns:gpxtpx="http://www.garmin.com/xmlschemas/TrackPointExtension/v1" xmlns:xsi="http://www.w3.org/2001/XMLSchema-instance" xsi:schemaLocation="http://www.topografix.com/GPX/1/1 http://www.topografix.com/GPX/1/1/gpx.xsd" version="1.1" creator="gpx.py -- https://github.com/tkrajina/gpxpy">
  <trk>
    <name>gpx from joyrun</name>
    <trkseg>
      <trkpt lat="23.076132" lon="113.272843">
        <time>2026-06-10T21:50:41Z</time>
      </trkpt>
      <trkpt lat="23.075965" lon="113.272707">
        <time>2026-06-10T21:50:46Z</time>
      </trkpt>
      <trkpt lat="23.07589" lon="113.272684">
        <time>2026-06-10T21:50:51Z</time>
      </trkpt>
      <trkpt lat="23.075756" lon="113.27265">
        <time>2026-06-10T21:50:56Z</time>
      </trkpt>
      <trkpt lat="23.075665" lon="113.272587">
        <time>2026-06-10T21:51:01Z</time>
      </trkpt>
      <trkpt lat="23.075583" lon="113.272533">
        <time>2026-06-10T21:51:06Z</time>
      </trkpt>
      <trkpt lat="23.075405" lon="113.272457">
        <time>2026-06-10T21:51:11Z</time>
      </trkpt>
      <trkpt lat="23.075307" lon="113.272417">
        <time>2026-06-10T21:51:16Z</time>
      </trkpt>
      <trkpt lat="23.075175" lon="113.27235">
        <time>2026-06-10T21:51:21Z</time>
      </trkpt>
      <trkpt lat="23.075093" lon="113.272287">
        <time>2026-06-10T21:51:26Z</time>
      </trkpt>
      <trkpt lat="23.074958" lon="113.272209">
        <time>2026-06-10T21:51:31Z</time>
      </trkpt>
      <trkpt lat="23.074869" lon="113.272143">
        <time>2026-06-10T21:51:36Z</time>
      </trkpt>
      <trkpt lat="23.074746" lon="113.272055">
        <time>2026-06-10T21:51:41Z</time>
      </trkpt>
      <trkpt lat="23.074653" lon="113.272001">
        <time>2026-06-10T21:51:46Z</time>
      </trkpt>
      <trkpt lat="23.074512" lon="113.271939">
        <time>2026-06-10T21:51:51Z</time>
      </trkpt>
      <trkpt lat="23.074434" lon="113.271979">
        <time>2026-06-10T21:51:56Z</time>
      </trkpt>
      <trkpt lat="23.074354" lon="113.272104">
        <time>2026-06-10T21:52:01Z</time>
      </trkpt>
      <trkpt lat="23.074321" lon="113.272216">
        <time>2026-06-10T21:52:06Z</time>
      </trkpt>
      <trkpt lat="23.074259" lon="113.272364">
        <time>2026-06-10T21:52:11Z</time>
      </trkpt>
      <trkpt lat="23.07422" lon="113.272462">
        <time>2026-06-10T21:52:16Z</time>
      </trkpt>
      <trkpt lat="23.074163" lon="113.272613">
        <time>2026-06-10T21:52:21Z</time>
      </trkpt>
      <trkpt lat="23.074124" lon="113.272709">
        <time>2026-06-10T21:52:26Z</time>
      </trkpt>
      <trkpt lat="23.074058" lon="113.27286">
        <time>2026-06-10T21:52:31Z</time>
      </trkpt>
      <trkpt lat="23.074016" lon="113.272957">
        <time>2026-06-10T21:52:36Z</time>
      </trkpt>
      <trkpt lat="23.073967" lon="113.273101">
        <time>2026-06-10T21:52:41Z</time>
      </trkpt>
      <trkpt lat="23.073932" lon="113.2732">
        <time>2026-06-10T21:52:46Z</time>
      </trkpt>
      <trkpt lat="23.073872" lon="113.273297">
        <time>2026-06-10T21:52:51Z</time>
      </trkpt>
      <trkpt lat="23.073889" lon="113.273235">
        <time>2026-06-10T21:52:56Z</time>
      </trkpt>
      <trkpt lat="23.073938" lon="113.273097">
        <time>2026-06-10T21:53:01Z</time>
      </trkpt>
      <trkpt lat="23.073945" lon="113.27302">
        <time>2026-06-10T21:53:06Z</time>
      </trkpt>
      <trkpt lat="23.073837" lon="113.272954">
        <time>2026-06-10T21:53:11Z</time>
      </trkpt>
      <trkpt lat="23.073758" lon="113.272907">
        <time>2026-06-10T21:53:16Z</time>
      </trkpt>
      <trkpt lat="23.07372" lon="113.272787">
        <time>2026-06-10T21:53:21Z</time>
      </trkpt>
      <trkpt lat="23.073755" lon="113.272696">
        <time>2026-06-10T21:53:26Z</time>
      </trkpt>
      <trkpt lat="23.073816" lon="113.272551">
        <time>2026-06-10T21:53:31Z</time>
      </trkpt>
      <trkpt lat="23.07386" lon="113.272465">
        <time>2026-06-10T21:53:36Z</time>
      </trkpt>
      <trkpt lat="23.073925" lon="113.272331">
        <time>2026-06-10T21:53:41Z</time>
      </trkpt>
      <trkpt lat="23.073961" lon="113.272237">
        <time>2026-06-10T21:53:46Z</time>
      </trkpt>
      <trkpt lat="23.074017" lon="113.272105">
        <time>2026-06-10T21:53:51Z</time>
      </trkpt>
      <trkpt lat="23.074061" lon="113.272023">
        <time>2026-06-10T21:53:56Z</time>
      </trkpt>
      <trkpt lat="23.074119" lon="113.271897">
        <time>2026-06-10T21:54:01Z</time>
      </trkpt>
      <trkpt lat="23.074149" lon="113.271804">
        <time>2026-06-10T21:54:06Z</time>
      </trkpt>
      <trkpt lat="23.074137" lon="113.27166">
        <time>2026-06-10T21:54:11Z</time>
      </trkpt>
      <trkpt lat="23.074109" lon="113.271544">
        <time>2026-06-10T21:54:16Z</time>
      </trkpt>
      <trkpt lat="23.073974" lon="113.271437">
        <time>2026-06-10T21:54:21Z</time>
      </trkpt>
      <trkpt lat="23.073872" lon="113.271382">
        <time>2026-06-10T21:54:26Z</time>
      </trkpt>
      <trkpt lat="23.073715" lon="113.271321">
        <time>2026-06-10T21:54:31Z</time>
      </trkpt>
      <trkpt lat="23.073625" lon="113.271287">
        <time>2026-06-10T21:54:36Z</time>
      </trkpt>
      <trkpt lat="23.073459" lon="113.271284">
        <time>2026-06-10T21:54:41Z</time>
      </trkpt>
      <trkpt lat="23.073344" lon="113.271253">
        <time>2026-06-10T21:54:46Z</time>
      </trkpt>
      <trkpt lat="23.073179" lon="113.271204">
        <time>2026-06-10T21:54:51Z</time>
      </trkpt>
      <trkpt lat="23.073082" lon="113.271176">
        <time>2026-06-10T21:54:56Z</time>
      </trkpt>
      <trkpt lat="23.072964" lon="113.271098">
        <time>2026-06-10T21:55:01Z</time>
      </trkpt>
      <trkpt lat="23.072882" lon="113.271055">
        <time>2026-06-10T21:55:06Z</time>
      </trkpt>
      <trkpt lat="23.072747" lon="113.271">
        <time>2026-06-10T21:55:11Z</time>
      </trkpt>
      <trkpt lat="23.072656" lon="113.270957">
        <time>2026-06-10T21:55:16Z</time>
      </trkpt>
      <trkpt lat="23.072502" lon="113.270905">
        <time>2026-06-10T21:55:21Z</time>
      </trkpt>
      <trkpt lat="23.072411" lon="113.270874">
        <time>2026-06-10T21:55:26Z</time>
      </trkpt>
      <trkpt lat="23.072272" lon="113.270807">
        <time>2026-06-10T21:55:31Z</time>
      </trkpt>
      <trkpt lat="23.07218" lon="113.270747">
        <time>2026-06-10T21:55:36Z</time>
      </trkpt>
      <trkpt lat="23.072043" lon="113.270661">
        <time>2026-06-10T21:55:41Z</time>
      </trkpt>
      <trkpt lat="23.071936" lon="113.270616">
        <time>2026-06-10T21:55:46Z</time>
      </trkpt>
      <trkpt lat="23.071779" lon="113.270521">
        <time>2026-06-10T21:55:51Z</time>
      </trkpt>
      <trkpt lat="23.071677" lon="113.270472">
        <time>2026-06-10T21:55:56Z</time>
      </trkpt>
      <trkpt lat="23.071521" lon="113.270424">
        <time>2026-06-10T21:56:01Z</time>
      </trkpt>
      <trkpt lat="23.071419" lon="113.270388">
        <time>2026-06-10T21:56:06Z</time>
      </trkpt>
      <trkpt lat="23.071267" lon="113.270322">
        <time>2026-06-10T21:56:11Z</time>
      </trkpt>
      <trkpt lat="23.071164" lon="113.270277">
        <time>2026-06-10T21:56:16Z</time>
      </trkpt>
      <trkpt lat="23.071012" lon="113.270197">
        <time>2026-06-10T21:56:21Z</time>
      </trkpt>
      <trkpt lat="23.070919" lon="113.270146">
        <time>2026-06-10T21:56:26Z</time>
      </trkpt>
      <trkpt lat="23.070777" lon="113.270083">
        <time>2026-06-10T21:56:31Z</time>
      </trkpt>
      <trkpt lat="23.070686" lon="113.270022">
        <time>2026-06-10T21:56:36Z</time>
      </trkpt>
      <trkpt lat="23.07054" lon="113.269929">
        <time>2026-06-10T21:56:41Z</time>
      </trkpt>
      <trkpt lat="23.070437" lon="113.269899">
        <time>2026-06-10T21:56:46Z</time>
      </trkpt>
      <trkpt lat="23.070284" lon="113.26984">
        <time>2026-06-10T21:56:51Z</time>
      </trkpt>
      <trkpt lat="23.070184" lon="113.269783">
        <time>2026-06-10T21:56:56Z</time>
      </trkpt>
      <trkpt lat="23.070038" lon="113.269701">
        <time>2026-06-10T21:57:01Z</time>
      </trkpt>
      <trkpt lat="23.069944" lon="113.269648">
        <time>2026-06-10T21:57:06Z</time>
      </trkpt>
      <trkpt lat="23.069792" lon="113.269592">
        <time>2026-06-10T21:57:11Z</time>
      </trkpt>
      <trkpt lat="23.069694" lon="113.269542">
        <time>2026-06-10T21:57:16Z</time>
      </trkpt>
      <trkpt lat="23.069551" lon="113.269457">
        <time>2026-06-10T21:57:21Z</time>
      </trkpt>
      <trkpt lat="23.069458" lon="113.269407">
        <time>2026-06-10T21:57:26Z</time>
      </trkpt>
      <trkpt lat="23.069311" lon="113.269352">
        <time>2026-06-10T21:57:31Z</time>
      </trkpt>
      <trkpt lat="23.069221" lon="113.269301">
        <time>2026-06-10T21:57:36Z</time>
      </trkpt>
      <trkpt lat="23.069092" lon="113.269233">
        <time>2026-06-10T21:57:41Z</time>
      </trkpt>
      <trkpt lat="23.068998" lon="113.269208">
        <time>2026-06-10T21:57:46Z</time>
      </trkpt>
      <trkpt lat="23.06885" lon="113.269146">
        <time>2026-06-10T21:57:51Z</time>
      </trkpt>
      <trkpt lat="23.068759" lon="113.269096">
        <time>2026-06-10T21:57:56Z</time>
      </trkpt>
      <trkpt lat="23.068625" lon="113.269036">
        <time>2026-06-10T21:58:01Z</time>
      </trkpt>
      <trkpt lat="23.068536" lon="113.269023">
        <time>2026-06-10T21:58:06Z</time>
      </trkpt>
      <trkpt lat="23.068402" lon="113.268983">
        <time>2026-06-10T21:58:11Z</time>
      </trkpt>
      <trkpt lat="23.068311" lon="113.268949">
        <time>2026-06-10T21:58:16Z</time>
      </trkpt>
      <trkpt lat="23.068182" lon="113.268886">
        <time>2026-06-10T21:58:21Z</time>
      </trkpt>
      <trkpt lat="23.068092" lon="113.268843">
        <time>2026-06-10T21:58:26Z</time>
      </trkpt>
      <trkpt lat="23.067993" lon="113.268721">
        <time>2026-06-10T21:58:31Z</time>
      </trkpt>
      <trkpt lat="23.067929" lon="113.268605">
        <time>2026-06-10T21:58:36Z</time>
      </trkpt>
      <trkpt lat="23.067781" lon="113.268478">
        <time>2026-06-10T21:58:41Z</time>
      </trkpt>
      <trkpt lat="23.067676" lon="113.268413">
        <time>2026-06-10T21:58:46Z</time>
      </trkpt>
      <trkpt lat="23.067509" lon="113.268333">
        <time>2026-06-10T21:58:51Z</time>
      </trkpt>
      <trkpt lat="23.067396" lon="113.268285">
        <time>2026-06-10T21:58:56Z</time>
      </trkpt>
      <trkpt lat="23.067259" lon="113.268205">
        <time>2026-06-10T21:59:01Z</time>
      </trkpt>
      <trkpt lat="23.067172" lon="113.268172">
        <time>2026-06-10T21:59:06Z</time>
      </trkpt>
      <trkpt lat="23.067042" lon="113.268117">
        <time>2026-06-10T21:59:11Z</time>
      </trkpt>
      <trkpt lat="23.066943" lon="113.268075">
        <time>2026-06-10T21:59:16Z</time>
      </trkpt>
      <trkpt lat="23.066785" lon="113.268032">
        <time>2026-06-10T21:59:21Z</time>
      </trkpt>
      <trkpt lat="23.066683" lon="113.26802">
        <time>2026-06-10T21:59:26Z</time>
      </trkpt>
      <trkpt lat="23.066544" lon="113.267979">
        <time>2026-06-10T21:59:31Z</time>
      </trkpt>
      <trkpt lat="23.066442" lon="113.267954">
        <time>2026-06-10T21:59:36Z</time>
      </trkpt>
      <trkpt lat="23.06629" lon="113.267967">
        <time>2026-06-10T21:59:41Z</time>
      </trkpt>
      <trkpt lat="23.066211" lon="113.268016">
        <time>2026-06-10T21:59:46Z</time>
      </trkpt>
      <trkpt lat="23.066107" lon="113.268125">
        <time>2026-06-10T21:59:51Z</time>
      </trkpt>
      <trkpt lat="23.066037" lon="113.268213">
        <time>2026-06-10T21:59:56Z</time>
      </trkpt>
      <trkpt lat="23.065939" lon="113.268345">
        <time>2026-06-10T22:00:01Z</time>
      </trkpt>
      <trkpt lat="23.065875" lon="113.268432">
        <time>2026-06-10T22:00:06Z</time>
      </trkpt>
      <trkpt lat="23.065795" lon="113.268567">
        <time>2026-06-10T22:00:11Z</time>
      </trkpt>
      <trkpt lat="23.065745" lon="113.268662">
        <time>2026-06-10T22:00:16Z</time>
      </trkpt>
      <trkpt lat="23.065678" lon="113.26881">
        <time>2026-06-10T22:00:21Z</time>
      </trkpt>
      <trkpt lat="23.065645" lon="113.268912">
        <time>2026-06-10T22:00:26Z</time>
      </trkpt>
      <trkpt lat="23.065594" lon="113.269069">
        <time>2026-06-10T22:00:31Z</time>
      </trkpt>
      <trkpt lat="23.06556" lon="113.269175">
        <time>2026-06-10T22:00:36Z</time>
      </trkpt>
      <trkpt lat="23.065518" lon="113.269342">
        <time>2026-06-10T22:00:41Z</time>
      </trkpt>
      <trkpt lat="23.065493" lon="113.269453">
        <time>2026-06-10T22:00:46Z</time>
      </trkpt>
      <trkpt lat="23.065465" lon="113.269612">
        <time>2026-06-10T22:00:51Z</time>
      </trkpt>
      <trkpt lat="23.065438" lon="113.269717">
        <time>2026-06-10T22:00:56Z</time>
      </trkpt>
      <trkpt lat="23.065384" lon="113.269869">
        <time>2026-06-10T22:01:01Z</time>
      </trkpt>
      <trkpt lat="23.065346" lon="113.269969">
        <time>2026-06-10T22:01:06Z</time>
      </trkpt>
      <trkpt lat="23.065286" lon="113.270122">
        <time>2026-06-10T22:01:11Z</time>
      </trkpt>
      <trkpt lat="23.065241" lon="113.270224">
        <time>2026-06-10T22:01:16Z</time>
      </trkpt>
      <trkpt lat="23.065169" lon="113.270382">
        <time>2026-06-10T22:01:21Z</time>
      </trkpt>
      <trkpt lat="23.065119" lon="113.270484">
        <time>2026-06-10T22:01:26Z</time>
      </trkpt>
      <trkpt lat="23.065051" lon="113.270637">
        <time>2026-06-10T22:01:31Z</time>
      </trkpt>
      <trkpt lat="23.06501" lon="113.270736">
        <time>2026-06-10T22:01:36Z</time>
      </trkpt>
      <trkpt lat="23.064946" lon="113.270884">
        <time>2026-06-10T22:01:41Z</time>
      </trkpt>
      <trkpt lat="23.064906" lon="113.270986">
        <time>2026-06-10T22:01:46Z</time>
      </trkpt>
      <trkpt lat="23.064833" lon="113.271136">
        <time>2026-06-10T22:01:51Z</time>
      </trkpt>
      <trkpt lat="23.064782" lon="113.271239">
        <time>2026-06-10T22:01:56Z</time>
      </trkpt>
      <trkpt lat="23.064706" lon="113.27139">
        <time>2026-06-10T22:02:01Z</time>
      </trkpt>
      <trkpt lat="23.064662" lon="113.271492">
        <time>2026-06-10T22:02:06Z</time>
      </trkpt>
      <trkpt lat="23.064588" lon="113.271643">
        <time>2026-06-10T22:02:11Z</time>
      </trkpt>
      <trkpt lat="23.064543" lon="113.271746">
        <time>2026-06-10T22:02:16Z</time>
      </trkpt>
      <trkpt lat="23.064472" lon="113.271904">
        <time>2026-06-10T22:02:21Z</time>
      </trkpt>
      <trkpt lat="23.064423" lon="113.272014">
        <time>2026-06-10T22:02:26Z</time>
      </trkpt>
      <trkpt lat="23.064365" lon="113.272194">
        <time>2026-06-10T22:02:31Z</time>
      </trkpt>
      <trkpt lat="23.064356" lon="113.272324">
        <time>2026-06-10T22:02:36Z</time>
      </trkpt>
      <trkpt lat="23.064341" lon="113.272532">
        <time>2026-06-10T22:02:41Z</time>
      </trkpt>
      <trkpt lat="23.06435" lon="113.272672">
        <time>2026-06-10T22:02:46Z</time>
      </trkpt>
      <trkpt lat="23.064408" lon="113.27287">
        <time>2026-06-10T22:02:51Z</time>
      </trkpt>
      <trkpt lat="23.064449" lon="113.272998">
        <time>2026-06-10T22:02:56Z</time>
      </trkpt>
      <trkpt lat="23.064481" lon="113.273196">
        <time>2026-06-10T22:03:01Z</time>
      </trkpt>
      <trkpt lat="23.064426" lon="113.27332">
        <time>2026-06-10T22:03:06Z</time>
      </trkpt>
      <trkpt lat="23.064252" lon="113.27345">
        <time>2026-06-10T22:03:11Z</time>
      </trkpt>
      <trkpt lat="23.064131" lon="113.273529">
        <time>2026-06-10T22:03:16Z</time>
      </trkpt>
      <trkpt lat="23.063959" lon="113.273671">
        <time>2026-06-10T22:03:21Z</time>
      </trkpt>
      <trkpt lat="23.063867" lon="113.273784">
        <time>2026-06-10T22:03:26Z</time>
      </trkpt>
      <trkpt lat="23.063759" lon="113.273976">
        <time>2026-06-10T22:03:31Z</time>
      </trkpt>
      <trkpt lat="23.063677" lon="113.274093">
        <time>2026-06-10T22:03:36Z</time>
      </trkpt>
      <trkpt lat="23.063521" lon="113.274232">
        <time>2026-06-10T22:03:41Z</time>
      </trkpt>
      <trkpt lat="23.063436" lon="113.274358">
        <time>2026-06-10T22:03:46Z</time>
      </trkpt>
      <trkpt lat="23.06336" lon="113.274575">
        <time>2026-06-10T22:03:51Z</time>
      </trkpt>
      <trkpt lat="23.063323" lon="113.274714">
        <time>2026-06-10T22:03:56Z</time>
      </trkpt>
      <trkpt lat="23.063258" lon="113.274929">
        <time>2026-06-10T22:04:01Z</time>
      </trkpt>
      <trkpt lat="23.063203" lon="113.275064">
        <time>2026-06-10T22:04:06Z</time>
      </trkpt>
      <trkpt lat="23.063096" lon="113.275257">
        <time>2026-06-10T22:04:11Z</time>
      </trkpt>
      <trkpt lat="23.063027" lon="113.275388">
        <time>2026-06-10T22:04:16Z</time>
      </trkpt>
      <trkpt lat="23.062901" lon="113.275565">
        <time>2026-06-10T22:04:21Z</time>
      </trkpt>
      <trkpt lat="23.062808" lon="113.275664">
        <time>2026-06-10T22:04:26Z</time>
      </trkpt>
      <trkpt lat="23.062659" lon="113.275803">
        <time>2026-06-10T22:04:31Z</time>
      </trkpt>
      <trkpt lat="23.062566" lon="113.275901">
        <time>2026-06-10T22:04:36Z</time>
      </trkpt>
      <trkpt lat="23.062462" lon="113.276075">
        <time>2026-06-10T22:04:41Z</time>
      </trkpt>
      <trkpt lat="23.062401" lon="113.276196">
        <time>2026-06-10T22:04:46Z</time>
      </trkpt>
      <trkpt lat="23.062328" lon="113.276387">
        <time>2026-06-10T22:04:51Z</time>
      </trkpt>
      <trkpt lat="23.062283" lon="113.276516">
        <time>2026-06-10T22:04:56Z</time>
      </trkpt>
      <trkpt lat="23.062216" lon="113.276707">
        <time>2026-06-10T22:05:01Z</time>
      </trkpt>
      <trkpt lat="23.062175" lon="113.276831">
        <time>2026-06-10T22:05:06Z</time>
      </trkpt>
      <trkpt lat="23.06211" lon="113.27702">
        <time>2026-06-10T22:05:11Z</time>
      </trkpt>
      <trkpt lat="23.062057" lon="113.27715">
        <time>2026-06-10T22:05:16Z</time>
      </trkpt>
      <trkpt lat="23.061984" lon="113.277355">
        <time>2026-06-10T22:05:21Z</time>
      </trkpt>
      <trkpt lat="23.06193" lon="113.277491">
        <time>2026-06-10T22:05:26Z</time>
      </trkpt>
      <trkpt lat="23.061857" lon="113.277697">
        <time>2026-06-10T22:05:31Z</time>
      </trkpt>
      <trkpt lat="23.061834" lon="113.27784">
        <time>2026-06-10T22:05:36Z</time>
      </trkpt>
      <trkpt lat="23.061833" lon="113.278058">
        <time>2026-06-10T22:05:41Z</time>
      </trkpt>
      <trkpt lat="23.061841" lon="113.278197">
        <time>2026-06-10T22:05:46Z</time>
      </trkpt>
      <trkpt lat="23.061856" lon="113.278401">
        <time>2026-06-10T22:05:51Z</time>
      </trkpt>
      <trkpt lat="23.061862" lon="113.278538">
        <time>2026-06-10T22:05:56Z</time>
      </trkpt>
      <trkpt lat="23.061831" lon="113.278721">
        <time>2026-06-10T22:06:01Z</time>
      </trkpt>
      <trkpt lat="23.061752" lon="113.278772">
        <time>2026-06-10T22:06:06Z</time>
      </trkpt>
      <trkpt lat="23.061666" lon="113.278943">
        <time>2026-06-10T22:06:11Z</time>
      </trkpt>
      <trkpt lat="23.061617" lon="113.279077">
        <time>2026-06-10T22:06:16Z</time>
      </trkpt>
      <trkpt lat="23.061537" lon="113.27927">
        <time>2026-06-10T22:06:21Z</time>
      </trkpt>
      <trkpt lat="23.061483" lon="113.279401">
        <time>2026-06-10T22:06:26Z</time>
      </trkpt>
      <trkpt lat="23.06141" lon="113.279604">
        <time>2026-06-10T22:06:31Z</time>
      </trkpt>
      <trkpt lat="23.061355" lon="113.279737">
        <time>2026-06-10T22:06:36Z</time>
      </trkpt>
      <trkpt lat="23.061272" lon="113.279933">
        <time>2026-06-10T22:06:41Z</time>
      </trkpt>
      <trkpt lat="23.061215" lon="113.280067">
        <time>2026-06-10T22:06:46Z</time>
      </trkpt>
      <trkpt lat="23.06113" lon="113.280269">
        <time>2026-06-10T22:06:51Z</time>
      </trkpt>
      <trkpt lat="23.061072" lon="113.280403">
        <time>2026-06-10T22:06:56Z</time>
      </trkpt>
      <trkpt lat="23.060991" lon="113.280598">
        <time>2026-06-10T22:07:01Z</time>
      </trkpt>
      <trkpt lat="23.060931" lon="113.280719">
        <time>2026-06-10T22:07:06Z</time>
      </trkpt>
      <trkpt lat="23.060838" lon="113.280905">
        <time>2026-06-10T22:07:11Z</time>
      </trkpt>
      <trkpt lat="23.060778" lon="113.281034">
        <time>2026-06-10T22:07:16Z</time>
      </trkpt>
      <trkpt lat="23.060693" lon="113.281232">
        <time>2026-06-10T22:07:21Z</time>
      </trkpt>
      <trkpt lat="23.060641" lon="113.281365">
        <time>2026-06-10T22:07:26Z</time>
      </trkpt>
      <trkpt lat="23.060567" lon="113.281556">
        <time>2026-06-10T22:07:31Z</time>
      </trkpt>
      <trkpt lat="23.060518" lon="113.281687">
        <time>2026-06-10T22:07:36Z</time>
      </trkpt>
      <trkpt lat="23.060439" lon="113.281881">
        <time>2026-06-10T22:07:41Z</time>
      </trkpt>
      <trkpt lat="23.060379" lon="113.282009">
        <time>2026-06-10T22:07:46Z</time>
      </trkpt>
      <trkpt lat="23.060292" lon="113.282195">
        <time>2026-06-10T22:07:51Z</time>
      </trkpt>
      <trkpt lat="23.060237" lon="113.282322">
        <time>2026-06-10T22:07:56Z</time>
      </trkpt>
      <trkpt lat="23.06016" lon="113.282517">
        <time>2026-06-10T22:08:01Z</time>
      </trkpt>
      <trkpt lat="23.060103" lon="113.282642">
        <time>2026-06-10T22:08:06Z</time>
      </trkpt>
      <trkpt lat="23.060031" lon="113.282827">
        <time>2026-06-10T22:08:11Z</time>
      </trkpt>
      <trkpt lat="23.059981" lon="113.282951">
        <time>2026-06-10T22:08:16Z</time>
      </trkpt>
      <trkpt lat="23.05989" lon="113.283142">
        <time>2026-06-10T22:08:21Z</time>
      </trkpt>
      <trkpt lat="23.059832" lon="113.283274">
        <time>2026-06-10T22:08:26Z</time>
      </trkpt>
      <trkpt lat="23.059743" lon="113.283471">
        <time>2026-06-10T22:08:31Z</time>
      </trkpt>
      <trkpt lat="23.059693" lon="113.283603">
        <time>2026-06-10T22:08:36Z</time>
      </trkpt>
      <trkpt lat="23.05961" lon="113.283792">
        <time>2026-06-10T22:08:41Z</time>
      </trkpt>
      <trkpt lat="23.059548" lon="113.283912">
        <time>2026-06-10T22:08:46Z</time>
      </trkpt>
      <trkpt lat="23.059453" lon="113.284095">
        <time>2026-06-10T22:08:51Z</time>
      </trkpt>
      <trkpt lat="23.059386" lon="113.284222">
        <time>2026-06-10T22:08:56Z</time>
      </trkpt>
      <trkpt lat="23.059318" lon="113.284423">
        <time>2026-06-10T22:09:01Z</time>
      </trkpt>
      <trkpt lat="23.059291" lon="113.284565">
        <time>2026-06-10T22:09:06Z</time>
      </trkpt>
      <trkpt lat="23.059228" lon="113.284767">
        <time>2026-06-10T22:09:11Z</time>
      </trkpt>
      <trkpt lat="23.059163" lon="113.284889">
        <time>2026-06-10T22:09:16Z</time>
      </trkpt>
      <trkpt lat="23.059083" lon="113.285081">
        <time>2026-06-10T22:09:21Z</time>
      </trkpt>
      <trkpt lat="23.059093" lon="113.285159">
        <time>2026-06-10T22:09:26Z</time>
      </trkpt>
      <trkpt lat="23.059208" lon="113.284996">
        <time>2026-06-10T22:09:31Z</time>
      </trkpt>
      <trkpt lat="23.05927" lon="113.284853">
        <time>2026-06-10T22:09:36Z</time>
      </trkpt>
      <trkpt lat="23.059369" lon="113.284657">
        <time>2026-06-10T22:09:41Z</time>
      </trkpt>
      <trkpt lat="23.059435" lon="113.284534">
        <time>2026-06-10T22:09:46Z</time>
      </trkpt>
      <trkpt lat="23.059521" lon="113.284349">
        <time>2026-06-10T22:09:51Z</time>
      </trkpt>
      <trkpt lat="23.059579" lon="113.284225">
        <time>2026-06-10T22:09:56Z</time>
      </trkpt>
      <trkpt lat="23.059655" lon="113.284044">
        <time>2026-06-10T22:10:01Z</time>
      </trkpt>
      <trkpt lat="23.059705" lon="113.283921">
        <time>2026-06-10T22:10:06Z</time>
      </trkpt>
      <trkpt lat="23.05979" lon="113.283735">
        <time>2026-06-10T22:10:11Z</time>
      </trkpt>
      <trkpt lat="23.059842" lon="113.283612">
        <time>2026-06-10T22:10:16Z</time>
      </trkpt>
      <trkpt lat="23.059917" lon="113.283429">
        <time>2026-06-10T22:10:21Z</time>
      </trkpt>
      <trkpt lat="23.059971" lon="113.283299">
        <time>2026-06-10T22:10:26Z</time>
      </trkpt>
      <trkpt lat="23.060084" lon="113.283108">
        <time>2026-06-10T22:10:31Z</time>
      </trkpt>
      <trkpt lat="23.060158" lon="113.282977">
        <time>2026-06-10T22:10:36Z</time>
      </trkpt>
      <trkpt lat="23.060262" lon="113.28279">
        <time>2026-06-10T22:10:41Z</time>
      </trkpt>
      <trkpt lat="23.060329" lon="113.282667">
        <time>2026-06-10T22:10:46Z</time>
      </trkpt>
      <trkpt lat="23.060393" lon="113.282455">
        <time>2026-06-10T22:10:51Z</time>
      </trkpt>
      <trkpt lat="23.060439" lon="113.28231">
        <time>2026-06-10T22:10:56Z</time>
      </trkpt>
      <trkpt lat="23.060523" lon="113.282108">
        <time>2026-06-10T22:11:01Z</time>
      </trkpt>
      <trkpt lat="23.06057" lon="113.281978">
        <time>2026-06-10T22:11:06Z</time>
      </trkpt>
      <trkpt lat="23.060653" lon="113.281789">
        <time>2026-06-10T22:11:11Z</time>
      </trkpt>
      <trkpt lat="23.060708" lon="113.281658">
        <time>2026-06-10T22:11:16Z</time>
      </trkpt>
      <trkpt lat="23.060787" lon="113.281463">
        <time>2026-06-10T22:11:21Z</time>
      </trkpt>
      <trkpt lat="23.060841" lon="113.281335">
        <time>2026-06-10T22:11:26Z</time>
      </trkpt>
      <trkpt lat="23.060921" lon="113.281143">
        <time>2026-06-10T22:11:31Z</time>
      </trkpt>
      <trkpt lat="23.060973" lon="113.281018">
        <time>2026-06-10T22:11:36Z</time>
      </trkpt>
      <trkpt lat="23.061054" lon="113.280823">
        <time>2026-06-10T22:11:41Z</time>
      </trkpt>
      <trkpt lat="23.061107" lon="113.280684">
        <time>2026-06-10T22:11:46Z</time>
      </trkpt>
      <trkpt lat="23.061196" lon="113.280484">
        <time>2026-06-10T22:11:51Z</time>
      </trkpt>
      <trkpt lat="23.061255" lon="113.280366">
        <time>2026-06-10T22:11:56Z</time>
      </trkpt>
      <trkpt lat="23.061343" lon="113.280183">
        <time>2026-06-10T22:12:01Z</time>
      </trkpt>
      <trkpt lat="23.061404" lon="113.280053">
        <time>2026-06-10T22:12:06Z</time>
      </trkpt>
      <trkpt lat="23.0615" lon="113.279869">
        <time>2026-06-10T22:12:11Z</time>
      </trkpt>
      <trkpt lat="23.061557" lon="113.279752">
        <time>2026-06-10T22:12:16Z</time>
      </trkpt>
      <trkpt lat="23.061634" lon="113.279565">
        <time>2026-06-10T22:12:21Z</time>
      </trkpt>
      <trkpt lat="23.061682" lon="113.279429">
        <time>2026-06-10T22:12:26Z</time>
      </trkpt>
      <trkpt lat="23.061753" lon="113.279227">
        <time>2026-06-10T22:12:31Z</time>
      </trkpt>
      <trkpt lat="23.061813" lon="113.279101">
        <time>2026-06-10T22:12:36Z</time>
      </trkpt>
      <trkpt lat="23.061925" lon="113.278915">
        <time>2026-06-10T22:12:41Z</time>
      </trkpt>
      <trkpt lat="23.06198" lon="113.27877">
        <time>2026-06-10T22:12:46Z</time>
      </trkpt>
      <trkpt lat="23.061988" lon="113.278543">
        <time>2026-06-10T22:12:51Z</time>
      </trkpt>
      <trkpt lat="23.061972" lon="113.278399">
        <time>2026-06-10T22:12:56Z</time>
      </trkpt>
      <trkpt lat="23.06196" lon="113.278177">
        <time>2026-06-10T22:13:01Z</time>
      </trkpt>
      <trkpt lat="23.061949" lon="113.278029">
        <time>2026-06-10T22:13:06Z</time>
      </trkpt>
      <trkpt lat="23.061945" lon="113.277817">
        <time>2026-06-10T22:13:11Z</time>
      </trkpt>
      <trkpt lat="23.061972" lon="113.277677">
        <time>2026-06-10T22:13:16Z</time>
      </trkpt>
      <trkpt lat="23.062047" lon="113.277475">
        <time>2026-06-10T22:13:21Z</time>
      </trkpt>
      <trkpt lat="23.062099" lon="113.277344">
        <time>2026-06-10T22:13:26Z</time>
      </trkpt>
      <trkpt lat="23.062177" lon="113.277144">
        <time>2026-06-10T22:13:31Z</time>
      </trkpt>
      <trkpt lat="23.062231" lon="113.27701">
        <time>2026-06-10T22:13:36Z</time>
      </trkpt>
      <trkpt lat="23.062309" lon="113.276816">
        <time>2026-06-10T22:13:41Z</time>
      </trkpt>
      <trkpt lat="23.06236" lon="113.276693">
        <time>2026-06-10T22:13:46Z</time>
      </trkpt>
      <trkpt lat="23.062431" lon="113.276499">
        <time>2026-06-10T22:13:51Z</time>
      </trkpt>
      <trkpt lat="23.062475" lon="113.276364">
        <time>2026-06-10T22:13:56Z</time>
      </trkpt>
      <trkpt lat="23.062562" lon="113.276168">
        <time>2026-06-10T22:14:01Z</time>
      </trkpt>
      <trkpt lat="23.062637" lon="113.276049">
        <time>2026-06-10T22:14:06Z</time>
      </trkpt>
      <trkpt lat="23.06276" lon="113.275887">
        <time>2026-06-10T22:14:11Z</time>
      </trkpt>
      <trkpt lat="23.062853" lon="113.275782">
        <time>2026-06-10T22:14:16Z</time>
      </trkpt>
      <trkpt lat="23.062986" lon="113.275631">
        <time>2026-06-10T22:14:21Z</time>
      </trkpt>
      <trkpt lat="23.063064" lon="113.275527">
        <time>2026-06-10T22:14:26Z</time>
      </trkpt>
      <trkpt lat="23.063171" lon="113.275353">
        <time>2026-06-10T22:14:31Z</time>
      </trkpt>
      <trkpt lat="23.063245" lon="113.275229">
        <time>2026-06-10T22:14:36Z</time>
      </trkpt>
      <trkpt lat="23.063353" lon="113.275037">
        <time>2026-06-10T22:14:41Z</time>
      </trkpt>
      <trkpt lat="23.063407" lon="113.274907">
        <time>2026-06-10T22:14:46Z</time>
      </trkpt>
      <trkpt lat="23.063474" lon="113.274723">
        <time>2026-06-10T22:14:51Z</time>
      </trkpt>
      <trkpt lat="23.063515" lon="113.274591">
        <time>2026-06-10T22:14:56Z</time>
      </trkpt>
      <trkpt lat="23.063588" lon="113.27438">
        <time>2026-06-10T22:15:01Z</time>
      </trkpt>
      <trkpt lat="23.063657" lon="113.274251">
        <time>2026-06-10T22:15:06Z</time>
      </trkpt>
      <trkpt lat="23.063824" lon="113.274103">
        <time>2026-06-10T22:15:11Z</time>
      </trkpt>
      <trkpt lat="23.06391" lon="113.274007">
        <time>2026-06-10T22:15:16Z</time>
      </trkpt>
      <trkpt lat="23.064001" lon="113.273834">
        <time>2026-06-10T22:15:21Z</time>
      </trkpt>
      <trkpt lat="23.064083" lon="113.273728">
        <time>2026-06-10T22:15:26Z</time>
      </trkpt>
      <trkpt lat="23.064238" lon="113.273594">
        <time>2026-06-10T22:15:31Z</time>
      </trkpt>
      <trkpt lat="23.064342" lon="113.273513">
        <time>2026-06-10T22:15:36Z</time>
      </trkpt>
      <trkpt lat="23.064486" lon="113.273382">
        <time>2026-06-10T22:15:41Z</time>
      </trkpt>
      <trkpt lat="23.064558" lon="113.273261">
        <time>2026-06-10T22:15:46Z</time>
      </trkpt>
      <trkpt lat="23.064564" lon="113.273029">
        <time>2026-06-10T22:15:51Z</time>
      </trkpt>
      <trkpt lat="23.064518" lon="113.27288">
        <time>2026-06-10T22:15:56Z</time>
      </trkpt>
      <trkpt lat="23.064459" lon="113.272662">
        <time>2026-06-10T22:16:01Z</time>
      </trkpt>
      <trkpt lat="23.064463" lon="113.272519">
        <time>2026-06-10T22:16:06Z</time>
      </trkpt>
      <trkpt lat="23.064536" lon="113.2723">
        <time>2026-06-10T22:16:11Z</time>
      </trkpt>
      <trkpt lat="23.064586" lon="113.272166">
        <time>2026-06-10T22:16:16Z</time>
      </trkpt>
      <trkpt lat="23.064678" lon="113.27198">
        <time>2026-06-10T22:16:21Z</time>
      </trkpt>
      <trkpt lat="23.064743" lon="113.271853">
        <time>2026-06-10T22:16:26Z</time>
      </trkpt>
      <trkpt lat="23.06485" lon="113.27167">
        <time>2026-06-10T22:16:31Z</time>
      </trkpt>
      <trkpt lat="23.064907" lon="113.271544">
        <time>2026-06-10T22:16:36Z</time>
      </trkpt>
      <trkpt lat="23.064997" lon="113.271354">
        <time>2026-06-10T22:16:41Z</time>
      </trkpt>
      <trkpt lat="23.065064" lon="113.27122">
        <time>2026-06-10T22:16:46Z</time>
      </trkpt>
      <trkpt lat="23.065158" lon="113.271025">
        <time>2026-06-10T22:16:51Z</time>
      </trkpt>
      <trkpt lat="23.065214" lon="113.270899">
        <time>2026-06-10T22:16:56Z</time>
      </trkpt>
      <trkpt lat="23.065298" lon="113.270694">
        <time>2026-06-10T22:17:01Z</time>
      </trkpt>
      <trkpt lat="23.065354" lon="113.270566">
        <time>2026-06-10T22:17:06Z</time>
      </trkpt>
      <trkpt lat="23.065434" lon="113.270368">
        <time>2026-06-10T22:17:11Z</time>
      </trkpt>
      <trkpt lat="23.065491" lon="113.270237">
        <time>2026-06-10T22:17:16Z</time>
      </trkpt>
      <trkpt lat="23.065569" lon="113.270035">
        <time>2026-06-10T22:17:21Z</time>
      </trkpt>
      <trkpt lat="23.065614" lon="113.269907">
        <time>2026-06-10T22:17:26Z</time>
      </trkpt>
      <trkpt lat="23.065674" lon="113.269706">
        <time>2026-06-10T22:17:31Z</time>
      </trkpt>
      <trkpt lat="23.065721" lon="113.269568">
        <time>2026-06-10T22:17:36Z</time>
      </trkpt>
      <trkpt lat="23.065767" lon="113.269353">
        <time>2026-06-10T22:17:41Z</time>
      </trkpt>
      <trkpt lat="23.065797" lon="113.269214">
        <time>2026-06-10T22:17:46Z</time>
      </trkpt>
      <trkpt lat="23.065869" lon="113.269011">
        <time>2026-06-10T22:17:51Z</time>
      </trkpt>
      <trkpt lat="23.065923" lon="113.268885">
        <time>2026-06-10T22:17:56Z</time>
      </trkpt>
      <trkpt lat="23.066023" lon="113.268694">
        <time>2026-06-10T22:18:01Z</time>
      </trkpt>
      <trkpt lat="23.066095" lon="113.268569">
        <time>2026-06-10T22:18:06Z</time>
      </trkpt>
      <trkpt lat="23.066203" lon="113.268402">
        <time>2026-06-10T22:18:11Z</time>
      </trkpt>
      <trkpt lat="23.06628" lon="113.268296">
        <time>2026-06-10T22:18:16Z</time>
      </trkpt>
      <trkpt lat="23.066424" lon="113.268157">
        <time>2026-06-10T22:18:21Z</time>
      </trkpt>
      <trkpt lat="23.066545" lon="113.26812">
        <time>2026-06-10T22:18:26Z</time>
      </trkpt>
      <trkpt lat="23.066681" lon="113.268082">
        <time>2026-06-10T22:18:31Z</time>
      </trkpt>
      <trkpt lat="23.066602" lon="113.267987">
        <time>2026-06-10T22:18:36Z</time>
      </trkpt>
      <trkpt lat="23.066385" lon="113.267954">
        <time>2026-06-10T22:18:41Z</time>
      </trkpt>
      <trkpt lat="23.06626" lon="113.268008">
        <time>2026-06-10T22:18:46Z</time>
      </trkpt>
      <trkpt lat="23.066115" lon="113.268157">
        <time>2026-06-10T22:18:51Z</time>
      </trkpt>
      <trkpt lat="23.06603" lon="113.268268">
        <time>2026-06-10T22:18:56Z</time>
      </trkpt>
      <trkpt lat="23.065902" lon="113.268434">
        <time>2026-06-10T22:19:01Z</time>
      </trkpt>
      <trkpt lat="23.065828" lon="113.268549">
        <time>2026-06-10T22:19:06Z</time>
      </trkpt>
      <trkpt lat="23.06573" lon="113.268728">
        <time>2026-06-10T22:19:11Z</time>
      </trkpt>
      <trkpt lat="23.065671" lon="113.268851">
        <time>2026-06-10T22:19:16Z</time>
      </trkpt>
      <trkpt lat="23.065598" lon="113.269057">
        <time>2026-06-10T22:19:21Z</time>
      </trkpt>
      <trkpt lat="23.065562" lon="113.269196">
        <time>2026-06-10T22:19:26Z</time>
      </trkpt>
      <trkpt lat="23.065513" lon="113.269408">
        <time>2026-06-10T22:19:31Z</time>
      </trkpt>
      <trkpt lat="23.065482" lon="113.26955">
        <time>2026-06-10T22:19:36Z</time>
      </trkpt>
      <trkpt lat="23.065418" lon="113.269752">
        <time>2026-06-10T22:19:41Z</time>
      </trkpt>
      <trkpt lat="23.065373" lon="113.269891">
        <time>2026-06-10T22:19:46Z</time>
      </trkpt>
      <trkpt lat="23.065305" lon="113.2701">
        <time>2026-06-10T22:19:51Z</time>
      </trkpt>
      <trkpt lat="23.06525" lon="113.270231">
        <time>2026-06-10T22:19:56Z</time>
      </trkpt>
      <trkpt lat="23.065162" lon="113.270424">
        <time>2026-06-10T22:20:01Z</time>
      </trkpt>
      <trkpt lat="23.065103" lon="113.270553">
        <time>2026-06-10T22:20:06Z</time>
      </trkpt>
      <trkpt lat="23.065018" lon="113.270742">
        <time>2026-06-10T22:20:11Z</time>
      </trkpt>
      <trkpt lat="23.064958" lon="113.270868">
        <time>2026-06-10T22:20:16Z</time>
      </trkpt>
      <trkpt lat="23.064872" lon="113.27106">
        <time>2026-06-10T22:20:21Z</time>
      </trkpt>
      <trkpt lat="23.064812" lon="113.271186">
        <time>2026-06-10T22:20:26Z</time>
      </trkpt>
      <trkpt lat="23.06472" lon="113.271378">
        <time>2026-06-10T22:20:31Z</time>
      </trkpt>
      <trkpt lat="23.064662" lon="113.271505">
        <time>2026-06-10T22:20:36Z</time>
      </trkpt>
      <trkpt lat="23.064575" lon="113.271695">
        <time>2026-06-10T22:20:41Z</time>
      </trkpt>
      <trkpt lat="23.064517" lon="113.271826">
        <time>2026-06-10T22:20:46Z</time>
      </trkpt>
      <trkpt lat="23.064424" lon="113.272022">
        <time>2026-06-10T22:20:51Z</time>
      </trkpt>
      <trkpt lat="23.06437" lon="113.272155">
        <time>2026-06-10T22:20:56Z</time>
      </trkpt>
      <trkpt lat="23.064341" lon="113.272366">
        <time>2026-06-10T22:21:01Z</time>
      </trkpt>
      <trkpt lat="23.064328" lon="113.272506">
        <time>2026-06-10T22:21:06Z</time>
      </trkpt>
      <trkpt lat="23.064349" lon="113.272719">
        <time>2026-06-10T22:21:11Z</time>
      </trkpt>
      <trkpt lat="23.064388" lon="113.272851">
        <time>2026-06-10T22:21:16Z</time>
      </trkpt>
      <trkpt lat="23.064453" lon="113.273041">
        <time>2026-06-10T22:21:21Z</time>
      </trkpt>
      <trkpt lat="23.064474" lon="113.273172">
        <time>2026-06-10T22:21:26Z</time>
      </trkpt>
      <trkpt lat="23.064395" lon="113.273349">
        <time>2026-06-10T22:21:31Z</time>
      </trkpt>
      <trkpt lat="23.064287" lon="113.273431">
        <time>2026-06-10T22:21:36Z</time>
      </trkpt>
      <trkpt lat="23.064114" lon="113.273545">
        <time>2026-06-10T22:21:41Z</time>
      </trkpt>
      <trkpt lat="23.064001" lon="113.273635">
        <time>2026-06-10T22:21:46Z</time>
      </trkpt>
      <trkpt lat="23.063861" lon="113.2738">
        <time>2026-06-10T22:21:51Z</time>
      </trkpt>
      <trkpt lat="23.063788" lon="113.273921">
        <time>2026-06-10T22:21:56Z</time>
      </trkpt>
      <trkpt lat="23.063674" lon="113.274087">
        <time>2026-06-10T22:22:01Z</time>
      </trkpt>
      <trkpt lat="23.063571" lon="113.274172">
        <time>2026-06-10T22:22:06Z</time>
      </trkpt>
      <trkpt lat="23.063466" lon="113.274347">
        <time>2026-06-10T22:22:11Z</time>
      </trkpt>
      <trkpt lat="23.063423" lon="113.27448">
        <time>2026-06-10T22:22:16Z</time>
      </trkpt>
      <trkpt lat="23.063358" lon="113.274687">
        <time>2026-06-10T22:22:21Z</time>
      </trkpt>
      <trkpt lat="23.063309" lon="113.274827">
        <time>2026-06-10T22:22:26Z</time>
      </trkpt>
      <trkpt lat="23.063222" lon="113.275037">
        <time>2026-06-10T22:22:31Z</time>
      </trkpt>
      <trkpt lat="23.06315" lon="113.275164">
        <time>2026-06-10T22:22:36Z</time>
      </trkpt>
      <trkpt lat="23.063046" lon="113.275348">
        <time>2026-06-10T22:22:41Z</time>
      </trkpt>
      <trkpt lat="23.06297" lon="113.275468">
        <time>2026-06-10T22:22:46Z</time>
      </trkpt>
      <trkpt lat="23.062831" lon="113.275631">
        <time>2026-06-10T22:22:51Z</time>
      </trkpt>
      <trkpt lat="23.062729" lon="113.275731">
        <time>2026-06-10T22:22:56Z</time>
      </trkpt>
      <trkpt lat="23.062589" lon="113.275889">
        <time>2026-06-10T22:23:01Z</time>
      </trkpt>
      <trkpt lat="23.062509" lon="113.276003">
        <time>2026-06-10T22:23:06Z</time>
      </trkpt>
      <trkpt lat="23.062413" lon="113.276194">
        <time>2026-06-10T22:23:11Z</time>
      </trkpt>
      <trkpt lat="23.062362" lon="113.276327">
        <time>2026-06-10T22:23:16Z</time>
      </trkpt>
      <trkpt lat="23.062288" lon="113.276525">
        <time>2026-06-10T22:23:21Z</time>
      </trkpt>
      <trkpt lat="23.062238" lon="113.276657">
        <time>2026-06-10T22:23:26Z</time>
      </trkpt>
      <trkpt lat="23.062168" lon="113.276848">
        <time>2026-06-10T22:23:31Z</time>
      </trkpt>
      <trkpt lat="23.06212" lon="113.276973">
        <time>2026-06-10T22:23:36Z</time>
      </trkpt>
      <trkpt lat="23.062052" lon="113.277172">
        <time>2026-06-10T22:23:41Z</time>
      </trkpt>
      <trkpt lat="23.062003" lon="113.277309">
        <time>2026-06-10T22:23:46Z</time>
      </trkpt>
      <trkpt lat="23.061921" lon="113.277514">
        <time>2026-06-10T22:23:51Z</time>
      </trkpt>
      <trkpt lat="23.061868" lon="113.277649">
        <time>2026-06-10T22:23:56Z</time>
      </trkpt>
      <trkpt lat="23.061825" lon="113.27786">
        <time>2026-06-10T22:24:01Z</time>
      </trkpt>
      <trkpt lat="23.061828" lon="113.278002">
        <time>2026-06-10T22:24:06Z</time>
      </trkpt>
      <trkpt lat="23.06184" lon="113.278214">
        <time>2026-06-10T22:24:11Z</time>
      </trkpt>
      <trkpt lat="23.061852" lon="113.278353">
        <time>2026-06-10T22:24:16Z</time>
      </trkpt>
      <trkpt lat="23.061862" lon="113.278569">
        <time>2026-06-10T22:24:21Z</time>
      </trkpt>
      <trkpt lat="23.061847" lon="113.278707">
        <time>2026-06-10T22:24:26Z</time>
      </trkpt>
      <trkpt lat="23.06176" lon="113.278897">
        <time>2026-06-10T22:24:31Z</time>
      </trkpt>
      <trkpt lat="23.061685" lon="113.279015">
        <time>2026-06-10T22:24:36Z</time>
      </trkpt>
      <trkpt lat="23.061585" lon="113.279196">
        <time>2026-06-10T22:24:41Z</time>
      </trkpt>
      <trkpt lat="23.061536" lon="113.279319">
        <time>2026-06-10T22:24:46Z</time>
      </trkpt>
      <trkpt lat="23.061466" lon="113.279498">
        <time>2026-06-10T22:24:51Z</time>
      </trkpt>
      <trkpt lat="23.061419" lon="113.279623">
        <time>2026-06-10T22:24:56Z</time>
      </trkpt>
      <trkpt lat="23.061334" lon="113.279821">
        <time>2026-06-10T22:25:01Z</time>
      </trkpt>
      <trkpt lat="23.061277" lon="113.279956">
        <time>2026-06-10T22:25:06Z</time>
      </trkpt>
      <trkpt lat="23.061203" lon="113.280161">
        <time>2026-06-10T22:25:11Z</time>
      </trkpt>
      <trkpt lat="23.061154" lon="113.280295">
        <time>2026-06-10T22:25:16Z</time>
      </trkpt>
      <trkpt lat="23.061075" lon="113.280488">
        <time>2026-06-10T22:25:21Z</time>
      </trkpt>
      <trkpt lat="23.061014" lon="113.280604">
        <time>2026-06-10T22:25:26Z</time>
      </trkpt>
      <trkpt lat="23.060893" lon="113.280775">
        <time>2026-06-10T22:25:31Z</time>
      </trkpt>
      <trkpt lat="23.060833" lon="113.280906">
        <time>2026-06-10T22:25:36Z</time>
      </trkpt>
      <trkpt lat="23.060752" lon="113.281102">
        <time>2026-06-10T22:25:41Z</time>
      </trkpt>
      <trkpt lat="23.060701" lon="113.281231">
        <time>2026-06-10T22:25:46Z</time>
      </trkpt>
      <trkpt lat="23.060612" lon="113.281422">
        <time>2026-06-10T22:25:51Z</time>
      </trkpt>
      <trkpt lat="23.060554" lon="113.281553">
        <time>2026-06-10T22:25:56Z</time>
      </trkpt>
      <trkpt lat="23.060467" lon="113.281751">
        <time>2026-06-10T22:26:01Z</time>
      </trkpt>
      <trkpt lat="23.060408" lon="113.281881">
        <time>2026-06-10T22:26:06Z</time>
      </trkpt>
      <trkpt lat="23.060323" lon="113.282079">
        <time>2026-06-10T22:26:11Z</time>
      </trkpt>
      <trkpt lat="23.060268" lon="113.282212">
        <time>2026-06-10T22:26:16Z</time>
      </trkpt>
      <trkpt lat="23.060189" lon="113.282406">
        <time>2026-06-10T22:26:21Z</time>
      </trkpt>
      <trkpt lat="23.06013" lon="113.282536">
        <time>2026-06-10T22:26:26Z</time>
      </trkpt>
      <trkpt lat="23.060049" lon="113.282734">
        <time>2026-06-10T22:26:31Z</time>
      </trkpt>
      <trkpt lat="23.059996" lon="113.282865">
        <time>2026-06-10T22:26:36Z</time>
      </trkpt>
      <trkpt lat="23.059917" lon="113.283059">
        <time>2026-06-10T22:26:41Z</time>
      </trkpt>
      <trkpt lat="23.059861" lon="113.283186">
        <time>2026-06-10T22:26:46Z</time>
      </trkpt>
      <trkpt lat="23.059776" lon="113.283379">
        <time>2026-06-10T22:26:51Z</time>
      </trkpt>
      <trkpt lat="23.05971" lon="113.283504">
        <time>2026-06-10T22:26:56Z</time>
      </trkpt>
      <trkpt lat="23.059626" lon="113.283692">
        <time>2026-06-10T22:27:01Z</time>
      </trkpt>
      <trkpt lat="23.059577" lon="113.283822">
        <time>2026-06-10T22:27:06Z</time>
      </trkpt>
      <trkpt lat="23.059502" lon="113.284019">
        <time>2026-06-10T22:27:11Z</time>
      </trkpt>
      <trkpt lat="23.059438" lon="113.284148">
        <time>2026-06-10T22:27:16Z</time>
      </trkpt>
      <trkpt lat="23.059348" lon="113.284341">
        <time>2026-06-10T22:27:21Z</time>
      </trkpt>
      <trkpt lat="23.059297" lon="113.284474">
        <time>2026-06-10T22:27:26Z</time>
      </trkpt>
      <trkpt lat="23.059243" lon="113.284683">
        <time>2026-06-10T22:27:31Z</time>
      </trkpt>
      <trkpt lat="23.059199" lon="113.284816">
        <time>2026-06-10T22:27:36Z</time>
      </trkpt>
      <trkpt lat="23.05912" lon="113.285012">
        <time>2026-06-10T22:27:41Z</time>
      </trkpt>
      <trkpt lat="23.059069" lon="113.285141">
        <time>2026-06-10T22:27:46Z</time>
      </trkpt>
      <trkpt lat="23.058991" lon="113.285333">
        <time>2026-06-10T22:27:51Z</time>
      </trkpt>
      <trkpt lat="23.058935" lon="113.285464">
        <time>2026-06-10T22:27:56Z</time>
      </trkpt>
      <trkpt lat="23.058847" lon="113.285667">
        <time>2026-06-10T22:28:01Z</time>
      </trkpt>
      <trkpt lat="23.058787" lon="113.285799">
        <time>2026-06-10T22:28:06Z</time>
      </trkpt>
      <trkpt lat="23.058711" lon="113.285991">
        <time>2026-06-10T22:28:11Z</time>
      </trkpt>
      <trkpt lat="23.058749" lon="113.286073">
        <time>2026-06-10T22:28:16Z</time>
      </trkpt>
      <trkpt lat="23.058869" lon="113.28593">
        <time>2026-06-10T22:28:21Z</time>
      </trkpt>
      <trkpt lat="23.058925" lon="113.285782">
        <time>2026-06-10T22:28:26Z</time>
      </trkpt>
      <trkpt lat="23.059013" lon="113.285579">
        <time>2026-06-10T22:28:31Z</time>
      </trkpt>
      <trkpt lat="23.059073" lon="113.285443">
        <time>2026-06-10T22:28:36Z</time>
      </trkpt>
      <trkpt lat="23.059163" lon="113.285244">
        <time>2026-06-10T22:28:41Z</time>
      </trkpt>
      <trkpt lat="23.059255" lon="113.28514">
        <time>2026-06-10T22:28:46Z</time>
      </trkpt>
      <trkpt lat="23.059338" lon="113.284969">
        <time>2026-06-10T22:28:51Z</time>
      </trkpt>
      <trkpt lat="23.059315" lon="113.284828">
        <time>2026-06-10T22:28:56Z</time>
      </trkpt>
      <trkpt lat="23.059388" lon="113.284627">
        <time>2026-06-10T22:29:01Z</time>
      </trkpt>
      <trkpt lat="23.059456" lon="113.2845">
        <time>2026-06-10T22:29:06Z</time>
      </trkpt>
      <trkpt lat="23.05955" lon="113.284306">
        <time>2026-06-10T22:29:11Z</time>
      </trkpt>
      <trkpt lat="23.059607" lon="113.284177">
        <time>2026-06-10T22:29:16Z</time>
      </trkpt>
      <trkpt lat="23.059692" lon="113.28398">
        <time>2026-06-10T22:29:21Z</time>
      </trkpt>
      <trkpt lat="23.059752" lon="113.283844">
        <time>2026-06-10T22:29:26Z</time>
      </trkpt>
      <trkpt lat="23.059837" lon="113.283633">
        <time>2026-06-10T22:29:31Z</time>
      </trkpt>
      <trkpt lat="23.05989" lon="113.283494">
        <time>2026-06-10T22:29:36Z</time>
      </trkpt>
      <trkpt lat="23.059985" lon="113.283312">
        <time>2026-06-10T22:29:41Z</time>
      </trkpt>
      <trkpt lat="23.060056" lon="113.283194">
        <time>2026-06-10T22:29:46Z</time>
      </trkpt>
      <trkpt lat="23.06013" lon="113.283058">
        <time>2026-06-10T22:29:51Z</time>
      </trkpt>
      <trkpt lat="23.060154" lon="113.283006">
        <time>2026-06-10T22:29:56Z</time>
      </trkpt>
      <trkpt lat="23.060184" lon="113.282944">
        <time>2026-06-10T22:30:01Z</time>
      </trkpt>
      <trkpt lat="23.060205" lon="113.282898">
        <time>2026-06-10T22:30:06Z</time>
      </trkpt>
      <trkpt lat="23.060231" lon="113.282816">
        <time>2026-06-10T22:30:11Z</time>
      </trkpt>
      <trkpt lat="23.060242" lon="113.282756">
        <time>2026-06-10T22:30:16Z</time>
      </trkpt>
      <trkpt lat="23.060263" lon="113.282676">
        <time>2026-06-10T22:30:21Z</time>
      </trkpt>
      <trkpt lat="23.060283" lon="113.282632">
        <time>2026-06-10T22:30:26Z</time>
      </trkpt>
      <trkpt lat="23.06031" lon="113.282563">
        <time>2026-06-10T22:30:31Z</time>
      </trkpt>
      <trkpt lat="23.060328" lon="113.282517">
        <time>2026-06-10T22:30:36Z</time>
      </trkpt>
      <trkpt lat="23.06035" lon="113.28244">
        <time>2026-06-10T22:30:41Z</time>
      </trkpt>
      <trkpt lat="23.060365" lon="113.282397">
        <time>2026-06-10T22:30:46Z</time>
      </trkpt>
      <trkpt lat="23.060395" lon="113.282335">
        <time>2026-06-10T22:30:51Z</time>
      </trkpt>
      <trkpt lat="23.060414" lon="113.282296">
        <time>2026-06-10T22:30:56Z</time>
      </trkpt>
      <trkpt lat="23.060442" lon="113.282243">
        <time>2026-06-10T22:31:01Z</time>
      </trkpt>
      <trkpt lat="23.060457" lon="113.282183">
        <time>2026-06-10T22:31:06Z</time>
      </trkpt>
      <trkpt lat="23.060506" lon="113.28206">
        <time>2026-06-10T22:31:11Z</time>
      </trkpt>
      <trkpt lat="23.060542" lon="113.281971">
        <time>2026-06-10T22:31:16Z</time>
      </trkpt>
      <trkpt lat="23.060597" lon="113.281843">
        <time>2026-06-10T22:31:21Z</time>
      </trkpt>
      <trkpt lat="23.060635" lon="113.281761">
        <time>2026-06-10T22:31:26Z</time>
      </trkpt>
      <trkpt lat="23.060685" lon="113.281639">
        <time>2026-06-10T22:31:31Z</time>
      </trkpt>
      <trkpt lat="23.060719" lon="113.281564">
        <time>2026-06-10T22:31:36Z</time>
      </trkpt>
      <trkpt lat="23.060776" lon="113.281437">
        <time>2026-06-10T22:31:41Z</time>
      </trkpt>
      <trkpt lat="23.060814" lon="113.281355">
        <time>2026-06-10T22:31:46Z</time>
      </trkpt>
      <trkpt lat="23.060872" lon="113.281232">
        <time>2026-06-10T22:31:51Z</time>
      </trkpt>
      <trkpt lat="23.06091" lon="113.281147">
        <time>2026-06-10T22:31:56Z</time>
      </trkpt>
      <trkpt lat="23.060966" lon="113.281019">
        <time>2026-06-10T22:32:01Z</time>
      </trkpt>
      <trkpt lat="23.061002" lon="113.280936">
        <time>2026-06-10T22:32:06Z</time>
      </trkpt>
      <trkpt lat="23.061054" lon="113.280812">
        <time>2026-06-10T22:32:11Z</time>
      </trkpt>
      <trkpt lat="23.061092" lon="113.280727">
        <time>2026-06-10T22:32:16Z</time>
      </trkpt>
      <trkpt lat="23.061154" lon="113.280603">
        <time>2026-06-10T22:32:21Z</time>
      </trkpt>
      <trkpt lat="23.061191" lon="113.280526">
        <time>2026-06-10T22:32:26Z</time>
      </trkpt>
      <trkpt lat="23.061244" lon="113.280411">
        <time>2026-06-10T22:32:31Z</time>
      </trkpt>
      <trkpt lat="23.061275" lon="113.280336">
        <time>2026-06-10T22:32:36Z</time>
      </trkpt>
      <trkpt lat="23.061319" lon="113.280223">
        <time>2026-06-10T22:32:41Z</time>
      </trkpt>
      <trkpt lat="23.06136" lon="113.280151">
        <time>2026-06-10T22:32:46Z</time>
      </trkpt>
      <trkpt lat="23.061409" lon="113.280036">
        <time>2026-06-10T22:32:51Z</time>
      </trkpt>
      <trkpt lat="23.061437" lon="113.279958">
        <time>2026-06-10T22:32:56Z</time>
      </trkpt>
      <trkpt lat="23.06148" lon="113.279846">
        <time>2026-06-10T22:33:01Z</time>
      </trkpt>
      <trkpt lat="23.061505" lon="113.279779">
        <time>2026-06-10T22:33:06Z</time>
      </trkpt>
      <trkpt lat="23.061562" lon="113.27964">
        <time>2026-06-10T22:33:11Z</time>
      </trkpt>
      <trkpt lat="23.061601" lon="113.27956">
        <time>2026-06-10T22:33:16Z</time>
      </trkpt>
      <trkpt lat="23.061647" lon="113.279433">
        <time>2026-06-10T22:33:21Z</time>
      </trkpt>
      <trkpt lat="23.061682" lon="113.279332">
        <time>2026-06-10T22:33:26Z</time>
      </trkpt>
      <trkpt lat="23.061717" lon="113.279244">
        <time>2026-06-10T22:33:31Z</time>
      </trkpt>
      <trkpt lat="23.061781" lon="113.279124">
        <time>2026-06-10T22:33:36Z</time>
      </trkpt>
      <trkpt lat="23.061826" lon="113.279056">
        <time>2026-06-10T22:33:41Z</time>
      </trkpt>
      <trkpt lat="23.0619" lon="113.278947">
        <time>2026-06-10T22:33:46Z</time>
      </trkpt>
      <trkpt lat="23.061947" lon="113.278874">
        <time>2026-06-10T22:33:51Z</time>
      </trkpt>
      <trkpt lat="23.061981" lon="113.278752">
        <time>2026-06-10T22:33:56Z</time>
      </trkpt>
      <trkpt lat="23.061984" lon="113.278668">
        <time>2026-06-10T22:34:01Z</time>
      </trkpt>
      <trkpt lat="23.061969" lon="113.278531">
        <time>2026-06-10T22:34:06Z</time>
      </trkpt>
      <trkpt lat="23.061963" lon="113.278437">
        <time>2026-06-10T22:34:11Z</time>
      </trkpt>
      <trkpt lat="23.061954" lon="113.278298">
        <time>2026-06-10T22:34:16Z</time>
      </trkpt>
      <trkpt lat="23.061949" lon="113.278203">
        <time>2026-06-10T22:34:21Z</time>
      </trkpt>
      <trkpt lat="23.061943" lon="113.278054">
        <time>2026-06-10T22:34:26Z</time>
      </trkpt>
      <trkpt lat="23.061941" lon="113.277953">
        <time>2026-06-10T22:34:31Z</time>
      </trkpt>
      <trkpt lat="23.061948" lon="113.277811">
        <time>2026-06-10T22:34:36Z</time>
      </trkpt>
      <trkpt lat="23.061966" lon="113.277718">
        <time>2026-06-10T22:34:41Z</time>
      </trkpt>
      <trkpt lat="23.062012" lon="113.277582">
        <time>2026-06-10T22:34:46Z</time>
      </trkpt>
      <trkpt lat="23.062046" lon="113.277493">
        <time>2026-06-10T22:34:51Z</time>
      </trkpt>
      <trkpt lat="23.062092" lon="113.27737">
        <time>2026-06-10T22:34:56Z</time>
      </trkpt>
      <trkpt lat="23.062108" lon="113.277325">
        <time>2026-06-10T22:35:01Z</time>
      </trkpt>
      <trkpt lat="23.062147" lon="113.277216">
        <time>2026-06-10T22:35:06Z</time>
      </trkpt>
      <trkpt lat="23.062176" lon="113.27713">
        <time>2026-06-10T22:35:11Z</time>
      </trkpt>
      <trkpt lat="23.06223" lon="113.277006">
        <time>2026-06-10T22:35:16Z</time>
      </trkpt>
      <trkpt lat="23.062265" lon="113.276919">
        <time>2026-06-10T22:35:21Z</time>
      </trkpt>
      <trkpt lat="23.062309" lon="113.276792">
        <time>2026-06-10T22:35:26Z</time>
      </trkpt>
      <trkpt lat="23.062343" lon="113.276707">
        <time>2026-06-10T22:35:31Z</time>
      </trkpt>
      <trkpt lat="23.062393" lon="113.276574">
        <time>2026-06-10T22:35:36Z</time>
      </trkpt>
      <trkpt lat="23.062425" lon="113.276483">
        <time>2026-06-10T22:35:41Z</time>
      </trkpt>
      <trkpt lat="23.062475" lon="113.276347">
        <time>2026-06-10T22:35:46Z</time>
      </trkpt>
      <trkpt lat="23.06251" lon="113.276259">
        <time>2026-06-10T22:35:51Z</time>
      </trkpt>
      <trkpt lat="23.062571" lon="113.276132">
        <time>2026-06-10T22:35:56Z</time>
      </trkpt>
      <trkpt lat="23.062618" lon="113.27605">
        <time>2026-06-10T22:36:01Z</time>
      </trkpt>
      <trkpt lat="23.062696" lon="113.275939">
        <time>2026-06-10T22:36:06Z</time>
      </trkpt>
      <trkpt lat="23.062751" lon="113.275871">
        <time>2026-06-10T22:36:11Z</time>
      </trkpt>
      <trkpt lat="23.06284" lon="113.275775">
        <time>2026-06-10T22:36:16Z</time>
      </trkpt>
      <trkpt lat="23.062904" lon="113.27571">
        <time>2026-06-10T22:36:21Z</time>
      </trkpt>
      <trkpt lat="23.063004" lon="113.275605">
        <time>2026-06-10T22:36:26Z</time>
      </trkpt>
      <trkpt lat="23.063061" lon="113.275532">
        <time>2026-06-10T22:36:31Z</time>
      </trkpt>
      <trkpt lat="23.063133" lon="113.275412">
        <time>2026-06-10T22:36:36Z</time>
      </trkpt>
      <trkpt lat="23.063183" lon="113.275333">
        <time>2026-06-10T22:36:41Z</time>
      </trkpt>
      <trkpt lat="23.063257" lon="113.275209">
        <time>2026-06-10T22:36:46Z</time>
      </trkpt>
      <trkpt lat="23.063309" lon="113.275131">
        <time>2026-06-10T22:36:51Z</time>
      </trkpt>
      <trkpt lat="23.063378" lon="113.275012">
        <time>2026-06-10T22:36:56Z</time>
      </trkpt>
      <trkpt lat="23.0634" lon="113.274925">
        <time>2026-06-10T22:37:01Z</time>
      </trkpt>
      <trkpt lat="23.063433" lon="113.274804">
        <time>2026-06-10T22:37:06Z</time>
      </trkpt>
      <trkpt lat="23.063463" lon="113.274722">
        <time>2026-06-10T22:37:11Z</time>
      </trkpt>
      <trkpt lat="23.063505" lon="113.274595">
        <time>2026-06-10T22:37:16Z</time>
      </trkpt>
      <trkpt lat="23.063528" lon="113.274512">
        <time>2026-06-10T22:37:21Z</time>
      </trkpt>
      <trkpt lat="23.063585" lon="113.274384">
        <time>2026-06-10T22:37:26Z</time>
      </trkpt>
      <trkpt lat="23.063643" lon="113.274305">
        <time>2026-06-10T22:37:31Z</time>
      </trkpt>
      <trkpt lat="23.063745" lon="113.274206">
        <time>2026-06-10T22:37:36Z</time>
      </trkpt>
      <trkpt lat="23.0638" lon="113.274146">
        <time>2026-06-10T22:37:41Z</time>
      </trkpt>
      <trkpt lat="23.063874" lon="113.274037">
        <time>2026-06-10T22:37:46Z</time>
      </trkpt>
      <trkpt lat="23.063924" lon="113.27396">
        <time>2026-06-10T22:37:51Z</time>
      </trkpt>
      <trkpt lat="23.063984" lon="113.27383">
        <time>2026-06-10T22:37:56Z</time>
      </trkpt>
      <trkpt lat="23.064036" lon="113.273754">
        <time>2026-06-10T22:38:01Z</time>
      </trkpt>
      <trkpt lat="23.064127" lon="113.273666">
        <time>2026-06-10T22:38:06Z</time>
      </trkpt>
      <trkpt lat="23.064198" lon="113.273614">
        <time>2026-06-10T22:38:11Z</time>
      </trkpt>
      <trkpt lat="23.064302" lon="113.273534">
        <time>2026-06-10T22:38:16Z</time>
      </trkpt>
      <trkpt lat="23.064371" lon="113.273476">
        <time>2026-06-10T22:38:21Z</time>
      </trkpt>
      <trkpt lat="23.064477" lon="113.273388">
        <time>2026-06-10T22:38:26Z</time>
      </trkpt>
      <trkpt lat="23.064539" lon="113.273317">
        <time>2026-06-10T22:38:31Z</time>
      </trkpt>
      <trkpt lat="23.064593" lon="113.273183">
        <time>2026-06-10T22:38:36Z</time>
      </trkpt>
      <trkpt lat="23.064589" lon="113.273081">
        <time>2026-06-10T22:38:41Z</time>
      </trkpt>
      <trkpt lat="23.064541" lon="113.272935">
        <time>2026-06-10T22:38:46Z</time>
      </trkpt>
      <trkpt lat="23.064502" lon="113.272848">
        <time>2026-06-10T22:38:51Z</time>
      </trkpt>
      <trkpt lat="23.064454" lon="113.272716">
        <time>2026-06-10T22:38:56Z</time>
      </trkpt>
      <trkpt lat="23.064438" lon="113.272622">
        <time>2026-06-10T22:39:01Z</time>
      </trkpt>
      <trkpt lat="23.064488" lon="113.272487">
        <time>2026-06-10T22:39:06Z</time>
      </trkpt>
      <trkpt lat="23.064539" lon="113.272404">
        <time>2026-06-10T22:39:11Z</time>
      </trkpt>
      <trkpt lat="23.064558" lon="113.27226">
        <time>2026-06-10T22:39:16Z</time>
      </trkpt>
      <trkpt lat="23.06459" lon="113.27217">
        <time>2026-06-10T22:39:21Z</time>
      </trkpt>
      <trkpt lat="23.064648" lon="113.272048">
        <time>2026-06-10T22:39:26Z</time>
      </trkpt>
      <trkpt lat="23.064692" lon="113.271968">
        <time>2026-06-10T22:39:31Z</time>
      </trkpt>
      <trkpt lat="23.06476" lon="113.271855">
        <time>2026-06-10T22:39:36Z</time>
      </trkpt>
      <trkpt lat="23.064801" lon="113.271767">
        <time>2026-06-10T22:39:41Z</time>
      </trkpt>
      <trkpt lat="23.064867" lon="113.271628">
        <time>2026-06-10T22:39:46Z</time>
      </trkpt>
      <trkpt lat="23.064909" lon="113.271541">
        <time>2026-06-10T22:39:51Z</time>
      </trkpt>
      <trkpt lat="23.064968" lon="113.271412">
        <time>2026-06-10T22:39:56Z</time>
      </trkpt>
      <trkpt lat="23.065007" lon="113.271322">
        <time>2026-06-10T22:40:01Z</time>
      </trkpt>
      <trkpt lat="23.065064" lon="113.271196">
        <time>2026-06-10T22:40:06Z</time>
      </trkpt>
      <trkpt lat="23.06511" lon="113.271122">
        <time>2026-06-10T22:40:11Z</time>
      </trkpt>
      <trkpt lat="23.065167" lon="113.271004">
        <time>2026-06-10T22:40:16Z</time>
      </trkpt>
      <trkpt lat="23.065192" lon="113.270914">
        <time>2026-06-10T22:40:21Z</time>
      </trkpt>
      <trkpt lat="23.065238" lon="113.270781">
        <time>2026-06-10T22:40:26Z</time>
      </trkpt>
      <trkpt lat="23.065275" lon="113.270694">
        <time>2026-06-10T22:40:31Z</time>
      </trkpt>
      <trkpt lat="23.06533" lon="113.270566">
        <time>2026-06-10T22:40:36Z</time>
      </trkpt>
      <trkpt lat="23.065368" lon="113.270481">
        <time>2026-06-10T22:40:41Z</time>
      </trkpt>
      <trkpt lat="23.065425" lon="113.270355">
        <time>2026-06-10T22:40:46Z</time>
      </trkpt>
      <trkpt lat="23.065463" lon="113.270276">
        <time>2026-06-10T22:40:51Z</time>
      </trkpt>
      <trkpt lat="23.065521" lon="113.270148">
        <time>2026-06-10T22:40:56Z</time>
      </trkpt>
      <trkpt lat="23.06555" lon="113.27006">
        <time>2026-06-10T22:41:01Z</time>
      </trkpt>
      <trkpt lat="23.065592" lon="113.269929">
        <time>2026-06-10T22:41:06Z</time>
      </trkpt>
      <trkpt lat="23.065621" lon="113.269841">
        <time>2026-06-10T22:41:11Z</time>
      </trkpt>
      <trkpt lat="23.065662" lon="113.269702">
        <time>2026-06-10T22:41:16Z</time>
      </trkpt>
      <trkpt lat="23.065693" lon="113.269612">
        <time>2026-06-10T22:41:21Z</time>
      </trkpt>
      <trkpt lat="23.065742" lon="113.269479">
        <time>2026-06-10T22:41:26Z</time>
      </trkpt>
      <trkpt lat="23.065761" lon="113.269386">
        <time>2026-06-10T22:41:31Z</time>
      </trkpt>
      <trkpt lat="23.065796" lon="113.269243">
        <time>2026-06-10T22:41:36Z</time>
      </trkpt>
      <trkpt lat="23.065824" lon="113.26915">
        <time>2026-06-10T22:41:41Z</time>
      </trkpt>
      <trkpt lat="23.065877" lon="113.269016">
        <time>2026-06-10T22:41:46Z</time>
      </trkpt>
      <trkpt lat="23.065915" lon="113.268924">
        <time>2026-06-10T22:41:51Z</time>
      </trkpt>
      <trkpt lat="23.065972" lon="113.268782">
        <time>2026-06-10T22:41:56Z</time>
      </trkpt>
      <trkpt lat="23.066013" lon="113.268686">
        <time>2026-06-10T22:42:01Z</time>
      </trkpt>
      <trkpt lat="23.066086" lon="113.268562">
        <time>2026-06-10T22:42:06Z</time>
      </trkpt>
      <trkpt lat="23.066139" lon="113.268484">
        <time>2026-06-10T22:42:11Z</time>
      </trkpt>
      <trkpt lat="23.066218" lon="113.268366">
        <time>2026-06-10T22:42:16Z</time>
      </trkpt>
      <trkpt lat="23.066274" lon="113.268296">
        <time>2026-06-10T22:42:21Z</time>
      </trkpt>
      <trkpt lat="23.066371" lon="113.268198">
        <time>2026-06-10T22:42:26Z</time>
      </trkpt>
      <trkpt lat="23.066453" lon="113.268158">
        <time>2026-06-10T22:42:31Z</time>
      </trkpt>
      <trkpt lat="23.066589" lon="113.268157">
        <time>2026-06-10T22:42:36Z</time>
      </trkpt>
      <trkpt lat="23.066674" lon="113.26817">
        <time>2026-06-10T22:42:41Z</time>
      </trkpt>
      <trkpt lat="23.066763" lon="113.26813">
        <time>2026-06-10T22:42:46Z</time>
      </trkpt>
      <trkpt lat="23.066722" lon="113.268055">
        <time>2026-06-10T22:42:51Z</time>
      </trkpt>
      <trkpt lat="23.066572" lon="113.267993">
        <time>2026-06-10T22:42:56Z</time>
      </trkpt>
      <trkpt lat="23.066471" lon="113.26797">
        <time>2026-06-10T22:43:01Z</time>
      </trkpt>
      <trkpt lat="23.06633" lon="113.267979">
        <time>2026-06-10T22:43:06Z</time>
      </trkpt>
      <trkpt lat="23.066247" lon="113.268006">
        <time>2026-06-10T22:43:11Z</time>
      </trkpt>
      <trkpt lat="23.066138" lon="113.268087">
        <time>2026-06-10T22:43:16Z</time>
      </trkpt>
      <trkpt lat="23.066075" lon="113.268154">
        <time>2026-06-10T22:43:21Z</time>
      </trkpt>
      <trkpt lat="23.065982" lon="113.268257">
        <time>2026-06-10T22:43:26Z</time>
      </trkpt>
      <trkpt lat="23.065925" lon="113.26833">
        <time>2026-06-10T22:43:31Z</time>
      </trkpt>
      <trkpt lat="23.065859" lon="113.268447">
        <time>2026-06-10T22:43:36Z</time>
      </trkpt>
      <trkpt lat="23.065818" lon="113.268523">
        <time>2026-06-10T22:43:41Z</time>
      </trkpt>
      <trkpt lat="23.065757" lon="113.268638">
        <time>2026-06-10T22:43:46Z</time>
      </trkpt>
      <trkpt lat="23.065715" lon="113.268716">
        <time>2026-06-10T22:43:51Z</time>
      </trkpt>
      <trkpt lat="23.065657" lon="113.268847">
        <time>2026-06-10T22:43:56Z</time>
      </trkpt>
      <trkpt lat="23.065621" lon="113.268939">
        <time>2026-06-10T22:44:01Z</time>
      </trkpt>
      <trkpt lat="23.065578" lon="113.269079">
        <time>2026-06-10T22:44:06Z</time>
      </trkpt>
      <trkpt lat="23.065552" lon="113.26917">
        <time>2026-06-10T22:44:11Z</time>
      </trkpt>
      <trkpt lat="23.065521" lon="113.269307">
        <time>2026-06-10T22:44:16Z</time>
      </trkpt>
      <trkpt lat="23.065526" lon="113.269402">
        <time>2026-06-10T22:44:21Z</time>
      </trkpt>
      <trkpt lat="23.065542" lon="113.269553">
        <time>2026-06-10T22:44:26Z</time>
      </trkpt>
      <trkpt lat="23.065549" lon="113.269655">
        <time>2026-06-10T22:44:31Z</time>
      </trkpt>
      <trkpt lat="23.065532" lon="113.269792">
        <time>2026-06-10T22:44:36Z</time>
      </trkpt>
      <trkpt lat="23.065504" lon="113.269878">
        <time>2026-06-10T22:44:41Z</time>
      </trkpt>
      <trkpt lat="23.06546" lon="113.270009">
        <time>2026-06-10T22:44:46Z</time>
      </trkpt>
      <trkpt lat="23.065425" lon="113.270094">
        <time>2026-06-10T22:44:51Z</time>
      </trkpt>
      <trkpt lat="23.065373" lon="113.270228">
        <time>2026-06-10T22:44:56Z</time>
      </trkpt>
      <trkpt lat="23.065373" lon="113.270309">
        <time>2026-06-10T22:45:01Z</time>
      </trkpt>
      <trkpt lat="23.065458" lon="113.27024">
        <time>2026-06-10T22:45:06Z</time>
      </trkpt>
      <trkpt lat="23.065498" lon="113.270139">
        <time>2026-06-10T22:45:11Z</time>
      </trkpt>
      <trkpt lat="23.065551" lon="113.269995">
        <time>2026-06-10T22:45:16Z</time>
      </trkpt>
      <trkpt lat="23.065585" lon="113.269908">
        <time>2026-06-10T22:45:21Z</time>
      </trkpt>
      <trkpt lat="23.065632" lon="113.269779">
        <time>2026-06-10T22:45:26Z</time>
      </trkpt>
      <trkpt lat="23.065666" lon="113.269688">
        <time>2026-06-10T22:45:31Z</time>
      </trkpt>
      <trkpt lat="23.065718" lon="113.269547">
        <time>2026-06-10T22:45:36Z</time>
      </trkpt>
      <trkpt lat="23.065735" lon="113.269444">
        <time>2026-06-10T22:45:41Z</time>
      </trkpt>
      <trkpt lat="23.065763" lon="113.2693">
        <time>2026-06-10T22:45:46Z</time>
      </trkpt>
      <trkpt lat="23.06579" lon="113.269206">
        <time>2026-06-10T22:45:51Z</time>
      </trkpt>
      <trkpt lat="23.065842" lon="113.269068">
        <time>2026-06-10T22:45:56Z</time>
      </trkpt>
      <trkpt lat="23.06588" lon="113.268977">
        <time>2026-06-10T22:46:01Z</time>
      </trkpt>
      <trkpt lat="23.065939" lon="113.268845">
        <time>2026-06-10T22:46:06Z</time>
      </trkpt>
      <trkpt lat="23.065977" lon="113.26876">
        <time>2026-06-10T22:46:11Z</time>
      </trkpt>
      <trkpt lat="23.066034" lon="113.268638">
        <time>2026-06-10T22:46:16Z</time>
      </trkpt>
      <trkpt lat="23.06608" lon="113.268557">
        <time>2026-06-10T22:46:21Z</time>
      </trkpt>
      <trkpt lat="23.066157" lon="113.26844">
        <time>2026-06-10T22:46:26Z</time>
      </trkpt>
      <trkpt lat="23.066212" lon="113.26836">
        <time>2026-06-10T22:46:31Z</time>
      </trkpt>
      <trkpt lat="23.066303" lon="113.268243">
        <time>2026-06-10T22:46:36Z</time>
      </trkpt>
      <trkpt lat="23.066375" lon="113.26818">
        <time>2026-06-10T22:46:41Z</time>
      </trkpt>
      <trkpt lat="23.066507" lon="113.268143">
        <time>2026-06-10T22:46:46Z</time>
      </trkpt>
      <trkpt lat="23.066599" lon="113.268153">
        <time>2026-06-10T22:46:51Z</time>
      </trkpt>
      <trkpt lat="23.066735" lon="113.268166">
        <time>2026-06-10T22:46:56Z</time>
      </trkpt>
      <trkpt lat="23.066827" lon="113.268164">
        <time>2026-06-10T22:47:01Z</time>
      </trkpt>
      <trkpt lat="23.066961" lon="113.268172">
        <time>2026-06-10T22:47:06Z</time>
      </trkpt>
      <trkpt lat="23.067037" lon="113.268201">
        <time>2026-06-10T22:47:11Z</time>
      </trkpt>
      <trkpt lat="23.067139" lon="113.268266">
        <time>2026-06-10T22:47:16Z</time>
      </trkpt>
      <trkpt lat="23.067217" lon="113.268305">
        <time>2026-06-10T22:47:21Z</time>
      </trkpt>
      <trkpt lat="23.067343" lon="113.268361">
        <time>2026-06-10T22:47:26Z</time>
      </trkpt>
      <trkpt lat="23.067426" lon="113.268394">
        <time>2026-06-10T22:47:31Z</time>
      </trkpt>
      <trkpt lat="23.067556" lon="113.268466">
        <time>2026-06-10T22:47:36Z</time>
      </trkpt>
      <trkpt lat="23.067651" lon="113.268523">
        <time>2026-06-10T22:47:41Z</time>
      </trkpt>
      <trkpt lat="23.067792" lon="113.268597">
        <time>2026-06-10T22:47:46Z</time>
      </trkpt>
      <trkpt lat="23.067878" lon="113.268645">
        <time>2026-06-10T22:47:51Z</time>
      </trkpt>
      <trkpt lat="23.067979" lon="113.268742">
        <time>2026-06-10T22:47:56Z</time>
      </trkpt>
      <trkpt lat="23.068042" lon="113.268791">
        <time>2026-06-10T22:48:01Z</time>
      </trkpt>
      <trkpt lat="23.068155" lon="113.268834">
        <time>2026-06-10T22:48:06Z</time>
      </trkpt>
      <trkpt lat="23.068245" lon="113.268854">
        <time>2026-06-10T22:48:11Z</time>
      </trkpt>
      <trkpt lat="23.068375" lon="113.268881">
        <time>2026-06-10T22:48:16Z</time>
      </trkpt>
      <trkpt lat="23.068448" lon="113.268926">
        <time>2026-06-10T22:48:21Z</time>
      </trkpt>
      <trkpt lat="23.068572" lon="113.269026">
        <time>2026-06-10T22:48:26Z</time>
      </trkpt>
      <trkpt lat="23.068663" lon="113.269087">
        <time>2026-06-10T22:48:31Z</time>
      </trkpt>
      <trkpt lat="23.068784" lon="113.269156">
        <time>2026-06-10T22:48:36Z</time>
      </trkpt>
      <trkpt lat="23.068875" lon="113.269186">
        <time>2026-06-10T22:48:41Z</time>
      </trkpt>
      <trkpt lat="23.069005" lon="113.269215">
        <time>2026-06-10T22:48:46Z</time>
      </trkpt>
      <trkpt lat="23.069099" lon="113.269249">
        <time>2026-06-10T22:48:51Z</time>
      </trkpt>
      <trkpt lat="23.069236" lon="113.269332">
        <time>2026-06-10T22:48:56Z</time>
      </trkpt>
      <trkpt lat="23.069325" lon="113.269387">
        <time>2026-06-10T22:49:01Z</time>
      </trkpt>
      <trkpt lat="23.069459" lon="113.269453">
        <time>2026-06-10T22:49:06Z</time>
      </trkpt>
      <trkpt lat="23.069547" lon="113.269496">
        <time>2026-06-10T22:49:11Z</time>
      </trkpt>
      <trkpt lat="23.069668" lon="113.269568">
        <time>2026-06-10T22:49:16Z</time>
      </trkpt>
      <trkpt lat="23.069752" lon="113.269616">
        <time>2026-06-10T22:49:21Z</time>
      </trkpt>
      <trkpt lat="23.069884" lon="113.269675">
        <time>2026-06-10T22:49:26Z</time>
      </trkpt>
      <trkpt lat="23.069969" lon="113.269721">
        <time>2026-06-10T22:49:31Z</time>
      </trkpt>
      <trkpt lat="23.070089" lon="113.269791">
        <time>2026-06-10T22:49:36Z</time>
      </trkpt>
      <trkpt lat="23.070172" lon="113.26983">
        <time>2026-06-10T22:49:41Z</time>
      </trkpt>
      <trkpt lat="23.070296" lon="113.269883">
        <time>2026-06-10T22:49:46Z</time>
      </trkpt>
      <trkpt lat="23.070378" lon="113.26991">
        <time>2026-06-10T22:49:51Z</time>
      </trkpt>
      <trkpt lat="23.070494" lon="113.269949">
        <time>2026-06-10T22:49:56Z</time>
      </trkpt>
      <trkpt lat="23.070569" lon="113.269971">
        <time>2026-06-10T22:50:01Z</time>
      </trkpt>
      <trkpt lat="23.070707" lon="113.270007">
        <time>2026-06-10T22:50:06Z</time>
      </trkpt>
      <trkpt lat="23.070805" lon="113.270033">
        <time>2026-06-10T22:50:11Z</time>
      </trkpt>
      <trkpt lat="23.070903" lon="113.270114">
        <time>2026-06-10T22:50:16Z</time>
      </trkpt>
      <trkpt lat="23.070961" lon="113.270178">
        <time>2026-06-10T22:50:21Z</time>
      </trkpt>
      <trkpt lat="23.071074" lon="113.270239">
        <time>2026-06-10T22:50:26Z</time>
      </trkpt>
      <trkpt lat="23.071167" lon="113.270275">
        <time>2026-06-10T22:50:31Z</time>
      </trkpt>
      <trkpt lat="23.071302" lon="113.270335">
        <time>2026-06-10T22:50:36Z</time>
      </trkpt>
      <trkpt lat="23.071388" lon="113.270364">
        <time>2026-06-10T22:50:41Z</time>
      </trkpt>
      <trkpt lat="23.071504" lon="113.270419">
        <time>2026-06-10T22:50:46Z</time>
      </trkpt>
      <trkpt lat="23.071589" lon="113.270447">
        <time>2026-06-10T22:50:51Z</time>
      </trkpt>
      <trkpt lat="23.071707" lon="113.270498">
        <time>2026-06-10T22:50:56Z</time>
      </trkpt>
      <trkpt lat="23.071795" lon="113.270514">
        <time>2026-06-10T22:51:01Z</time>
      </trkpt>
      <trkpt lat="23.07192" lon="113.270601">
        <time>2026-06-10T22:51:06Z</time>
      </trkpt>
      <trkpt lat="23.071992" lon="113.270673">
        <time>2026-06-10T22:51:11Z</time>
      </trkpt>
      <trkpt lat="23.072114" lon="113.270702">
        <time>2026-06-10T22:51:16Z</time>
      </trkpt>
      <trkpt lat="23.072205" lon="113.270708">
        <time>2026-06-10T22:51:21Z</time>
      </trkpt>
      <trkpt lat="23.072323" lon="113.270804">
        <time>2026-06-10T22:51:26Z</time>
      </trkpt>
      <trkpt lat="23.072413" lon="113.270838">
        <time>2026-06-10T22:51:31Z</time>
      </trkpt>
      <trkpt lat="23.072549" lon="113.270877">
        <time>2026-06-10T22:51:36Z</time>
      </trkpt>
      <trkpt lat="23.07262" lon="113.270922">
        <time>2026-06-10T22:51:41Z</time>
      </trkpt>
      <trkpt lat="23.072725" lon="113.270966">
        <time>2026-06-10T22:51:46Z</time>
      </trkpt>
      <trkpt lat="23.072789" lon="113.271">
        <time>2026-06-10T22:51:51Z</time>
      </trkpt>
      <trkpt lat="23.072905" lon="113.271049">
        <time>2026-06-10T22:51:56Z</time>
      </trkpt>
      <trkpt lat="23.072992" lon="113.271082">
        <time>2026-06-10T22:52:01Z</time>
      </trkpt>
      <trkpt lat="23.073126" lon="113.271164">
        <time>2026-06-10T22:52:06Z</time>
      </trkpt>
      <trkpt lat="23.073203" lon="113.271232">
        <time>2026-06-10T22:52:11Z</time>
      </trkpt>
      <trkpt lat="23.073326" lon="113.271302">
        <time>2026-06-10T22:52:16Z</time>
      </trkpt>
      <trkpt lat="23.073412" lon="113.271349">
        <time>2026-06-10T22:52:21Z</time>
      </trkpt>
      <trkpt lat="23.073524" lon="113.271407">
        <time>2026-06-10T22:52:26Z</time>
      </trkpt>
      <trkpt lat="23.073603" lon="113.271439">
        <time>2026-06-10T22:52:31Z</time>
      </trkpt>
      <trkpt lat="23.073733" lon="113.271493">
        <time>2026-06-10T22:52:36Z</time>
      </trkpt>
      <trkpt lat="23.073815" lon="113.271541">
        <time>2026-06-10T22:52:41Z</time>
      </trkpt>
      <trkpt lat="23.073913" lon="113.271579">
        <time>2026-06-10T22:52:46Z</time>
      </trkpt>
      <trkpt lat="23.07398" lon="113.27162">
        <time>2026-06-10T22:52:51Z</time>
      </trkpt>
      <trkpt lat="23.074089" lon="113.271723">
        <time>2026-06-10T22:52:56Z</time>
      </trkpt>
      <trkpt lat="23.074116" lon="113.271792">
        <time>2026-06-10T22:53:01Z</time>
      </trkpt>
      <trkpt lat="23.074062" lon="113.271906">
        <time>2026-06-10T22:53:06Z</time>
      </trkpt>
      <trkpt lat="23.074023" lon="113.271989">
        <time>2026-06-10T22:53:11Z</time>
      </trkpt>
      <trkpt lat="23.073972" lon="113.272107">
        <time>2026-06-10T22:53:16Z</time>
      </trkpt>
      <trkpt lat="23.073929" lon="113.272183">
        <time>2026-06-10T22:53:21Z</time>
      </trkpt>
      <trkpt lat="23.073856" lon="113.272316">
        <time>2026-06-10T22:53:26Z</time>
      </trkpt>
      <trkpt lat="23.073799" lon="113.272407">
        <time>2026-06-10T22:53:31Z</time>
      </trkpt>
      <trkpt lat="23.073742" lon="113.272553">
        <time>2026-06-10T22:53:36Z</time>
      </trkpt>
      <trkpt lat="23.073707" lon="113.272646">
        <time>2026-06-10T22:53:41Z</time>
      </trkpt>
      <trkpt lat="23.07365" lon="113.272788">
        <time>2026-06-10T22:53:46Z</time>
      </trkpt>
      <trkpt lat="23.073613" lon="113.272874">
        <time>2026-06-10T22:53:51Z</time>
      </trkpt>
      <trkpt lat="23.073585" lon="113.272974">
        <time>2026-06-10T22:53:56Z</time>
      </trkpt>
      <trkpt lat="23.07364" lon="113.272932">
        <time>2026-06-10T22:54:01Z</time>
      </trkpt>
      <trkpt lat="23.073758" lon="113.27292">
        <time>2026-06-10T22:54:06Z</time>
      </trkpt>
      <trkpt lat="23.073854" lon="113.272974">
        <time>2026-06-10T22:54:11Z</time>
      </trkpt>
      <trkpt lat="23.074" lon="113.273003">
        <time>2026-06-10T22:54:16Z</time>
      </trkpt>
      <trkpt lat="23.074056" lon="113.272942">
        <time>2026-06-10T22:54:21Z</time>
      </trkpt>
      <trkpt lat="23.074112" lon="113.272812">
        <time>2026-06-10T22:54:26Z</time>
      </trkpt>
      <trkpt lat="23.074141" lon="113.272728">
        <time>2026-06-10T22:54:31Z</time>
      </trkpt>
      <trkpt lat="23.074169" lon="113.272612">
        <time>2026-06-10T22:54:36Z</time>
      </trkpt>
      <trkpt lat="23.074206" lon="113.272538">
        <time>2026-06-10T22:54:41Z</time>
      </trkpt>
      <trkpt lat="23.07427" lon="113.272411">
        <time>2026-06-10T22:54:46Z</time>
      </trkpt>
      <trkpt lat="23.074306" lon="113.272333">
        <time>2026-06-10T22:54:51Z</time>
      </trkpt>
      <trkpt lat="23.074361" lon="113.27222">
        <time>2026-06-10T22:54:56Z</time>
      </trkpt>
      <trkpt lat="23.074433" lon="113.272123">
        <time>2026-06-10T22:55:01Z</time>
      </trkpt>
      <trkpt lat="23.074507" lon="113.271998">
        <time>2026-06-10T22:55:06Z</time>
      </trkpt>
      <trkpt lat="23.074562" lon="113.272012">
        <time>2026-06-10T22:55:11Z</time>
      </trkpt>
      <trkpt lat="23.074665" lon="113.27208">
        <time>2026-06-10T22:55:16Z</time>
      </trkpt>
      <trkpt lat="23.074737" lon="113.272114">
        <time>2026-06-10T22:55:21Z</time>
      </trkpt>
      <trkpt lat="23.074836" lon="113.272182">
        <time>2026-06-10T22:55:26Z</time>
      </trkpt>
      <trkpt lat="23.074895" lon="113.272243">
        <time>2026-06-10T22:55:31Z</time>
      </trkpt>
      <trkpt lat="23.074991" lon="113.272325">
        <time>2026-06-10T22:55:36Z</time>
      </trkpt>
      <trkpt lat="23.07506" lon="113.272379">
        <time>2026-06-10T22:55:41Z</time>
      </trkpt>
      <trkpt lat="23.075146" lon="113.272477">
        <time>2026-06-10T22:55:46Z</time>
      </trkpt>
      <trkpt lat="23.075174" lon="113.272565">
        <time>2026-06-10T22:55:51Z</time>
      </trkpt>
      <trkpt lat="23.075212" lon="113.272702">
        <time>2026-06-10T22:55:56Z</time>
      </trkpt>
      <trkpt lat="23.075224" lon="113.272789">
        <time>2026-06-10T22:56:01Z</time>
      </trkpt>
      <trkpt lat="23.075252" lon="113.272918">
        <time>2026-06-10T22:56:06Z</time>
      </trkpt>
      <trkpt lat="23.075314" lon="113.272992">
        <time>2026-06-10T22:56:11Z</time>
      </trkpt>
      <trkpt lat="23.075396" lon="113.273127">
        <time>2026-06-10T22:56:16Z</time>
      </trkpt>
      <trkpt lat="23.075432" lon="113.273227">
        <time>2026-06-10T22:56:21Z</time>
      </trkpt>
      <trkpt lat="23.075546" lon="113.273349">
        <time>2026-06-10T22:56:26Z</time>
      </trkpt>
      <trkpt lat="23.075625" lon="113.273384">
        <time>2026-06-10T22:56:31Z</time>
      </trkpt>
      <trkpt lat="23.075745" lon="113.273346">
        <time>2026-06-10T22:56:36Z</time>
      </trkpt>
      <trkpt lat="23.075806" lon="113.273268">
        <time>2026-06-10T22:56:41Z</time>
      </trkpt>
      <trkpt lat="23.075859" lon="113.273131">
        <time>2026-06-10T22:56:46Z</time>
      </trkpt>
      <trkpt lat="23.075874" lon="113.273032">
        <time>2026-06-10T22:56:51Z</time>
      </trkpt>
      <trkpt lat="23.075924" lon="113.272885">
        <time>2026-06-10T22:56:56Z</time>
      </trkpt>
      <trkpt lat="23.07596" lon="113.272798">
        <time>2026-06-10T22:57:01Z</time>
      </trkpt>
      <trkpt lat="23.075877" lon="113.272705">
        <time>2026-06-10T22:57:06Z</time>
      </trkpt>
      <trkpt lat="23.075792" lon="113.272666">
        <time>2026-06-10T22:57:11Z</time>
      </trkpt>
      <trkpt lat="23.075673" lon="113.27261">
        <time>2026-06-10T22:57:16Z</time>
      </trkpt>
      <trkpt lat="23.075592" lon="113.272569">
        <time>2026-06-10T22:57:21Z</time>
      </trkpt>
      <trkpt lat="23.075496" lon="113.272471">
        <time>2026-06-10T22:57:26Z</time>
      </trkpt>
      <trkpt lat="23.075451" lon="113.272432">
        <time>2026-06-10T22:57:31Z</time>
      </trkpt>
      <trkpt lat="23.075537" lon="113.272487">
        <time>2026-06-10T22:57:40Z</time>
      </trkpt>
    </trkseg>
  </trk>
</gpx>