<?xml version="1.0" encoding="UTF-8"?>
<gpx xmlns="http://www.topografix.com/GPX/1/1" xmlns:gpxtpx="http://www.garmin.com/xmlschemas/TrackPointExtension/v1" xmlns:xsi="http://www.w3.org/2001/XMLSchema-instance" xsi:schemaLocation="http://www.topografix.com/GPX/1/1 http://www.topografix.com/GPX/1/1/gpx.xsd" version="1.1" creator="gpx.py -- https://github.com/tkrajina/gpxpy">
  <trk>
    <name>gpx from joyrun</name>
    <trkseg>
      <trkpt lat="23.076097" lon="113.272752">
        <time>2026-06-15T21:52:10Z</time>
      </trkpt>
      <trkpt lat="23.076108" lon="113.272736">
        <time>2026-06-15T21:52:15Z</time>
      </trkpt>
      <trkpt lat="23.076107" lon="113.27266">
        <time>2026-06-15T21:52:20Z</time>
      </trkpt>
      <trkpt lat="23.075946" lon="113.272564">
        <time>2026-06-15T21:52:25Z</time>
      </trkpt>
      <trkpt lat="23.075839" lon="113.272528">
        <time>2026-06-15T21:52:30Z</time>
      </trkpt>
      <trkpt lat="23.075702" lon="113.272469">
        <time>2026-06-15T21:52:35Z</time>
      </trkpt>
      <trkpt lat="23.075609" lon="113.27243">
        <time>2026-06-15T21:52:40Z</time>
      </trkpt>
      <trkpt lat="23.075456" lon="113.272387">
        <time>2026-06-15T21:52:45Z</time>
      </trkpt>
      <trkpt lat="23.075364" lon="113.272359">
        <time>2026-06-15T21:52:50Z</time>
      </trkpt>
      <trkpt lat="23.075245" lon="113.272259">
        <time>2026-06-15T21:52:55Z</time>
      </trkpt>
      <trkpt lat="23.07517" lon="113.272196">
        <time>2026-06-15T21:53:00Z</time>
      </trkpt>
      <trkpt lat="23.075062" lon="113.27212">
        <time>2026-06-15T21:53:05Z</time>
      </trkpt>
      <trkpt lat="23.074968" lon="113.272094">
        <time>2026-06-15T21:53:10Z</time>
      </trkpt>
      <trkpt lat="23.07482" lon="113.27206">
        <time>2026-06-15T21:53:15Z</time>
      </trkpt>
      <trkpt lat="23.074737" lon="113.272005">
        <time>2026-06-15T21:53:20Z</time>
      </trkpt>
      <trkpt lat="23.074615" lon="113.271921">
        <time>2026-06-15T21:53:25Z</time>
      </trkpt>
      <trkpt lat="23.074531" lon="113.271863">
        <time>2026-06-15T21:53:30Z</time>
      </trkpt>
      <trkpt lat="23.074431" lon="113.271911">
        <time>2026-06-15T21:53:35Z</time>
      </trkpt>
      <trkpt lat="23.074371" lon="113.272021">
        <time>2026-06-15T21:53:40Z</time>
      </trkpt>
      <trkpt lat="23.074306" lon="113.272192">
        <time>2026-06-15T21:53:45Z</time>
      </trkpt>
      <trkpt lat="23.074265" lon="113.27231">
        <time>2026-06-15T21:53:50Z</time>
      </trkpt>
      <trkpt lat="23.074204" lon="113.272453">
        <time>2026-06-15T21:53:55Z</time>
      </trkpt>
      <trkpt lat="23.074164" lon="113.272564">
        <time>2026-06-15T21:54:00Z</time>
      </trkpt>
      <trkpt lat="23.074115" lon="113.272723">
        <time>2026-06-15T21:54:05Z</time>
      </trkpt>
      <trkpt lat="23.074071" lon="113.272827">
        <time>2026-06-15T21:54:10Z</time>
      </trkpt>
      <trkpt lat="23.074016" lon="113.272968">
        <time>2026-06-15T21:54:15Z</time>
      </trkpt>
      <trkpt lat="23.073983" lon="113.273056">
        <time>2026-06-15T21:54:20Z</time>
      </trkpt>
      <trkpt lat="23.073929" lon="113.273155">
        <time>2026-06-15T21:54:25Z</time>
      </trkpt>
      <trkpt lat="23.073925" lon="113.273111">
        <time>2026-06-15T21:54:30Z</time>
      </trkpt>
      <trkpt lat="23.073908" lon="113.27298">
        <time>2026-06-15T21:54:35Z</time>
      </trkpt>
      <trkpt lat="23.073828" lon="113.272929">
        <time>2026-06-15T21:54:40Z</time>
      </trkpt>
      <trkpt lat="23.073712" lon="113.272858">
        <time>2026-06-15T21:54:45Z</time>
      </trkpt>
      <trkpt lat="23.073713" lon="113.272774">
        <time>2026-06-15T21:54:50Z</time>
      </trkpt>
      <trkpt lat="23.073773" lon="113.272644">
        <time>2026-06-15T21:54:55Z</time>
      </trkpt>
      <trkpt lat="23.073817" lon="113.272561">
        <time>2026-06-15T21:55:00Z</time>
      </trkpt>
      <trkpt lat="23.073869" lon="113.272438">
        <time>2026-06-15T21:55:05Z</time>
      </trkpt>
      <trkpt lat="23.073914" lon="113.272349">
        <time>2026-06-15T21:55:10Z</time>
      </trkpt>
      <trkpt lat="23.073975" lon="113.272208">
        <time>2026-06-15T21:55:15Z</time>
      </trkpt>
      <trkpt lat="23.07401" lon="113.272119">
        <time>2026-06-15T21:55:20Z</time>
      </trkpt>
      <trkpt lat="23.074074" lon="113.271995">
        <time>2026-06-15T21:55:25Z</time>
      </trkpt>
      <trkpt lat="23.07411" lon="113.271908">
        <time>2026-06-15T21:55:30Z</time>
      </trkpt>
      <trkpt lat="23.074137" lon="113.271768">
        <time>2026-06-15T21:55:35Z</time>
      </trkpt>
      <trkpt lat="23.074109" lon="113.271679">
        <time>2026-06-15T21:55:40Z</time>
      </trkpt>
      <trkpt lat="23.073973" lon="113.271573">
        <time>2026-06-15T21:55:45Z</time>
      </trkpt>
      <trkpt lat="23.073868" lon="113.271524">
        <time>2026-06-15T21:55:50Z</time>
      </trkpt>
      <trkpt lat="23.073723" lon="113.271455">
        <time>2026-06-15T21:55:55Z</time>
      </trkpt>
      <trkpt lat="23.073634" lon="113.271412">
        <time>2026-06-15T21:56:00Z</time>
      </trkpt>
      <trkpt lat="23.073497" lon="113.271341">
        <time>2026-06-15T21:56:05Z</time>
      </trkpt>
      <trkpt lat="23.073406" lon="113.271298">
        <time>2026-06-15T21:56:10Z</time>
      </trkpt>
      <trkpt lat="23.073292" lon="113.271235">
        <time>2026-06-15T21:56:15Z</time>
      </trkpt>
      <trkpt lat="23.073248" lon="113.271192">
        <time>2026-06-15T21:56:20Z</time>
      </trkpt>
      <trkpt lat="23.073125" lon="113.271126">
        <time>2026-06-15T21:56:25Z</time>
      </trkpt>
      <trkpt lat="23.073036" lon="113.271084">
        <time>2026-06-15T21:56:30Z</time>
      </trkpt>
      <trkpt lat="23.072902" lon="113.27102">
        <time>2026-06-15T21:56:35Z</time>
      </trkpt>
      <trkpt lat="23.072815" lon="113.270976">
        <time>2026-06-15T21:56:40Z</time>
      </trkpt>
      <trkpt lat="23.072672" lon="113.270925">
        <time>2026-06-15T21:56:45Z</time>
      </trkpt>
      <trkpt lat="23.072578" lon="113.270884">
        <time>2026-06-15T21:56:50Z</time>
      </trkpt>
      <trkpt lat="23.072433" lon="113.27083">
        <time>2026-06-15T21:56:55Z</time>
      </trkpt>
      <trkpt lat="23.072333" lon="113.27079">
        <time>2026-06-15T21:57:00Z</time>
      </trkpt>
      <trkpt lat="23.072194" lon="113.27071">
        <time>2026-06-15T21:57:05Z</time>
      </trkpt>
      <trkpt lat="23.072117" lon="113.270657">
        <time>2026-06-15T21:57:10Z</time>
      </trkpt>
      <trkpt lat="23.072" lon="113.270567">
        <time>2026-06-15T21:57:15Z</time>
      </trkpt>
      <trkpt lat="23.071905" lon="113.270529">
        <time>2026-06-15T21:57:20Z</time>
      </trkpt>
      <trkpt lat="23.071762" lon="113.270461">
        <time>2026-06-15T21:57:25Z</time>
      </trkpt>
      <trkpt lat="23.071666" lon="113.270413">
        <time>2026-06-15T21:57:30Z</time>
      </trkpt>
      <trkpt lat="23.071521" lon="113.27035">
        <time>2026-06-15T21:57:35Z</time>
      </trkpt>
      <trkpt lat="23.07143" lon="113.270302">
        <time>2026-06-15T21:57:40Z</time>
      </trkpt>
      <trkpt lat="23.071298" lon="113.270229">
        <time>2026-06-15T21:57:45Z</time>
      </trkpt>
      <trkpt lat="23.071206" lon="113.270186">
        <time>2026-06-15T21:57:50Z</time>
      </trkpt>
      <trkpt lat="23.071074" lon="113.270139">
        <time>2026-06-15T21:57:55Z</time>
      </trkpt>
      <trkpt lat="23.070982" lon="113.270108">
        <time>2026-06-15T21:58:00Z</time>
      </trkpt>
      <trkpt lat="23.070853" lon="113.270052">
        <time>2026-06-15T21:58:05Z</time>
      </trkpt>
      <trkpt lat="23.070761" lon="113.270005">
        <time>2026-06-15T21:58:10Z</time>
      </trkpt>
      <trkpt lat="23.070616" lon="113.269934">
        <time>2026-06-15T21:58:15Z</time>
      </trkpt>
      <trkpt lat="23.070519" lon="113.269881">
        <time>2026-06-15T21:58:20Z</time>
      </trkpt>
      <trkpt lat="23.070378" lon="113.269813">
        <time>2026-06-15T21:58:25Z</time>
      </trkpt>
      <trkpt lat="23.070284" lon="113.269776">
        <time>2026-06-15T21:58:30Z</time>
      </trkpt>
      <trkpt lat="23.070145" lon="113.269712">
        <time>2026-06-15T21:58:35Z</time>
      </trkpt>
      <trkpt lat="23.070059" lon="113.269663">
        <time>2026-06-15T21:58:40Z</time>
      </trkpt>
      <trkpt lat="23.069936" lon="113.269572">
        <time>2026-06-15T21:58:45Z</time>
      </trkpt>
      <trkpt lat="23.069853" lon="113.26952">
        <time>2026-06-15T21:58:50Z</time>
      </trkpt>
      <trkpt lat="23.069715" lon="113.269462">
        <time>2026-06-15T21:58:55Z</time>
      </trkpt>
      <trkpt lat="23.069625" lon="113.26941">
        <time>2026-06-15T21:59:00Z</time>
      </trkpt>
      <trkpt lat="23.069505" lon="113.269343">
        <time>2026-06-15T21:59:05Z</time>
      </trkpt>
      <trkpt lat="23.069426" lon="113.269308">
        <time>2026-06-15T21:59:10Z</time>
      </trkpt>
      <trkpt lat="23.069299" lon="113.269248">
        <time>2026-06-15T21:59:15Z</time>
      </trkpt>
      <trkpt lat="23.069212" lon="113.269203">
        <time>2026-06-15T21:59:20Z</time>
      </trkpt>
      <trkpt lat="23.069081" lon="113.269155">
        <time>2026-06-15T21:59:25Z</time>
      </trkpt>
      <trkpt lat="23.068996" lon="113.269123">
        <time>2026-06-15T21:59:30Z</time>
      </trkpt>
      <trkpt lat="23.068845" lon="113.269068">
        <time>2026-06-15T21:59:35Z</time>
      </trkpt>
      <trkpt lat="23.068749" lon="113.269023">
        <time>2026-06-15T21:59:40Z</time>
      </trkpt>
      <trkpt lat="23.068611" lon="113.268962">
        <time>2026-06-15T21:59:45Z</time>
      </trkpt>
      <trkpt lat="23.068528" lon="113.26893">
        <time>2026-06-15T21:59:50Z</time>
      </trkpt>
      <trkpt lat="23.068414" lon="113.26889">
        <time>2026-06-15T21:59:55Z</time>
      </trkpt>
      <trkpt lat="23.068326" lon="113.268839">
        <time>2026-06-15T22:00:00Z</time>
      </trkpt>
      <trkpt lat="23.068198" lon="113.268777">
        <time>2026-06-15T22:00:05Z</time>
      </trkpt>
      <trkpt lat="23.068118" lon="113.268742">
        <time>2026-06-15T22:00:10Z</time>
      </trkpt>
      <trkpt lat="23.067994" lon="113.268631">
        <time>2026-06-15T22:00:15Z</time>
      </trkpt>
      <trkpt lat="23.067894" lon="113.268565">
        <time>2026-06-15T22:00:20Z</time>
      </trkpt>
      <trkpt lat="23.067778" lon="113.268447">
        <time>2026-06-15T22:00:25Z</time>
      </trkpt>
      <trkpt lat="23.067688" lon="113.268388">
        <time>2026-06-15T22:00:30Z</time>
      </trkpt>
      <trkpt lat="23.067548" lon="113.268319">
        <time>2026-06-15T22:00:35Z</time>
      </trkpt>
      <trkpt lat="23.067464" lon="113.268271">
        <time>2026-06-15T22:00:40Z</time>
      </trkpt>
      <trkpt lat="23.067346" lon="113.268197">
        <time>2026-06-15T22:00:45Z</time>
      </trkpt>
      <trkpt lat="23.067268" lon="113.268153">
        <time>2026-06-15T22:00:50Z</time>
      </trkpt>
      <trkpt lat="23.067153" lon="113.26811">
        <time>2026-06-15T22:00:55Z</time>
      </trkpt>
      <trkpt lat="23.06707" lon="113.26808">
        <time>2026-06-15T22:01:00Z</time>
      </trkpt>
      <trkpt lat="23.066932" lon="113.268045">
        <time>2026-06-15T22:01:05Z</time>
      </trkpt>
      <trkpt lat="23.066826" lon="113.268025">
        <time>2026-06-15T22:01:10Z</time>
      </trkpt>
      <trkpt lat="23.066677" lon="113.268005">
        <time>2026-06-15T22:01:15Z</time>
      </trkpt>
      <trkpt lat="23.066585" lon="113.267968">
        <time>2026-06-15T22:01:20Z</time>
      </trkpt>
      <trkpt lat="23.066447" lon="113.267926">
        <time>2026-06-15T22:01:25Z</time>
      </trkpt>
      <trkpt lat="23.066355" lon="113.267936">
        <time>2026-06-15T22:01:30Z</time>
      </trkpt>
      <trkpt lat="23.066231" lon="113.268008">
        <time>2026-06-15T22:01:35Z</time>
      </trkpt>
      <trkpt lat="23.066158" lon="113.268075">
        <time>2026-06-15T22:01:40Z</time>
      </trkpt>
      <trkpt lat="23.066055" lon="113.268194">
        <time>2026-06-15T22:01:45Z</time>
      </trkpt>
      <trkpt lat="23.065991" lon="113.268278">
        <time>2026-06-15T22:01:50Z</time>
      </trkpt>
      <trkpt lat="23.065901" lon="113.268409">
        <time>2026-06-15T22:01:55Z</time>
      </trkpt>
      <trkpt lat="23.065838" lon="113.268493">
        <time>2026-06-15T22:02:00Z</time>
      </trkpt>
      <trkpt lat="23.065765" lon="113.268628">
        <time>2026-06-15T22:02:05Z</time>
      </trkpt>
      <trkpt lat="23.065721" lon="113.268721">
        <time>2026-06-15T22:02:10Z</time>
      </trkpt>
      <trkpt lat="23.065666" lon="113.268862">
        <time>2026-06-15T22:02:15Z</time>
      </trkpt>
      <trkpt lat="23.065636" lon="113.268959">
        <time>2026-06-15T22:02:20Z</time>
      </trkpt>
      <trkpt lat="23.065591" lon="113.269108">
        <time>2026-06-15T22:02:25Z</time>
      </trkpt>
      <trkpt lat="23.065566" lon="113.269207">
        <time>2026-06-15T22:02:30Z</time>
      </trkpt>
      <trkpt lat="23.065528" lon="113.269351">
        <time>2026-06-15T22:02:35Z</time>
      </trkpt>
      <trkpt lat="23.065502" lon="113.269453">
        <time>2026-06-15T22:02:40Z</time>
      </trkpt>
      <trkpt lat="23.065469" lon="113.269612">
        <time>2026-06-15T22:02:45Z</time>
      </trkpt>
      <trkpt lat="23.065447" lon="113.269718">
        <time>2026-06-15T22:02:50Z</time>
      </trkpt>
      <trkpt lat="23.065398" lon="113.269866">
        <time>2026-06-15T22:02:55Z</time>
      </trkpt>
      <trkpt lat="23.065365" lon="113.269968">
        <time>2026-06-15T22:03:00Z</time>
      </trkpt>
      <trkpt lat="23.065306" lon="113.27012">
        <time>2026-06-15T22:03:05Z</time>
      </trkpt>
      <trkpt lat="23.065261" lon="113.270217">
        <time>2026-06-15T22:03:10Z</time>
      </trkpt>
      <trkpt lat="23.06519" lon="113.270362">
        <time>2026-06-15T22:03:15Z</time>
      </trkpt>
      <trkpt lat="23.065149" lon="113.270458">
        <time>2026-06-15T22:03:20Z</time>
      </trkpt>
      <trkpt lat="23.065083" lon="113.270595">
        <time>2026-06-15T22:03:25Z</time>
      </trkpt>
      <trkpt lat="23.065041" lon="113.270687">
        <time>2026-06-15T22:03:30Z</time>
      </trkpt>
      <trkpt lat="23.064973" lon="113.270827">
        <time>2026-06-15T22:03:35Z</time>
      </trkpt>
      <trkpt lat="23.064932" lon="113.270918">
        <time>2026-06-15T22:03:40Z</time>
      </trkpt>
      <trkpt lat="23.064865" lon="113.271052">
        <time>2026-06-15T22:03:45Z</time>
      </trkpt>
      <trkpt lat="23.064823" lon="113.271141">
        <time>2026-06-15T22:03:50Z</time>
      </trkpt>
      <trkpt lat="23.064759" lon="113.271281">
        <time>2026-06-15T22:03:55Z</time>
      </trkpt>
      <trkpt lat="23.064715" lon="113.271374">
        <time>2026-06-15T22:04:00Z</time>
      </trkpt>
      <trkpt lat="23.064649" lon="113.271518">
        <time>2026-06-15T22:04:05Z</time>
      </trkpt>
      <trkpt lat="23.064609" lon="113.271613">
        <time>2026-06-15T22:04:10Z</time>
      </trkpt>
      <trkpt lat="23.064544" lon="113.271752">
        <time>2026-06-15T22:04:15Z</time>
      </trkpt>
      <trkpt lat="23.064502" lon="113.27185">
        <time>2026-06-15T22:04:20Z</time>
      </trkpt>
      <trkpt lat="23.064437" lon="113.272003">
        <time>2026-06-15T22:04:25Z</time>
      </trkpt>
      <trkpt lat="23.064389" lon="113.272094">
        <time>2026-06-15T22:04:30Z</time>
      </trkpt>
      <trkpt lat="23.064322" lon="113.272221">
        <time>2026-06-15T22:04:35Z</time>
      </trkpt>
      <trkpt lat="23.064318" lon="113.272322">
        <time>2026-06-15T22:04:40Z</time>
      </trkpt>
      <trkpt lat="23.064309" lon="113.272481">
        <time>2026-06-15T22:04:45Z</time>
      </trkpt>
      <trkpt lat="23.064314" lon="113.272589">
        <time>2026-06-15T22:04:50Z</time>
      </trkpt>
      <trkpt lat="23.064346" lon="113.272749">
        <time>2026-06-15T22:04:55Z</time>
      </trkpt>
      <trkpt lat="23.064376" lon="113.272854">
        <time>2026-06-15T22:05:00Z</time>
      </trkpt>
      <trkpt lat="23.06442" lon="113.273005">
        <time>2026-06-15T22:05:05Z</time>
      </trkpt>
      <trkpt lat="23.06444" lon="113.2731">
        <time>2026-06-15T22:05:10Z</time>
      </trkpt>
      <trkpt lat="23.064414" lon="113.273246">
        <time>2026-06-15T22:05:15Z</time>
      </trkpt>
      <trkpt lat="23.064349" lon="113.273323">
        <time>2026-06-15T22:05:20Z</time>
      </trkpt>
      <trkpt lat="23.064215" lon="113.273417">
        <time>2026-06-15T22:05:25Z</time>
      </trkpt>
      <trkpt lat="23.064133" lon="113.273481">
        <time>2026-06-15T22:05:30Z</time>
      </trkpt>
      <trkpt lat="23.06402" lon="113.27358">
        <time>2026-06-15T22:05:35Z</time>
      </trkpt>
      <trkpt lat="23.063946" lon="113.273652">
        <time>2026-06-15T22:05:40Z</time>
      </trkpt>
      <trkpt lat="23.063847" lon="113.27378">
        <time>2026-06-15T22:05:45Z</time>
      </trkpt>
      <trkpt lat="23.063795" lon="113.273871">
        <time>2026-06-15T22:05:50Z</time>
      </trkpt>
      <trkpt lat="23.063716" lon="113.273999">
        <time>2026-06-15T22:05:55Z</time>
      </trkpt>
      <trkpt lat="23.06365" lon="113.274066">
        <time>2026-06-15T22:06:00Z</time>
      </trkpt>
      <trkpt lat="23.06353" lon="113.274097">
        <time>2026-06-15T22:06:05Z</time>
      </trkpt>
      <trkpt lat="23.063448" lon="113.274073">
        <time>2026-06-15T22:06:10Z</time>
      </trkpt>
      <trkpt lat="23.06336" lon="113.274192">
        <time>2026-06-15T22:06:15Z</time>
      </trkpt>
      <trkpt lat="23.063308" lon="113.274314">
        <time>2026-06-15T22:06:20Z</time>
      </trkpt>
      <trkpt lat="23.063247" lon="113.274486">
        <time>2026-06-15T22:06:25Z</time>
      </trkpt>
      <trkpt lat="23.063205" lon="113.274612">
        <time>2026-06-15T22:06:30Z</time>
      </trkpt>
      <trkpt lat="23.063171" lon="113.274726">
        <time>2026-06-15T22:06:35Z</time>
      </trkpt>
      <trkpt lat="23.063119" lon="113.274884">
        <time>2026-06-15T22:06:40Z</time>
      </trkpt>
      <trkpt lat="23.063085" lon="113.274993">
        <time>2026-06-15T22:06:45Z</time>
      </trkpt>
      <trkpt lat="23.063024" lon="113.27514">
        <time>2026-06-15T22:06:50Z</time>
      </trkpt>
      <trkpt lat="23.062943" lon="113.275204">
        <time>2026-06-15T22:06:55Z</time>
      </trkpt>
      <trkpt lat="23.062907" lon="113.275356">
        <time>2026-06-15T22:07:00Z</time>
      </trkpt>
      <trkpt lat="23.062923" lon="113.275468">
        <time>2026-06-15T22:07:05Z</time>
      </trkpt>
      <trkpt lat="23.06285" lon="113.275608">
        <time>2026-06-15T22:07:10Z</time>
      </trkpt>
      <trkpt lat="23.062771" lon="113.275677">
        <time>2026-06-15T22:07:15Z</time>
      </trkpt>
      <trkpt lat="23.062654" lon="113.275788">
        <time>2026-06-15T22:07:20Z</time>
      </trkpt>
      <trkpt lat="23.062593" lon="113.275876">
        <time>2026-06-15T22:07:25Z</time>
      </trkpt>
      <trkpt lat="23.062507" lon="113.276015">
        <time>2026-06-15T22:07:30Z</time>
      </trkpt>
      <trkpt lat="23.062452" lon="113.276106">
        <time>2026-06-15T22:07:35Z</time>
      </trkpt>
      <trkpt lat="23.062385" lon="113.276247">
        <time>2026-06-15T22:07:40Z</time>
      </trkpt>
      <trkpt lat="23.062349" lon="113.276337">
        <time>2026-06-15T22:07:45Z</time>
      </trkpt>
      <trkpt lat="23.062299" lon="113.27647">
        <time>2026-06-15T22:07:50Z</time>
      </trkpt>
      <trkpt lat="23.062268" lon="113.276564">
        <time>2026-06-15T22:07:55Z</time>
      </trkpt>
      <trkpt lat="23.062215" lon="113.276702">
        <time>2026-06-15T22:08:00Z</time>
      </trkpt>
      <trkpt lat="23.062181" lon="113.276796">
        <time>2026-06-15T22:08:05Z</time>
      </trkpt>
      <trkpt lat="23.062125" lon="113.276943">
        <time>2026-06-15T22:08:10Z</time>
      </trkpt>
      <trkpt lat="23.062089" lon="113.277045">
        <time>2026-06-15T22:08:15Z</time>
      </trkpt>
      <trkpt lat="23.062018" lon="113.27721">
        <time>2026-06-15T22:08:20Z</time>
      </trkpt>
      <trkpt lat="23.061971" lon="113.277324">
        <time>2026-06-15T22:08:25Z</time>
      </trkpt>
      <trkpt lat="23.061911" lon="113.277486">
        <time>2026-06-15T22:08:30Z</time>
      </trkpt>
      <trkpt lat="23.061872" lon="113.277588">
        <time>2026-06-15T22:08:35Z</time>
      </trkpt>
      <trkpt lat="23.061827" lon="113.277741">
        <time>2026-06-15T22:08:40Z</time>
      </trkpt>
      <trkpt lat="23.061816" lon="113.277845">
        <time>2026-06-15T22:08:45Z</time>
      </trkpt>
      <trkpt lat="23.061813" lon="113.277999">
        <time>2026-06-15T22:08:50Z</time>
      </trkpt>
      <trkpt lat="23.06182" lon="113.278098">
        <time>2026-06-15T22:08:55Z</time>
      </trkpt>
      <trkpt lat="23.061829" lon="113.278248">
        <time>2026-06-15T22:09:00Z</time>
      </trkpt>
      <trkpt lat="23.061831" lon="113.278352">
        <time>2026-06-15T22:09:05Z</time>
      </trkpt>
      <trkpt lat="23.061841" lon="113.278505">
        <time>2026-06-15T22:09:10Z</time>
      </trkpt>
      <trkpt lat="23.061842" lon="113.278609">
        <time>2026-06-15T22:09:15Z</time>
      </trkpt>
      <trkpt lat="23.061805" lon="113.278738">
        <time>2026-06-15T22:09:20Z</time>
      </trkpt>
      <trkpt lat="23.061736" lon="113.278781">
        <time>2026-06-15T22:09:25Z</time>
      </trkpt>
      <trkpt lat="23.061676" lon="113.278921">
        <time>2026-06-15T22:09:30Z</time>
      </trkpt>
      <trkpt lat="23.061639" lon="113.279021">
        <time>2026-06-15T22:09:35Z</time>
      </trkpt>
      <trkpt lat="23.061577" lon="113.279163">
        <time>2026-06-15T22:09:40Z</time>
      </trkpt>
      <trkpt lat="23.061537" lon="113.279261">
        <time>2026-06-15T22:09:45Z</time>
      </trkpt>
      <trkpt lat="23.061478" lon="113.279411">
        <time>2026-06-15T22:09:50Z</time>
      </trkpt>
      <trkpt lat="23.061439" lon="113.279508">
        <time>2026-06-15T22:09:55Z</time>
      </trkpt>
      <trkpt lat="23.061375" lon="113.279658">
        <time>2026-06-15T22:10:00Z</time>
      </trkpt>
      <trkpt lat="23.061329" lon="113.279763">
        <time>2026-06-15T22:10:05Z</time>
      </trkpt>
      <trkpt lat="23.061266" lon="113.279921">
        <time>2026-06-15T22:10:10Z</time>
      </trkpt>
      <trkpt lat="23.061223" lon="113.280022">
        <time>2026-06-15T22:10:15Z</time>
      </trkpt>
      <trkpt lat="23.061159" lon="113.280176">
        <time>2026-06-15T22:10:20Z</time>
      </trkpt>
      <trkpt lat="23.061115" lon="113.280283">
        <time>2026-06-15T22:10:25Z</time>
      </trkpt>
      <trkpt lat="23.061048" lon="113.280444">
        <time>2026-06-15T22:10:30Z</time>
      </trkpt>
      <trkpt lat="23.061001" lon="113.280551">
        <time>2026-06-15T22:10:35Z</time>
      </trkpt>
      <trkpt lat="23.060936" lon="113.280702">
        <time>2026-06-15T22:10:40Z</time>
      </trkpt>
      <trkpt lat="23.06089" lon="113.2808">
        <time>2026-06-15T22:10:45Z</time>
      </trkpt>
      <trkpt lat="23.060826" lon="113.280949">
        <time>2026-06-15T22:10:50Z</time>
      </trkpt>
      <trkpt lat="23.060789" lon="113.281047">
        <time>2026-06-15T22:10:55Z</time>
      </trkpt>
      <trkpt lat="23.060732" lon="113.28119">
        <time>2026-06-15T22:11:00Z</time>
      </trkpt>
      <trkpt lat="23.060689" lon="113.281285">
        <time>2026-06-15T22:11:05Z</time>
      </trkpt>
      <trkpt lat="23.060626" lon="113.281428">
        <time>2026-06-15T22:11:10Z</time>
      </trkpt>
      <trkpt lat="23.060588" lon="113.281528">
        <time>2026-06-15T22:11:15Z</time>
      </trkpt>
      <trkpt lat="23.060524" lon="113.281675">
        <time>2026-06-15T22:11:20Z</time>
      </trkpt>
      <trkpt lat="23.060479" lon="113.281771">
        <time>2026-06-15T22:11:25Z</time>
      </trkpt>
      <trkpt lat="23.06041" lon="113.281914">
        <time>2026-06-15T22:11:30Z</time>
      </trkpt>
      <trkpt lat="23.060361" lon="113.282015">
        <time>2026-06-15T22:11:35Z</time>
      </trkpt>
      <trkpt lat="23.060294" lon="113.282167">
        <time>2026-06-15T22:11:40Z</time>
      </trkpt>
      <trkpt lat="23.060258" lon="113.282268">
        <time>2026-06-15T22:11:45Z</time>
      </trkpt>
      <trkpt lat="23.06021" lon="113.282416">
        <time>2026-06-15T22:11:50Z</time>
      </trkpt>
      <trkpt lat="23.060178" lon="113.282509">
        <time>2026-06-15T22:11:55Z</time>
      </trkpt>
      <trkpt lat="23.060119" lon="113.282645">
        <time>2026-06-15T22:12:00Z</time>
      </trkpt>
      <trkpt lat="23.060078" lon="113.282742">
        <time>2026-06-15T22:12:05Z</time>
      </trkpt>
      <trkpt lat="23.060014" lon="113.282891">
        <time>2026-06-15T22:12:10Z</time>
      </trkpt>
      <trkpt lat="23.059968" lon="113.282993">
        <time>2026-06-15T22:12:15Z</time>
      </trkpt>
      <trkpt lat="23.059895" lon="113.283142">
        <time>2026-06-15T22:12:20Z</time>
      </trkpt>
      <trkpt lat="23.059852" lon="113.283241">
        <time>2026-06-15T22:12:25Z</time>
      </trkpt>
      <trkpt lat="23.059782" lon="113.283394">
        <time>2026-06-15T22:12:30Z</time>
      </trkpt>
      <trkpt lat="23.059736" lon="113.283498">
        <time>2026-06-15T22:12:35Z</time>
      </trkpt>
      <trkpt lat="23.059682" lon="113.283654">
        <time>2026-06-15T22:12:40Z</time>
      </trkpt>
      <trkpt lat="23.059636" lon="113.283751">
        <time>2026-06-15T22:12:45Z</time>
      </trkpt>
      <trkpt lat="23.059558" lon="113.283897">
        <time>2026-06-15T22:12:50Z</time>
      </trkpt>
      <trkpt lat="23.059513" lon="113.283998">
        <time>2026-06-15T22:12:55Z</time>
      </trkpt>
      <trkpt lat="23.059434" lon="113.284141">
        <time>2026-06-15T22:13:00Z</time>
      </trkpt>
      <trkpt lat="23.059401" lon="113.284242">
        <time>2026-06-15T22:13:05Z</time>
      </trkpt>
      <trkpt lat="23.05936" lon="113.284403">
        <time>2026-06-15T22:13:10Z</time>
      </trkpt>
      <trkpt lat="23.059326" lon="113.284506">
        <time>2026-06-15T22:13:15Z</time>
      </trkpt>
      <trkpt lat="23.059271" lon="113.28466">
        <time>2026-06-15T22:13:20Z</time>
      </trkpt>
      <trkpt lat="23.059228" lon="113.284756">
        <time>2026-06-15T22:13:25Z</time>
      </trkpt>
      <trkpt lat="23.059162" lon="113.284898">
        <time>2026-06-15T22:13:30Z</time>
      </trkpt>
      <trkpt lat="23.059122" lon="113.284994">
        <time>2026-06-15T22:13:35Z</time>
      </trkpt>
      <trkpt lat="23.059068" lon="113.28514">
        <time>2026-06-15T22:13:40Z</time>
      </trkpt>
      <trkpt lat="23.059033" lon="113.285241">
        <time>2026-06-15T22:13:45Z</time>
      </trkpt>
      <trkpt lat="23.058972" lon="113.285399">
        <time>2026-06-15T22:13:50Z</time>
      </trkpt>
      <trkpt lat="23.058927" lon="113.285499">
        <time>2026-06-15T22:13:55Z</time>
      </trkpt>
      <trkpt lat="23.058855" lon="113.285651">
        <time>2026-06-15T22:14:00Z</time>
      </trkpt>
      <trkpt lat="23.058806" lon="113.285752">
        <time>2026-06-15T22:14:05Z</time>
      </trkpt>
      <trkpt lat="23.05874" lon="113.2859">
        <time>2026-06-15T22:14:10Z</time>
      </trkpt>
      <trkpt lat="23.058695" lon="113.285998">
        <time>2026-06-15T22:14:15Z</time>
      </trkpt>
      <trkpt lat="23.058728" lon="113.286083">
        <time>2026-06-15T22:14:20Z</time>
      </trkpt>
      <trkpt lat="23.058797" lon="113.286006">
        <time>2026-06-15T22:14:25Z</time>
      </trkpt>
      <trkpt lat="23.058871" lon="113.285842">
        <time>2026-06-15T22:14:30Z</time>
      </trkpt>
      <trkpt lat="23.058916" lon="113.285741">
        <time>2026-06-15T22:14:35Z</time>
      </trkpt>
      <trkpt lat="23.058984" lon="113.285598">
        <time>2026-06-15T22:14:40Z</time>
      </trkpt>
      <trkpt lat="23.059032" lon="113.285502">
        <time>2026-06-15T22:14:45Z</time>
      </trkpt>
      <trkpt lat="23.059105" lon="113.285355">
        <time>2026-06-15T22:14:50Z</time>
      </trkpt>
      <trkpt lat="23.05914" lon="113.285253">
        <time>2026-06-15T22:14:55Z</time>
      </trkpt>
      <trkpt lat="23.059199" lon="113.285093">
        <time>2026-06-15T22:15:00Z</time>
      </trkpt>
      <trkpt lat="23.05925" lon="113.284992">
        <time>2026-06-15T22:15:05Z</time>
      </trkpt>
      <trkpt lat="23.059319" lon="113.28484">
        <time>2026-06-15T22:15:10Z</time>
      </trkpt>
      <trkpt lat="23.059368" lon="113.284741">
        <time>2026-06-15T22:15:15Z</time>
      </trkpt>
      <trkpt lat="23.059444" lon="113.284608">
        <time>2026-06-15T22:15:20Z</time>
      </trkpt>
      <trkpt lat="23.059487" lon="113.284514">
        <time>2026-06-15T22:15:25Z</time>
      </trkpt>
      <trkpt lat="23.059544" lon="113.284372">
        <time>2026-06-15T22:15:30Z</time>
      </trkpt>
      <trkpt lat="23.059582" lon="113.284279">
        <time>2026-06-15T22:15:35Z</time>
      </trkpt>
      <trkpt lat="23.059642" lon="113.284142">
        <time>2026-06-15T22:15:40Z</time>
      </trkpt>
      <trkpt lat="23.059685" lon="113.284048">
        <time>2026-06-15T22:15:45Z</time>
      </trkpt>
      <trkpt lat="23.059747" lon="113.283906">
        <time>2026-06-15T22:15:50Z</time>
      </trkpt>
      <trkpt lat="23.059784" lon="113.283805">
        <time>2026-06-15T22:15:55Z</time>
      </trkpt>
      <trkpt lat="23.059847" lon="113.283657">
        <time>2026-06-15T22:16:00Z</time>
      </trkpt>
      <trkpt lat="23.05989" lon="113.283567">
        <time>2026-06-15T22:16:05Z</time>
      </trkpt>
      <trkpt lat="23.059947" lon="113.283414">
        <time>2026-06-15T22:16:10Z</time>
      </trkpt>
      <trkpt lat="23.05999" lon="113.283318">
        <time>2026-06-15T22:16:15Z</time>
      </trkpt>
      <trkpt lat="23.06005" lon="113.283181">
        <time>2026-06-15T22:16:20Z</time>
      </trkpt>
      <trkpt lat="23.060094" lon="113.283087">
        <time>2026-06-15T22:16:25Z</time>
      </trkpt>
      <trkpt lat="23.060162" lon="113.282946">
        <time>2026-06-15T22:16:30Z</time>
      </trkpt>
      <trkpt lat="23.060211" lon="113.28285">
        <time>2026-06-15T22:16:35Z</time>
      </trkpt>
      <trkpt lat="23.060283" lon="113.282703">
        <time>2026-06-15T22:16:40Z</time>
      </trkpt>
      <trkpt lat="23.06032" lon="113.282603">
        <time>2026-06-15T22:16:45Z</time>
      </trkpt>
      <trkpt lat="23.060384" lon="113.282451">
        <time>2026-06-15T22:16:50Z</time>
      </trkpt>
      <trkpt lat="23.060427" lon="113.282353">
        <time>2026-06-15T22:16:55Z</time>
      </trkpt>
      <trkpt lat="23.060485" lon="113.282207">
        <time>2026-06-15T22:17:00Z</time>
      </trkpt>
      <trkpt lat="23.060522" lon="113.28211">
        <time>2026-06-15T22:17:05Z</time>
      </trkpt>
      <trkpt lat="23.06058" lon="113.281958">
        <time>2026-06-15T22:17:10Z</time>
      </trkpt>
      <trkpt lat="23.060615" lon="113.281853">
        <time>2026-06-15T22:17:15Z</time>
      </trkpt>
      <trkpt lat="23.060667" lon="113.281696">
        <time>2026-06-15T22:17:20Z</time>
      </trkpt>
      <trkpt lat="23.060708" lon="113.281598">
        <time>2026-06-15T22:17:25Z</time>
      </trkpt>
      <trkpt lat="23.060772" lon="113.281448">
        <time>2026-06-15T22:17:30Z</time>
      </trkpt>
      <trkpt lat="23.060822" lon="113.28135">
        <time>2026-06-15T22:17:35Z</time>
      </trkpt>
      <trkpt lat="23.060889" lon="113.281208">
        <time>2026-06-15T22:17:40Z</time>
      </trkpt>
      <trkpt lat="23.060927" lon="113.281113">
        <time>2026-06-15T22:17:45Z</time>
      </trkpt>
      <trkpt lat="23.060983" lon="113.280968">
        <time>2026-06-15T22:17:50Z</time>
      </trkpt>
      <trkpt lat="23.061025" lon="113.280865">
        <time>2026-06-15T22:17:55Z</time>
      </trkpt>
      <trkpt lat="23.061088" lon="113.280712">
        <time>2026-06-15T22:18:00Z</time>
      </trkpt>
      <trkpt lat="23.061133" lon="113.280607">
        <time>2026-06-15T22:18:05Z</time>
      </trkpt>
      <trkpt lat="23.061199" lon="113.28045">
        <time>2026-06-15T22:18:10Z</time>
      </trkpt>
      <trkpt lat="23.061242" lon="113.280345">
        <time>2026-06-15T22:18:15Z</time>
      </trkpt>
      <trkpt lat="23.06132" lon="113.280195">
        <time>2026-06-15T22:18:20Z</time>
      </trkpt>
      <trkpt lat="23.061379" lon="113.2801">
        <time>2026-06-15T22:18:25Z</time>
      </trkpt>
      <trkpt lat="23.061449" lon="113.279955">
        <time>2026-06-15T22:18:30Z</time>
      </trkpt>
      <trkpt lat="23.061485" lon="113.279851">
        <time>2026-06-15T22:18:35Z</time>
      </trkpt>
      <trkpt lat="23.061541" lon="113.279696">
        <time>2026-06-15T22:18:40Z</time>
      </trkpt>
      <trkpt lat="23.061583" lon="113.27959">
        <time>2026-06-15T22:18:45Z</time>
      </trkpt>
      <trkpt lat="23.061654" lon="113.279431">
        <time>2026-06-15T22:18:50Z</time>
      </trkpt>
      <trkpt lat="23.061697" lon="113.279331">
        <time>2026-06-15T22:18:55Z</time>
      </trkpt>
      <trkpt lat="23.061763" lon="113.279178">
        <time>2026-06-15T22:19:00Z</time>
      </trkpt>
      <trkpt lat="23.061814" lon="113.279076">
        <time>2026-06-15T22:19:05Z</time>
      </trkpt>
      <trkpt lat="23.061904" lon="113.278935">
        <time>2026-06-15T22:19:10Z</time>
      </trkpt>
      <trkpt lat="23.061951" lon="113.278832">
        <time>2026-06-15T22:19:15Z</time>
      </trkpt>
      <trkpt lat="23.061975" lon="113.278662">
        <time>2026-06-15T22:19:20Z</time>
      </trkpt>
      <trkpt lat="23.061968" lon="113.278548">
        <time>2026-06-15T22:19:25Z</time>
      </trkpt>
      <trkpt lat="23.061956" lon="113.278371">
        <time>2026-06-15T22:19:30Z</time>
      </trkpt>
      <trkpt lat="23.06195" lon="113.278254">
        <time>2026-06-15T22:19:35Z</time>
      </trkpt>
      <trkpt lat="23.061941" lon="113.278081">
        <time>2026-06-15T22:19:40Z</time>
      </trkpt>
      <trkpt lat="23.061937" lon="113.277967">
        <time>2026-06-15T22:19:45Z</time>
      </trkpt>
      <trkpt lat="23.061942" lon="113.277798">
        <time>2026-06-15T22:19:50Z</time>
      </trkpt>
      <trkpt lat="23.061962" lon="113.277688">
        <time>2026-06-15T22:19:55Z</time>
      </trkpt>
      <trkpt lat="23.062018" lon="113.277539">
        <time>2026-06-15T22:20:00Z</time>
      </trkpt>
      <trkpt lat="23.062058" lon="113.27744">
        <time>2026-06-15T22:20:05Z</time>
      </trkpt>
      <trkpt lat="23.062118" lon="113.277288">
        <time>2026-06-15T22:20:10Z</time>
      </trkpt>
      <trkpt lat="23.062156" lon="113.277184">
        <time>2026-06-15T22:20:15Z</time>
      </trkpt>
      <trkpt lat="23.062222" lon="113.277038">
        <time>2026-06-15T22:20:20Z</time>
      </trkpt>
      <trkpt lat="23.062264" lon="113.276935">
        <time>2026-06-15T22:20:25Z</time>
      </trkpt>
      <trkpt lat="23.062324" lon="113.276785">
        <time>2026-06-15T22:20:30Z</time>
      </trkpt>
      <trkpt lat="23.062361" lon="113.276684">
        <time>2026-06-15T22:20:35Z</time>
      </trkpt>
      <trkpt lat="23.06242" lon="113.276531">
        <time>2026-06-15T22:20:40Z</time>
      </trkpt>
      <trkpt lat="23.062458" lon="113.276431">
        <time>2026-06-15T22:20:45Z</time>
      </trkpt>
      <trkpt lat="23.062517" lon="113.276277">
        <time>2026-06-15T22:20:50Z</time>
      </trkpt>
      <trkpt lat="23.062563" lon="113.276171">
        <time>2026-06-15T22:20:55Z</time>
      </trkpt>
      <trkpt lat="23.062656" lon="113.276025">
        <time>2026-06-15T22:21:00Z</time>
      </trkpt>
      <trkpt lat="23.062719" lon="113.275937">
        <time>2026-06-15T22:21:05Z</time>
      </trkpt>
      <trkpt lat="23.062824" lon="113.275815">
        <time>2026-06-15T22:21:10Z</time>
      </trkpt>
      <trkpt lat="23.062899" lon="113.275728">
        <time>2026-06-15T22:21:15Z</time>
      </trkpt>
      <trkpt lat="23.063018" lon="113.275596">
        <time>2026-06-15T22:21:20Z</time>
      </trkpt>
      <trkpt lat="23.063087" lon="113.275505">
        <time>2026-06-15T22:21:25Z</time>
      </trkpt>
      <trkpt lat="23.063168" lon="113.275358">
        <time>2026-06-15T22:21:30Z</time>
      </trkpt>
      <trkpt lat="23.063226" lon="113.275261">
        <time>2026-06-15T22:21:35Z</time>
      </trkpt>
      <trkpt lat="23.063313" lon="113.275117">
        <time>2026-06-15T22:21:40Z</time>
      </trkpt>
      <trkpt lat="23.063361" lon="113.275019">
        <time>2026-06-15T22:21:45Z</time>
      </trkpt>
      <trkpt lat="23.063406" lon="113.274876">
        <time>2026-06-15T22:21:50Z</time>
      </trkpt>
      <trkpt lat="23.063432" lon="113.274776">
        <time>2026-06-15T22:21:55Z</time>
      </trkpt>
      <trkpt lat="23.063483" lon="113.274632">
        <time>2026-06-15T22:22:00Z</time>
      </trkpt>
      <trkpt lat="23.06351" lon="113.274529">
        <time>2026-06-15T22:22:05Z</time>
      </trkpt>
      <trkpt lat="23.063548" lon="113.274419">
        <time>2026-06-15T22:22:10Z</time>
      </trkpt>
      <trkpt lat="23.06364" lon="113.274271">
        <time>2026-06-15T22:22:15Z</time>
      </trkpt>
      <trkpt lat="23.063716" lon="113.274207">
        <time>2026-06-15T22:22:20Z</time>
      </trkpt>
      <trkpt lat="23.063845" lon="113.2741">
        <time>2026-06-15T22:22:25Z</time>
      </trkpt>
      <trkpt lat="23.063914" lon="113.274005">
        <time>2026-06-15T22:22:30Z</time>
      </trkpt>
      <trkpt lat="23.063997" lon="113.273857">
        <time>2026-06-15T22:22:35Z</time>
      </trkpt>
      <trkpt lat="23.064056" lon="113.27377">
        <time>2026-06-15T22:22:40Z</time>
      </trkpt>
      <trkpt lat="23.064166" lon="113.273665">
        <time>2026-06-15T22:22:45Z</time>
      </trkpt>
      <trkpt lat="23.064243" lon="113.273604">
        <time>2026-06-15T22:22:50Z</time>
      </trkpt>
      <trkpt lat="23.064359" lon="113.27351">
        <time>2026-06-15T22:22:55Z</time>
      </trkpt>
      <trkpt lat="23.064437" lon="113.273437">
        <time>2026-06-15T22:23:00Z</time>
      </trkpt>
      <trkpt lat="23.064545" lon="113.273315">
        <time>2026-06-15T22:23:05Z</time>
      </trkpt>
      <trkpt lat="23.064591" lon="113.27321">
        <time>2026-06-15T22:23:10Z</time>
      </trkpt>
      <trkpt lat="23.06458" lon="113.273027">
        <time>2026-06-15T22:23:15Z</time>
      </trkpt>
      <trkpt lat="23.064547" lon="113.272908">
        <time>2026-06-15T22:23:20Z</time>
      </trkpt>
      <trkpt lat="23.064491" lon="113.272742">
        <time>2026-06-15T22:23:25Z</time>
      </trkpt>
      <trkpt lat="23.064462" lon="113.272635">
        <time>2026-06-15T22:23:30Z</time>
      </trkpt>
      <trkpt lat="23.064488" lon="113.272493">
        <time>2026-06-15T22:23:35Z</time>
      </trkpt>
      <trkpt lat="23.06454" lon="113.272408">
        <time>2026-06-15T22:23:40Z</time>
      </trkpt>
      <trkpt lat="23.064576" lon="113.272249">
        <time>2026-06-15T22:23:45Z</time>
      </trkpt>
      <trkpt lat="23.0646" lon="113.272144">
        <time>2026-06-15T22:23:50Z</time>
      </trkpt>
      <trkpt lat="23.064665" lon="113.272006">
        <time>2026-06-15T22:23:55Z</time>
      </trkpt>
      <trkpt lat="23.064713" lon="113.271917">
        <time>2026-06-15T22:24:00Z</time>
      </trkpt>
      <trkpt lat="23.064779" lon="113.271774">
        <time>2026-06-15T22:24:05Z</time>
      </trkpt>
      <trkpt lat="23.064826" lon="113.271679">
        <time>2026-06-15T22:24:10Z</time>
      </trkpt>
      <trkpt lat="23.0649" lon="113.271535">
        <time>2026-06-15T22:24:15Z</time>
      </trkpt>
      <trkpt lat="23.064955" lon="113.271445">
        <time>2026-06-15T22:24:20Z</time>
      </trkpt>
      <trkpt lat="23.065029" lon="113.271302">
        <time>2026-06-15T22:24:25Z</time>
      </trkpt>
      <trkpt lat="23.065087" lon="113.271214">
        <time>2026-06-15T22:24:30Z</time>
      </trkpt>
      <trkpt lat="23.065178" lon="113.271067">
        <time>2026-06-15T22:24:35Z</time>
      </trkpt>
      <trkpt lat="23.06522" lon="113.270956">
        <time>2026-06-15T22:24:40Z</time>
      </trkpt>
      <trkpt lat="23.065263" lon="113.270793">
        <time>2026-06-15T22:24:45Z</time>
      </trkpt>
      <trkpt lat="23.065298" lon="113.270693">
        <time>2026-06-15T22:24:50Z</time>
      </trkpt>
      <trkpt lat="23.06536" lon="113.27055">
        <time>2026-06-15T22:24:55Z</time>
      </trkpt>
      <trkpt lat="23.065403" lon="113.270451">
        <time>2026-06-15T22:25:00Z</time>
      </trkpt>
      <trkpt lat="23.065461" lon="113.270306">
        <time>2026-06-15T22:25:05Z</time>
      </trkpt>
      <trkpt lat="23.065499" lon="113.270211">
        <time>2026-06-15T22:25:10Z</time>
      </trkpt>
      <trkpt lat="23.065547" lon="113.270067">
        <time>2026-06-15T22:25:15Z</time>
      </trkpt>
      <trkpt lat="23.065585" lon="113.26997">
        <time>2026-06-15T22:25:20Z</time>
      </trkpt>
      <trkpt lat="23.065636" lon="113.269817">
        <time>2026-06-15T22:25:25Z</time>
      </trkpt>
      <trkpt lat="23.06567" lon="113.269716">
        <time>2026-06-15T22:25:30Z</time>
      </trkpt>
      <trkpt lat="23.065723" lon="113.269566">
        <time>2026-06-15T22:25:35Z</time>
      </trkpt>
      <trkpt lat="23.065745" lon="113.26946">
        <time>2026-06-15T22:25:40Z</time>
      </trkpt>
      <trkpt lat="23.065786" lon="113.269309">
        <time>2026-06-15T22:25:45Z</time>
      </trkpt>
      <trkpt lat="23.065819" lon="113.269205">
        <time>2026-06-15T22:25:50Z</time>
      </trkpt>
      <trkpt lat="23.065874" lon="113.269047">
        <time>2026-06-15T22:25:55Z</time>
      </trkpt>
      <trkpt lat="23.065913" lon="113.268949">
        <time>2026-06-15T22:26:00Z</time>
      </trkpt>
      <trkpt lat="23.065981" lon="113.268794">
        <time>2026-06-15T22:26:05Z</time>
      </trkpt>
      <trkpt lat="23.066032" lon="113.268691">
        <time>2026-06-15T22:26:10Z</time>
      </trkpt>
      <trkpt lat="23.066116" lon="113.26855">
        <time>2026-06-15T22:26:15Z</time>
      </trkpt>
      <trkpt lat="23.066173" lon="113.268462">
        <time>2026-06-15T22:26:20Z</time>
      </trkpt>
      <trkpt lat="23.06626" lon="113.268335">
        <time>2026-06-15T22:26:25Z</time>
      </trkpt>
      <trkpt lat="23.066324" lon="113.268256">
        <time>2026-06-15T22:26:30Z</time>
      </trkpt>
      <trkpt lat="23.066448" lon="113.268171">
        <time>2026-06-15T22:26:35Z</time>
      </trkpt>
      <trkpt lat="23.066545" lon="113.26816">
        <time>2026-06-15T22:26:40Z</time>
      </trkpt>
      <trkpt lat="23.066683" lon="113.268161">
        <time>2026-06-15T22:26:45Z</time>
      </trkpt>
      <trkpt lat="23.066682" lon="113.268079">
        <time>2026-06-15T22:26:50Z</time>
      </trkpt>
      <trkpt lat="23.066532" lon="113.267981">
        <time>2026-06-15T22:26:55Z</time>
      </trkpt>
      <trkpt lat="23.06642" lon="113.267963">
        <time>2026-06-15T22:27:00Z</time>
      </trkpt>
      <trkpt lat="23.06627" lon="113.267981">
        <time>2026-06-15T22:27:05Z</time>
      </trkpt>
      <trkpt lat="23.066191" lon="113.268036">
        <time>2026-06-15T22:27:10Z</time>
      </trkpt>
      <trkpt lat="23.066083" lon="113.268146">
        <time>2026-06-15T22:27:15Z</time>
      </trkpt>
      <trkpt lat="23.066019" lon="113.268228">
        <time>2026-06-15T22:27:20Z</time>
      </trkpt>
      <trkpt lat="23.065926" lon="113.268347">
        <time>2026-06-15T22:27:25Z</time>
      </trkpt>
      <trkpt lat="23.065865" lon="113.268434">
        <time>2026-06-15T22:27:30Z</time>
      </trkpt>
      <trkpt lat="23.065783" lon="113.268569">
        <time>2026-06-15T22:27:35Z</time>
      </trkpt>
      <trkpt lat="23.065736" lon="113.268663">
        <time>2026-06-15T22:27:40Z</time>
      </trkpt>
      <trkpt lat="23.065673" lon="113.268807">
        <time>2026-06-15T22:27:45Z</time>
      </trkpt>
      <trkpt lat="23.065637" lon="113.268905">
        <time>2026-06-15T22:27:50Z</time>
      </trkpt>
      <trkpt lat="23.065586" lon="113.269059">
        <time>2026-06-15T22:27:55Z</time>
      </trkpt>
      <trkpt lat="23.065557" lon="113.269163">
        <time>2026-06-15T22:28:00Z</time>
      </trkpt>
      <trkpt lat="23.065519" lon="113.269318">
        <time>2026-06-15T22:28:05Z</time>
      </trkpt>
      <trkpt lat="23.065495" lon="113.269419">
        <time>2026-06-15T22:28:10Z</time>
      </trkpt>
      <trkpt lat="23.065466" lon="113.269572">
        <time>2026-06-15T22:28:15Z</time>
      </trkpt>
      <trkpt lat="23.065439" lon="113.269671">
        <time>2026-06-15T22:28:20Z</time>
      </trkpt>
      <trkpt lat="23.065393" lon="113.269814">
        <time>2026-06-15T22:28:25Z</time>
      </trkpt>
      <trkpt lat="23.065341" lon="113.269905">
        <time>2026-06-15T22:28:30Z</time>
      </trkpt>
      <trkpt lat="23.065276" lon="113.270054">
        <time>2026-06-15T22:28:35Z</time>
      </trkpt>
      <trkpt lat="23.065236" lon="113.270155">
        <time>2026-06-15T22:28:40Z</time>
      </trkpt>
      <trkpt lat="23.065172" lon="113.270293">
        <time>2026-06-15T22:28:45Z</time>
      </trkpt>
      <trkpt lat="23.065131" lon="113.270393">
        <time>2026-06-15T22:28:50Z</time>
      </trkpt>
      <trkpt lat="23.065067" lon="113.270542">
        <time>2026-06-15T22:28:55Z</time>
      </trkpt>
      <trkpt lat="23.065024" lon="113.270641">
        <time>2026-06-15T22:29:00Z</time>
      </trkpt>
      <trkpt lat="23.064955" lon="113.270782">
        <time>2026-06-15T22:29:05Z</time>
      </trkpt>
      <trkpt lat="23.064912" lon="113.270878">
        <time>2026-06-15T22:29:10Z</time>
      </trkpt>
      <trkpt lat="23.064851" lon="113.271026">
        <time>2026-06-15T22:29:15Z</time>
      </trkpt>
      <trkpt lat="23.06481" lon="113.271124">
        <time>2026-06-15T22:29:20Z</time>
      </trkpt>
      <trkpt lat="23.064742" lon="113.271268">
        <time>2026-06-15T22:29:25Z</time>
      </trkpt>
      <trkpt lat="23.064692" lon="113.271365">
        <time>2026-06-15T22:29:30Z</time>
      </trkpt>
      <trkpt lat="23.064625" lon="113.27151">
        <time>2026-06-15T22:29:35Z</time>
      </trkpt>
      <trkpt lat="23.064581" lon="113.271608">
        <time>2026-06-15T22:29:40Z</time>
      </trkpt>
      <trkpt lat="23.064512" lon="113.271762">
        <time>2026-06-15T22:29:45Z</time>
      </trkpt>
      <trkpt lat="23.064466" lon="113.271864">
        <time>2026-06-15T22:29:50Z</time>
      </trkpt>
      <trkpt lat="23.064393" lon="113.272018">
        <time>2026-06-15T22:29:55Z</time>
      </trkpt>
      <trkpt lat="23.064343" lon="113.272118">
        <time>2026-06-15T22:30:00Z</time>
      </trkpt>
      <trkpt lat="23.064304" lon="113.272283">
        <time>2026-06-15T22:30:05Z</time>
      </trkpt>
      <trkpt lat="23.0643" lon="113.272389">
        <time>2026-06-15T22:30:10Z</time>
      </trkpt>
      <trkpt lat="23.064289" lon="113.272546">
        <time>2026-06-15T22:30:15Z</time>
      </trkpt>
      <trkpt lat="23.064311" lon="113.272654">
        <time>2026-06-15T22:30:20Z</time>
      </trkpt>
      <trkpt lat="23.064362" lon="113.27281">
        <time>2026-06-15T22:30:25Z</time>
      </trkpt>
      <trkpt lat="23.064394" lon="113.27291">
        <time>2026-06-15T22:30:30Z</time>
      </trkpt>
      <trkpt lat="23.064433" lon="113.273064">
        <time>2026-06-15T22:30:35Z</time>
      </trkpt>
      <trkpt lat="23.064444" lon="113.273165">
        <time>2026-06-15T22:30:40Z</time>
      </trkpt>
      <trkpt lat="23.06439" lon="113.273302">
        <time>2026-06-15T22:30:45Z</time>
      </trkpt>
      <trkpt lat="23.064312" lon="113.273371">
        <time>2026-06-15T22:30:50Z</time>
      </trkpt>
      <trkpt lat="23.064182" lon="113.273475">
        <time>2026-06-15T22:30:55Z</time>
      </trkpt>
      <trkpt lat="23.064101" lon="113.273541">
        <time>2026-06-15T22:31:00Z</time>
      </trkpt>
      <trkpt lat="23.063982" lon="113.273631">
        <time>2026-06-15T22:31:05Z</time>
      </trkpt>
      <trkpt lat="23.063908" lon="113.273697">
        <time>2026-06-15T22:31:10Z</time>
      </trkpt>
      <trkpt lat="23.063827" lon="113.273822">
        <time>2026-06-15T22:31:15Z</time>
      </trkpt>
      <trkpt lat="23.063774" lon="113.273916">
        <time>2026-06-15T22:31:20Z</time>
      </trkpt>
      <trkpt lat="23.063693" lon="113.274044">
        <time>2026-06-15T22:31:25Z</time>
      </trkpt>
      <trkpt lat="23.063621" lon="113.274109">
        <time>2026-06-15T22:31:30Z</time>
      </trkpt>
      <trkpt lat="23.063502" lon="113.274099">
        <time>2026-06-15T22:31:35Z</time>
      </trkpt>
      <trkpt lat="23.063418" lon="113.274114">
        <time>2026-06-15T22:31:40Z</time>
      </trkpt>
      <trkpt lat="23.063332" lon="113.274272">
        <time>2026-06-15T22:31:45Z</time>
      </trkpt>
      <trkpt lat="23.063295" lon="113.274384">
        <time>2026-06-15T22:31:50Z</time>
      </trkpt>
      <trkpt lat="23.063239" lon="113.274558">
        <time>2026-06-15T22:31:55Z</time>
      </trkpt>
      <trkpt lat="23.063199" lon="113.274666">
        <time>2026-06-15T22:32:00Z</time>
      </trkpt>
      <trkpt lat="23.063137" lon="113.274822">
        <time>2026-06-15T22:32:05Z</time>
      </trkpt>
      <trkpt lat="23.0631" lon="113.274924">
        <time>2026-06-15T22:32:10Z</time>
      </trkpt>
      <trkpt lat="23.063053" lon="113.275077">
        <time>2026-06-15T22:32:15Z</time>
      </trkpt>
      <trkpt lat="23.062993" lon="113.275164">
        <time>2026-06-15T22:32:20Z</time>
      </trkpt>
      <trkpt lat="23.062893" lon="113.275288">
        <time>2026-06-15T22:32:25Z</time>
      </trkpt>
      <trkpt lat="23.062898" lon="113.275394">
        <time>2026-06-15T22:32:30Z</time>
      </trkpt>
      <trkpt lat="23.062891" lon="113.275551">
        <time>2026-06-15T22:32:35Z</time>
      </trkpt>
      <trkpt lat="23.06282" lon="113.275636">
        <time>2026-06-15T22:32:40Z</time>
      </trkpt>
      <trkpt lat="23.062702" lon="113.275746">
        <time>2026-06-15T22:32:45Z</time>
      </trkpt>
      <trkpt lat="23.062627" lon="113.275824">
        <time>2026-06-15T22:32:50Z</time>
      </trkpt>
      <trkpt lat="23.062532" lon="113.275962">
        <time>2026-06-15T22:32:55Z</time>
      </trkpt>
      <trkpt lat="23.062475" lon="113.276054">
        <time>2026-06-15T22:33:00Z</time>
      </trkpt>
      <trkpt lat="23.062401" lon="113.276195">
        <time>2026-06-15T22:33:05Z</time>
      </trkpt>
      <trkpt lat="23.06236" lon="113.276288">
        <time>2026-06-15T22:33:10Z</time>
      </trkpt>
      <trkpt lat="23.062318" lon="113.276435">
        <time>2026-06-15T22:33:15Z</time>
      </trkpt>
      <trkpt lat="23.062285" lon="113.276537">
        <time>2026-06-15T22:33:20Z</time>
      </trkpt>
      <trkpt lat="23.062229" lon="113.276679">
        <time>2026-06-15T22:33:25Z</time>
      </trkpt>
      <trkpt lat="23.062196" lon="113.276776">
        <time>2026-06-15T22:33:30Z</time>
      </trkpt>
      <trkpt lat="23.062136" lon="113.276926">
        <time>2026-06-15T22:33:35Z</time>
      </trkpt>
      <trkpt lat="23.062101" lon="113.277033">
        <time>2026-06-15T22:33:40Z</time>
      </trkpt>
      <trkpt lat="23.062039" lon="113.277202">
        <time>2026-06-15T22:33:45Z</time>
      </trkpt>
      <trkpt lat="23.061994" lon="113.27732">
        <time>2026-06-15T22:33:50Z</time>
      </trkpt>
      <trkpt lat="23.061924" lon="113.277481">
        <time>2026-06-15T22:33:55Z</time>
      </trkpt>
      <trkpt lat="23.061884" lon="113.277587">
        <time>2026-06-15T22:34:00Z</time>
      </trkpt>
      <trkpt lat="23.061837" lon="113.277747">
        <time>2026-06-15T22:34:05Z</time>
      </trkpt>
      <trkpt lat="23.06182" lon="113.277855">
        <time>2026-06-15T22:34:10Z</time>
      </trkpt>
      <trkpt lat="23.061819" lon="113.278012">
        <time>2026-06-15T22:34:15Z</time>
      </trkpt>
      <trkpt lat="23.061832" lon="113.278117">
        <time>2026-06-15T22:34:20Z</time>
      </trkpt>
      <trkpt lat="23.06184" lon="113.278278">
        <time>2026-06-15T22:34:25Z</time>
      </trkpt>
      <trkpt lat="23.061846" lon="113.278383">
        <time>2026-06-15T22:34:30Z</time>
      </trkpt>
      <trkpt lat="23.061853" lon="113.278534">
        <time>2026-06-15T22:34:35Z</time>
      </trkpt>
      <trkpt lat="23.061848" lon="113.278637">
        <time>2026-06-15T22:34:40Z</time>
      </trkpt>
      <trkpt lat="23.061781" lon="113.278741">
        <time>2026-06-15T22:34:45Z</time>
      </trkpt>
      <trkpt lat="23.061717" lon="113.278795">
        <time>2026-06-15T22:34:50Z</time>
      </trkpt>
      <trkpt lat="23.061655" lon="113.278951">
        <time>2026-06-15T22:34:55Z</time>
      </trkpt>
      <trkpt lat="23.061621" lon="113.279056">
        <time>2026-06-15T22:35:00Z</time>
      </trkpt>
      <trkpt lat="23.061563" lon="113.279199">
        <time>2026-06-15T22:35:05Z</time>
      </trkpt>
      <trkpt lat="23.061516" lon="113.279291">
        <time>2026-06-15T22:35:10Z</time>
      </trkpt>
      <trkpt lat="23.061458" lon="113.279447">
        <time>2026-06-15T22:35:15Z</time>
      </trkpt>
      <trkpt lat="23.061416" lon="113.279548">
        <time>2026-06-15T22:35:20Z</time>
      </trkpt>
      <trkpt lat="23.061353" lon="113.279692">
        <time>2026-06-15T22:35:25Z</time>
      </trkpt>
      <trkpt lat="23.061315" lon="113.279787">
        <time>2026-06-15T22:35:30Z</time>
      </trkpt>
      <trkpt lat="23.06126" lon="113.279939">
        <time>2026-06-15T22:35:35Z</time>
      </trkpt>
      <trkpt lat="23.06122" lon="113.280042">
        <time>2026-06-15T22:35:40Z</time>
      </trkpt>
      <trkpt lat="23.061151" lon="113.280195">
        <time>2026-06-15T22:35:45Z</time>
      </trkpt>
      <trkpt lat="23.061101" lon="113.280298">
        <time>2026-06-15T22:35:50Z</time>
      </trkpt>
      <trkpt lat="23.061034" lon="113.280447">
        <time>2026-06-15T22:35:55Z</time>
      </trkpt>
      <trkpt lat="23.060992" lon="113.28055">
        <time>2026-06-15T22:36:00Z</time>
      </trkpt>
      <trkpt lat="23.060927" lon="113.280705">
        <time>2026-06-15T22:36:05Z</time>
      </trkpt>
      <trkpt lat="23.060884" lon="113.280811">
        <time>2026-06-15T22:36:10Z</time>
      </trkpt>
      <trkpt lat="23.060819" lon="113.280965">
        <time>2026-06-15T22:36:15Z</time>
      </trkpt>
      <trkpt lat="23.06078" lon="113.281063">
        <time>2026-06-15T22:36:20Z</time>
      </trkpt>
      <trkpt lat="23.060719" lon="113.281208">
        <time>2026-06-15T22:36:25Z</time>
      </trkpt>
      <trkpt lat="23.060677" lon="113.281303">
        <time>2026-06-15T22:36:30Z</time>
      </trkpt>
      <trkpt lat="23.060622" lon="113.281453">
        <time>2026-06-15T22:36:35Z</time>
      </trkpt>
      <trkpt lat="23.060581" lon="113.281551">
        <time>2026-06-15T22:36:40Z</time>
      </trkpt>
      <trkpt lat="23.06051" lon="113.281699">
        <time>2026-06-15T22:36:45Z</time>
      </trkpt>
      <trkpt lat="23.060463" lon="113.281796">
        <time>2026-06-15T22:36:50Z</time>
      </trkpt>
      <trkpt lat="23.060396" lon="113.281945">
        <time>2026-06-15T22:36:55Z</time>
      </trkpt>
      <trkpt lat="23.060352" lon="113.282045">
        <time>2026-06-15T22:37:00Z</time>
      </trkpt>
      <trkpt lat="23.060289" lon="113.282195">
        <time>2026-06-15T22:37:05Z</time>
      </trkpt>
      <trkpt lat="23.060254" lon="113.282292">
        <time>2026-06-15T22:37:10Z</time>
      </trkpt>
      <trkpt lat="23.060191" lon="113.282437">
        <time>2026-06-15T22:37:15Z</time>
      </trkpt>
      <trkpt lat="23.060147" lon="113.282532">
        <time>2026-06-15T22:37:20Z</time>
      </trkpt>
      <trkpt lat="23.060084" lon="113.282675">
        <time>2026-06-15T22:37:25Z</time>
      </trkpt>
      <trkpt lat="23.060045" lon="113.28277">
        <time>2026-06-15T22:37:30Z</time>
      </trkpt>
      <trkpt lat="23.059999" lon="113.282888">
        <time>2026-06-15T22:37:35Z</time>
      </trkpt>
      <trkpt lat="23.059936" lon="113.283044">
        <time>2026-06-15T22:37:40Z</time>
      </trkpt>
      <trkpt lat="23.059892" lon="113.283139">
        <time>2026-06-15T22:37:45Z</time>
      </trkpt>
      <trkpt lat="23.059822" lon="113.28328">
        <time>2026-06-15T22:37:50Z</time>
      </trkpt>
      <trkpt lat="23.059777" lon="113.283378">
        <time>2026-06-15T22:37:55Z</time>
      </trkpt>
      <trkpt lat="23.05972" lon="113.283524">
        <time>2026-06-15T22:38:00Z</time>
      </trkpt>
      <trkpt lat="23.059685" lon="113.283622">
        <time>2026-06-15T22:38:05Z</time>
      </trkpt>
      <trkpt lat="23.059619" lon="113.283774">
        <time>2026-06-15T22:38:10Z</time>
      </trkpt>
      <trkpt lat="23.059569" lon="113.283876">
        <time>2026-06-15T22:38:15Z</time>
      </trkpt>
      <trkpt lat="23.059499" lon="113.284025">
        <time>2026-06-15T22:38:20Z</time>
      </trkpt>
      <trkpt lat="23.059441" lon="113.284117">
        <time>2026-06-15T22:38:25Z</time>
      </trkpt>
      <trkpt lat="23.05937" lon="113.284263">
        <time>2026-06-15T22:38:30Z</time>
      </trkpt>
      <trkpt lat="23.059333" lon="113.284364">
        <time>2026-06-15T22:38:35Z</time>
      </trkpt>
      <trkpt lat="23.059303" lon="113.284528">
        <time>2026-06-15T22:38:40Z</time>
      </trkpt>
      <trkpt lat="23.059271" lon="113.284632">
        <time>2026-06-15T22:38:45Z</time>
      </trkpt>
      <trkpt lat="23.059211" lon="113.284781">
        <time>2026-06-15T22:38:50Z</time>
      </trkpt>
      <trkpt lat="23.05917" lon="113.284877">
        <time>2026-06-15T22:38:55Z</time>
      </trkpt>
      <trkpt lat="23.059105" lon="113.285028">
        <time>2026-06-15T22:39:00Z</time>
      </trkpt>
      <trkpt lat="23.059066" lon="113.285126">
        <time>2026-06-15T22:39:05Z</time>
      </trkpt>
      <trkpt lat="23.059006" lon="113.285277">
        <time>2026-06-15T22:39:10Z</time>
      </trkpt>
      <trkpt lat="23.058962" lon="113.285384">
        <time>2026-06-15T22:39:15Z</time>
      </trkpt>
      <trkpt lat="23.058897" lon="113.285532">
        <time>2026-06-15T22:39:20Z</time>
      </trkpt>
      <trkpt lat="23.058859" lon="113.285631">
        <time>2026-06-15T22:39:25Z</time>
      </trkpt>
      <trkpt lat="23.058792" lon="113.285781">
        <time>2026-06-15T22:39:30Z</time>
      </trkpt>
      <trkpt lat="23.058751" lon="113.285879">
        <time>2026-06-15T22:39:35Z</time>
      </trkpt>
      <trkpt lat="23.058684" lon="113.286032">
        <time>2026-06-15T22:39:40Z</time>
      </trkpt>
      <trkpt lat="23.058686" lon="113.286114">
        <time>2026-06-15T22:39:45Z</time>
      </trkpt>
      <trkpt lat="23.058793" lon="113.286028">
        <time>2026-06-15T22:39:50Z</time>
      </trkpt>
      <trkpt lat="23.058849" lon="113.285917">
        <time>2026-06-15T22:39:55Z</time>
      </trkpt>
      <trkpt lat="23.058916" lon="113.285758">
        <time>2026-06-15T22:40:00Z</time>
      </trkpt>
      <trkpt lat="23.058961" lon="113.285657">
        <time>2026-06-15T22:40:05Z</time>
      </trkpt>
      <trkpt lat="23.059032" lon="113.285516">
        <time>2026-06-15T22:40:10Z</time>
      </trkpt>
      <trkpt lat="23.059075" lon="113.285421">
        <time>2026-06-15T22:40:15Z</time>
      </trkpt>
      <trkpt lat="23.059131" lon="113.285265">
        <time>2026-06-15T22:40:20Z</time>
      </trkpt>
      <trkpt lat="23.059167" lon="113.28516">
        <time>2026-06-15T22:40:25Z</time>
      </trkpt>
      <trkpt lat="23.059229" lon="113.285002">
        <time>2026-06-15T22:40:30Z</time>
      </trkpt>
      <trkpt lat="23.059246" lon="113.284884">
        <time>2026-06-15T22:40:35Z</time>
      </trkpt>
      <trkpt lat="23.05927" lon="113.284712">
        <time>2026-06-15T22:40:40Z</time>
      </trkpt>
      <trkpt lat="23.059314" lon="113.284609">
        <time>2026-06-15T22:40:45Z</time>
      </trkpt>
      <trkpt lat="23.05938" lon="113.284463">
        <time>2026-06-15T22:40:50Z</time>
      </trkpt>
      <trkpt lat="23.059421" lon="113.284363">
        <time>2026-06-15T22:40:55Z</time>
      </trkpt>
      <trkpt lat="23.059489" lon="113.284211">
        <time>2026-06-15T22:41:00Z</time>
      </trkpt>
      <trkpt lat="23.059535" lon="113.284112">
        <time>2026-06-15T22:41:05Z</time>
      </trkpt>
      <trkpt lat="23.0596" lon="113.283969">
        <time>2026-06-15T22:41:10Z</time>
      </trkpt>
      <trkpt lat="23.059644" lon="113.283871">
        <time>2026-06-15T22:41:15Z</time>
      </trkpt>
      <trkpt lat="23.059711" lon="113.283721">
        <time>2026-06-15T22:41:20Z</time>
      </trkpt>
      <trkpt lat="23.059759" lon="113.283627">
        <time>2026-06-15T22:41:25Z</time>
      </trkpt>
      <trkpt lat="23.059834" lon="113.28348">
        <time>2026-06-15T22:41:30Z</time>
      </trkpt>
      <trkpt lat="23.059881" lon="113.283391">
        <time>2026-06-15T22:41:35Z</time>
      </trkpt>
      <trkpt lat="23.059988" lon="113.283309">
        <time>2026-06-15T22:41:40Z</time>
      </trkpt>
      <trkpt lat="23.060047" lon="113.283226">
        <time>2026-06-15T22:41:45Z</time>
      </trkpt>
      <trkpt lat="23.060113" lon="113.283084">
        <time>2026-06-15T22:41:50Z</time>
      </trkpt>
      <trkpt lat="23.060165" lon="113.282993">
        <time>2026-06-15T22:41:55Z</time>
      </trkpt>
      <trkpt lat="23.060244" lon="113.282864">
        <time>2026-06-15T22:42:00Z</time>
      </trkpt>
      <trkpt lat="23.060284" lon="113.282772">
        <time>2026-06-15T22:42:05Z</time>
      </trkpt>
      <trkpt lat="23.060331" lon="113.28262">
        <time>2026-06-15T22:42:10Z</time>
      </trkpt>
      <trkpt lat="23.06036" lon="113.282519">
        <time>2026-06-15T22:42:15Z</time>
      </trkpt>
      <trkpt lat="23.060407" lon="113.28238">
        <time>2026-06-15T22:42:20Z</time>
      </trkpt>
      <trkpt lat="23.060444" lon="113.282282">
        <time>2026-06-15T22:42:25Z</time>
      </trkpt>
      <trkpt lat="23.060502" lon="113.282127">
        <time>2026-06-15T22:42:30Z</time>
      </trkpt>
      <trkpt lat="23.060544" lon="113.28203">
        <time>2026-06-15T22:42:35Z</time>
      </trkpt>
      <trkpt lat="23.060608" lon="113.281882">
        <time>2026-06-15T22:42:40Z</time>
      </trkpt>
      <trkpt lat="23.06065" lon="113.281774">
        <time>2026-06-15T22:42:45Z</time>
      </trkpt>
      <trkpt lat="23.060707" lon="113.281622">
        <time>2026-06-15T22:42:50Z</time>
      </trkpt>
      <trkpt lat="23.060742" lon="113.281519">
        <time>2026-06-15T22:42:55Z</time>
      </trkpt>
      <trkpt lat="23.060806" lon="113.281362">
        <time>2026-06-15T22:43:00Z</time>
      </trkpt>
      <trkpt lat="23.060853" lon="113.281261">
        <time>2026-06-15T22:43:05Z</time>
      </trkpt>
      <trkpt lat="23.060914" lon="113.281109">
        <time>2026-06-15T22:43:10Z</time>
      </trkpt>
      <trkpt lat="23.060955" lon="113.281009">
        <time>2026-06-15T22:43:15Z</time>
      </trkpt>
      <trkpt lat="23.061026" lon="113.28086">
        <time>2026-06-15T22:43:20Z</time>
      </trkpt>
      <trkpt lat="23.061073" lon="113.280756">
        <time>2026-06-15T22:43:25Z</time>
      </trkpt>
      <trkpt lat="23.061141" lon="113.280602">
        <time>2026-06-15T22:43:30Z</time>
      </trkpt>
      <trkpt lat="23.061179" lon="113.280502">
        <time>2026-06-15T22:43:35Z</time>
      </trkpt>
      <trkpt lat="23.06125" lon="113.28036">
        <time>2026-06-15T22:43:40Z</time>
      </trkpt>
      <trkpt lat="23.061302" lon="113.280267">
        <time>2026-06-15T22:43:45Z</time>
      </trkpt>
      <trkpt lat="23.061387" lon="113.28013">
        <time>2026-06-15T22:43:50Z</time>
      </trkpt>
      <trkpt lat="23.061435" lon="113.280034">
        <time>2026-06-15T22:43:55Z</time>
      </trkpt>
      <trkpt lat="23.061486" lon="113.279886">
        <time>2026-06-15T22:44:00Z</time>
      </trkpt>
      <trkpt lat="23.061517" lon="113.279791">
        <time>2026-06-15T22:44:05Z</time>
      </trkpt>
      <trkpt lat="23.061574" lon="113.279651">
        <time>2026-06-15T22:44:10Z</time>
      </trkpt>
      <trkpt lat="23.061609" lon="113.279552">
        <time>2026-06-15T22:44:15Z</time>
      </trkpt>
      <trkpt lat="23.061661" lon="113.279399">
        <time>2026-06-15T22:44:20Z</time>
      </trkpt>
      <trkpt lat="23.061699" lon="113.279298">
        <time>2026-06-15T22:44:25Z</time>
      </trkpt>
      <trkpt lat="23.061762" lon="113.279143">
        <time>2026-06-15T22:44:30Z</time>
      </trkpt>
      <trkpt lat="23.061814" lon="113.279051">
        <time>2026-06-15T22:44:35Z</time>
      </trkpt>
      <trkpt lat="23.061903" lon="113.278914">
        <time>2026-06-15T22:44:40Z</time>
      </trkpt>
      <trkpt lat="23.061952" lon="113.278806">
        <time>2026-06-15T22:44:45Z</time>
      </trkpt>
      <trkpt lat="23.061979" lon="113.278634">
        <time>2026-06-15T22:44:50Z</time>
      </trkpt>
      <trkpt lat="23.061975" lon="113.278521">
        <time>2026-06-15T22:44:55Z</time>
      </trkpt>
      <trkpt lat="23.061969" lon="113.278354">
        <time>2026-06-15T22:45:00Z</time>
      </trkpt>
      <trkpt lat="23.061962" lon="113.278244">
        <time>2026-06-15T22:45:05Z</time>
      </trkpt>
      <trkpt lat="23.06195" lon="113.278071">
        <time>2026-06-15T22:45:10Z</time>
      </trkpt>
      <trkpt lat="23.061947" lon="113.277953">
        <time>2026-06-15T22:45:15Z</time>
      </trkpt>
      <trkpt lat="23.061954" lon="113.27778">
        <time>2026-06-15T22:45:20Z</time>
      </trkpt>
      <trkpt lat="23.061978" lon="113.27767">
        <time>2026-06-15T22:45:25Z</time>
      </trkpt>
      <trkpt lat="23.062041" lon="113.277513">
        <time>2026-06-15T22:45:30Z</time>
      </trkpt>
      <trkpt lat="23.062082" lon="113.277411">
        <time>2026-06-15T22:45:35Z</time>
      </trkpt>
      <trkpt lat="23.062133" lon="113.277258">
        <time>2026-06-15T22:45:40Z</time>
      </trkpt>
      <trkpt lat="23.062166" lon="113.27716">
        <time>2026-06-15T22:45:45Z</time>
      </trkpt>
      <trkpt lat="23.062221" lon="113.277016">
        <time>2026-06-15T22:45:50Z</time>
      </trkpt>
      <trkpt lat="23.062261" lon="113.276916">
        <time>2026-06-15T22:45:55Z</time>
      </trkpt>
      <trkpt lat="23.062322" lon="113.276765">
        <time>2026-06-15T22:46:00Z</time>
      </trkpt>
      <trkpt lat="23.062362" lon="113.276666">
        <time>2026-06-15T22:46:05Z</time>
      </trkpt>
      <trkpt lat="23.062419" lon="113.276513">
        <time>2026-06-15T22:46:10Z</time>
      </trkpt>
      <trkpt lat="23.06246" lon="113.276411">
        <time>2026-06-15T22:46:15Z</time>
      </trkpt>
      <trkpt lat="23.06253" lon="113.276258">
        <time>2026-06-15T22:46:20Z</time>
      </trkpt>
      <trkpt lat="23.062577" lon="113.276153">
        <time>2026-06-15T22:46:25Z</time>
      </trkpt>
      <trkpt lat="23.062664" lon="113.276015">
        <time>2026-06-15T22:46:30Z</time>
      </trkpt>
      <trkpt lat="23.062727" lon="113.275933">
        <time>2026-06-15T22:46:35Z</time>
      </trkpt>
      <trkpt lat="23.062824" lon="113.275823">
        <time>2026-06-15T22:46:40Z</time>
      </trkpt>
      <trkpt lat="23.06289" lon="113.275745">
        <time>2026-06-15T22:46:45Z</time>
      </trkpt>
      <trkpt lat="23.062998" lon="113.275628">
        <time>2026-06-15T22:46:50Z</time>
      </trkpt>
      <trkpt lat="23.063063" lon="113.275543">
        <time>2026-06-15T22:46:55Z</time>
      </trkpt>
      <trkpt lat="23.063143" lon="113.275407">
        <time>2026-06-15T22:47:00Z</time>
      </trkpt>
      <trkpt lat="23.063197" lon="113.275315">
        <time>2026-06-15T22:47:05Z</time>
      </trkpt>
      <trkpt lat="23.063288" lon="113.275177">
        <time>2026-06-15T22:47:10Z</time>
      </trkpt>
      <trkpt lat="23.063356" lon="113.275089">
        <time>2026-06-15T22:47:15Z</time>
      </trkpt>
      <trkpt lat="23.063428" lon="113.274945">
        <time>2026-06-15T22:47:20Z</time>
      </trkpt>
      <trkpt lat="23.063459" lon="113.274843">
        <time>2026-06-15T22:47:25Z</time>
      </trkpt>
      <trkpt lat="23.063506" lon="113.274692">
        <time>2026-06-15T22:47:30Z</time>
      </trkpt>
      <trkpt lat="23.063537" lon="113.274592">
        <time>2026-06-15T22:47:35Z</time>
      </trkpt>
      <trkpt lat="23.06356" lon="113.274457">
        <time>2026-06-15T22:47:40Z</time>
      </trkpt>
      <trkpt lat="23.063604" lon="113.274366">
        <time>2026-06-15T22:47:45Z</time>
      </trkpt>
      <trkpt lat="23.063707" lon="113.274243">
        <time>2026-06-15T22:47:50Z</time>
      </trkpt>
      <trkpt lat="23.063796" lon="113.274174">
        <time>2026-06-15T22:47:55Z</time>
      </trkpt>
      <trkpt lat="23.063887" lon="113.27403">
        <time>2026-06-15T22:48:00Z</time>
      </trkpt>
      <trkpt lat="23.063947" lon="113.27393">
        <time>2026-06-15T22:48:05Z</time>
      </trkpt>
      <trkpt lat="23.064038" lon="113.273794">
        <time>2026-06-15T22:48:10Z</time>
      </trkpt>
      <trkpt lat="23.064104" lon="113.273719">
        <time>2026-06-15T22:48:15Z</time>
      </trkpt>
      <trkpt lat="23.064221" lon="113.273621">
        <time>2026-06-15T22:48:20Z</time>
      </trkpt>
      <trkpt lat="23.064305" lon="113.273555">
        <time>2026-06-15T22:48:25Z</time>
      </trkpt>
      <trkpt lat="23.064431" lon="113.273452">
        <time>2026-06-15T22:48:30Z</time>
      </trkpt>
      <trkpt lat="23.064507" lon="113.273375">
        <time>2026-06-15T22:48:35Z</time>
      </trkpt>
      <trkpt lat="23.064589" lon="113.273236">
        <time>2026-06-15T22:48:40Z</time>
      </trkpt>
      <trkpt lat="23.064596" lon="113.273122">
        <time>2026-06-15T22:48:45Z</time>
      </trkpt>
      <trkpt lat="23.064551" lon="113.27295">
        <time>2026-06-15T22:48:50Z</time>
      </trkpt>
      <trkpt lat="23.064514" lon="113.272842">
        <time>2026-06-15T22:48:55Z</time>
      </trkpt>
      <trkpt lat="23.064466" lon="113.272679">
        <time>2026-06-15T22:49:00Z</time>
      </trkpt>
      <trkpt lat="23.064463" lon="113.272579">
        <time>2026-06-15T22:49:05Z</time>
      </trkpt>
      <trkpt lat="23.064537" lon="113.272434">
        <time>2026-06-15T22:49:10Z</time>
      </trkpt>
      <trkpt lat="23.064568" lon="113.272327">
        <time>2026-06-15T22:49:15Z</time>
      </trkpt>
      <trkpt lat="23.064597" lon="113.272154">
        <time>2026-06-15T22:49:20Z</time>
      </trkpt>
      <trkpt lat="23.064636" lon="113.27205">
        <time>2026-06-15T22:49:25Z</time>
      </trkpt>
      <trkpt lat="23.064697" lon="113.27191">
        <time>2026-06-15T22:49:30Z</time>
      </trkpt>
      <trkpt lat="23.064742" lon="113.271815">
        <time>2026-06-15T22:49:35Z</time>
      </trkpt>
      <trkpt lat="23.064819" lon="113.271672">
        <time>2026-06-15T22:49:40Z</time>
      </trkpt>
      <trkpt lat="23.064874" lon="113.271578">
        <time>2026-06-15T22:49:45Z</time>
      </trkpt>
      <trkpt lat="23.064952" lon="113.271432">
        <time>2026-06-15T22:49:50Z</time>
      </trkpt>
      <trkpt lat="23.064995" lon="113.271337">
        <time>2026-06-15T22:49:55Z</time>
      </trkpt>
      <trkpt lat="23.065068" lon="113.271196">
        <time>2026-06-15T22:50:00Z</time>
      </trkpt>
      <trkpt lat="23.065132" lon="113.271123">
        <time>2026-06-15T22:50:05Z</time>
      </trkpt>
      <trkpt lat="23.065198" lon="113.271008">
        <time>2026-06-15T22:50:10Z</time>
      </trkpt>
      <trkpt lat="23.065222" lon="113.270904">
        <time>2026-06-15T22:50:15Z</time>
      </trkpt>
      <trkpt lat="23.065269" lon="113.270744">
        <time>2026-06-15T22:50:20Z</time>
      </trkpt>
      <trkpt lat="23.065313" lon="113.27065">
        <time>2026-06-15T22:50:25Z</time>
      </trkpt>
      <trkpt lat="23.065381" lon="113.270506">
        <time>2026-06-15T22:50:30Z</time>
      </trkpt>
      <trkpt lat="23.065425" lon="113.270398">
        <time>2026-06-15T22:50:35Z</time>
      </trkpt>
      <trkpt lat="23.065487" lon="113.270248">
        <time>2026-06-15T22:50:40Z</time>
      </trkpt>
      <trkpt lat="23.065525" lon="113.270148">
        <time>2026-06-15T22:50:45Z</time>
      </trkpt>
      <trkpt lat="23.065577" lon="113.269998">
        <time>2026-06-15T22:50:50Z</time>
      </trkpt>
      <trkpt lat="23.065607" lon="113.269895">
        <time>2026-06-15T22:50:55Z</time>
      </trkpt>
      <trkpt lat="23.065654" lon="113.269735">
        <time>2026-06-15T22:51:00Z</time>
      </trkpt>
      <trkpt lat="23.065695" lon="113.269629">
        <time>2026-06-15T22:51:05Z</time>
      </trkpt>
      <trkpt lat="23.065733" lon="113.269469">
        <time>2026-06-15T22:51:10Z</time>
      </trkpt>
      <trkpt lat="23.065685" lon="113.2694">
        <time>2026-06-15T22:51:15Z</time>
      </trkpt>
      <trkpt lat="23.065555" lon="113.269399">
        <time>2026-06-15T22:51:20Z</time>
      </trkpt>
      <trkpt lat="23.065504" lon="113.269488">
        <time>2026-06-15T22:51:25Z</time>
      </trkpt>
      <trkpt lat="23.065454" lon="113.269641">
        <time>2026-06-15T22:51:30Z</time>
      </trkpt>
      <trkpt lat="23.065423" lon="113.269725">
        <time>2026-06-15T22:51:35Z</time>
      </trkpt>
      <trkpt lat="23.065377" lon="113.269839">
        <time>2026-06-15T22:51:40Z</time>
      </trkpt>
      <trkpt lat="23.065354" lon="113.269938">
        <time>2026-06-15T22:51:45Z</time>
      </trkpt>
      <trkpt lat="23.0653" lon="113.270085">
        <time>2026-06-15T22:51:50Z</time>
      </trkpt>
      <trkpt lat="23.065259" lon="113.270182">
        <time>2026-06-15T22:51:55Z</time>
      </trkpt>
      <trkpt lat="23.065195" lon="113.270326">
        <time>2026-06-15T22:52:00Z</time>
      </trkpt>
      <trkpt lat="23.06515" lon="113.270423">
        <time>2026-06-15T22:52:05Z</time>
      </trkpt>
      <trkpt lat="23.065085" lon="113.270567">
        <time>2026-06-15T22:52:10Z</time>
      </trkpt>
      <trkpt lat="23.065042" lon="113.270659">
        <time>2026-06-15T22:52:15Z</time>
      </trkpt>
      <trkpt lat="23.064981" lon="113.270794">
        <time>2026-06-15T22:52:20Z</time>
      </trkpt>
      <trkpt lat="23.064946" lon="113.27087">
        <time>2026-06-15T22:52:25Z</time>
      </trkpt>
      <trkpt lat="23.064982" lon="113.270814">
        <time>2026-06-15T22:52:30Z</time>
      </trkpt>
      <trkpt lat="23.065063" lon="113.270653">
        <time>2026-06-15T22:52:35Z</time>
      </trkpt>
      <trkpt lat="23.065187" lon="113.270397">
        <time>2026-06-15T22:52:40Z</time>
      </trkpt>
      <trkpt lat="23.065265" lon="113.270241">
        <time>2026-06-15T22:52:45Z</time>
      </trkpt>
      <trkpt lat="23.065363" lon="113.26999">
        <time>2026-06-15T22:52:50Z</time>
      </trkpt>
      <trkpt lat="23.065411" lon="113.269844">
        <time>2026-06-15T22:52:55Z</time>
      </trkpt>
      <trkpt lat="23.065449" lon="113.269766">
        <time>2026-06-15T22:53:00Z</time>
      </trkpt>
      <trkpt lat="23.065484" lon="113.269737">
        <time>2026-06-15T22:53:05Z</time>
      </trkpt>
      <trkpt lat="23.065538" lon="113.269697">
        <time>2026-06-15T22:53:10Z</time>
      </trkpt>
      <trkpt lat="23.065557" lon="113.26973">
        <time>2026-06-15T22:53:15Z</time>
      </trkpt>
      <trkpt lat="23.065539" lon="113.26981">
        <time>2026-06-15T22:53:20Z</time>
      </trkpt>
      <trkpt lat="23.065541" lon="113.26986">
        <time>2026-06-15T22:53:25Z</time>
      </trkpt>
      <trkpt lat="23.065549" lon="113.269944">
        <time>2026-06-15T22:53:30Z</time>
      </trkpt>
      <trkpt lat="23.065544" lon="113.269997">
        <time>2026-06-15T22:53:35Z</time>
      </trkpt>
      <trkpt lat="23.065521" lon="113.270068">
        <time>2026-06-15T22:53:40Z</time>
      </trkpt>
      <trkpt lat="23.065525" lon="113.27005">
        <time>2026-06-15T22:53:45Z</time>
      </trkpt>
      <trkpt lat="23.065569" lon="113.269902">
        <time>2026-06-15T22:53:50Z</time>
      </trkpt>
      <trkpt lat="23.065617" lon="113.269723">
        <time>2026-06-15T22:53:55Z</time>
      </trkpt>
      <trkpt lat="23.065705" lon="113.269428">
        <time>2026-06-15T22:54:00Z</time>
      </trkpt>
      <trkpt lat="23.065752" lon="113.269243">
        <time>2026-06-15T22:54:05Z</time>
      </trkpt>
      <trkpt lat="23.065832" lon="113.268985">
        <time>2026-06-15T22:54:10Z</time>
      </trkpt>
      <trkpt lat="23.065893" lon="113.268847">
        <time>2026-06-15T22:54:15Z</time>
      </trkpt>
      <trkpt lat="23.065943" lon="113.268742">
        <time>2026-06-15T22:54:20Z</time>
      </trkpt>
      <trkpt lat="23.065965" lon="113.268694">
        <time>2026-06-15T22:54:25Z</time>
      </trkpt>
      <trkpt lat="23.066009" lon="113.268636">
        <time>2026-06-15T22:54:30Z</time>
      </trkpt>
      <trkpt lat="23.066041" lon="113.2686">
        <time>2026-06-15T22:54:35Z</time>
      </trkpt>
      <trkpt lat="23.066094" lon="113.268539">
        <time>2026-06-15T22:54:40Z</time>
      </trkpt>
      <trkpt lat="23.066124" lon="113.268498">
        <time>2026-06-15T22:54:45Z</time>
      </trkpt>
      <trkpt lat="23.066152" lon="113.268427">
        <time>2026-06-15T22:54:50Z</time>
      </trkpt>
      <trkpt lat="23.066157" lon="113.268359">
        <time>2026-06-15T22:54:55Z</time>
      </trkpt>
      <trkpt lat="23.0662" lon="113.26827">
        <time>2026-06-15T22:55:00Z</time>
      </trkpt>
      <trkpt lat="23.066239" lon="113.268221">
        <time>2026-06-15T22:55:05Z</time>
      </trkpt>
      <trkpt lat="23.066194" lon="113.268124">
        <time>2026-06-15T22:55:10Z</time>
      </trkpt>
      <trkpt lat="23.066061" lon="113.268192">
        <time>2026-06-15T22:55:15Z</time>
      </trkpt>
      <trkpt lat="23.065886" lon="113.268431">
        <time>2026-06-15T22:55:20Z</time>
      </trkpt>
      <trkpt lat="23.065792" lon="113.268588">
        <time>2026-06-15T22:55:25Z</time>
      </trkpt>
      <trkpt lat="23.065678" lon="113.268828">
        <time>2026-06-15T22:55:30Z</time>
      </trkpt>
      <trkpt lat="23.065629" lon="113.268976">
        <time>2026-06-15T22:55:35Z</time>
      </trkpt>
      <trkpt lat="23.06558" lon="113.269116">
        <time>2026-06-15T22:55:40Z</time>
      </trkpt>
      <trkpt lat="23.065574" lon="113.269175">
        <time>2026-06-15T22:55:45Z</time>
      </trkpt>
      <trkpt lat="23.065581" lon="113.269269">
        <time>2026-06-15T22:55:50Z</time>
      </trkpt>
      <trkpt lat="23.065576" lon="113.269331">
        <time>2026-06-15T22:55:55Z</time>
      </trkpt>
      <trkpt lat="23.065623" lon="113.269395">
        <time>2026-06-15T22:56:00Z</time>
      </trkpt>
      <trkpt lat="23.065665" lon="113.269427">
        <time>2026-06-15T22:56:05Z</time>
      </trkpt>
      <trkpt lat="23.065664" lon="113.269509">
        <time>2026-06-15T22:56:10Z</time>
      </trkpt>
      <trkpt lat="23.065673" lon="113.269549">
        <time>2026-06-15T22:56:15Z</time>
      </trkpt>
      <trkpt lat="23.065711" lon="113.269483">
        <time>2026-06-15T22:56:20Z</time>
      </trkpt>
      <trkpt lat="23.065725" lon="113.269427">
        <time>2026-06-15T22:56:25Z</time>
      </trkpt>
      <trkpt lat="23.065756" lon="113.269315">
        <time>2026-06-15T22:56:30Z</time>
      </trkpt>
      <trkpt lat="23.065797" lon="113.269158">
        <time>2026-06-15T22:56:35Z</time>
      </trkpt>
      <trkpt lat="23.065882" lon="113.268893">
        <time>2026-06-15T22:56:40Z</time>
      </trkpt>
      <trkpt lat="23.065953" lon="113.268732">
        <time>2026-06-15T22:56:45Z</time>
      </trkpt>
      <trkpt lat="23.066089" lon="113.268507">
        <time>2026-06-15T22:56:50Z</time>
      </trkpt>
      <trkpt lat="23.066188" lon="113.268374">
        <time>2026-06-15T22:56:55Z</time>
      </trkpt>
      <trkpt lat="23.066288" lon="113.268252">
        <time>2026-06-15T22:57:00Z</time>
      </trkpt>
      <trkpt lat="23.066327" lon="113.268218">
        <time>2026-06-15T22:57:05Z</time>
      </trkpt>
      <trkpt lat="23.066391" lon="113.268177">
        <time>2026-06-15T22:57:10Z</time>
      </trkpt>
      <trkpt lat="23.066438" lon="113.268162">
        <time>2026-06-15T22:57:15Z</time>
      </trkpt>
      <trkpt lat="23.066509" lon="113.268159">
        <time>2026-06-15T22:57:20Z</time>
      </trkpt>
      <trkpt lat="23.066562" lon="113.268167">
        <time>2026-06-15T22:57:25Z</time>
      </trkpt>
      <trkpt lat="23.066645" lon="113.268191">
        <time>2026-06-15T22:57:30Z</time>
      </trkpt>
      <trkpt lat="23.066706" lon="113.268194">
        <time>2026-06-15T22:57:35Z</time>
      </trkpt>
      <trkpt lat="23.066787" lon="113.268193">
        <time>2026-06-15T22:57:40Z</time>
      </trkpt>
      <trkpt lat="23.06683" lon="113.26819">
        <time>2026-06-15T22:57:45Z</time>
      </trkpt>
      <trkpt lat="23.066892" lon="113.268179">
        <time>2026-06-15T22:57:50Z</time>
      </trkpt>
      <trkpt lat="23.066932" lon="113.268178">
        <time>2026-06-15T22:57:55Z</time>
      </trkpt>
      <trkpt lat="23.066909" lon="113.268173">
        <time>2026-06-15T22:58:00Z</time>
      </trkpt>
      <trkpt lat="23.066762" lon="113.268162">
        <time>2026-06-15T22:58:05Z</time>
      </trkpt>
      <trkpt lat="23.066495" lon="113.268167">
        <time>2026-06-15T22:58:10Z</time>
      </trkpt>
      <trkpt lat="23.066336" lon="113.268194">
        <time>2026-06-15T22:58:15Z</time>
      </trkpt>
      <trkpt lat="23.066172" lon="113.268356">
        <time>2026-06-15T22:58:20Z</time>
      </trkpt>
      <trkpt lat="23.066116" lon="113.268456">
        <time>2026-06-15T22:58:25Z</time>
      </trkpt>
      <trkpt lat="23.066162" lon="113.268415">
        <time>2026-06-15T22:58:30Z</time>
      </trkpt>
      <trkpt lat="23.066203" lon="113.268365">
        <time>2026-06-15T22:58:35Z</time>
      </trkpt>
      <trkpt lat="23.066254" lon="113.268307">
        <time>2026-06-15T22:58:40Z</time>
      </trkpt>
      <trkpt lat="23.066287" lon="113.268267">
        <time>2026-06-15T22:58:45Z</time>
      </trkpt>
      <trkpt lat="23.066342" lon="113.268213">
        <time>2026-06-15T22:58:50Z</time>
      </trkpt>
      <trkpt lat="23.066387" lon="113.268183">
        <time>2026-06-15T22:58:55Z</time>
      </trkpt>
      <trkpt lat="23.06646" lon="113.268165">
        <time>2026-06-15T22:59:00Z</time>
      </trkpt>
      <trkpt lat="23.066508" lon="113.268164">
        <time>2026-06-15T22:59:05Z</time>
      </trkpt>
      <trkpt lat="23.066559" lon="113.268166">
        <time>2026-06-15T22:59:10Z</time>
      </trkpt>
      <trkpt lat="23.066636" lon="113.268187">
        <time>2026-06-15T22:59:15Z</time>
      </trkpt>
      <trkpt lat="23.066692" lon="113.2682">
        <time>2026-06-15T22:59:20Z</time>
      </trkpt>
      <trkpt lat="23.066806" lon="113.268202">
        <time>2026-06-15T22:59:25Z</time>
      </trkpt>
      <trkpt lat="23.066898" lon="113.268198">
        <time>2026-06-15T22:59:30Z</time>
      </trkpt>
      <trkpt lat="23.067021" lon="113.26822">
        <time>2026-06-15T22:59:35Z</time>
      </trkpt>
      <trkpt lat="23.067102" lon="113.268255">
        <time>2026-06-15T22:59:40Z</time>
      </trkpt>
      <trkpt lat="23.067232" lon="113.268322">
        <time>2026-06-15T22:59:45Z</time>
      </trkpt>
      <trkpt lat="23.067315" lon="113.268369">
        <time>2026-06-15T22:59:50Z</time>
      </trkpt>
      <trkpt lat="23.067443" lon="113.268428">
        <time>2026-06-15T22:59:55Z</time>
      </trkpt>
      <trkpt lat="23.06755" lon="113.268465">
        <time>2026-06-15T23:00:00Z</time>
      </trkpt>
      <trkpt lat="23.067697" lon="113.268544">
        <time>2026-06-15T23:00:05Z</time>
      </trkpt>
      <trkpt lat="23.067784" lon="113.268595">
        <time>2026-06-15T23:00:10Z</time>
      </trkpt>
      <trkpt lat="23.067914" lon="113.268662">
        <time>2026-06-15T23:00:15Z</time>
      </trkpt>
      <trkpt lat="23.068001" lon="113.268712">
        <time>2026-06-15T23:00:20Z</time>
      </trkpt>
      <trkpt lat="23.068134" lon="113.268764">
        <time>2026-06-15T23:00:25Z</time>
      </trkpt>
      <trkpt lat="23.068228" lon="113.26879">
        <time>2026-06-15T23:00:30Z</time>
      </trkpt>
      <trkpt lat="23.068379" lon="113.268848">
        <time>2026-06-15T23:00:35Z</time>
      </trkpt>
      <trkpt lat="23.068469" lon="113.268888">
        <time>2026-06-15T23:00:40Z</time>
      </trkpt>
      <trkpt lat="23.068601" lon="113.268971">
        <time>2026-06-15T23:00:45Z</time>
      </trkpt>
      <trkpt lat="23.06868" lon="113.269028">
        <time>2026-06-15T23:00:50Z</time>
      </trkpt>
      <trkpt lat="23.068821" lon="113.269093">
        <time>2026-06-15T23:00:55Z</time>
      </trkpt>
      <trkpt lat="23.068914" lon="113.269135">
        <time>2026-06-15T23:01:00Z</time>
      </trkpt>
      <trkpt lat="23.069054" lon="113.269217">
        <time>2026-06-15T23:01:05Z</time>
      </trkpt>
      <trkpt lat="23.069142" lon="113.269284">
        <time>2026-06-15T23:01:10Z</time>
      </trkpt>
      <trkpt lat="23.069271" lon="113.269366">
        <time>2026-06-15T23:01:15Z</time>
      </trkpt>
      <trkpt lat="23.069366" lon="113.269418">
        <time>2026-06-15T23:01:20Z</time>
      </trkpt>
      <trkpt lat="23.069496" lon="113.269486">
        <time>2026-06-15T23:01:25Z</time>
      </trkpt>
      <trkpt lat="23.069568" lon="113.26952">
        <time>2026-06-15T23:01:30Z</time>
      </trkpt>
      <trkpt lat="23.069706" lon="113.269596">
        <time>2026-06-15T23:01:35Z</time>
      </trkpt>
      <trkpt lat="23.0698" lon="113.269658">
        <time>2026-06-15T23:01:40Z</time>
      </trkpt>
      <trkpt lat="23.06996" lon="113.269717">
        <time>2026-06-15T23:01:45Z</time>
      </trkpt>
      <trkpt lat="23.070061" lon="113.269767">
        <time>2026-06-15T23:01:50Z</time>
      </trkpt>
      <trkpt lat="23.070198" lon="113.269829">
        <time>2026-06-15T23:01:55Z</time>
      </trkpt>
      <trkpt lat="23.070281" lon="113.269876">
        <time>2026-06-15T23:02:00Z</time>
      </trkpt>
      <trkpt lat="23.070422" lon="113.269918">
        <time>2026-06-15T23:02:05Z</time>
      </trkpt>
      <trkpt lat="23.070525" lon="113.269947">
        <time>2026-06-15T23:02:10Z</time>
      </trkpt>
      <trkpt lat="23.070676" lon="113.269999">
        <time>2026-06-15T23:02:15Z</time>
      </trkpt>
      <trkpt lat="23.070771" lon="113.270057">
        <time>2026-06-15T23:02:20Z</time>
      </trkpt>
      <trkpt lat="23.070899" lon="113.270127">
        <time>2026-06-15T23:02:25Z</time>
      </trkpt>
      <trkpt lat="23.070953" lon="113.270169">
        <time>2026-06-15T23:02:30Z</time>
      </trkpt>
      <trkpt lat="23.071049" lon="113.270229">
        <time>2026-06-15T23:02:35Z</time>
      </trkpt>
      <trkpt lat="23.071141" lon="113.270282">
        <time>2026-06-15T23:02:40Z</time>
      </trkpt>
      <trkpt lat="23.071276" lon="113.270339">
        <time>2026-06-15T23:02:45Z</time>
      </trkpt>
      <trkpt lat="23.071361" lon="113.270388">
        <time>2026-06-15T23:02:50Z</time>
      </trkpt>
      <trkpt lat="23.071489" lon="113.270445">
        <time>2026-06-15T23:02:55Z</time>
      </trkpt>
      <trkpt lat="23.07157" lon="113.270479">
        <time>2026-06-15T23:03:00Z</time>
      </trkpt>
      <trkpt lat="23.071698" lon="113.270538">
        <time>2026-06-15T23:03:05Z</time>
      </trkpt>
      <trkpt lat="23.071794" lon="113.270567">
        <time>2026-06-15T23:03:10Z</time>
      </trkpt>
      <trkpt lat="23.071931" lon="113.270633">
        <time>2026-06-15T23:03:15Z</time>
      </trkpt>
      <trkpt lat="23.07202" lon="113.270651">
        <time>2026-06-15T23:03:20Z</time>
      </trkpt>
      <trkpt lat="23.072159" lon="113.270673">
        <time>2026-06-15T23:03:25Z</time>
      </trkpt>
      <trkpt lat="23.072249" lon="113.270713">
        <time>2026-06-15T23:03:30Z</time>
      </trkpt>
      <trkpt lat="23.072384" lon="113.270794">
        <time>2026-06-15T23:03:35Z</time>
      </trkpt>
      <trkpt lat="23.072483" lon="113.270817">
        <time>2026-06-15T23:03:40Z</time>
      </trkpt>
      <trkpt lat="23.072621" lon="113.270886">
        <time>2026-06-15T23:03:45Z</time>
      </trkpt>
      <trkpt lat="23.072706" lon="113.270939">
        <time>2026-06-15T23:03:50Z</time>
      </trkpt>
      <trkpt lat="23.072833" lon="113.270995">
        <time>2026-06-15T23:03:55Z</time>
      </trkpt>
      <trkpt lat="23.072919" lon="113.271027">
        <time>2026-06-15T23:04:00Z</time>
      </trkpt>
      <trkpt lat="23.073076" lon="113.271079">
        <time>2026-06-15T23:04:05Z</time>
      </trkpt>
      <trkpt lat="23.073168" lon="113.271153">
        <time>2026-06-15T23:04:10Z</time>
      </trkpt>
      <trkpt lat="23.073299" lon="113.271239">
        <time>2026-06-15T23:04:15Z</time>
      </trkpt>
      <trkpt lat="23.073391" lon="113.271292">
        <time>2026-06-15T23:04:20Z</time>
      </trkpt>
      <trkpt lat="23.073521" lon="113.271386">
        <time>2026-06-15T23:04:25Z</time>
      </trkpt>
      <trkpt lat="23.073598" lon="113.271435">
        <time>2026-06-15T23:04:30Z</time>
      </trkpt>
      <trkpt lat="23.073742" lon="113.271469">
        <time>2026-06-15T23:04:35Z</time>
      </trkpt>
      <trkpt lat="23.073845" lon="113.271508">
        <time>2026-06-15T23:04:40Z</time>
      </trkpt>
      <trkpt lat="23.073975" lon="113.271597">
        <time>2026-06-15T23:04:45Z</time>
      </trkpt>
      <trkpt lat="23.074007" lon="113.271682">
        <time>2026-06-15T23:04:50Z</time>
      </trkpt>
      <trkpt lat="23.07393" lon="113.271804">
        <time>2026-06-15T23:04:55Z</time>
      </trkpt>
      <trkpt lat="23.073878" lon="113.271877">
        <time>2026-06-15T23:05:00Z</time>
      </trkpt>
      <trkpt lat="23.073894" lon="113.271981">
        <time>2026-06-15T23:05:05Z</time>
      </trkpt>
      <trkpt lat="23.073904" lon="113.272057">
        <time>2026-06-15T23:05:10Z</time>
      </trkpt>
      <trkpt lat="23.073995" lon="113.272163">
        <time>2026-06-15T23:05:15Z</time>
      </trkpt>
      <trkpt lat="23.074094" lon="113.272213">
        <time>2026-06-15T23:05:20Z</time>
      </trkpt>
      <trkpt lat="23.07423" lon="113.272266">
        <time>2026-06-15T23:05:25Z</time>
      </trkpt>
      <trkpt lat="23.074304" lon="113.272277">
        <time>2026-06-15T23:05:30Z</time>
      </trkpt>
      <trkpt lat="23.074354" lon="113.272224">
        <time>2026-06-15T23:05:38Z</time>
      </trkpt>
    </trkseg>
  </trk>
</gpx>