<?xml version="1.0" encoding="UTF-8"?>
<gpx xmlns="http://www.topografix.com/GPX/1/1" xmlns:gpxtpx="http://www.garmin.com/xmlschemas/TrackPointExtension/v1" xmlns:xsi="http://www.w3.org/2001/XMLSchema-instance" xsi:schemaLocation="http://www.topografix.com/GPX/1/1 http://www.topografix.com/GPX/1/1/gpx.xsd" version="1.1" creator="gpx.py -- https://github.com/tkrajina/gpxpy">
  <trk>
    <name>gpx from joyrun</name>
    <trkseg>
      <trkpt lat="23.075719" lon="113.272832">
        <time>2026-06-17T21:55:54Z</time>
      </trkpt>
      <trkpt lat="23.075663" lon="113.272765">
        <time>2026-06-17T21:55:59Z</time>
      </trkpt>
      <trkpt lat="23.07559" lon="113.272697">
        <time>2026-06-17T21:56:04Z</time>
      </trkpt>
      <trkpt lat="23.075487" lon="113.272579">
        <time>2026-06-17T21:56:09Z</time>
      </trkpt>
      <trkpt lat="23.075415" lon="113.272504">
        <time>2026-06-17T21:56:14Z</time>
      </trkpt>
      <trkpt lat="23.075293" lon="113.272437">
        <time>2026-06-17T21:56:19Z</time>
      </trkpt>
      <trkpt lat="23.075215" lon="113.272356">
        <time>2026-06-17T21:56:24Z</time>
      </trkpt>
      <trkpt lat="23.075085" lon="113.272267">
        <time>2026-06-17T21:56:29Z</time>
      </trkpt>
      <trkpt lat="23.074977" lon="113.272226">
        <time>2026-06-17T21:56:34Z</time>
      </trkpt>
      <trkpt lat="23.074839" lon="113.272137">
        <time>2026-06-17T21:56:39Z</time>
      </trkpt>
      <trkpt lat="23.074761" lon="113.272063">
        <time>2026-06-17T21:56:44Z</time>
      </trkpt>
      <trkpt lat="23.074634" lon="113.271997">
        <time>2026-06-17T21:56:49Z</time>
      </trkpt>
      <trkpt lat="23.074551" lon="113.271957">
        <time>2026-06-17T21:56:54Z</time>
      </trkpt>
      <trkpt lat="23.07442" lon="113.271966">
        <time>2026-06-17T21:56:59Z</time>
      </trkpt>
      <trkpt lat="23.074349" lon="113.272032">
        <time>2026-06-17T21:57:04Z</time>
      </trkpt>
      <trkpt lat="23.074302" lon="113.272171">
        <time>2026-06-17T21:57:09Z</time>
      </trkpt>
      <trkpt lat="23.074271" lon="113.272292">
        <time>2026-06-17T21:57:14Z</time>
      </trkpt>
      <trkpt lat="23.074201" lon="113.272484">
        <time>2026-06-17T21:57:19Z</time>
      </trkpt>
      <trkpt lat="23.074156" lon="113.27259">
        <time>2026-06-17T21:57:24Z</time>
      </trkpt>
      <trkpt lat="23.074099" lon="113.272754">
        <time>2026-06-17T21:57:29Z</time>
      </trkpt>
      <trkpt lat="23.074053" lon="113.272858">
        <time>2026-06-17T21:57:34Z</time>
      </trkpt>
      <trkpt lat="23.07394" lon="113.272942">
        <time>2026-06-17T21:57:39Z</time>
      </trkpt>
      <trkpt lat="23.073846" lon="113.272908">
        <time>2026-06-17T21:57:44Z</time>
      </trkpt>
      <trkpt lat="23.073732" lon="113.272833">
        <time>2026-06-17T21:57:49Z</time>
      </trkpt>
      <trkpt lat="23.07372" lon="113.272764">
        <time>2026-06-17T21:57:54Z</time>
      </trkpt>
      <trkpt lat="23.073769" lon="113.272639">
        <time>2026-06-17T21:57:59Z</time>
      </trkpt>
      <trkpt lat="23.073812" lon="113.272559">
        <time>2026-06-17T21:58:04Z</time>
      </trkpt>
      <trkpt lat="23.073875" lon="113.27244">
        <time>2026-06-17T21:58:09Z</time>
      </trkpt>
      <trkpt lat="23.073916" lon="113.27235">
        <time>2026-06-17T21:58:14Z</time>
      </trkpt>
      <trkpt lat="23.073974" lon="113.272214">
        <time>2026-06-17T21:58:19Z</time>
      </trkpt>
      <trkpt lat="23.074006" lon="113.272125">
        <time>2026-06-17T21:58:24Z</time>
      </trkpt>
      <trkpt lat="23.074055" lon="113.271986">
        <time>2026-06-17T21:58:29Z</time>
      </trkpt>
      <trkpt lat="23.074093" lon="113.271887">
        <time>2026-06-17T21:58:34Z</time>
      </trkpt>
      <trkpt lat="23.074103" lon="113.271743">
        <time>2026-06-17T21:58:39Z</time>
      </trkpt>
      <trkpt lat="23.074068" lon="113.271651">
        <time>2026-06-17T21:58:44Z</time>
      </trkpt>
      <trkpt lat="23.073943" lon="113.271536">
        <time>2026-06-17T21:58:49Z</time>
      </trkpt>
      <trkpt lat="23.073849" lon="113.271479">
        <time>2026-06-17T21:58:54Z</time>
      </trkpt>
      <trkpt lat="23.073714" lon="113.271408">
        <time>2026-06-17T21:58:59Z</time>
      </trkpt>
      <trkpt lat="23.073632" lon="113.271364">
        <time>2026-06-17T21:59:04Z</time>
      </trkpt>
      <trkpt lat="23.073504" lon="113.27133">
        <time>2026-06-17T21:59:09Z</time>
      </trkpt>
      <trkpt lat="23.073412" lon="113.27131">
        <time>2026-06-17T21:59:14Z</time>
      </trkpt>
      <trkpt lat="23.073277" lon="113.271254">
        <time>2026-06-17T21:59:19Z</time>
      </trkpt>
      <trkpt lat="23.073198" lon="113.271195">
        <time>2026-06-17T21:59:24Z</time>
      </trkpt>
      <trkpt lat="23.073081" lon="113.271124">
        <time>2026-06-17T21:59:29Z</time>
      </trkpt>
      <trkpt lat="23.072992" lon="113.271074">
        <time>2026-06-17T21:59:34Z</time>
      </trkpt>
      <trkpt lat="23.072852" lon="113.271011">
        <time>2026-06-17T21:59:39Z</time>
      </trkpt>
      <trkpt lat="23.072766" lon="113.270965">
        <time>2026-06-17T21:59:44Z</time>
      </trkpt>
      <trkpt lat="23.072644" lon="113.270884">
        <time>2026-06-17T21:59:49Z</time>
      </trkpt>
      <trkpt lat="23.072554" lon="113.270844">
        <time>2026-06-17T21:59:54Z</time>
      </trkpt>
      <trkpt lat="23.07241" lon="113.270802">
        <time>2026-06-17T21:59:59Z</time>
      </trkpt>
      <trkpt lat="23.072315" lon="113.270761">
        <time>2026-06-17T22:00:04Z</time>
      </trkpt>
      <trkpt lat="23.072186" lon="113.270712">
        <time>2026-06-17T22:00:09Z</time>
      </trkpt>
      <trkpt lat="23.072102" lon="113.270651">
        <time>2026-06-17T22:00:14Z</time>
      </trkpt>
      <trkpt lat="23.071971" lon="113.270554">
        <time>2026-06-17T22:00:19Z</time>
      </trkpt>
      <trkpt lat="23.071879" lon="113.270502">
        <time>2026-06-17T22:00:24Z</time>
      </trkpt>
      <trkpt lat="23.071745" lon="113.27046">
        <time>2026-06-17T22:00:29Z</time>
      </trkpt>
      <trkpt lat="23.071666" lon="113.270434">
        <time>2026-06-17T22:00:34Z</time>
      </trkpt>
      <trkpt lat="23.071539" lon="113.270362">
        <time>2026-06-17T22:00:39Z</time>
      </trkpt>
      <trkpt lat="23.071452" lon="113.270312">
        <time>2026-06-17T22:00:44Z</time>
      </trkpt>
      <trkpt lat="23.071313" lon="113.270247">
        <time>2026-06-17T22:00:49Z</time>
      </trkpt>
      <trkpt lat="23.071209" lon="113.270212">
        <time>2026-06-17T22:00:54Z</time>
      </trkpt>
      <trkpt lat="23.07106" lon="113.270082">
        <time>2026-06-17T22:00:59Z</time>
      </trkpt>
      <trkpt lat="23.070954" lon="113.270024">
        <time>2026-06-17T22:01:04Z</time>
      </trkpt>
      <trkpt lat="23.070784" lon="113.269964">
        <time>2026-06-17T22:01:09Z</time>
      </trkpt>
      <trkpt lat="23.070674" lon="113.269927">
        <time>2026-06-17T22:01:14Z</time>
      </trkpt>
      <trkpt lat="23.070517" lon="113.269864">
        <time>2026-06-17T22:01:19Z</time>
      </trkpt>
      <trkpt lat="23.070419" lon="113.269824">
        <time>2026-06-17T22:01:24Z</time>
      </trkpt>
      <trkpt lat="23.070274" lon="113.269773">
        <time>2026-06-17T22:01:29Z</time>
      </trkpt>
      <trkpt lat="23.070179" lon="113.269734">
        <time>2026-06-17T22:01:34Z</time>
      </trkpt>
      <trkpt lat="23.070026" lon="113.269659">
        <time>2026-06-17T22:01:39Z</time>
      </trkpt>
      <trkpt lat="23.069928" lon="113.269604">
        <time>2026-06-17T22:01:44Z</time>
      </trkpt>
      <trkpt lat="23.069788" lon="113.269549">
        <time>2026-06-17T22:01:49Z</time>
      </trkpt>
      <trkpt lat="23.069689" lon="113.26953">
        <time>2026-06-17T22:01:54Z</time>
      </trkpt>
      <trkpt lat="23.069556" lon="113.269454">
        <time>2026-06-17T22:01:59Z</time>
      </trkpt>
      <trkpt lat="23.069467" lon="113.269406">
        <time>2026-06-17T22:02:04Z</time>
      </trkpt>
      <trkpt lat="23.069345" lon="113.269298">
        <time>2026-06-17T22:02:09Z</time>
      </trkpt>
      <trkpt lat="23.069264" lon="113.269221">
        <time>2026-06-17T22:02:14Z</time>
      </trkpt>
      <trkpt lat="23.069125" lon="113.269152">
        <time>2026-06-17T22:02:19Z</time>
      </trkpt>
      <trkpt lat="23.069036" lon="113.269121">
        <time>2026-06-17T22:02:24Z</time>
      </trkpt>
      <trkpt lat="23.06889" lon="113.269075">
        <time>2026-06-17T22:02:29Z</time>
      </trkpt>
      <trkpt lat="23.068796" lon="113.269035">
        <time>2026-06-17T22:02:34Z</time>
      </trkpt>
      <trkpt lat="23.068657" lon="113.26899">
        <time>2026-06-17T22:02:39Z</time>
      </trkpt>
      <trkpt lat="23.068563" lon="113.268963">
        <time>2026-06-17T22:02:44Z</time>
      </trkpt>
      <trkpt lat="23.068426" lon="113.268912">
        <time>2026-06-17T22:02:49Z</time>
      </trkpt>
      <trkpt lat="23.068341" lon="113.268889">
        <time>2026-06-17T22:02:54Z</time>
      </trkpt>
      <trkpt lat="23.068226" lon="113.268828">
        <time>2026-06-17T22:02:59Z</time>
      </trkpt>
      <trkpt lat="23.068132" lon="113.268767">
        <time>2026-06-17T22:03:04Z</time>
      </trkpt>
      <trkpt lat="23.067981" lon="113.268637">
        <time>2026-06-17T22:03:09Z</time>
      </trkpt>
      <trkpt lat="23.067873" lon="113.268568">
        <time>2026-06-17T22:03:14Z</time>
      </trkpt>
      <trkpt lat="23.067733" lon="113.268494">
        <time>2026-06-17T22:03:19Z</time>
      </trkpt>
      <trkpt lat="23.067658" lon="113.268425">
        <time>2026-06-17T22:03:24Z</time>
      </trkpt>
      <trkpt lat="23.067533" lon="113.268325">
        <time>2026-06-17T22:03:29Z</time>
      </trkpt>
      <trkpt lat="23.067441" lon="113.268279">
        <time>2026-06-17T22:03:34Z</time>
      </trkpt>
      <trkpt lat="23.067305" lon="113.268205">
        <time>2026-06-17T22:03:39Z</time>
      </trkpt>
      <trkpt lat="23.067215" lon="113.268167">
        <time>2026-06-17T22:03:44Z</time>
      </trkpt>
      <trkpt lat="23.06707" lon="113.268116">
        <time>2026-06-17T22:03:49Z</time>
      </trkpt>
      <trkpt lat="23.066973" lon="113.268064">
        <time>2026-06-17T22:03:54Z</time>
      </trkpt>
      <trkpt lat="23.06682" lon="113.26802">
        <time>2026-06-17T22:03:59Z</time>
      </trkpt>
      <trkpt lat="23.066708" lon="113.268006">
        <time>2026-06-17T22:04:04Z</time>
      </trkpt>
      <trkpt lat="23.066547" lon="113.26796">
        <time>2026-06-17T22:04:09Z</time>
      </trkpt>
      <trkpt lat="23.066444" lon="113.26793">
        <time>2026-06-17T22:04:14Z</time>
      </trkpt>
      <trkpt lat="23.066287" lon="113.267952">
        <time>2026-06-17T22:04:19Z</time>
      </trkpt>
      <trkpt lat="23.066199" lon="113.26801">
        <time>2026-06-17T22:04:24Z</time>
      </trkpt>
      <trkpt lat="23.066088" lon="113.268139">
        <time>2026-06-17T22:04:29Z</time>
      </trkpt>
      <trkpt lat="23.066021" lon="113.268234">
        <time>2026-06-17T22:04:34Z</time>
      </trkpt>
      <trkpt lat="23.065926" lon="113.268371">
        <time>2026-06-17T22:04:39Z</time>
      </trkpt>
      <trkpt lat="23.065871" lon="113.268464">
        <time>2026-06-17T22:04:44Z</time>
      </trkpt>
      <trkpt lat="23.065795" lon="113.268606">
        <time>2026-06-17T22:04:49Z</time>
      </trkpt>
      <trkpt lat="23.065749" lon="113.268702">
        <time>2026-06-17T22:04:54Z</time>
      </trkpt>
      <trkpt lat="23.065692" lon="113.268846">
        <time>2026-06-17T22:04:59Z</time>
      </trkpt>
      <trkpt lat="23.065652" lon="113.268961">
        <time>2026-06-17T22:05:04Z</time>
      </trkpt>
      <trkpt lat="23.065598" lon="113.269121">
        <time>2026-06-17T22:05:09Z</time>
      </trkpt>
      <trkpt lat="23.06557" lon="113.269222">
        <time>2026-06-17T22:05:14Z</time>
      </trkpt>
      <trkpt lat="23.06553" lon="113.26939">
        <time>2026-06-17T22:05:19Z</time>
      </trkpt>
      <trkpt lat="23.065504" lon="113.269507">
        <time>2026-06-17T22:05:24Z</time>
      </trkpt>
      <trkpt lat="23.065469" lon="113.269681">
        <time>2026-06-17T22:05:29Z</time>
      </trkpt>
      <trkpt lat="23.06544" lon="113.269796">
        <time>2026-06-17T22:05:34Z</time>
      </trkpt>
      <trkpt lat="23.065392" lon="113.269961">
        <time>2026-06-17T22:05:39Z</time>
      </trkpt>
      <trkpt lat="23.065353" lon="113.270064">
        <time>2026-06-17T22:05:44Z</time>
      </trkpt>
      <trkpt lat="23.06529" lon="113.27022">
        <time>2026-06-17T22:05:49Z</time>
      </trkpt>
      <trkpt lat="23.065246" lon="113.270326">
        <time>2026-06-17T22:05:54Z</time>
      </trkpt>
      <trkpt lat="23.065179" lon="113.270484">
        <time>2026-06-17T22:05:59Z</time>
      </trkpt>
      <trkpt lat="23.065133" lon="113.270586">
        <time>2026-06-17T22:06:04Z</time>
      </trkpt>
      <trkpt lat="23.065061" lon="113.270731">
        <time>2026-06-17T22:06:09Z</time>
      </trkpt>
      <trkpt lat="23.065014" lon="113.270826">
        <time>2026-06-17T22:06:14Z</time>
      </trkpt>
      <trkpt lat="23.064941" lon="113.270969">
        <time>2026-06-17T22:06:19Z</time>
      </trkpt>
      <trkpt lat="23.064894" lon="113.271063">
        <time>2026-06-17T22:06:24Z</time>
      </trkpt>
      <trkpt lat="23.064822" lon="113.271221">
        <time>2026-06-17T22:06:29Z</time>
      </trkpt>
      <trkpt lat="23.064784" lon="113.271329">
        <time>2026-06-17T22:06:34Z</time>
      </trkpt>
      <trkpt lat="23.064728" lon="113.271475">
        <time>2026-06-17T22:06:39Z</time>
      </trkpt>
      <trkpt lat="23.064685" lon="113.271572">
        <time>2026-06-17T22:06:44Z</time>
      </trkpt>
      <trkpt lat="23.064619" lon="113.271729">
        <time>2026-06-17T22:06:49Z</time>
      </trkpt>
      <trkpt lat="23.064572" lon="113.271829">
        <time>2026-06-17T22:06:54Z</time>
      </trkpt>
      <trkpt lat="23.064503" lon="113.271981">
        <time>2026-06-17T22:06:59Z</time>
      </trkpt>
      <trkpt lat="23.064456" lon="113.272084">
        <time>2026-06-17T22:07:04Z</time>
      </trkpt>
      <trkpt lat="23.064393" lon="113.272239">
        <time>2026-06-17T22:07:09Z</time>
      </trkpt>
      <trkpt lat="23.064372" lon="113.272348">
        <time>2026-06-17T22:07:14Z</time>
      </trkpt>
      <trkpt lat="23.064362" lon="113.272512">
        <time>2026-06-17T22:07:19Z</time>
      </trkpt>
      <trkpt lat="23.064366" lon="113.272621">
        <time>2026-06-17T22:07:24Z</time>
      </trkpt>
      <trkpt lat="23.064404" lon="113.272777">
        <time>2026-06-17T22:07:29Z</time>
      </trkpt>
      <trkpt lat="23.064434" lon="113.272878">
        <time>2026-06-17T22:07:34Z</time>
      </trkpt>
      <trkpt lat="23.064472" lon="113.273024">
        <time>2026-06-17T22:07:39Z</time>
      </trkpt>
      <trkpt lat="23.064492" lon="113.273125">
        <time>2026-06-17T22:07:44Z</time>
      </trkpt>
      <trkpt lat="23.064461" lon="113.27329">
        <time>2026-06-17T22:07:49Z</time>
      </trkpt>
      <trkpt lat="23.064386" lon="113.273382">
        <time>2026-06-17T22:07:54Z</time>
      </trkpt>
      <trkpt lat="23.064236" lon="113.273496">
        <time>2026-06-17T22:07:59Z</time>
      </trkpt>
      <trkpt lat="23.064134" lon="113.273569">
        <time>2026-06-17T22:08:04Z</time>
      </trkpt>
      <trkpt lat="23.063991" lon="113.273692">
        <time>2026-06-17T22:08:09Z</time>
      </trkpt>
      <trkpt lat="23.063908" lon="113.273791">
        <time>2026-06-17T22:08:14Z</time>
      </trkpt>
      <trkpt lat="23.063801" lon="113.273965">
        <time>2026-06-17T22:08:19Z</time>
      </trkpt>
      <trkpt lat="23.063726" lon="113.27408">
        <time>2026-06-17T22:08:24Z</time>
      </trkpt>
      <trkpt lat="23.063586" lon="113.274203">
        <time>2026-06-17T22:08:29Z</time>
      </trkpt>
      <trkpt lat="23.063527" lon="113.274305">
        <time>2026-06-17T22:08:34Z</time>
      </trkpt>
      <trkpt lat="23.063447" lon="113.274503">
        <time>2026-06-17T22:08:39Z</time>
      </trkpt>
      <trkpt lat="23.063397" lon="113.274637">
        <time>2026-06-17T22:08:44Z</time>
      </trkpt>
      <trkpt lat="23.063317" lon="113.274852">
        <time>2026-06-17T22:08:49Z</time>
      </trkpt>
      <trkpt lat="23.063273" lon="113.274991">
        <time>2026-06-17T22:08:54Z</time>
      </trkpt>
      <trkpt lat="23.063188" lon="113.275183">
        <time>2026-06-17T22:08:59Z</time>
      </trkpt>
      <trkpt lat="23.063116" lon="113.275305">
        <time>2026-06-17T22:09:04Z</time>
      </trkpt>
      <trkpt lat="23.063003" lon="113.275482">
        <time>2026-06-17T22:09:09Z</time>
      </trkpt>
      <trkpt lat="23.06292" lon="113.275592">
        <time>2026-06-17T22:09:14Z</time>
      </trkpt>
      <trkpt lat="23.062778" lon="113.275733">
        <time>2026-06-17T22:09:19Z</time>
      </trkpt>
      <trkpt lat="23.062681" lon="113.275828">
        <time>2026-06-17T22:09:24Z</time>
      </trkpt>
      <trkpt lat="23.062555" lon="113.275985">
        <time>2026-06-17T22:09:29Z</time>
      </trkpt>
      <trkpt lat="23.062483" lon="113.276102">
        <time>2026-06-17T22:09:34Z</time>
      </trkpt>
      <trkpt lat="23.06239" lon="113.276291">
        <time>2026-06-17T22:09:39Z</time>
      </trkpt>
      <trkpt lat="23.062339" lon="113.276423">
        <time>2026-06-17T22:09:44Z</time>
      </trkpt>
      <trkpt lat="23.062266" lon="113.276621">
        <time>2026-06-17T22:09:49Z</time>
      </trkpt>
      <trkpt lat="23.062221" lon="113.276754">
        <time>2026-06-17T22:09:54Z</time>
      </trkpt>
      <trkpt lat="23.062148" lon="113.276949">
        <time>2026-06-17T22:09:59Z</time>
      </trkpt>
      <trkpt lat="23.062099" lon="113.277081">
        <time>2026-06-17T22:10:04Z</time>
      </trkpt>
      <trkpt lat="23.062031" lon="113.277284">
        <time>2026-06-17T22:10:09Z</time>
      </trkpt>
      <trkpt lat="23.061988" lon="113.277423">
        <time>2026-06-17T22:10:14Z</time>
      </trkpt>
      <trkpt lat="23.06192" lon="113.277624">
        <time>2026-06-17T22:10:19Z</time>
      </trkpt>
      <trkpt lat="23.061879" lon="113.277752">
        <time>2026-06-17T22:10:24Z</time>
      </trkpt>
      <trkpt lat="23.061854" lon="113.277955">
        <time>2026-06-17T22:10:29Z</time>
      </trkpt>
      <trkpt lat="23.06186" lon="113.278096">
        <time>2026-06-17T22:10:34Z</time>
      </trkpt>
      <trkpt lat="23.061872" lon="113.278304">
        <time>2026-06-17T22:10:39Z</time>
      </trkpt>
      <trkpt lat="23.061879" lon="113.278439">
        <time>2026-06-17T22:10:44Z</time>
      </trkpt>
      <trkpt lat="23.061882" lon="113.278641">
        <time>2026-06-17T22:10:49Z</time>
      </trkpt>
      <trkpt lat="23.061857" lon="113.27877">
        <time>2026-06-17T22:10:54Z</time>
      </trkpt>
      <trkpt lat="23.061764" lon="113.278954">
        <time>2026-06-17T22:10:59Z</time>
      </trkpt>
      <trkpt lat="23.061692" lon="113.279073">
        <time>2026-06-17T22:11:04Z</time>
      </trkpt>
      <trkpt lat="23.061598" lon="113.279259">
        <time>2026-06-17T22:11:09Z</time>
      </trkpt>
      <trkpt lat="23.061546" lon="113.279386">
        <time>2026-06-17T22:11:14Z</time>
      </trkpt>
      <trkpt lat="23.06147" lon="113.279572">
        <time>2026-06-17T22:11:19Z</time>
      </trkpt>
      <trkpt lat="23.061416" lon="113.279702">
        <time>2026-06-17T22:11:24Z</time>
      </trkpt>
      <trkpt lat="23.061336" lon="113.279903">
        <time>2026-06-17T22:11:29Z</time>
      </trkpt>
      <trkpt lat="23.061288" lon="113.280035">
        <time>2026-06-17T22:11:34Z</time>
      </trkpt>
      <trkpt lat="23.061202" lon="113.280232">
        <time>2026-06-17T22:11:39Z</time>
      </trkpt>
      <trkpt lat="23.061147" lon="113.280363">
        <time>2026-06-17T22:11:44Z</time>
      </trkpt>
      <trkpt lat="23.061046" lon="113.280538">
        <time>2026-06-17T22:11:49Z</time>
      </trkpt>
      <trkpt lat="23.060982" lon="113.280658">
        <time>2026-06-17T22:11:54Z</time>
      </trkpt>
      <trkpt lat="23.060897" lon="113.28085">
        <time>2026-06-17T22:11:59Z</time>
      </trkpt>
      <trkpt lat="23.060842" lon="113.280974">
        <time>2026-06-17T22:12:04Z</time>
      </trkpt>
      <trkpt lat="23.060762" lon="113.28116">
        <time>2026-06-17T22:12:09Z</time>
      </trkpt>
      <trkpt lat="23.060705" lon="113.281288">
        <time>2026-06-17T22:12:14Z</time>
      </trkpt>
      <trkpt lat="23.060619" lon="113.281471">
        <time>2026-06-17T22:12:19Z</time>
      </trkpt>
      <trkpt lat="23.060562" lon="113.281593">
        <time>2026-06-17T22:12:24Z</time>
      </trkpt>
      <trkpt lat="23.060483" lon="113.281784">
        <time>2026-06-17T22:12:29Z</time>
      </trkpt>
      <trkpt lat="23.060434" lon="113.281911">
        <time>2026-06-17T22:12:34Z</time>
      </trkpt>
      <trkpt lat="23.06036" lon="113.282104">
        <time>2026-06-17T22:12:39Z</time>
      </trkpt>
      <trkpt lat="23.060306" lon="113.282225">
        <time>2026-06-17T22:12:44Z</time>
      </trkpt>
      <trkpt lat="23.060209" lon="113.282413">
        <time>2026-06-17T22:12:49Z</time>
      </trkpt>
      <trkpt lat="23.060154" lon="113.282544">
        <time>2026-06-17T22:12:54Z</time>
      </trkpt>
      <trkpt lat="23.060075" lon="113.282737">
        <time>2026-06-17T22:12:59Z</time>
      </trkpt>
      <trkpt lat="23.060021" lon="113.282863">
        <time>2026-06-17T22:13:04Z</time>
      </trkpt>
      <trkpt lat="23.059948" lon="113.283053">
        <time>2026-06-17T22:13:09Z</time>
      </trkpt>
      <trkpt lat="23.059899" lon="113.283186">
        <time>2026-06-17T22:13:14Z</time>
      </trkpt>
      <trkpt lat="23.059842" lon="113.283369">
        <time>2026-06-17T22:13:19Z</time>
      </trkpt>
      <trkpt lat="23.05991" lon="113.283411">
        <time>2026-06-17T22:13:24Z</time>
      </trkpt>
      <trkpt lat="23.060043" lon="113.283246">
        <time>2026-06-17T22:13:29Z</time>
      </trkpt>
      <trkpt lat="23.060105" lon="113.283109">
        <time>2026-06-17T22:13:34Z</time>
      </trkpt>
      <trkpt lat="23.060182" lon="113.282896">
        <time>2026-06-17T22:13:39Z</time>
      </trkpt>
      <trkpt lat="23.060232" lon="113.282761">
        <time>2026-06-17T22:13:44Z</time>
      </trkpt>
      <trkpt lat="23.0603" lon="113.282556">
        <time>2026-06-17T22:13:49Z</time>
      </trkpt>
      <trkpt lat="23.06035" lon="113.282428">
        <time>2026-06-17T22:13:54Z</time>
      </trkpt>
      <trkpt lat="23.060425" lon="113.282241">
        <time>2026-06-17T22:13:59Z</time>
      </trkpt>
      <trkpt lat="23.060477" lon="113.282116">
        <time>2026-06-17T22:14:04Z</time>
      </trkpt>
      <trkpt lat="23.060547" lon="113.281923">
        <time>2026-06-17T22:14:09Z</time>
      </trkpt>
      <trkpt lat="23.060595" lon="113.281797">
        <time>2026-06-17T22:14:14Z</time>
      </trkpt>
      <trkpt lat="23.060681" lon="113.281613">
        <time>2026-06-17T22:14:19Z</time>
      </trkpt>
      <trkpt lat="23.060741" lon="113.281495">
        <time>2026-06-17T22:14:24Z</time>
      </trkpt>
      <trkpt lat="23.060828" lon="113.28131">
        <time>2026-06-17T22:14:29Z</time>
      </trkpt>
      <trkpt lat="23.060887" lon="113.281187">
        <time>2026-06-17T22:14:34Z</time>
      </trkpt>
      <trkpt lat="23.060976" lon="113.280994">
        <time>2026-06-17T22:14:39Z</time>
      </trkpt>
      <trkpt lat="23.061032" lon="113.280863">
        <time>2026-06-17T22:14:44Z</time>
      </trkpt>
      <trkpt lat="23.061111" lon="113.280659">
        <time>2026-06-17T22:14:49Z</time>
      </trkpt>
      <trkpt lat="23.061166" lon="113.280525">
        <time>2026-06-17T22:14:54Z</time>
      </trkpt>
      <trkpt lat="23.061247" lon="113.280327">
        <time>2026-06-17T22:14:59Z</time>
      </trkpt>
      <trkpt lat="23.061305" lon="113.280199">
        <time>2026-06-17T22:15:04Z</time>
      </trkpt>
      <trkpt lat="23.061395" lon="113.280011">
        <time>2026-06-17T22:15:09Z</time>
      </trkpt>
      <trkpt lat="23.061445" lon="113.279886">
        <time>2026-06-17T22:15:14Z</time>
      </trkpt>
      <trkpt lat="23.061515" lon="113.279695">
        <time>2026-06-17T22:15:19Z</time>
      </trkpt>
      <trkpt lat="23.061564" lon="113.279568">
        <time>2026-06-17T22:15:24Z</time>
      </trkpt>
      <trkpt lat="23.061635" lon="113.279374">
        <time>2026-06-17T22:15:29Z</time>
      </trkpt>
      <trkpt lat="23.061688" lon="113.279242">
        <time>2026-06-17T22:15:34Z</time>
      </trkpt>
      <trkpt lat="23.061789" lon="113.279057">
        <time>2026-06-17T22:15:39Z</time>
      </trkpt>
      <trkpt lat="23.061868" lon="113.278942">
        <time>2026-06-17T22:15:44Z</time>
      </trkpt>
      <trkpt lat="23.061955" lon="113.278741">
        <time>2026-06-17T22:15:49Z</time>
      </trkpt>
      <trkpt lat="23.061967" lon="113.278596">
        <time>2026-06-17T22:15:54Z</time>
      </trkpt>
      <trkpt lat="23.061953" lon="113.278379">
        <time>2026-06-17T22:15:59Z</time>
      </trkpt>
      <trkpt lat="23.061942" lon="113.278234">
        <time>2026-06-17T22:16:04Z</time>
      </trkpt>
      <trkpt lat="23.061933" lon="113.27802">
        <time>2026-06-17T22:16:09Z</time>
      </trkpt>
      <trkpt lat="23.061929" lon="113.277873">
        <time>2026-06-17T22:16:14Z</time>
      </trkpt>
      <trkpt lat="23.061958" lon="113.277654">
        <time>2026-06-17T22:16:19Z</time>
      </trkpt>
      <trkpt lat="23.062011" lon="113.277515">
        <time>2026-06-17T22:16:24Z</time>
      </trkpt>
      <trkpt lat="23.062088" lon="113.277311">
        <time>2026-06-17T22:16:29Z</time>
      </trkpt>
      <trkpt lat="23.062132" lon="113.277171">
        <time>2026-06-17T22:16:34Z</time>
      </trkpt>
      <trkpt lat="23.062212" lon="113.276975">
        <time>2026-06-17T22:16:39Z</time>
      </trkpt>
      <trkpt lat="23.062263" lon="113.276847">
        <time>2026-06-17T22:16:44Z</time>
      </trkpt>
      <trkpt lat="23.062333" lon="113.276647">
        <time>2026-06-17T22:16:49Z</time>
      </trkpt>
      <trkpt lat="23.062383" lon="113.27651">
        <time>2026-06-17T22:16:54Z</time>
      </trkpt>
      <trkpt lat="23.06246" lon="113.276304">
        <time>2026-06-17T22:16:59Z</time>
      </trkpt>
      <trkpt lat="23.062518" lon="113.276168">
        <time>2026-06-17T22:17:04Z</time>
      </trkpt>
      <trkpt lat="23.062625" lon="113.275982">
        <time>2026-06-17T22:17:09Z</time>
      </trkpt>
      <trkpt lat="23.062706" lon="113.275866">
        <time>2026-06-17T22:17:14Z</time>
      </trkpt>
      <trkpt lat="23.062857" lon="113.275729">
        <time>2026-06-17T22:17:19Z</time>
      </trkpt>
      <trkpt lat="23.062957" lon="113.275638">
        <time>2026-06-17T22:17:24Z</time>
      </trkpt>
      <trkpt lat="23.063086" lon="113.275469">
        <time>2026-06-17T22:17:29Z</time>
      </trkpt>
      <trkpt lat="23.063159" lon="113.275343">
        <time>2026-06-17T22:17:34Z</time>
      </trkpt>
      <trkpt lat="23.06326" lon="113.275158">
        <time>2026-06-17T22:17:39Z</time>
      </trkpt>
      <trkpt lat="23.06332" lon="113.275026">
        <time>2026-06-17T22:17:44Z</time>
      </trkpt>
      <trkpt lat="23.063405" lon="113.274827">
        <time>2026-06-17T22:17:49Z</time>
      </trkpt>
      <trkpt lat="23.063451" lon="113.274694">
        <time>2026-06-17T22:17:54Z</time>
      </trkpt>
      <trkpt lat="23.063505" lon="113.274502">
        <time>2026-06-17T22:17:59Z</time>
      </trkpt>
      <trkpt lat="23.063536" lon="113.274382">
        <time>2026-06-17T22:18:04Z</time>
      </trkpt>
      <trkpt lat="23.063652" lon="113.274214">
        <time>2026-06-17T22:18:09Z</time>
      </trkpt>
      <trkpt lat="23.063765" lon="113.274127">
        <time>2026-06-17T22:18:14Z</time>
      </trkpt>
      <trkpt lat="23.063895" lon="113.273957">
        <time>2026-06-17T22:18:19Z</time>
      </trkpt>
      <trkpt lat="23.063975" lon="113.273823">
        <time>2026-06-17T22:18:24Z</time>
      </trkpt>
      <trkpt lat="23.064112" lon="113.27366">
        <time>2026-06-17T22:18:29Z</time>
      </trkpt>
      <trkpt lat="23.064216" lon="113.273575">
        <time>2026-06-17T22:18:34Z</time>
      </trkpt>
      <trkpt lat="23.064373" lon="113.273453">
        <time>2026-06-17T22:18:39Z</time>
      </trkpt>
      <trkpt lat="23.064473" lon="113.273367">
        <time>2026-06-17T22:18:44Z</time>
      </trkpt>
      <trkpt lat="23.064564" lon="113.2732">
        <time>2026-06-17T22:18:49Z</time>
      </trkpt>
      <trkpt lat="23.064559" lon="113.273059">
        <time>2026-06-17T22:18:54Z</time>
      </trkpt>
      <trkpt lat="23.064489" lon="113.272841">
        <time>2026-06-17T22:18:59Z</time>
      </trkpt>
      <trkpt lat="23.064441" lon="113.272701">
        <time>2026-06-17T22:19:04Z</time>
      </trkpt>
      <trkpt lat="23.064441" lon="113.272482">
        <time>2026-06-17T22:19:09Z</time>
      </trkpt>
      <trkpt lat="23.064494" lon="113.272337">
        <time>2026-06-17T22:19:14Z</time>
      </trkpt>
      <trkpt lat="23.064573" lon="113.272128">
        <time>2026-06-17T22:19:19Z</time>
      </trkpt>
      <trkpt lat="23.064628" lon="113.272003">
        <time>2026-06-17T22:19:24Z</time>
      </trkpt>
      <trkpt lat="23.064711" lon="113.271831">
        <time>2026-06-17T22:19:29Z</time>
      </trkpt>
      <trkpt lat="23.06477" lon="113.271718">
        <time>2026-06-17T22:19:34Z</time>
      </trkpt>
      <trkpt lat="23.064862" lon="113.27154">
        <time>2026-06-17T22:19:39Z</time>
      </trkpt>
      <trkpt lat="23.064918" lon="113.271423">
        <time>2026-06-17T22:19:44Z</time>
      </trkpt>
      <trkpt lat="23.065002" lon="113.271247">
        <time>2026-06-17T22:19:49Z</time>
      </trkpt>
      <trkpt lat="23.06507" lon="113.271126">
        <time>2026-06-17T22:19:54Z</time>
      </trkpt>
      <trkpt lat="23.065158" lon="113.270918">
        <time>2026-06-17T22:19:59Z</time>
      </trkpt>
      <trkpt lat="23.065215" lon="113.27078">
        <time>2026-06-17T22:20:04Z</time>
      </trkpt>
      <trkpt lat="23.065308" lon="113.270585">
        <time>2026-06-17T22:20:09Z</time>
      </trkpt>
      <trkpt lat="23.065373" lon="113.270463">
        <time>2026-06-17T22:20:14Z</time>
      </trkpt>
      <trkpt lat="23.065462" lon="113.270277">
        <time>2026-06-17T22:20:19Z</time>
      </trkpt>
      <trkpt lat="23.065514" lon="113.270138">
        <time>2026-06-17T22:20:24Z</time>
      </trkpt>
      <trkpt lat="23.06558" lon="113.269928">
        <time>2026-06-17T22:20:29Z</time>
      </trkpt>
      <trkpt lat="23.065619" lon="113.26979">
        <time>2026-06-17T22:20:34Z</time>
      </trkpt>
      <trkpt lat="23.06568" lon="113.269576">
        <time>2026-06-17T22:20:39Z</time>
      </trkpt>
      <trkpt lat="23.06572" lon="113.269438">
        <time>2026-06-17T22:20:44Z</time>
      </trkpt>
      <trkpt lat="23.065771" lon="113.269223">
        <time>2026-06-17T22:20:49Z</time>
      </trkpt>
      <trkpt lat="23.065814" lon="113.269078">
        <time>2026-06-17T22:20:54Z</time>
      </trkpt>
      <trkpt lat="23.065898" lon="113.268868">
        <time>2026-06-17T22:20:59Z</time>
      </trkpt>
      <trkpt lat="23.065965" lon="113.268744">
        <time>2026-06-17T22:21:04Z</time>
      </trkpt>
      <trkpt lat="23.066074" lon="113.268565">
        <time>2026-06-17T22:21:09Z</time>
      </trkpt>
      <trkpt lat="23.06615" lon="113.268439">
        <time>2026-06-17T22:21:14Z</time>
      </trkpt>
      <trkpt lat="23.066274" lon="113.268265">
        <time>2026-06-17T22:21:19Z</time>
      </trkpt>
      <trkpt lat="23.066376" lon="113.268167">
        <time>2026-06-17T22:21:24Z</time>
      </trkpt>
      <trkpt lat="23.066566" lon="113.268122">
        <time>2026-06-17T22:21:29Z</time>
      </trkpt>
      <trkpt lat="23.066687" lon="113.268122">
        <time>2026-06-17T22:21:34Z</time>
      </trkpt>
      <trkpt lat="23.066617" lon="113.268">
        <time>2026-06-17T22:21:39Z</time>
      </trkpt>
      <trkpt lat="23.066467" lon="113.267955">
        <time>2026-06-17T22:21:44Z</time>
      </trkpt>
      <trkpt lat="23.066264" lon="113.267992">
        <time>2026-06-17T22:21:49Z</time>
      </trkpt>
      <trkpt lat="23.066159" lon="113.268077">
        <time>2026-06-17T22:21:54Z</time>
      </trkpt>
      <trkpt lat="23.066029" lon="113.268236">
        <time>2026-06-17T22:21:59Z</time>
      </trkpt>
      <trkpt lat="23.065949" lon="113.268347">
        <time>2026-06-17T22:22:04Z</time>
      </trkpt>
      <trkpt lat="23.065844" lon="113.268525">
        <time>2026-06-17T22:22:09Z</time>
      </trkpt>
      <trkpt lat="23.065786" lon="113.268648">
        <time>2026-06-17T22:22:14Z</time>
      </trkpt>
      <trkpt lat="23.065696" lon="113.268833">
        <time>2026-06-17T22:22:19Z</time>
      </trkpt>
      <trkpt lat="23.065647" lon="113.268965">
        <time>2026-06-17T22:22:24Z</time>
      </trkpt>
      <trkpt lat="23.065594" lon="113.269172">
        <time>2026-06-17T22:22:29Z</time>
      </trkpt>
      <trkpt lat="23.065559" lon="113.269309">
        <time>2026-06-17T22:22:34Z</time>
      </trkpt>
      <trkpt lat="23.065508" lon="113.269515">
        <time>2026-06-17T22:22:39Z</time>
      </trkpt>
      <trkpt lat="23.065479" lon="113.26965">
        <time>2026-06-17T22:22:44Z</time>
      </trkpt>
      <trkpt lat="23.065419" lon="113.269847">
        <time>2026-06-17T22:22:49Z</time>
      </trkpt>
      <trkpt lat="23.065373" lon="113.26998">
        <time>2026-06-17T22:22:54Z</time>
      </trkpt>
      <trkpt lat="23.065299" lon="113.270179">
        <time>2026-06-17T22:22:59Z</time>
      </trkpt>
      <trkpt lat="23.065237" lon="113.270307">
        <time>2026-06-17T22:23:04Z</time>
      </trkpt>
      <trkpt lat="23.06514" lon="113.270497">
        <time>2026-06-17T22:23:09Z</time>
      </trkpt>
      <trkpt lat="23.065075" lon="113.270628">
        <time>2026-06-17T22:23:14Z</time>
      </trkpt>
      <trkpt lat="23.064985" lon="113.270825">
        <time>2026-06-17T22:23:19Z</time>
      </trkpt>
      <trkpt lat="23.064928" lon="113.270956">
        <time>2026-06-17T22:23:24Z</time>
      </trkpt>
      <trkpt lat="23.064844" lon="113.271159">
        <time>2026-06-17T22:23:29Z</time>
      </trkpt>
      <trkpt lat="23.064785" lon="113.271293">
        <time>2026-06-17T22:23:34Z</time>
      </trkpt>
      <trkpt lat="23.064691" lon="113.271478">
        <time>2026-06-17T22:23:39Z</time>
      </trkpt>
      <trkpt lat="23.064633" lon="113.271598">
        <time>2026-06-17T22:23:44Z</time>
      </trkpt>
      <trkpt lat="23.064546" lon="113.271781">
        <time>2026-06-17T22:23:49Z</time>
      </trkpt>
      <trkpt lat="23.064494" lon="113.271914">
        <time>2026-06-17T22:23:54Z</time>
      </trkpt>
      <trkpt lat="23.064414" lon="113.272112">
        <time>2026-06-17T22:23:59Z</time>
      </trkpt>
      <trkpt lat="23.064371" lon="113.272244">
        <time>2026-06-17T22:24:04Z</time>
      </trkpt>
      <trkpt lat="23.064342" lon="113.272446">
        <time>2026-06-17T22:24:09Z</time>
      </trkpt>
      <trkpt lat="23.064336" lon="113.272577">
        <time>2026-06-17T22:24:14Z</time>
      </trkpt>
      <trkpt lat="23.064379" lon="113.272778">
        <time>2026-06-17T22:24:19Z</time>
      </trkpt>
      <trkpt lat="23.064423" lon="113.272909">
        <time>2026-06-17T22:24:24Z</time>
      </trkpt>
      <trkpt lat="23.064482" lon="113.273106">
        <time>2026-06-17T22:24:29Z</time>
      </trkpt>
      <trkpt lat="23.064482" lon="113.273242">
        <time>2026-06-17T22:24:34Z</time>
      </trkpt>
      <trkpt lat="23.064374" lon="113.273415">
        <time>2026-06-17T22:24:39Z</time>
      </trkpt>
      <trkpt lat="23.064263" lon="113.273502">
        <time>2026-06-17T22:24:44Z</time>
      </trkpt>
      <trkpt lat="23.064092" lon="113.273627">
        <time>2026-06-17T22:24:49Z</time>
      </trkpt>
      <trkpt lat="23.063983" lon="113.273722">
        <time>2026-06-17T22:24:54Z</time>
      </trkpt>
      <trkpt lat="23.063855" lon="113.27389">
        <time>2026-06-17T22:24:59Z</time>
      </trkpt>
      <trkpt lat="23.063783" lon="113.27401">
        <time>2026-06-17T22:25:04Z</time>
      </trkpt>
      <trkpt lat="23.063663" lon="113.274171">
        <time>2026-06-17T22:25:09Z</time>
      </trkpt>
      <trkpt lat="23.063573" lon="113.27425">
        <time>2026-06-17T22:25:14Z</time>
      </trkpt>
      <trkpt lat="23.063465" lon="113.274412">
        <time>2026-06-17T22:25:19Z</time>
      </trkpt>
      <trkpt lat="23.063412" lon="113.274547">
        <time>2026-06-17T22:25:24Z</time>
      </trkpt>
      <trkpt lat="23.063348" lon="113.274771">
        <time>2026-06-17T22:25:29Z</time>
      </trkpt>
      <trkpt lat="23.063296" lon="113.274913">
        <time>2026-06-17T22:25:34Z</time>
      </trkpt>
      <trkpt lat="23.063212" lon="113.275116">
        <time>2026-06-17T22:25:39Z</time>
      </trkpt>
      <trkpt lat="23.063143" lon="113.275245">
        <time>2026-06-17T22:25:44Z</time>
      </trkpt>
      <trkpt lat="23.063033" lon="113.275424">
        <time>2026-06-17T22:25:49Z</time>
      </trkpt>
      <trkpt lat="23.062955" lon="113.275538">
        <time>2026-06-17T22:25:54Z</time>
      </trkpt>
      <trkpt lat="23.062818" lon="113.275699">
        <time>2026-06-17T22:25:59Z</time>
      </trkpt>
      <trkpt lat="23.062715" lon="113.275797">
        <time>2026-06-17T22:26:04Z</time>
      </trkpt>
      <trkpt lat="23.062579" lon="113.275957">
        <time>2026-06-17T22:26:09Z</time>
      </trkpt>
      <trkpt lat="23.062507" lon="113.276078">
        <time>2026-06-17T22:26:14Z</time>
      </trkpt>
      <trkpt lat="23.062414" lon="113.276275">
        <time>2026-06-17T22:26:19Z</time>
      </trkpt>
      <trkpt lat="23.062365" lon="113.276407">
        <time>2026-06-17T22:26:24Z</time>
      </trkpt>
      <trkpt lat="23.062296" lon="113.276602">
        <time>2026-06-17T22:26:29Z</time>
      </trkpt>
      <trkpt lat="23.062247" lon="113.276734">
        <time>2026-06-17T22:26:34Z</time>
      </trkpt>
      <trkpt lat="23.062165" lon="113.276926">
        <time>2026-06-17T22:26:39Z</time>
      </trkpt>
      <trkpt lat="23.062109" lon="113.277057">
        <time>2026-06-17T22:26:44Z</time>
      </trkpt>
      <trkpt lat="23.062032" lon="113.277264">
        <time>2026-06-17T22:26:49Z</time>
      </trkpt>
      <trkpt lat="23.061985" lon="113.277403">
        <time>2026-06-17T22:26:54Z</time>
      </trkpt>
      <trkpt lat="23.061913" lon="113.277603">
        <time>2026-06-17T22:26:59Z</time>
      </trkpt>
      <trkpt lat="23.061875" lon="113.277738">
        <time>2026-06-17T22:27:04Z</time>
      </trkpt>
      <trkpt lat="23.061852" lon="113.277944">
        <time>2026-06-17T22:27:09Z</time>
      </trkpt>
      <trkpt lat="23.06186" lon="113.278084">
        <time>2026-06-17T22:27:14Z</time>
      </trkpt>
      <trkpt lat="23.061872" lon="113.27829">
        <time>2026-06-17T22:27:19Z</time>
      </trkpt>
      <trkpt lat="23.061881" lon="113.27843">
        <time>2026-06-17T22:27:24Z</time>
      </trkpt>
      <trkpt lat="23.061888" lon="113.278635">
        <time>2026-06-17T22:27:29Z</time>
      </trkpt>
      <trkpt lat="23.061863" lon="113.278771">
        <time>2026-06-17T22:27:34Z</time>
      </trkpt>
      <trkpt lat="23.061772" lon="113.278962">
        <time>2026-06-17T22:27:39Z</time>
      </trkpt>
      <trkpt lat="23.061703" lon="113.27908">
        <time>2026-06-17T22:27:44Z</time>
      </trkpt>
      <trkpt lat="23.061607" lon="113.279266">
        <time>2026-06-17T22:27:49Z</time>
      </trkpt>
      <trkpt lat="23.061562" lon="113.279402">
        <time>2026-06-17T22:27:54Z</time>
      </trkpt>
      <trkpt lat="23.061488" lon="113.279602">
        <time>2026-06-17T22:27:59Z</time>
      </trkpt>
      <trkpt lat="23.061427" lon="113.279728">
        <time>2026-06-17T22:28:04Z</time>
      </trkpt>
      <trkpt lat="23.061338" lon="113.279924">
        <time>2026-06-17T22:28:09Z</time>
      </trkpt>
      <trkpt lat="23.061284" lon="113.280054">
        <time>2026-06-17T22:28:14Z</time>
      </trkpt>
      <trkpt lat="23.061205" lon="113.280246">
        <time>2026-06-17T22:28:19Z</time>
      </trkpt>
      <trkpt lat="23.061149" lon="113.280379">
        <time>2026-06-17T22:28:24Z</time>
      </trkpt>
      <trkpt lat="23.061041" lon="113.280554">
        <time>2026-06-17T22:28:29Z</time>
      </trkpt>
      <trkpt lat="23.060983" lon="113.280675">
        <time>2026-06-17T22:28:34Z</time>
      </trkpt>
      <trkpt lat="23.060895" lon="113.280869">
        <time>2026-06-17T22:28:39Z</time>
      </trkpt>
      <trkpt lat="23.060834" lon="113.280998">
        <time>2026-06-17T22:28:44Z</time>
      </trkpt>
      <trkpt lat="23.060746" lon="113.28119">
        <time>2026-06-17T22:28:49Z</time>
      </trkpt>
      <trkpt lat="23.060689" lon="113.281317">
        <time>2026-06-17T22:28:54Z</time>
      </trkpt>
      <trkpt lat="23.060604" lon="113.281509">
        <time>2026-06-17T22:28:59Z</time>
      </trkpt>
      <trkpt lat="23.060545" lon="113.281639">
        <time>2026-06-17T22:29:04Z</time>
      </trkpt>
      <trkpt lat="23.060457" lon="113.281834">
        <time>2026-06-17T22:29:09Z</time>
      </trkpt>
      <trkpt lat="23.060395" lon="113.28196">
        <time>2026-06-17T22:29:14Z</time>
      </trkpt>
      <trkpt lat="23.060307" lon="113.282156">
        <time>2026-06-17T22:29:19Z</time>
      </trkpt>
      <trkpt lat="23.060254" lon="113.282289">
        <time>2026-06-17T22:29:24Z</time>
      </trkpt>
      <trkpt lat="23.060172" lon="113.282494">
        <time>2026-06-17T22:29:29Z</time>
      </trkpt>
      <trkpt lat="23.06012" lon="113.282633">
        <time>2026-06-17T22:29:34Z</time>
      </trkpt>
      <trkpt lat="23.060042" lon="113.28283">
        <time>2026-06-17T22:29:39Z</time>
      </trkpt>
      <trkpt lat="23.059992" lon="113.28296">
        <time>2026-06-17T22:29:44Z</time>
      </trkpt>
      <trkpt lat="23.059938" lon="113.283157">
        <time>2026-06-17T22:29:49Z</time>
      </trkpt>
      <trkpt lat="23.059899" lon="113.283281">
        <time>2026-06-17T22:29:54Z</time>
      </trkpt>
      <trkpt lat="23.059928" lon="113.283416">
        <time>2026-06-17T22:29:59Z</time>
      </trkpt>
      <trkpt lat="23.060003" lon="113.283339">
        <time>2026-06-17T22:30:04Z</time>
      </trkpt>
      <trkpt lat="23.06009" lon="113.283125">
        <time>2026-06-17T22:30:09Z</time>
      </trkpt>
      <trkpt lat="23.06015" lon="113.282997">
        <time>2026-06-17T22:30:14Z</time>
      </trkpt>
      <trkpt lat="23.060229" lon="113.282789">
        <time>2026-06-17T22:30:19Z</time>
      </trkpt>
      <trkpt lat="23.060277" lon="113.282642">
        <time>2026-06-17T22:30:24Z</time>
      </trkpt>
      <trkpt lat="23.060348" lon="113.282432">
        <time>2026-06-17T22:30:29Z</time>
      </trkpt>
      <trkpt lat="23.0604" lon="113.282299">
        <time>2026-06-17T22:30:34Z</time>
      </trkpt>
      <trkpt lat="23.060487" lon="113.2821">
        <time>2026-06-17T22:30:39Z</time>
      </trkpt>
      <trkpt lat="23.060541" lon="113.281962">
        <time>2026-06-17T22:30:44Z</time>
      </trkpt>
      <trkpt lat="23.060626" lon="113.281768">
        <time>2026-06-17T22:30:49Z</time>
      </trkpt>
      <trkpt lat="23.060682" lon="113.281642">
        <time>2026-06-17T22:30:54Z</time>
      </trkpt>
      <trkpt lat="23.060766" lon="113.281455">
        <time>2026-06-17T22:30:59Z</time>
      </trkpt>
      <trkpt lat="23.060821" lon="113.281314">
        <time>2026-06-17T22:31:04Z</time>
      </trkpt>
      <trkpt lat="23.060907" lon="113.281099">
        <time>2026-06-17T22:31:09Z</time>
      </trkpt>
      <trkpt lat="23.060961" lon="113.280961">
        <time>2026-06-17T22:31:14Z</time>
      </trkpt>
      <trkpt lat="23.061042" lon="113.280763">
        <time>2026-06-17T22:31:19Z</time>
      </trkpt>
      <trkpt lat="23.061099" lon="113.280635">
        <time>2026-06-17T22:31:24Z</time>
      </trkpt>
      <trkpt lat="23.061184" lon="113.28045">
        <time>2026-06-17T22:31:29Z</time>
      </trkpt>
      <trkpt lat="23.061242" lon="113.280331">
        <time>2026-06-17T22:31:34Z</time>
      </trkpt>
      <trkpt lat="23.061333" lon="113.280149">
        <time>2026-06-17T22:31:39Z</time>
      </trkpt>
      <trkpt lat="23.061382" lon="113.280023">
        <time>2026-06-17T22:31:44Z</time>
      </trkpt>
      <trkpt lat="23.061463" lon="113.279831">
        <time>2026-06-17T22:31:49Z</time>
      </trkpt>
      <trkpt lat="23.061515" lon="113.2797">
        <time>2026-06-17T22:31:54Z</time>
      </trkpt>
      <trkpt lat="23.06159" lon="113.279507">
        <time>2026-06-17T22:31:59Z</time>
      </trkpt>
      <trkpt lat="23.061643" lon="113.279371">
        <time>2026-06-17T22:32:04Z</time>
      </trkpt>
      <trkpt lat="23.061724" lon="113.279176">
        <time>2026-06-17T22:32:09Z</time>
      </trkpt>
      <trkpt lat="23.061794" lon="113.27906">
        <time>2026-06-17T22:32:14Z</time>
      </trkpt>
      <trkpt lat="23.061908" lon="113.278893">
        <time>2026-06-17T22:32:19Z</time>
      </trkpt>
      <trkpt lat="23.061961" lon="113.278763">
        <time>2026-06-17T22:32:24Z</time>
      </trkpt>
      <trkpt lat="23.061972" lon="113.27854">
        <time>2026-06-17T22:32:29Z</time>
      </trkpt>
      <trkpt lat="23.06196" lon="113.278385">
        <time>2026-06-17T22:32:34Z</time>
      </trkpt>
      <trkpt lat="23.061949" lon="113.278153">
        <time>2026-06-17T22:32:39Z</time>
      </trkpt>
      <trkpt lat="23.061941" lon="113.278001">
        <time>2026-06-17T22:32:44Z</time>
      </trkpt>
      <trkpt lat="23.061946" lon="113.277774">
        <time>2026-06-17T22:32:49Z</time>
      </trkpt>
      <trkpt lat="23.061982" lon="113.277629">
        <time>2026-06-17T22:32:54Z</time>
      </trkpt>
      <trkpt lat="23.062067" lon="113.277426">
        <time>2026-06-17T22:32:59Z</time>
      </trkpt>
      <trkpt lat="23.062121" lon="113.277289">
        <time>2026-06-17T22:33:04Z</time>
      </trkpt>
      <trkpt lat="23.062187" lon="113.27708">
        <time>2026-06-17T22:33:09Z</time>
      </trkpt>
      <trkpt lat="23.062239" lon="113.27695">
        <time>2026-06-17T22:33:14Z</time>
      </trkpt>
      <trkpt lat="23.062314" lon="113.276748">
        <time>2026-06-17T22:33:19Z</time>
      </trkpt>
      <trkpt lat="23.062366" lon="113.27661">
        <time>2026-06-17T22:33:24Z</time>
      </trkpt>
      <trkpt lat="23.062441" lon="113.276399">
        <time>2026-06-17T22:33:29Z</time>
      </trkpt>
      <trkpt lat="23.062491" lon="113.276262">
        <time>2026-06-17T22:33:34Z</time>
      </trkpt>
      <trkpt lat="23.062591" lon="113.276067">
        <time>2026-06-17T22:33:39Z</time>
      </trkpt>
      <trkpt lat="23.062672" lon="113.275945">
        <time>2026-06-17T22:33:44Z</time>
      </trkpt>
      <trkpt lat="23.062813" lon="113.275786">
        <time>2026-06-17T22:33:49Z</time>
      </trkpt>
      <trkpt lat="23.062916" lon="113.275697">
        <time>2026-06-17T22:33:54Z</time>
      </trkpt>
      <trkpt lat="23.063056" lon="113.27554">
        <time>2026-06-17T22:33:59Z</time>
      </trkpt>
      <trkpt lat="23.06313" lon="113.275418">
        <time>2026-06-17T22:34:04Z</time>
      </trkpt>
      <trkpt lat="23.063238" lon="113.275235">
        <time>2026-06-17T22:34:09Z</time>
      </trkpt>
      <trkpt lat="23.0633" lon="113.2751">
        <time>2026-06-17T22:34:14Z</time>
      </trkpt>
      <trkpt lat="23.063388" lon="113.274888">
        <time>2026-06-17T22:34:19Z</time>
      </trkpt>
      <trkpt lat="23.063439" lon="113.27475">
        <time>2026-06-17T22:34:24Z</time>
      </trkpt>
      <trkpt lat="23.0635" lon="113.274546">
        <time>2026-06-17T22:34:29Z</time>
      </trkpt>
      <trkpt lat="23.063528" lon="113.274419">
        <time>2026-06-17T22:34:34Z</time>
      </trkpt>
      <trkpt lat="23.063624" lon="113.274235">
        <time>2026-06-17T22:34:39Z</time>
      </trkpt>
      <trkpt lat="23.063732" lon="113.274144">
        <time>2026-06-17T22:34:44Z</time>
      </trkpt>
      <trkpt lat="23.063866" lon="113.273983">
        <time>2026-06-17T22:34:49Z</time>
      </trkpt>
      <trkpt lat="23.063939" lon="113.273863">
        <time>2026-06-17T22:34:54Z</time>
      </trkpt>
      <trkpt lat="23.064072" lon="113.273689">
        <time>2026-06-17T22:34:59Z</time>
      </trkpt>
      <trkpt lat="23.064179" lon="113.2736">
        <time>2026-06-17T22:35:04Z</time>
      </trkpt>
      <trkpt lat="23.06433" lon="113.273493">
        <time>2026-06-17T22:35:09Z</time>
      </trkpt>
      <trkpt lat="23.064389" lon="113.273457">
        <time>2026-06-17T22:35:14Z</time>
      </trkpt>
      <trkpt lat="23.06444" lon="113.273422">
        <time>2026-06-17T22:35:19Z</time>
      </trkpt>
      <trkpt lat="23.064473" lon="113.273387">
        <time>2026-06-17T22:35:24Z</time>
      </trkpt>
      <trkpt lat="23.06452" lon="113.273326">
        <time>2026-06-17T22:35:29Z</time>
      </trkpt>
      <trkpt lat="23.06454" lon="113.273279">
        <time>2026-06-17T22:35:34Z</time>
      </trkpt>
      <trkpt lat="23.064557" lon="113.273202">
        <time>2026-06-17T22:35:39Z</time>
      </trkpt>
      <trkpt lat="23.064561" lon="113.27315">
        <time>2026-06-17T22:35:44Z</time>
      </trkpt>
      <trkpt lat="23.064554" lon="113.273074">
        <time>2026-06-17T22:35:49Z</time>
      </trkpt>
      <trkpt lat="23.064539" lon="113.273029">
        <time>2026-06-17T22:35:54Z</time>
      </trkpt>
      <trkpt lat="23.064507" lon="113.272962">
        <time>2026-06-17T22:35:59Z</time>
      </trkpt>
      <trkpt lat="23.064489" lon="113.272916">
        <time>2026-06-17T22:36:04Z</time>
      </trkpt>
      <trkpt lat="23.064462" lon="113.272843">
        <time>2026-06-17T22:36:09Z</time>
      </trkpt>
      <trkpt lat="23.064448" lon="113.272791">
        <time>2026-06-17T22:36:14Z</time>
      </trkpt>
      <trkpt lat="23.064432" lon="113.27271">
        <time>2026-06-17T22:36:19Z</time>
      </trkpt>
      <trkpt lat="23.064433" lon="113.272653">
        <time>2026-06-17T22:36:24Z</time>
      </trkpt>
      <trkpt lat="23.064456" lon="113.272556">
        <time>2026-06-17T22:36:29Z</time>
      </trkpt>
      <trkpt lat="23.064502" lon="113.27249">
        <time>2026-06-17T22:36:34Z</time>
      </trkpt>
      <trkpt lat="23.064601" lon="113.272478">
        <time>2026-06-17T22:36:39Z</time>
      </trkpt>
      <trkpt lat="23.064687" lon="113.272505">
        <time>2026-06-17T22:36:44Z</time>
      </trkpt>
      <trkpt lat="23.064815" lon="113.272535">
        <time>2026-06-17T22:36:49Z</time>
      </trkpt>
      <trkpt lat="23.064901" lon="113.272547">
        <time>2026-06-17T22:36:54Z</time>
      </trkpt>
      <trkpt lat="23.065033" lon="113.272577">
        <time>2026-06-17T22:36:59Z</time>
      </trkpt>
      <trkpt lat="23.065116" lon="113.272601">
        <time>2026-06-17T22:37:04Z</time>
      </trkpt>
      <trkpt lat="23.065222" lon="113.272648">
        <time>2026-06-17T22:37:09Z</time>
      </trkpt>
      <trkpt lat="23.065291" lon="113.272671">
        <time>2026-06-17T22:37:14Z</time>
      </trkpt>
      <trkpt lat="23.065398" lon="113.272698">
        <time>2026-06-17T22:37:19Z</time>
      </trkpt>
      <trkpt lat="23.065473" lon="113.272719">
        <time>2026-06-17T22:37:24Z</time>
      </trkpt>
      <trkpt lat="23.065605" lon="113.272749">
        <time>2026-06-17T22:37:29Z</time>
      </trkpt>
      <trkpt lat="23.065702" lon="113.272766">
        <time>2026-06-17T22:37:34Z</time>
      </trkpt>
      <trkpt lat="23.065827" lon="113.272773">
        <time>2026-06-17T22:37:39Z</time>
      </trkpt>
      <trkpt lat="23.065912" lon="113.272763">
        <time>2026-06-17T22:37:44Z</time>
      </trkpt>
      <trkpt lat="23.065977" lon="113.272775">
        <time>2026-06-17T22:37:49Z</time>
      </trkpt>
      <trkpt lat="23.066012" lon="113.272783">
        <time>2026-06-17T22:37:54Z</time>
      </trkpt>
      <trkpt lat="23.066111" lon="113.272787">
        <time>2026-06-17T22:37:59Z</time>
      </trkpt>
      <trkpt lat="23.066181" lon="113.27277">
        <time>2026-06-17T22:38:04Z</time>
      </trkpt>
      <trkpt lat="23.066276" lon="113.272715">
        <time>2026-06-17T22:38:09Z</time>
      </trkpt>
      <trkpt lat="23.066319" lon="113.272656">
        <time>2026-06-17T22:38:14Z</time>
      </trkpt>
      <trkpt lat="23.066382" lon="113.272574">
        <time>2026-06-17T22:38:19Z</time>
      </trkpt>
      <trkpt lat="23.066401" lon="113.272525">
        <time>2026-06-17T22:38:24Z</time>
      </trkpt>
      <trkpt lat="23.066397" lon="113.272444">
        <time>2026-06-17T22:38:29Z</time>
      </trkpt>
      <trkpt lat="23.066403" lon="113.272379">
        <time>2026-06-17T22:38:34Z</time>
      </trkpt>
      <trkpt lat="23.066394" lon="113.272265">
        <time>2026-06-17T22:38:39Z</time>
      </trkpt>
      <trkpt lat="23.06636" lon="113.272164">
        <time>2026-06-17T22:38:44Z</time>
      </trkpt>
      <trkpt lat="23.06635" lon="113.272028">
        <time>2026-06-17T22:38:49Z</time>
      </trkpt>
      <trkpt lat="23.066366" lon="113.271918">
        <time>2026-06-17T22:38:54Z</time>
      </trkpt>
      <trkpt lat="23.066402" lon="113.27176">
        <time>2026-06-17T22:38:59Z</time>
      </trkpt>
      <trkpt lat="23.066426" lon="113.271661">
        <time>2026-06-17T22:39:04Z</time>
      </trkpt>
      <trkpt lat="23.06643" lon="113.271521">
        <time>2026-06-17T22:39:09Z</time>
      </trkpt>
      <trkpt lat="23.066396" lon="113.271437">
        <time>2026-06-17T22:39:14Z</time>
      </trkpt>
      <trkpt lat="23.066301" lon="113.271384">
        <time>2026-06-17T22:39:19Z</time>
      </trkpt>
      <trkpt lat="23.066231" lon="113.271365">
        <time>2026-06-17T22:39:24Z</time>
      </trkpt>
      <trkpt lat="23.066134" lon="113.271359">
        <time>2026-06-17T22:39:29Z</time>
      </trkpt>
      <trkpt lat="23.066059" lon="113.271361">
        <time>2026-06-17T22:39:34Z</time>
      </trkpt>
      <trkpt lat="23.065939" lon="113.27132">
        <time>2026-06-17T22:39:39Z</time>
      </trkpt>
      <trkpt lat="23.065866" lon="113.271271">
        <time>2026-06-17T22:39:44Z</time>
      </trkpt>
      <trkpt lat="23.065831" lon="113.271126">
        <time>2026-06-17T22:39:49Z</time>
      </trkpt>
      <trkpt lat="23.065852" lon="113.271034">
        <time>2026-06-17T22:39:54Z</time>
      </trkpt>
      <trkpt lat="23.065911" lon="113.270912">
        <time>2026-06-17T22:39:59Z</time>
      </trkpt>
      <trkpt lat="23.065943" lon="113.270829">
        <time>2026-06-17T22:40:04Z</time>
      </trkpt>
      <trkpt lat="23.06593" lon="113.270707">
        <time>2026-06-17T22:40:09Z</time>
      </trkpt>
      <trkpt lat="23.065886" lon="113.270639">
        <time>2026-06-17T22:40:14Z</time>
      </trkpt>
      <trkpt lat="23.065801" lon="113.270555">
        <time>2026-06-17T22:40:19Z</time>
      </trkpt>
      <trkpt lat="23.065734" lon="113.270534">
        <time>2026-06-17T22:40:24Z</time>
      </trkpt>
      <trkpt lat="23.065626" lon="113.270566">
        <time>2026-06-17T22:40:29Z</time>
      </trkpt>
      <trkpt lat="23.06556" lon="113.270612">
        <time>2026-06-17T22:40:34Z</time>
      </trkpt>
      <trkpt lat="23.065468" lon="113.270702">
        <time>2026-06-17T22:40:39Z</time>
      </trkpt>
      <trkpt lat="23.065404" lon="113.270746">
        <time>2026-06-17T22:40:44Z</time>
      </trkpt>
      <trkpt lat="23.065313" lon="113.270718">
        <time>2026-06-17T22:40:49Z</time>
      </trkpt>
      <trkpt lat="23.065335" lon="113.270643">
        <time>2026-06-17T22:40:54Z</time>
      </trkpt>
      <trkpt lat="23.065396" lon="113.27053">
        <time>2026-06-17T22:40:59Z</time>
      </trkpt>
      <trkpt lat="23.065432" lon="113.27046">
        <time>2026-06-17T22:41:04Z</time>
      </trkpt>
      <trkpt lat="23.065481" lon="113.270348">
        <time>2026-06-17T22:41:09Z</time>
      </trkpt>
      <trkpt lat="23.065513" lon="113.270273">
        <time>2026-06-17T22:41:14Z</time>
      </trkpt>
      <trkpt lat="23.065515" lon="113.270154">
        <time>2026-06-17T22:41:19Z</time>
      </trkpt>
      <trkpt lat="23.065534" lon="113.270079">
        <time>2026-06-17T22:41:24Z</time>
      </trkpt>
      <trkpt lat="23.065574" lon="113.269972">
        <time>2026-06-17T22:41:29Z</time>
      </trkpt>
      <trkpt lat="23.065594" lon="113.269894">
        <time>2026-06-17T22:41:34Z</time>
      </trkpt>
      <trkpt lat="23.06563" lon="113.26977">
        <time>2026-06-17T22:41:39Z</time>
      </trkpt>
      <trkpt lat="23.065661" lon="113.26969">
        <time>2026-06-17T22:41:44Z</time>
      </trkpt>
      <trkpt lat="23.065697" lon="113.269572">
        <time>2026-06-17T22:41:49Z</time>
      </trkpt>
      <trkpt lat="23.065708" lon="113.269491">
        <time>2026-06-17T22:41:54Z</time>
      </trkpt>
      <trkpt lat="23.065745" lon="113.269381">
        <time>2026-06-17T22:41:59Z</time>
      </trkpt>
      <trkpt lat="23.065756" lon="113.269305">
        <time>2026-06-17T22:42:04Z</time>
      </trkpt>
      <trkpt lat="23.065794" lon="113.26919">
        <time>2026-06-17T22:42:09Z</time>
      </trkpt>
      <trkpt lat="23.065817" lon="113.269108">
        <time>2026-06-17T22:42:14Z</time>
      </trkpt>
      <trkpt lat="23.065861" lon="113.268985">
        <time>2026-06-17T22:42:19Z</time>
      </trkpt>
      <trkpt lat="23.065891" lon="113.268902">
        <time>2026-06-17T22:42:24Z</time>
      </trkpt>
      <trkpt lat="23.065942" lon="113.268779">
        <time>2026-06-17T22:42:29Z</time>
      </trkpt>
      <trkpt lat="23.065984" lon="113.2687">
        <time>2026-06-17T22:42:34Z</time>
      </trkpt>
      <trkpt lat="23.066048" lon="113.26858">
        <time>2026-06-17T22:42:39Z</time>
      </trkpt>
      <trkpt lat="23.066096" lon="113.268506">
        <time>2026-06-17T22:42:44Z</time>
      </trkpt>
      <trkpt lat="23.066169" lon="113.2684">
        <time>2026-06-17T22:42:49Z</time>
      </trkpt>
      <trkpt lat="23.066224" lon="113.268335">
        <time>2026-06-17T22:42:54Z</time>
      </trkpt>
      <trkpt lat="23.066309" lon="113.268239">
        <time>2026-06-17T22:42:59Z</time>
      </trkpt>
      <trkpt lat="23.066371" lon="113.268181">
        <time>2026-06-17T22:43:04Z</time>
      </trkpt>
      <trkpt lat="23.066475" lon="113.268132">
        <time>2026-06-17T22:43:09Z</time>
      </trkpt>
      <trkpt lat="23.066553" lon="113.268128">
        <time>2026-06-17T22:43:14Z</time>
      </trkpt>
      <trkpt lat="23.066655" lon="113.268127">
        <time>2026-06-17T22:43:19Z</time>
      </trkpt>
      <trkpt lat="23.066667" lon="113.268061">
        <time>2026-06-17T22:43:24Z</time>
      </trkpt>
      <trkpt lat="23.066577" lon="113.267971">
        <time>2026-06-17T22:43:29Z</time>
      </trkpt>
      <trkpt lat="23.066491" lon="113.267947">
        <time>2026-06-17T22:43:34Z</time>
      </trkpt>
      <trkpt lat="23.066366" lon="113.267945">
        <time>2026-06-17T22:43:39Z</time>
      </trkpt>
      <trkpt lat="23.066292" lon="113.267962">
        <time>2026-06-17T22:43:44Z</time>
      </trkpt>
      <trkpt lat="23.066199" lon="113.268033">
        <time>2026-06-17T22:43:49Z</time>
      </trkpt>
      <trkpt lat="23.066141" lon="113.268091">
        <time>2026-06-17T22:43:54Z</time>
      </trkpt>
      <trkpt lat="23.066065" lon="113.268184">
        <time>2026-06-17T22:43:59Z</time>
      </trkpt>
      <trkpt lat="23.066021" lon="113.268243">
        <time>2026-06-17T22:44:04Z</time>
      </trkpt>
      <trkpt lat="23.065955" lon="113.268334">
        <time>2026-06-17T22:44:09Z</time>
      </trkpt>
      <trkpt lat="23.065913" lon="113.268398">
        <time>2026-06-17T22:44:14Z</time>
      </trkpt>
      <trkpt lat="23.065854" lon="113.268498">
        <time>2026-06-17T22:44:19Z</time>
      </trkpt>
      <trkpt lat="23.065818" lon="113.268566">
        <time>2026-06-17T22:44:24Z</time>
      </trkpt>
      <trkpt lat="23.065766" lon="113.268669">
        <time>2026-06-17T22:44:29Z</time>
      </trkpt>
      <trkpt lat="23.065731" lon="113.268737">
        <time>2026-06-17T22:44:34Z</time>
      </trkpt>
      <trkpt lat="23.065687" lon="113.268849">
        <time>2026-06-17T22:44:39Z</time>
      </trkpt>
      <trkpt lat="23.06566" lon="113.268927">
        <time>2026-06-17T22:44:44Z</time>
      </trkpt>
      <trkpt lat="23.065619" lon="113.269042">
        <time>2026-06-17T22:44:49Z</time>
      </trkpt>
      <trkpt lat="23.065593" lon="113.269122">
        <time>2026-06-17T22:44:54Z</time>
      </trkpt>
      <trkpt lat="23.065575" lon="113.269242">
        <time>2026-06-17T22:44:59Z</time>
      </trkpt>
      <trkpt lat="23.065587" lon="113.26932">
        <time>2026-06-17T22:45:04Z</time>
      </trkpt>
      <trkpt lat="23.065637" lon="113.269419">
        <time>2026-06-17T22:45:09Z</time>
      </trkpt>
      <trkpt lat="23.06571" lon="113.269419">
        <time>2026-06-17T22:45:14Z</time>
      </trkpt>
      <trkpt lat="23.065769" lon="113.269296">
        <time>2026-06-17T22:45:19Z</time>
      </trkpt>
      <trkpt lat="23.065791" lon="113.26921">
        <time>2026-06-17T22:45:24Z</time>
      </trkpt>
      <trkpt lat="23.065826" lon="113.269085">
        <time>2026-06-17T22:45:29Z</time>
      </trkpt>
      <trkpt lat="23.065853" lon="113.269001">
        <time>2026-06-17T22:45:34Z</time>
      </trkpt>
      <trkpt lat="23.065899" lon="113.268889">
        <time>2026-06-17T22:45:39Z</time>
      </trkpt>
      <trkpt lat="23.065935" lon="113.268817">
        <time>2026-06-17T22:45:44Z</time>
      </trkpt>
      <trkpt lat="23.065994" lon="113.268708">
        <time>2026-06-17T22:45:49Z</time>
      </trkpt>
      <trkpt lat="23.066031" lon="113.268635">
        <time>2026-06-17T22:45:54Z</time>
      </trkpt>
      <trkpt lat="23.066091" lon="113.268523">
        <time>2026-06-17T22:45:59Z</time>
      </trkpt>
      <trkpt lat="23.066137" lon="113.268449">
        <time>2026-06-17T22:46:04Z</time>
      </trkpt>
      <trkpt lat="23.066212" lon="113.268343">
        <time>2026-06-17T22:46:09Z</time>
      </trkpt>
      <trkpt lat="23.066265" lon="113.268277">
        <time>2026-06-17T22:46:14Z</time>
      </trkpt>
      <trkpt lat="23.066359" lon="113.268183">
        <time>2026-06-17T22:46:19Z</time>
      </trkpt>
      <trkpt lat="23.066438" lon="113.268144">
        <time>2026-06-17T22:46:24Z</time>
      </trkpt>
      <trkpt lat="23.066565" lon="113.268136">
        <time>2026-06-17T22:46:29Z</time>
      </trkpt>
      <trkpt lat="23.066648" lon="113.268154">
        <time>2026-06-17T22:46:34Z</time>
      </trkpt>
      <trkpt lat="23.066761" lon="113.268159">
        <time>2026-06-17T22:46:39Z</time>
      </trkpt>
      <trkpt lat="23.066838" lon="113.268154">
        <time>2026-06-17T22:46:44Z</time>
      </trkpt>
      <trkpt lat="23.06696" lon="113.268156">
        <time>2026-06-17T22:46:49Z</time>
      </trkpt>
      <trkpt lat="23.06703" lon="113.268186">
        <time>2026-06-17T22:46:54Z</time>
      </trkpt>
      <trkpt lat="23.067132" lon="113.268248">
        <time>2026-06-17T22:46:59Z</time>
      </trkpt>
      <trkpt lat="23.067209" lon="113.268287">
        <time>2026-06-17T22:47:04Z</time>
      </trkpt>
      <trkpt lat="23.06732" lon="113.268352">
        <time>2026-06-17T22:47:09Z</time>
      </trkpt>
      <trkpt lat="23.067388" lon="113.268401">
        <time>2026-06-17T22:47:14Z</time>
      </trkpt>
      <trkpt lat="23.067496" lon="113.26845">
        <time>2026-06-17T22:47:19Z</time>
      </trkpt>
      <trkpt lat="23.067571" lon="113.268485">
        <time>2026-06-17T22:47:24Z</time>
      </trkpt>
      <trkpt lat="23.067696" lon="113.268541">
        <time>2026-06-17T22:47:29Z</time>
      </trkpt>
      <trkpt lat="23.067779" lon="113.268576">
        <time>2026-06-17T22:47:34Z</time>
      </trkpt>
      <trkpt lat="23.067894" lon="113.26863">
        <time>2026-06-17T22:47:39Z</time>
      </trkpt>
      <trkpt lat="23.067971" lon="113.268669">
        <time>2026-06-17T22:47:44Z</time>
      </trkpt>
      <trkpt lat="23.068084" lon="113.268727">
        <time>2026-06-17T22:47:49Z</time>
      </trkpt>
      <trkpt lat="23.068157" lon="113.268758">
        <time>2026-06-17T22:47:54Z</time>
      </trkpt>
      <trkpt lat="23.068271" lon="113.268796">
        <time>2026-06-17T22:47:59Z</time>
      </trkpt>
      <trkpt lat="23.068351" lon="113.268833">
        <time>2026-06-17T22:48:04Z</time>
      </trkpt>
      <trkpt lat="23.068465" lon="113.268878">
        <time>2026-06-17T22:48:09Z</time>
      </trkpt>
      <trkpt lat="23.068544" lon="113.268884">
        <time>2026-06-17T22:48:14Z</time>
      </trkpt>
      <trkpt lat="23.068658" lon="113.268909">
        <time>2026-06-17T22:48:19Z</time>
      </trkpt>
      <trkpt lat="23.068735" lon="113.268937">
        <time>2026-06-17T22:48:24Z</time>
      </trkpt>
      <trkpt lat="23.068849" lon="113.268969">
        <time>2026-06-17T22:48:29Z</time>
      </trkpt>
      <trkpt lat="23.068929" lon="113.269005">
        <time>2026-06-17T22:48:34Z</time>
      </trkpt>
      <trkpt lat="23.069047" lon="113.269051">
        <time>2026-06-17T22:48:39Z</time>
      </trkpt>
      <trkpt lat="23.069129" lon="113.26908">
        <time>2026-06-17T22:48:44Z</time>
      </trkpt>
      <trkpt lat="23.069212" lon="113.269208">
        <time>2026-06-17T22:48:49Z</time>
      </trkpt>
      <trkpt lat="23.06927" lon="113.269277">
        <time>2026-06-17T22:48:54Z</time>
      </trkpt>
      <trkpt lat="23.069383" lon="113.269337">
        <time>2026-06-17T22:48:59Z</time>
      </trkpt>
      <trkpt lat="23.069452" lon="113.269378">
        <time>2026-06-17T22:49:04Z</time>
      </trkpt>
      <trkpt lat="23.06956" lon="113.269431">
        <time>2026-06-17T22:49:09Z</time>
      </trkpt>
      <trkpt lat="23.069639" lon="113.269461">
        <time>2026-06-17T22:49:14Z</time>
      </trkpt>
      <trkpt lat="23.069755" lon="113.269529">
        <time>2026-06-17T22:49:19Z</time>
      </trkpt>
      <trkpt lat="23.069828" lon="113.26958">
        <time>2026-06-17T22:49:24Z</time>
      </trkpt>
      <trkpt lat="23.069945" lon="113.269645">
        <time>2026-06-17T22:49:29Z</time>
      </trkpt>
      <trkpt lat="23.070016" lon="113.269693">
        <time>2026-06-17T22:49:34Z</time>
      </trkpt>
      <trkpt lat="23.070111" lon="113.269766">
        <time>2026-06-17T22:49:39Z</time>
      </trkpt>
      <trkpt lat="23.070185" lon="113.269808">
        <time>2026-06-17T22:49:44Z</time>
      </trkpt>
      <trkpt lat="23.070297" lon="113.269865">
        <time>2026-06-17T22:49:49Z</time>
      </trkpt>
      <trkpt lat="23.070366" lon="113.2699">
        <time>2026-06-17T22:49:54Z</time>
      </trkpt>
      <trkpt lat="23.070482" lon="113.269923">
        <time>2026-06-17T22:49:59Z</time>
      </trkpt>
      <trkpt lat="23.070563" lon="113.269927">
        <time>2026-06-17T22:50:04Z</time>
      </trkpt>
      <trkpt lat="23.070677" lon="113.269963">
        <time>2026-06-17T22:50:09Z</time>
      </trkpt>
      <trkpt lat="23.070747" lon="113.270006">
        <time>2026-06-17T22:50:14Z</time>
      </trkpt>
      <trkpt lat="23.070864" lon="113.270066">
        <time>2026-06-17T22:50:19Z</time>
      </trkpt>
      <trkpt lat="23.070935" lon="113.270118">
        <time>2026-06-17T22:50:24Z</time>
      </trkpt>
      <trkpt lat="23.071061" lon="113.270161">
        <time>2026-06-17T22:50:29Z</time>
      </trkpt>
      <trkpt lat="23.071136" lon="113.270201">
        <time>2026-06-17T22:50:34Z</time>
      </trkpt>
      <trkpt lat="23.07124" lon="113.27027">
        <time>2026-06-17T22:50:39Z</time>
      </trkpt>
      <trkpt lat="23.071318" lon="113.270299">
        <time>2026-06-17T22:50:44Z</time>
      </trkpt>
      <trkpt lat="23.071435" lon="113.270342">
        <time>2026-06-17T22:50:49Z</time>
      </trkpt>
      <trkpt lat="23.071502" lon="113.270378">
        <time>2026-06-17T22:50:54Z</time>
      </trkpt>
      <trkpt lat="23.071604" lon="113.270432">
        <time>2026-06-17T22:50:59Z</time>
      </trkpt>
      <trkpt lat="23.071673" lon="113.270456">
        <time>2026-06-17T22:51:04Z</time>
      </trkpt>
      <trkpt lat="23.07177" lon="113.270508">
        <time>2026-06-17T22:51:09Z</time>
      </trkpt>
      <trkpt lat="23.071838" lon="113.27054">
        <time>2026-06-17T22:51:14Z</time>
      </trkpt>
      <trkpt lat="23.071955" lon="113.270588">
        <time>2026-06-17T22:51:19Z</time>
      </trkpt>
      <trkpt lat="23.072028" lon="113.270615">
        <time>2026-06-17T22:51:24Z</time>
      </trkpt>
      <trkpt lat="23.072125" lon="113.270662">
        <time>2026-06-17T22:51:29Z</time>
      </trkpt>
      <trkpt lat="23.072197" lon="113.270695">
        <time>2026-06-17T22:51:34Z</time>
      </trkpt>
      <trkpt lat="23.072299" lon="113.27075">
        <time>2026-06-17T22:51:39Z</time>
      </trkpt>
      <trkpt lat="23.072367" lon="113.270789">
        <time>2026-06-17T22:51:44Z</time>
      </trkpt>
      <trkpt lat="23.072494" lon="113.270832">
        <time>2026-06-17T22:51:49Z</time>
      </trkpt>
      <trkpt lat="23.072577" lon="113.270868">
        <time>2026-06-17T22:51:54Z</time>
      </trkpt>
      <trkpt lat="23.072699" lon="113.270909">
        <time>2026-06-17T22:51:59Z</time>
      </trkpt>
      <trkpt lat="23.072773" lon="113.270942">
        <time>2026-06-17T22:52:04Z</time>
      </trkpt>
      <trkpt lat="23.072884" lon="113.270992">
        <time>2026-06-17T22:52:09Z</time>
      </trkpt>
      <trkpt lat="23.072951" lon="113.271038">
        <time>2026-06-17T22:52:14Z</time>
      </trkpt>
      <trkpt lat="23.073054" lon="113.271076">
        <time>2026-06-17T22:52:19Z</time>
      </trkpt>
      <trkpt lat="23.073143" lon="113.271088">
        <time>2026-06-17T22:52:24Z</time>
      </trkpt>
      <trkpt lat="23.073265" lon="113.271143">
        <time>2026-06-17T22:52:29Z</time>
      </trkpt>
      <trkpt lat="23.073342" lon="113.27119">
        <time>2026-06-17T22:52:34Z</time>
      </trkpt>
      <trkpt lat="23.073445" lon="113.271282">
        <time>2026-06-17T22:52:39Z</time>
      </trkpt>
      <trkpt lat="23.073516" lon="113.271341">
        <time>2026-06-17T22:52:44Z</time>
      </trkpt>
      <trkpt lat="23.073625" lon="113.27141">
        <time>2026-06-17T22:52:49Z</time>
      </trkpt>
      <trkpt lat="23.073703" lon="113.271442">
        <time>2026-06-17T22:52:54Z</time>
      </trkpt>
      <trkpt lat="23.073829" lon="113.271466">
        <time>2026-06-17T22:52:59Z</time>
      </trkpt>
      <trkpt lat="23.073915" lon="113.271485">
        <time>2026-06-17T22:53:04Z</time>
      </trkpt>
      <trkpt lat="23.074034" lon="113.271552">
        <time>2026-06-17T22:53:09Z</time>
      </trkpt>
      <trkpt lat="23.07409" lon="113.27163">
        <time>2026-06-17T22:53:14Z</time>
      </trkpt>
      <trkpt lat="23.074141" lon="113.271752">
        <time>2026-06-17T22:53:19Z</time>
      </trkpt>
      <trkpt lat="23.074111" lon="113.271836">
        <time>2026-06-17T22:53:24Z</time>
      </trkpt>
      <trkpt lat="23.074052" lon="113.271963">
        <time>2026-06-17T22:53:29Z</time>
      </trkpt>
      <trkpt lat="23.074008" lon="113.272043">
        <time>2026-06-17T22:53:34Z</time>
      </trkpt>
      <trkpt lat="23.073951" lon="113.272161">
        <time>2026-06-17T22:53:39Z</time>
      </trkpt>
      <trkpt lat="23.073915" lon="113.272242">
        <time>2026-06-17T22:53:44Z</time>
      </trkpt>
      <trkpt lat="23.073858" lon="113.272365">
        <time>2026-06-17T22:53:49Z</time>
      </trkpt>
      <trkpt lat="23.073823" lon="113.272449">
        <time>2026-06-17T22:53:54Z</time>
      </trkpt>
      <trkpt lat="23.073774" lon="113.272574">
        <time>2026-06-17T22:53:59Z</time>
      </trkpt>
      <trkpt lat="23.073745" lon="113.272659">
        <time>2026-06-17T22:54:04Z</time>
      </trkpt>
      <trkpt lat="23.073708" lon="113.272785">
        <time>2026-06-17T22:54:09Z</time>
      </trkpt>
      <trkpt lat="23.073692" lon="113.27287">
        <time>2026-06-17T22:54:14Z</time>
      </trkpt>
      <trkpt lat="23.073643" lon="113.273001">
        <time>2026-06-17T22:54:19Z</time>
      </trkpt>
      <trkpt lat="23.073601" lon="113.273078">
        <time>2026-06-17T22:54:24Z</time>
      </trkpt>
      <trkpt lat="23.073548" lon="113.273197">
        <time>2026-06-17T22:54:29Z</time>
      </trkpt>
      <trkpt lat="23.073526" lon="113.273277">
        <time>2026-06-17T22:54:34Z</time>
      </trkpt>
      <trkpt lat="23.073472" lon="113.273355">
        <time>2026-06-17T22:54:39Z</time>
      </trkpt>
      <trkpt lat="23.073425" lon="113.273426">
        <time>2026-06-17T22:54:44Z</time>
      </trkpt>
      <trkpt lat="23.073376" lon="113.27354">
        <time>2026-06-17T22:54:49Z</time>
      </trkpt>
      <trkpt lat="23.073349" lon="113.273617">
        <time>2026-06-17T22:54:54Z</time>
      </trkpt>
      <trkpt lat="23.073297" lon="113.273743">
        <time>2026-06-17T22:54:59Z</time>
      </trkpt>
      <trkpt lat="23.073266" lon="113.273832">
        <time>2026-06-17T22:55:04Z</time>
      </trkpt>
      <trkpt lat="23.073217" lon="113.273954">
        <time>2026-06-17T22:55:09Z</time>
      </trkpt>
      <trkpt lat="23.073184" lon="113.27404">
        <time>2026-06-17T22:55:14Z</time>
      </trkpt>
      <trkpt lat="23.073128" lon="113.274164">
        <time>2026-06-17T22:55:19Z</time>
      </trkpt>
      <trkpt lat="23.073093" lon="113.27425">
        <time>2026-06-17T22:55:24Z</time>
      </trkpt>
      <trkpt lat="23.073039" lon="113.274381">
        <time>2026-06-17T22:55:29Z</time>
      </trkpt>
      <trkpt lat="23.073006" lon="113.274465">
        <time>2026-06-17T22:55:34Z</time>
      </trkpt>
      <trkpt lat="23.072961" lon="113.274589">
        <time>2026-06-17T22:55:39Z</time>
      </trkpt>
      <trkpt lat="23.07292" lon="113.274672">
        <time>2026-06-17T22:55:44Z</time>
      </trkpt>
      <trkpt lat="23.072856" lon="113.274802">
        <time>2026-06-17T22:55:49Z</time>
      </trkpt>
      <trkpt lat="23.072814" lon="113.274885">
        <time>2026-06-17T22:55:54Z</time>
      </trkpt>
      <trkpt lat="23.072763" lon="113.275003">
        <time>2026-06-17T22:55:59Z</time>
      </trkpt>
      <trkpt lat="23.072737" lon="113.275072">
        <time>2026-06-17T22:56:04Z</time>
      </trkpt>
      <trkpt lat="23.072771" lon="113.275144">
        <time>2026-06-17T22:56:09Z</time>
      </trkpt>
      <trkpt lat="23.072832" lon="113.275083">
        <time>2026-06-17T22:56:14Z</time>
      </trkpt>
      <trkpt lat="23.072878" lon="113.274959">
        <time>2026-06-17T22:56:19Z</time>
      </trkpt>
      <trkpt lat="23.072904" lon="113.274881">
        <time>2026-06-17T22:56:24Z</time>
      </trkpt>
      <trkpt lat="23.07294" lon="113.274755">
        <time>2026-06-17T22:56:29Z</time>
      </trkpt>
      <trkpt lat="23.072975" lon="113.274667">
        <time>2026-06-17T22:56:34Z</time>
      </trkpt>
      <trkpt lat="23.073026" lon="113.274535">
        <time>2026-06-17T22:56:39Z</time>
      </trkpt>
      <trkpt lat="23.073067" lon="113.274456">
        <time>2026-06-17T22:56:44Z</time>
      </trkpt>
      <trkpt lat="23.073118" lon="113.274341">
        <time>2026-06-17T22:56:49Z</time>
      </trkpt>
      <trkpt lat="23.073146" lon="113.274261">
        <time>2026-06-17T22:56:54Z</time>
      </trkpt>
      <trkpt lat="23.073181" lon="113.274133">
        <time>2026-06-17T22:56:59Z</time>
      </trkpt>
      <trkpt lat="23.073205" lon="113.274053">
        <time>2026-06-17T22:57:04Z</time>
      </trkpt>
      <trkpt lat="23.073246" lon="113.273939">
        <time>2026-06-17T22:57:09Z</time>
      </trkpt>
      <trkpt lat="23.073275" lon="113.273865">
        <time>2026-06-17T22:57:14Z</time>
      </trkpt>
      <trkpt lat="23.073313" lon="113.273736">
        <time>2026-06-17T22:57:19Z</time>
      </trkpt>
      <trkpt lat="23.073339" lon="113.273654">
        <time>2026-06-17T22:57:24Z</time>
      </trkpt>
      <trkpt lat="23.07339" lon="113.273554">
        <time>2026-06-17T22:57:29Z</time>
      </trkpt>
      <trkpt lat="23.073424" lon="113.273476">
        <time>2026-06-17T22:57:34Z</time>
      </trkpt>
      <trkpt lat="23.073471" lon="113.273373">
        <time>2026-06-17T22:57:39Z</time>
      </trkpt>
      <trkpt lat="23.073502" lon="113.27329">
        <time>2026-06-17T22:57:44Z</time>
      </trkpt>
      <trkpt lat="23.073575" lon="113.273167">
        <time>2026-06-17T22:57:49Z</time>
      </trkpt>
      <trkpt lat="23.073607" lon="113.273089">
        <time>2026-06-17T22:57:54Z</time>
      </trkpt>
      <trkpt lat="23.073645" lon="113.272976">
        <time>2026-06-17T22:57:59Z</time>
      </trkpt>
      <trkpt lat="23.073661" lon="113.272903">
        <time>2026-06-17T22:58:04Z</time>
      </trkpt>
      <trkpt lat="23.073709" lon="113.272803">
        <time>2026-06-17T22:58:09Z</time>
      </trkpt>
      <trkpt lat="23.073729" lon="113.272731">
        <time>2026-06-17T22:58:14Z</time>
      </trkpt>
      <trkpt lat="23.073766" lon="113.272625">
        <time>2026-06-17T22:58:19Z</time>
      </trkpt>
      <trkpt lat="23.073793" lon="113.272557">
        <time>2026-06-17T22:58:24Z</time>
      </trkpt>
      <trkpt lat="23.07384" lon="113.272432">
        <time>2026-06-17T22:58:29Z</time>
      </trkpt>
      <trkpt lat="23.073882" lon="113.272352">
        <time>2026-06-17T22:58:34Z</time>
      </trkpt>
      <trkpt lat="23.073932" lon="113.272232">
        <time>2026-06-17T22:58:39Z</time>
      </trkpt>
      <trkpt lat="23.073978" lon="113.272169">
        <time>2026-06-17T22:58:44Z</time>
      </trkpt>
      <trkpt lat="23.073957" lon="113.272203">
        <time>2026-06-17T22:58:49Z</time>
      </trkpt>
      <trkpt lat="23.073914" lon="113.272306">
        <time>2026-06-17T22:58:54Z</time>
      </trkpt>
      <trkpt lat="23.073866" lon="113.272452">
        <time>2026-06-17T22:58:59Z</time>
      </trkpt>
      <trkpt lat="23.073831" lon="113.272543">
        <time>2026-06-17T22:59:04Z</time>
      </trkpt>
      <trkpt lat="23.073766" lon="113.272675">
        <time>2026-06-17T22:59:09Z</time>
      </trkpt>
      <trkpt lat="23.073718" lon="113.272767">
        <time>2026-06-17T22:59:14Z</time>
      </trkpt>
      <trkpt lat="23.073754" lon="113.272898">
        <time>2026-06-17T22:59:19Z</time>
      </trkpt>
      <trkpt lat="23.073857" lon="113.272958">
        <time>2026-06-17T22:59:24Z</time>
      </trkpt>
      <trkpt lat="23.073998" lon="113.272997">
        <time>2026-06-17T22:59:29Z</time>
      </trkpt>
      <trkpt lat="23.074046" lon="113.272928">
        <time>2026-06-17T22:59:34Z</time>
      </trkpt>
      <trkpt lat="23.074083" lon="113.272792">
        <time>2026-06-17T22:59:39Z</time>
      </trkpt>
      <trkpt lat="23.074108" lon="113.272706">
        <time>2026-06-17T22:59:44Z</time>
      </trkpt>
      <trkpt lat="23.074147" lon="113.272587">
        <time>2026-06-17T22:59:49Z</time>
      </trkpt>
      <trkpt lat="23.07418" lon="113.272517">
        <time>2026-06-17T22:59:54Z</time>
      </trkpt>
      <trkpt lat="23.074236" lon="113.272391">
        <time>2026-06-17T22:59:59Z</time>
      </trkpt>
      <trkpt lat="23.074276" lon="113.272313">
        <time>2026-06-17T23:00:04Z</time>
      </trkpt>
      <trkpt lat="23.074314" lon="113.2722">
        <time>2026-06-17T23:00:09Z</time>
      </trkpt>
      <trkpt lat="23.074331" lon="113.272118">
        <time>2026-06-17T23:00:14Z</time>
      </trkpt>
      <trkpt lat="23.074415" lon="113.272015">
        <time>2026-06-17T23:00:19Z</time>
      </trkpt>
      <trkpt lat="23.074501" lon="113.272002">
        <time>2026-06-17T23:00:24Z</time>
      </trkpt>
      <trkpt lat="23.074619" lon="113.272052">
        <time>2026-06-17T23:00:29Z</time>
      </trkpt>
      <trkpt lat="23.0747" lon="113.272094">
        <time>2026-06-17T23:00:34Z</time>
      </trkpt>
      <trkpt lat="23.074819" lon="113.272141">
        <time>2026-06-17T23:00:39Z</time>
      </trkpt>
      <trkpt lat="23.074895" lon="113.272173">
        <time>2026-06-17T23:00:44Z</time>
      </trkpt>
      <trkpt lat="23.075007" lon="113.272248">
        <time>2026-06-17T23:00:49Z</time>
      </trkpt>
      <trkpt lat="23.075077" lon="113.272293">
        <time>2026-06-17T23:00:54Z</time>
      </trkpt>
      <trkpt lat="23.075177" lon="113.272347">
        <time>2026-06-17T23:00:59Z</time>
      </trkpt>
      <trkpt lat="23.075257" lon="113.27239">
        <time>2026-06-17T23:01:04Z</time>
      </trkpt>
      <trkpt lat="23.075399" lon="113.272436">
        <time>2026-06-17T23:01:09Z</time>
      </trkpt>
      <trkpt lat="23.075482" lon="113.272476">
        <time>2026-06-17T23:01:14Z</time>
      </trkpt>
      <trkpt lat="23.075596" lon="113.272556">
        <time>2026-06-17T23:01:19Z</time>
      </trkpt>
      <trkpt lat="23.075672" lon="113.272607">
        <time>2026-06-17T23:01:24Z</time>
      </trkpt>
      <trkpt lat="23.075787" lon="113.272681">
        <time>2026-06-17T23:01:29Z</time>
      </trkpt>
      <trkpt lat="23.075864" lon="113.27272">
        <time>2026-06-17T23:01:34Z</time>
      </trkpt>
      <trkpt lat="23.075981" lon="113.272781">
        <time>2026-06-17T23:01:39Z</time>
      </trkpt>
      <trkpt lat="23.076002" lon="113.272848">
        <time>2026-06-17T23:01:44Z</time>
      </trkpt>
      <trkpt lat="23.075928" lon="113.272984">
        <time>2026-06-17T23:01:49Z</time>
      </trkpt>
      <trkpt lat="23.075873" lon="113.273068">
        <time>2026-06-17T23:01:54Z</time>
      </trkpt>
      <trkpt lat="23.075795" lon="113.273201">
        <time>2026-06-17T23:01:59Z</time>
      </trkpt>
      <trkpt lat="23.07575" lon="113.273282">
        <time>2026-06-17T23:02:04Z</time>
      </trkpt>
      <trkpt lat="23.075665" lon="113.273362">
        <time>2026-06-17T23:02:09Z</time>
      </trkpt>
      <trkpt lat="23.075588" lon="113.27335">
        <time>2026-06-17T23:02:14Z</time>
      </trkpt>
      <trkpt lat="23.07552" lon="113.273231">
        <time>2026-06-17T23:02:19Z</time>
      </trkpt>
      <trkpt lat="23.075495" lon="113.273145">
        <time>2026-06-17T23:02:24Z</time>
      </trkpt>
      <trkpt lat="23.075456" lon="113.273019">
        <time>2026-06-17T23:02:29Z</time>
      </trkpt>
      <trkpt lat="23.075431" lon="113.272937">
        <time>2026-06-17T23:02:34Z</time>
      </trkpt>
      <trkpt lat="23.075373" lon="113.272819">
        <time>2026-06-17T23:02:39Z</time>
      </trkpt>
      <trkpt lat="23.075318" lon="113.272741">
        <time>2026-06-17T23:02:44Z</time>
      </trkpt>
      <trkpt lat="23.07526" lon="113.27261">
        <time>2026-06-17T23:02:49Z</time>
      </trkpt>
      <trkpt lat="23.07529" lon="113.272523">
        <time>2026-06-17T23:02:54Z</time>
      </trkpt>
      <trkpt lat="23.075428" lon="113.272485">
        <time>2026-06-17T23:02:59Z</time>
      </trkpt>
      <trkpt lat="23.075516" lon="113.272524">
        <time>2026-06-17T23:03:04Z</time>
      </trkpt>
      <trkpt lat="23.075628" lon="113.272608">
        <time>2026-06-17T23:03:09Z</time>
      </trkpt>
      <trkpt lat="23.075706" lon="113.272659">
        <time>2026-06-17T23:03:14Z</time>
      </trkpt>
      <trkpt lat="23.075832" lon="113.272712">
        <time>2026-06-17T23:03:19Z</time>
      </trkpt>
      <trkpt lat="23.075914" lon="113.272752">
        <time>2026-06-17T23:03:24Z</time>
      </trkpt>
      <trkpt lat="23.076008" lon="113.272827">
        <time>2026-06-17T23:03:29Z</time>
      </trkpt>
      <trkpt lat="23.075975" lon="113.272914">
        <time>2026-06-17T23:03:34Z</time>
      </trkpt>
      <trkpt lat="23.075881" lon="113.273052">
        <time>2026-06-17T23:03:39Z</time>
      </trkpt>
      <trkpt lat="23.075824" lon="113.273147">
        <time>2026-06-17T23:03:44Z</time>
      </trkpt>
      <trkpt lat="23.075737" lon="113.273276">
        <time>2026-06-17T23:03:49Z</time>
      </trkpt>
      <trkpt lat="23.075689" lon="113.27334">
        <time>2026-06-17T23:03:54Z</time>
      </trkpt>
      <trkpt lat="23.075595" lon="113.273375">
        <time>2026-06-17T23:03:59Z</time>
      </trkpt>
      <trkpt lat="23.075524" lon="113.273304">
        <time>2026-06-17T23:04:04Z</time>
      </trkpt>
      <trkpt lat="23.075461" lon="113.273155">
        <time>2026-06-17T23:04:09Z</time>
      </trkpt>
      <trkpt lat="23.075432" lon="113.273057">
        <time>2026-06-17T23:04:14Z</time>
      </trkpt>
      <trkpt lat="23.075373" lon="113.272922">
        <time>2026-06-17T23:04:19Z</time>
      </trkpt>
      <trkpt lat="23.075328" lon="113.272837">
        <time>2026-06-17T23:04:24Z</time>
      </trkpt>
      <trkpt lat="23.075279" lon="113.272705">
        <time>2026-06-17T23:04:29Z</time>
      </trkpt>
      <trkpt lat="23.07529" lon="113.272599">
        <time>2026-06-17T23:04:34Z</time>
      </trkpt>
      <trkpt lat="23.075371" lon="113.272491">
        <time>2026-06-17T23:04:39Z</time>
      </trkpt>
      <trkpt lat="23.075463" lon="113.272502">
        <time>2026-06-17T23:04:44Z</time>
      </trkpt>
      <trkpt lat="23.07558" lon="113.272589">
        <time>2026-06-17T23:04:49Z</time>
      </trkpt>
      <trkpt lat="23.075659" lon="113.272639">
        <time>2026-06-17T23:04:54Z</time>
      </trkpt>
      <trkpt lat="23.075791" lon="113.272695">
        <time>2026-06-17T23:04:59Z</time>
      </trkpt>
      <trkpt lat="23.07587" lon="113.272741">
        <time>2026-06-17T23:05:04Z</time>
      </trkpt>
      <trkpt lat="23.075987" lon="113.272801">
        <time>2026-06-17T23:05:09Z</time>
      </trkpt>
      <trkpt lat="23.076045" lon="113.272741">
        <time>2026-06-17T23:05:14Z</time>
      </trkpt>
      <trkpt lat="23.076004" lon="113.272614">
        <time>2026-06-17T23:05:19Z</time>
      </trkpt>
      <trkpt lat="23.075958" lon="113.272576">
        <time>2026-06-17T23:05:24Z</time>
      </trkpt>
      <trkpt lat="23.075891" lon="113.272541">
        <time>2026-06-17T23:05:29Z</time>
      </trkpt>
      <trkpt lat="23.075828" lon="113.272534">
        <time>2026-06-17T23:05:34Z</time>
      </trkpt>
      <trkpt lat="23.075798" lon="113.272533">
        <time>2026-06-17T23:05:39Z</time>
      </trkpt>
      <trkpt lat="23.075798" lon="113.272533">
        <time>2026-06-17T23:05:44Z</time>
      </trkpt>
      <trkpt lat="23.075798" lon="113.272533">
        <time>2026-06-17T23:05:49Z</time>
      </trkpt>
      <trkpt lat="23.075791" lon="113.272577">
        <time>2026-06-17T23:05:57Z</time>
      </trkpt>
    </trkseg>
  </trk>
</gpx>