<?xml version="1.0" encoding="UTF-8"?>
<gpx xmlns="http://www.topografix.com/GPX/1/1" xmlns:gpxtpx="http://www.garmin.com/xmlschemas/TrackPointExtension/v1" xmlns:xsi="http://www.w3.org/2001/XMLSchema-instance" xsi:schemaLocation="http://www.topografix.com/GPX/1/1 http://www.topografix.com/GPX/1/1/gpx.xsd" version="1.1" creator="gpx.py -- https://github.com/tkrajina/gpxpy">
  <trk>
    <name>gpx from joyrun</name>
    <trkseg>
      <trkpt lat="23.075954" lon="113.27304">
        <time>2026-06-20T23:08:16Z</time>
      </trkpt>
      <trkpt lat="23.076" lon="113.272995">
        <time>2026-06-20T23:08:21Z</time>
      </trkpt>
      <trkpt lat="23.076024" lon="113.272866">
        <time>2026-06-20T23:08:26Z</time>
      </trkpt>
      <trkpt lat="23.075951" lon="113.272765">
        <time>2026-06-20T23:08:31Z</time>
      </trkpt>
      <trkpt lat="23.075815" lon="113.272695">
        <time>2026-06-20T23:08:36Z</time>
      </trkpt>
      <trkpt lat="23.075736" lon="113.272648">
        <time>2026-06-20T23:08:41Z</time>
      </trkpt>
      <trkpt lat="23.075627" lon="113.272562">
        <time>2026-06-20T23:08:46Z</time>
      </trkpt>
      <trkpt lat="23.075551" lon="113.272508">
        <time>2026-06-20T23:08:51Z</time>
      </trkpt>
      <trkpt lat="23.07544" lon="113.27243">
        <time>2026-06-20T23:08:56Z</time>
      </trkpt>
      <trkpt lat="23.075364" lon="113.272386">
        <time>2026-06-20T23:09:01Z</time>
      </trkpt>
      <trkpt lat="23.075255" lon="113.272332">
        <time>2026-06-20T23:09:06Z</time>
      </trkpt>
      <trkpt lat="23.075187" lon="113.272296">
        <time>2026-06-20T23:09:11Z</time>
      </trkpt>
      <trkpt lat="23.075081" lon="113.272246">
        <time>2026-06-20T23:09:16Z</time>
      </trkpt>
      <trkpt lat="23.075013" lon="113.272218">
        <time>2026-06-20T23:09:21Z</time>
      </trkpt>
      <trkpt lat="23.074907" lon="113.272154">
        <time>2026-06-20T23:09:26Z</time>
      </trkpt>
      <trkpt lat="23.074836" lon="113.272104">
        <time>2026-06-20T23:09:31Z</time>
      </trkpt>
      <trkpt lat="23.07472" lon="113.272044">
        <time>2026-06-20T23:09:36Z</time>
      </trkpt>
      <trkpt lat="23.074641" lon="113.272001">
        <time>2026-06-20T23:09:41Z</time>
      </trkpt>
      <trkpt lat="23.074527" lon="113.271924">
        <time>2026-06-20T23:09:46Z</time>
      </trkpt>
      <trkpt lat="23.074452" lon="113.271908">
        <time>2026-06-20T23:09:51Z</time>
      </trkpt>
      <trkpt lat="23.074384" lon="113.272023">
        <time>2026-06-20T23:09:56Z</time>
      </trkpt>
      <trkpt lat="23.074339" lon="113.272122">
        <time>2026-06-20T23:10:01Z</time>
      </trkpt>
      <trkpt lat="23.074277" lon="113.272267">
        <time>2026-06-20T23:10:06Z</time>
      </trkpt>
      <trkpt lat="23.074244" lon="113.272363">
        <time>2026-06-20T23:10:11Z</time>
      </trkpt>
      <trkpt lat="23.074193" lon="113.272491">
        <time>2026-06-20T23:10:16Z</time>
      </trkpt>
      <trkpt lat="23.07415" lon="113.272579">
        <time>2026-06-20T23:10:21Z</time>
      </trkpt>
      <trkpt lat="23.074088" lon="113.272707">
        <time>2026-06-20T23:10:26Z</time>
      </trkpt>
      <trkpt lat="23.074061" lon="113.272789">
        <time>2026-06-20T23:10:31Z</time>
      </trkpt>
      <trkpt lat="23.074008" lon="113.272914">
        <time>2026-06-20T23:10:36Z</time>
      </trkpt>
      <trkpt lat="23.073973" lon="113.272991">
        <time>2026-06-20T23:10:41Z</time>
      </trkpt>
      <trkpt lat="23.073923" lon="113.273105">
        <time>2026-06-20T23:10:46Z</time>
      </trkpt>
      <trkpt lat="23.073891" lon="113.273193">
        <time>2026-06-20T23:10:51Z</time>
      </trkpt>
      <trkpt lat="23.07384" lon="113.273314">
        <time>2026-06-20T23:10:56Z</time>
      </trkpt>
      <trkpt lat="23.073831" lon="113.273311">
        <time>2026-06-20T23:11:01Z</time>
      </trkpt>
      <trkpt lat="23.073888" lon="113.27321">
        <time>2026-06-20T23:11:06Z</time>
      </trkpt>
      <trkpt lat="23.073928" lon="113.273138">
        <time>2026-06-20T23:11:11Z</time>
      </trkpt>
      <trkpt lat="23.073902" lon="113.273038">
        <time>2026-06-20T23:11:16Z</time>
      </trkpt>
      <trkpt lat="23.07383" lon="113.272991">
        <time>2026-06-20T23:11:21Z</time>
      </trkpt>
      <trkpt lat="23.073726" lon="113.272906">
        <time>2026-06-20T23:11:26Z</time>
      </trkpt>
      <trkpt lat="23.07371" lon="113.272839">
        <time>2026-06-20T23:11:31Z</time>
      </trkpt>
      <trkpt lat="23.073751" lon="113.272731">
        <time>2026-06-20T23:11:36Z</time>
      </trkpt>
      <trkpt lat="23.073772" lon="113.272665">
        <time>2026-06-20T23:11:41Z</time>
      </trkpt>
      <trkpt lat="23.07381" lon="113.272568">
        <time>2026-06-20T23:11:46Z</time>
      </trkpt>
      <trkpt lat="23.073845" lon="113.272502">
        <time>2026-06-20T23:11:51Z</time>
      </trkpt>
      <trkpt lat="23.073903" lon="113.272393">
        <time>2026-06-20T23:11:56Z</time>
      </trkpt>
      <trkpt lat="23.073935" lon="113.272312">
        <time>2026-06-20T23:12:01Z</time>
      </trkpt>
      <trkpt lat="23.073981" lon="113.272196">
        <time>2026-06-20T23:12:06Z</time>
      </trkpt>
      <trkpt lat="23.07401" lon="113.272117">
        <time>2026-06-20T23:12:11Z</time>
      </trkpt>
      <trkpt lat="23.074044" lon="113.271997">
        <time>2026-06-20T23:12:16Z</time>
      </trkpt>
      <trkpt lat="23.074052" lon="113.271919">
        <time>2026-06-20T23:12:21Z</time>
      </trkpt>
      <trkpt lat="23.074038" lon="113.271798">
        <time>2026-06-20T23:12:26Z</time>
      </trkpt>
      <trkpt lat="23.073973" lon="113.271742">
        <time>2026-06-20T23:12:31Z</time>
      </trkpt>
      <trkpt lat="23.073892" lon="113.271666">
        <time>2026-06-20T23:12:36Z</time>
      </trkpt>
      <trkpt lat="23.073831" lon="113.271629">
        <time>2026-06-20T23:12:41Z</time>
      </trkpt>
      <trkpt lat="23.073728" lon="113.27156">
        <time>2026-06-20T23:12:46Z</time>
      </trkpt>
      <trkpt lat="23.073651" lon="113.271517">
        <time>2026-06-20T23:12:51Z</time>
      </trkpt>
      <trkpt lat="23.073532" lon="113.271455">
        <time>2026-06-20T23:12:56Z</time>
      </trkpt>
      <trkpt lat="23.07346" lon="113.271431">
        <time>2026-06-20T23:13:01Z</time>
      </trkpt>
      <trkpt lat="23.073343" lon="113.271376">
        <time>2026-06-20T23:13:06Z</time>
      </trkpt>
      <trkpt lat="23.073269" lon="113.271304">
        <time>2026-06-20T23:13:11Z</time>
      </trkpt>
      <trkpt lat="23.073152" lon="113.271196">
        <time>2026-06-20T23:13:16Z</time>
      </trkpt>
      <trkpt lat="23.073076" lon="113.271146">
        <time>2026-06-20T23:13:21Z</time>
      </trkpt>
      <trkpt lat="23.072985" lon="113.271047">
        <time>2026-06-20T23:13:26Z</time>
      </trkpt>
      <trkpt lat="23.072935" lon="113.270969">
        <time>2026-06-20T23:13:31Z</time>
      </trkpt>
      <trkpt lat="23.072817" lon="113.270885">
        <time>2026-06-20T23:13:36Z</time>
      </trkpt>
      <trkpt lat="23.072709" lon="113.270867">
        <time>2026-06-20T23:13:41Z</time>
      </trkpt>
      <trkpt lat="23.072531" lon="113.270858">
        <time>2026-06-20T23:13:46Z</time>
      </trkpt>
      <trkpt lat="23.072432" lon="113.270845">
        <time>2026-06-20T23:13:51Z</time>
      </trkpt>
      <trkpt lat="23.072292" lon="113.270822">
        <time>2026-06-20T23:13:56Z</time>
      </trkpt>
      <trkpt lat="23.072204" lon="113.270792">
        <time>2026-06-20T23:14:01Z</time>
      </trkpt>
      <trkpt lat="23.072078" lon="113.27073">
        <time>2026-06-20T23:14:06Z</time>
      </trkpt>
      <trkpt lat="23.071995" lon="113.27067">
        <time>2026-06-20T23:14:11Z</time>
      </trkpt>
      <trkpt lat="23.071865" lon="113.270613">
        <time>2026-06-20T23:14:16Z</time>
      </trkpt>
      <trkpt lat="23.071779" lon="113.270566">
        <time>2026-06-20T23:14:21Z</time>
      </trkpt>
      <trkpt lat="23.071658" lon="113.270484">
        <time>2026-06-20T23:14:26Z</time>
      </trkpt>
      <trkpt lat="23.071572" lon="113.27044">
        <time>2026-06-20T23:14:31Z</time>
      </trkpt>
      <trkpt lat="23.071452" lon="113.270377">
        <time>2026-06-20T23:14:36Z</time>
      </trkpt>
      <trkpt lat="23.07137" lon="113.270347">
        <time>2026-06-20T23:14:41Z</time>
      </trkpt>
      <trkpt lat="23.071246" lon="113.27032">
        <time>2026-06-20T23:14:46Z</time>
      </trkpt>
      <trkpt lat="23.071162" lon="113.270311">
        <time>2026-06-20T23:14:51Z</time>
      </trkpt>
      <trkpt lat="23.071043" lon="113.270249">
        <time>2026-06-20T23:14:56Z</time>
      </trkpt>
      <trkpt lat="23.070977" lon="113.270179">
        <time>2026-06-20T23:15:01Z</time>
      </trkpt>
      <trkpt lat="23.070855" lon="113.270111">
        <time>2026-06-20T23:15:06Z</time>
      </trkpt>
      <trkpt lat="23.070762" lon="113.270079">
        <time>2026-06-20T23:15:11Z</time>
      </trkpt>
      <trkpt lat="23.070639" lon="113.270008">
        <time>2026-06-20T23:15:16Z</time>
      </trkpt>
      <trkpt lat="23.070554" lon="113.269958">
        <time>2026-06-20T23:15:21Z</time>
      </trkpt>
      <trkpt lat="23.070416" lon="113.269913">
        <time>2026-06-20T23:15:26Z</time>
      </trkpt>
      <trkpt lat="23.07033" lon="113.269876">
        <time>2026-06-20T23:15:31Z</time>
      </trkpt>
      <trkpt lat="23.070214" lon="113.269798">
        <time>2026-06-20T23:15:36Z</time>
      </trkpt>
      <trkpt lat="23.070141" lon="113.26974">
        <time>2026-06-20T23:15:41Z</time>
      </trkpt>
      <trkpt lat="23.070032" lon="113.269666">
        <time>2026-06-20T23:15:46Z</time>
      </trkpt>
      <trkpt lat="23.069956" lon="113.26962">
        <time>2026-06-20T23:15:51Z</time>
      </trkpt>
      <trkpt lat="23.069845" lon="113.269549">
        <time>2026-06-20T23:15:56Z</time>
      </trkpt>
      <trkpt lat="23.069769" lon="113.26951">
        <time>2026-06-20T23:16:01Z</time>
      </trkpt>
      <trkpt lat="23.069643" lon="113.26945">
        <time>2026-06-20T23:16:06Z</time>
      </trkpt>
      <trkpt lat="23.069564" lon="113.269408">
        <time>2026-06-20T23:16:11Z</time>
      </trkpt>
      <trkpt lat="23.069458" lon="113.269353">
        <time>2026-06-20T23:16:16Z</time>
      </trkpt>
      <trkpt lat="23.069381" lon="113.26933">
        <time>2026-06-20T23:16:21Z</time>
      </trkpt>
      <trkpt lat="23.069274" lon="113.269258">
        <time>2026-06-20T23:16:26Z</time>
      </trkpt>
      <trkpt lat="23.069194" lon="113.269217">
        <time>2026-06-20T23:16:31Z</time>
      </trkpt>
      <trkpt lat="23.069076" lon="113.269192">
        <time>2026-06-20T23:16:36Z</time>
      </trkpt>
      <trkpt lat="23.068992" lon="113.269176">
        <time>2026-06-20T23:16:41Z</time>
      </trkpt>
      <trkpt lat="23.068866" lon="113.269112">
        <time>2026-06-20T23:16:46Z</time>
      </trkpt>
      <trkpt lat="23.068784" lon="113.26907">
        <time>2026-06-20T23:16:51Z</time>
      </trkpt>
      <trkpt lat="23.06867" lon="113.269017">
        <time>2026-06-20T23:16:56Z</time>
      </trkpt>
      <trkpt lat="23.068591" lon="113.268991">
        <time>2026-06-20T23:17:01Z</time>
      </trkpt>
      <trkpt lat="23.068484" lon="113.268952">
        <time>2026-06-20T23:17:06Z</time>
      </trkpt>
      <trkpt lat="23.068414" lon="113.268924">
        <time>2026-06-20T23:17:11Z</time>
      </trkpt>
      <trkpt lat="23.0683" lon="113.268864">
        <time>2026-06-20T23:17:16Z</time>
      </trkpt>
      <trkpt lat="23.068222" lon="113.268828">
        <time>2026-06-20T23:17:21Z</time>
      </trkpt>
      <trkpt lat="23.068111" lon="113.268772">
        <time>2026-06-20T23:17:26Z</time>
      </trkpt>
      <trkpt lat="23.068031" lon="113.268705">
        <time>2026-06-20T23:17:31Z</time>
      </trkpt>
      <trkpt lat="23.0679" lon="113.2686">
        <time>2026-06-20T23:17:36Z</time>
      </trkpt>
      <trkpt lat="23.06781" lon="113.268551">
        <time>2026-06-20T23:17:41Z</time>
      </trkpt>
      <trkpt lat="23.067685" lon="113.2685">
        <time>2026-06-20T23:17:46Z</time>
      </trkpt>
      <trkpt lat="23.067598" lon="113.268469">
        <time>2026-06-20T23:17:51Z</time>
      </trkpt>
      <trkpt lat="23.067483" lon="113.268424">
        <time>2026-06-20T23:17:56Z</time>
      </trkpt>
      <trkpt lat="23.067409" lon="113.268384">
        <time>2026-06-20T23:18:01Z</time>
      </trkpt>
      <trkpt lat="23.067313" lon="113.268306">
        <time>2026-06-20T23:18:06Z</time>
      </trkpt>
      <trkpt lat="23.067224" lon="113.268281">
        <time>2026-06-20T23:18:11Z</time>
      </trkpt>
      <trkpt lat="23.067104" lon="113.268223">
        <time>2026-06-20T23:18:16Z</time>
      </trkpt>
      <trkpt lat="23.067026" lon="113.268186">
        <time>2026-06-20T23:18:21Z</time>
      </trkpt>
      <trkpt lat="23.066889" lon="113.268157">
        <time>2026-06-20T23:18:26Z</time>
      </trkpt>
      <trkpt lat="23.066797" lon="113.268155">
        <time>2026-06-20T23:18:31Z</time>
      </trkpt>
      <trkpt lat="23.06666" lon="113.268164">
        <time>2026-06-20T23:18:36Z</time>
      </trkpt>
      <trkpt lat="23.066571" lon="113.268155">
        <time>2026-06-20T23:18:41Z</time>
      </trkpt>
      <trkpt lat="23.066439" lon="113.268153">
        <time>2026-06-20T23:18:46Z</time>
      </trkpt>
      <trkpt lat="23.066359" lon="113.268184">
        <time>2026-06-20T23:18:51Z</time>
      </trkpt>
      <trkpt lat="23.066266" lon="113.268271">
        <time>2026-06-20T23:18:56Z</time>
      </trkpt>
      <trkpt lat="23.066212" lon="113.268346">
        <time>2026-06-20T23:19:01Z</time>
      </trkpt>
      <trkpt lat="23.06614" lon="113.268444">
        <time>2026-06-20T23:19:06Z</time>
      </trkpt>
      <trkpt lat="23.066091" lon="113.268515">
        <time>2026-06-20T23:19:11Z</time>
      </trkpt>
      <trkpt lat="23.066022" lon="113.268624">
        <time>2026-06-20T23:19:16Z</time>
      </trkpt>
      <trkpt lat="23.065976" lon="113.268698">
        <time>2026-06-20T23:19:21Z</time>
      </trkpt>
      <trkpt lat="23.065917" lon="113.268808">
        <time>2026-06-20T23:19:26Z</time>
      </trkpt>
      <trkpt lat="23.065886" lon="113.268888">
        <time>2026-06-20T23:19:31Z</time>
      </trkpt>
      <trkpt lat="23.06584" lon="113.26901">
        <time>2026-06-20T23:19:36Z</time>
      </trkpt>
      <trkpt lat="23.065812" lon="113.269091">
        <time>2026-06-20T23:19:41Z</time>
      </trkpt>
      <trkpt lat="23.065774" lon="113.269222">
        <time>2026-06-20T23:19:46Z</time>
      </trkpt>
      <trkpt lat="23.065751" lon="113.269319">
        <time>2026-06-20T23:19:51Z</time>
      </trkpt>
      <trkpt lat="23.065721" lon="113.269458">
        <time>2026-06-20T23:19:56Z</time>
      </trkpt>
      <trkpt lat="23.06571" lon="113.269552">
        <time>2026-06-20T23:20:01Z</time>
      </trkpt>
      <trkpt lat="23.065674" lon="113.269678">
        <time>2026-06-20T23:20:06Z</time>
      </trkpt>
      <trkpt lat="23.06564" lon="113.269757">
        <time>2026-06-20T23:20:11Z</time>
      </trkpt>
      <trkpt lat="23.065596" lon="113.269877">
        <time>2026-06-20T23:20:16Z</time>
      </trkpt>
      <trkpt lat="23.065573" lon="113.269961">
        <time>2026-06-20T23:20:21Z</time>
      </trkpt>
      <trkpt lat="23.065527" lon="113.270085">
        <time>2026-06-20T23:20:26Z</time>
      </trkpt>
      <trkpt lat="23.065493" lon="113.270168">
        <time>2026-06-20T23:20:31Z</time>
      </trkpt>
      <trkpt lat="23.065449" lon="113.270284">
        <time>2026-06-20T23:20:36Z</time>
      </trkpt>
      <trkpt lat="23.065417" lon="113.270364">
        <time>2026-06-20T23:20:41Z</time>
      </trkpt>
      <trkpt lat="23.065362" lon="113.27048">
        <time>2026-06-20T23:20:46Z</time>
      </trkpt>
      <trkpt lat="23.065324" lon="113.270556">
        <time>2026-06-20T23:20:51Z</time>
      </trkpt>
      <trkpt lat="23.065273" lon="113.270672">
        <time>2026-06-20T23:20:56Z</time>
      </trkpt>
      <trkpt lat="23.065238" lon="113.270747">
        <time>2026-06-20T23:21:01Z</time>
      </trkpt>
      <trkpt lat="23.06519" lon="113.270861">
        <time>2026-06-20T23:21:06Z</time>
      </trkpt>
      <trkpt lat="23.065167" lon="113.270941">
        <time>2026-06-20T23:21:11Z</time>
      </trkpt>
      <trkpt lat="23.065122" lon="113.271057">
        <time>2026-06-20T23:21:16Z</time>
      </trkpt>
      <trkpt lat="23.065082" lon="113.271132">
        <time>2026-06-20T23:21:21Z</time>
      </trkpt>
      <trkpt lat="23.065016" lon="113.271247">
        <time>2026-06-20T23:21:26Z</time>
      </trkpt>
      <trkpt lat="23.064975" lon="113.271319">
        <time>2026-06-20T23:21:31Z</time>
      </trkpt>
      <trkpt lat="23.064915" lon="113.271429">
        <time>2026-06-20T23:21:36Z</time>
      </trkpt>
      <trkpt lat="23.064876" lon="113.271501">
        <time>2026-06-20T23:21:41Z</time>
      </trkpt>
      <trkpt lat="23.064832" lon="113.27162">
        <time>2026-06-20T23:21:46Z</time>
      </trkpt>
      <trkpt lat="23.064796" lon="113.271696">
        <time>2026-06-20T23:21:51Z</time>
      </trkpt>
      <trkpt lat="23.064743" lon="113.27182">
        <time>2026-06-20T23:21:56Z</time>
      </trkpt>
      <trkpt lat="23.064703" lon="113.271901">
        <time>2026-06-20T23:22:01Z</time>
      </trkpt>
      <trkpt lat="23.06465" lon="113.272022">
        <time>2026-06-20T23:22:06Z</time>
      </trkpt>
      <trkpt lat="23.064615" lon="113.272101">
        <time>2026-06-20T23:22:11Z</time>
      </trkpt>
      <trkpt lat="23.064533" lon="113.272187">
        <time>2026-06-20T23:22:16Z</time>
      </trkpt>
      <trkpt lat="23.064446" lon="113.272202">
        <time>2026-06-20T23:22:21Z</time>
      </trkpt>
      <trkpt lat="23.064334" lon="113.272263">
        <time>2026-06-20T23:22:26Z</time>
      </trkpt>
      <trkpt lat="23.064324" lon="113.272358">
        <time>2026-06-20T23:22:31Z</time>
      </trkpt>
      <trkpt lat="23.06432" lon="113.272501">
        <time>2026-06-20T23:22:36Z</time>
      </trkpt>
      <trkpt lat="23.06432" lon="113.27259">
        <time>2026-06-20T23:22:41Z</time>
      </trkpt>
      <trkpt lat="23.064341" lon="113.272717">
        <time>2026-06-20T23:22:46Z</time>
      </trkpt>
      <trkpt lat="23.064368" lon="113.272805">
        <time>2026-06-20T23:22:51Z</time>
      </trkpt>
      <trkpt lat="23.064412" lon="113.272921">
        <time>2026-06-20T23:22:56Z</time>
      </trkpt>
      <trkpt lat="23.064436" lon="113.272996">
        <time>2026-06-20T23:23:01Z</time>
      </trkpt>
      <trkpt lat="23.064468" lon="113.273116">
        <time>2026-06-20T23:23:06Z</time>
      </trkpt>
      <trkpt lat="23.064468" lon="113.273197">
        <time>2026-06-20T23:23:11Z</time>
      </trkpt>
      <trkpt lat="23.06442" lon="113.273303">
        <time>2026-06-20T23:23:16Z</time>
      </trkpt>
      <trkpt lat="23.064363" lon="113.27336">
        <time>2026-06-20T23:23:21Z</time>
      </trkpt>
      <trkpt lat="23.064264" lon="113.273439">
        <time>2026-06-20T23:23:26Z</time>
      </trkpt>
      <trkpt lat="23.064193" lon="113.273491">
        <time>2026-06-20T23:23:31Z</time>
      </trkpt>
      <trkpt lat="23.064087" lon="113.273565">
        <time>2026-06-20T23:23:36Z</time>
      </trkpt>
      <trkpt lat="23.064019" lon="113.273615">
        <time>2026-06-20T23:23:41Z</time>
      </trkpt>
      <trkpt lat="23.063929" lon="113.273704">
        <time>2026-06-20T23:23:46Z</time>
      </trkpt>
      <trkpt lat="23.063879" lon="113.273773">
        <time>2026-06-20T23:23:51Z</time>
      </trkpt>
      <trkpt lat="23.063813" lon="113.273886">
        <time>2026-06-20T23:23:56Z</time>
      </trkpt>
      <trkpt lat="23.063772" lon="113.273965">
        <time>2026-06-20T23:24:01Z</time>
      </trkpt>
      <trkpt lat="23.063701" lon="113.274078">
        <time>2026-06-20T23:24:06Z</time>
      </trkpt>
      <trkpt lat="23.063637" lon="113.27413">
        <time>2026-06-20T23:24:11Z</time>
      </trkpt>
      <trkpt lat="23.063659" lon="113.274203">
        <time>2026-06-20T23:24:16Z</time>
      </trkpt>
      <trkpt lat="23.063738" lon="113.27418">
        <time>2026-06-20T23:24:21Z</time>
      </trkpt>
      <trkpt lat="23.063839" lon="113.274084">
        <time>2026-06-20T23:24:26Z</time>
      </trkpt>
      <trkpt lat="23.063896" lon="113.274003">
        <time>2026-06-20T23:24:31Z</time>
      </trkpt>
      <trkpt lat="23.063967" lon="113.273876">
        <time>2026-06-20T23:24:36Z</time>
      </trkpt>
      <trkpt lat="23.064018" lon="113.273793">
        <time>2026-06-20T23:24:41Z</time>
      </trkpt>
      <trkpt lat="23.064108" lon="113.27369">
        <time>2026-06-20T23:24:46Z</time>
      </trkpt>
      <trkpt lat="23.064172" lon="113.273637">
        <time>2026-06-20T23:24:51Z</time>
      </trkpt>
      <trkpt lat="23.064273" lon="113.27356">
        <time>2026-06-20T23:24:56Z</time>
      </trkpt>
      <trkpt lat="23.064337" lon="113.27351">
        <time>2026-06-20T23:25:01Z</time>
      </trkpt>
      <trkpt lat="23.064435" lon="113.273435">
        <time>2026-06-20T23:25:06Z</time>
      </trkpt>
      <trkpt lat="23.064497" lon="113.273383">
        <time>2026-06-20T23:25:11Z</time>
      </trkpt>
      <trkpt lat="23.064571" lon="113.273273">
        <time>2026-06-20T23:25:16Z</time>
      </trkpt>
      <trkpt lat="23.064591" lon="113.27318">
        <time>2026-06-20T23:25:21Z</time>
      </trkpt>
      <trkpt lat="23.06457" lon="113.273026">
        <time>2026-06-20T23:25:26Z</time>
      </trkpt>
      <trkpt lat="23.064533" lon="113.272931">
        <time>2026-06-20T23:25:31Z</time>
      </trkpt>
      <trkpt lat="23.064482" lon="113.272789">
        <time>2026-06-20T23:25:36Z</time>
      </trkpt>
      <trkpt lat="23.064457" lon="113.272699">
        <time>2026-06-20T23:25:41Z</time>
      </trkpt>
      <trkpt lat="23.064447" lon="113.272563">
        <time>2026-06-20T23:25:46Z</time>
      </trkpt>
      <trkpt lat="23.064475" lon="113.272475">
        <time>2026-06-20T23:25:51Z</time>
      </trkpt>
      <trkpt lat="23.064546" lon="113.272352">
        <time>2026-06-20T23:25:56Z</time>
      </trkpt>
      <trkpt lat="23.06457" lon="113.272259">
        <time>2026-06-20T23:26:01Z</time>
      </trkpt>
      <trkpt lat="23.06461" lon="113.272132">
        <time>2026-06-20T23:26:06Z</time>
      </trkpt>
      <trkpt lat="23.064647" lon="113.272052">
        <time>2026-06-20T23:26:11Z</time>
      </trkpt>
      <trkpt lat="23.064709" lon="113.271942">
        <time>2026-06-20T23:26:16Z</time>
      </trkpt>
      <trkpt lat="23.064755" lon="113.27187">
        <time>2026-06-20T23:26:21Z</time>
      </trkpt>
      <trkpt lat="23.064822" lon="113.271747">
        <time>2026-06-20T23:26:26Z</time>
      </trkpt>
      <trkpt lat="23.064877" lon="113.271674">
        <time>2026-06-20T23:26:31Z</time>
      </trkpt>
      <trkpt lat="23.064968" lon="113.271569">
        <time>2026-06-20T23:26:36Z</time>
      </trkpt>
      <trkpt lat="23.065009" lon="113.271482">
        <time>2026-06-20T23:26:41Z</time>
      </trkpt>
      <trkpt lat="23.065065" lon="113.271364">
        <time>2026-06-20T23:26:46Z</time>
      </trkpt>
      <trkpt lat="23.065098" lon="113.27128">
        <time>2026-06-20T23:26:51Z</time>
      </trkpt>
      <trkpt lat="23.065198" lon="113.271206">
        <time>2026-06-20T23:26:56Z</time>
      </trkpt>
      <trkpt lat="23.065281" lon="113.271212">
        <time>2026-06-20T23:27:01Z</time>
      </trkpt>
      <trkpt lat="23.065394" lon="113.271251">
        <time>2026-06-20T23:27:06Z</time>
      </trkpt>
      <trkpt lat="23.065469" lon="113.27128">
        <time>2026-06-20T23:27:11Z</time>
      </trkpt>
      <trkpt lat="23.065575" lon="113.271321">
        <time>2026-06-20T23:27:16Z</time>
      </trkpt>
      <trkpt lat="23.06565" lon="113.271351">
        <time>2026-06-20T23:27:21Z</time>
      </trkpt>
      <trkpt lat="23.065767" lon="113.271403">
        <time>2026-06-20T23:27:26Z</time>
      </trkpt>
      <trkpt lat="23.065848" lon="113.271414">
        <time>2026-06-20T23:27:31Z</time>
      </trkpt>
      <trkpt lat="23.065967" lon="113.271446">
        <time>2026-06-20T23:27:36Z</time>
      </trkpt>
      <trkpt lat="23.066046" lon="113.271488">
        <time>2026-06-20T23:27:41Z</time>
      </trkpt>
      <trkpt lat="23.066154" lon="113.271535">
        <time>2026-06-20T23:27:46Z</time>
      </trkpt>
      <trkpt lat="23.066238" lon="113.271528">
        <time>2026-06-20T23:27:51Z</time>
      </trkpt>
      <trkpt lat="23.066298" lon="113.271445">
        <time>2026-06-20T23:27:56Z</time>
      </trkpt>
      <trkpt lat="23.066212" lon="113.2714">
        <time>2026-06-20T23:28:01Z</time>
      </trkpt>
      <trkpt lat="23.066066" lon="113.271353">
        <time>2026-06-20T23:28:06Z</time>
      </trkpt>
      <trkpt lat="23.065965" lon="113.271336">
        <time>2026-06-20T23:28:11Z</time>
      </trkpt>
      <trkpt lat="23.065842" lon="113.271305">
        <time>2026-06-20T23:28:16Z</time>
      </trkpt>
      <trkpt lat="23.06577" lon="113.27129">
        <time>2026-06-20T23:28:21Z</time>
      </trkpt>
      <trkpt lat="23.065652" lon="113.271247">
        <time>2026-06-20T23:28:26Z</time>
      </trkpt>
      <trkpt lat="23.06557" lon="113.271221">
        <time>2026-06-20T23:28:31Z</time>
      </trkpt>
      <trkpt lat="23.065443" lon="113.271179">
        <time>2026-06-20T23:28:36Z</time>
      </trkpt>
      <trkpt lat="23.065359" lon="113.271152">
        <time>2026-06-20T23:28:41Z</time>
      </trkpt>
      <trkpt lat="23.065238" lon="113.271063">
        <time>2026-06-20T23:28:46Z</time>
      </trkpt>
      <trkpt lat="23.065187" lon="113.270972">
        <time>2026-06-20T23:28:51Z</time>
      </trkpt>
      <trkpt lat="23.065202" lon="113.270832">
        <time>2026-06-20T23:28:56Z</time>
      </trkpt>
      <trkpt lat="23.065246" lon="113.270749">
        <time>2026-06-20T23:29:01Z</time>
      </trkpt>
      <trkpt lat="23.065307" lon="113.270626">
        <time>2026-06-20T23:29:06Z</time>
      </trkpt>
      <trkpt lat="23.065345" lon="113.270543">
        <time>2026-06-20T23:29:11Z</time>
      </trkpt>
      <trkpt lat="23.065403" lon="113.270421">
        <time>2026-06-20T23:29:16Z</time>
      </trkpt>
      <trkpt lat="23.065444" lon="113.270339">
        <time>2026-06-20T23:29:21Z</time>
      </trkpt>
      <trkpt lat="23.065503" lon="113.270212">
        <time>2026-06-20T23:29:26Z</time>
      </trkpt>
      <trkpt lat="23.065537" lon="113.270126">
        <time>2026-06-20T23:29:31Z</time>
      </trkpt>
      <trkpt lat="23.065578" lon="113.27">
        <time>2026-06-20T23:29:36Z</time>
      </trkpt>
      <trkpt lat="23.065601" lon="113.269916">
        <time>2026-06-20T23:29:41Z</time>
      </trkpt>
      <trkpt lat="23.065628" lon="113.26979">
        <time>2026-06-20T23:29:46Z</time>
      </trkpt>
      <trkpt lat="23.065664" lon="113.269719">
        <time>2026-06-20T23:29:51Z</time>
      </trkpt>
      <trkpt lat="23.065742" lon="113.269605">
        <time>2026-06-20T23:29:56Z</time>
      </trkpt>
      <trkpt lat="23.065761" lon="113.269509">
        <time>2026-06-20T23:30:01Z</time>
      </trkpt>
      <trkpt lat="23.065776" lon="113.269366">
        <time>2026-06-20T23:30:06Z</time>
      </trkpt>
      <trkpt lat="23.065802" lon="113.269272">
        <time>2026-06-20T23:30:11Z</time>
      </trkpt>
      <trkpt lat="23.065842" lon="113.269135">
        <time>2026-06-20T23:30:16Z</time>
      </trkpt>
      <trkpt lat="23.065871" lon="113.269048">
        <time>2026-06-20T23:30:21Z</time>
      </trkpt>
      <trkpt lat="23.065924" lon="113.268922">
        <time>2026-06-20T23:30:26Z</time>
      </trkpt>
      <trkpt lat="23.065958" lon="113.268848">
        <time>2026-06-20T23:30:31Z</time>
      </trkpt>
      <trkpt lat="23.066019" lon="113.268728">
        <time>2026-06-20T23:30:36Z</time>
      </trkpt>
      <trkpt lat="23.066064" lon="113.268649">
        <time>2026-06-20T23:30:41Z</time>
      </trkpt>
      <trkpt lat="23.066141" lon="113.268535">
        <time>2026-06-20T23:30:46Z</time>
      </trkpt>
      <trkpt lat="23.066189" lon="113.268455">
        <time>2026-06-20T23:30:51Z</time>
      </trkpt>
      <trkpt lat="23.066269" lon="113.268325">
        <time>2026-06-20T23:30:56Z</time>
      </trkpt>
      <trkpt lat="23.066338" lon="113.268251">
        <time>2026-06-20T23:31:01Z</time>
      </trkpt>
      <trkpt lat="23.066449" lon="113.268168">
        <time>2026-06-20T23:31:06Z</time>
      </trkpt>
      <trkpt lat="23.066534" lon="113.268145">
        <time>2026-06-20T23:31:11Z</time>
      </trkpt>
      <trkpt lat="23.066663" lon="113.268166">
        <time>2026-06-20T23:31:16Z</time>
      </trkpt>
      <trkpt lat="23.066752" lon="113.268177">
        <time>2026-06-20T23:31:21Z</time>
      </trkpt>
      <trkpt lat="23.066886" lon="113.268184">
        <time>2026-06-20T23:31:26Z</time>
      </trkpt>
      <trkpt lat="23.066969" lon="113.2682">
        <time>2026-06-20T23:31:31Z</time>
      </trkpt>
      <trkpt lat="23.067084" lon="113.268246">
        <time>2026-06-20T23:31:36Z</time>
      </trkpt>
      <trkpt lat="23.06716" lon="113.268287">
        <time>2026-06-20T23:31:41Z</time>
      </trkpt>
      <trkpt lat="23.067278" lon="113.268339">
        <time>2026-06-20T23:31:46Z</time>
      </trkpt>
      <trkpt lat="23.067363" lon="113.268374">
        <time>2026-06-20T23:31:51Z</time>
      </trkpt>
      <trkpt lat="23.06748" lon="113.268437">
        <time>2026-06-20T23:31:56Z</time>
      </trkpt>
      <trkpt lat="23.067559" lon="113.268488">
        <time>2026-06-20T23:32:01Z</time>
      </trkpt>
      <trkpt lat="23.067677" lon="113.268558">
        <time>2026-06-20T23:32:06Z</time>
      </trkpt>
      <trkpt lat="23.067755" lon="113.268599">
        <time>2026-06-20T23:32:11Z</time>
      </trkpt>
      <trkpt lat="23.067881" lon="113.268644">
        <time>2026-06-20T23:32:16Z</time>
      </trkpt>
      <trkpt lat="23.067962" lon="113.268682">
        <time>2026-06-20T23:32:21Z</time>
      </trkpt>
      <trkpt lat="23.068077" lon="113.268745">
        <time>2026-06-20T23:32:26Z</time>
      </trkpt>
      <trkpt lat="23.068159" lon="113.268776">
        <time>2026-06-20T23:32:31Z</time>
      </trkpt>
      <trkpt lat="23.068269" lon="113.26882">
        <time>2026-06-20T23:32:36Z</time>
      </trkpt>
      <trkpt lat="23.068338" lon="113.268858">
        <time>2026-06-20T23:32:41Z</time>
      </trkpt>
      <trkpt lat="23.068446" lon="113.268926">
        <time>2026-06-20T23:32:46Z</time>
      </trkpt>
      <trkpt lat="23.068524" lon="113.268967">
        <time>2026-06-20T23:32:51Z</time>
      </trkpt>
      <trkpt lat="23.068655" lon="113.26903">
        <time>2026-06-20T23:32:56Z</time>
      </trkpt>
      <trkpt lat="23.068743" lon="113.269077">
        <time>2026-06-20T23:33:01Z</time>
      </trkpt>
      <trkpt lat="23.068861" lon="113.269138">
        <time>2026-06-20T23:33:06Z</time>
      </trkpt>
      <trkpt lat="23.068938" lon="113.269168">
        <time>2026-06-20T23:33:11Z</time>
      </trkpt>
      <trkpt lat="23.069027" lon="113.269192">
        <time>2026-06-20T23:33:16Z</time>
      </trkpt>
      <trkpt lat="23.069097" lon="113.269222">
        <time>2026-06-20T23:33:21Z</time>
      </trkpt>
      <trkpt lat="23.069186" lon="113.269296">
        <time>2026-06-20T23:33:26Z</time>
      </trkpt>
      <trkpt lat="23.069263" lon="113.269344">
        <time>2026-06-20T23:33:31Z</time>
      </trkpt>
      <trkpt lat="23.069399" lon="113.26939">
        <time>2026-06-20T23:33:36Z</time>
      </trkpt>
      <trkpt lat="23.069483" lon="113.269422">
        <time>2026-06-20T23:33:41Z</time>
      </trkpt>
      <trkpt lat="23.069607" lon="113.269486">
        <time>2026-06-20T23:33:46Z</time>
      </trkpt>
      <trkpt lat="23.069692" lon="113.269529">
        <time>2026-06-20T23:33:51Z</time>
      </trkpt>
      <trkpt lat="23.069813" lon="113.26961">
        <time>2026-06-20T23:33:56Z</time>
      </trkpt>
      <trkpt lat="23.06989" lon="113.269664">
        <time>2026-06-20T23:34:01Z</time>
      </trkpt>
      <trkpt lat="23.070001" lon="113.269749">
        <time>2026-06-20T23:34:06Z</time>
      </trkpt>
      <trkpt lat="23.070081" lon="113.269803">
        <time>2026-06-20T23:34:11Z</time>
      </trkpt>
      <trkpt lat="23.07012" lon="113.269902">
        <time>2026-06-20T23:34:16Z</time>
      </trkpt>
      <trkpt lat="23.070084" lon="113.269937">
        <time>2026-06-20T23:34:21Z</time>
      </trkpt>
      <trkpt lat="23.069983" lon="113.269882">
        <time>2026-06-20T23:34:26Z</time>
      </trkpt>
      <trkpt lat="23.069958" lon="113.269806">
        <time>2026-06-20T23:34:31Z</time>
      </trkpt>
      <trkpt lat="23.06995" lon="113.269666">
        <time>2026-06-20T23:34:36Z</time>
      </trkpt>
      <trkpt lat="23.069901" lon="113.269593">
        <time>2026-06-20T23:34:41Z</time>
      </trkpt>
      <trkpt lat="23.069794" lon="113.269518">
        <time>2026-06-20T23:34:46Z</time>
      </trkpt>
      <trkpt lat="23.06972" lon="113.269479">
        <time>2026-06-20T23:34:51Z</time>
      </trkpt>
      <trkpt lat="23.069608" lon="113.269435">
        <time>2026-06-20T23:34:56Z</time>
      </trkpt>
      <trkpt lat="23.069526" lon="113.269395">
        <time>2026-06-20T23:35:01Z</time>
      </trkpt>
      <trkpt lat="23.069392" lon="113.269319">
        <time>2026-06-20T23:35:06Z</time>
      </trkpt>
      <trkpt lat="23.069312" lon="113.269272">
        <time>2026-06-20T23:35:11Z</time>
      </trkpt>
      <trkpt lat="23.069208" lon="113.269202">
        <time>2026-06-20T23:35:16Z</time>
      </trkpt>
      <trkpt lat="23.069125" lon="113.26917">
        <time>2026-06-20T23:35:21Z</time>
      </trkpt>
      <trkpt lat="23.068987" lon="113.269125">
        <time>2026-06-20T23:35:26Z</time>
      </trkpt>
      <trkpt lat="23.068904" lon="113.269086">
        <time>2026-06-20T23:35:31Z</time>
      </trkpt>
      <trkpt lat="23.068775" lon="113.269037">
        <time>2026-06-20T23:35:36Z</time>
      </trkpt>
      <trkpt lat="23.068691" lon="113.269012">
        <time>2026-06-20T23:35:41Z</time>
      </trkpt>
      <trkpt lat="23.068569" lon="113.268982">
        <time>2026-06-20T23:35:46Z</time>
      </trkpt>
      <trkpt lat="23.068498" lon="113.268946">
        <time>2026-06-20T23:35:51Z</time>
      </trkpt>
      <trkpt lat="23.068388" lon="113.268885">
        <time>2026-06-20T23:35:56Z</time>
      </trkpt>
      <trkpt lat="23.068306" lon="113.268843">
        <time>2026-06-20T23:36:01Z</time>
      </trkpt>
      <trkpt lat="23.068193" lon="113.268774">
        <time>2026-06-20T23:36:06Z</time>
      </trkpt>
      <trkpt lat="23.06811" lon="113.26874">
        <time>2026-06-20T23:36:11Z</time>
      </trkpt>
      <trkpt lat="23.06801" lon="113.268636">
        <time>2026-06-20T23:36:16Z</time>
      </trkpt>
      <trkpt lat="23.067938" lon="113.268574">
        <time>2026-06-20T23:36:21Z</time>
      </trkpt>
      <trkpt lat="23.067802" lon="113.268535">
        <time>2026-06-20T23:36:26Z</time>
      </trkpt>
      <trkpt lat="23.067727" lon="113.268506">
        <time>2026-06-20T23:36:31Z</time>
      </trkpt>
      <trkpt lat="23.067607" lon="113.268457">
        <time>2026-06-20T23:36:36Z</time>
      </trkpt>
      <trkpt lat="23.067528" lon="113.268418">
        <time>2026-06-20T23:36:41Z</time>
      </trkpt>
      <trkpt lat="23.067421" lon="113.268356">
        <time>2026-06-20T23:36:46Z</time>
      </trkpt>
      <trkpt lat="23.067352" lon="113.268316">
        <time>2026-06-20T23:36:51Z</time>
      </trkpt>
      <trkpt lat="23.067251" lon="113.268262">
        <time>2026-06-20T23:36:56Z</time>
      </trkpt>
      <trkpt lat="23.067174" lon="113.268229">
        <time>2026-06-20T23:37:01Z</time>
      </trkpt>
      <trkpt lat="23.067062" lon="113.268174">
        <time>2026-06-20T23:37:06Z</time>
      </trkpt>
      <trkpt lat="23.066988" lon="113.268143">
        <time>2026-06-20T23:37:11Z</time>
      </trkpt>
      <trkpt lat="23.066868" lon="113.268121">
        <time>2026-06-20T23:37:16Z</time>
      </trkpt>
      <trkpt lat="23.066784" lon="113.268134">
        <time>2026-06-20T23:37:21Z</time>
      </trkpt>
      <trkpt lat="23.06666" lon="113.26815">
        <time>2026-06-20T23:37:26Z</time>
      </trkpt>
      <trkpt lat="23.066578" lon="113.268129">
        <time>2026-06-20T23:37:31Z</time>
      </trkpt>
      <trkpt lat="23.066454" lon="113.268125">
        <time>2026-06-20T23:37:36Z</time>
      </trkpt>
      <trkpt lat="23.066377" lon="113.268159">
        <time>2026-06-20T23:37:41Z</time>
      </trkpt>
      <trkpt lat="23.066279" lon="113.268251">
        <time>2026-06-20T23:37:46Z</time>
      </trkpt>
      <trkpt lat="23.066223" lon="113.26832">
        <time>2026-06-20T23:37:51Z</time>
      </trkpt>
      <trkpt lat="23.066139" lon="113.268423">
        <time>2026-06-20T23:37:56Z</time>
      </trkpt>
      <trkpt lat="23.066087" lon="113.268494">
        <time>2026-06-20T23:38:01Z</time>
      </trkpt>
      <trkpt lat="23.066013" lon="113.2686">
        <time>2026-06-20T23:38:06Z</time>
      </trkpt>
      <trkpt lat="23.065966" lon="113.268673">
        <time>2026-06-20T23:38:11Z</time>
      </trkpt>
      <trkpt lat="23.065907" lon="113.268786">
        <time>2026-06-20T23:38:16Z</time>
      </trkpt>
      <trkpt lat="23.065874" lon="113.268868">
        <time>2026-06-20T23:38:21Z</time>
      </trkpt>
      <trkpt lat="23.065828" lon="113.269">
        <time>2026-06-20T23:38:26Z</time>
      </trkpt>
      <trkpt lat="23.065802" lon="113.269088">
        <time>2026-06-20T23:38:31Z</time>
      </trkpt>
      <trkpt lat="23.065774" lon="113.269215">
        <time>2026-06-20T23:38:36Z</time>
      </trkpt>
      <trkpt lat="23.065757" lon="113.269298">
        <time>2026-06-20T23:38:41Z</time>
      </trkpt>
      <trkpt lat="23.065745" lon="113.26943">
        <time>2026-06-20T23:38:46Z</time>
      </trkpt>
      <trkpt lat="23.065742" lon="113.269525">
        <time>2026-06-20T23:38:51Z</time>
      </trkpt>
      <trkpt lat="23.065694" lon="113.269647">
        <time>2026-06-20T23:38:56Z</time>
      </trkpt>
      <trkpt lat="23.065667" lon="113.269731">
        <time>2026-06-20T23:39:01Z</time>
      </trkpt>
      <trkpt lat="23.065659" lon="113.269856">
        <time>2026-06-20T23:39:06Z</time>
      </trkpt>
      <trkpt lat="23.065637" lon="113.26994">
        <time>2026-06-20T23:39:11Z</time>
      </trkpt>
      <trkpt lat="23.065595" lon="113.27007">
        <time>2026-06-20T23:39:16Z</time>
      </trkpt>
      <trkpt lat="23.065562" lon="113.270148">
        <time>2026-06-20T23:39:21Z</time>
      </trkpt>
      <trkpt lat="23.065473" lon="113.270238">
        <time>2026-06-20T23:39:26Z</time>
      </trkpt>
      <trkpt lat="23.065425" lon="113.270315">
        <time>2026-06-20T23:39:31Z</time>
      </trkpt>
      <trkpt lat="23.065373" lon="113.270441">
        <time>2026-06-20T23:39:36Z</time>
      </trkpt>
      <trkpt lat="23.065354" lon="113.270527">
        <time>2026-06-20T23:39:41Z</time>
      </trkpt>
      <trkpt lat="23.065323" lon="113.270649">
        <time>2026-06-20T23:39:46Z</time>
      </trkpt>
      <trkpt lat="23.065283" lon="113.270728">
        <time>2026-06-20T23:39:51Z</time>
      </trkpt>
      <trkpt lat="23.065223" lon="113.270846">
        <time>2026-06-20T23:39:56Z</time>
      </trkpt>
      <trkpt lat="23.0652" lon="113.270932">
        <time>2026-06-20T23:40:01Z</time>
      </trkpt>
      <trkpt lat="23.065249" lon="113.271055">
        <time>2026-06-20T23:40:06Z</time>
      </trkpt>
      <trkpt lat="23.065318" lon="113.271096">
        <time>2026-06-20T23:40:11Z</time>
      </trkpt>
      <trkpt lat="23.065424" lon="113.271127">
        <time>2026-06-20T23:40:16Z</time>
      </trkpt>
      <trkpt lat="23.065499" lon="113.271147">
        <time>2026-06-20T23:40:21Z</time>
      </trkpt>
      <trkpt lat="23.065625" lon="113.271189">
        <time>2026-06-20T23:40:26Z</time>
      </trkpt>
      <trkpt lat="23.06571" lon="113.271222">
        <time>2026-06-20T23:40:31Z</time>
      </trkpt>
      <trkpt lat="23.06583" lon="113.271263">
        <time>2026-06-20T23:40:36Z</time>
      </trkpt>
      <trkpt lat="23.065914" lon="113.271288">
        <time>2026-06-20T23:40:41Z</time>
      </trkpt>
      <trkpt lat="23.065893" lon="113.271364">
        <time>2026-06-20T23:40:46Z</time>
      </trkpt>
      <trkpt lat="23.065794" lon="113.27137">
        <time>2026-06-20T23:40:51Z</time>
      </trkpt>
      <trkpt lat="23.065658" lon="113.271323">
        <time>2026-06-20T23:40:56Z</time>
      </trkpt>
      <trkpt lat="23.065573" lon="113.27129">
        <time>2026-06-20T23:41:01Z</time>
      </trkpt>
      <trkpt lat="23.065451" lon="113.271249">
        <time>2026-06-20T23:41:06Z</time>
      </trkpt>
      <trkpt lat="23.065372" lon="113.27122">
        <time>2026-06-20T23:41:11Z</time>
      </trkpt>
      <trkpt lat="23.065252" lon="113.271172">
        <time>2026-06-20T23:41:16Z</time>
      </trkpt>
      <trkpt lat="23.065168" lon="113.271145">
        <time>2026-06-20T23:41:21Z</time>
      </trkpt>
      <trkpt lat="23.065058" lon="113.271198">
        <time>2026-06-20T23:41:26Z</time>
      </trkpt>
      <trkpt lat="23.065014" lon="113.271273">
        <time>2026-06-20T23:41:31Z</time>
      </trkpt>
      <trkpt lat="23.064977" lon="113.271399">
        <time>2026-06-20T23:41:36Z</time>
      </trkpt>
      <trkpt lat="23.06496" lon="113.271482">
        <time>2026-06-20T23:41:41Z</time>
      </trkpt>
      <trkpt lat="23.064905" lon="113.271597">
        <time>2026-06-20T23:41:46Z</time>
      </trkpt>
      <trkpt lat="23.064838" lon="113.271658">
        <time>2026-06-20T23:41:51Z</time>
      </trkpt>
      <trkpt lat="23.064763" lon="113.271775">
        <time>2026-06-20T23:41:56Z</time>
      </trkpt>
      <trkpt lat="23.064724" lon="113.271858">
        <time>2026-06-20T23:42:01Z</time>
      </trkpt>
      <trkpt lat="23.064674" lon="113.271982">
        <time>2026-06-20T23:42:06Z</time>
      </trkpt>
      <trkpt lat="23.064628" lon="113.272059">
        <time>2026-06-20T23:42:11Z</time>
      </trkpt>
      <trkpt lat="23.064562" lon="113.27218">
        <time>2026-06-20T23:42:16Z</time>
      </trkpt>
      <trkpt lat="23.064583" lon="113.272227">
        <time>2026-06-20T23:42:21Z</time>
      </trkpt>
      <trkpt lat="23.064656" lon="113.272126">
        <time>2026-06-20T23:42:26Z</time>
      </trkpt>
      <trkpt lat="23.064701" lon="113.272041">
        <time>2026-06-20T23:42:31Z</time>
      </trkpt>
      <trkpt lat="23.06478" lon="113.27193">
        <time>2026-06-20T23:42:36Z</time>
      </trkpt>
      <trkpt lat="23.064824" lon="113.271852">
        <time>2026-06-20T23:42:41Z</time>
      </trkpt>
      <trkpt lat="23.064883" lon="113.271727">
        <time>2026-06-20T23:42:46Z</time>
      </trkpt>
      <trkpt lat="23.064921" lon="113.271638">
        <time>2026-06-20T23:42:51Z</time>
      </trkpt>
      <trkpt lat="23.064985" lon="113.271521">
        <time>2026-06-20T23:42:56Z</time>
      </trkpt>
      <trkpt lat="23.065029" lon="113.271447">
        <time>2026-06-20T23:43:01Z</time>
      </trkpt>
      <trkpt lat="23.065071" lon="113.271338">
        <time>2026-06-20T23:43:06Z</time>
      </trkpt>
      <trkpt lat="23.065113" lon="113.271258">
        <time>2026-06-20T23:43:11Z</time>
      </trkpt>
      <trkpt lat="23.065236" lon="113.271202">
        <time>2026-06-20T23:43:16Z</time>
      </trkpt>
      <trkpt lat="23.065312" lon="113.271213">
        <time>2026-06-20T23:43:21Z</time>
      </trkpt>
      <trkpt lat="23.06541" lon="113.271263">
        <time>2026-06-20T23:43:26Z</time>
      </trkpt>
      <trkpt lat="23.065477" lon="113.271288">
        <time>2026-06-20T23:43:31Z</time>
      </trkpt>
      <trkpt lat="23.065589" lon="113.271318">
        <time>2026-06-20T23:43:36Z</time>
      </trkpt>
      <trkpt lat="23.065667" lon="113.271355">
        <time>2026-06-20T23:43:41Z</time>
      </trkpt>
      <trkpt lat="23.065791" lon="113.271403">
        <time>2026-06-20T23:43:46Z</time>
      </trkpt>
      <trkpt lat="23.065872" lon="113.271406">
        <time>2026-06-20T23:43:51Z</time>
      </trkpt>
      <trkpt lat="23.065863" lon="113.271297">
        <time>2026-06-20T23:43:56Z</time>
      </trkpt>
      <trkpt lat="23.065839" lon="113.271188">
        <time>2026-06-20T23:44:01Z</time>
      </trkpt>
      <trkpt lat="23.06588" lon="113.271037">
        <time>2026-06-20T23:44:06Z</time>
      </trkpt>
      <trkpt lat="23.065922" lon="113.270939">
        <time>2026-06-20T23:44:11Z</time>
      </trkpt>
      <trkpt lat="23.065965" lon="113.270779">
        <time>2026-06-20T23:44:16Z</time>
      </trkpt>
      <trkpt lat="23.065944" lon="113.270665">
        <time>2026-06-20T23:44:21Z</time>
      </trkpt>
      <trkpt lat="23.065847" lon="113.270542">
        <time>2026-06-20T23:44:26Z</time>
      </trkpt>
      <trkpt lat="23.065757" lon="113.270512">
        <time>2026-06-20T23:44:31Z</time>
      </trkpt>
      <trkpt lat="23.065626" lon="113.270539">
        <time>2026-06-20T23:44:36Z</time>
      </trkpt>
      <trkpt lat="23.065568" lon="113.270504">
        <time>2026-06-20T23:44:41Z</time>
      </trkpt>
      <trkpt lat="23.065528" lon="113.270367">
        <time>2026-06-20T23:44:46Z</time>
      </trkpt>
      <trkpt lat="23.065511" lon="113.27028">
        <time>2026-06-20T23:44:51Z</time>
      </trkpt>
      <trkpt lat="23.065551" lon="113.270161">
        <time>2026-06-20T23:44:56Z</time>
      </trkpt>
      <trkpt lat="23.065584" lon="113.270078">
        <time>2026-06-20T23:45:01Z</time>
      </trkpt>
      <trkpt lat="23.065637" lon="113.26995">
        <time>2026-06-20T23:45:06Z</time>
      </trkpt>
      <trkpt lat="23.065665" lon="113.269867">
        <time>2026-06-20T23:45:11Z</time>
      </trkpt>
      <trkpt lat="23.065698" lon="113.26976">
        <time>2026-06-20T23:45:16Z</time>
      </trkpt>
      <trkpt lat="23.065715" lon="113.269681">
        <time>2026-06-20T23:45:21Z</time>
      </trkpt>
      <trkpt lat="23.065751" lon="113.26955">
        <time>2026-06-20T23:45:26Z</time>
      </trkpt>
      <trkpt lat="23.065762" lon="113.269459">
        <time>2026-06-20T23:45:31Z</time>
      </trkpt>
      <trkpt lat="23.065785" lon="113.269329">
        <time>2026-06-20T23:45:36Z</time>
      </trkpt>
      <trkpt lat="23.065814" lon="113.269244">
        <time>2026-06-20T23:45:41Z</time>
      </trkpt>
      <trkpt lat="23.065852" lon="113.269122">
        <time>2026-06-20T23:45:46Z</time>
      </trkpt>
      <trkpt lat="23.065883" lon="113.269041">
        <time>2026-06-20T23:45:51Z</time>
      </trkpt>
      <trkpt lat="23.065933" lon="113.26892">
        <time>2026-06-20T23:45:56Z</time>
      </trkpt>
      <trkpt lat="23.065962" lon="113.268843">
        <time>2026-06-20T23:46:01Z</time>
      </trkpt>
      <trkpt lat="23.06601" lon="113.268722">
        <time>2026-06-20T23:46:06Z</time>
      </trkpt>
      <trkpt lat="23.066053" lon="113.268645">
        <time>2026-06-20T23:46:11Z</time>
      </trkpt>
      <trkpt lat="23.06613" lon="113.268526">
        <time>2026-06-20T23:46:16Z</time>
      </trkpt>
      <trkpt lat="23.066185" lon="113.268449">
        <time>2026-06-20T23:46:21Z</time>
      </trkpt>
      <trkpt lat="23.066267" lon="113.268344">
        <time>2026-06-20T23:46:26Z</time>
      </trkpt>
      <trkpt lat="23.066322" lon="113.268275">
        <time>2026-06-20T23:46:31Z</time>
      </trkpt>
      <trkpt lat="23.066419" lon="113.268183">
        <time>2026-06-20T23:46:36Z</time>
      </trkpt>
      <trkpt lat="23.066495" lon="113.268157">
        <time>2026-06-20T23:46:41Z</time>
      </trkpt>
      <trkpt lat="23.066616" lon="113.268161">
        <time>2026-06-20T23:46:46Z</time>
      </trkpt>
      <trkpt lat="23.066698" lon="113.268173">
        <time>2026-06-20T23:46:51Z</time>
      </trkpt>
      <trkpt lat="23.066823" lon="113.268177">
        <time>2026-06-20T23:46:56Z</time>
      </trkpt>
      <trkpt lat="23.066905" lon="113.268184">
        <time>2026-06-20T23:47:01Z</time>
      </trkpt>
      <trkpt lat="23.067023" lon="113.26821">
        <time>2026-06-20T23:47:06Z</time>
      </trkpt>
      <trkpt lat="23.067088" lon="113.26825">
        <time>2026-06-20T23:47:11Z</time>
      </trkpt>
      <trkpt lat="23.067176" lon="113.268304">
        <time>2026-06-20T23:47:16Z</time>
      </trkpt>
      <trkpt lat="23.067245" lon="113.268356">
        <time>2026-06-20T23:47:21Z</time>
      </trkpt>
      <trkpt lat="23.067355" lon="113.268426">
        <time>2026-06-20T23:47:26Z</time>
      </trkpt>
      <trkpt lat="23.067431" lon="113.268461">
        <time>2026-06-20T23:47:31Z</time>
      </trkpt>
      <trkpt lat="23.067549" lon="113.268516">
        <time>2026-06-20T23:47:36Z</time>
      </trkpt>
      <trkpt lat="23.067638" lon="113.26856">
        <time>2026-06-20T23:47:41Z</time>
      </trkpt>
      <trkpt lat="23.067765" lon="113.268618">
        <time>2026-06-20T23:47:46Z</time>
      </trkpt>
      <trkpt lat="23.067847" lon="113.268653">
        <time>2026-06-20T23:47:51Z</time>
      </trkpt>
      <trkpt lat="23.067966" lon="113.268716">
        <time>2026-06-20T23:47:56Z</time>
      </trkpt>
      <trkpt lat="23.068043" lon="113.268746">
        <time>2026-06-20T23:48:01Z</time>
      </trkpt>
      <trkpt lat="23.06816" lon="113.268795">
        <time>2026-06-20T23:48:06Z</time>
      </trkpt>
      <trkpt lat="23.068234" lon="113.268829">
        <time>2026-06-20T23:48:11Z</time>
      </trkpt>
      <trkpt lat="23.068356" lon="113.268878">
        <time>2026-06-20T23:48:16Z</time>
      </trkpt>
      <trkpt lat="23.068426" lon="113.26892">
        <time>2026-06-20T23:48:21Z</time>
      </trkpt>
      <trkpt lat="23.068516" lon="113.268992">
        <time>2026-06-20T23:48:26Z</time>
      </trkpt>
      <trkpt lat="23.068586" lon="113.269045">
        <time>2026-06-20T23:48:31Z</time>
      </trkpt>
      <trkpt lat="23.068706" lon="113.269124">
        <time>2026-06-20T23:48:36Z</time>
      </trkpt>
      <trkpt lat="23.068797" lon="113.269147">
        <time>2026-06-20T23:48:41Z</time>
      </trkpt>
      <trkpt lat="23.068946" lon="113.269136">
        <time>2026-06-20T23:48:46Z</time>
      </trkpt>
      <trkpt lat="23.069027" lon="113.269168">
        <time>2026-06-20T23:48:51Z</time>
      </trkpt>
      <trkpt lat="23.069092" lon="113.269203">
        <time>2026-06-20T23:48:56Z</time>
      </trkpt>
      <trkpt lat="23.069036" lon="113.269155">
        <time>2026-06-20T23:49:01Z</time>
      </trkpt>
      <trkpt lat="23.068924" lon="113.26907">
        <time>2026-06-20T23:49:06Z</time>
      </trkpt>
      <trkpt lat="23.068841" lon="113.269038">
        <time>2026-06-20T23:49:11Z</time>
      </trkpt>
      <trkpt lat="23.068726" lon="113.268982">
        <time>2026-06-20T23:49:16Z</time>
      </trkpt>
      <trkpt lat="23.068652" lon="113.268957">
        <time>2026-06-20T23:49:21Z</time>
      </trkpt>
      <trkpt lat="23.068533" lon="113.268936">
        <time>2026-06-20T23:49:26Z</time>
      </trkpt>
      <trkpt lat="23.068442" lon="113.268927">
        <time>2026-06-20T23:49:31Z</time>
      </trkpt>
      <trkpt lat="23.068308" lon="113.26889">
        <time>2026-06-20T23:49:36Z</time>
      </trkpt>
      <trkpt lat="23.068229" lon="113.268842">
        <time>2026-06-20T23:49:41Z</time>
      </trkpt>
      <trkpt lat="23.068106" lon="113.268768">
        <time>2026-06-20T23:49:46Z</time>
      </trkpt>
      <trkpt lat="23.068035" lon="113.26871">
        <time>2026-06-20T23:49:51Z</time>
      </trkpt>
      <trkpt lat="23.067925" lon="113.268615">
        <time>2026-06-20T23:49:56Z</time>
      </trkpt>
      <trkpt lat="23.067842" lon="113.268568">
        <time>2026-06-20T23:50:01Z</time>
      </trkpt>
      <trkpt lat="23.067725" lon="113.268498">
        <time>2026-06-20T23:50:06Z</time>
      </trkpt>
      <trkpt lat="23.06765" lon="113.268457">
        <time>2026-06-20T23:50:11Z</time>
      </trkpt>
      <trkpt lat="23.067531" lon="113.268404">
        <time>2026-06-20T23:50:16Z</time>
      </trkpt>
      <trkpt lat="23.067454" lon="113.268367">
        <time>2026-06-20T23:50:21Z</time>
      </trkpt>
      <trkpt lat="23.067344" lon="113.268317">
        <time>2026-06-20T23:50:26Z</time>
      </trkpt>
      <trkpt lat="23.067274" lon="113.268282">
        <time>2026-06-20T23:50:31Z</time>
      </trkpt>
      <trkpt lat="23.067167" lon="113.268232">
        <time>2026-06-20T23:50:36Z</time>
      </trkpt>
      <trkpt lat="23.067094" lon="113.268186">
        <time>2026-06-20T23:50:41Z</time>
      </trkpt>
      <trkpt lat="23.066969" lon="113.268134">
        <time>2026-06-20T23:50:46Z</time>
      </trkpt>
      <trkpt lat="23.066879" lon="113.268117">
        <time>2026-06-20T23:50:51Z</time>
      </trkpt>
      <trkpt lat="23.066746" lon="113.268127">
        <time>2026-06-20T23:50:56Z</time>
      </trkpt>
      <trkpt lat="23.066659" lon="113.268128">
        <time>2026-06-20T23:51:01Z</time>
      </trkpt>
      <trkpt lat="23.066532" lon="113.268102">
        <time>2026-06-20T23:51:06Z</time>
      </trkpt>
      <trkpt lat="23.066449" lon="113.268101">
        <time>2026-06-20T23:51:11Z</time>
      </trkpt>
      <trkpt lat="23.06634" lon="113.268157">
        <time>2026-06-20T23:51:16Z</time>
      </trkpt>
      <trkpt lat="23.066285" lon="113.26822">
        <time>2026-06-20T23:51:21Z</time>
      </trkpt>
      <trkpt lat="23.066206" lon="113.268321">
        <time>2026-06-20T23:51:26Z</time>
      </trkpt>
      <trkpt lat="23.066151" lon="113.268395">
        <time>2026-06-20T23:51:31Z</time>
      </trkpt>
      <trkpt lat="23.066073" lon="113.268504">
        <time>2026-06-20T23:51:36Z</time>
      </trkpt>
      <trkpt lat="23.066024" lon="113.268575">
        <time>2026-06-20T23:51:41Z</time>
      </trkpt>
      <trkpt lat="23.065956" lon="113.26868">
        <time>2026-06-20T23:51:46Z</time>
      </trkpt>
      <trkpt lat="23.06592" lon="113.268753">
        <time>2026-06-20T23:51:51Z</time>
      </trkpt>
      <trkpt lat="23.065876" lon="113.268869">
        <time>2026-06-20T23:51:56Z</time>
      </trkpt>
      <trkpt lat="23.065846" lon="113.268947">
        <time>2026-06-20T23:52:01Z</time>
      </trkpt>
      <trkpt lat="23.065802" lon="113.269065">
        <time>2026-06-20T23:52:06Z</time>
      </trkpt>
      <trkpt lat="23.065781" lon="113.269152">
        <time>2026-06-20T23:52:11Z</time>
      </trkpt>
      <trkpt lat="23.065752" lon="113.269289">
        <time>2026-06-20T23:52:16Z</time>
      </trkpt>
      <trkpt lat="23.065741" lon="113.269381">
        <time>2026-06-20T23:52:21Z</time>
      </trkpt>
      <trkpt lat="23.065715" lon="113.269514">
        <time>2026-06-20T23:52:26Z</time>
      </trkpt>
      <trkpt lat="23.065686" lon="113.269595">
        <time>2026-06-20T23:52:31Z</time>
      </trkpt>
      <trkpt lat="23.065659" lon="113.269713">
        <time>2026-06-20T23:52:36Z</time>
      </trkpt>
      <trkpt lat="23.065683" lon="113.269715">
        <time>2026-06-20T23:52:41Z</time>
      </trkpt>
      <trkpt lat="23.065725" lon="113.269585">
        <time>2026-06-20T23:52:46Z</time>
      </trkpt>
      <trkpt lat="23.065743" lon="113.269486">
        <time>2026-06-20T23:52:51Z</time>
      </trkpt>
      <trkpt lat="23.065774" lon="113.26934">
        <time>2026-06-20T23:52:56Z</time>
      </trkpt>
      <trkpt lat="23.0658" lon="113.269248">
        <time>2026-06-20T23:53:01Z</time>
      </trkpt>
      <trkpt lat="23.065843" lon="113.269121">
        <time>2026-06-20T23:53:06Z</time>
      </trkpt>
      <trkpt lat="23.065878" lon="113.269041">
        <time>2026-06-20T23:53:11Z</time>
      </trkpt>
      <trkpt lat="23.065931" lon="113.268925">
        <time>2026-06-20T23:53:16Z</time>
      </trkpt>
      <trkpt lat="23.065963" lon="113.268849">
        <time>2026-06-20T23:53:21Z</time>
      </trkpt>
      <trkpt lat="23.066014" lon="113.268729">
        <time>2026-06-20T23:53:26Z</time>
      </trkpt>
      <trkpt lat="23.066056" lon="113.268657">
        <time>2026-06-20T23:53:31Z</time>
      </trkpt>
      <trkpt lat="23.066132" lon="113.268548">
        <time>2026-06-20T23:53:36Z</time>
      </trkpt>
      <trkpt lat="23.066179" lon="113.268468">
        <time>2026-06-20T23:53:41Z</time>
      </trkpt>
      <trkpt lat="23.066249" lon="113.26835">
        <time>2026-06-20T23:53:46Z</time>
      </trkpt>
      <trkpt lat="23.066304" lon="113.268273">
        <time>2026-06-20T23:53:51Z</time>
      </trkpt>
      <trkpt lat="23.06641" lon="113.268186">
        <time>2026-06-20T23:53:56Z</time>
      </trkpt>
      <trkpt lat="23.066487" lon="113.268157">
        <time>2026-06-20T23:54:01Z</time>
      </trkpt>
      <trkpt lat="23.066613" lon="113.268163">
        <time>2026-06-20T23:54:06Z</time>
      </trkpt>
      <trkpt lat="23.066704" lon="113.26818">
        <time>2026-06-20T23:54:11Z</time>
      </trkpt>
      <trkpt lat="23.066842" lon="113.268186">
        <time>2026-06-20T23:54:16Z</time>
      </trkpt>
      <trkpt lat="23.066931" lon="113.268198">
        <time>2026-06-20T23:54:21Z</time>
      </trkpt>
      <trkpt lat="23.067047" lon="113.268227">
        <time>2026-06-20T23:54:26Z</time>
      </trkpt>
      <trkpt lat="23.067114" lon="113.268259">
        <time>2026-06-20T23:54:31Z</time>
      </trkpt>
      <trkpt lat="23.067205" lon="113.268307">
        <time>2026-06-20T23:54:36Z</time>
      </trkpt>
      <trkpt lat="23.067269" lon="113.268345">
        <time>2026-06-20T23:54:41Z</time>
      </trkpt>
      <trkpt lat="23.067363" lon="113.268411">
        <time>2026-06-20T23:54:46Z</time>
      </trkpt>
      <trkpt lat="23.067428" lon="113.268445">
        <time>2026-06-20T23:54:51Z</time>
      </trkpt>
      <trkpt lat="23.067536" lon="113.268502">
        <time>2026-06-20T23:54:56Z</time>
      </trkpt>
      <trkpt lat="23.067618" lon="113.268545">
        <time>2026-06-20T23:55:01Z</time>
      </trkpt>
      <trkpt lat="23.067754" lon="113.268606">
        <time>2026-06-20T23:55:06Z</time>
      </trkpt>
      <trkpt lat="23.067835" lon="113.268644">
        <time>2026-06-20T23:55:11Z</time>
      </trkpt>
      <trkpt lat="23.067941" lon="113.268704">
        <time>2026-06-20T23:55:16Z</time>
      </trkpt>
      <trkpt lat="23.068011" lon="113.268749">
        <time>2026-06-20T23:55:21Z</time>
      </trkpt>
      <trkpt lat="23.068115" lon="113.268794">
        <time>2026-06-20T23:55:26Z</time>
      </trkpt>
      <trkpt lat="23.068188" lon="113.268824">
        <time>2026-06-20T23:55:31Z</time>
      </trkpt>
      <trkpt lat="23.068301" lon="113.268862">
        <time>2026-06-20T23:55:36Z</time>
      </trkpt>
      <trkpt lat="23.06838" lon="113.268894">
        <time>2026-06-20T23:55:41Z</time>
      </trkpt>
      <trkpt lat="23.068498" lon="113.268964">
        <time>2026-06-20T23:55:46Z</time>
      </trkpt>
      <trkpt lat="23.068566" lon="113.26902">
        <time>2026-06-20T23:55:51Z</time>
      </trkpt>
      <trkpt lat="23.068667" lon="113.269107">
        <time>2026-06-20T23:55:56Z</time>
      </trkpt>
      <trkpt lat="23.068745" lon="113.269147">
        <time>2026-06-20T23:56:01Z</time>
      </trkpt>
      <trkpt lat="23.068886" lon="113.269175">
        <time>2026-06-20T23:56:06Z</time>
      </trkpt>
      <trkpt lat="23.06897" lon="113.269189">
        <time>2026-06-20T23:56:11Z</time>
      </trkpt>
      <trkpt lat="23.069094" lon="113.269249">
        <time>2026-06-20T23:56:16Z</time>
      </trkpt>
      <trkpt lat="23.069183" lon="113.269307">
        <time>2026-06-20T23:56:21Z</time>
      </trkpt>
      <trkpt lat="23.069304" lon="113.269366">
        <time>2026-06-20T23:56:26Z</time>
      </trkpt>
      <trkpt lat="23.069388" lon="113.269397">
        <time>2026-06-20T23:56:31Z</time>
      </trkpt>
      <trkpt lat="23.069507" lon="113.269453">
        <time>2026-06-20T23:56:36Z</time>
      </trkpt>
      <trkpt lat="23.069584" lon="113.269487">
        <time>2026-06-20T23:56:41Z</time>
      </trkpt>
      <trkpt lat="23.069669" lon="113.269553">
        <time>2026-06-20T23:56:46Z</time>
      </trkpt>
      <trkpt lat="23.069675" lon="113.269629">
        <time>2026-06-20T23:56:51Z</time>
      </trkpt>
      <trkpt lat="23.069755" lon="113.269729">
        <time>2026-06-20T23:56:56Z</time>
      </trkpt>
      <trkpt lat="23.06983" lon="113.269787">
        <time>2026-06-20T23:57:01Z</time>
      </trkpt>
      <trkpt lat="23.069918" lon="113.269887">
        <time>2026-06-20T23:57:06Z</time>
      </trkpt>
      <trkpt lat="23.069981" lon="113.269956">
        <time>2026-06-20T23:57:11Z</time>
      </trkpt>
      <trkpt lat="23.070109" lon="113.269981">
        <time>2026-06-20T23:57:16Z</time>
      </trkpt>
      <trkpt lat="23.070192" lon="113.269933">
        <time>2026-06-20T23:57:21Z</time>
      </trkpt>
      <trkpt lat="23.070307" lon="113.2699">
        <time>2026-06-20T23:57:26Z</time>
      </trkpt>
      <trkpt lat="23.070386" lon="113.269928">
        <time>2026-06-20T23:57:31Z</time>
      </trkpt>
      <trkpt lat="23.070511" lon="113.269988">
        <time>2026-06-20T23:57:36Z</time>
      </trkpt>
      <trkpt lat="23.070602" lon="113.27002">
        <time>2026-06-20T23:57:41Z</time>
      </trkpt>
      <trkpt lat="23.070716" lon="113.270073">
        <time>2026-06-20T23:57:46Z</time>
      </trkpt>
      <trkpt lat="23.07079" lon="113.270117">
        <time>2026-06-20T23:57:51Z</time>
      </trkpt>
      <trkpt lat="23.070901" lon="113.270169">
        <time>2026-06-20T23:57:56Z</time>
      </trkpt>
      <trkpt lat="23.070985" lon="113.270184">
        <time>2026-06-20T23:58:01Z</time>
      </trkpt>
      <trkpt lat="23.071103" lon="113.270212">
        <time>2026-06-20T23:58:06Z</time>
      </trkpt>
      <trkpt lat="23.071181" lon="113.270251">
        <time>2026-06-20T23:58:11Z</time>
      </trkpt>
      <trkpt lat="23.071295" lon="113.27033">
        <time>2026-06-20T23:58:16Z</time>
      </trkpt>
      <trkpt lat="23.07137" lon="113.27037">
        <time>2026-06-20T23:58:21Z</time>
      </trkpt>
      <trkpt lat="23.071487" lon="113.270415">
        <time>2026-06-20T23:58:26Z</time>
      </trkpt>
      <trkpt lat="23.071561" lon="113.270443">
        <time>2026-06-20T23:58:31Z</time>
      </trkpt>
      <trkpt lat="23.071655" lon="113.270492">
        <time>2026-06-20T23:58:36Z</time>
      </trkpt>
      <trkpt lat="23.071712" lon="113.270543">
        <time>2026-06-20T23:58:41Z</time>
      </trkpt>
      <trkpt lat="23.071811" lon="113.270616">
        <time>2026-06-20T23:58:46Z</time>
      </trkpt>
      <trkpt lat="23.07188" lon="113.27066">
        <time>2026-06-20T23:58:51Z</time>
      </trkpt>
      <trkpt lat="23.072005" lon="113.270693">
        <time>2026-06-20T23:58:56Z</time>
      </trkpt>
      <trkpt lat="23.072102" lon="113.270714">
        <time>2026-06-20T23:59:01Z</time>
      </trkpt>
      <trkpt lat="23.072205" lon="113.270799">
        <time>2026-06-20T23:59:06Z</time>
      </trkpt>
      <trkpt lat="23.072259" lon="113.270859">
        <time>2026-06-20T23:59:11Z</time>
      </trkpt>
      <trkpt lat="23.072356" lon="113.270917">
        <time>2026-06-20T23:59:16Z</time>
      </trkpt>
      <trkpt lat="23.072417" lon="113.270947">
        <time>2026-06-20T23:59:21Z</time>
      </trkpt>
      <trkpt lat="23.07253" lon="113.271">
        <time>2026-06-20T23:59:26Z</time>
      </trkpt>
      <trkpt lat="23.072605" lon="113.271057">
        <time>2026-06-20T23:59:31Z</time>
      </trkpt>
      <trkpt lat="23.072719" lon="113.271116">
        <time>2026-06-20T23:59:36Z</time>
      </trkpt>
      <trkpt lat="23.072806" lon="113.271131">
        <time>2026-06-20T23:59:41Z</time>
      </trkpt>
      <trkpt lat="23.072915" lon="113.271164">
        <time>2026-06-20T23:59:46Z</time>
      </trkpt>
      <trkpt lat="23.072982" lon="113.2712">
        <time>2026-06-20T23:59:51Z</time>
      </trkpt>
      <trkpt lat="23.073094" lon="113.271248">
        <time>2026-06-20T23:59:56Z</time>
      </trkpt>
      <trkpt lat="23.073184" lon="113.271266">
        <time>2026-06-21T00:00:01Z</time>
      </trkpt>
      <trkpt lat="23.073264" lon="113.271316">
        <time>2026-06-21T00:00:06Z</time>
      </trkpt>
      <trkpt lat="23.073324" lon="113.271347">
        <time>2026-06-21T00:00:11Z</time>
      </trkpt>
      <trkpt lat="23.073429" lon="113.271394">
        <time>2026-06-21T00:00:16Z</time>
      </trkpt>
      <trkpt lat="23.073495" lon="113.271449">
        <time>2026-06-21T00:00:21Z</time>
      </trkpt>
      <trkpt lat="23.073588" lon="113.271537">
        <time>2026-06-21T00:00:26Z</time>
      </trkpt>
      <trkpt lat="23.073654" lon="113.271579">
        <time>2026-06-21T00:00:31Z</time>
      </trkpt>
      <trkpt lat="23.073765" lon="113.271631">
        <time>2026-06-21T00:00:36Z</time>
      </trkpt>
      <trkpt lat="23.073838" lon="113.271661">
        <time>2026-06-21T00:00:41Z</time>
      </trkpt>
      <trkpt lat="23.073934" lon="113.271696">
        <time>2026-06-21T00:00:46Z</time>
      </trkpt>
      <trkpt lat="23.073993" lon="113.271733">
        <time>2026-06-21T00:00:51Z</time>
      </trkpt>
      <trkpt lat="23.074074" lon="113.271795">
        <time>2026-06-21T00:00:56Z</time>
      </trkpt>
      <trkpt lat="23.074059" lon="113.271864">
        <time>2026-06-21T00:01:01Z</time>
      </trkpt>
      <trkpt lat="23.073996" lon="113.271974">
        <time>2026-06-21T00:01:06Z</time>
      </trkpt>
      <trkpt lat="23.073962" lon="113.272048">
        <time>2026-06-21T00:01:11Z</time>
      </trkpt>
      <trkpt lat="23.073925" lon="113.272171">
        <time>2026-06-21T00:01:16Z</time>
      </trkpt>
      <trkpt lat="23.073898" lon="113.272248">
        <time>2026-06-21T00:01:21Z</time>
      </trkpt>
      <trkpt lat="23.073866" lon="113.272356">
        <time>2026-06-21T00:01:26Z</time>
      </trkpt>
      <trkpt lat="23.073832" lon="113.272438">
        <time>2026-06-21T00:01:31Z</time>
      </trkpt>
      <trkpt lat="23.073787" lon="113.272555">
        <time>2026-06-21T00:01:36Z</time>
      </trkpt>
      <trkpt lat="23.073758" lon="113.272625">
        <time>2026-06-21T00:01:41Z</time>
      </trkpt>
      <trkpt lat="23.073786" lon="113.272603">
        <time>2026-06-21T00:01:46Z</time>
      </trkpt>
      <trkpt lat="23.073822" lon="113.272529">
        <time>2026-06-21T00:01:51Z</time>
      </trkpt>
      <trkpt lat="23.073807" lon="113.272531">
        <time>2026-06-21T00:01:56Z</time>
      </trkpt>
      <trkpt lat="23.073769" lon="113.272619">
        <time>2026-06-21T00:02:01Z</time>
      </trkpt>
      <trkpt lat="23.073738" lon="113.272722">
        <time>2026-06-21T00:02:06Z</time>
      </trkpt>
      <trkpt lat="23.073759" lon="113.272683">
        <time>2026-06-21T00:02:11Z</time>
      </trkpt>
      <trkpt lat="23.073735" lon="113.272694">
        <time>2026-06-21T00:02:16Z</time>
      </trkpt>
      <trkpt lat="23.073703" lon="113.272787">
        <time>2026-06-21T00:02:21Z</time>
      </trkpt>
      <trkpt lat="23.073749" lon="113.27292">
        <time>2026-06-21T00:02:26Z</time>
      </trkpt>
      <trkpt lat="23.073822" lon="113.272962">
        <time>2026-06-21T00:02:31Z</time>
      </trkpt>
      <trkpt lat="23.073941" lon="113.273014">
        <time>2026-06-21T00:02:36Z</time>
      </trkpt>
      <trkpt lat="23.074001" lon="113.272978">
        <time>2026-06-21T00:02:41Z</time>
      </trkpt>
      <trkpt lat="23.074051" lon="113.272847">
        <time>2026-06-21T00:02:46Z</time>
      </trkpt>
      <trkpt lat="23.074096" lon="113.272774">
        <time>2026-06-21T00:02:51Z</time>
      </trkpt>
      <trkpt lat="23.074137" lon="113.272656">
        <time>2026-06-21T00:02:56Z</time>
      </trkpt>
      <trkpt lat="23.074169" lon="113.272577">
        <time>2026-06-21T00:03:01Z</time>
      </trkpt>
      <trkpt lat="23.074214" lon="113.272469">
        <time>2026-06-21T00:03:06Z</time>
      </trkpt>
      <trkpt lat="23.074252" lon="113.272394">
        <time>2026-06-21T00:03:11Z</time>
      </trkpt>
      <trkpt lat="23.074301" lon="113.27228">
        <time>2026-06-21T00:03:16Z</time>
      </trkpt>
      <trkpt lat="23.074333" lon="113.2722">
        <time>2026-06-21T00:03:21Z</time>
      </trkpt>
      <trkpt lat="23.074403" lon="113.272084">
        <time>2026-06-21T00:03:26Z</time>
      </trkpt>
      <trkpt lat="23.074457" lon="113.272025">
        <time>2026-06-21T00:03:31Z</time>
      </trkpt>
      <trkpt lat="23.074562" lon="113.272015">
        <time>2026-06-21T00:03:36Z</time>
      </trkpt>
      <trkpt lat="23.074643" lon="113.272081">
        <time>2026-06-21T00:03:41Z</time>
      </trkpt>
      <trkpt lat="23.074752" lon="113.272152">
        <time>2026-06-21T00:03:46Z</time>
      </trkpt>
      <trkpt lat="23.074829" lon="113.272186">
        <time>2026-06-21T00:03:51Z</time>
      </trkpt>
      <trkpt lat="23.074938" lon="113.272254">
        <time>2026-06-21T00:03:56Z</time>
      </trkpt>
      <trkpt lat="23.075006" lon="113.272313">
        <time>2026-06-21T00:04:01Z</time>
      </trkpt>
      <trkpt lat="23.075098" lon="113.272397">
        <time>2026-06-21T00:04:06Z</time>
      </trkpt>
      <trkpt lat="23.075167" lon="113.272429">
        <time>2026-06-21T00:04:11Z</time>
      </trkpt>
      <trkpt lat="23.075279" lon="113.272472">
        <time>2026-06-21T00:04:16Z</time>
      </trkpt>
      <trkpt lat="23.075363" lon="113.272485">
        <time>2026-06-21T00:04:21Z</time>
      </trkpt>
      <trkpt lat="23.075487" lon="113.272521">
        <time>2026-06-21T00:04:26Z</time>
      </trkpt>
      <trkpt lat="23.075553" lon="113.272573">
        <time>2026-06-21T00:04:31Z</time>
      </trkpt>
      <trkpt lat="23.075658" lon="113.272641">
        <time>2026-06-21T00:04:36Z</time>
      </trkpt>
      <trkpt lat="23.075731" lon="113.272677">
        <time>2026-06-21T00:04:41Z</time>
      </trkpt>
      <trkpt lat="23.075854" lon="113.272739">
        <time>2026-06-21T00:04:46Z</time>
      </trkpt>
      <trkpt lat="23.075934" lon="113.27279">
        <time>2026-06-21T00:04:51Z</time>
      </trkpt>
      <trkpt lat="23.075984" lon="113.272885">
        <time>2026-06-21T00:04:56Z</time>
      </trkpt>
      <trkpt lat="23.075937" lon="113.272951">
        <time>2026-06-21T00:05:01Z</time>
      </trkpt>
      <trkpt lat="23.075848" lon="113.273039">
        <time>2026-06-21T00:05:06Z</time>
      </trkpt>
      <trkpt lat="23.075799" lon="113.273105">
        <time>2026-06-21T00:05:11Z</time>
      </trkpt>
      <trkpt lat="23.075741" lon="113.273221">
        <time>2026-06-21T00:05:16Z</time>
      </trkpt>
      <trkpt lat="23.075715" lon="113.273295">
        <time>2026-06-21T00:05:21Z</time>
      </trkpt>
      <trkpt lat="23.075739" lon="113.273268">
        <time>2026-06-21T00:05:26Z</time>
      </trkpt>
      <trkpt lat="23.075785" lon="113.273172">
        <time>2026-06-21T00:05:31Z</time>
      </trkpt>
    </trkseg>
  </trk>
</gpx>