<?xml version="1.0" encoding="UTF-8"?>
<gpx xmlns="http://www.topografix.com/GPX/1/1" xmlns:gpxtpx="http://www.garmin.com/xmlschemas/TrackPointExtension/v1" xmlns:xsi="http://www.w3.org/2001/XMLSchema-instance" xsi:schemaLocation="http://www.topografix.com/GPX/1/1 http://www.topografix.com/GPX/1/1/gpx.xsd" version="1.1" creator="gpx.py -- https://github.com/tkrajina/gpxpy">
  <trk>
    <name>gpx from joyrun</name>
    <trkseg>
      <trkpt lat="23.075907" lon="113.272771">
        <time>2026-06-22T21:45:42Z</time>
      </trkpt>
      <trkpt lat="23.07584" lon="113.272748">
        <time>2026-06-22T21:45:47Z</time>
      </trkpt>
      <trkpt lat="23.075731" lon="113.272693">
        <time>2026-06-22T21:45:52Z</time>
      </trkpt>
      <trkpt lat="23.075657" lon="113.272643">
        <time>2026-06-22T21:45:57Z</time>
      </trkpt>
      <trkpt lat="23.075536" lon="113.272583">
        <time>2026-06-22T21:46:02Z</time>
      </trkpt>
      <trkpt lat="23.075451" lon="113.27254">
        <time>2026-06-22T21:46:07Z</time>
      </trkpt>
      <trkpt lat="23.075318" lon="113.27248">
        <time>2026-06-22T21:46:12Z</time>
      </trkpt>
      <trkpt lat="23.075235" lon="113.272431">
        <time>2026-06-22T21:46:17Z</time>
      </trkpt>
      <trkpt lat="23.075125" lon="113.272342">
        <time>2026-06-22T21:46:22Z</time>
      </trkpt>
      <trkpt lat="23.075054" lon="113.272277">
        <time>2026-06-22T21:46:27Z</time>
      </trkpt>
      <trkpt lat="23.074938" lon="113.272185">
        <time>2026-06-22T21:46:32Z</time>
      </trkpt>
      <trkpt lat="23.074858" lon="113.272131">
        <time>2026-06-22T21:46:37Z</time>
      </trkpt>
      <trkpt lat="23.074711" lon="113.272068">
        <time>2026-06-22T21:46:42Z</time>
      </trkpt>
      <trkpt lat="23.074613" lon="113.272012">
        <time>2026-06-22T21:46:47Z</time>
      </trkpt>
      <trkpt lat="23.074482" lon="113.271935">
        <time>2026-06-22T21:46:52Z</time>
      </trkpt>
      <trkpt lat="23.074407" lon="113.271915">
        <time>2026-06-22T21:46:57Z</time>
      </trkpt>
      <trkpt lat="23.074347" lon="113.272044">
        <time>2026-06-22T21:47:02Z</time>
      </trkpt>
      <trkpt lat="23.074314" lon="113.272141">
        <time>2026-06-22T21:47:07Z</time>
      </trkpt>
      <trkpt lat="23.074276" lon="113.272298">
        <time>2026-06-22T21:47:12Z</time>
      </trkpt>
      <trkpt lat="23.074246" lon="113.272403">
        <time>2026-06-22T21:47:17Z</time>
      </trkpt>
      <trkpt lat="23.074195" lon="113.272537">
        <time>2026-06-22T21:47:22Z</time>
      </trkpt>
      <trkpt lat="23.074156" lon="113.272627">
        <time>2026-06-22T21:47:27Z</time>
      </trkpt>
      <trkpt lat="23.074104" lon="113.272764">
        <time>2026-06-22T21:47:32Z</time>
      </trkpt>
      <trkpt lat="23.074065" lon="113.272859">
        <time>2026-06-22T21:47:37Z</time>
      </trkpt>
      <trkpt lat="23.07401" lon="113.272994">
        <time>2026-06-22T21:47:42Z</time>
      </trkpt>
      <trkpt lat="23.073977" lon="113.273095">
        <time>2026-06-22T21:47:47Z</time>
      </trkpt>
      <trkpt lat="23.073924" lon="113.273238">
        <time>2026-06-22T21:47:52Z</time>
      </trkpt>
      <trkpt lat="23.073883" lon="113.273313">
        <time>2026-06-22T21:47:57Z</time>
      </trkpt>
      <trkpt lat="23.073871" lon="113.273281">
        <time>2026-06-22T21:48:02Z</time>
      </trkpt>
      <trkpt lat="23.073901" lon="113.2732">
        <time>2026-06-22T21:48:07Z</time>
      </trkpt>
      <trkpt lat="23.07395" lon="113.273078">
        <time>2026-06-22T21:48:12Z</time>
      </trkpt>
      <trkpt lat="23.073936" lon="113.272998">
        <time>2026-06-22T21:48:17Z</time>
      </trkpt>
      <trkpt lat="23.073815" lon="113.272933">
        <time>2026-06-22T21:48:22Z</time>
      </trkpt>
      <trkpt lat="23.073741" lon="113.272891">
        <time>2026-06-22T21:48:27Z</time>
      </trkpt>
      <trkpt lat="23.073692" lon="113.272805">
        <time>2026-06-22T21:48:32Z</time>
      </trkpt>
      <trkpt lat="23.073728" lon="113.272722">
        <time>2026-06-22T21:48:37Z</time>
      </trkpt>
      <trkpt lat="23.073806" lon="113.272587">
        <time>2026-06-22T21:48:42Z</time>
      </trkpt>
      <trkpt lat="23.073859" lon="113.272499">
        <time>2026-06-22T21:48:47Z</time>
      </trkpt>
      <trkpt lat="23.07393" lon="113.27236">
        <time>2026-06-22T21:48:52Z</time>
      </trkpt>
      <trkpt lat="23.073979" lon="113.272262">
        <time>2026-06-22T21:48:57Z</time>
      </trkpt>
      <trkpt lat="23.074041" lon="113.272129">
        <time>2026-06-22T21:49:02Z</time>
      </trkpt>
      <trkpt lat="23.074075" lon="113.27204">
        <time>2026-06-22T21:49:07Z</time>
      </trkpt>
      <trkpt lat="23.074134" lon="113.2719">
        <time>2026-06-22T21:49:12Z</time>
      </trkpt>
      <trkpt lat="23.074127" lon="113.271812">
        <time>2026-06-22T21:49:17Z</time>
      </trkpt>
      <trkpt lat="23.074013" lon="113.271727">
        <time>2026-06-22T21:49:22Z</time>
      </trkpt>
      <trkpt lat="23.073939" lon="113.271675">
        <time>2026-06-22T21:49:27Z</time>
      </trkpt>
      <trkpt lat="23.073816" lon="113.271603">
        <time>2026-06-22T21:49:32Z</time>
      </trkpt>
      <trkpt lat="23.073728" lon="113.271548">
        <time>2026-06-22T21:49:37Z</time>
      </trkpt>
      <trkpt lat="23.073594" lon="113.271481">
        <time>2026-06-22T21:49:42Z</time>
      </trkpt>
      <trkpt lat="23.0735" lon="113.271446">
        <time>2026-06-22T21:49:47Z</time>
      </trkpt>
      <trkpt lat="23.073357" lon="113.271396">
        <time>2026-06-22T21:49:52Z</time>
      </trkpt>
      <trkpt lat="23.073267" lon="113.271327">
        <time>2026-06-22T21:49:57Z</time>
      </trkpt>
      <trkpt lat="23.073137" lon="113.271219">
        <time>2026-06-22T21:50:02Z</time>
      </trkpt>
      <trkpt lat="23.073045" lon="113.271176">
        <time>2026-06-22T21:50:07Z</time>
      </trkpt>
      <trkpt lat="23.072907" lon="113.27113">
        <time>2026-06-22T21:50:12Z</time>
      </trkpt>
      <trkpt lat="23.072816" lon="113.271096">
        <time>2026-06-22T21:50:17Z</time>
      </trkpt>
      <trkpt lat="23.072676" lon="113.271037">
        <time>2026-06-22T21:50:22Z</time>
      </trkpt>
      <trkpt lat="23.072584" lon="113.270991">
        <time>2026-06-22T21:50:27Z</time>
      </trkpt>
      <trkpt lat="23.072447" lon="113.27092">
        <time>2026-06-22T21:50:32Z</time>
      </trkpt>
      <trkpt lat="23.072357" lon="113.270887">
        <time>2026-06-22T21:50:37Z</time>
      </trkpt>
      <trkpt lat="23.072218" lon="113.270816">
        <time>2026-06-22T21:50:42Z</time>
      </trkpt>
      <trkpt lat="23.072127" lon="113.270766">
        <time>2026-06-22T21:50:47Z</time>
      </trkpt>
      <trkpt lat="23.072004" lon="113.270692">
        <time>2026-06-22T21:50:52Z</time>
      </trkpt>
      <trkpt lat="23.071917" lon="113.270649">
        <time>2026-06-22T21:50:57Z</time>
      </trkpt>
      <trkpt lat="23.071773" lon="113.270593">
        <time>2026-06-22T21:51:02Z</time>
      </trkpt>
      <trkpt lat="23.071683" lon="113.27055">
        <time>2026-06-22T21:51:07Z</time>
      </trkpt>
      <trkpt lat="23.071551" lon="113.270491">
        <time>2026-06-22T21:51:12Z</time>
      </trkpt>
      <trkpt lat="23.071464" lon="113.270447">
        <time>2026-06-22T21:51:17Z</time>
      </trkpt>
      <trkpt lat="23.071334" lon="113.270396">
        <time>2026-06-22T21:51:22Z</time>
      </trkpt>
      <trkpt lat="23.071241" lon="113.270359">
        <time>2026-06-22T21:51:27Z</time>
      </trkpt>
      <trkpt lat="23.07111" lon="113.270294">
        <time>2026-06-22T21:51:32Z</time>
      </trkpt>
      <trkpt lat="23.071015" lon="113.270231">
        <time>2026-06-22T21:51:37Z</time>
      </trkpt>
      <trkpt lat="23.070877" lon="113.270172">
        <time>2026-06-22T21:51:42Z</time>
      </trkpt>
      <trkpt lat="23.070785" lon="113.270145">
        <time>2026-06-22T21:51:47Z</time>
      </trkpt>
      <trkpt lat="23.070646" lon="113.270082">
        <time>2026-06-22T21:51:52Z</time>
      </trkpt>
      <trkpt lat="23.070553" lon="113.270033">
        <time>2026-06-22T21:51:57Z</time>
      </trkpt>
      <trkpt lat="23.07041" lon="113.269981">
        <time>2026-06-22T21:52:02Z</time>
      </trkpt>
      <trkpt lat="23.07032" lon="113.269925">
        <time>2026-06-22T21:52:07Z</time>
      </trkpt>
      <trkpt lat="23.070187" lon="113.269838">
        <time>2026-06-22T21:52:12Z</time>
      </trkpt>
      <trkpt lat="23.070103" lon="113.26978">
        <time>2026-06-22T21:52:17Z</time>
      </trkpt>
      <trkpt lat="23.069984" lon="113.269675">
        <time>2026-06-22T21:52:22Z</time>
      </trkpt>
      <trkpt lat="23.069898" lon="113.269623">
        <time>2026-06-22T21:52:27Z</time>
      </trkpt>
      <trkpt lat="23.069764" lon="113.269555">
        <time>2026-06-22T21:52:32Z</time>
      </trkpt>
      <trkpt lat="23.069668" lon="113.269512">
        <time>2026-06-22T21:52:37Z</time>
      </trkpt>
      <trkpt lat="23.069528" lon="113.269448">
        <time>2026-06-22T21:52:42Z</time>
      </trkpt>
      <trkpt lat="23.069436" lon="113.269407">
        <time>2026-06-22T21:52:47Z</time>
      </trkpt>
      <trkpt lat="23.069284" lon="113.26936">
        <time>2026-06-22T21:52:52Z</time>
      </trkpt>
      <trkpt lat="23.069194" lon="113.2693">
        <time>2026-06-22T21:52:57Z</time>
      </trkpt>
      <trkpt lat="23.069054" lon="113.269246">
        <time>2026-06-22T21:53:02Z</time>
      </trkpt>
      <trkpt lat="23.068962" lon="113.269228">
        <time>2026-06-22T21:53:07Z</time>
      </trkpt>
      <trkpt lat="23.068818" lon="113.269192">
        <time>2026-06-22T21:53:12Z</time>
      </trkpt>
      <trkpt lat="23.068727" lon="113.269154">
        <time>2026-06-22T21:53:17Z</time>
      </trkpt>
      <trkpt lat="23.068595" lon="113.269092">
        <time>2026-06-22T21:53:22Z</time>
      </trkpt>
      <trkpt lat="23.068507" lon="113.269048">
        <time>2026-06-22T21:53:27Z</time>
      </trkpt>
      <trkpt lat="23.068387" lon="113.268963">
        <time>2026-06-22T21:53:32Z</time>
      </trkpt>
      <trkpt lat="23.068307" lon="113.268904">
        <time>2026-06-22T21:53:37Z</time>
      </trkpt>
      <trkpt lat="23.068183" lon="113.268826">
        <time>2026-06-22T21:53:42Z</time>
      </trkpt>
      <trkpt lat="23.068091" lon="113.268774">
        <time>2026-06-22T21:53:47Z</time>
      </trkpt>
      <trkpt lat="23.067941" lon="113.268631">
        <time>2026-06-22T21:53:52Z</time>
      </trkpt>
      <trkpt lat="23.06783" lon="113.268575">
        <time>2026-06-22T21:53:57Z</time>
      </trkpt>
      <trkpt lat="23.067693" lon="113.268503">
        <time>2026-06-22T21:54:02Z</time>
      </trkpt>
      <trkpt lat="23.067628" lon="113.268429">
        <time>2026-06-22T21:54:07Z</time>
      </trkpt>
      <trkpt lat="23.067503" lon="113.26833">
        <time>2026-06-22T21:54:12Z</time>
      </trkpt>
      <trkpt lat="23.067413" lon="113.268282">
        <time>2026-06-22T21:54:17Z</time>
      </trkpt>
      <trkpt lat="23.067283" lon="113.268208">
        <time>2026-06-22T21:54:22Z</time>
      </trkpt>
      <trkpt lat="23.067198" lon="113.268171">
        <time>2026-06-22T21:54:27Z</time>
      </trkpt>
      <trkpt lat="23.067069" lon="113.268105">
        <time>2026-06-22T21:54:32Z</time>
      </trkpt>
      <trkpt lat="23.066976" lon="113.268068">
        <time>2026-06-22T21:54:37Z</time>
      </trkpt>
      <trkpt lat="23.066817" lon="113.268027">
        <time>2026-06-22T21:54:42Z</time>
      </trkpt>
      <trkpt lat="23.066714" lon="113.267998">
        <time>2026-06-22T21:54:47Z</time>
      </trkpt>
      <trkpt lat="23.066573" lon="113.267962">
        <time>2026-06-22T21:54:52Z</time>
      </trkpt>
      <trkpt lat="23.066477" lon="113.267942">
        <time>2026-06-22T21:54:57Z</time>
      </trkpt>
      <trkpt lat="23.066329" lon="113.267945">
        <time>2026-06-22T21:55:02Z</time>
      </trkpt>
      <trkpt lat="23.066239" lon="113.267984">
        <time>2026-06-22T21:55:07Z</time>
      </trkpt>
      <trkpt lat="23.066132" lon="113.268084">
        <time>2026-06-22T21:55:12Z</time>
      </trkpt>
      <trkpt lat="23.066065" lon="113.268167">
        <time>2026-06-22T21:55:17Z</time>
      </trkpt>
      <trkpt lat="23.065972" lon="113.268295">
        <time>2026-06-22T21:55:22Z</time>
      </trkpt>
      <trkpt lat="23.065915" lon="113.268376">
        <time>2026-06-22T21:55:27Z</time>
      </trkpt>
      <trkpt lat="23.065835" lon="113.268508">
        <time>2026-06-22T21:55:32Z</time>
      </trkpt>
      <trkpt lat="23.065785" lon="113.268599">
        <time>2026-06-22T21:55:37Z</time>
      </trkpt>
      <trkpt lat="23.065716" lon="113.268741">
        <time>2026-06-22T21:55:42Z</time>
      </trkpt>
      <trkpt lat="23.065673" lon="113.268838">
        <time>2026-06-22T21:55:47Z</time>
      </trkpt>
      <trkpt lat="23.065621" lon="113.268991">
        <time>2026-06-22T21:55:52Z</time>
      </trkpt>
      <trkpt lat="23.065587" lon="113.269096">
        <time>2026-06-22T21:55:57Z</time>
      </trkpt>
      <trkpt lat="23.065547" lon="113.269252">
        <time>2026-06-22T21:56:02Z</time>
      </trkpt>
      <trkpt lat="23.065519" lon="113.269359">
        <time>2026-06-22T21:56:07Z</time>
      </trkpt>
      <trkpt lat="23.065484" lon="113.269518">
        <time>2026-06-22T21:56:12Z</time>
      </trkpt>
      <trkpt lat="23.065462" lon="113.269627">
        <time>2026-06-22T21:56:17Z</time>
      </trkpt>
      <trkpt lat="23.06542" lon="113.269789">
        <time>2026-06-22T21:56:22Z</time>
      </trkpt>
      <trkpt lat="23.065384" lon="113.269894">
        <time>2026-06-22T21:56:27Z</time>
      </trkpt>
      <trkpt lat="23.065331" lon="113.270053">
        <time>2026-06-22T21:56:32Z</time>
      </trkpt>
      <trkpt lat="23.065291" lon="113.270158">
        <time>2026-06-22T21:56:37Z</time>
      </trkpt>
      <trkpt lat="23.06522" lon="113.270307">
        <time>2026-06-22T21:56:42Z</time>
      </trkpt>
      <trkpt lat="23.065175" lon="113.270404">
        <time>2026-06-22T21:56:47Z</time>
      </trkpt>
      <trkpt lat="23.065108" lon="113.270548">
        <time>2026-06-22T21:56:52Z</time>
      </trkpt>
      <trkpt lat="23.065062" lon="113.270647">
        <time>2026-06-22T21:56:57Z</time>
      </trkpt>
      <trkpt lat="23.064992" lon="113.270789">
        <time>2026-06-22T21:57:02Z</time>
      </trkpt>
      <trkpt lat="23.06495" lon="113.270882">
        <time>2026-06-22T21:57:07Z</time>
      </trkpt>
      <trkpt lat="23.064889" lon="113.271036">
        <time>2026-06-22T21:57:12Z</time>
      </trkpt>
      <trkpt lat="23.064847" lon="113.271133">
        <time>2026-06-22T21:57:17Z</time>
      </trkpt>
      <trkpt lat="23.064779" lon="113.271276">
        <time>2026-06-22T21:57:22Z</time>
      </trkpt>
      <trkpt lat="23.06474" lon="113.271372">
        <time>2026-06-22T21:57:27Z</time>
      </trkpt>
      <trkpt lat="23.064674" lon="113.271516">
        <time>2026-06-22T21:57:32Z</time>
      </trkpt>
      <trkpt lat="23.064626" lon="113.271612">
        <time>2026-06-22T21:57:37Z</time>
      </trkpt>
      <trkpt lat="23.064557" lon="113.271758">
        <time>2026-06-22T21:57:42Z</time>
      </trkpt>
      <trkpt lat="23.064515" lon="113.271856">
        <time>2026-06-22T21:57:47Z</time>
      </trkpt>
      <trkpt lat="23.064449" lon="113.272005">
        <time>2026-06-22T21:57:52Z</time>
      </trkpt>
      <trkpt lat="23.064405" lon="113.272101">
        <time>2026-06-22T21:57:57Z</time>
      </trkpt>
      <trkpt lat="23.064347" lon="113.272249">
        <time>2026-06-22T21:58:02Z</time>
      </trkpt>
      <trkpt lat="23.064332" lon="113.272357">
        <time>2026-06-22T21:58:07Z</time>
      </trkpt>
      <trkpt lat="23.064318" lon="113.27252">
        <time>2026-06-22T21:58:12Z</time>
      </trkpt>
      <trkpt lat="23.064319" lon="113.272631">
        <time>2026-06-22T21:58:17Z</time>
      </trkpt>
      <trkpt lat="23.064357" lon="113.272792">
        <time>2026-06-22T21:58:22Z</time>
      </trkpt>
      <trkpt lat="23.064393" lon="113.272892">
        <time>2026-06-22T21:58:27Z</time>
      </trkpt>
      <trkpt lat="23.064445" lon="113.27304">
        <time>2026-06-22T21:58:32Z</time>
      </trkpt>
      <trkpt lat="23.064464" lon="113.273142">
        <time>2026-06-22T21:58:37Z</time>
      </trkpt>
      <trkpt lat="23.064428" lon="113.273291">
        <time>2026-06-22T21:58:42Z</time>
      </trkpt>
      <trkpt lat="23.064362" lon="113.27337">
        <time>2026-06-22T21:58:47Z</time>
      </trkpt>
      <trkpt lat="23.06423" lon="113.273468">
        <time>2026-06-22T21:58:52Z</time>
      </trkpt>
      <trkpt lat="23.064148" lon="113.273531">
        <time>2026-06-22T21:58:57Z</time>
      </trkpt>
      <trkpt lat="23.064018" lon="113.27363">
        <time>2026-06-22T21:59:02Z</time>
      </trkpt>
      <trkpt lat="23.063941" lon="113.273705">
        <time>2026-06-22T21:59:07Z</time>
      </trkpt>
      <trkpt lat="23.063846" lon="113.273834">
        <time>2026-06-22T21:59:12Z</time>
      </trkpt>
      <trkpt lat="23.063791" lon="113.273923">
        <time>2026-06-22T21:59:17Z</time>
      </trkpt>
      <trkpt lat="23.06371" lon="113.274059">
        <time>2026-06-22T21:59:22Z</time>
      </trkpt>
      <trkpt lat="23.063635" lon="113.274133">
        <time>2026-06-22T21:59:27Z</time>
      </trkpt>
      <trkpt lat="23.063517" lon="113.274235">
        <time>2026-06-22T21:59:32Z</time>
      </trkpt>
      <trkpt lat="23.063447" lon="113.274328">
        <time>2026-06-22T21:59:37Z</time>
      </trkpt>
      <trkpt lat="23.063395" lon="113.274504">
        <time>2026-06-22T21:59:42Z</time>
      </trkpt>
      <trkpt lat="23.063375" lon="113.274615">
        <time>2026-06-22T21:59:47Z</time>
      </trkpt>
      <trkpt lat="23.063326" lon="113.274774">
        <time>2026-06-22T21:59:52Z</time>
      </trkpt>
      <trkpt lat="23.063288" lon="113.274883">
        <time>2026-06-22T21:59:57Z</time>
      </trkpt>
      <trkpt lat="23.063225" lon="113.275045">
        <time>2026-06-22T22:00:02Z</time>
      </trkpt>
      <trkpt lat="23.063176" lon="113.275139">
        <time>2026-06-22T22:00:07Z</time>
      </trkpt>
      <trkpt lat="23.063098" lon="113.275283">
        <time>2026-06-22T22:00:12Z</time>
      </trkpt>
      <trkpt lat="23.063038" lon="113.275378">
        <time>2026-06-22T22:00:17Z</time>
      </trkpt>
      <trkpt lat="23.06295" lon="113.275516">
        <time>2026-06-22T22:00:22Z</time>
      </trkpt>
      <trkpt lat="23.062884" lon="113.2756">
        <time>2026-06-22T22:00:27Z</time>
      </trkpt>
      <trkpt lat="23.062769" lon="113.275715">
        <time>2026-06-22T22:00:32Z</time>
      </trkpt>
      <trkpt lat="23.062688" lon="113.27579">
        <time>2026-06-22T22:00:37Z</time>
      </trkpt>
      <trkpt lat="23.062583" lon="113.275916">
        <time>2026-06-22T22:00:42Z</time>
      </trkpt>
      <trkpt lat="23.062523" lon="113.276006">
        <time>2026-06-22T22:00:47Z</time>
      </trkpt>
      <trkpt lat="23.062451" lon="113.276148">
        <time>2026-06-22T22:00:52Z</time>
      </trkpt>
      <trkpt lat="23.06241" lon="113.276244">
        <time>2026-06-22T22:00:57Z</time>
      </trkpt>
      <trkpt lat="23.062355" lon="113.276387">
        <time>2026-06-22T22:01:02Z</time>
      </trkpt>
      <trkpt lat="23.06232" lon="113.276484">
        <time>2026-06-22T22:01:07Z</time>
      </trkpt>
      <trkpt lat="23.062269" lon="113.276632">
        <time>2026-06-22T22:01:12Z</time>
      </trkpt>
      <trkpt lat="23.062234" lon="113.276728">
        <time>2026-06-22T22:01:17Z</time>
      </trkpt>
      <trkpt lat="23.062187" lon="113.276884">
        <time>2026-06-22T22:01:22Z</time>
      </trkpt>
      <trkpt lat="23.062152" lon="113.276986">
        <time>2026-06-22T22:01:27Z</time>
      </trkpt>
      <trkpt lat="23.062096" lon="113.277134">
        <time>2026-06-22T22:01:32Z</time>
      </trkpt>
      <trkpt lat="23.06205" lon="113.277246">
        <time>2026-06-22T22:01:37Z</time>
      </trkpt>
      <trkpt lat="23.061978" lon="113.277413">
        <time>2026-06-22T22:01:42Z</time>
      </trkpt>
      <trkpt lat="23.061937" lon="113.277519">
        <time>2026-06-22T22:01:47Z</time>
      </trkpt>
      <trkpt lat="23.06188" lon="113.277681">
        <time>2026-06-22T22:01:52Z</time>
      </trkpt>
      <trkpt lat="23.061855" lon="113.277793">
        <time>2026-06-22T22:01:57Z</time>
      </trkpt>
      <trkpt lat="23.061846" lon="113.277956">
        <time>2026-06-22T22:02:02Z</time>
      </trkpt>
      <trkpt lat="23.061853" lon="113.278062">
        <time>2026-06-22T22:02:07Z</time>
      </trkpt>
      <trkpt lat="23.061861" lon="113.278223">
        <time>2026-06-22T22:02:12Z</time>
      </trkpt>
      <trkpt lat="23.061864" lon="113.278328">
        <time>2026-06-22T22:02:17Z</time>
      </trkpt>
      <trkpt lat="23.061869" lon="113.278496">
        <time>2026-06-22T22:02:22Z</time>
      </trkpt>
      <trkpt lat="23.061872" lon="113.278611">
        <time>2026-06-22T22:02:27Z</time>
      </trkpt>
      <trkpt lat="23.061841" lon="113.278772">
        <time>2026-06-22T22:02:32Z</time>
      </trkpt>
      <trkpt lat="23.061792" lon="113.27887">
        <time>2026-06-22T22:02:37Z</time>
      </trkpt>
      <trkpt lat="23.061708" lon="113.279014">
        <time>2026-06-22T22:02:42Z</time>
      </trkpt>
      <trkpt lat="23.061651" lon="113.279106">
        <time>2026-06-22T22:02:47Z</time>
      </trkpt>
      <trkpt lat="23.061584" lon="113.279251">
        <time>2026-06-22T22:02:52Z</time>
      </trkpt>
      <trkpt lat="23.061545" lon="113.27935">
        <time>2026-06-22T22:02:57Z</time>
      </trkpt>
      <trkpt lat="23.061485" lon="113.27951">
        <time>2026-06-22T22:03:02Z</time>
      </trkpt>
      <trkpt lat="23.061445" lon="113.279621">
        <time>2026-06-22T22:03:07Z</time>
      </trkpt>
      <trkpt lat="23.061382" lon="113.279777">
        <time>2026-06-22T22:03:12Z</time>
      </trkpt>
      <trkpt lat="23.061341" lon="113.279877">
        <time>2026-06-22T22:03:17Z</time>
      </trkpt>
      <trkpt lat="23.06128" lon="113.28003">
        <time>2026-06-22T22:03:22Z</time>
      </trkpt>
      <trkpt lat="23.061239" lon="113.280134">
        <time>2026-06-22T22:03:27Z</time>
      </trkpt>
      <trkpt lat="23.06118" lon="113.280291">
        <time>2026-06-22T22:03:32Z</time>
      </trkpt>
      <trkpt lat="23.06113" lon="113.280395">
        <time>2026-06-22T22:03:37Z</time>
      </trkpt>
      <trkpt lat="23.061055" lon="113.280556">
        <time>2026-06-22T22:03:42Z</time>
      </trkpt>
      <trkpt lat="23.061002" lon="113.28066">
        <time>2026-06-22T22:03:47Z</time>
      </trkpt>
      <trkpt lat="23.060929" lon="113.280814">
        <time>2026-06-22T22:03:52Z</time>
      </trkpt>
      <trkpt lat="23.060884" lon="113.280921">
        <time>2026-06-22T22:03:57Z</time>
      </trkpt>
      <trkpt lat="23.060819" lon="113.281071">
        <time>2026-06-22T22:04:02Z</time>
      </trkpt>
      <trkpt lat="23.060777" lon="113.281168">
        <time>2026-06-22T22:04:07Z</time>
      </trkpt>
      <trkpt lat="23.060715" lon="113.281316">
        <time>2026-06-22T22:04:12Z</time>
      </trkpt>
      <trkpt lat="23.060674" lon="113.281417">
        <time>2026-06-22T22:04:17Z</time>
      </trkpt>
      <trkpt lat="23.060614" lon="113.281566">
        <time>2026-06-22T22:04:22Z</time>
      </trkpt>
      <trkpt lat="23.060573" lon="113.281667">
        <time>2026-06-22T22:04:27Z</time>
      </trkpt>
      <trkpt lat="23.060511" lon="113.281822">
        <time>2026-06-22T22:04:32Z</time>
      </trkpt>
      <trkpt lat="23.060464" lon="113.281924">
        <time>2026-06-22T22:04:37Z</time>
      </trkpt>
      <trkpt lat="23.060394" lon="113.282077">
        <time>2026-06-22T22:04:42Z</time>
      </trkpt>
      <trkpt lat="23.060352" lon="113.282182">
        <time>2026-06-22T22:04:47Z</time>
      </trkpt>
      <trkpt lat="23.060288" lon="113.282341">
        <time>2026-06-22T22:04:52Z</time>
      </trkpt>
      <trkpt lat="23.060249" lon="113.282442">
        <time>2026-06-22T22:04:57Z</time>
      </trkpt>
      <trkpt lat="23.060183" lon="113.282595">
        <time>2026-06-22T22:05:02Z</time>
      </trkpt>
      <trkpt lat="23.060136" lon="113.282699">
        <time>2026-06-22T22:05:07Z</time>
      </trkpt>
      <trkpt lat="23.060067" lon="113.282852">
        <time>2026-06-22T22:05:12Z</time>
      </trkpt>
      <trkpt lat="23.060024" lon="113.282956">
        <time>2026-06-22T22:05:17Z</time>
      </trkpt>
      <trkpt lat="23.059947" lon="113.283113">
        <time>2026-06-22T22:05:22Z</time>
      </trkpt>
      <trkpt lat="23.059898" lon="113.283218">
        <time>2026-06-22T22:05:27Z</time>
      </trkpt>
      <trkpt lat="23.059812" lon="113.28337">
        <time>2026-06-22T22:05:32Z</time>
      </trkpt>
      <trkpt lat="23.059741" lon="113.283468">
        <time>2026-06-22T22:05:37Z</time>
      </trkpt>
      <trkpt lat="23.059667" lon="113.283628">
        <time>2026-06-22T22:05:42Z</time>
      </trkpt>
      <trkpt lat="23.059628" lon="113.283734">
        <time>2026-06-22T22:05:47Z</time>
      </trkpt>
      <trkpt lat="23.059571" lon="113.28389">
        <time>2026-06-22T22:05:52Z</time>
      </trkpt>
      <trkpt lat="23.059525" lon="113.28399">
        <time>2026-06-22T22:05:57Z</time>
      </trkpt>
      <trkpt lat="23.059445" lon="113.284139">
        <time>2026-06-22T22:06:02Z</time>
      </trkpt>
      <trkpt lat="23.059402" lon="113.284245">
        <time>2026-06-22T22:06:07Z</time>
      </trkpt>
      <trkpt lat="23.059352" lon="113.28441">
        <time>2026-06-22T22:06:12Z</time>
      </trkpt>
      <trkpt lat="23.059316" lon="113.284515">
        <time>2026-06-22T22:06:17Z</time>
      </trkpt>
      <trkpt lat="23.059269" lon="113.284675">
        <time>2026-06-22T22:06:22Z</time>
      </trkpt>
      <trkpt lat="23.059235" lon="113.284776">
        <time>2026-06-22T22:06:27Z</time>
      </trkpt>
      <trkpt lat="23.059173" lon="113.284928">
        <time>2026-06-22T22:06:32Z</time>
      </trkpt>
      <trkpt lat="23.05913" lon="113.285035">
        <time>2026-06-22T22:06:37Z</time>
      </trkpt>
      <trkpt lat="23.059064" lon="113.285196">
        <time>2026-06-22T22:06:42Z</time>
      </trkpt>
      <trkpt lat="23.059018" lon="113.285301">
        <time>2026-06-22T22:06:47Z</time>
      </trkpt>
      <trkpt lat="23.058942" lon="113.28546">
        <time>2026-06-22T22:06:52Z</time>
      </trkpt>
      <trkpt lat="23.058897" lon="113.285562">
        <time>2026-06-22T22:06:57Z</time>
      </trkpt>
      <trkpt lat="23.058828" lon="113.285719">
        <time>2026-06-22T22:07:02Z</time>
      </trkpt>
      <trkpt lat="23.058784" lon="113.285825">
        <time>2026-06-22T22:07:07Z</time>
      </trkpt>
      <trkpt lat="23.058716" lon="113.28598">
        <time>2026-06-22T22:07:12Z</time>
      </trkpt>
      <trkpt lat="23.058675" lon="113.286087">
        <time>2026-06-22T22:07:17Z</time>
      </trkpt>
      <trkpt lat="23.058682" lon="113.286259">
        <time>2026-06-22T22:07:22Z</time>
      </trkpt>
      <trkpt lat="23.058753" lon="113.286332">
        <time>2026-06-22T22:07:27Z</time>
      </trkpt>
      <trkpt lat="23.058912" lon="113.286364">
        <time>2026-06-22T22:07:32Z</time>
      </trkpt>
      <trkpt lat="23.059016" lon="113.286379">
        <time>2026-06-22T22:07:37Z</time>
      </trkpt>
      <trkpt lat="23.059167" lon="113.286397">
        <time>2026-06-22T22:07:42Z</time>
      </trkpt>
      <trkpt lat="23.059272" lon="113.286406">
        <time>2026-06-22T22:07:47Z</time>
      </trkpt>
      <trkpt lat="23.059429" lon="113.286422">
        <time>2026-06-22T22:07:52Z</time>
      </trkpt>
      <trkpt lat="23.059531" lon="113.286431">
        <time>2026-06-22T22:07:57Z</time>
      </trkpt>
      <trkpt lat="23.059676" lon="113.286442">
        <time>2026-06-22T22:08:02Z</time>
      </trkpt>
      <trkpt lat="23.059772" lon="113.286453">
        <time>2026-06-22T22:08:07Z</time>
      </trkpt>
      <trkpt lat="23.059927" lon="113.286466">
        <time>2026-06-22T22:08:12Z</time>
      </trkpt>
      <trkpt lat="23.060032" lon="113.286477">
        <time>2026-06-22T22:08:17Z</time>
      </trkpt>
      <trkpt lat="23.060188" lon="113.286496">
        <time>2026-06-22T22:08:22Z</time>
      </trkpt>
      <trkpt lat="23.060295" lon="113.2865">
        <time>2026-06-22T22:08:27Z</time>
      </trkpt>
      <trkpt lat="23.060458" lon="113.286509">
        <time>2026-06-22T22:08:32Z</time>
      </trkpt>
      <trkpt lat="23.060569" lon="113.28652">
        <time>2026-06-22T22:08:37Z</time>
      </trkpt>
      <trkpt lat="23.060738" lon="113.286538">
        <time>2026-06-22T22:08:42Z</time>
      </trkpt>
      <trkpt lat="23.060857" lon="113.286574">
        <time>2026-06-22T22:08:47Z</time>
      </trkpt>
      <trkpt lat="23.061009" lon="113.28651">
        <time>2026-06-22T22:08:52Z</time>
      </trkpt>
      <trkpt lat="23.061098" lon="113.286475">
        <time>2026-06-22T22:08:57Z</time>
      </trkpt>
      <trkpt lat="23.061248" lon="113.286485">
        <time>2026-06-22T22:09:02Z</time>
      </trkpt>
      <trkpt lat="23.061352" lon="113.286521">
        <time>2026-06-22T22:09:07Z</time>
      </trkpt>
      <trkpt lat="23.061535" lon="113.286567">
        <time>2026-06-22T22:09:12Z</time>
      </trkpt>
      <trkpt lat="23.061648" lon="113.28657">
        <time>2026-06-22T22:09:17Z</time>
      </trkpt>
      <trkpt lat="23.061808" lon="113.286535">
        <time>2026-06-22T22:09:22Z</time>
      </trkpt>
      <trkpt lat="23.061904" lon="113.286519">
        <time>2026-06-22T22:09:27Z</time>
      </trkpt>
      <trkpt lat="23.062023" lon="113.286411">
        <time>2026-06-22T22:09:32Z</time>
      </trkpt>
      <trkpt lat="23.062045" lon="113.28629">
        <time>2026-06-22T22:09:37Z</time>
      </trkpt>
      <trkpt lat="23.062054" lon="113.286109">
        <time>2026-06-22T22:09:42Z</time>
      </trkpt>
      <trkpt lat="23.062055" lon="113.285998">
        <time>2026-06-22T22:09:47Z</time>
      </trkpt>
      <trkpt lat="23.062044" lon="113.285832">
        <time>2026-06-22T22:09:52Z</time>
      </trkpt>
      <trkpt lat="23.062047" lon="113.285723">
        <time>2026-06-22T22:09:57Z</time>
      </trkpt>
      <trkpt lat="23.062066" lon="113.285574">
        <time>2026-06-22T22:10:02Z</time>
      </trkpt>
      <trkpt lat="23.062067" lon="113.285465">
        <time>2026-06-22T22:10:07Z</time>
      </trkpt>
      <trkpt lat="23.062081" lon="113.285297">
        <time>2026-06-22T22:10:12Z</time>
      </trkpt>
      <trkpt lat="23.062091" lon="113.285183">
        <time>2026-06-22T22:10:17Z</time>
      </trkpt>
      <trkpt lat="23.062106" lon="113.285017">
        <time>2026-06-22T22:10:22Z</time>
      </trkpt>
      <trkpt lat="23.062115" lon="113.284912">
        <time>2026-06-22T22:10:27Z</time>
      </trkpt>
      <trkpt lat="23.062118" lon="113.28475">
        <time>2026-06-22T22:10:32Z</time>
      </trkpt>
      <trkpt lat="23.062118" lon="113.284641">
        <time>2026-06-22T22:10:37Z</time>
      </trkpt>
      <trkpt lat="23.06212" lon="113.284472">
        <time>2026-06-22T22:10:42Z</time>
      </trkpt>
      <trkpt lat="23.06212" lon="113.284356">
        <time>2026-06-22T22:10:47Z</time>
      </trkpt>
      <trkpt lat="23.062113" lon="113.284187">
        <time>2026-06-22T22:10:52Z</time>
      </trkpt>
      <trkpt lat="23.06212" lon="113.284065">
        <time>2026-06-22T22:10:57Z</time>
      </trkpt>
      <trkpt lat="23.062123" lon="113.283878">
        <time>2026-06-22T22:11:02Z</time>
      </trkpt>
      <trkpt lat="23.062131" lon="113.283763">
        <time>2026-06-22T22:11:07Z</time>
      </trkpt>
      <trkpt lat="23.062139" lon="113.283592">
        <time>2026-06-22T22:11:12Z</time>
      </trkpt>
      <trkpt lat="23.062145" lon="113.283482">
        <time>2026-06-22T22:11:17Z</time>
      </trkpt>
      <trkpt lat="23.062142" lon="113.283325">
        <time>2026-06-22T22:11:22Z</time>
      </trkpt>
      <trkpt lat="23.062148" lon="113.283216">
        <time>2026-06-22T22:11:27Z</time>
      </trkpt>
      <trkpt lat="23.062155" lon="113.283051">
        <time>2026-06-22T22:11:32Z</time>
      </trkpt>
      <trkpt lat="23.062161" lon="113.282931">
        <time>2026-06-22T22:11:37Z</time>
      </trkpt>
      <trkpt lat="23.062166" lon="113.282752">
        <time>2026-06-22T22:11:42Z</time>
      </trkpt>
      <trkpt lat="23.062175" lon="113.282639">
        <time>2026-06-22T22:11:47Z</time>
      </trkpt>
      <trkpt lat="23.062162" lon="113.282475">
        <time>2026-06-22T22:11:52Z</time>
      </trkpt>
      <trkpt lat="23.062159" lon="113.282364">
        <time>2026-06-22T22:11:57Z</time>
      </trkpt>
      <trkpt lat="23.062086" lon="113.282219">
        <time>2026-06-22T22:12:02Z</time>
      </trkpt>
      <trkpt lat="23.061991" lon="113.282179">
        <time>2026-06-22T22:12:07Z</time>
      </trkpt>
      <trkpt lat="23.061829" lon="113.282185">
        <time>2026-06-22T22:12:12Z</time>
      </trkpt>
      <trkpt lat="23.061731" lon="113.282193">
        <time>2026-06-22T22:12:17Z</time>
      </trkpt>
      <trkpt lat="23.061583" lon="113.282211">
        <time>2026-06-22T22:12:22Z</time>
      </trkpt>
      <trkpt lat="23.061478" lon="113.282215">
        <time>2026-06-22T22:12:27Z</time>
      </trkpt>
      <trkpt lat="23.061317" lon="113.282254">
        <time>2026-06-22T22:12:32Z</time>
      </trkpt>
      <trkpt lat="23.061196" lon="113.282254">
        <time>2026-06-22T22:12:37Z</time>
      </trkpt>
      <trkpt lat="23.061017" lon="113.28224">
        <time>2026-06-22T22:12:42Z</time>
      </trkpt>
      <trkpt lat="23.060907" lon="113.282239">
        <time>2026-06-22T22:12:47Z</time>
      </trkpt>
      <trkpt lat="23.060743" lon="113.282238">
        <time>2026-06-22T22:12:52Z</time>
      </trkpt>
      <trkpt lat="23.060632" lon="113.28224">
        <time>2026-06-22T22:12:57Z</time>
      </trkpt>
      <trkpt lat="23.060491" lon="113.28229">
        <time>2026-06-22T22:13:02Z</time>
      </trkpt>
      <trkpt lat="23.060446" lon="113.282395">
        <time>2026-06-22T22:13:07Z</time>
      </trkpt>
      <trkpt lat="23.060389" lon="113.282557">
        <time>2026-06-22T22:13:12Z</time>
      </trkpt>
      <trkpt lat="23.060353" lon="113.282658">
        <time>2026-06-22T22:13:17Z</time>
      </trkpt>
      <trkpt lat="23.060299" lon="113.282806">
        <time>2026-06-22T22:13:22Z</time>
      </trkpt>
      <trkpt lat="23.060259" lon="113.282909">
        <time>2026-06-22T22:13:27Z</time>
      </trkpt>
      <trkpt lat="23.060201" lon="113.283061">
        <time>2026-06-22T22:13:32Z</time>
      </trkpt>
      <trkpt lat="23.06016" lon="113.283163">
        <time>2026-06-22T22:13:37Z</time>
      </trkpt>
      <trkpt lat="23.060101" lon="113.283307">
        <time>2026-06-22T22:13:42Z</time>
      </trkpt>
      <trkpt lat="23.060055" lon="113.283395">
        <time>2026-06-22T22:13:47Z</time>
      </trkpt>
      <trkpt lat="23.059967" lon="113.28339">
        <time>2026-06-22T22:13:52Z</time>
      </trkpt>
      <trkpt lat="23.059989" lon="113.283286">
        <time>2026-06-22T22:13:57Z</time>
      </trkpt>
      <trkpt lat="23.060074" lon="113.283141">
        <time>2026-06-22T22:14:02Z</time>
      </trkpt>
      <trkpt lat="23.060146" lon="113.283052">
        <time>2026-06-22T22:14:07Z</time>
      </trkpt>
      <trkpt lat="23.060239" lon="113.28291">
        <time>2026-06-22T22:14:12Z</time>
      </trkpt>
      <trkpt lat="23.060278" lon="113.282812">
        <time>2026-06-22T22:14:17Z</time>
      </trkpt>
      <trkpt lat="23.060323" lon="113.282659">
        <time>2026-06-22T22:14:22Z</time>
      </trkpt>
      <trkpt lat="23.060358" lon="113.282558">
        <time>2026-06-22T22:14:27Z</time>
      </trkpt>
      <trkpt lat="23.060413" lon="113.282411">
        <time>2026-06-22T22:14:32Z</time>
      </trkpt>
      <trkpt lat="23.060452" lon="113.282316">
        <time>2026-06-22T22:14:37Z</time>
      </trkpt>
      <trkpt lat="23.060505" lon="113.282168">
        <time>2026-06-22T22:14:42Z</time>
      </trkpt>
      <trkpt lat="23.060546" lon="113.282071">
        <time>2026-06-22T22:14:47Z</time>
      </trkpt>
      <trkpt lat="23.060605" lon="113.281928">
        <time>2026-06-22T22:14:52Z</time>
      </trkpt>
      <trkpt lat="23.06064" lon="113.281833">
        <time>2026-06-22T22:14:57Z</time>
      </trkpt>
      <trkpt lat="23.060696" lon="113.281677">
        <time>2026-06-22T22:15:02Z</time>
      </trkpt>
      <trkpt lat="23.060737" lon="113.281558">
        <time>2026-06-22T22:15:07Z</time>
      </trkpt>
      <trkpt lat="23.060791" lon="113.281396">
        <time>2026-06-22T22:15:12Z</time>
      </trkpt>
      <trkpt lat="23.060838" lon="113.281292">
        <time>2026-06-22T22:15:17Z</time>
      </trkpt>
      <trkpt lat="23.060908" lon="113.281145">
        <time>2026-06-22T22:15:22Z</time>
      </trkpt>
      <trkpt lat="23.060946" lon="113.281047">
        <time>2026-06-22T22:15:27Z</time>
      </trkpt>
      <trkpt lat="23.061004" lon="113.280898">
        <time>2026-06-22T22:15:32Z</time>
      </trkpt>
      <trkpt lat="23.06105" lon="113.280792">
        <time>2026-06-22T22:15:37Z</time>
      </trkpt>
      <trkpt lat="23.061117" lon="113.280641">
        <time>2026-06-22T22:15:42Z</time>
      </trkpt>
      <trkpt lat="23.061162" lon="113.280542">
        <time>2026-06-22T22:15:47Z</time>
      </trkpt>
      <trkpt lat="23.061231" lon="113.280393">
        <time>2026-06-22T22:15:52Z</time>
      </trkpt>
      <trkpt lat="23.061283" lon="113.280296">
        <time>2026-06-22T22:15:57Z</time>
      </trkpt>
      <trkpt lat="23.061359" lon="113.280149">
        <time>2026-06-22T22:16:02Z</time>
      </trkpt>
      <trkpt lat="23.061402" lon="113.280042">
        <time>2026-06-22T22:16:07Z</time>
      </trkpt>
      <trkpt lat="23.061456" lon="113.279877">
        <time>2026-06-22T22:16:12Z</time>
      </trkpt>
      <trkpt lat="23.06149" lon="113.279775">
        <time>2026-06-22T22:16:17Z</time>
      </trkpt>
      <trkpt lat="23.061547" lon="113.279627">
        <time>2026-06-22T22:16:22Z</time>
      </trkpt>
      <trkpt lat="23.061593" lon="113.279527">
        <time>2026-06-22T22:16:27Z</time>
      </trkpt>
      <trkpt lat="23.061656" lon="113.279371">
        <time>2026-06-22T22:16:32Z</time>
      </trkpt>
      <trkpt lat="23.061698" lon="113.279268">
        <time>2026-06-22T22:16:37Z</time>
      </trkpt>
      <trkpt lat="23.061762" lon="113.279128">
        <time>2026-06-22T22:16:42Z</time>
      </trkpt>
      <trkpt lat="23.061814" lon="113.279044">
        <time>2026-06-22T22:16:47Z</time>
      </trkpt>
      <trkpt lat="23.061898" lon="113.278913">
        <time>2026-06-22T22:16:52Z</time>
      </trkpt>
      <trkpt lat="23.061944" lon="113.278818">
        <time>2026-06-22T22:16:57Z</time>
      </trkpt>
      <trkpt lat="23.061971" lon="113.278653">
        <time>2026-06-22T22:17:02Z</time>
      </trkpt>
      <trkpt lat="23.061965" lon="113.278536">
        <time>2026-06-22T22:17:07Z</time>
      </trkpt>
      <trkpt lat="23.061957" lon="113.278365">
        <time>2026-06-22T22:17:12Z</time>
      </trkpt>
      <trkpt lat="23.061952" lon="113.278251">
        <time>2026-06-22T22:17:17Z</time>
      </trkpt>
      <trkpt lat="23.061944" lon="113.278084">
        <time>2026-06-22T22:17:22Z</time>
      </trkpt>
      <trkpt lat="23.06194" lon="113.277968">
        <time>2026-06-22T22:17:27Z</time>
      </trkpt>
      <trkpt lat="23.061942" lon="113.277796">
        <time>2026-06-22T22:17:32Z</time>
      </trkpt>
      <trkpt lat="23.061963" lon="113.277685">
        <time>2026-06-22T22:17:37Z</time>
      </trkpt>
      <trkpt lat="23.062021" lon="113.27752">
        <time>2026-06-22T22:17:42Z</time>
      </trkpt>
      <trkpt lat="23.062062" lon="113.277414">
        <time>2026-06-22T22:17:47Z</time>
      </trkpt>
      <trkpt lat="23.062124" lon="113.277257">
        <time>2026-06-22T22:17:52Z</time>
      </trkpt>
      <trkpt lat="23.062166" lon="113.277154">
        <time>2026-06-22T22:17:57Z</time>
      </trkpt>
      <trkpt lat="23.062232" lon="113.276999">
        <time>2026-06-22T22:18:02Z</time>
      </trkpt>
      <trkpt lat="23.062276" lon="113.276892">
        <time>2026-06-22T22:18:07Z</time>
      </trkpt>
      <trkpt lat="23.062334" lon="113.276732">
        <time>2026-06-22T22:18:12Z</time>
      </trkpt>
      <trkpt lat="23.062367" lon="113.276625">
        <time>2026-06-22T22:18:17Z</time>
      </trkpt>
      <trkpt lat="23.062426" lon="113.276461">
        <time>2026-06-22T22:18:22Z</time>
      </trkpt>
      <trkpt lat="23.062469" lon="113.276355">
        <time>2026-06-22T22:18:27Z</time>
      </trkpt>
      <trkpt lat="23.062534" lon="113.2762">
        <time>2026-06-22T22:18:32Z</time>
      </trkpt>
      <trkpt lat="23.062589" lon="113.276099">
        <time>2026-06-22T22:18:37Z</time>
      </trkpt>
      <trkpt lat="23.062676" lon="113.275957">
        <time>2026-06-22T22:18:42Z</time>
      </trkpt>
      <trkpt lat="23.062741" lon="113.275873">
        <time>2026-06-22T22:18:47Z</time>
      </trkpt>
      <trkpt lat="23.062852" lon="113.275758">
        <time>2026-06-22T22:18:52Z</time>
      </trkpt>
      <trkpt lat="23.062936" lon="113.275682">
        <time>2026-06-22T22:18:57Z</time>
      </trkpt>
      <trkpt lat="23.06305" lon="113.275554">
        <time>2026-06-22T22:19:02Z</time>
      </trkpt>
      <trkpt lat="23.063108" lon="113.275457">
        <time>2026-06-22T22:19:07Z</time>
      </trkpt>
      <trkpt lat="23.063188" lon="113.275304">
        <time>2026-06-22T22:19:12Z</time>
      </trkpt>
      <trkpt lat="23.063246" lon="113.275206">
        <time>2026-06-22T22:19:17Z</time>
      </trkpt>
      <trkpt lat="23.063329" lon="113.275059">
        <time>2026-06-22T22:19:22Z</time>
      </trkpt>
      <trkpt lat="23.063372" lon="113.274958">
        <time>2026-06-22T22:19:27Z</time>
      </trkpt>
      <trkpt lat="23.063419" lon="113.274809">
        <time>2026-06-22T22:19:32Z</time>
      </trkpt>
      <trkpt lat="23.06345" lon="113.274702">
        <time>2026-06-22T22:19:37Z</time>
      </trkpt>
      <trkpt lat="23.063499" lon="113.274534">
        <time>2026-06-22T22:19:42Z</time>
      </trkpt>
      <trkpt lat="23.063535" lon="113.274434">
        <time>2026-06-22T22:19:47Z</time>
      </trkpt>
      <trkpt lat="23.063609" lon="113.274294">
        <time>2026-06-22T22:19:52Z</time>
      </trkpt>
      <trkpt lat="23.063686" lon="113.274222">
        <time>2026-06-22T22:19:57Z</time>
      </trkpt>
      <trkpt lat="23.06381" lon="113.274115">
        <time>2026-06-22T22:20:02Z</time>
      </trkpt>
      <trkpt lat="23.063873" lon="113.274024">
        <time>2026-06-22T22:20:07Z</time>
      </trkpt>
      <trkpt lat="23.063952" lon="113.273884">
        <time>2026-06-22T22:20:12Z</time>
      </trkpt>
      <trkpt lat="23.064012" lon="113.273794">
        <time>2026-06-22T22:20:17Z</time>
      </trkpt>
      <trkpt lat="23.064124" lon="113.273677">
        <time>2026-06-22T22:20:22Z</time>
      </trkpt>
      <trkpt lat="23.064205" lon="113.273617">
        <time>2026-06-22T22:20:27Z</time>
      </trkpt>
      <trkpt lat="23.064319" lon="113.273523">
        <time>2026-06-22T22:20:32Z</time>
      </trkpt>
      <trkpt lat="23.064387" lon="113.273446">
        <time>2026-06-22T22:20:37Z</time>
      </trkpt>
      <trkpt lat="23.064501" lon="113.273336">
        <time>2026-06-22T22:20:42Z</time>
      </trkpt>
      <trkpt lat="23.064558" lon="113.27324">
        <time>2026-06-22T22:20:47Z</time>
      </trkpt>
      <trkpt lat="23.064573" lon="113.273072">
        <time>2026-06-22T22:20:52Z</time>
      </trkpt>
      <trkpt lat="23.064541" lon="113.272964">
        <time>2026-06-22T22:20:57Z</time>
      </trkpt>
      <trkpt lat="23.064477" lon="113.27281">
        <time>2026-06-22T22:21:02Z</time>
      </trkpt>
      <trkpt lat="23.06444" lon="113.272705">
        <time>2026-06-22T22:21:07Z</time>
      </trkpt>
      <trkpt lat="23.064429" lon="113.272547">
        <time>2026-06-22T22:21:12Z</time>
      </trkpt>
      <trkpt lat="23.064473" lon="113.272453">
        <time>2026-06-22T22:21:17Z</time>
      </trkpt>
      <trkpt lat="23.064545" lon="113.272302">
        <time>2026-06-22T22:21:22Z</time>
      </trkpt>
      <trkpt lat="23.064573" lon="113.27219">
        <time>2026-06-22T22:21:27Z</time>
      </trkpt>
      <trkpt lat="23.064631" lon="113.272039">
        <time>2026-06-22T22:21:32Z</time>
      </trkpt>
      <trkpt lat="23.064669" lon="113.271947">
        <time>2026-06-22T22:21:37Z</time>
      </trkpt>
      <trkpt lat="23.064732" lon="113.27181">
        <time>2026-06-22T22:21:42Z</time>
      </trkpt>
      <trkpt lat="23.064779" lon="113.271718">
        <time>2026-06-22T22:21:47Z</time>
      </trkpt>
      <trkpt lat="23.06486" lon="113.271575">
        <time>2026-06-22T22:21:52Z</time>
      </trkpt>
      <trkpt lat="23.064917" lon="113.271486">
        <time>2026-06-22T22:21:57Z</time>
      </trkpt>
      <trkpt lat="23.064989" lon="113.271342">
        <time>2026-06-22T22:22:02Z</time>
      </trkpt>
      <trkpt lat="23.065033" lon="113.271239">
        <time>2026-06-22T22:22:07Z</time>
      </trkpt>
      <trkpt lat="23.06512" lon="113.271091">
        <time>2026-06-22T22:22:12Z</time>
      </trkpt>
      <trkpt lat="23.065168" lon="113.270991">
        <time>2026-06-22T22:22:17Z</time>
      </trkpt>
      <trkpt lat="23.065229" lon="113.270833">
        <time>2026-06-22T22:22:22Z</time>
      </trkpt>
      <trkpt lat="23.06527" lon="113.270725">
        <time>2026-06-22T22:22:27Z</time>
      </trkpt>
      <trkpt lat="23.065332" lon="113.270564">
        <time>2026-06-22T22:22:32Z</time>
      </trkpt>
      <trkpt lat="23.065376" lon="113.270459">
        <time>2026-06-22T22:22:37Z</time>
      </trkpt>
      <trkpt lat="23.065443" lon="113.270308">
        <time>2026-06-22T22:22:42Z</time>
      </trkpt>
      <trkpt lat="23.065487" lon="113.270205">
        <time>2026-06-22T22:22:47Z</time>
      </trkpt>
      <trkpt lat="23.065542" lon="113.270045">
        <time>2026-06-22T22:22:52Z</time>
      </trkpt>
      <trkpt lat="23.065574" lon="113.269941">
        <time>2026-06-22T22:22:57Z</time>
      </trkpt>
      <trkpt lat="23.065619" lon="113.269771">
        <time>2026-06-22T22:23:02Z</time>
      </trkpt>
      <trkpt lat="23.065659" lon="113.269662">
        <time>2026-06-22T22:23:07Z</time>
      </trkpt>
      <trkpt lat="23.065719" lon="113.269497">
        <time>2026-06-22T22:23:12Z</time>
      </trkpt>
      <trkpt lat="23.065737" lon="113.269384">
        <time>2026-06-22T22:23:17Z</time>
      </trkpt>
      <trkpt lat="23.065774" lon="113.269222">
        <time>2026-06-22T22:23:22Z</time>
      </trkpt>
      <trkpt lat="23.065802" lon="113.269111">
        <time>2026-06-22T22:23:27Z</time>
      </trkpt>
      <trkpt lat="23.065863" lon="113.268951">
        <time>2026-06-22T22:23:32Z</time>
      </trkpt>
      <trkpt lat="23.065916" lon="113.268851">
        <time>2026-06-22T22:23:37Z</time>
      </trkpt>
      <trkpt lat="23.065993" lon="113.268702">
        <time>2026-06-22T22:23:42Z</time>
      </trkpt>
      <trkpt lat="23.066046" lon="113.268607">
        <time>2026-06-22T22:23:47Z</time>
      </trkpt>
      <trkpt lat="23.066133" lon="113.26846">
        <time>2026-06-22T22:23:52Z</time>
      </trkpt>
      <trkpt lat="23.066197" lon="113.268368">
        <time>2026-06-22T22:23:57Z</time>
      </trkpt>
      <trkpt lat="23.066304" lon="113.268233">
        <time>2026-06-22T22:24:02Z</time>
      </trkpt>
      <trkpt lat="23.066389" lon="113.268165">
        <time>2026-06-22T22:24:07Z</time>
      </trkpt>
      <trkpt lat="23.066547" lon="113.268146">
        <time>2026-06-22T22:24:12Z</time>
      </trkpt>
      <trkpt lat="23.066649" lon="113.268146">
        <time>2026-06-22T22:24:17Z</time>
      </trkpt>
      <trkpt lat="23.066609" lon="113.268015">
        <time>2026-06-22T22:24:22Z</time>
      </trkpt>
      <trkpt lat="23.066485" lon="113.267957">
        <time>2026-06-22T22:24:27Z</time>
      </trkpt>
      <trkpt lat="23.066309" lon="113.267954">
        <time>2026-06-22T22:24:32Z</time>
      </trkpt>
      <trkpt lat="23.066211" lon="113.268005">
        <time>2026-06-22T22:24:37Z</time>
      </trkpt>
      <trkpt lat="23.066106" lon="113.268131">
        <time>2026-06-22T22:24:42Z</time>
      </trkpt>
      <trkpt lat="23.066034" lon="113.268217">
        <time>2026-06-22T22:24:47Z</time>
      </trkpt>
      <trkpt lat="23.065936" lon="113.268345">
        <time>2026-06-22T22:24:52Z</time>
      </trkpt>
      <trkpt lat="23.065875" lon="113.268434">
        <time>2026-06-22T22:24:57Z</time>
      </trkpt>
      <trkpt lat="23.065791" lon="113.268581">
        <time>2026-06-22T22:25:02Z</time>
      </trkpt>
      <trkpt lat="23.065744" lon="113.268679">
        <time>2026-06-22T22:25:07Z</time>
      </trkpt>
      <trkpt lat="23.06568" lon="113.26883">
        <time>2026-06-22T22:25:12Z</time>
      </trkpt>
      <trkpt lat="23.065641" lon="113.268933">
        <time>2026-06-22T22:25:17Z</time>
      </trkpt>
      <trkpt lat="23.065588" lon="113.269089">
        <time>2026-06-22T22:25:22Z</time>
      </trkpt>
      <trkpt lat="23.065556" lon="113.269195">
        <time>2026-06-22T22:25:27Z</time>
      </trkpt>
      <trkpt lat="23.065515" lon="113.269352">
        <time>2026-06-22T22:25:32Z</time>
      </trkpt>
      <trkpt lat="23.065494" lon="113.269454">
        <time>2026-06-22T22:25:37Z</time>
      </trkpt>
      <trkpt lat="23.065459" lon="113.269615">
        <time>2026-06-22T22:25:42Z</time>
      </trkpt>
      <trkpt lat="23.06543" lon="113.269723">
        <time>2026-06-22T22:25:47Z</time>
      </trkpt>
      <trkpt lat="23.065382" lon="113.269881">
        <time>2026-06-22T22:25:52Z</time>
      </trkpt>
      <trkpt lat="23.065349" lon="113.269984">
        <time>2026-06-22T22:25:57Z</time>
      </trkpt>
      <trkpt lat="23.065292" lon="113.270134">
        <time>2026-06-22T22:26:02Z</time>
      </trkpt>
      <trkpt lat="23.06525" lon="113.270232">
        <time>2026-06-22T22:26:07Z</time>
      </trkpt>
      <trkpt lat="23.065182" lon="113.270373">
        <time>2026-06-22T22:26:12Z</time>
      </trkpt>
      <trkpt lat="23.065139" lon="113.270474">
        <time>2026-06-22T22:26:17Z</time>
      </trkpt>
      <trkpt lat="23.065074" lon="113.270618">
        <time>2026-06-22T22:26:22Z</time>
      </trkpt>
      <trkpt lat="23.065031" lon="113.270714">
        <time>2026-06-22T22:26:27Z</time>
      </trkpt>
      <trkpt lat="23.06496" lon="113.270859">
        <time>2026-06-22T22:26:32Z</time>
      </trkpt>
      <trkpt lat="23.064912" lon="113.270951">
        <time>2026-06-22T22:26:37Z</time>
      </trkpt>
      <trkpt lat="23.064853" lon="113.271096">
        <time>2026-06-22T22:26:42Z</time>
      </trkpt>
      <trkpt lat="23.064811" lon="113.271195">
        <time>2026-06-22T22:26:47Z</time>
      </trkpt>
      <trkpt lat="23.064751" lon="113.271348">
        <time>2026-06-22T22:26:52Z</time>
      </trkpt>
      <trkpt lat="23.064708" lon="113.271448">
        <time>2026-06-22T22:26:57Z</time>
      </trkpt>
      <trkpt lat="23.064636" lon="113.271594">
        <time>2026-06-22T22:27:02Z</time>
      </trkpt>
      <trkpt lat="23.064591" lon="113.271689">
        <time>2026-06-22T22:27:07Z</time>
      </trkpt>
      <trkpt lat="23.064524" lon="113.271843">
        <time>2026-06-22T22:27:12Z</time>
      </trkpt>
      <trkpt lat="23.064468" lon="113.271945">
        <time>2026-06-22T22:27:17Z</time>
      </trkpt>
      <trkpt lat="23.064385" lon="113.272102">
        <time>2026-06-22T22:27:22Z</time>
      </trkpt>
      <trkpt lat="23.064331" lon="113.272203">
        <time>2026-06-22T22:27:27Z</time>
      </trkpt>
      <trkpt lat="23.06431" lon="113.272373">
        <time>2026-06-22T22:27:32Z</time>
      </trkpt>
      <trkpt lat="23.064306" lon="113.272484">
        <time>2026-06-22T22:27:37Z</time>
      </trkpt>
      <trkpt lat="23.064316" lon="113.272659">
        <time>2026-06-22T22:27:42Z</time>
      </trkpt>
      <trkpt lat="23.064352" lon="113.272771">
        <time>2026-06-22T22:27:47Z</time>
      </trkpt>
      <trkpt lat="23.064408" lon="113.272936">
        <time>2026-06-22T22:27:52Z</time>
      </trkpt>
      <trkpt lat="23.06444" lon="113.273043">
        <time>2026-06-22T22:27:57Z</time>
      </trkpt>
      <trkpt lat="23.064465" lon="113.273191">
        <time>2026-06-22T22:28:02Z</time>
      </trkpt>
      <trkpt lat="23.064434" lon="113.273283">
        <time>2026-06-22T22:28:07Z</time>
      </trkpt>
      <trkpt lat="23.064328" lon="113.273386">
        <time>2026-06-22T22:28:12Z</time>
      </trkpt>
      <trkpt lat="23.064245" lon="113.27344">
        <time>2026-06-22T22:28:17Z</time>
      </trkpt>
      <trkpt lat="23.064119" lon="113.273525">
        <time>2026-06-22T22:28:22Z</time>
      </trkpt>
      <trkpt lat="23.064033" lon="113.273585">
        <time>2026-06-22T22:28:27Z</time>
      </trkpt>
      <trkpt lat="23.063923" lon="113.273689">
        <time>2026-06-22T22:28:32Z</time>
      </trkpt>
      <trkpt lat="23.063862" lon="113.273775">
        <time>2026-06-22T22:28:37Z</time>
      </trkpt>
      <trkpt lat="23.063785" lon="113.273916">
        <time>2026-06-22T22:28:42Z</time>
      </trkpt>
      <trkpt lat="23.063736" lon="113.274008">
        <time>2026-06-22T22:28:47Z</time>
      </trkpt>
      <trkpt lat="23.063638" lon="113.274119">
        <time>2026-06-22T22:28:52Z</time>
      </trkpt>
      <trkpt lat="23.063558" lon="113.27418">
        <time>2026-06-22T22:28:57Z</time>
      </trkpt>
      <trkpt lat="23.063479" lon="113.274326">
        <time>2026-06-22T22:29:02Z</time>
      </trkpt>
      <trkpt lat="23.063444" lon="113.274441">
        <time>2026-06-22T22:29:07Z</time>
      </trkpt>
      <trkpt lat="23.063384" lon="113.2746">
        <time>2026-06-22T22:29:12Z</time>
      </trkpt>
      <trkpt lat="23.063343" lon="113.274712">
        <time>2026-06-22T22:29:17Z</time>
      </trkpt>
      <trkpt lat="23.06328" lon="113.274883">
        <time>2026-06-22T22:29:22Z</time>
      </trkpt>
      <trkpt lat="23.06324" lon="113.274995">
        <time>2026-06-22T22:29:27Z</time>
      </trkpt>
      <trkpt lat="23.063162" lon="113.275154">
        <time>2026-06-22T22:29:32Z</time>
      </trkpt>
      <trkpt lat="23.063108" lon="113.275255">
        <time>2026-06-22T22:29:37Z</time>
      </trkpt>
      <trkpt lat="23.063037" lon="113.275393">
        <time>2026-06-22T22:29:42Z</time>
      </trkpt>
      <trkpt lat="23.062982" lon="113.275481">
        <time>2026-06-22T22:29:47Z</time>
      </trkpt>
      <trkpt lat="23.062878" lon="113.275608">
        <time>2026-06-22T22:29:52Z</time>
      </trkpt>
      <trkpt lat="23.062796" lon="113.275682">
        <time>2026-06-22T22:29:57Z</time>
      </trkpt>
      <trkpt lat="23.062677" lon="113.275801">
        <time>2026-06-22T22:30:02Z</time>
      </trkpt>
      <trkpt lat="23.062607" lon="113.27589">
        <time>2026-06-22T22:30:07Z</time>
      </trkpt>
      <trkpt lat="23.062509" lon="113.276034">
        <time>2026-06-22T22:30:12Z</time>
      </trkpt>
      <trkpt lat="23.062457" lon="113.276138">
        <time>2026-06-22T22:30:17Z</time>
      </trkpt>
      <trkpt lat="23.062385" lon="113.276298">
        <time>2026-06-22T22:30:22Z</time>
      </trkpt>
      <trkpt lat="23.062347" lon="113.276407">
        <time>2026-06-22T22:30:27Z</time>
      </trkpt>
      <trkpt lat="23.062288" lon="113.276568">
        <time>2026-06-22T22:30:32Z</time>
      </trkpt>
      <trkpt lat="23.062251" lon="113.276669">
        <time>2026-06-22T22:30:37Z</time>
      </trkpt>
      <trkpt lat="23.062202" lon="113.276816">
        <time>2026-06-22T22:30:42Z</time>
      </trkpt>
      <trkpt lat="23.062169" lon="113.276913">
        <time>2026-06-22T22:30:47Z</time>
      </trkpt>
      <trkpt lat="23.062113" lon="113.27706">
        <time>2026-06-22T22:30:52Z</time>
      </trkpt>
      <trkpt lat="23.062073" lon="113.277164">
        <time>2026-06-22T22:30:57Z</time>
      </trkpt>
      <trkpt lat="23.062008" lon="113.27733">
        <time>2026-06-22T22:31:02Z</time>
      </trkpt>
      <trkpt lat="23.061967" lon="113.27744">
        <time>2026-06-22T22:31:07Z</time>
      </trkpt>
      <trkpt lat="23.061903" lon="113.277604">
        <time>2026-06-22T22:31:12Z</time>
      </trkpt>
      <trkpt lat="23.061865" lon="113.277712">
        <time>2026-06-22T22:31:17Z</time>
      </trkpt>
      <trkpt lat="23.061837" lon="113.277867">
        <time>2026-06-22T22:31:22Z</time>
      </trkpt>
      <trkpt lat="23.061836" lon="113.277965">
        <time>2026-06-22T22:31:27Z</time>
      </trkpt>
      <trkpt lat="23.061847" lon="113.27811">
        <time>2026-06-22T22:31:32Z</time>
      </trkpt>
      <trkpt lat="23.061854" lon="113.278213">
        <time>2026-06-22T22:31:37Z</time>
      </trkpt>
      <trkpt lat="23.061861" lon="113.27837">
        <time>2026-06-22T22:31:42Z</time>
      </trkpt>
      <trkpt lat="23.061866" lon="113.278476">
        <time>2026-06-22T22:31:47Z</time>
      </trkpt>
      <trkpt lat="23.061868" lon="113.278631">
        <time>2026-06-22T22:31:52Z</time>
      </trkpt>
      <trkpt lat="23.061849" lon="113.278732">
        <time>2026-06-22T22:31:57Z</time>
      </trkpt>
      <trkpt lat="23.061788" lon="113.278871">
        <time>2026-06-22T22:32:02Z</time>
      </trkpt>
      <trkpt lat="23.061737" lon="113.278961">
        <time>2026-06-22T22:32:07Z</time>
      </trkpt>
      <trkpt lat="23.061659" lon="113.279094">
        <time>2026-06-22T22:32:12Z</time>
      </trkpt>
      <trkpt lat="23.061614" lon="113.279183">
        <time>2026-06-22T22:32:17Z</time>
      </trkpt>
      <trkpt lat="23.061561" lon="113.279331">
        <time>2026-06-22T22:32:22Z</time>
      </trkpt>
      <trkpt lat="23.061529" lon="113.279426">
        <time>2026-06-22T22:32:27Z</time>
      </trkpt>
      <trkpt lat="23.061477" lon="113.279569">
        <time>2026-06-22T22:32:32Z</time>
      </trkpt>
      <trkpt lat="23.061438" lon="113.279667">
        <time>2026-06-22T22:32:37Z</time>
      </trkpt>
      <trkpt lat="23.061373" lon="113.27981">
        <time>2026-06-22T22:32:42Z</time>
      </trkpt>
      <trkpt lat="23.061329" lon="113.279909">
        <time>2026-06-22T22:32:47Z</time>
      </trkpt>
      <trkpt lat="23.061266" lon="113.280064">
        <time>2026-06-22T22:32:52Z</time>
      </trkpt>
      <trkpt lat="23.061223" lon="113.280166">
        <time>2026-06-22T22:32:57Z</time>
      </trkpt>
      <trkpt lat="23.061156" lon="113.280321">
        <time>2026-06-22T22:33:02Z</time>
      </trkpt>
      <trkpt lat="23.061108" lon="113.280423">
        <time>2026-06-22T22:33:07Z</time>
      </trkpt>
      <trkpt lat="23.061041" lon="113.280572">
        <time>2026-06-22T22:33:12Z</time>
      </trkpt>
      <trkpt lat="23.060993" lon="113.280667">
        <time>2026-06-22T22:33:17Z</time>
      </trkpt>
      <trkpt lat="23.0609" lon="113.280797">
        <time>2026-06-22T22:33:22Z</time>
      </trkpt>
      <trkpt lat="23.060847" lon="113.280897">
        <time>2026-06-22T22:33:27Z</time>
      </trkpt>
      <trkpt lat="23.060786" lon="113.281048">
        <time>2026-06-22T22:33:32Z</time>
      </trkpt>
      <trkpt lat="23.060743" lon="113.281145">
        <time>2026-06-22T22:33:37Z</time>
      </trkpt>
      <trkpt lat="23.060678" lon="113.28129">
        <time>2026-06-22T22:33:42Z</time>
      </trkpt>
      <trkpt lat="23.060638" lon="113.281381">
        <time>2026-06-22T22:33:47Z</time>
      </trkpt>
      <trkpt lat="23.060576" lon="113.281522">
        <time>2026-06-22T22:33:52Z</time>
      </trkpt>
      <trkpt lat="23.060535" lon="113.281616">
        <time>2026-06-22T22:33:57Z</time>
      </trkpt>
      <trkpt lat="23.060473" lon="113.281761">
        <time>2026-06-22T22:34:02Z</time>
      </trkpt>
      <trkpt lat="23.060433" lon="113.281857">
        <time>2026-06-22T22:34:07Z</time>
      </trkpt>
      <trkpt lat="23.060372" lon="113.281997">
        <time>2026-06-22T22:34:12Z</time>
      </trkpt>
      <trkpt lat="23.060332" lon="113.282091">
        <time>2026-06-22T22:34:17Z</time>
      </trkpt>
      <trkpt lat="23.060269" lon="113.282233">
        <time>2026-06-22T22:34:22Z</time>
      </trkpt>
      <trkpt lat="23.060224" lon="113.282326">
        <time>2026-06-22T22:34:27Z</time>
      </trkpt>
      <trkpt lat="23.06016" lon="113.282469">
        <time>2026-06-22T22:34:32Z</time>
      </trkpt>
      <trkpt lat="23.06012" lon="113.282566">
        <time>2026-06-22T22:34:37Z</time>
      </trkpt>
      <trkpt lat="23.060061" lon="113.282714">
        <time>2026-06-22T22:34:42Z</time>
      </trkpt>
      <trkpt lat="23.060024" lon="113.282809">
        <time>2026-06-22T22:34:47Z</time>
      </trkpt>
      <trkpt lat="23.059962" lon="113.282954">
        <time>2026-06-22T22:34:52Z</time>
      </trkpt>
      <trkpt lat="23.059921" lon="113.283056">
        <time>2026-06-22T22:34:57Z</time>
      </trkpt>
      <trkpt lat="23.059851" lon="113.283203">
        <time>2026-06-22T22:35:02Z</time>
      </trkpt>
      <trkpt lat="23.059806" lon="113.283302">
        <time>2026-06-22T22:35:07Z</time>
      </trkpt>
      <trkpt lat="23.059738" lon="113.283449">
        <time>2026-06-22T22:35:12Z</time>
      </trkpt>
      <trkpt lat="23.059694" lon="113.283549">
        <time>2026-06-22T22:35:17Z</time>
      </trkpt>
      <trkpt lat="23.059625" lon="113.283709">
        <time>2026-06-22T22:35:22Z</time>
      </trkpt>
      <trkpt lat="23.059592" lon="113.283821">
        <time>2026-06-22T22:35:27Z</time>
      </trkpt>
      <trkpt lat="23.05953" lon="113.283973">
        <time>2026-06-22T22:35:32Z</time>
      </trkpt>
      <trkpt lat="23.059483" lon="113.284066">
        <time>2026-06-22T22:35:37Z</time>
      </trkpt>
      <trkpt lat="23.059396" lon="113.284205">
        <time>2026-06-22T22:35:42Z</time>
      </trkpt>
      <trkpt lat="23.059355" lon="113.284303">
        <time>2026-06-22T22:35:47Z</time>
      </trkpt>
      <trkpt lat="23.059296" lon="113.284445">
        <time>2026-06-22T22:35:52Z</time>
      </trkpt>
      <trkpt lat="23.059276" lon="113.284546">
        <time>2026-06-22T22:35:57Z</time>
      </trkpt>
      <trkpt lat="23.059248" lon="113.284705">
        <time>2026-06-22T22:36:02Z</time>
      </trkpt>
      <trkpt lat="23.059212" lon="113.284807">
        <time>2026-06-22T22:36:07Z</time>
      </trkpt>
      <trkpt lat="23.059156" lon="113.284953">
        <time>2026-06-22T22:36:12Z</time>
      </trkpt>
      <trkpt lat="23.059112" lon="113.285048">
        <time>2026-06-22T22:36:17Z</time>
      </trkpt>
      <trkpt lat="23.059047" lon="113.28519">
        <time>2026-06-22T22:36:22Z</time>
      </trkpt>
      <trkpt lat="23.059005" lon="113.285289">
        <time>2026-06-22T22:36:27Z</time>
      </trkpt>
      <trkpt lat="23.058948" lon="113.285439">
        <time>2026-06-22T22:36:32Z</time>
      </trkpt>
      <trkpt lat="23.058906" lon="113.285541">
        <time>2026-06-22T22:36:37Z</time>
      </trkpt>
      <trkpt lat="23.058837" lon="113.285691">
        <time>2026-06-22T22:36:42Z</time>
      </trkpt>
      <trkpt lat="23.058794" lon="113.285792">
        <time>2026-06-22T22:36:47Z</time>
      </trkpt>
      <trkpt lat="23.058729" lon="113.28594">
        <time>2026-06-22T22:36:52Z</time>
      </trkpt>
      <trkpt lat="23.058686" lon="113.286035">
        <time>2026-06-22T22:36:57Z</time>
      </trkpt>
      <trkpt lat="23.058759" lon="113.286068">
        <time>2026-06-22T22:37:02Z</time>
      </trkpt>
      <trkpt lat="23.058811" lon="113.28597">
        <time>2026-06-22T22:37:07Z</time>
      </trkpt>
      <trkpt lat="23.058873" lon="113.285811">
        <time>2026-06-22T22:37:12Z</time>
      </trkpt>
      <trkpt lat="23.058913" lon="113.285711">
        <time>2026-06-22T22:37:17Z</time>
      </trkpt>
      <trkpt lat="23.05898" lon="113.285565">
        <time>2026-06-22T22:37:22Z</time>
      </trkpt>
      <trkpt lat="23.059026" lon="113.285467">
        <time>2026-06-22T22:37:27Z</time>
      </trkpt>
      <trkpt lat="23.059084" lon="113.285323">
        <time>2026-06-22T22:37:32Z</time>
      </trkpt>
      <trkpt lat="23.059124" lon="113.285228">
        <time>2026-06-22T22:37:37Z</time>
      </trkpt>
      <trkpt lat="23.05922" lon="113.285109">
        <time>2026-06-22T22:37:42Z</time>
      </trkpt>
      <trkpt lat="23.059291" lon="113.285038">
        <time>2026-06-22T22:37:47Z</time>
      </trkpt>
      <trkpt lat="23.059315" lon="113.284886">
        <time>2026-06-22T22:37:52Z</time>
      </trkpt>
      <trkpt lat="23.059328" lon="113.284781">
        <time>2026-06-22T22:37:57Z</time>
      </trkpt>
      <trkpt lat="23.059385" lon="113.284636">
        <time>2026-06-22T22:38:02Z</time>
      </trkpt>
      <trkpt lat="23.059423" lon="113.284539">
        <time>2026-06-22T22:38:07Z</time>
      </trkpt>
      <trkpt lat="23.059478" lon="113.284397">
        <time>2026-06-22T22:38:12Z</time>
      </trkpt>
      <trkpt lat="23.05952" lon="113.284301">
        <time>2026-06-22T22:38:17Z</time>
      </trkpt>
      <trkpt lat="23.059587" lon="113.284146">
        <time>2026-06-22T22:38:22Z</time>
      </trkpt>
      <trkpt lat="23.059633" lon="113.284049">
        <time>2026-06-22T22:38:27Z</time>
      </trkpt>
      <trkpt lat="23.059693" lon="113.283911">
        <time>2026-06-22T22:38:32Z</time>
      </trkpt>
      <trkpt lat="23.059735" lon="113.283818">
        <time>2026-06-22T22:38:37Z</time>
      </trkpt>
      <trkpt lat="23.059799" lon="113.283676">
        <time>2026-06-22T22:38:42Z</time>
      </trkpt>
      <trkpt lat="23.059841" lon="113.283578">
        <time>2026-06-22T22:38:47Z</time>
      </trkpt>
      <trkpt lat="23.059914" lon="113.283435">
        <time>2026-06-22T22:38:52Z</time>
      </trkpt>
      <trkpt lat="23.059963" lon="113.283337">
        <time>2026-06-22T22:38:57Z</time>
      </trkpt>
      <trkpt lat="23.060051" lon="113.283206">
        <time>2026-06-22T22:39:02Z</time>
      </trkpt>
      <trkpt lat="23.060103" lon="113.283118">
        <time>2026-06-22T22:39:07Z</time>
      </trkpt>
      <trkpt lat="23.060162" lon="113.28297">
        <time>2026-06-22T22:39:12Z</time>
      </trkpt>
      <trkpt lat="23.060202" lon="113.282869">
        <time>2026-06-22T22:39:17Z</time>
      </trkpt>
      <trkpt lat="23.060265" lon="113.28272">
        <time>2026-06-22T22:39:22Z</time>
      </trkpt>
      <trkpt lat="23.060304" lon="113.282621">
        <time>2026-06-22T22:39:27Z</time>
      </trkpt>
      <trkpt lat="23.060352" lon="113.28247">
        <time>2026-06-22T22:39:32Z</time>
      </trkpt>
      <trkpt lat="23.060382" lon="113.28237">
        <time>2026-06-22T22:39:37Z</time>
      </trkpt>
      <trkpt lat="23.060429" lon="113.282227">
        <time>2026-06-22T22:39:42Z</time>
      </trkpt>
      <trkpt lat="23.060466" lon="113.282133">
        <time>2026-06-22T22:39:47Z</time>
      </trkpt>
      <trkpt lat="23.060524" lon="113.282001">
        <time>2026-06-22T22:39:52Z</time>
      </trkpt>
      <trkpt lat="23.060555" lon="113.28191">
        <time>2026-06-22T22:39:57Z</time>
      </trkpt>
      <trkpt lat="23.06061" lon="113.281767">
        <time>2026-06-22T22:40:02Z</time>
      </trkpt>
      <trkpt lat="23.060645" lon="113.281671">
        <time>2026-06-22T22:40:07Z</time>
      </trkpt>
      <trkpt lat="23.060701" lon="113.281534">
        <time>2026-06-22T22:40:12Z</time>
      </trkpt>
      <trkpt lat="23.060743" lon="113.281445">
        <time>2026-06-22T22:40:17Z</time>
      </trkpt>
      <trkpt lat="23.060803" lon="113.281309">
        <time>2026-06-22T22:40:22Z</time>
      </trkpt>
      <trkpt lat="23.060841" lon="113.281215">
        <time>2026-06-22T22:40:27Z</time>
      </trkpt>
      <trkpt lat="23.060902" lon="113.281072">
        <time>2026-06-22T22:40:32Z</time>
      </trkpt>
      <trkpt lat="23.060939" lon="113.280976">
        <time>2026-06-22T22:40:37Z</time>
      </trkpt>
      <trkpt lat="23.061001" lon="113.280832">
        <time>2026-06-22T22:40:42Z</time>
      </trkpt>
      <trkpt lat="23.061049" lon="113.280729">
        <time>2026-06-22T22:40:47Z</time>
      </trkpt>
      <trkpt lat="23.061121" lon="113.280574">
        <time>2026-06-22T22:40:52Z</time>
      </trkpt>
      <trkpt lat="23.061168" lon="113.280477">
        <time>2026-06-22T22:40:57Z</time>
      </trkpt>
      <trkpt lat="23.061232" lon="113.280331">
        <time>2026-06-22T22:41:02Z</time>
      </trkpt>
      <trkpt lat="23.061279" lon="113.280239">
        <time>2026-06-22T22:41:07Z</time>
      </trkpt>
      <trkpt lat="23.061357" lon="113.280105">
        <time>2026-06-22T22:41:12Z</time>
      </trkpt>
      <trkpt lat="23.061395" lon="113.280014">
        <time>2026-06-22T22:41:17Z</time>
      </trkpt>
      <trkpt lat="23.061447" lon="113.279877">
        <time>2026-06-22T22:41:22Z</time>
      </trkpt>
      <trkpt lat="23.061485" lon="113.279776">
        <time>2026-06-22T22:41:27Z</time>
      </trkpt>
      <trkpt lat="23.061542" lon="113.279629">
        <time>2026-06-22T22:41:32Z</time>
      </trkpt>
      <trkpt lat="23.061577" lon="113.279539">
        <time>2026-06-22T22:41:37Z</time>
      </trkpt>
      <trkpt lat="23.061626" lon="113.279391">
        <time>2026-06-22T22:41:42Z</time>
      </trkpt>
      <trkpt lat="23.061661" lon="113.279292">
        <time>2026-06-22T22:41:47Z</time>
      </trkpt>
      <trkpt lat="23.061724" lon="113.279148">
        <time>2026-06-22T22:41:52Z</time>
      </trkpt>
      <trkpt lat="23.061779" lon="113.279062">
        <time>2026-06-22T22:41:57Z</time>
      </trkpt>
      <trkpt lat="23.061875" lon="113.278925">
        <time>2026-06-22T22:42:02Z</time>
      </trkpt>
      <trkpt lat="23.061927" lon="113.278825">
        <time>2026-06-22T22:42:07Z</time>
      </trkpt>
      <trkpt lat="23.061955" lon="113.278658">
        <time>2026-06-22T22:42:12Z</time>
      </trkpt>
      <trkpt lat="23.061949" lon="113.278547">
        <time>2026-06-22T22:42:17Z</time>
      </trkpt>
      <trkpt lat="23.061943" lon="113.278387">
        <time>2026-06-22T22:42:22Z</time>
      </trkpt>
      <trkpt lat="23.06194" lon="113.278282">
        <time>2026-06-22T22:42:27Z</time>
      </trkpt>
      <trkpt lat="23.061937" lon="113.278126">
        <time>2026-06-22T22:42:32Z</time>
      </trkpt>
      <trkpt lat="23.061933" lon="113.278019">
        <time>2026-06-22T22:42:37Z</time>
      </trkpt>
      <trkpt lat="23.06193" lon="113.277856">
        <time>2026-06-22T22:42:42Z</time>
      </trkpt>
      <trkpt lat="23.061945" lon="113.277746">
        <time>2026-06-22T22:42:47Z</time>
      </trkpt>
      <trkpt lat="23.061996" lon="113.277589">
        <time>2026-06-22T22:42:52Z</time>
      </trkpt>
      <trkpt lat="23.062034" lon="113.277486">
        <time>2026-06-22T22:42:57Z</time>
      </trkpt>
      <trkpt lat="23.062094" lon="113.277339">
        <time>2026-06-22T22:43:02Z</time>
      </trkpt>
      <trkpt lat="23.06213" lon="113.277237">
        <time>2026-06-22T22:43:07Z</time>
      </trkpt>
      <trkpt lat="23.062182" lon="113.277084">
        <time>2026-06-22T22:43:12Z</time>
      </trkpt>
      <trkpt lat="23.06222" lon="113.276984">
        <time>2026-06-22T22:43:17Z</time>
      </trkpt>
      <trkpt lat="23.062273" lon="113.276833">
        <time>2026-06-22T22:43:22Z</time>
      </trkpt>
      <trkpt lat="23.062311" lon="113.276733">
        <time>2026-06-22T22:43:27Z</time>
      </trkpt>
      <trkpt lat="23.062365" lon="113.276582">
        <time>2026-06-22T22:43:32Z</time>
      </trkpt>
      <trkpt lat="23.062402" lon="113.276482">
        <time>2026-06-22T22:43:37Z</time>
      </trkpt>
      <trkpt lat="23.062456" lon="113.276335">
        <time>2026-06-22T22:43:42Z</time>
      </trkpt>
      <trkpt lat="23.062495" lon="113.276238">
        <time>2026-06-22T22:43:47Z</time>
      </trkpt>
      <trkpt lat="23.062573" lon="113.276093">
        <time>2026-06-22T22:43:52Z</time>
      </trkpt>
      <trkpt lat="23.062634" lon="113.276004">
        <time>2026-06-22T22:43:57Z</time>
      </trkpt>
      <trkpt lat="23.062731" lon="113.275882">
        <time>2026-06-22T22:44:02Z</time>
      </trkpt>
      <trkpt lat="23.062805" lon="113.275808">
        <time>2026-06-22T22:44:07Z</time>
      </trkpt>
      <trkpt lat="23.062921" lon="113.275702">
        <time>2026-06-22T22:44:12Z</time>
      </trkpt>
      <trkpt lat="23.062992" lon="113.275625">
        <time>2026-06-22T22:44:17Z</time>
      </trkpt>
      <trkpt lat="23.063083" lon="113.275497">
        <time>2026-06-22T22:44:22Z</time>
      </trkpt>
      <trkpt lat="23.063133" lon="113.275405">
        <time>2026-06-22T22:44:27Z</time>
      </trkpt>
      <trkpt lat="23.063215" lon="113.275268">
        <time>2026-06-22T22:44:32Z</time>
      </trkpt>
      <trkpt lat="23.063275" lon="113.275179">
        <time>2026-06-22T22:44:37Z</time>
      </trkpt>
      <trkpt lat="23.063353" lon="113.275037">
        <time>2026-06-22T22:44:42Z</time>
      </trkpt>
      <trkpt lat="23.063381" lon="113.274931">
        <time>2026-06-22T22:44:47Z</time>
      </trkpt>
      <trkpt lat="23.063425" lon="113.274785">
        <time>2026-06-22T22:44:52Z</time>
      </trkpt>
      <trkpt lat="23.063456" lon="113.274691">
        <time>2026-06-22T22:44:57Z</time>
      </trkpt>
      <trkpt lat="23.063493" lon="113.274534">
        <time>2026-06-22T22:45:02Z</time>
      </trkpt>
      <trkpt lat="23.063542" lon="113.274386">
        <time>2026-06-22T22:45:07Z</time>
      </trkpt>
      <trkpt lat="23.063687" lon="113.2742">
        <time>2026-06-22T22:45:12Z</time>
      </trkpt>
      <trkpt lat="23.063815" lon="113.274102">
        <time>2026-06-22T22:45:17Z</time>
      </trkpt>
      <trkpt lat="23.063946" lon="113.273896">
        <time>2026-06-22T22:45:22Z</time>
      </trkpt>
      <trkpt lat="23.064018" lon="113.273765">
        <time>2026-06-22T22:45:27Z</time>
      </trkpt>
      <trkpt lat="23.064093" lon="113.273682">
        <time>2026-06-22T22:45:32Z</time>
      </trkpt>
      <trkpt lat="23.064137" lon="113.273657">
        <time>2026-06-22T22:45:37Z</time>
      </trkpt>
      <trkpt lat="23.064202" lon="113.273621">
        <time>2026-06-22T22:45:42Z</time>
      </trkpt>
      <trkpt lat="23.064242" lon="113.273594">
        <time>2026-06-22T22:45:47Z</time>
      </trkpt>
      <trkpt lat="23.064305" lon="113.273546">
        <time>2026-06-22T22:45:52Z</time>
      </trkpt>
      <trkpt lat="23.064351" lon="113.273511">
        <time>2026-06-22T22:45:57Z</time>
      </trkpt>
      <trkpt lat="23.064416" lon="113.273462">
        <time>2026-06-22T22:46:02Z</time>
      </trkpt>
      <trkpt lat="23.064449" lon="113.273426">
        <time>2026-06-22T22:46:07Z</time>
      </trkpt>
      <trkpt lat="23.064495" lon="113.27336">
        <time>2026-06-22T22:46:12Z</time>
      </trkpt>
      <trkpt lat="23.064523" lon="113.273311">
        <time>2026-06-22T22:46:17Z</time>
      </trkpt>
      <trkpt lat="23.06456" lon="113.273217">
        <time>2026-06-22T22:46:22Z</time>
      </trkpt>
      <trkpt lat="23.064559" lon="113.27308">
        <time>2026-06-22T22:46:27Z</time>
      </trkpt>
      <trkpt lat="23.064476" lon="113.272822">
        <time>2026-06-22T22:46:32Z</time>
      </trkpt>
      <trkpt lat="23.064426" lon="113.272646">
        <time>2026-06-22T22:46:37Z</time>
      </trkpt>
      <trkpt lat="23.064518" lon="113.27245">
        <time>2026-06-22T22:46:42Z</time>
      </trkpt>
      <trkpt lat="23.064689" lon="113.272476">
        <time>2026-06-22T22:46:47Z</time>
      </trkpt>
      <trkpt lat="23.064877" lon="113.272554">
        <time>2026-06-22T22:46:52Z</time>
      </trkpt>
      <trkpt lat="23.064925" lon="113.272578">
        <time>2026-06-22T22:46:57Z</time>
      </trkpt>
      <trkpt lat="23.064981" lon="113.272601">
        <time>2026-06-22T22:47:02Z</time>
      </trkpt>
      <trkpt lat="23.065024" lon="113.272617">
        <time>2026-06-22T22:47:07Z</time>
      </trkpt>
      <trkpt lat="23.065093" lon="113.272635">
        <time>2026-06-22T22:47:12Z</time>
      </trkpt>
      <trkpt lat="23.065138" lon="113.272645">
        <time>2026-06-22T22:47:17Z</time>
      </trkpt>
      <trkpt lat="23.065212" lon="113.272669">
        <time>2026-06-22T22:47:22Z</time>
      </trkpt>
      <trkpt lat="23.06526" lon="113.272685">
        <time>2026-06-22T22:47:27Z</time>
      </trkpt>
      <trkpt lat="23.065324" lon="113.272708">
        <time>2026-06-22T22:47:32Z</time>
      </trkpt>
      <trkpt lat="23.065366" lon="113.272709">
        <time>2026-06-22T22:47:37Z</time>
      </trkpt>
      <trkpt lat="23.065421" lon="113.272685">
        <time>2026-06-22T22:47:42Z</time>
      </trkpt>
      <trkpt lat="23.065375" lon="113.272658">
        <time>2026-06-22T22:47:47Z</time>
      </trkpt>
      <trkpt lat="23.065145" lon="113.272584">
        <time>2026-06-22T22:47:52Z</time>
      </trkpt>
      <trkpt lat="23.064965" lon="113.272516">
        <time>2026-06-22T22:47:57Z</time>
      </trkpt>
      <trkpt lat="23.064723" lon="113.27243">
        <time>2026-06-22T22:48:02Z</time>
      </trkpt>
      <trkpt lat="23.064584" lon="113.272347">
        <time>2026-06-22T22:48:07Z</time>
      </trkpt>
      <trkpt lat="23.064568" lon="113.272126">
        <time>2026-06-22T22:48:12Z</time>
      </trkpt>
      <trkpt lat="23.064609" lon="113.272033">
        <time>2026-06-22T22:48:17Z</time>
      </trkpt>
      <trkpt lat="23.064644" lon="113.271977">
        <time>2026-06-22T22:48:22Z</time>
      </trkpt>
      <trkpt lat="23.06467" lon="113.271935">
        <time>2026-06-22T22:48:27Z</time>
      </trkpt>
      <trkpt lat="23.064705" lon="113.271869">
        <time>2026-06-22T22:48:32Z</time>
      </trkpt>
      <trkpt lat="23.064725" lon="113.271829">
        <time>2026-06-22T22:48:37Z</time>
      </trkpt>
      <trkpt lat="23.064759" lon="113.271771">
        <time>2026-06-22T22:48:42Z</time>
      </trkpt>
      <trkpt lat="23.064782" lon="113.27173">
        <time>2026-06-22T22:48:47Z</time>
      </trkpt>
      <trkpt lat="23.064809" lon="113.271671">
        <time>2026-06-22T22:48:52Z</time>
      </trkpt>
      <trkpt lat="23.064833" lon="113.271623">
        <time>2026-06-22T22:48:57Z</time>
      </trkpt>
      <trkpt lat="23.064871" lon="113.271554">
        <time>2026-06-22T22:49:02Z</time>
      </trkpt>
      <trkpt lat="23.064897" lon="113.271493">
        <time>2026-06-22T22:49:07Z</time>
      </trkpt>
      <trkpt lat="23.06497" lon="113.271277">
        <time>2026-06-22T22:49:12Z</time>
      </trkpt>
      <trkpt lat="23.065054" lon="113.271086">
        <time>2026-06-22T22:49:17Z</time>
      </trkpt>
      <trkpt lat="23.065179" lon="113.270799">
        <time>2026-06-22T22:49:22Z</time>
      </trkpt>
      <trkpt lat="23.065261" lon="113.27062">
        <time>2026-06-22T22:49:27Z</time>
      </trkpt>
      <trkpt lat="23.065376" lon="113.270408">
        <time>2026-06-22T22:49:32Z</time>
      </trkpt>
      <trkpt lat="23.065405" lon="113.270352">
        <time>2026-06-22T22:49:37Z</time>
      </trkpt>
      <trkpt lat="23.065437" lon="113.270296">
        <time>2026-06-22T22:49:42Z</time>
      </trkpt>
      <trkpt lat="23.06546" lon="113.270255">
        <time>2026-06-22T22:49:47Z</time>
      </trkpt>
      <trkpt lat="23.065492" lon="113.270193">
        <time>2026-06-22T22:49:52Z</time>
      </trkpt>
      <trkpt lat="23.065511" lon="113.270147">
        <time>2026-06-22T22:49:57Z</time>
      </trkpt>
      <trkpt lat="23.065528" lon="113.270078">
        <time>2026-06-22T22:50:02Z</time>
      </trkpt>
      <trkpt lat="23.065539" lon="113.270032">
        <time>2026-06-22T22:50:07Z</time>
      </trkpt>
      <trkpt lat="23.06557" lon="113.269957">
        <time>2026-06-22T22:50:12Z</time>
      </trkpt>
      <trkpt lat="23.065588" lon="113.269909">
        <time>2026-06-22T22:50:17Z</time>
      </trkpt>
      <trkpt lat="23.065608" lon="113.269832">
        <time>2026-06-22T22:50:22Z</time>
      </trkpt>
      <trkpt lat="23.065637" lon="113.269758">
        <time>2026-06-22T22:50:27Z</time>
      </trkpt>
      <trkpt lat="23.065711" lon="113.269483">
        <time>2026-06-22T22:50:32Z</time>
      </trkpt>
      <trkpt lat="23.065758" lon="113.269259">
        <time>2026-06-22T22:50:37Z</time>
      </trkpt>
      <trkpt lat="23.065847" lon="113.268946">
        <time>2026-06-22T22:50:42Z</time>
      </trkpt>
      <trkpt lat="23.065925" lon="113.268759">
        <time>2026-06-22T22:50:47Z</time>
      </trkpt>
      <trkpt lat="23.066053" lon="113.268548">
        <time>2026-06-22T22:50:52Z</time>
      </trkpt>
      <trkpt lat="23.066112" lon="113.268485">
        <time>2026-06-22T22:50:57Z</time>
      </trkpt>
      <trkpt lat="23.066167" lon="113.268414">
        <time>2026-06-22T22:51:02Z</time>
      </trkpt>
      <trkpt lat="23.066202" lon="113.268371">
        <time>2026-06-22T22:51:07Z</time>
      </trkpt>
      <trkpt lat="23.066254" lon="113.268312">
        <time>2026-06-22T22:51:12Z</time>
      </trkpt>
      <trkpt lat="23.066289" lon="113.268273">
        <time>2026-06-22T22:51:17Z</time>
      </trkpt>
      <trkpt lat="23.066356" lon="113.268218">
        <time>2026-06-22T22:51:22Z</time>
      </trkpt>
      <trkpt lat="23.066411" lon="113.268189">
        <time>2026-06-22T22:51:27Z</time>
      </trkpt>
      <trkpt lat="23.066498" lon="113.268171">
        <time>2026-06-22T22:51:32Z</time>
      </trkpt>
      <trkpt lat="23.066554" lon="113.268171">
        <time>2026-06-22T22:51:37Z</time>
      </trkpt>
      <trkpt lat="23.066632" lon="113.268182">
        <time>2026-06-22T22:51:42Z</time>
      </trkpt>
      <trkpt lat="23.06671" lon="113.268186">
        <time>2026-06-22T22:51:47Z</time>
      </trkpt>
      <trkpt lat="23.066865" lon="113.268175">
        <time>2026-06-22T22:51:52Z</time>
      </trkpt>
      <trkpt lat="23.066971" lon="113.268175">
        <time>2026-06-22T22:51:57Z</time>
      </trkpt>
      <trkpt lat="23.067108" lon="113.268232">
        <time>2026-06-22T22:52:02Z</time>
      </trkpt>
      <trkpt lat="23.067193" lon="113.26828">
        <time>2026-06-22T22:52:07Z</time>
      </trkpt>
      <trkpt lat="23.067299" lon="113.268363">
        <time>2026-06-22T22:52:12Z</time>
      </trkpt>
      <trkpt lat="23.067369" lon="113.268419">
        <time>2026-06-22T22:52:17Z</time>
      </trkpt>
      <trkpt lat="23.067463" lon="113.268474">
        <time>2026-06-22T22:52:22Z</time>
      </trkpt>
      <trkpt lat="23.067533" lon="113.268513">
        <time>2026-06-22T22:52:27Z</time>
      </trkpt>
      <trkpt lat="23.067652" lon="113.268562">
        <time>2026-06-22T22:52:32Z</time>
      </trkpt>
      <trkpt lat="23.067734" lon="113.268591">
        <time>2026-06-22T22:52:37Z</time>
      </trkpt>
      <trkpt lat="23.067859" lon="113.268632">
        <time>2026-06-22T22:52:42Z</time>
      </trkpt>
      <trkpt lat="23.067926" lon="113.268676">
        <time>2026-06-22T22:52:47Z</time>
      </trkpt>
      <trkpt lat="23.068009" lon="113.26876">
        <time>2026-06-22T22:52:52Z</time>
      </trkpt>
      <trkpt lat="23.068046" lon="113.26878">
        <time>2026-06-22T22:52:57Z</time>
      </trkpt>
      <trkpt lat="23.0681" lon="113.268807">
        <time>2026-06-22T22:53:02Z</time>
      </trkpt>
      <trkpt lat="23.068132" lon="113.268823">
        <time>2026-06-22T22:53:07Z</time>
      </trkpt>
      <trkpt lat="23.068186" lon="113.268851">
        <time>2026-06-22T22:53:12Z</time>
      </trkpt>
      <trkpt lat="23.068231" lon="113.268879">
        <time>2026-06-22T22:53:17Z</time>
      </trkpt>
      <trkpt lat="23.068295" lon="113.268924">
        <time>2026-06-22T22:53:22Z</time>
      </trkpt>
      <trkpt lat="23.068339" lon="113.268957">
        <time>2026-06-22T22:53:27Z</time>
      </trkpt>
      <trkpt lat="23.068419" lon="113.26903">
        <time>2026-06-22T22:53:32Z</time>
      </trkpt>
      <trkpt lat="23.068497" lon="113.269081">
        <time>2026-06-22T22:53:37Z</time>
      </trkpt>
      <trkpt lat="23.06862" lon="113.269138">
        <time>2026-06-22T22:53:42Z</time>
      </trkpt>
      <trkpt lat="23.068697" lon="113.269174">
        <time>2026-06-22T22:53:47Z</time>
      </trkpt>
      <trkpt lat="23.068832" lon="113.269213">
        <time>2026-06-22T22:53:52Z</time>
      </trkpt>
      <trkpt lat="23.068916" lon="113.269242">
        <time>2026-06-22T22:53:57Z</time>
      </trkpt>
      <trkpt lat="23.069033" lon="113.269278">
        <time>2026-06-22T22:54:02Z</time>
      </trkpt>
      <trkpt lat="23.069117" lon="113.269305">
        <time>2026-06-22T22:54:07Z</time>
      </trkpt>
      <trkpt lat="23.06926" lon="113.26935">
        <time>2026-06-22T22:54:12Z</time>
      </trkpt>
      <trkpt lat="23.069344" lon="113.269386">
        <time>2026-06-22T22:54:17Z</time>
      </trkpt>
      <trkpt lat="23.069467" lon="113.269428">
        <time>2026-06-22T22:54:22Z</time>
      </trkpt>
      <trkpt lat="23.06954" lon="113.269466">
        <time>2026-06-22T22:54:27Z</time>
      </trkpt>
      <trkpt lat="23.06964" lon="113.269532">
        <time>2026-06-22T22:54:32Z</time>
      </trkpt>
      <trkpt lat="23.069709" lon="113.269575">
        <time>2026-06-22T22:54:37Z</time>
      </trkpt>
      <trkpt lat="23.069813" lon="113.269642">
        <time>2026-06-22T22:54:42Z</time>
      </trkpt>
      <trkpt lat="23.069876" lon="113.269689">
        <time>2026-06-22T22:54:47Z</time>
      </trkpt>
      <trkpt lat="23.069979" lon="113.26974">
        <time>2026-06-22T22:54:52Z</time>
      </trkpt>
      <trkpt lat="23.070052" lon="113.269769">
        <time>2026-06-22T22:54:57Z</time>
      </trkpt>
      <trkpt lat="23.070162" lon="113.269821">
        <time>2026-06-22T22:55:02Z</time>
      </trkpt>
      <trkpt lat="23.070235" lon="113.269851">
        <time>2026-06-22T22:55:07Z</time>
      </trkpt>
      <trkpt lat="23.070337" lon="113.269908">
        <time>2026-06-22T22:55:12Z</time>
      </trkpt>
      <trkpt lat="23.070408" lon="113.269939">
        <time>2026-06-22T22:55:17Z</time>
      </trkpt>
      <trkpt lat="23.070534" lon="113.26997">
        <time>2026-06-22T22:55:22Z</time>
      </trkpt>
      <trkpt lat="23.070618" lon="113.269991">
        <time>2026-06-22T22:55:27Z</time>
      </trkpt>
      <trkpt lat="23.070722" lon="113.270025">
        <time>2026-06-22T22:55:32Z</time>
      </trkpt>
      <trkpt lat="23.070792" lon="113.270061">
        <time>2026-06-22T22:55:37Z</time>
      </trkpt>
      <trkpt lat="23.070898" lon="113.270108">
        <time>2026-06-22T22:55:42Z</time>
      </trkpt>
      <trkpt lat="23.070961" lon="113.270131">
        <time>2026-06-22T22:55:47Z</time>
      </trkpt>
      <trkpt lat="23.071067" lon="113.270182">
        <time>2026-06-22T22:55:52Z</time>
      </trkpt>
      <trkpt lat="23.071136" lon="113.270222">
        <time>2026-06-22T22:55:57Z</time>
      </trkpt>
      <trkpt lat="23.071236" lon="113.270304">
        <time>2026-06-22T22:56:02Z</time>
      </trkpt>
      <trkpt lat="23.071302" lon="113.270342">
        <time>2026-06-22T22:56:07Z</time>
      </trkpt>
      <trkpt lat="23.071406" lon="113.270397">
        <time>2026-06-22T22:56:12Z</time>
      </trkpt>
      <trkpt lat="23.071476" lon="113.270431">
        <time>2026-06-22T22:56:17Z</time>
      </trkpt>
      <trkpt lat="23.071583" lon="113.270496">
        <time>2026-06-22T22:56:22Z</time>
      </trkpt>
      <trkpt lat="23.071647" lon="113.270537">
        <time>2026-06-22T22:56:27Z</time>
      </trkpt>
      <trkpt lat="23.071758" lon="113.270607">
        <time>2026-06-22T22:56:32Z</time>
      </trkpt>
      <trkpt lat="23.07184" lon="113.270636">
        <time>2026-06-22T22:56:37Z</time>
      </trkpt>
      <trkpt lat="23.071966" lon="113.270666">
        <time>2026-06-22T22:56:42Z</time>
      </trkpt>
      <trkpt lat="23.07205" lon="113.270672">
        <time>2026-06-22T22:56:47Z</time>
      </trkpt>
      <trkpt lat="23.072142" lon="113.270735">
        <time>2026-06-22T22:56:52Z</time>
      </trkpt>
      <trkpt lat="23.072199" lon="113.270793">
        <time>2026-06-22T22:56:57Z</time>
      </trkpt>
      <trkpt lat="23.072293" lon="113.270864">
        <time>2026-06-22T22:57:02Z</time>
      </trkpt>
      <trkpt lat="23.072372" lon="113.270883">
        <time>2026-06-22T22:57:07Z</time>
      </trkpt>
      <trkpt lat="23.072485" lon="113.270931">
        <time>2026-06-22T22:57:12Z</time>
      </trkpt>
      <trkpt lat="23.072555" lon="113.270972">
        <time>2026-06-22T22:57:17Z</time>
      </trkpt>
      <trkpt lat="23.072643" lon="113.271023">
        <time>2026-06-22T22:57:22Z</time>
      </trkpt>
      <trkpt lat="23.072693" lon="113.27105">
        <time>2026-06-22T22:57:27Z</time>
      </trkpt>
      <trkpt lat="23.072761" lon="113.271061">
        <time>2026-06-22T22:57:32Z</time>
      </trkpt>
      <trkpt lat="23.072802" lon="113.271049">
        <time>2026-06-22T22:57:37Z</time>
      </trkpt>
      <trkpt lat="23.072853" lon="113.27107">
        <time>2026-06-22T22:57:42Z</time>
      </trkpt>
      <trkpt lat="23.072903" lon="113.27109">
        <time>2026-06-22T22:57:47Z</time>
      </trkpt>
      <trkpt lat="23.073025" lon="113.271153">
        <time>2026-06-22T22:57:52Z</time>
      </trkpt>
      <trkpt lat="23.073116" lon="113.271183">
        <time>2026-06-22T22:57:57Z</time>
      </trkpt>
      <trkpt lat="23.073232" lon="113.271233">
        <time>2026-06-22T22:58:02Z</time>
      </trkpt>
      <trkpt lat="23.073271" lon="113.271286">
        <time>2026-06-22T22:58:07Z</time>
      </trkpt>
      <trkpt lat="23.073358" lon="113.271348">
        <time>2026-06-22T22:58:12Z</time>
      </trkpt>
      <trkpt lat="23.07343" lon="113.271392">
        <time>2026-06-22T22:58:17Z</time>
      </trkpt>
      <trkpt lat="23.073532" lon="113.271446">
        <time>2026-06-22T22:58:22Z</time>
      </trkpt>
      <trkpt lat="23.073589" lon="113.271491">
        <time>2026-06-22T22:58:27Z</time>
      </trkpt>
      <trkpt lat="23.073672" lon="113.271574">
        <time>2026-06-22T22:58:32Z</time>
      </trkpt>
      <trkpt lat="23.073745" lon="113.27162">
        <time>2026-06-22T22:58:37Z</time>
      </trkpt>
      <trkpt lat="23.073839" lon="113.271649">
        <time>2026-06-22T22:58:42Z</time>
      </trkpt>
      <trkpt lat="23.073885" lon="113.271688">
        <time>2026-06-22T22:58:47Z</time>
      </trkpt>
      <trkpt lat="23.073936" lon="113.271754">
        <time>2026-06-22T22:58:52Z</time>
      </trkpt>
      <trkpt lat="23.073946" lon="113.27181">
        <time>2026-06-22T22:58:57Z</time>
      </trkpt>
      <trkpt lat="23.073916" lon="113.271872">
        <time>2026-06-22T22:59:02Z</time>
      </trkpt>
      <trkpt lat="23.073888" lon="113.271912">
        <time>2026-06-22T22:59:07Z</time>
      </trkpt>
      <trkpt lat="23.073897" lon="113.271976">
        <time>2026-06-22T22:59:12Z</time>
      </trkpt>
      <trkpt lat="23.073899" lon="113.272022">
        <time>2026-06-22T22:59:17Z</time>
      </trkpt>
      <trkpt lat="23.07392" lon="113.272097">
        <time>2026-06-22T22:59:22Z</time>
      </trkpt>
      <trkpt lat="23.073981" lon="113.272153">
        <time>2026-06-22T22:59:27Z</time>
      </trkpt>
      <trkpt lat="23.074104" lon="113.272224">
        <time>2026-06-22T22:59:32Z</time>
      </trkpt>
      <trkpt lat="23.074183" lon="113.272261">
        <time>2026-06-22T22:59:37Z</time>
      </trkpt>
      <trkpt lat="23.074279" lon="113.272301">
        <time>2026-06-22T22:59:42Z</time>
      </trkpt>
      <trkpt lat="23.074321" lon="113.272283">
        <time>2026-06-22T22:59:47Z</time>
      </trkpt>
      <trkpt lat="23.074353" lon="113.272221">
        <time>2026-06-22T22:59:52Z</time>
      </trkpt>
      <trkpt lat="23.074381" lon="113.27217">
        <time>2026-06-22T22:59:56Z</time>
      </trkpt>
    </trkseg>
  </trk>
</gpx>