<?xml version="1.0" encoding="UTF-8"?>
<gpx xmlns="http://www.topografix.com/GPX/1/1" xmlns:gpxtpx="http://www.garmin.com/xmlschemas/TrackPointExtension/v1" xmlns:xsi="http://www.w3.org/2001/XMLSchema-instance" xsi:schemaLocation="http://www.topografix.com/GPX/1/1 http://www.topografix.com/GPX/1/1/gpx.xsd" version="1.1" creator="gpx.py -- https://github.com/tkrajina/gpxpy">
  <trk>
    <name>gpx from joyrun</name>
    <trkseg>
      <trkpt lat="23.074246" lon="113.27239">
        <time>2026-06-24T21:51:46Z</time>
      </trkpt>
      <trkpt lat="23.074226" lon="113.272457">
        <time>2026-06-24T21:51:51Z</time>
      </trkpt>
      <trkpt lat="23.074162" lon="113.272635">
        <time>2026-06-24T21:51:56Z</time>
      </trkpt>
      <trkpt lat="23.074109" lon="113.272748">
        <time>2026-06-24T21:52:01Z</time>
      </trkpt>
      <trkpt lat="23.074033" lon="113.272904">
        <time>2026-06-24T21:52:06Z</time>
      </trkpt>
      <trkpt lat="23.073973" lon="113.272982">
        <time>2026-06-24T21:52:11Z</time>
      </trkpt>
      <trkpt lat="23.073832" lon="113.272947">
        <time>2026-06-24T21:52:16Z</time>
      </trkpt>
      <trkpt lat="23.073742" lon="113.272893">
        <time>2026-06-24T21:52:21Z</time>
      </trkpt>
      <trkpt lat="23.073712" lon="113.272783">
        <time>2026-06-24T21:52:26Z</time>
      </trkpt>
      <trkpt lat="23.073756" lon="113.272687">
        <time>2026-06-24T21:52:31Z</time>
      </trkpt>
      <trkpt lat="23.073834" lon="113.272549">
        <time>2026-06-24T21:52:36Z</time>
      </trkpt>
      <trkpt lat="23.073886" lon="113.272469">
        <time>2026-06-24T21:52:41Z</time>
      </trkpt>
      <trkpt lat="23.073936" lon="113.27234">
        <time>2026-06-24T21:52:46Z</time>
      </trkpt>
      <trkpt lat="23.073975" lon="113.272247">
        <time>2026-06-24T21:52:51Z</time>
      </trkpt>
      <trkpt lat="23.074043" lon="113.272105">
        <time>2026-06-24T21:52:56Z</time>
      </trkpt>
      <trkpt lat="23.074086" lon="113.272011">
        <time>2026-06-24T21:53:01Z</time>
      </trkpt>
      <trkpt lat="23.074143" lon="113.271866">
        <time>2026-06-24T21:53:06Z</time>
      </trkpt>
      <trkpt lat="23.074155" lon="113.271772">
        <time>2026-06-24T21:53:11Z</time>
      </trkpt>
      <trkpt lat="23.074039" lon="113.27168">
        <time>2026-06-24T21:53:16Z</time>
      </trkpt>
      <trkpt lat="23.073947" lon="113.27164">
        <time>2026-06-24T21:53:21Z</time>
      </trkpt>
      <trkpt lat="23.073802" lon="113.271571">
        <time>2026-06-24T21:53:26Z</time>
      </trkpt>
      <trkpt lat="23.073705" lon="113.271521">
        <time>2026-06-24T21:53:31Z</time>
      </trkpt>
      <trkpt lat="23.073553" lon="113.271449">
        <time>2026-06-24T21:53:36Z</time>
      </trkpt>
      <trkpt lat="23.07346" lon="113.271422">
        <time>2026-06-24T21:53:41Z</time>
      </trkpt>
      <trkpt lat="23.073319" lon="113.271376">
        <time>2026-06-24T21:53:46Z</time>
      </trkpt>
      <trkpt lat="23.073232" lon="113.271296">
        <time>2026-06-24T21:53:51Z</time>
      </trkpt>
      <trkpt lat="23.073092" lon="113.271188">
        <time>2026-06-24T21:53:56Z</time>
      </trkpt>
      <trkpt lat="23.07299" lon="113.271141">
        <time>2026-06-24T21:54:01Z</time>
      </trkpt>
      <trkpt lat="23.072845" lon="113.271046">
        <time>2026-06-24T21:54:06Z</time>
      </trkpt>
      <trkpt lat="23.07275" lon="113.270975">
        <time>2026-06-24T21:54:11Z</time>
      </trkpt>
      <trkpt lat="23.072596" lon="113.270909">
        <time>2026-06-24T21:54:16Z</time>
      </trkpt>
      <trkpt lat="23.07248" lon="113.270883">
        <time>2026-06-24T21:54:21Z</time>
      </trkpt>
      <trkpt lat="23.072333" lon="113.27082">
        <time>2026-06-24T21:54:26Z</time>
      </trkpt>
      <trkpt lat="23.072237" lon="113.270757">
        <time>2026-06-24T21:54:31Z</time>
      </trkpt>
      <trkpt lat="23.072078" lon="113.270688">
        <time>2026-06-24T21:54:36Z</time>
      </trkpt>
      <trkpt lat="23.07197" lon="113.270623">
        <time>2026-06-24T21:54:41Z</time>
      </trkpt>
      <trkpt lat="23.071876" lon="113.270557">
        <time>2026-06-24T21:54:46Z</time>
      </trkpt>
      <trkpt lat="23.071728" lon="113.270477">
        <time>2026-06-24T21:54:51Z</time>
      </trkpt>
      <trkpt lat="23.071631" lon="113.27043">
        <time>2026-06-24T21:54:56Z</time>
      </trkpt>
      <trkpt lat="23.071481" lon="113.270364">
        <time>2026-06-24T21:55:01Z</time>
      </trkpt>
      <trkpt lat="23.071381" lon="113.27032">
        <time>2026-06-24T21:55:06Z</time>
      </trkpt>
      <trkpt lat="23.071231" lon="113.270236">
        <time>2026-06-24T21:55:11Z</time>
      </trkpt>
      <trkpt lat="23.07114" lon="113.270182">
        <time>2026-06-24T21:55:16Z</time>
      </trkpt>
      <trkpt lat="23.070996" lon="113.270123">
        <time>2026-06-24T21:55:21Z</time>
      </trkpt>
      <trkpt lat="23.070912" lon="113.270084">
        <time>2026-06-24T21:55:26Z</time>
      </trkpt>
      <trkpt lat="23.070786" lon="113.270027">
        <time>2026-06-24T21:55:31Z</time>
      </trkpt>
      <trkpt lat="23.070607" lon="113.269926">
        <time>2026-06-24T21:55:36Z</time>
      </trkpt>
      <trkpt lat="23.070489" lon="113.269882">
        <time>2026-06-24T21:55:41Z</time>
      </trkpt>
      <trkpt lat="23.070339" lon="113.269804">
        <time>2026-06-24T21:55:46Z</time>
      </trkpt>
      <trkpt lat="23.070243" lon="113.269757">
        <time>2026-06-24T21:55:51Z</time>
      </trkpt>
      <trkpt lat="23.070093" lon="113.269696">
        <time>2026-06-24T21:55:56Z</time>
      </trkpt>
      <trkpt lat="23.069997" lon="113.269642">
        <time>2026-06-24T21:56:01Z</time>
      </trkpt>
      <trkpt lat="23.06986" lon="113.269548">
        <time>2026-06-24T21:56:06Z</time>
      </trkpt>
      <trkpt lat="23.069767" lon="113.269495">
        <time>2026-06-24T21:56:11Z</time>
      </trkpt>
      <trkpt lat="23.069623" lon="113.269416">
        <time>2026-06-24T21:56:16Z</time>
      </trkpt>
      <trkpt lat="23.069537" lon="113.269372">
        <time>2026-06-24T21:56:21Z</time>
      </trkpt>
      <trkpt lat="23.069395" lon="113.269315">
        <time>2026-06-24T21:56:26Z</time>
      </trkpt>
      <trkpt lat="23.069284" lon="113.269273">
        <time>2026-06-24T21:56:31Z</time>
      </trkpt>
      <trkpt lat="23.069123" lon="113.269203">
        <time>2026-06-24T21:56:36Z</time>
      </trkpt>
      <trkpt lat="23.069026" lon="113.269168">
        <time>2026-06-24T21:56:41Z</time>
      </trkpt>
      <trkpt lat="23.068879" lon="113.269101">
        <time>2026-06-24T21:56:46Z</time>
      </trkpt>
      <trkpt lat="23.068781" lon="113.269051">
        <time>2026-06-24T21:56:51Z</time>
      </trkpt>
      <trkpt lat="23.068639" lon="113.268983">
        <time>2026-06-24T21:56:56Z</time>
      </trkpt>
      <trkpt lat="23.068543" lon="113.268952">
        <time>2026-06-24T21:57:01Z</time>
      </trkpt>
      <trkpt lat="23.068405" lon="113.26891">
        <time>2026-06-24T21:57:06Z</time>
      </trkpt>
      <trkpt lat="23.068321" lon="113.26886">
        <time>2026-06-24T21:57:11Z</time>
      </trkpt>
      <trkpt lat="23.068189" lon="113.268787">
        <time>2026-06-24T21:57:16Z</time>
      </trkpt>
      <trkpt lat="23.068104" lon="113.268736">
        <time>2026-06-24T21:57:21Z</time>
      </trkpt>
      <trkpt lat="23.067974" lon="113.268609">
        <time>2026-06-24T21:57:26Z</time>
      </trkpt>
      <trkpt lat="23.067865" lon="113.268553">
        <time>2026-06-24T21:57:31Z</time>
      </trkpt>
      <trkpt lat="23.067715" lon="113.268478">
        <time>2026-06-24T21:57:36Z</time>
      </trkpt>
      <trkpt lat="23.067634" lon="113.268403">
        <time>2026-06-24T21:57:41Z</time>
      </trkpt>
      <trkpt lat="23.0675" lon="113.268314">
        <time>2026-06-24T21:57:46Z</time>
      </trkpt>
      <trkpt lat="23.067405" lon="113.268266">
        <time>2026-06-24T21:57:51Z</time>
      </trkpt>
      <trkpt lat="23.067265" lon="113.268199">
        <time>2026-06-24T21:57:56Z</time>
      </trkpt>
      <trkpt lat="23.067178" lon="113.26816">
        <time>2026-06-24T21:58:01Z</time>
      </trkpt>
      <trkpt lat="23.067045" lon="113.2681">
        <time>2026-06-24T21:58:06Z</time>
      </trkpt>
      <trkpt lat="23.066945" lon="113.268066">
        <time>2026-06-24T21:58:11Z</time>
      </trkpt>
      <trkpt lat="23.066772" lon="113.268021">
        <time>2026-06-24T21:58:16Z</time>
      </trkpt>
      <trkpt lat="23.066661" lon="113.267997">
        <time>2026-06-24T21:58:21Z</time>
      </trkpt>
      <trkpt lat="23.066504" lon="113.267951">
        <time>2026-06-24T21:58:26Z</time>
      </trkpt>
      <trkpt lat="23.066398" lon="113.267942">
        <time>2026-06-24T21:58:31Z</time>
      </trkpt>
      <trkpt lat="23.066239" lon="113.268005">
        <time>2026-06-24T21:58:36Z</time>
      </trkpt>
      <trkpt lat="23.066153" lon="113.268089">
        <time>2026-06-24T21:58:41Z</time>
      </trkpt>
      <trkpt lat="23.066041" lon="113.268235">
        <time>2026-06-24T21:58:46Z</time>
      </trkpt>
      <trkpt lat="23.065966" lon="113.268334">
        <time>2026-06-24T21:58:51Z</time>
      </trkpt>
      <trkpt lat="23.065869" lon="113.268481">
        <time>2026-06-24T21:58:56Z</time>
      </trkpt>
      <trkpt lat="23.065812" lon="113.26858">
        <time>2026-06-24T21:59:01Z</time>
      </trkpt>
      <trkpt lat="23.065736" lon="113.268727">
        <time>2026-06-24T21:59:06Z</time>
      </trkpt>
      <trkpt lat="23.065695" lon="113.268825">
        <time>2026-06-24T21:59:11Z</time>
      </trkpt>
      <trkpt lat="23.065639" lon="113.268969">
        <time>2026-06-24T21:59:16Z</time>
      </trkpt>
      <trkpt lat="23.065605" lon="113.269075">
        <time>2026-06-24T21:59:21Z</time>
      </trkpt>
      <trkpt lat="23.06556" lon="113.269238">
        <time>2026-06-24T21:59:26Z</time>
      </trkpt>
      <trkpt lat="23.065532" lon="113.269347">
        <time>2026-06-24T21:59:31Z</time>
      </trkpt>
      <trkpt lat="23.065502" lon="113.269515">
        <time>2026-06-24T21:59:36Z</time>
      </trkpt>
      <trkpt lat="23.065474" lon="113.269625">
        <time>2026-06-24T21:59:41Z</time>
      </trkpt>
      <trkpt lat="23.065425" lon="113.269777">
        <time>2026-06-24T21:59:46Z</time>
      </trkpt>
      <trkpt lat="23.06539" lon="113.26988">
        <time>2026-06-24T21:59:51Z</time>
      </trkpt>
      <trkpt lat="23.065335" lon="113.270038">
        <time>2026-06-24T21:59:56Z</time>
      </trkpt>
      <trkpt lat="23.065293" lon="113.270144">
        <time>2026-06-24T22:00:01Z</time>
      </trkpt>
      <trkpt lat="23.065225" lon="113.270304">
        <time>2026-06-24T22:00:06Z</time>
      </trkpt>
      <trkpt lat="23.065182" lon="113.270407">
        <time>2026-06-24T22:00:11Z</time>
      </trkpt>
      <trkpt lat="23.065109" lon="113.270563">
        <time>2026-06-24T22:00:16Z</time>
      </trkpt>
      <trkpt lat="23.06506" lon="113.270668">
        <time>2026-06-24T22:00:21Z</time>
      </trkpt>
      <trkpt lat="23.064994" lon="113.270821">
        <time>2026-06-24T22:00:26Z</time>
      </trkpt>
      <trkpt lat="23.064947" lon="113.270922">
        <time>2026-06-24T22:00:31Z</time>
      </trkpt>
      <trkpt lat="23.064883" lon="113.271076">
        <time>2026-06-24T22:00:36Z</time>
      </trkpt>
      <trkpt lat="23.064837" lon="113.271181">
        <time>2026-06-24T22:00:41Z</time>
      </trkpt>
      <trkpt lat="23.064762" lon="113.271333">
        <time>2026-06-24T22:00:46Z</time>
      </trkpt>
      <trkpt lat="23.064709" lon="113.271434">
        <time>2026-06-24T22:00:51Z</time>
      </trkpt>
      <trkpt lat="23.064632" lon="113.271589">
        <time>2026-06-24T22:00:56Z</time>
      </trkpt>
      <trkpt lat="23.064583" lon="113.271694">
        <time>2026-06-24T22:01:01Z</time>
      </trkpt>
      <trkpt lat="23.06452" lon="113.271855">
        <time>2026-06-24T22:01:06Z</time>
      </trkpt>
      <trkpt lat="23.06445" lon="113.271975">
        <time>2026-06-24T22:01:11Z</time>
      </trkpt>
      <trkpt lat="23.06445" lon="113.271975">
        <time>2026-06-24T22:01:16Z</time>
      </trkpt>
      <trkpt lat="23.06445" lon="113.271975">
        <time>2026-06-24T22:01:21Z</time>
      </trkpt>
      <trkpt lat="23.064444" lon="113.272025">
        <time>2026-06-24T22:01:26Z</time>
      </trkpt>
      <trkpt lat="23.064391" lon="113.272181">
        <time>2026-06-24T22:01:31Z</time>
      </trkpt>
      <trkpt lat="23.064377" lon="113.272303">
        <time>2026-06-24T22:01:36Z</time>
      </trkpt>
      <trkpt lat="23.064347" lon="113.272476">
        <time>2026-06-24T22:01:41Z</time>
      </trkpt>
      <trkpt lat="23.064329" lon="113.272589">
        <time>2026-06-24T22:01:46Z</time>
      </trkpt>
      <trkpt lat="23.064363" lon="113.272764">
        <time>2026-06-24T22:01:51Z</time>
      </trkpt>
      <trkpt lat="23.064398" lon="113.272874">
        <time>2026-06-24T22:01:56Z</time>
      </trkpt>
      <trkpt lat="23.064451" lon="113.273045">
        <time>2026-06-24T22:02:01Z</time>
      </trkpt>
      <trkpt lat="23.064467" lon="113.27316">
        <time>2026-06-24T22:02:06Z</time>
      </trkpt>
      <trkpt lat="23.064414" lon="113.273324">
        <time>2026-06-24T22:02:11Z</time>
      </trkpt>
      <trkpt lat="23.064332" lon="113.273405">
        <time>2026-06-24T22:02:16Z</time>
      </trkpt>
      <trkpt lat="23.064193" lon="113.273505">
        <time>2026-06-24T22:02:21Z</time>
      </trkpt>
      <trkpt lat="23.064101" lon="113.273575">
        <time>2026-06-24T22:02:26Z</time>
      </trkpt>
      <trkpt lat="23.063977" lon="113.273683">
        <time>2026-06-24T22:02:31Z</time>
      </trkpt>
      <trkpt lat="23.063908" lon="113.273753">
        <time>2026-06-24T22:02:36Z</time>
      </trkpt>
      <trkpt lat="23.063827" lon="113.273876">
        <time>2026-06-24T22:02:41Z</time>
      </trkpt>
      <trkpt lat="23.063777" lon="113.273968">
        <time>2026-06-24T22:02:46Z</time>
      </trkpt>
      <trkpt lat="23.063687" lon="113.274092">
        <time>2026-06-24T22:02:51Z</time>
      </trkpt>
      <trkpt lat="23.063613" lon="113.274145">
        <time>2026-06-24T22:02:56Z</time>
      </trkpt>
      <trkpt lat="23.063524" lon="113.274274">
        <time>2026-06-24T22:03:01Z</time>
      </trkpt>
      <trkpt lat="23.063479" lon="113.274395">
        <time>2026-06-24T22:03:06Z</time>
      </trkpt>
      <trkpt lat="23.063415" lon="113.274568">
        <time>2026-06-24T22:03:11Z</time>
      </trkpt>
      <trkpt lat="23.063375" lon="113.274675">
        <time>2026-06-24T22:03:16Z</time>
      </trkpt>
      <trkpt lat="23.063313" lon="113.274841">
        <time>2026-06-24T22:03:21Z</time>
      </trkpt>
      <trkpt lat="23.06327" lon="113.27497">
        <time>2026-06-24T22:03:26Z</time>
      </trkpt>
      <trkpt lat="23.063169" lon="113.275171">
        <time>2026-06-24T22:03:31Z</time>
      </trkpt>
      <trkpt lat="23.063092" lon="113.2753">
        <time>2026-06-24T22:03:36Z</time>
      </trkpt>
      <trkpt lat="23.062987" lon="113.275483">
        <time>2026-06-24T22:03:41Z</time>
      </trkpt>
      <trkpt lat="23.062907" lon="113.275599">
        <time>2026-06-24T22:03:46Z</time>
      </trkpt>
      <trkpt lat="23.062759" lon="113.275749">
        <time>2026-06-24T22:03:51Z</time>
      </trkpt>
      <trkpt lat="23.062664" lon="113.275849">
        <time>2026-06-24T22:03:56Z</time>
      </trkpt>
      <trkpt lat="23.062543" lon="113.276013">
        <time>2026-06-24T22:04:01Z</time>
      </trkpt>
      <trkpt lat="23.062471" lon="113.276132">
        <time>2026-06-24T22:04:06Z</time>
      </trkpt>
      <trkpt lat="23.062381" lon="113.276321">
        <time>2026-06-24T22:04:11Z</time>
      </trkpt>
      <trkpt lat="23.062336" lon="113.276449">
        <time>2026-06-24T22:04:16Z</time>
      </trkpt>
      <trkpt lat="23.062265" lon="113.276642">
        <time>2026-06-24T22:04:21Z</time>
      </trkpt>
      <trkpt lat="23.062214" lon="113.276769">
        <time>2026-06-24T22:04:26Z</time>
      </trkpt>
      <trkpt lat="23.062144" lon="113.276958">
        <time>2026-06-24T22:04:31Z</time>
      </trkpt>
      <trkpt lat="23.062093" lon="113.277083">
        <time>2026-06-24T22:04:36Z</time>
      </trkpt>
      <trkpt lat="23.062013" lon="113.277298">
        <time>2026-06-24T22:04:41Z</time>
      </trkpt>
      <trkpt lat="23.061961" lon="113.277436">
        <time>2026-06-24T22:04:46Z</time>
      </trkpt>
      <trkpt lat="23.061886" lon="113.277636">
        <time>2026-06-24T22:04:51Z</time>
      </trkpt>
      <trkpt lat="23.061849" lon="113.277773">
        <time>2026-06-24T22:04:56Z</time>
      </trkpt>
      <trkpt lat="23.061841" lon="113.277983">
        <time>2026-06-24T22:05:01Z</time>
      </trkpt>
      <trkpt lat="23.061849" lon="113.278123">
        <time>2026-06-24T22:05:06Z</time>
      </trkpt>
      <trkpt lat="23.061853" lon="113.278335">
        <time>2026-06-24T22:05:11Z</time>
      </trkpt>
      <trkpt lat="23.061856" lon="113.278477">
        <time>2026-06-24T22:05:16Z</time>
      </trkpt>
      <trkpt lat="23.06185" lon="113.278687">
        <time>2026-06-24T22:05:21Z</time>
      </trkpt>
      <trkpt lat="23.06181" lon="113.278818">
        <time>2026-06-24T22:05:26Z</time>
      </trkpt>
      <trkpt lat="23.061719" lon="113.279007">
        <time>2026-06-24T22:05:31Z</time>
      </trkpt>
      <trkpt lat="23.061654" lon="113.279132">
        <time>2026-06-24T22:05:36Z</time>
      </trkpt>
      <trkpt lat="23.061575" lon="113.279326">
        <time>2026-06-24T22:05:41Z</time>
      </trkpt>
      <trkpt lat="23.061522" lon="113.279462">
        <time>2026-06-24T22:05:46Z</time>
      </trkpt>
      <trkpt lat="23.061442" lon="113.279668">
        <time>2026-06-24T22:05:51Z</time>
      </trkpt>
      <trkpt lat="23.061393" lon="113.279802">
        <time>2026-06-24T22:05:56Z</time>
      </trkpt>
      <trkpt lat="23.061308" lon="113.280008">
        <time>2026-06-24T22:06:01Z</time>
      </trkpt>
      <trkpt lat="23.061248" lon="113.280145">
        <time>2026-06-24T22:06:06Z</time>
      </trkpt>
      <trkpt lat="23.061154" lon="113.280344">
        <time>2026-06-24T22:06:11Z</time>
      </trkpt>
      <trkpt lat="23.06109" lon="113.280478">
        <time>2026-06-24T22:06:16Z</time>
      </trkpt>
      <trkpt lat="23.061009" lon="113.280679">
        <time>2026-06-24T22:06:21Z</time>
      </trkpt>
      <trkpt lat="23.060955" lon="113.280808">
        <time>2026-06-24T22:06:26Z</time>
      </trkpt>
      <trkpt lat="23.060875" lon="113.281003">
        <time>2026-06-24T22:06:31Z</time>
      </trkpt>
      <trkpt lat="23.060816" lon="113.281136">
        <time>2026-06-24T22:06:36Z</time>
      </trkpt>
      <trkpt lat="23.060731" lon="113.281333">
        <time>2026-06-24T22:06:41Z</time>
      </trkpt>
      <trkpt lat="23.060673" lon="113.281467">
        <time>2026-06-24T22:06:46Z</time>
      </trkpt>
      <trkpt lat="23.060595" lon="113.281672">
        <time>2026-06-24T22:06:51Z</time>
      </trkpt>
      <trkpt lat="23.06054" lon="113.28181">
        <time>2026-06-24T22:06:56Z</time>
      </trkpt>
      <trkpt lat="23.060456" lon="113.282013">
        <time>2026-06-24T22:07:01Z</time>
      </trkpt>
      <trkpt lat="23.060403" lon="113.282147">
        <time>2026-06-24T22:07:06Z</time>
      </trkpt>
      <trkpt lat="23.060322" lon="113.282349">
        <time>2026-06-24T22:07:11Z</time>
      </trkpt>
      <trkpt lat="23.060266" lon="113.28248">
        <time>2026-06-24T22:07:16Z</time>
      </trkpt>
      <trkpt lat="23.060187" lon="113.282668">
        <time>2026-06-24T22:07:21Z</time>
      </trkpt>
      <trkpt lat="23.060132" lon="113.282794">
        <time>2026-06-24T22:07:26Z</time>
      </trkpt>
      <trkpt lat="23.060048" lon="113.282982">
        <time>2026-06-24T22:07:31Z</time>
      </trkpt>
      <trkpt lat="23.059987" lon="113.28311">
        <time>2026-06-24T22:07:36Z</time>
      </trkpt>
      <trkpt lat="23.059898" lon="113.283296">
        <time>2026-06-24T22:07:41Z</time>
      </trkpt>
      <trkpt lat="23.059844" lon="113.283425">
        <time>2026-06-24T22:07:46Z</time>
      </trkpt>
      <trkpt lat="23.059764" lon="113.283626">
        <time>2026-06-24T22:07:51Z</time>
      </trkpt>
      <trkpt lat="23.059705" lon="113.283765">
        <time>2026-06-24T22:07:56Z</time>
      </trkpt>
      <trkpt lat="23.05961" lon="113.283976">
        <time>2026-06-24T22:08:01Z</time>
      </trkpt>
      <trkpt lat="23.059548" lon="113.28411">
        <time>2026-06-24T22:08:06Z</time>
      </trkpt>
      <trkpt lat="23.059456" lon="113.28431">
        <time>2026-06-24T22:08:11Z</time>
      </trkpt>
      <trkpt lat="23.059396" lon="113.284448">
        <time>2026-06-24T22:08:16Z</time>
      </trkpt>
      <trkpt lat="23.059307" lon="113.284656">
        <time>2026-06-24T22:08:21Z</time>
      </trkpt>
      <trkpt lat="23.059246" lon="113.284792">
        <time>2026-06-24T22:08:26Z</time>
      </trkpt>
      <trkpt lat="23.059155" lon="113.284995">
        <time>2026-06-24T22:08:31Z</time>
      </trkpt>
      <trkpt lat="23.0591" lon="113.285132">
        <time>2026-06-24T22:08:36Z</time>
      </trkpt>
      <trkpt lat="23.059015" lon="113.285339">
        <time>2026-06-24T22:08:41Z</time>
      </trkpt>
      <trkpt lat="23.058954" lon="113.285474">
        <time>2026-06-24T22:08:46Z</time>
      </trkpt>
      <trkpt lat="23.058868" lon="113.285671">
        <time>2026-06-24T22:08:51Z</time>
      </trkpt>
      <trkpt lat="23.058813" lon="113.285803">
        <time>2026-06-24T22:08:56Z</time>
      </trkpt>
      <trkpt lat="23.058726" lon="113.286">
        <time>2026-06-24T22:09:01Z</time>
      </trkpt>
      <trkpt lat="23.058684" lon="113.286136">
        <time>2026-06-24T22:09:06Z</time>
      </trkpt>
      <trkpt lat="23.058737" lon="113.286331">
        <time>2026-06-24T22:09:11Z</time>
      </trkpt>
      <trkpt lat="23.058861" lon="113.286378">
        <time>2026-06-24T22:09:16Z</time>
      </trkpt>
      <trkpt lat="23.05906" lon="113.286395">
        <time>2026-06-24T22:09:21Z</time>
      </trkpt>
      <trkpt lat="23.059187" lon="113.286408">
        <time>2026-06-24T22:09:26Z</time>
      </trkpt>
      <trkpt lat="23.059374" lon="113.286432">
        <time>2026-06-24T22:09:31Z</time>
      </trkpt>
      <trkpt lat="23.059501" lon="113.286447">
        <time>2026-06-24T22:09:36Z</time>
      </trkpt>
      <trkpt lat="23.059691" lon="113.286468">
        <time>2026-06-24T22:09:41Z</time>
      </trkpt>
      <trkpt lat="23.059813" lon="113.286474">
        <time>2026-06-24T22:09:46Z</time>
      </trkpt>
      <trkpt lat="23.060003" lon="113.286476">
        <time>2026-06-24T22:09:51Z</time>
      </trkpt>
      <trkpt lat="23.060134" lon="113.286474">
        <time>2026-06-24T22:09:56Z</time>
      </trkpt>
      <trkpt lat="23.060324" lon="113.286469">
        <time>2026-06-24T22:10:01Z</time>
      </trkpt>
      <trkpt lat="23.060451" lon="113.286462">
        <time>2026-06-24T22:10:06Z</time>
      </trkpt>
      <trkpt lat="23.06065" lon="113.286489">
        <time>2026-06-24T22:10:11Z</time>
      </trkpt>
      <trkpt lat="23.060791" lon="113.286499">
        <time>2026-06-24T22:10:16Z</time>
      </trkpt>
      <trkpt lat="23.061001" lon="113.286511">
        <time>2026-06-24T22:10:21Z</time>
      </trkpt>
      <trkpt lat="23.061133" lon="113.286483">
        <time>2026-06-24T22:10:26Z</time>
      </trkpt>
      <trkpt lat="23.061305" lon="113.286497">
        <time>2026-06-24T22:10:31Z</time>
      </trkpt>
      <trkpt lat="23.061423" lon="113.286527">
        <time>2026-06-24T22:10:36Z</time>
      </trkpt>
      <trkpt lat="23.061618" lon="113.286543">
        <time>2026-06-24T22:10:41Z</time>
      </trkpt>
      <trkpt lat="23.061747" lon="113.286541">
        <time>2026-06-24T22:10:46Z</time>
      </trkpt>
      <trkpt lat="23.061925" lon="113.286517">
        <time>2026-06-24T22:10:51Z</time>
      </trkpt>
      <trkpt lat="23.062022" lon="113.286459">
        <time>2026-06-24T22:10:56Z</time>
      </trkpt>
      <trkpt lat="23.062075" lon="113.286245">
        <time>2026-06-24T22:11:01Z</time>
      </trkpt>
      <trkpt lat="23.062071" lon="113.28609">
        <time>2026-06-24T22:11:06Z</time>
      </trkpt>
      <trkpt lat="23.062064" lon="113.28588">
        <time>2026-06-24T22:11:11Z</time>
      </trkpt>
      <trkpt lat="23.062076" lon="113.285744">
        <time>2026-06-24T22:11:16Z</time>
      </trkpt>
      <trkpt lat="23.062094" lon="113.285568">
        <time>2026-06-24T22:11:21Z</time>
      </trkpt>
      <trkpt lat="23.062099" lon="113.285437">
        <time>2026-06-24T22:11:26Z</time>
      </trkpt>
      <trkpt lat="23.062127" lon="113.285231">
        <time>2026-06-24T22:11:31Z</time>
      </trkpt>
      <trkpt lat="23.062139" lon="113.285105">
        <time>2026-06-24T22:11:36Z</time>
      </trkpt>
      <trkpt lat="23.062137" lon="113.284916">
        <time>2026-06-24T22:11:41Z</time>
      </trkpt>
      <trkpt lat="23.062128" lon="113.284778">
        <time>2026-06-24T22:11:46Z</time>
      </trkpt>
      <trkpt lat="23.0621" lon="113.284558">
        <time>2026-06-24T22:11:51Z</time>
      </trkpt>
      <trkpt lat="23.062102" lon="113.284402">
        <time>2026-06-24T22:11:56Z</time>
      </trkpt>
      <trkpt lat="23.062099" lon="113.284169">
        <time>2026-06-24T22:12:01Z</time>
      </trkpt>
      <trkpt lat="23.062087" lon="113.284024">
        <time>2026-06-24T22:12:06Z</time>
      </trkpt>
      <trkpt lat="23.062108" lon="113.2838">
        <time>2026-06-24T22:12:11Z</time>
      </trkpt>
      <trkpt lat="23.062124" lon="113.283652">
        <time>2026-06-24T22:12:16Z</time>
      </trkpt>
      <trkpt lat="23.062124" lon="113.283434">
        <time>2026-06-24T22:12:21Z</time>
      </trkpt>
      <trkpt lat="23.062125" lon="113.283301">
        <time>2026-06-24T22:12:26Z</time>
      </trkpt>
      <trkpt lat="23.062142" lon="113.28308">
        <time>2026-06-24T22:12:31Z</time>
      </trkpt>
      <trkpt lat="23.062154" lon="113.282928">
        <time>2026-06-24T22:12:36Z</time>
      </trkpt>
      <trkpt lat="23.062174" lon="113.282703">
        <time>2026-06-24T22:12:41Z</time>
      </trkpt>
      <trkpt lat="23.06218" lon="113.282557">
        <time>2026-06-24T22:12:46Z</time>
      </trkpt>
      <trkpt lat="23.062183" lon="113.282336">
        <time>2026-06-24T22:12:51Z</time>
      </trkpt>
      <trkpt lat="23.062151" lon="113.282197">
        <time>2026-06-24T22:12:56Z</time>
      </trkpt>
      <trkpt lat="23.061959" lon="113.282136">
        <time>2026-06-24T22:13:01Z</time>
      </trkpt>
      <trkpt lat="23.061825" lon="113.282142">
        <time>2026-06-24T22:13:06Z</time>
      </trkpt>
      <trkpt lat="23.06164" lon="113.282138">
        <time>2026-06-24T22:13:11Z</time>
      </trkpt>
      <trkpt lat="23.061514" lon="113.28216">
        <time>2026-06-24T22:13:16Z</time>
      </trkpt>
      <trkpt lat="23.061331" lon="113.282178">
        <time>2026-06-24T22:13:21Z</time>
      </trkpt>
      <trkpt lat="23.061202" lon="113.2822">
        <time>2026-06-24T22:13:26Z</time>
      </trkpt>
      <trkpt lat="23.060998" lon="113.282209">
        <time>2026-06-24T22:13:31Z</time>
      </trkpt>
      <trkpt lat="23.060852" lon="113.282197">
        <time>2026-06-24T22:13:36Z</time>
      </trkpt>
      <trkpt lat="23.060637" lon="113.282223">
        <time>2026-06-24T22:13:41Z</time>
      </trkpt>
      <trkpt lat="23.060513" lon="113.282296">
        <time>2026-06-24T22:13:46Z</time>
      </trkpt>
      <trkpt lat="23.060407" lon="113.282499">
        <time>2026-06-24T22:13:51Z</time>
      </trkpt>
      <trkpt lat="23.06035" lon="113.282646">
        <time>2026-06-24T22:13:56Z</time>
      </trkpt>
      <trkpt lat="23.060276" lon="113.282854">
        <time>2026-06-24T22:14:01Z</time>
      </trkpt>
      <trkpt lat="23.060227" lon="113.282987">
        <time>2026-06-24T22:14:06Z</time>
      </trkpt>
      <trkpt lat="23.060155" lon="113.283191">
        <time>2026-06-24T22:14:11Z</time>
      </trkpt>
      <trkpt lat="23.060102" lon="113.283324">
        <time>2026-06-24T22:14:16Z</time>
      </trkpt>
      <trkpt lat="23.059981" lon="113.283433">
        <time>2026-06-24T22:14:21Z</time>
      </trkpt>
      <trkpt lat="23.059955" lon="113.283334">
        <time>2026-06-24T22:14:26Z</time>
      </trkpt>
      <trkpt lat="23.060052" lon="113.283109">
        <time>2026-06-24T22:14:31Z</time>
      </trkpt>
      <trkpt lat="23.060128" lon="113.282976">
        <time>2026-06-24T22:14:36Z</time>
      </trkpt>
      <trkpt lat="23.060228" lon="113.282778">
        <time>2026-06-24T22:14:41Z</time>
      </trkpt>
      <trkpt lat="23.060283" lon="113.282639">
        <time>2026-06-24T22:14:46Z</time>
      </trkpt>
      <trkpt lat="23.060357" lon="113.282435">
        <time>2026-06-24T22:14:51Z</time>
      </trkpt>
      <trkpt lat="23.060408" lon="113.282304">
        <time>2026-06-24T22:14:56Z</time>
      </trkpt>
      <trkpt lat="23.060488" lon="113.282108">
        <time>2026-06-24T22:15:01Z</time>
      </trkpt>
      <trkpt lat="23.060543" lon="113.281982">
        <time>2026-06-24T22:15:06Z</time>
      </trkpt>
      <trkpt lat="23.060626" lon="113.281779">
        <time>2026-06-24T22:15:11Z</time>
      </trkpt>
      <trkpt lat="23.060679" lon="113.281641">
        <time>2026-06-24T22:15:16Z</time>
      </trkpt>
      <trkpt lat="23.060762" lon="113.281445">
        <time>2026-06-24T22:15:21Z</time>
      </trkpt>
      <trkpt lat="23.060824" lon="113.281316">
        <time>2026-06-24T22:15:26Z</time>
      </trkpt>
      <trkpt lat="23.060908" lon="113.281125">
        <time>2026-06-24T22:15:31Z</time>
      </trkpt>
      <trkpt lat="23.060961" lon="113.281004">
        <time>2026-06-24T22:15:36Z</time>
      </trkpt>
      <trkpt lat="23.061037" lon="113.28081">
        <time>2026-06-24T22:15:41Z</time>
      </trkpt>
      <trkpt lat="23.061093" lon="113.280673">
        <time>2026-06-24T22:15:46Z</time>
      </trkpt>
      <trkpt lat="23.061186" lon="113.280471">
        <time>2026-06-24T22:15:51Z</time>
      </trkpt>
      <trkpt lat="23.061241" lon="113.280347">
        <time>2026-06-24T22:15:56Z</time>
      </trkpt>
      <trkpt lat="23.061325" lon="113.280165">
        <time>2026-06-24T22:16:01Z</time>
      </trkpt>
      <trkpt lat="23.061375" lon="113.280041">
        <time>2026-06-24T22:16:06Z</time>
      </trkpt>
      <trkpt lat="23.061447" lon="113.279854">
        <time>2026-06-24T22:16:11Z</time>
      </trkpt>
      <trkpt lat="23.061496" lon="113.27973">
        <time>2026-06-24T22:16:16Z</time>
      </trkpt>
      <trkpt lat="23.061572" lon="113.27954">
        <time>2026-06-24T22:16:21Z</time>
      </trkpt>
      <trkpt lat="23.061621" lon="113.27941">
        <time>2026-06-24T22:16:26Z</time>
      </trkpt>
      <trkpt lat="23.0617" lon="113.279218">
        <time>2026-06-24T22:16:31Z</time>
      </trkpt>
      <trkpt lat="23.061767" lon="113.279099">
        <time>2026-06-24T22:16:36Z</time>
      </trkpt>
      <trkpt lat="23.061879" lon="113.278929">
        <time>2026-06-24T22:16:41Z</time>
      </trkpt>
      <trkpt lat="23.061942" lon="113.278801">
        <time>2026-06-24T22:16:46Z</time>
      </trkpt>
      <trkpt lat="23.061975" lon="113.278589">
        <time>2026-06-24T22:16:51Z</time>
      </trkpt>
      <trkpt lat="23.061968" lon="113.278444">
        <time>2026-06-24T22:16:56Z</time>
      </trkpt>
      <trkpt lat="23.061958" lon="113.278227">
        <time>2026-06-24T22:17:01Z</time>
      </trkpt>
      <trkpt lat="23.061948" lon="113.278082">
        <time>2026-06-24T22:17:06Z</time>
      </trkpt>
      <trkpt lat="23.06194" lon="113.277867">
        <time>2026-06-24T22:17:11Z</time>
      </trkpt>
      <trkpt lat="23.061959" lon="113.277723">
        <time>2026-06-24T22:17:16Z</time>
      </trkpt>
      <trkpt lat="23.06203" lon="113.277507">
        <time>2026-06-24T22:17:21Z</time>
      </trkpt>
      <trkpt lat="23.062083" lon="113.27737">
        <time>2026-06-24T22:17:26Z</time>
      </trkpt>
      <trkpt lat="23.062153" lon="113.277172">
        <time>2026-06-24T22:17:31Z</time>
      </trkpt>
      <trkpt lat="23.062199" lon="113.277041">
        <time>2026-06-24T22:17:36Z</time>
      </trkpt>
      <trkpt lat="23.062285" lon="113.276857">
        <time>2026-06-24T22:17:41Z</time>
      </trkpt>
      <trkpt lat="23.062339" lon="113.276734">
        <time>2026-06-24T22:17:46Z</time>
      </trkpt>
      <trkpt lat="23.062413" lon="113.276543">
        <time>2026-06-24T22:17:51Z</time>
      </trkpt>
      <trkpt lat="23.06246" lon="113.276412">
        <time>2026-06-24T22:17:56Z</time>
      </trkpt>
      <trkpt lat="23.062529" lon="113.276218">
        <time>2026-06-24T22:18:01Z</time>
      </trkpt>
      <trkpt lat="23.062588" lon="113.276094">
        <time>2026-06-24T22:18:06Z</time>
      </trkpt>
      <trkpt lat="23.062707" lon="113.275924">
        <time>2026-06-24T22:18:11Z</time>
      </trkpt>
      <trkpt lat="23.062797" lon="113.275822">
        <time>2026-06-24T22:18:16Z</time>
      </trkpt>
      <trkpt lat="23.062933" lon="113.275669">
        <time>2026-06-24T22:18:21Z</time>
      </trkpt>
      <trkpt lat="23.063024" lon="113.275568">
        <time>2026-06-24T22:18:26Z</time>
      </trkpt>
      <trkpt lat="23.063136" lon="113.275401">
        <time>2026-06-24T22:18:31Z</time>
      </trkpt>
      <trkpt lat="23.063204" lon="113.275281">
        <time>2026-06-24T22:18:36Z</time>
      </trkpt>
      <trkpt lat="23.063313" lon="113.275097">
        <time>2026-06-24T22:18:41Z</time>
      </trkpt>
      <trkpt lat="23.063371" lon="113.274966">
        <time>2026-06-24T22:18:46Z</time>
      </trkpt>
      <trkpt lat="23.063433" lon="113.274776">
        <time>2026-06-24T22:18:51Z</time>
      </trkpt>
      <trkpt lat="23.063471" lon="113.27465">
        <time>2026-06-24T22:18:56Z</time>
      </trkpt>
      <trkpt lat="23.063544" lon="113.274475">
        <time>2026-06-24T22:19:01Z</time>
      </trkpt>
      <trkpt lat="23.063606" lon="113.274351">
        <time>2026-06-24T22:19:06Z</time>
      </trkpt>
      <trkpt lat="23.06373" lon="113.274203">
        <time>2026-06-24T22:19:11Z</time>
      </trkpt>
      <trkpt lat="23.063818" lon="113.274111">
        <time>2026-06-24T22:19:16Z</time>
      </trkpt>
      <trkpt lat="23.06393" lon="113.273938">
        <time>2026-06-24T22:19:21Z</time>
      </trkpt>
      <trkpt lat="23.064003" lon="113.273821">
        <time>2026-06-24T22:19:26Z</time>
      </trkpt>
      <trkpt lat="23.064135" lon="113.273666">
        <time>2026-06-24T22:19:31Z</time>
      </trkpt>
      <trkpt lat="23.064242" lon="113.273586">
        <time>2026-06-24T22:19:36Z</time>
      </trkpt>
      <trkpt lat="23.064401" lon="113.273469">
        <time>2026-06-24T22:19:41Z</time>
      </trkpt>
      <trkpt lat="23.064495" lon="113.273382">
        <time>2026-06-24T22:19:46Z</time>
      </trkpt>
      <trkpt lat="23.064585" lon="113.273198">
        <time>2026-06-24T22:19:51Z</time>
      </trkpt>
      <trkpt lat="23.064578" lon="113.273048">
        <time>2026-06-24T22:19:56Z</time>
      </trkpt>
      <trkpt lat="23.064503" lon="113.272833">
        <time>2026-06-24T22:20:01Z</time>
      </trkpt>
      <trkpt lat="23.064457" lon="113.272697">
        <time>2026-06-24T22:20:06Z</time>
      </trkpt>
      <trkpt lat="23.064463" lon="113.272489">
        <time>2026-06-24T22:20:11Z</time>
      </trkpt>
      <trkpt lat="23.064515" lon="113.272351">
        <time>2026-06-24T22:20:16Z</time>
      </trkpt>
      <trkpt lat="23.064582" lon="113.272144">
        <time>2026-06-24T22:20:21Z</time>
      </trkpt>
      <trkpt lat="23.064635" lon="113.272021">
        <time>2026-06-24T22:20:26Z</time>
      </trkpt>
      <trkpt lat="23.06472" lon="113.271841">
        <time>2026-06-24T22:20:31Z</time>
      </trkpt>
      <trkpt lat="23.064783" lon="113.271728">
        <time>2026-06-24T22:20:36Z</time>
      </trkpt>
      <trkpt lat="23.064885" lon="113.271556">
        <time>2026-06-24T22:20:41Z</time>
      </trkpt>
      <trkpt lat="23.064961" lon="113.27144">
        <time>2026-06-24T22:20:46Z</time>
      </trkpt>
      <trkpt lat="23.065057" lon="113.271255">
        <time>2026-06-24T22:20:51Z</time>
      </trkpt>
      <trkpt lat="23.065112" lon="113.271124">
        <time>2026-06-24T22:20:56Z</time>
      </trkpt>
      <trkpt lat="23.065192" lon="113.270921">
        <time>2026-06-24T22:21:01Z</time>
      </trkpt>
      <trkpt lat="23.065249" lon="113.270784">
        <time>2026-06-24T22:21:06Z</time>
      </trkpt>
      <trkpt lat="23.065338" lon="113.27059">
        <time>2026-06-24T22:21:11Z</time>
      </trkpt>
      <trkpt lat="23.065392" lon="113.27046">
        <time>2026-06-24T22:21:16Z</time>
      </trkpt>
      <trkpt lat="23.065478" lon="113.270271">
        <time>2026-06-24T22:21:21Z</time>
      </trkpt>
      <trkpt lat="23.065528" lon="113.270141">
        <time>2026-06-24T22:21:26Z</time>
      </trkpt>
      <trkpt lat="23.065586" lon="113.269944">
        <time>2026-06-24T22:21:31Z</time>
      </trkpt>
      <trkpt lat="23.065629" lon="113.269818">
        <time>2026-06-24T22:21:36Z</time>
      </trkpt>
      <trkpt lat="23.065695" lon="113.269624">
        <time>2026-06-24T22:21:41Z</time>
      </trkpt>
      <trkpt lat="23.065734" lon="113.269487">
        <time>2026-06-24T22:21:46Z</time>
      </trkpt>
      <trkpt lat="23.065781" lon="113.26928">
        <time>2026-06-24T22:21:51Z</time>
      </trkpt>
      <trkpt lat="23.065822" lon="113.269142">
        <time>2026-06-24T22:21:56Z</time>
      </trkpt>
      <trkpt lat="23.065892" lon="113.268946">
        <time>2026-06-24T22:22:01Z</time>
      </trkpt>
      <trkpt lat="23.065944" lon="113.268823">
        <time>2026-06-24T22:22:06Z</time>
      </trkpt>
      <trkpt lat="23.066037" lon="113.268645">
        <time>2026-06-24T22:22:11Z</time>
      </trkpt>
      <trkpt lat="23.066109" lon="113.26853">
        <time>2026-06-24T22:22:16Z</time>
      </trkpt>
      <trkpt lat="23.066218" lon="113.268362">
        <time>2026-06-24T22:22:21Z</time>
      </trkpt>
      <trkpt lat="23.066298" lon="113.268255">
        <time>2026-06-24T22:22:26Z</time>
      </trkpt>
      <trkpt lat="23.06646" lon="113.268152">
        <time>2026-06-24T22:22:31Z</time>
      </trkpt>
      <trkpt lat="23.066591" lon="113.268147">
        <time>2026-06-24T22:22:36Z</time>
      </trkpt>
      <trkpt lat="23.066697" lon="113.268087">
        <time>2026-06-24T22:22:41Z</time>
      </trkpt>
      <trkpt lat="23.066591" lon="113.268008">
        <time>2026-06-24T22:22:46Z</time>
      </trkpt>
      <trkpt lat="23.066371" lon="113.267982">
        <time>2026-06-24T22:22:51Z</time>
      </trkpt>
      <trkpt lat="23.066238" lon="113.268025">
        <time>2026-06-24T22:22:56Z</time>
      </trkpt>
      <trkpt lat="23.066081" lon="113.26816">
        <time>2026-06-24T22:23:01Z</time>
      </trkpt>
      <trkpt lat="23.065993" lon="113.268274">
        <time>2026-06-24T22:23:06Z</time>
      </trkpt>
      <trkpt lat="23.065868" lon="113.268447">
        <time>2026-06-24T22:23:11Z</time>
      </trkpt>
      <trkpt lat="23.065794" lon="113.268566">
        <time>2026-06-24T22:23:16Z</time>
      </trkpt>
      <trkpt lat="23.065704" lon="113.268749">
        <time>2026-06-24T22:23:21Z</time>
      </trkpt>
      <trkpt lat="23.065655" lon="113.268879">
        <time>2026-06-24T22:23:26Z</time>
      </trkpt>
      <trkpt lat="23.065599" lon="113.269075">
        <time>2026-06-24T22:23:31Z</time>
      </trkpt>
      <trkpt lat="23.065573" lon="113.269209">
        <time>2026-06-24T22:23:36Z</time>
      </trkpt>
      <trkpt lat="23.065526" lon="113.2694">
        <time>2026-06-24T22:23:41Z</time>
      </trkpt>
      <trkpt lat="23.065494" lon="113.269534">
        <time>2026-06-24T22:23:46Z</time>
      </trkpt>
      <trkpt lat="23.065444" lon="113.269735">
        <time>2026-06-24T22:23:51Z</time>
      </trkpt>
      <trkpt lat="23.065404" lon="113.269867">
        <time>2026-06-24T22:23:56Z</time>
      </trkpt>
      <trkpt lat="23.06533" lon="113.27007">
        <time>2026-06-24T22:24:01Z</time>
      </trkpt>
      <trkpt lat="23.065277" lon="113.270207">
        <time>2026-06-24T22:24:06Z</time>
      </trkpt>
      <trkpt lat="23.065187" lon="113.270403">
        <time>2026-06-24T22:24:11Z</time>
      </trkpt>
      <trkpt lat="23.065126" lon="113.270531">
        <time>2026-06-24T22:24:16Z</time>
      </trkpt>
      <trkpt lat="23.065035" lon="113.270717">
        <time>2026-06-24T22:24:21Z</time>
      </trkpt>
      <trkpt lat="23.064979" lon="113.270844">
        <time>2026-06-24T22:24:26Z</time>
      </trkpt>
      <trkpt lat="23.064901" lon="113.271036">
        <time>2026-06-24T22:24:31Z</time>
      </trkpt>
      <trkpt lat="23.064848" lon="113.271158">
        <time>2026-06-24T22:24:36Z</time>
      </trkpt>
      <trkpt lat="23.064763" lon="113.271338">
        <time>2026-06-24T22:24:41Z</time>
      </trkpt>
      <trkpt lat="23.0647" lon="113.271458">
        <time>2026-06-24T22:24:46Z</time>
      </trkpt>
      <trkpt lat="23.064615" lon="113.271641">
        <time>2026-06-24T22:24:51Z</time>
      </trkpt>
      <trkpt lat="23.064561" lon="113.271774">
        <time>2026-06-24T22:24:56Z</time>
      </trkpt>
      <trkpt lat="23.064472" lon="113.271977">
        <time>2026-06-24T22:25:01Z</time>
      </trkpt>
      <trkpt lat="23.064408" lon="113.272105">
        <time>2026-06-24T22:25:06Z</time>
      </trkpt>
      <trkpt lat="23.06435" lon="113.272307">
        <time>2026-06-24T22:25:11Z</time>
      </trkpt>
      <trkpt lat="23.064349" lon="113.272448">
        <time>2026-06-24T22:25:16Z</time>
      </trkpt>
      <trkpt lat="23.064326" lon="113.272649">
        <time>2026-06-24T22:25:21Z</time>
      </trkpt>
      <trkpt lat="23.06435" lon="113.27278">
        <time>2026-06-24T22:25:26Z</time>
      </trkpt>
      <trkpt lat="23.064413" lon="113.272968">
        <time>2026-06-24T22:25:31Z</time>
      </trkpt>
      <trkpt lat="23.064453" lon="113.273094">
        <time>2026-06-24T22:25:36Z</time>
      </trkpt>
      <trkpt lat="23.064435" lon="113.273283">
        <time>2026-06-24T22:25:41Z</time>
      </trkpt>
      <trkpt lat="23.064344" lon="113.273378">
        <time>2026-06-24T22:25:46Z</time>
      </trkpt>
      <trkpt lat="23.064179" lon="113.273487">
        <time>2026-06-24T22:25:51Z</time>
      </trkpt>
      <trkpt lat="23.06407" lon="113.273565">
        <time>2026-06-24T22:25:56Z</time>
      </trkpt>
      <trkpt lat="23.063924" lon="113.273705">
        <time>2026-06-24T22:26:01Z</time>
      </trkpt>
      <trkpt lat="23.063846" lon="113.273816">
        <time>2026-06-24T22:26:06Z</time>
      </trkpt>
      <trkpt lat="23.063748" lon="113.273996">
        <time>2026-06-24T22:26:11Z</time>
      </trkpt>
      <trkpt lat="23.063662" lon="113.274107">
        <time>2026-06-24T22:26:16Z</time>
      </trkpt>
      <trkpt lat="23.063511" lon="113.274238">
        <time>2026-06-24T22:26:21Z</time>
      </trkpt>
      <trkpt lat="23.063437" lon="113.274359">
        <time>2026-06-24T22:26:26Z</time>
      </trkpt>
      <trkpt lat="23.063376" lon="113.274577">
        <time>2026-06-24T22:26:31Z</time>
      </trkpt>
      <trkpt lat="23.063332" lon="113.274718">
        <time>2026-06-24T22:26:36Z</time>
      </trkpt>
      <trkpt lat="23.06327" lon="113.274928">
        <time>2026-06-24T22:26:41Z</time>
      </trkpt>
      <trkpt lat="23.063215" lon="113.27506">
        <time>2026-06-24T22:26:46Z</time>
      </trkpt>
      <trkpt lat="23.063111" lon="113.275247">
        <time>2026-06-24T22:26:51Z</time>
      </trkpt>
      <trkpt lat="23.063049" lon="113.275371">
        <time>2026-06-24T22:26:56Z</time>
      </trkpt>
      <trkpt lat="23.062943" lon="113.275549">
        <time>2026-06-24T22:27:01Z</time>
      </trkpt>
      <trkpt lat="23.062856" lon="113.275658">
        <time>2026-06-24T22:27:06Z</time>
      </trkpt>
      <trkpt lat="23.062714" lon="113.275811">
        <time>2026-06-24T22:27:11Z</time>
      </trkpt>
      <trkpt lat="23.06261" lon="113.275913">
        <time>2026-06-24T22:27:16Z</time>
      </trkpt>
      <trkpt lat="23.062488" lon="113.276087">
        <time>2026-06-24T22:27:21Z</time>
      </trkpt>
      <trkpt lat="23.062428" lon="113.276212">
        <time>2026-06-24T22:27:26Z</time>
      </trkpt>
      <trkpt lat="23.062353" lon="113.276399">
        <time>2026-06-24T22:27:31Z</time>
      </trkpt>
      <trkpt lat="23.062309" lon="113.276525">
        <time>2026-06-24T22:27:36Z</time>
      </trkpt>
      <trkpt lat="23.062239" lon="113.276713">
        <time>2026-06-24T22:27:41Z</time>
      </trkpt>
      <trkpt lat="23.062179" lon="113.276851">
        <time>2026-06-24T22:27:46Z</time>
      </trkpt>
      <trkpt lat="23.062117" lon="113.276998">
        <time>2026-06-24T22:27:51Z</time>
      </trkpt>
      <trkpt lat="23.062044" lon="113.277206">
        <time>2026-06-24T22:27:56Z</time>
      </trkpt>
      <trkpt lat="23.061993" lon="113.277348">
        <time>2026-06-24T22:28:01Z</time>
      </trkpt>
      <trkpt lat="23.061912" lon="113.277554">
        <time>2026-06-24T22:28:06Z</time>
      </trkpt>
      <trkpt lat="23.061862" lon="113.277686">
        <time>2026-06-24T22:28:11Z</time>
      </trkpt>
      <trkpt lat="23.061826" lon="113.277891">
        <time>2026-06-24T22:28:16Z</time>
      </trkpt>
      <trkpt lat="23.061835" lon="113.278031">
        <time>2026-06-24T22:28:21Z</time>
      </trkpt>
      <trkpt lat="23.061861" lon="113.278236">
        <time>2026-06-24T22:28:26Z</time>
      </trkpt>
      <trkpt lat="23.061872" lon="113.278372">
        <time>2026-06-24T22:28:31Z</time>
      </trkpt>
      <trkpt lat="23.061881" lon="113.27858">
        <time>2026-06-24T22:28:36Z</time>
      </trkpt>
      <trkpt lat="23.061867" lon="113.278718">
        <time>2026-06-24T22:28:41Z</time>
      </trkpt>
      <trkpt lat="23.061778" lon="113.278905">
        <time>2026-06-24T22:28:46Z</time>
      </trkpt>
      <trkpt lat="23.061706" lon="113.27902">
        <time>2026-06-24T22:28:51Z</time>
      </trkpt>
      <trkpt lat="23.061611" lon="113.279193">
        <time>2026-06-24T22:28:56Z</time>
      </trkpt>
      <trkpt lat="23.061562" lon="113.279313">
        <time>2026-06-24T22:29:01Z</time>
      </trkpt>
      <trkpt lat="23.061497" lon="113.279494">
        <time>2026-06-24T22:29:06Z</time>
      </trkpt>
      <trkpt lat="23.061453" lon="113.279614">
        <time>2026-06-24T22:29:11Z</time>
      </trkpt>
      <trkpt lat="23.061377" lon="113.279792">
        <time>2026-06-24T22:29:16Z</time>
      </trkpt>
      <trkpt lat="23.061323" lon="113.279917">
        <time>2026-06-24T22:29:21Z</time>
      </trkpt>
      <trkpt lat="23.061237" lon="113.280102">
        <time>2026-06-24T22:29:26Z</time>
      </trkpt>
      <trkpt lat="23.061189" lon="113.280228">
        <time>2026-06-24T22:29:31Z</time>
      </trkpt>
      <trkpt lat="23.061107" lon="113.280411">
        <time>2026-06-24T22:29:36Z</time>
      </trkpt>
      <trkpt lat="23.061036" lon="113.280522">
        <time>2026-06-24T22:29:41Z</time>
      </trkpt>
      <trkpt lat="23.060935" lon="113.280709">
        <time>2026-06-24T22:29:46Z</time>
      </trkpt>
      <trkpt lat="23.060874" lon="113.280832">
        <time>2026-06-24T22:29:51Z</time>
      </trkpt>
      <trkpt lat="23.06079" lon="113.281022">
        <time>2026-06-24T22:29:56Z</time>
      </trkpt>
      <trkpt lat="23.06074" lon="113.281147">
        <time>2026-06-24T22:30:01Z</time>
      </trkpt>
      <trkpt lat="23.060665" lon="113.281329">
        <time>2026-06-24T22:30:06Z</time>
      </trkpt>
      <trkpt lat="23.060619" lon="113.281453">
        <time>2026-06-24T22:30:11Z</time>
      </trkpt>
      <trkpt lat="23.060544" lon="113.281639">
        <time>2026-06-24T22:30:16Z</time>
      </trkpt>
      <trkpt lat="23.060488" lon="113.28176">
        <time>2026-06-24T22:30:21Z</time>
      </trkpt>
      <trkpt lat="23.060407" lon="113.281946">
        <time>2026-06-24T22:30:26Z</time>
      </trkpt>
      <trkpt lat="23.060357" lon="113.282074">
        <time>2026-06-24T22:30:31Z</time>
      </trkpt>
      <trkpt lat="23.06027" lon="113.282264">
        <time>2026-06-24T22:30:36Z</time>
      </trkpt>
      <trkpt lat="23.060216" lon="113.28239">
        <time>2026-06-24T22:30:41Z</time>
      </trkpt>
      <trkpt lat="23.060131" lon="113.282581">
        <time>2026-06-24T22:30:46Z</time>
      </trkpt>
      <trkpt lat="23.060081" lon="113.282704">
        <time>2026-06-24T22:30:51Z</time>
      </trkpt>
      <trkpt lat="23.060012" lon="113.282843">
        <time>2026-06-24T22:30:56Z</time>
      </trkpt>
      <trkpt lat="23.059982" lon="113.282891">
        <time>2026-06-24T22:31:01Z</time>
      </trkpt>
      <trkpt lat="23.059941" lon="113.282958">
        <time>2026-06-24T22:31:06Z</time>
      </trkpt>
      <trkpt lat="23.059913" lon="113.283002">
        <time>2026-06-24T22:31:11Z</time>
      </trkpt>
      <trkpt lat="23.059872" lon="113.283074">
        <time>2026-06-24T22:31:16Z</time>
      </trkpt>
      <trkpt lat="23.059851" lon="113.283125">
        <time>2026-06-24T22:31:21Z</time>
      </trkpt>
      <trkpt lat="23.059818" lon="113.283195">
        <time>2026-06-24T22:31:26Z</time>
      </trkpt>
      <trkpt lat="23.059797" lon="113.283247">
        <time>2026-06-24T22:31:31Z</time>
      </trkpt>
      <trkpt lat="23.059771" lon="113.283322">
        <time>2026-06-24T22:31:36Z</time>
      </trkpt>
      <trkpt lat="23.059755" lon="113.283369">
        <time>2026-06-24T22:31:41Z</time>
      </trkpt>
      <trkpt lat="23.059729" lon="113.28344">
        <time>2026-06-24T22:31:46Z</time>
      </trkpt>
      <trkpt lat="23.059712" lon="113.283485">
        <time>2026-06-24T22:31:51Z</time>
      </trkpt>
      <trkpt lat="23.05968" lon="113.28356">
        <time>2026-06-24T22:31:56Z</time>
      </trkpt>
      <trkpt lat="23.059657" lon="113.28361">
        <time>2026-06-24T22:32:01Z</time>
      </trkpt>
      <trkpt lat="23.059625" lon="113.283676">
        <time>2026-06-24T22:32:06Z</time>
      </trkpt>
      <trkpt lat="23.0596" lon="113.28372">
        <time>2026-06-24T22:32:11Z</time>
      </trkpt>
      <trkpt lat="23.059579" lon="113.283796">
        <time>2026-06-24T22:32:16Z</time>
      </trkpt>
      <trkpt lat="23.059566" lon="113.283846">
        <time>2026-06-24T22:32:21Z</time>
      </trkpt>
      <trkpt lat="23.059542" lon="113.283917">
        <time>2026-06-24T22:32:26Z</time>
      </trkpt>
      <trkpt lat="23.059526" lon="113.28396">
        <time>2026-06-24T22:32:31Z</time>
      </trkpt>
      <trkpt lat="23.059492" lon="113.284029">
        <time>2026-06-24T22:32:36Z</time>
      </trkpt>
      <trkpt lat="23.059469" lon="113.284074">
        <time>2026-06-24T22:32:41Z</time>
      </trkpt>
      <trkpt lat="23.059423" lon="113.284127">
        <time>2026-06-24T22:32:46Z</time>
      </trkpt>
      <trkpt lat="23.059399" lon="113.284169">
        <time>2026-06-24T22:32:51Z</time>
      </trkpt>
      <trkpt lat="23.059374" lon="113.284243">
        <time>2026-06-24T22:32:56Z</time>
      </trkpt>
      <trkpt lat="23.059358" lon="113.284284">
        <time>2026-06-24T22:33:01Z</time>
      </trkpt>
      <trkpt lat="23.059332" lon="113.284352">
        <time>2026-06-24T22:33:06Z</time>
      </trkpt>
      <trkpt lat="23.059311" lon="113.284397">
        <time>2026-06-24T22:33:11Z</time>
      </trkpt>
      <trkpt lat="23.059296" lon="113.284473">
        <time>2026-06-24T22:33:16Z</time>
      </trkpt>
      <trkpt lat="23.059288" lon="113.284523">
        <time>2026-06-24T22:33:21Z</time>
      </trkpt>
      <trkpt lat="23.059283" lon="113.284601">
        <time>2026-06-24T22:33:26Z</time>
      </trkpt>
      <trkpt lat="23.059269" lon="113.284643">
        <time>2026-06-24T22:33:31Z</time>
      </trkpt>
      <trkpt lat="23.059248" lon="113.28471">
        <time>2026-06-24T22:33:36Z</time>
      </trkpt>
      <trkpt lat="23.059225" lon="113.284754">
        <time>2026-06-24T22:33:41Z</time>
      </trkpt>
      <trkpt lat="23.059191" lon="113.284825">
        <time>2026-06-24T22:33:46Z</time>
      </trkpt>
      <trkpt lat="23.059172" lon="113.284875">
        <time>2026-06-24T22:33:51Z</time>
      </trkpt>
      <trkpt lat="23.059124" lon="113.284993">
        <time>2026-06-24T22:33:56Z</time>
      </trkpt>
      <trkpt lat="23.059087" lon="113.285085">
        <time>2026-06-24T22:34:01Z</time>
      </trkpt>
      <trkpt lat="23.059031" lon="113.285223">
        <time>2026-06-24T22:34:06Z</time>
      </trkpt>
      <trkpt lat="23.058993" lon="113.285316">
        <time>2026-06-24T22:34:11Z</time>
      </trkpt>
      <trkpt lat="23.058929" lon="113.285449">
        <time>2026-06-24T22:34:16Z</time>
      </trkpt>
      <trkpt lat="23.058893" lon="113.285541">
        <time>2026-06-24T22:34:21Z</time>
      </trkpt>
      <trkpt lat="23.058836" lon="113.285687">
        <time>2026-06-24T22:34:26Z</time>
      </trkpt>
      <trkpt lat="23.058794" lon="113.28579">
        <time>2026-06-24T22:34:31Z</time>
      </trkpt>
      <trkpt lat="23.058731" lon="113.28594">
        <time>2026-06-24T22:34:36Z</time>
      </trkpt>
      <trkpt lat="23.05869" lon="113.286032">
        <time>2026-06-24T22:34:41Z</time>
      </trkpt>
      <trkpt lat="23.058653" lon="113.286176">
        <time>2026-06-24T22:34:46Z</time>
      </trkpt>
      <trkpt lat="23.058669" lon="113.286268">
        <time>2026-06-24T22:34:51Z</time>
      </trkpt>
      <trkpt lat="23.058759" lon="113.286299">
        <time>2026-06-24T22:34:56Z</time>
      </trkpt>
      <trkpt lat="23.058811" lon="113.286223">
        <time>2026-06-24T22:35:01Z</time>
      </trkpt>
      <trkpt lat="23.058889" lon="113.286125">
        <time>2026-06-24T22:35:06Z</time>
      </trkpt>
      <trkpt lat="23.058926" lon="113.28608">
        <time>2026-06-24T22:35:11Z</time>
      </trkpt>
      <trkpt lat="23.058969" lon="113.286012">
        <time>2026-06-24T22:35:16Z</time>
      </trkpt>
      <trkpt lat="23.059" lon="113.285969">
        <time>2026-06-24T22:35:21Z</time>
      </trkpt>
      <trkpt lat="23.05903" lon="113.285896">
        <time>2026-06-24T22:35:26Z</time>
      </trkpt>
      <trkpt lat="23.059051" lon="113.285848">
        <time>2026-06-24T22:35:31Z</time>
      </trkpt>
      <trkpt lat="23.059086" lon="113.285777">
        <time>2026-06-24T22:35:36Z</time>
      </trkpt>
      <trkpt lat="23.05911" lon="113.285729">
        <time>2026-06-24T22:35:41Z</time>
      </trkpt>
      <trkpt lat="23.059148" lon="113.285658">
        <time>2026-06-24T22:35:46Z</time>
      </trkpt>
      <trkpt lat="23.059171" lon="113.285615">
        <time>2026-06-24T22:35:51Z</time>
      </trkpt>
      <trkpt lat="23.059195" lon="113.285539">
        <time>2026-06-24T22:35:56Z</time>
      </trkpt>
      <trkpt lat="23.059207" lon="113.285486">
        <time>2026-06-24T22:36:01Z</time>
      </trkpt>
      <trkpt lat="23.059226" lon="113.285405">
        <time>2026-06-24T22:36:06Z</time>
      </trkpt>
      <trkpt lat="23.059241" lon="113.285351">
        <time>2026-06-24T22:36:11Z</time>
      </trkpt>
      <trkpt lat="23.059281" lon="113.285276">
        <time>2026-06-24T22:36:16Z</time>
      </trkpt>
      <trkpt lat="23.05931" lon="113.285216">
        <time>2026-06-24T22:36:21Z</time>
      </trkpt>
      <trkpt lat="23.059347" lon="113.285098">
        <time>2026-06-24T22:36:26Z</time>
      </trkpt>
      <trkpt lat="23.059399" lon="113.285043">
        <time>2026-06-24T22:36:31Z</time>
      </trkpt>
      <trkpt lat="23.059483" lon="113.284978">
        <time>2026-06-24T22:36:36Z</time>
      </trkpt>
      <trkpt lat="23.059498" lon="113.284897">
        <time>2026-06-24T22:36:41Z</time>
      </trkpt>
      <trkpt lat="23.059564" lon="113.284792">
        <time>2026-06-24T22:36:46Z</time>
      </trkpt>
      <trkpt lat="23.05961" lon="113.284719">
        <time>2026-06-24T22:36:51Z</time>
      </trkpt>
      <trkpt lat="23.059645" lon="113.284592">
        <time>2026-06-24T22:36:56Z</time>
      </trkpt>
      <trkpt lat="23.059671" lon="113.284514">
        <time>2026-06-24T22:37:01Z</time>
      </trkpt>
      <trkpt lat="23.05972" lon="113.284405">
        <time>2026-06-24T22:37:06Z</time>
      </trkpt>
      <trkpt lat="23.05975" lon="113.284336">
        <time>2026-06-24T22:37:11Z</time>
      </trkpt>
      <trkpt lat="23.059797" lon="113.284221">
        <time>2026-06-24T22:37:16Z</time>
      </trkpt>
      <trkpt lat="23.059829" lon="113.284144">
        <time>2026-06-24T22:37:21Z</time>
      </trkpt>
      <trkpt lat="23.059879" lon="113.28403">
        <time>2026-06-24T22:37:26Z</time>
      </trkpt>
      <trkpt lat="23.059906" lon="113.283949">
        <time>2026-06-24T22:37:31Z</time>
      </trkpt>
      <trkpt lat="23.059922" lon="113.283837">
        <time>2026-06-24T22:37:36Z</time>
      </trkpt>
      <trkpt lat="23.059932" lon="113.283781">
        <time>2026-06-24T22:37:41Z</time>
      </trkpt>
      <trkpt lat="23.059936" lon="113.283702">
        <time>2026-06-24T22:37:46Z</time>
      </trkpt>
      <trkpt lat="23.059933" lon="113.283642">
        <time>2026-06-24T22:37:51Z</time>
      </trkpt>
      <trkpt lat="23.059935" lon="113.283556">
        <time>2026-06-24T22:37:56Z</time>
      </trkpt>
      <trkpt lat="23.059934" lon="113.283504">
        <time>2026-06-24T22:38:01Z</time>
      </trkpt>
      <trkpt lat="23.059957" lon="113.283441">
        <time>2026-06-24T22:38:06Z</time>
      </trkpt>
      <trkpt lat="23.059979" lon="113.283395">
        <time>2026-06-24T22:38:11Z</time>
      </trkpt>
      <trkpt lat="23.060021" lon="113.283337">
        <time>2026-06-24T22:38:16Z</time>
      </trkpt>
      <trkpt lat="23.060039" lon="113.283297">
        <time>2026-06-24T22:38:21Z</time>
      </trkpt>
      <trkpt lat="23.060063" lon="113.283236">
        <time>2026-06-24T22:38:26Z</time>
      </trkpt>
      <trkpt lat="23.060086" lon="113.283198">
        <time>2026-06-24T22:38:31Z</time>
      </trkpt>
      <trkpt lat="23.060115" lon="113.283135">
        <time>2026-06-24T22:38:36Z</time>
      </trkpt>
      <trkpt lat="23.060135" lon="113.283081">
        <time>2026-06-24T22:38:41Z</time>
      </trkpt>
      <trkpt lat="23.060155" lon="113.282996">
        <time>2026-06-24T22:38:46Z</time>
      </trkpt>
      <trkpt lat="23.060169" lon="113.282947">
        <time>2026-06-24T22:38:51Z</time>
      </trkpt>
      <trkpt lat="23.060198" lon="113.282869">
        <time>2026-06-24T22:38:56Z</time>
      </trkpt>
      <trkpt lat="23.060226" lon="113.28281">
        <time>2026-06-24T22:39:01Z</time>
      </trkpt>
      <trkpt lat="23.060276" lon="113.282695">
        <time>2026-06-24T22:39:06Z</time>
      </trkpt>
      <trkpt lat="23.06031" lon="113.282613">
        <time>2026-06-24T22:39:11Z</time>
      </trkpt>
      <trkpt lat="23.060362" lon="113.282479">
        <time>2026-06-24T22:39:16Z</time>
      </trkpt>
      <trkpt lat="23.060394" lon="113.282387">
        <time>2026-06-24T22:39:21Z</time>
      </trkpt>
      <trkpt lat="23.060435" lon="113.282254">
        <time>2026-06-24T22:39:26Z</time>
      </trkpt>
      <trkpt lat="23.060464" lon="113.282176">
        <time>2026-06-24T22:39:31Z</time>
      </trkpt>
      <trkpt lat="23.060512" lon="113.282062">
        <time>2026-06-24T22:39:36Z</time>
      </trkpt>
      <trkpt lat="23.060549" lon="113.281987">
        <time>2026-06-24T22:39:41Z</time>
      </trkpt>
      <trkpt lat="23.060606" lon="113.281875">
        <time>2026-06-24T22:39:46Z</time>
      </trkpt>
      <trkpt lat="23.060638" lon="113.281793">
        <time>2026-06-24T22:39:51Z</time>
      </trkpt>
      <trkpt lat="23.060662" lon="113.281711">
        <time>2026-06-24T22:39:56Z</time>
      </trkpt>
      <trkpt lat="23.060677" lon="113.281661">
        <time>2026-06-24T22:40:01Z</time>
      </trkpt>
      <trkpt lat="23.060707" lon="113.281577">
        <time>2026-06-24T22:40:06Z</time>
      </trkpt>
      <trkpt lat="23.060728" lon="113.281523">
        <time>2026-06-24T22:40:11Z</time>
      </trkpt>
      <trkpt lat="23.060767" lon="113.281443">
        <time>2026-06-24T22:40:16Z</time>
      </trkpt>
      <trkpt lat="23.060794" lon="113.281391">
        <time>2026-06-24T22:40:21Z</time>
      </trkpt>
      <trkpt lat="23.060828" lon="113.281306">
        <time>2026-06-24T22:40:26Z</time>
      </trkpt>
      <trkpt lat="23.060853" lon="113.281255">
        <time>2026-06-24T22:40:31Z</time>
      </trkpt>
      <trkpt lat="23.060886" lon="113.281183">
        <time>2026-06-24T22:40:36Z</time>
      </trkpt>
      <trkpt lat="23.060905" lon="113.281137">
        <time>2026-06-24T22:40:41Z</time>
      </trkpt>
      <trkpt lat="23.060935" lon="113.281067">
        <time>2026-06-24T22:40:46Z</time>
      </trkpt>
      <trkpt lat="23.060956" lon="113.281026">
        <time>2026-06-24T22:40:51Z</time>
      </trkpt>
      <trkpt lat="23.060992" lon="113.280956">
        <time>2026-06-24T22:40:56Z</time>
      </trkpt>
      <trkpt lat="23.061013" lon="113.280907">
        <time>2026-06-24T22:41:01Z</time>
      </trkpt>
      <trkpt lat="23.061039" lon="113.280832">
        <time>2026-06-24T22:41:06Z</time>
      </trkpt>
      <trkpt lat="23.061058" lon="113.280779">
        <time>2026-06-24T22:41:11Z</time>
      </trkpt>
      <trkpt lat="23.061096" lon="113.280695">
        <time>2026-06-24T22:41:16Z</time>
      </trkpt>
      <trkpt lat="23.061128" lon="113.280628">
        <time>2026-06-24T22:41:21Z</time>
      </trkpt>
      <trkpt lat="23.061186" lon="113.280497">
        <time>2026-06-24T22:41:26Z</time>
      </trkpt>
      <trkpt lat="23.061221" lon="113.280412">
        <time>2026-06-24T22:41:31Z</time>
      </trkpt>
      <trkpt lat="23.061286" lon="113.280283">
        <time>2026-06-24T22:41:36Z</time>
      </trkpt>
      <trkpt lat="23.061334" lon="113.280203">
        <time>2026-06-24T22:41:41Z</time>
      </trkpt>
      <trkpt lat="23.061381" lon="113.280077">
        <time>2026-06-24T22:41:46Z</time>
      </trkpt>
      <trkpt lat="23.061409" lon="113.279994">
        <time>2026-06-24T22:41:51Z</time>
      </trkpt>
      <trkpt lat="23.061458" lon="113.279861">
        <time>2026-06-24T22:41:56Z</time>
      </trkpt>
      <trkpt lat="23.061497" lon="113.279772">
        <time>2026-06-24T22:42:01Z</time>
      </trkpt>
      <trkpt lat="23.061544" lon="113.279646">
        <time>2026-06-24T22:42:06Z</time>
      </trkpt>
      <trkpt lat="23.061576" lon="113.279567">
        <time>2026-06-24T22:42:11Z</time>
      </trkpt>
      <trkpt lat="23.06163" lon="113.279447">
        <time>2026-06-24T22:42:16Z</time>
      </trkpt>
      <trkpt lat="23.061664" lon="113.279386">
        <time>2026-06-24T22:42:21Z</time>
      </trkpt>
      <trkpt lat="23.061701" lon="113.279312">
        <time>2026-06-24T22:42:26Z</time>
      </trkpt>
      <trkpt lat="23.061718" lon="113.279256">
        <time>2026-06-24T22:42:31Z</time>
      </trkpt>
      <trkpt lat="23.061749" lon="113.279182">
        <time>2026-06-24T22:42:36Z</time>
      </trkpt>
      <trkpt lat="23.061774" lon="113.279132">
        <time>2026-06-24T22:42:41Z</time>
      </trkpt>
      <trkpt lat="23.061812" lon="113.279064">
        <time>2026-06-24T22:42:46Z</time>
      </trkpt>
      <trkpt lat="23.061837" lon="113.27902">
        <time>2026-06-24T22:42:51Z</time>
      </trkpt>
      <trkpt lat="23.06188" lon="113.278954">
        <time>2026-06-24T22:42:56Z</time>
      </trkpt>
      <trkpt lat="23.061911" lon="113.278906">
        <time>2026-06-24T22:43:01Z</time>
      </trkpt>
      <trkpt lat="23.061948" lon="113.278833">
        <time>2026-06-24T22:43:06Z</time>
      </trkpt>
      <trkpt lat="23.061967" lon="113.278784">
        <time>2026-06-24T22:43:11Z</time>
      </trkpt>
      <trkpt lat="23.061982" lon="113.278703">
        <time>2026-06-24T22:43:16Z</time>
      </trkpt>
      <trkpt lat="23.061982" lon="113.278646">
        <time>2026-06-24T22:43:21Z</time>
      </trkpt>
      <trkpt lat="23.061979" lon="113.278562">
        <time>2026-06-24T22:43:26Z</time>
      </trkpt>
      <trkpt lat="23.061977" lon="113.278505">
        <time>2026-06-24T22:43:31Z</time>
      </trkpt>
      <trkpt lat="23.061975" lon="113.278419">
        <time>2026-06-24T22:43:36Z</time>
      </trkpt>
      <trkpt lat="23.061973" lon="113.278361">
        <time>2026-06-24T22:43:41Z</time>
      </trkpt>
      <trkpt lat="23.061968" lon="113.27828">
        <time>2026-06-24T22:43:46Z</time>
      </trkpt>
      <trkpt lat="23.061964" lon="113.278224">
        <time>2026-06-24T22:43:51Z</time>
      </trkpt>
      <trkpt lat="23.061962" lon="113.278104">
        <time>2026-06-24T22:43:56Z</time>
      </trkpt>
      <trkpt lat="23.061959" lon="113.278005">
        <time>2026-06-24T22:44:01Z</time>
      </trkpt>
      <trkpt lat="23.061954" lon="113.277856">
        <time>2026-06-24T22:44:06Z</time>
      </trkpt>
      <trkpt lat="23.061968" lon="113.27776">
        <time>2026-06-24T22:44:11Z</time>
      </trkpt>
      <trkpt lat="23.062009" lon="113.277608">
        <time>2026-06-24T22:44:16Z</time>
      </trkpt>
      <trkpt lat="23.062044" lon="113.277511">
        <time>2026-06-24T22:44:21Z</time>
      </trkpt>
      <trkpt lat="23.062095" lon="113.277373">
        <time>2026-06-24T22:44:26Z</time>
      </trkpt>
      <trkpt lat="23.062128" lon="113.277282">
        <time>2026-06-24T22:44:31Z</time>
      </trkpt>
      <trkpt lat="23.062179" lon="113.27714">
        <time>2026-06-24T22:44:36Z</time>
      </trkpt>
      <trkpt lat="23.062214" lon="113.277049">
        <time>2026-06-24T22:44:41Z</time>
      </trkpt>
      <trkpt lat="23.062261" lon="113.276907">
        <time>2026-06-24T22:44:46Z</time>
      </trkpt>
      <trkpt lat="23.0623" lon="113.276814">
        <time>2026-06-24T22:44:51Z</time>
      </trkpt>
      <trkpt lat="23.062356" lon="113.276681">
        <time>2026-06-24T22:44:56Z</time>
      </trkpt>
      <trkpt lat="23.062389" lon="113.276595">
        <time>2026-06-24T22:45:01Z</time>
      </trkpt>
      <trkpt lat="23.062441" lon="113.276466">
        <time>2026-06-24T22:45:06Z</time>
      </trkpt>
      <trkpt lat="23.062475" lon="113.276375">
        <time>2026-06-24T22:45:11Z</time>
      </trkpt>
      <trkpt lat="23.062523" lon="113.276239">
        <time>2026-06-24T22:45:16Z</time>
      </trkpt>
      <trkpt lat="23.062566" lon="113.276152">
        <time>2026-06-24T22:45:21Z</time>
      </trkpt>
      <trkpt lat="23.062643" lon="113.276038">
        <time>2026-06-24T22:45:26Z</time>
      </trkpt>
      <trkpt lat="23.062697" lon="113.275964">
        <time>2026-06-24T22:45:31Z</time>
      </trkpt>
      <trkpt lat="23.062787" lon="113.275864">
        <time>2026-06-24T22:45:36Z</time>
      </trkpt>
      <trkpt lat="23.062843" lon="113.275796">
        <time>2026-06-24T22:45:41Z</time>
      </trkpt>
      <trkpt lat="23.062937" lon="113.275695">
        <time>2026-06-24T22:45:46Z</time>
      </trkpt>
      <trkpt lat="23.062997" lon="113.275627">
        <time>2026-06-24T22:45:51Z</time>
      </trkpt>
      <trkpt lat="23.063076" lon="113.275518">
        <time>2026-06-24T22:45:56Z</time>
      </trkpt>
      <trkpt lat="23.06312" lon="113.275442">
        <time>2026-06-24T22:46:01Z</time>
      </trkpt>
      <trkpt lat="23.063191" lon="113.275325">
        <time>2026-06-24T22:46:06Z</time>
      </trkpt>
      <trkpt lat="23.06324" lon="113.275251">
        <time>2026-06-24T22:46:11Z</time>
      </trkpt>
      <trkpt lat="23.063325" lon="113.275142">
        <time>2026-06-24T22:46:16Z</time>
      </trkpt>
      <trkpt lat="23.063373" lon="113.275065">
        <time>2026-06-24T22:46:21Z</time>
      </trkpt>
      <trkpt lat="23.063429" lon="113.274948">
        <time>2026-06-24T22:46:26Z</time>
      </trkpt>
      <trkpt lat="23.063456" lon="113.274865">
        <time>2026-06-24T22:46:31Z</time>
      </trkpt>
      <trkpt lat="23.0635" lon="113.274737">
        <time>2026-06-24T22:46:36Z</time>
      </trkpt>
      <trkpt lat="23.063525" lon="113.274645">
        <time>2026-06-24T22:46:41Z</time>
      </trkpt>
      <trkpt lat="23.06355" lon="113.274519">
        <time>2026-06-24T22:46:46Z</time>
      </trkpt>
      <trkpt lat="23.06358" lon="113.274441">
        <time>2026-06-24T22:46:51Z</time>
      </trkpt>
      <trkpt lat="23.063645" lon="113.27434">
        <time>2026-06-24T22:46:56Z</time>
      </trkpt>
      <trkpt lat="23.063699" lon="113.274277">
        <time>2026-06-24T22:47:01Z</time>
      </trkpt>
      <trkpt lat="23.063788" lon="113.274192">
        <time>2026-06-24T22:47:06Z</time>
      </trkpt>
      <trkpt lat="23.06384" lon="113.274126">
        <time>2026-06-24T22:47:11Z</time>
      </trkpt>
      <trkpt lat="23.063901" lon="113.273995">
        <time>2026-06-24T22:47:16Z</time>
      </trkpt>
      <trkpt lat="23.063947" lon="113.273908">
        <time>2026-06-24T22:47:21Z</time>
      </trkpt>
      <trkpt lat="23.064024" lon="113.273794">
        <time>2026-06-24T22:47:26Z</time>
      </trkpt>
      <trkpt lat="23.064085" lon="113.273729">
        <time>2026-06-24T22:47:31Z</time>
      </trkpt>
      <trkpt lat="23.064188" lon="113.273647">
        <time>2026-06-24T22:47:36Z</time>
      </trkpt>
      <trkpt lat="23.064251" lon="113.273594">
        <time>2026-06-24T22:47:41Z</time>
      </trkpt>
      <trkpt lat="23.06431" lon="113.273539">
        <time>2026-06-24T22:47:46Z</time>
      </trkpt>
      <trkpt lat="23.064348" lon="113.273505">
        <time>2026-06-24T22:47:51Z</time>
      </trkpt>
      <trkpt lat="23.064409" lon="113.273446">
        <time>2026-06-24T22:47:56Z</time>
      </trkpt>
      <trkpt lat="23.064455" lon="113.273416">
        <time>2026-06-24T22:48:01Z</time>
      </trkpt>
      <trkpt lat="23.064514" lon="113.273356">
        <time>2026-06-24T22:48:06Z</time>
      </trkpt>
      <trkpt lat="23.064545" lon="113.273301">
        <time>2026-06-24T22:48:11Z</time>
      </trkpt>
      <trkpt lat="23.064575" lon="113.273163">
        <time>2026-06-24T22:48:16Z</time>
      </trkpt>
      <trkpt lat="23.064562" lon="113.273059">
        <time>2026-06-24T22:48:21Z</time>
      </trkpt>
      <trkpt lat="23.064519" lon="113.272903">
        <time>2026-06-24T22:48:26Z</time>
      </trkpt>
      <trkpt lat="23.064488" lon="113.2728">
        <time>2026-06-24T22:48:31Z</time>
      </trkpt>
      <trkpt lat="23.064448" lon="113.272649">
        <time>2026-06-24T22:48:36Z</time>
      </trkpt>
      <trkpt lat="23.064466" lon="113.272552">
        <time>2026-06-24T22:48:41Z</time>
      </trkpt>
      <trkpt lat="23.064548" lon="113.272415">
        <time>2026-06-24T22:48:46Z</time>
      </trkpt>
      <trkpt lat="23.064563" lon="113.272323">
        <time>2026-06-24T22:48:51Z</time>
      </trkpt>
      <trkpt lat="23.064574" lon="113.272251">
        <time>2026-06-24T22:48:56Z</time>
      </trkpt>
      <trkpt lat="23.064583" lon="113.272204">
        <time>2026-06-24T22:49:01Z</time>
      </trkpt>
      <trkpt lat="23.064617" lon="113.272133">
        <time>2026-06-24T22:49:06Z</time>
      </trkpt>
      <trkpt lat="23.064643" lon="113.272089">
        <time>2026-06-24T22:49:11Z</time>
      </trkpt>
      <trkpt lat="23.064676" lon="113.272013">
        <time>2026-06-24T22:49:16Z</time>
      </trkpt>
      <trkpt lat="23.064694" lon="113.271961">
        <time>2026-06-24T22:49:21Z</time>
      </trkpt>
      <trkpt lat="23.064728" lon="113.271897">
        <time>2026-06-24T22:49:26Z</time>
      </trkpt>
      <trkpt lat="23.064757" lon="113.271855">
        <time>2026-06-24T22:49:31Z</time>
      </trkpt>
      <trkpt lat="23.064795" lon="113.271772">
        <time>2026-06-24T22:49:36Z</time>
      </trkpt>
      <trkpt lat="23.064819" lon="113.271704">
        <time>2026-06-24T22:49:41Z</time>
      </trkpt>
      <trkpt lat="23.064873" lon="113.271573">
        <time>2026-06-24T22:49:46Z</time>
      </trkpt>
      <trkpt lat="23.064917" lon="113.271479">
        <time>2026-06-24T22:49:51Z</time>
      </trkpt>
      <trkpt lat="23.064981" lon="113.271356">
        <time>2026-06-24T22:49:56Z</time>
      </trkpt>
      <trkpt lat="23.065016" lon="113.271272">
        <time>2026-06-24T22:50:01Z</time>
      </trkpt>
      <trkpt lat="23.065085" lon="113.271142">
        <time>2026-06-24T22:50:06Z</time>
      </trkpt>
      <trkpt lat="23.065134" lon="113.271053">
        <time>2026-06-24T22:50:11Z</time>
      </trkpt>
      <trkpt lat="23.065199" lon="113.27091">
        <time>2026-06-24T22:50:16Z</time>
      </trkpt>
      <trkpt lat="23.065239" lon="113.270815">
        <time>2026-06-24T22:50:21Z</time>
      </trkpt>
      <trkpt lat="23.065293" lon="113.27067">
        <time>2026-06-24T22:50:26Z</time>
      </trkpt>
      <trkpt lat="23.065332" lon="113.270577">
        <time>2026-06-24T22:50:31Z</time>
      </trkpt>
      <trkpt lat="23.065396" lon="113.270434">
        <time>2026-06-24T22:50:36Z</time>
      </trkpt>
      <trkpt lat="23.065434" lon="113.270341">
        <time>2026-06-24T22:50:41Z</time>
      </trkpt>
      <trkpt lat="23.065496" lon="113.270207">
        <time>2026-06-24T22:50:46Z</time>
      </trkpt>
      <trkpt lat="23.065528" lon="113.27011">
        <time>2026-06-24T22:50:51Z</time>
      </trkpt>
      <trkpt lat="23.065566" lon="113.269968">
        <time>2026-06-24T22:50:56Z</time>
      </trkpt>
      <trkpt lat="23.065595" lon="113.269875">
        <time>2026-06-24T22:51:01Z</time>
      </trkpt>
      <trkpt lat="23.065641" lon="113.269722">
        <time>2026-06-24T22:51:06Z</time>
      </trkpt>
      <trkpt lat="23.065683" lon="113.269631">
        <time>2026-06-24T22:51:11Z</time>
      </trkpt>
      <trkpt lat="23.065731" lon="113.269534">
        <time>2026-06-24T22:51:16Z</time>
      </trkpt>
      <trkpt lat="23.065743" lon="113.269479">
        <time>2026-06-24T22:51:21Z</time>
      </trkpt>
      <trkpt lat="23.065749" lon="113.269395">
        <time>2026-06-24T22:51:26Z</time>
      </trkpt>
      <trkpt lat="23.065759" lon="113.26934">
        <time>2026-06-24T22:51:31Z</time>
      </trkpt>
      <trkpt lat="23.065786" lon="113.269259">
        <time>2026-06-24T22:51:36Z</time>
      </trkpt>
      <trkpt lat="23.065801" lon="113.269201">
        <time>2026-06-24T22:51:41Z</time>
      </trkpt>
      <trkpt lat="23.065827" lon="113.269121">
        <time>2026-06-24T22:51:46Z</time>
      </trkpt>
      <trkpt lat="23.06584" lon="113.269072">
        <time>2026-06-24T22:51:51Z</time>
      </trkpt>
      <trkpt lat="23.06588" lon="113.268961">
        <time>2026-06-24T22:51:56Z</time>
      </trkpt>
      <trkpt lat="23.065915" lon="113.268865">
        <time>2026-06-24T22:52:01Z</time>
      </trkpt>
      <trkpt lat="23.065978" lon="113.268729">
        <time>2026-06-24T22:52:06Z</time>
      </trkpt>
      <trkpt lat="23.066022" lon="113.268647">
        <time>2026-06-24T22:52:11Z</time>
      </trkpt>
      <trkpt lat="23.066098" lon="113.268533">
        <time>2026-06-24T22:52:16Z</time>
      </trkpt>
      <trkpt lat="23.066153" lon="113.268456">
        <time>2026-06-24T22:52:21Z</time>
      </trkpt>
      <trkpt lat="23.06624" lon="113.268342">
        <time>2026-06-24T22:52:26Z</time>
      </trkpt>
      <trkpt lat="23.066309" lon="113.26827">
        <time>2026-06-24T22:52:31Z</time>
      </trkpt>
      <trkpt lat="23.066429" lon="113.268183">
        <time>2026-06-24T22:52:36Z</time>
      </trkpt>
      <trkpt lat="23.066519" lon="113.268161">
        <time>2026-06-24T22:52:41Z</time>
      </trkpt>
      <trkpt lat="23.066659" lon="113.268173">
        <time>2026-06-24T22:52:46Z</time>
      </trkpt>
      <trkpt lat="23.066758" lon="113.268172">
        <time>2026-06-24T22:52:51Z</time>
      </trkpt>
      <trkpt lat="23.0669" lon="113.268164">
        <time>2026-06-24T22:52:56Z</time>
      </trkpt>
      <trkpt lat="23.066992" lon="113.268182">
        <time>2026-06-24T22:53:01Z</time>
      </trkpt>
      <trkpt lat="23.067107" lon="113.268248">
        <time>2026-06-24T22:53:06Z</time>
      </trkpt>
      <trkpt lat="23.067158" lon="113.268277">
        <time>2026-06-24T22:53:11Z</time>
      </trkpt>
      <trkpt lat="23.067216" lon="113.268305">
        <time>2026-06-24T22:53:16Z</time>
      </trkpt>
      <trkpt lat="23.067257" lon="113.268331">
        <time>2026-06-24T22:53:21Z</time>
      </trkpt>
      <trkpt lat="23.067323" lon="113.26837">
        <time>2026-06-24T22:53:26Z</time>
      </trkpt>
      <trkpt lat="23.06736" lon="113.268397">
        <time>2026-06-24T22:53:31Z</time>
      </trkpt>
      <trkpt lat="23.067418" lon="113.268428">
        <time>2026-06-24T22:53:36Z</time>
      </trkpt>
      <trkpt lat="23.067465" lon="113.268459">
        <time>2026-06-24T22:53:41Z</time>
      </trkpt>
      <trkpt lat="23.067547" lon="113.26851">
        <time>2026-06-24T22:53:46Z</time>
      </trkpt>
      <trkpt lat="23.067617" lon="113.26854">
        <time>2026-06-24T22:53:51Z</time>
      </trkpt>
      <trkpt lat="23.067743" lon="113.268596">
        <time>2026-06-24T22:53:56Z</time>
      </trkpt>
      <trkpt lat="23.067836" lon="113.268639">
        <time>2026-06-24T22:54:01Z</time>
      </trkpt>
      <trkpt lat="23.06795" lon="113.268732">
        <time>2026-06-24T22:54:06Z</time>
      </trkpt>
      <trkpt lat="23.068028" lon="113.26878">
        <time>2026-06-24T22:54:11Z</time>
      </trkpt>
      <trkpt lat="23.068139" lon="113.268832">
        <time>2026-06-24T22:54:16Z</time>
      </trkpt>
      <trkpt lat="23.068212" lon="113.268862">
        <time>2026-06-24T22:54:21Z</time>
      </trkpt>
      <trkpt lat="23.068331" lon="113.268926">
        <time>2026-06-24T22:54:26Z</time>
      </trkpt>
      <trkpt lat="23.068423" lon="113.268993">
        <time>2026-06-24T22:54:31Z</time>
      </trkpt>
      <trkpt lat="23.068586" lon="113.269099">
        <time>2026-06-24T22:54:36Z</time>
      </trkpt>
      <trkpt lat="23.068679" lon="113.269162">
        <time>2026-06-24T22:54:41Z</time>
      </trkpt>
      <trkpt lat="23.068804" lon="113.269229">
        <time>2026-06-24T22:54:46Z</time>
      </trkpt>
      <trkpt lat="23.068891" lon="113.269266">
        <time>2026-06-24T22:54:51Z</time>
      </trkpt>
      <trkpt lat="23.069018" lon="113.269315">
        <time>2026-06-24T22:54:56Z</time>
      </trkpt>
      <trkpt lat="23.069114" lon="113.269324">
        <time>2026-06-24T22:55:01Z</time>
      </trkpt>
      <trkpt lat="23.069245" lon="113.269371">
        <time>2026-06-24T22:55:06Z</time>
      </trkpt>
      <trkpt lat="23.069333" lon="113.269411">
        <time>2026-06-24T22:55:11Z</time>
      </trkpt>
      <trkpt lat="23.069474" lon="113.269476">
        <time>2026-06-24T22:55:16Z</time>
      </trkpt>
      <trkpt lat="23.069562" lon="113.269518">
        <time>2026-06-24T22:55:21Z</time>
      </trkpt>
      <trkpt lat="23.069696" lon="113.269572">
        <time>2026-06-24T22:55:26Z</time>
      </trkpt>
      <trkpt lat="23.069785" lon="113.26961">
        <time>2026-06-24T22:55:31Z</time>
      </trkpt>
      <trkpt lat="23.069919" lon="113.269683">
        <time>2026-06-24T22:55:36Z</time>
      </trkpt>
      <trkpt lat="23.069996" lon="113.269733">
        <time>2026-06-24T22:55:41Z</time>
      </trkpt>
      <trkpt lat="23.070109" lon="113.269818">
        <time>2026-06-24T22:55:46Z</time>
      </trkpt>
      <trkpt lat="23.070189" lon="113.269865">
        <time>2026-06-24T22:55:51Z</time>
      </trkpt>
      <trkpt lat="23.070313" lon="113.269925">
        <time>2026-06-24T22:55:56Z</time>
      </trkpt>
      <trkpt lat="23.070398" lon="113.269952">
        <time>2026-06-24T22:56:01Z</time>
      </trkpt>
      <trkpt lat="23.070537" lon="113.269983">
        <time>2026-06-24T22:56:06Z</time>
      </trkpt>
      <trkpt lat="23.07063" lon="113.270003">
        <time>2026-06-24T22:56:11Z</time>
      </trkpt>
      <trkpt lat="23.07076" lon="113.270069">
        <time>2026-06-24T22:56:16Z</time>
      </trkpt>
      <trkpt lat="23.07084" lon="113.270109">
        <time>2026-06-24T22:56:21Z</time>
      </trkpt>
      <trkpt lat="23.070913" lon="113.270155">
        <time>2026-06-24T22:56:26Z</time>
      </trkpt>
      <trkpt lat="23.070945" lon="113.270181">
        <time>2026-06-24T22:56:31Z</time>
      </trkpt>
      <trkpt lat="23.070999" lon="113.270217">
        <time>2026-06-24T22:56:36Z</time>
      </trkpt>
      <trkpt lat="23.071052" lon="113.270229">
        <time>2026-06-24T22:56:41Z</time>
      </trkpt>
      <trkpt lat="23.071123" lon="113.270265">
        <time>2026-06-24T22:56:46Z</time>
      </trkpt>
      <trkpt lat="23.071172" lon="113.270295">
        <time>2026-06-24T22:56:51Z</time>
      </trkpt>
      <trkpt lat="23.071247" lon="113.270335">
        <time>2026-06-24T22:56:56Z</time>
      </trkpt>
      <trkpt lat="23.071299" lon="113.270356">
        <time>2026-06-24T22:57:01Z</time>
      </trkpt>
      <trkpt lat="23.07137" lon="113.270393">
        <time>2026-06-24T22:57:06Z</time>
      </trkpt>
      <trkpt lat="23.071411" lon="113.270423">
        <time>2026-06-24T22:57:11Z</time>
      </trkpt>
      <trkpt lat="23.071484" lon="113.270456">
        <time>2026-06-24T22:57:16Z</time>
      </trkpt>
      <trkpt lat="23.071527" lon="113.270471">
        <time>2026-06-24T22:57:21Z</time>
      </trkpt>
      <trkpt lat="23.0716" lon="113.270494">
        <time>2026-06-24T22:57:26Z</time>
      </trkpt>
      <trkpt lat="23.071649" lon="113.270515">
        <time>2026-06-24T22:57:31Z</time>
      </trkpt>
      <trkpt lat="23.071744" lon="113.270577">
        <time>2026-06-24T22:57:36Z</time>
      </trkpt>
      <trkpt lat="23.071835" lon="113.270625">
        <time>2026-06-24T22:57:41Z</time>
      </trkpt>
      <trkpt lat="23.07199" lon="113.270662">
        <time>2026-06-24T22:57:46Z</time>
      </trkpt>
      <trkpt lat="23.072076" lon="113.270713">
        <time>2026-06-24T22:57:51Z</time>
      </trkpt>
      <trkpt lat="23.072206" lon="113.270781">
        <time>2026-06-24T22:57:56Z</time>
      </trkpt>
      <trkpt lat="23.072295" lon="113.270822">
        <time>2026-06-24T22:58:01Z</time>
      </trkpt>
      <trkpt lat="23.072422" lon="113.270899">
        <time>2026-06-24T22:58:06Z</time>
      </trkpt>
      <trkpt lat="23.07251" lon="113.270934">
        <time>2026-06-24T22:58:11Z</time>
      </trkpt>
      <trkpt lat="23.072637" lon="113.270989">
        <time>2026-06-24T22:58:16Z</time>
      </trkpt>
      <trkpt lat="23.072715" lon="113.271038">
        <time>2026-06-24T22:58:21Z</time>
      </trkpt>
      <trkpt lat="23.072825" lon="113.271098">
        <time>2026-06-24T22:58:26Z</time>
      </trkpt>
      <trkpt lat="23.072897" lon="113.271131">
        <time>2026-06-24T22:58:31Z</time>
      </trkpt>
      <trkpt lat="23.073017" lon="113.27119">
        <time>2026-06-24T22:58:36Z</time>
      </trkpt>
      <trkpt lat="23.073109" lon="113.271225">
        <time>2026-06-24T22:58:41Z</time>
      </trkpt>
      <trkpt lat="23.073204" lon="113.271277">
        <time>2026-06-24T22:58:46Z</time>
      </trkpt>
      <trkpt lat="23.073258" lon="113.271322">
        <time>2026-06-24T22:58:51Z</time>
      </trkpt>
      <trkpt lat="23.073366" lon="113.271393">
        <time>2026-06-24T22:58:56Z</time>
      </trkpt>
      <trkpt lat="23.07344" lon="113.271443">
        <time>2026-06-24T22:59:01Z</time>
      </trkpt>
      <trkpt lat="23.073553" lon="113.271538">
        <time>2026-06-24T22:59:06Z</time>
      </trkpt>
      <trkpt lat="23.073619" lon="113.271595">
        <time>2026-06-24T22:59:11Z</time>
      </trkpt>
      <trkpt lat="23.073727" lon="113.27167">
        <time>2026-06-24T22:59:16Z</time>
      </trkpt>
      <trkpt lat="23.073788" lon="113.271724">
        <time>2026-06-24T22:59:21Z</time>
      </trkpt>
      <trkpt lat="23.073899" lon="113.271773">
        <time>2026-06-24T22:59:26Z</time>
      </trkpt>
      <trkpt lat="23.073967" lon="113.271782">
        <time>2026-06-24T22:59:31Z</time>
      </trkpt>
      <trkpt lat="23.074049" lon="113.271782">
        <time>2026-06-24T22:59:36Z</time>
      </trkpt>
      <trkpt lat="23.074068" lon="113.271813">
        <time>2026-06-24T22:59:41Z</time>
      </trkpt>
      <trkpt lat="23.074052" lon="113.271882">
        <time>2026-06-24T22:59:46Z</time>
      </trkpt>
      <trkpt lat="23.074026" lon="113.271929">
        <time>2026-06-24T22:59:51Z</time>
      </trkpt>
      <trkpt lat="23.073976" lon="113.272045">
        <time>2026-06-24T22:59:56Z</time>
      </trkpt>
      <trkpt lat="23.073939" lon="113.27214">
        <time>2026-06-24T23:00:01Z</time>
      </trkpt>
      <trkpt lat="23.073886" lon="113.272278">
        <time>2026-06-24T23:00:06Z</time>
      </trkpt>
      <trkpt lat="23.073842" lon="113.272367">
        <time>2026-06-24T23:00:11Z</time>
      </trkpt>
      <trkpt lat="23.073785" lon="113.272499">
        <time>2026-06-24T23:00:16Z</time>
      </trkpt>
      <trkpt lat="23.073745" lon="113.272598">
        <time>2026-06-24T23:00:21Z</time>
      </trkpt>
      <trkpt lat="23.07369" lon="113.272746">
        <time>2026-06-24T23:00:26Z</time>
      </trkpt>
      <trkpt lat="23.073674" lon="113.272842">
        <time>2026-06-24T23:00:31Z</time>
      </trkpt>
      <trkpt lat="23.073772" lon="113.272926">
        <time>2026-06-24T23:00:36Z</time>
      </trkpt>
      <trkpt lat="23.073858" lon="113.272961">
        <time>2026-06-24T23:00:41Z</time>
      </trkpt>
      <trkpt lat="23.073987" lon="113.272975">
        <time>2026-06-24T23:00:46Z</time>
      </trkpt>
      <trkpt lat="23.074041" lon="113.272898">
        <time>2026-06-24T23:00:51Z</time>
      </trkpt>
      <trkpt lat="23.074101" lon="113.27277">
        <time>2026-06-24T23:00:56Z</time>
      </trkpt>
      <trkpt lat="23.074134" lon="113.272687">
        <time>2026-06-24T23:01:01Z</time>
      </trkpt>
      <trkpt lat="23.074185" lon="113.272555">
        <time>2026-06-24T23:01:06Z</time>
      </trkpt>
      <trkpt lat="23.074232" lon="113.272472">
        <time>2026-06-24T23:01:11Z</time>
      </trkpt>
      <trkpt lat="23.074294" lon="113.27233">
        <time>2026-06-24T23:01:16Z</time>
      </trkpt>
      <trkpt lat="23.074325" lon="113.272239">
        <time>2026-06-24T23:01:21Z</time>
      </trkpt>
      <trkpt lat="23.074358" lon="113.272115">
        <time>2026-06-24T23:01:26Z</time>
      </trkpt>
      <trkpt lat="23.074443" lon="113.272071">
        <time>2026-06-24T23:01:31Z</time>
      </trkpt>
      <trkpt lat="23.074577" lon="113.272054">
        <time>2026-06-24T23:01:36Z</time>
      </trkpt>
      <trkpt lat="23.074658" lon="113.272096">
        <time>2026-06-24T23:01:41Z</time>
      </trkpt>
      <trkpt lat="23.074771" lon="113.272173">
        <time>2026-06-24T23:01:46Z</time>
      </trkpt>
      <trkpt lat="23.074844" lon="113.272214">
        <time>2026-06-24T23:01:51Z</time>
      </trkpt>
      <trkpt lat="23.07495" lon="113.27227">
        <time>2026-06-24T23:01:56Z</time>
      </trkpt>
      <trkpt lat="23.075021" lon="113.272329">
        <time>2026-06-24T23:02:01Z</time>
      </trkpt>
      <trkpt lat="23.075128" lon="113.272403">
        <time>2026-06-24T23:02:06Z</time>
      </trkpt>
      <trkpt lat="23.075202" lon="113.272448">
        <time>2026-06-24T23:02:11Z</time>
      </trkpt>
      <trkpt lat="23.0753" lon="113.272535">
        <time>2026-06-24T23:02:16Z</time>
      </trkpt>
      <trkpt lat="23.075382" lon="113.272556">
        <time>2026-06-24T23:02:21Z</time>
      </trkpt>
      <trkpt lat="23.075499" lon="113.2726">
        <time>2026-06-24T23:02:26Z</time>
      </trkpt>
      <trkpt lat="23.075581" lon="113.272641">
        <time>2026-06-24T23:02:31Z</time>
      </trkpt>
      <trkpt lat="23.075709" lon="113.272678">
        <time>2026-06-24T23:02:36Z</time>
      </trkpt>
      <trkpt lat="23.07581" lon="113.272694">
        <time>2026-06-24T23:02:41Z</time>
      </trkpt>
      <trkpt lat="23.075911" lon="113.272761">
        <time>2026-06-24T23:02:46Z</time>
      </trkpt>
      <trkpt lat="23.075883" lon="113.27275">
        <time>2026-06-24T23:02:51Z</time>
      </trkpt>
      <trkpt lat="23.075755" lon="113.272706">
        <time>2026-06-24T23:02:56Z</time>
      </trkpt>
      <trkpt lat="23.07568" lon="113.272649">
        <time>2026-06-24T23:03:01Z</time>
      </trkpt>
      <trkpt lat="23.07557" lon="113.272553">
        <time>2026-06-24T23:03:06Z</time>
      </trkpt>
      <trkpt lat="23.075512" lon="113.272477">
        <time>2026-06-24T23:03:11Z</time>
      </trkpt>
      <trkpt lat="23.075393" lon="113.272385">
        <time>2026-06-24T23:03:16Z</time>
      </trkpt>
      <trkpt lat="23.075318" lon="113.272338">
        <time>2026-06-24T23:03:21Z</time>
      </trkpt>
      <trkpt lat="23.075364" lon="113.272296">
        <time>2026-06-24T23:03:28Z</time>
      </trkpt>
    </trkseg>
  </trk>
</gpx>