<?xml version="1.0" encoding="UTF-8"?>
<gpx xmlns="http://www.topografix.com/GPX/1/1" xmlns:gpxtpx="http://www.garmin.com/xmlschemas/TrackPointExtension/v1" xmlns:xsi="http://www.w3.org/2001/XMLSchema-instance" xsi:schemaLocation="http://www.topografix.com/GPX/1/1 http://www.topografix.com/GPX/1/1/gpx.xsd" version="1.1" creator="gpx.py -- https://github.com/tkrajina/gpxpy">
  <trk>
    <name>gpx from joyrun</name>
    <trkseg>
      <trkpt lat="23.075762" lon="113.27274">
        <time>2026-06-28T08:07:55Z</time>
      </trkpt>
      <trkpt lat="23.075744" lon="113.272696">
        <time>2026-06-28T08:08:00Z</time>
      </trkpt>
      <trkpt lat="23.075649" lon="113.272533">
        <time>2026-06-28T08:08:05Z</time>
      </trkpt>
      <trkpt lat="23.07556" lon="113.272466">
        <time>2026-06-28T08:08:10Z</time>
      </trkpt>
      <trkpt lat="23.075419" lon="113.272454">
        <time>2026-06-28T08:08:15Z</time>
      </trkpt>
      <trkpt lat="23.07522" lon="113.272408">
        <time>2026-06-28T08:08:20Z</time>
      </trkpt>
      <trkpt lat="23.075087" lon="113.272308">
        <time>2026-06-28T08:08:25Z</time>
      </trkpt>
      <trkpt lat="23.075006" lon="113.272249">
        <time>2026-06-28T08:08:30Z</time>
      </trkpt>
      <trkpt lat="23.074931" lon="113.272192">
        <time>2026-06-28T08:08:35Z</time>
      </trkpt>
      <trkpt lat="23.074809" lon="113.272129">
        <time>2026-06-28T08:08:40Z</time>
      </trkpt>
      <trkpt lat="23.074657" lon="113.272091">
        <time>2026-06-28T08:08:45Z</time>
      </trkpt>
      <trkpt lat="23.074549" lon="113.272069">
        <time>2026-06-28T08:08:50Z</time>
      </trkpt>
      <trkpt lat="23.074451" lon="113.272032">
        <time>2026-06-28T08:08:55Z</time>
      </trkpt>
      <trkpt lat="23.074352" lon="113.272063">
        <time>2026-06-28T08:09:00Z</time>
      </trkpt>
      <trkpt lat="23.074288" lon="113.272194">
        <time>2026-06-28T08:09:05Z</time>
      </trkpt>
      <trkpt lat="23.07425" lon="113.272299">
        <time>2026-06-28T08:09:10Z</time>
      </trkpt>
      <trkpt lat="23.074217" lon="113.272404">
        <time>2026-06-28T08:09:15Z</time>
      </trkpt>
      <trkpt lat="23.074153" lon="113.272558">
        <time>2026-06-28T08:09:20Z</time>
      </trkpt>
      <trkpt lat="23.074082" lon="113.272705">
        <time>2026-06-28T08:09:25Z</time>
      </trkpt>
      <trkpt lat="23.074045" lon="113.272803">
        <time>2026-06-28T08:09:30Z</time>
      </trkpt>
      <trkpt lat="23.074004" lon="113.272903">
        <time>2026-06-28T08:09:35Z</time>
      </trkpt>
      <trkpt lat="23.073931" lon="113.273015">
        <time>2026-06-28T08:09:40Z</time>
      </trkpt>
      <trkpt lat="23.073803" lon="113.272968">
        <time>2026-06-28T08:09:45Z</time>
      </trkpt>
      <trkpt lat="23.073719" lon="113.272911">
        <time>2026-06-28T08:09:50Z</time>
      </trkpt>
      <trkpt lat="23.073684" lon="113.272838">
        <time>2026-06-28T08:09:55Z</time>
      </trkpt>
      <trkpt lat="23.073742" lon="113.272707">
        <time>2026-06-28T08:10:00Z</time>
      </trkpt>
      <trkpt lat="23.073806" lon="113.272561">
        <time>2026-06-28T08:10:05Z</time>
      </trkpt>
      <trkpt lat="23.07384" lon="113.272475">
        <time>2026-06-28T08:10:10Z</time>
      </trkpt>
      <trkpt lat="23.073876" lon="113.272398">
        <time>2026-06-28T08:10:15Z</time>
      </trkpt>
      <trkpt lat="23.073939" lon="113.272267">
        <time>2026-06-28T08:10:20Z</time>
      </trkpt>
      <trkpt lat="23.074003" lon="113.272142">
        <time>2026-06-28T08:10:25Z</time>
      </trkpt>
      <trkpt lat="23.074046" lon="113.272059">
        <time>2026-06-28T08:10:30Z</time>
      </trkpt>
      <trkpt lat="23.074089" lon="113.271968">
        <time>2026-06-28T08:10:35Z</time>
      </trkpt>
      <trkpt lat="23.07413" lon="113.271834">
        <time>2026-06-28T08:10:40Z</time>
      </trkpt>
      <trkpt lat="23.074075" lon="113.271733">
        <time>2026-06-28T08:10:45Z</time>
      </trkpt>
      <trkpt lat="23.074" lon="113.271694">
        <time>2026-06-28T08:10:50Z</time>
      </trkpt>
      <trkpt lat="23.073925" lon="113.271659">
        <time>2026-06-28T08:10:55Z</time>
      </trkpt>
      <trkpt lat="23.073815" lon="113.271602">
        <time>2026-06-28T08:11:00Z</time>
      </trkpt>
      <trkpt lat="23.073691" lon="113.271542">
        <time>2026-06-28T08:11:05Z</time>
      </trkpt>
      <trkpt lat="23.073608" lon="113.271505">
        <time>2026-06-28T08:11:10Z</time>
      </trkpt>
      <trkpt lat="23.073516" lon="113.271479">
        <time>2026-06-28T08:11:15Z</time>
      </trkpt>
      <trkpt lat="23.073384" lon="113.271428">
        <time>2026-06-28T08:11:20Z</time>
      </trkpt>
      <trkpt lat="23.07326" lon="113.271335">
        <time>2026-06-28T08:11:25Z</time>
      </trkpt>
      <trkpt lat="23.073188" lon="113.271274">
        <time>2026-06-28T08:11:30Z</time>
      </trkpt>
      <trkpt lat="23.073102" lon="113.27122">
        <time>2026-06-28T08:11:35Z</time>
      </trkpt>
      <trkpt lat="23.072962" lon="113.271142">
        <time>2026-06-28T08:11:40Z</time>
      </trkpt>
      <trkpt lat="23.07283" lon="113.271042">
        <time>2026-06-28T08:11:45Z</time>
      </trkpt>
      <trkpt lat="23.072735" lon="113.270977">
        <time>2026-06-28T08:11:50Z</time>
      </trkpt>
      <trkpt lat="23.072637" lon="113.270925">
        <time>2026-06-28T08:11:55Z</time>
      </trkpt>
      <trkpt lat="23.072494" lon="113.270878">
        <time>2026-06-28T08:12:00Z</time>
      </trkpt>
      <trkpt lat="23.072354" lon="113.270825">
        <time>2026-06-28T08:12:05Z</time>
      </trkpt>
      <trkpt lat="23.072265" lon="113.270784">
        <time>2026-06-28T08:12:10Z</time>
      </trkpt>
      <trkpt lat="23.07218" lon="113.270732">
        <time>2026-06-28T08:12:15Z</time>
      </trkpt>
      <trkpt lat="23.072051" lon="113.270652">
        <time>2026-06-28T08:12:20Z</time>
      </trkpt>
      <trkpt lat="23.071922" lon="113.270563">
        <time>2026-06-28T08:12:25Z</time>
      </trkpt>
      <trkpt lat="23.071833" lon="113.270518">
        <time>2026-06-28T08:12:30Z</time>
      </trkpt>
      <trkpt lat="23.071739" lon="113.270486">
        <time>2026-06-28T08:12:35Z</time>
      </trkpt>
      <trkpt lat="23.071587" lon="113.27043">
        <time>2026-06-28T08:12:40Z</time>
      </trkpt>
      <trkpt lat="23.071438" lon="113.270373">
        <time>2026-06-28T08:12:45Z</time>
      </trkpt>
      <trkpt lat="23.071345" lon="113.270355">
        <time>2026-06-28T08:12:50Z</time>
      </trkpt>
      <trkpt lat="23.071253" lon="113.270326">
        <time>2026-06-28T08:12:55Z</time>
      </trkpt>
      <trkpt lat="23.071117" lon="113.270267">
        <time>2026-06-28T08:13:00Z</time>
      </trkpt>
      <trkpt lat="23.070985" lon="113.270168">
        <time>2026-06-28T08:13:05Z</time>
      </trkpt>
      <trkpt lat="23.070902" lon="113.270128">
        <time>2026-06-28T08:13:10Z</time>
      </trkpt>
      <trkpt lat="23.070826" lon="113.270091">
        <time>2026-06-28T08:13:15Z</time>
      </trkpt>
      <trkpt lat="23.070692" lon="113.270034">
        <time>2026-06-28T08:13:20Z</time>
      </trkpt>
      <trkpt lat="23.070544" lon="113.269954">
        <time>2026-06-28T08:13:25Z</time>
      </trkpt>
      <trkpt lat="23.070448" lon="113.269931">
        <time>2026-06-28T08:13:30Z</time>
      </trkpt>
      <trkpt lat="23.07036" lon="113.2699">
        <time>2026-06-28T08:13:35Z</time>
      </trkpt>
      <trkpt lat="23.070237" lon="113.269816">
        <time>2026-06-28T08:13:40Z</time>
      </trkpt>
      <trkpt lat="23.070093" lon="113.26977">
        <time>2026-06-28T08:13:45Z</time>
      </trkpt>
      <trkpt lat="23.070004" lon="113.269721">
        <time>2026-06-28T08:13:50Z</time>
      </trkpt>
      <trkpt lat="23.069924" lon="113.269657">
        <time>2026-06-28T08:13:55Z</time>
      </trkpt>
      <trkpt lat="23.069802" lon="113.269581">
        <time>2026-06-28T08:14:00Z</time>
      </trkpt>
      <trkpt lat="23.069666" lon="113.269545">
        <time>2026-06-28T08:14:05Z</time>
      </trkpt>
      <trkpt lat="23.069579" lon="113.269509">
        <time>2026-06-28T08:14:10Z</time>
      </trkpt>
      <trkpt lat="23.069501" lon="113.26947">
        <time>2026-06-28T08:14:15Z</time>
      </trkpt>
      <trkpt lat="23.069388" lon="113.269422">
        <time>2026-06-28T08:14:20Z</time>
      </trkpt>
      <trkpt lat="23.069261" lon="113.269362">
        <time>2026-06-28T08:14:25Z</time>
      </trkpt>
      <trkpt lat="23.069182" lon="113.269305">
        <time>2026-06-28T08:14:30Z</time>
      </trkpt>
      <trkpt lat="23.069095" lon="113.26927">
        <time>2026-06-28T08:14:35Z</time>
      </trkpt>
      <trkpt lat="23.06897" lon="113.269228">
        <time>2026-06-28T08:14:40Z</time>
      </trkpt>
      <trkpt lat="23.068842" lon="113.26917">
        <time>2026-06-28T08:14:45Z</time>
      </trkpt>
      <trkpt lat="23.068756" lon="113.269122">
        <time>2026-06-28T08:14:50Z</time>
      </trkpt>
      <trkpt lat="23.068672" lon="113.269088">
        <time>2026-06-28T08:14:55Z</time>
      </trkpt>
      <trkpt lat="23.06855" lon="113.269041">
        <time>2026-06-28T08:15:00Z</time>
      </trkpt>
      <trkpt lat="23.068435" lon="113.269013">
        <time>2026-06-28T08:15:05Z</time>
      </trkpt>
      <trkpt lat="23.068371" lon="113.268983">
        <time>2026-06-28T08:15:10Z</time>
      </trkpt>
      <trkpt lat="23.0683" lon="113.268948">
        <time>2026-06-28T08:15:15Z</time>
      </trkpt>
      <trkpt lat="23.068186" lon="113.268878">
        <time>2026-06-28T08:15:20Z</time>
      </trkpt>
      <trkpt lat="23.068069" lon="113.268782">
        <time>2026-06-28T08:15:25Z</time>
      </trkpt>
      <trkpt lat="23.067978" lon="113.268691">
        <time>2026-06-28T08:15:30Z</time>
      </trkpt>
      <trkpt lat="23.067882" lon="113.268635">
        <time>2026-06-28T08:15:35Z</time>
      </trkpt>
      <trkpt lat="23.067739" lon="113.268567">
        <time>2026-06-28T08:15:40Z</time>
      </trkpt>
      <trkpt lat="23.067643" lon="113.268461">
        <time>2026-06-28T08:15:45Z</time>
      </trkpt>
      <trkpt lat="23.067575" lon="113.268398">
        <time>2026-06-28T08:15:50Z</time>
      </trkpt>
      <trkpt lat="23.067492" lon="113.268351">
        <time>2026-06-28T08:15:55Z</time>
      </trkpt>
      <trkpt lat="23.067362" lon="113.268282">
        <time>2026-06-28T08:16:00Z</time>
      </trkpt>
      <trkpt lat="23.067229" lon="113.268228">
        <time>2026-06-28T08:16:05Z</time>
      </trkpt>
      <trkpt lat="23.06714" lon="113.268202">
        <time>2026-06-28T08:16:10Z</time>
      </trkpt>
      <trkpt lat="23.06706" lon="113.268166">
        <time>2026-06-28T08:16:15Z</time>
      </trkpt>
      <trkpt lat="23.06695" lon="113.268104">
        <time>2026-06-28T08:16:20Z</time>
      </trkpt>
      <trkpt lat="23.06683" lon="113.268057">
        <time>2026-06-28T08:16:25Z</time>
      </trkpt>
      <trkpt lat="23.06674" lon="113.268037">
        <time>2026-06-28T08:16:30Z</time>
      </trkpt>
      <trkpt lat="23.066652" lon="113.268037">
        <time>2026-06-28T08:16:35Z</time>
      </trkpt>
      <trkpt lat="23.066532" lon="113.267998">
        <time>2026-06-28T08:16:40Z</time>
      </trkpt>
      <trkpt lat="23.066403" lon="113.267963">
        <time>2026-06-28T08:16:45Z</time>
      </trkpt>
      <trkpt lat="23.066314" lon="113.267978">
        <time>2026-06-28T08:16:50Z</time>
      </trkpt>
      <trkpt lat="23.066232" lon="113.268017">
        <time>2026-06-28T08:16:55Z</time>
      </trkpt>
      <trkpt lat="23.06613" lon="113.268115">
        <time>2026-06-28T08:17:00Z</time>
      </trkpt>
      <trkpt lat="23.066043" lon="113.268219">
        <time>2026-06-28T08:17:05Z</time>
      </trkpt>
      <trkpt lat="23.065986" lon="113.268278">
        <time>2026-06-28T08:17:10Z</time>
      </trkpt>
      <trkpt lat="23.065934" lon="113.268342">
        <time>2026-06-28T08:17:15Z</time>
      </trkpt>
      <trkpt lat="23.065855" lon="113.268438">
        <time>2026-06-28T08:17:20Z</time>
      </trkpt>
      <trkpt lat="23.06579" lon="113.268547">
        <time>2026-06-28T08:17:25Z</time>
      </trkpt>
      <trkpt lat="23.065753" lon="113.268625">
        <time>2026-06-28T08:17:30Z</time>
      </trkpt>
      <trkpt lat="23.065717" lon="113.268706">
        <time>2026-06-28T08:17:35Z</time>
      </trkpt>
      <trkpt lat="23.065668" lon="113.268828">
        <time>2026-06-28T08:17:40Z</time>
      </trkpt>
      <trkpt lat="23.065632" lon="113.268957">
        <time>2026-06-28T08:17:45Z</time>
      </trkpt>
      <trkpt lat="23.065604" lon="113.269045">
        <time>2026-06-28T08:17:50Z</time>
      </trkpt>
      <trkpt lat="23.065577" lon="113.269136">
        <time>2026-06-28T08:17:55Z</time>
      </trkpt>
      <trkpt lat="23.065541" lon="113.269269">
        <time>2026-06-28T08:18:00Z</time>
      </trkpt>
      <trkpt lat="23.06551" lon="113.269409">
        <time>2026-06-28T08:18:05Z</time>
      </trkpt>
      <trkpt lat="23.065488" lon="113.269503">
        <time>2026-06-28T08:18:10Z</time>
      </trkpt>
      <trkpt lat="23.065464" lon="113.269599">
        <time>2026-06-28T08:18:15Z</time>
      </trkpt>
      <trkpt lat="23.065416" lon="113.269742">
        <time>2026-06-28T08:18:20Z</time>
      </trkpt>
      <trkpt lat="23.065365" lon="113.269869">
        <time>2026-06-28T08:18:25Z</time>
      </trkpt>
      <trkpt lat="23.065321" lon="113.269946">
        <time>2026-06-28T08:18:30Z</time>
      </trkpt>
      <trkpt lat="23.065269" lon="113.270017">
        <time>2026-06-28T08:18:35Z</time>
      </trkpt>
      <trkpt lat="23.065206" lon="113.270134">
        <time>2026-06-28T08:18:40Z</time>
      </trkpt>
      <trkpt lat="23.065153" lon="113.270257">
        <time>2026-06-28T08:18:45Z</time>
      </trkpt>
      <trkpt lat="23.065121" lon="113.270334">
        <time>2026-06-28T08:18:50Z</time>
      </trkpt>
      <trkpt lat="23.065087" lon="113.270413">
        <time>2026-06-28T08:18:55Z</time>
      </trkpt>
      <trkpt lat="23.065033" lon="113.270536">
        <time>2026-06-28T08:19:00Z</time>
      </trkpt>
      <trkpt lat="23.064984" lon="113.27066">
        <time>2026-06-28T08:19:05Z</time>
      </trkpt>
      <trkpt lat="23.064952" lon="113.270743">
        <time>2026-06-28T08:19:10Z</time>
      </trkpt>
      <trkpt lat="23.064919" lon="113.270828">
        <time>2026-06-28T08:19:15Z</time>
      </trkpt>
      <trkpt lat="23.064871" lon="113.270961">
        <time>2026-06-28T08:19:20Z</time>
      </trkpt>
      <trkpt lat="23.064814" lon="113.271078">
        <time>2026-06-28T08:19:25Z</time>
      </trkpt>
      <trkpt lat="23.064776" lon="113.271152">
        <time>2026-06-28T08:19:30Z</time>
      </trkpt>
      <trkpt lat="23.064736" lon="113.271228">
        <time>2026-06-28T08:19:35Z</time>
      </trkpt>
      <trkpt lat="23.064684" lon="113.271354">
        <time>2026-06-28T08:19:40Z</time>
      </trkpt>
      <trkpt lat="23.064628" lon="113.271479">
        <time>2026-06-28T08:19:45Z</time>
      </trkpt>
      <trkpt lat="23.064591" lon="113.271564">
        <time>2026-06-28T08:19:50Z</time>
      </trkpt>
      <trkpt lat="23.064558" lon="113.271652">
        <time>2026-06-28T08:19:55Z</time>
      </trkpt>
      <trkpt lat="23.064507" lon="113.271788">
        <time>2026-06-28T08:20:00Z</time>
      </trkpt>
      <trkpt lat="23.06444" lon="113.271921">
        <time>2026-06-28T08:20:05Z</time>
      </trkpt>
      <trkpt lat="23.064398" lon="113.272014">
        <time>2026-06-28T08:20:10Z</time>
      </trkpt>
      <trkpt lat="23.064358" lon="113.272103">
        <time>2026-06-28T08:20:15Z</time>
      </trkpt>
      <trkpt lat="23.064316" lon="113.272244">
        <time>2026-06-28T08:20:20Z</time>
      </trkpt>
      <trkpt lat="23.064316" lon="113.272383">
        <time>2026-06-28T08:20:25Z</time>
      </trkpt>
      <trkpt lat="23.064312" lon="113.272475">
        <time>2026-06-28T08:20:30Z</time>
      </trkpt>
      <trkpt lat="23.064312" lon="113.272568">
        <time>2026-06-28T08:20:35Z</time>
      </trkpt>
      <trkpt lat="23.064328" lon="113.272708">
        <time>2026-06-28T08:20:40Z</time>
      </trkpt>
      <trkpt lat="23.064365" lon="113.272837">
        <time>2026-06-28T08:20:45Z</time>
      </trkpt>
      <trkpt lat="23.064392" lon="113.272919">
        <time>2026-06-28T08:20:50Z</time>
      </trkpt>
      <trkpt lat="23.064416" lon="113.273003">
        <time>2026-06-28T08:20:55Z</time>
      </trkpt>
      <trkpt lat="23.064452" lon="113.27313">
        <time>2026-06-28T08:21:00Z</time>
      </trkpt>
      <trkpt lat="23.064441" lon="113.273254">
        <time>2026-06-28T08:21:05Z</time>
      </trkpt>
      <trkpt lat="23.064391" lon="113.273328">
        <time>2026-06-28T08:21:10Z</time>
      </trkpt>
      <trkpt lat="23.064319" lon="113.273385">
        <time>2026-06-28T08:21:15Z</time>
      </trkpt>
      <trkpt lat="23.064208" lon="113.273465">
        <time>2026-06-28T08:21:20Z</time>
      </trkpt>
      <trkpt lat="23.064103" lon="113.273548">
        <time>2026-06-28T08:21:25Z</time>
      </trkpt>
      <trkpt lat="23.064033" lon="113.273602">
        <time>2026-06-28T08:21:30Z</time>
      </trkpt>
      <trkpt lat="23.063965" lon="113.273661">
        <time>2026-06-28T08:21:35Z</time>
      </trkpt>
      <trkpt lat="23.063881" lon="113.273768">
        <time>2026-06-28T08:21:40Z</time>
      </trkpt>
      <trkpt lat="23.063814" lon="113.273889">
        <time>2026-06-28T08:21:45Z</time>
      </trkpt>
      <trkpt lat="23.063768" lon="113.273968">
        <time>2026-06-28T08:21:50Z</time>
      </trkpt>
      <trkpt lat="23.063723" lon="113.274045">
        <time>2026-06-28T08:21:55Z</time>
      </trkpt>
      <trkpt lat="23.06363" lon="113.274133">
        <time>2026-06-28T08:22:00Z</time>
      </trkpt>
      <trkpt lat="23.063518" lon="113.274138">
        <time>2026-06-28T08:22:05Z</time>
      </trkpt>
      <trkpt lat="23.063436" lon="113.274111">
        <time>2026-06-28T08:22:10Z</time>
      </trkpt>
      <trkpt lat="23.063368" lon="113.274162">
        <time>2026-06-28T08:22:15Z</time>
      </trkpt>
      <trkpt lat="23.06331" lon="113.274294">
        <time>2026-06-28T08:22:20Z</time>
      </trkpt>
      <trkpt lat="23.063255" lon="113.274425">
        <time>2026-06-28T08:22:25Z</time>
      </trkpt>
      <trkpt lat="23.063225" lon="113.274521">
        <time>2026-06-28T08:22:30Z</time>
      </trkpt>
      <trkpt lat="23.06319" lon="113.27462">
        <time>2026-06-28T08:22:35Z</time>
      </trkpt>
      <trkpt lat="23.063142" lon="113.274761">
        <time>2026-06-28T08:22:40Z</time>
      </trkpt>
      <trkpt lat="23.063105" lon="113.2749">
        <time>2026-06-28T08:22:45Z</time>
      </trkpt>
      <trkpt lat="23.063082" lon="113.274998">
        <time>2026-06-28T08:22:50Z</time>
      </trkpt>
      <trkpt lat="23.063058" lon="113.275094">
        <time>2026-06-28T08:22:55Z</time>
      </trkpt>
      <trkpt lat="23.062981" lon="113.275199">
        <time>2026-06-28T08:23:00Z</time>
      </trkpt>
      <trkpt lat="23.062891" lon="113.275291">
        <time>2026-06-28T08:23:05Z</time>
      </trkpt>
      <trkpt lat="23.062901" lon="113.275388">
        <time>2026-06-28T08:23:10Z</time>
      </trkpt>
      <trkpt lat="23.062921" lon="113.275479">
        <time>2026-06-28T08:23:15Z</time>
      </trkpt>
      <trkpt lat="23.062849" lon="113.275602">
        <time>2026-06-28T08:23:20Z</time>
      </trkpt>
      <trkpt lat="23.062742" lon="113.275705">
        <time>2026-06-28T08:23:25Z</time>
      </trkpt>
      <trkpt lat="23.062671" lon="113.27577">
        <time>2026-06-28T08:23:30Z</time>
      </trkpt>
      <trkpt lat="23.062605" lon="113.27585">
        <time>2026-06-28T08:23:35Z</time>
      </trkpt>
      <trkpt lat="23.062522" lon="113.275976">
        <time>2026-06-28T08:23:40Z</time>
      </trkpt>
      <trkpt lat="23.062454" lon="113.276107">
        <time>2026-06-28T08:23:45Z</time>
      </trkpt>
      <trkpt lat="23.062411" lon="113.276194">
        <time>2026-06-28T08:23:50Z</time>
      </trkpt>
      <trkpt lat="23.062376" lon="113.27628">
        <time>2026-06-28T08:23:55Z</time>
      </trkpt>
      <trkpt lat="23.062339" lon="113.276406">
        <time>2026-06-28T08:24:00Z</time>
      </trkpt>
      <trkpt lat="23.062293" lon="113.276523">
        <time>2026-06-28T08:24:05Z</time>
      </trkpt>
      <trkpt lat="23.062262" lon="113.276604">
        <time>2026-06-28T08:24:10Z</time>
      </trkpt>
      <trkpt lat="23.062225" lon="113.276685">
        <time>2026-06-28T08:24:15Z</time>
      </trkpt>
      <trkpt lat="23.062185" lon="113.276811">
        <time>2026-06-28T08:24:20Z</time>
      </trkpt>
      <trkpt lat="23.062134" lon="113.276934">
        <time>2026-06-28T08:24:25Z</time>
      </trkpt>
      <trkpt lat="23.062105" lon="113.277017">
        <time>2026-06-28T08:24:30Z</time>
      </trkpt>
      <trkpt lat="23.062068" lon="113.277104">
        <time>2026-06-28T08:24:35Z</time>
      </trkpt>
      <trkpt lat="23.062007" lon="113.277257">
        <time>2026-06-28T08:24:40Z</time>
      </trkpt>
      <trkpt lat="23.061951" lon="113.27741">
        <time>2026-06-28T08:24:45Z</time>
      </trkpt>
      <trkpt lat="23.061916" lon="113.277502">
        <time>2026-06-28T08:24:50Z</time>
      </trkpt>
      <trkpt lat="23.061881" lon="113.277593">
        <time>2026-06-28T08:24:55Z</time>
      </trkpt>
      <trkpt lat="23.061834" lon="113.27773">
        <time>2026-06-28T08:25:00Z</time>
      </trkpt>
      <trkpt lat="23.061807" lon="113.277871">
        <time>2026-06-28T08:25:05Z</time>
      </trkpt>
      <trkpt lat="23.061803" lon="113.277965">
        <time>2026-06-28T08:25:10Z</time>
      </trkpt>
      <trkpt lat="23.061807" lon="113.278049">
        <time>2026-06-28T08:25:15Z</time>
      </trkpt>
      <trkpt lat="23.061815" lon="113.278176">
        <time>2026-06-28T08:25:20Z</time>
      </trkpt>
      <trkpt lat="23.061817" lon="113.278301">
        <time>2026-06-28T08:25:25Z</time>
      </trkpt>
      <trkpt lat="23.061821" lon="113.278384">
        <time>2026-06-28T08:25:30Z</time>
      </trkpt>
      <trkpt lat="23.061825" lon="113.278467">
        <time>2026-06-28T08:25:35Z</time>
      </trkpt>
      <trkpt lat="23.061833" lon="113.278593">
        <time>2026-06-28T08:25:40Z</time>
      </trkpt>
      <trkpt lat="23.061824" lon="113.278713">
        <time>2026-06-28T08:25:45Z</time>
      </trkpt>
      <trkpt lat="23.061787" lon="113.278761">
        <time>2026-06-28T08:25:50Z</time>
      </trkpt>
      <trkpt lat="23.061726" lon="113.278794">
        <time>2026-06-28T08:25:55Z</time>
      </trkpt>
      <trkpt lat="23.061677" lon="113.278916">
        <time>2026-06-28T08:26:00Z</time>
      </trkpt>
      <trkpt lat="23.061633" lon="113.279047">
        <time>2026-06-28T08:26:05Z</time>
      </trkpt>
      <trkpt lat="23.061602" lon="113.27913">
        <time>2026-06-28T08:26:10Z</time>
      </trkpt>
      <trkpt lat="23.061576" lon="113.279213">
        <time>2026-06-28T08:26:15Z</time>
      </trkpt>
      <trkpt lat="23.061531" lon="113.279332">
        <time>2026-06-28T08:26:20Z</time>
      </trkpt>
      <trkpt lat="23.061473" lon="113.279453">
        <time>2026-06-28T08:26:25Z</time>
      </trkpt>
      <trkpt lat="23.061434" lon="113.279532">
        <time>2026-06-28T08:26:30Z</time>
      </trkpt>
      <trkpt lat="23.061396" lon="113.279614">
        <time>2026-06-28T08:26:35Z</time>
      </trkpt>
      <trkpt lat="23.061347" lon="113.279739">
        <time>2026-06-28T08:26:40Z</time>
      </trkpt>
      <trkpt lat="23.061306" lon="113.279871">
        <time>2026-06-28T08:26:45Z</time>
      </trkpt>
      <trkpt lat="23.061271" lon="113.27996">
        <time>2026-06-28T08:26:50Z</time>
      </trkpt>
      <trkpt lat="23.061234" lon="113.280048">
        <time>2026-06-28T08:26:55Z</time>
      </trkpt>
      <trkpt lat="23.061171" lon="113.280183">
        <time>2026-06-28T08:27:00Z</time>
      </trkpt>
      <trkpt lat="23.061111" lon="113.280315">
        <time>2026-06-28T08:27:05Z</time>
      </trkpt>
      <trkpt lat="23.061076" lon="113.280403">
        <time>2026-06-28T08:27:10Z</time>
      </trkpt>
      <trkpt lat="23.061037" lon="113.28049">
        <time>2026-06-28T08:27:15Z</time>
      </trkpt>
      <trkpt lat="23.060969" lon="113.280612">
        <time>2026-06-28T08:27:20Z</time>
      </trkpt>
      <trkpt lat="23.060901" lon="113.280734">
        <time>2026-06-28T08:27:25Z</time>
      </trkpt>
      <trkpt lat="23.060868" lon="113.280826">
        <time>2026-06-28T08:27:30Z</time>
      </trkpt>
      <trkpt lat="23.06083" lon="113.280916">
        <time>2026-06-28T08:27:35Z</time>
      </trkpt>
      <trkpt lat="23.060775" lon="113.281047">
        <time>2026-06-28T08:27:40Z</time>
      </trkpt>
      <trkpt lat="23.060721" lon="113.281183">
        <time>2026-06-28T08:27:45Z</time>
      </trkpt>
      <trkpt lat="23.060693" lon="113.281271">
        <time>2026-06-28T08:27:50Z</time>
      </trkpt>
      <trkpt lat="23.060666" lon="113.281357">
        <time>2026-06-28T08:27:55Z</time>
      </trkpt>
      <trkpt lat="23.060614" lon="113.281478">
        <time>2026-06-28T08:28:00Z</time>
      </trkpt>
      <trkpt lat="23.060562" lon="113.281602">
        <time>2026-06-28T08:28:05Z</time>
      </trkpt>
      <trkpt lat="23.060528" lon="113.281685">
        <time>2026-06-28T08:28:10Z</time>
      </trkpt>
      <trkpt lat="23.060495" lon="113.28177">
        <time>2026-06-28T08:28:15Z</time>
      </trkpt>
      <trkpt lat="23.060438" lon="113.281896">
        <time>2026-06-28T08:28:20Z</time>
      </trkpt>
      <trkpt lat="23.060375" lon="113.282021">
        <time>2026-06-28T08:28:25Z</time>
      </trkpt>
      <trkpt lat="23.060337" lon="113.282105">
        <time>2026-06-28T08:28:30Z</time>
      </trkpt>
      <trkpt lat="23.060306" lon="113.282187">
        <time>2026-06-28T08:28:35Z</time>
      </trkpt>
      <trkpt lat="23.060264" lon="113.282309">
        <time>2026-06-28T08:28:40Z</time>
      </trkpt>
      <trkpt lat="23.060214" lon="113.282432">
        <time>2026-06-28T08:28:45Z</time>
      </trkpt>
      <trkpt lat="23.060182" lon="113.282514">
        <time>2026-06-28T08:28:50Z</time>
      </trkpt>
      <trkpt lat="23.060151" lon="113.282599">
        <time>2026-06-28T08:28:55Z</time>
      </trkpt>
      <trkpt lat="23.060104" lon="113.282733">
        <time>2026-06-28T08:29:00Z</time>
      </trkpt>
      <trkpt lat="23.060059" lon="113.282862">
        <time>2026-06-28T08:29:05Z</time>
      </trkpt>
      <trkpt lat="23.060024" lon="113.282952">
        <time>2026-06-28T08:29:10Z</time>
      </trkpt>
      <trkpt lat="23.059982" lon="113.283041">
        <time>2026-06-28T08:29:15Z</time>
      </trkpt>
      <trkpt lat="23.059915" lon="113.283163">
        <time>2026-06-28T08:29:20Z</time>
      </trkpt>
      <trkpt lat="23.059849" lon="113.283285">
        <time>2026-06-28T08:29:25Z</time>
      </trkpt>
      <trkpt lat="23.059801" lon="113.28337">
        <time>2026-06-28T08:29:30Z</time>
      </trkpt>
      <trkpt lat="23.059756" lon="113.283454">
        <time>2026-06-28T08:29:35Z</time>
      </trkpt>
      <trkpt lat="23.059706" lon="113.283585">
        <time>2026-06-28T08:29:40Z</time>
      </trkpt>
      <trkpt lat="23.059666" lon="113.283716">
        <time>2026-06-28T08:29:45Z</time>
      </trkpt>
      <trkpt lat="23.059622" lon="113.2838">
        <time>2026-06-28T08:29:50Z</time>
      </trkpt>
      <trkpt lat="23.059578" lon="113.283887">
        <time>2026-06-28T08:29:55Z</time>
      </trkpt>
      <trkpt lat="23.059518" lon="113.284018">
        <time>2026-06-28T08:30:00Z</time>
      </trkpt>
      <trkpt lat="23.059445" lon="113.284136">
        <time>2026-06-28T08:30:05Z</time>
      </trkpt>
      <trkpt lat="23.059393" lon="113.28421">
        <time>2026-06-28T08:30:10Z</time>
      </trkpt>
      <trkpt lat="23.05936" lon="113.284292">
        <time>2026-06-28T08:30:15Z</time>
      </trkpt>
      <trkpt lat="23.059312" lon="113.284418">
        <time>2026-06-28T08:30:20Z</time>
      </trkpt>
      <trkpt lat="23.059282" lon="113.284549">
        <time>2026-06-28T08:30:25Z</time>
      </trkpt>
      <trkpt lat="23.059278" lon="113.284635">
        <time>2026-06-28T08:30:30Z</time>
      </trkpt>
      <trkpt lat="23.059262" lon="113.284715">
        <time>2026-06-28T08:30:35Z</time>
      </trkpt>
      <trkpt lat="23.05921" lon="113.284839">
        <time>2026-06-28T08:30:40Z</time>
      </trkpt>
      <trkpt lat="23.059155" lon="113.284964">
        <time>2026-06-28T08:30:45Z</time>
      </trkpt>
      <trkpt lat="23.059121" lon="113.285046">
        <time>2026-06-28T08:30:50Z</time>
      </trkpt>
      <trkpt lat="23.059088" lon="113.28513">
        <time>2026-06-28T08:30:55Z</time>
      </trkpt>
      <trkpt lat="23.059031" lon="113.28525">
        <time>2026-06-28T08:31:00Z</time>
      </trkpt>
      <trkpt lat="23.05897" lon="113.285379">
        <time>2026-06-28T08:31:05Z</time>
      </trkpt>
      <trkpt lat="23.058931" lon="113.285465">
        <time>2026-06-28T08:31:10Z</time>
      </trkpt>
      <trkpt lat="23.058895" lon="113.285552">
        <time>2026-06-28T08:31:15Z</time>
      </trkpt>
      <trkpt lat="23.058839" lon="113.285678">
        <time>2026-06-28T08:31:20Z</time>
      </trkpt>
      <trkpt lat="23.058782" lon="113.2858">
        <time>2026-06-28T08:31:25Z</time>
      </trkpt>
      <trkpt lat="23.05875" lon="113.285885">
        <time>2026-06-28T08:31:30Z</time>
      </trkpt>
      <trkpt lat="23.058715" lon="113.285972">
        <time>2026-06-28T08:31:35Z</time>
      </trkpt>
      <trkpt lat="23.05867" lon="113.286109">
        <time>2026-06-28T08:31:40Z</time>
      </trkpt>
      <trkpt lat="23.058649" lon="113.286247">
        <time>2026-06-28T08:31:45Z</time>
      </trkpt>
      <trkpt lat="23.058679" lon="113.286326">
        <time>2026-06-28T08:31:50Z</time>
      </trkpt>
      <trkpt lat="23.058758" lon="113.286375">
        <time>2026-06-28T08:31:55Z</time>
      </trkpt>
      <trkpt lat="23.058884" lon="113.286401">
        <time>2026-06-28T08:32:00Z</time>
      </trkpt>
      <trkpt lat="23.059006" lon="113.286423">
        <time>2026-06-28T08:32:05Z</time>
      </trkpt>
      <trkpt lat="23.059101" lon="113.286439">
        <time>2026-06-28T08:32:10Z</time>
      </trkpt>
      <trkpt lat="23.05919" lon="113.286452">
        <time>2026-06-28T08:32:15Z</time>
      </trkpt>
      <trkpt lat="23.059314" lon="113.286466">
        <time>2026-06-28T08:32:20Z</time>
      </trkpt>
      <trkpt lat="23.059443" lon="113.286484">
        <time>2026-06-28T08:32:25Z</time>
      </trkpt>
      <trkpt lat="23.059529" lon="113.286489">
        <time>2026-06-28T08:32:30Z</time>
      </trkpt>
      <trkpt lat="23.059618" lon="113.286493">
        <time>2026-06-28T08:32:35Z</time>
      </trkpt>
      <trkpt lat="23.059749" lon="113.286503">
        <time>2026-06-28T08:32:40Z</time>
      </trkpt>
      <trkpt lat="23.059877" lon="113.286514">
        <time>2026-06-28T08:32:45Z</time>
      </trkpt>
      <trkpt lat="23.059961" lon="113.286515">
        <time>2026-06-28T08:32:50Z</time>
      </trkpt>
      <trkpt lat="23.060045" lon="113.286522">
        <time>2026-06-28T08:32:55Z</time>
      </trkpt>
      <trkpt lat="23.060116" lon="113.286559">
        <time>2026-06-28T08:33:00Z</time>
      </trkpt>
      <trkpt lat="23.060121" lon="113.286673">
        <time>2026-06-28T08:33:05Z</time>
      </trkpt>
      <trkpt lat="23.060126" lon="113.286773">
        <time>2026-06-28T08:33:10Z</time>
      </trkpt>
      <trkpt lat="23.060135" lon="113.286874">
        <time>2026-06-28T08:33:15Z</time>
      </trkpt>
      <trkpt lat="23.060169" lon="113.287028">
        <time>2026-06-28T08:33:20Z</time>
      </trkpt>
      <trkpt lat="23.060214" lon="113.287152">
        <time>2026-06-28T08:33:25Z</time>
      </trkpt>
      <trkpt lat="23.060233" lon="113.28724">
        <time>2026-06-28T08:33:30Z</time>
      </trkpt>
      <trkpt lat="23.060248" lon="113.287333">
        <time>2026-06-28T08:33:35Z</time>
      </trkpt>
      <trkpt lat="23.060288" lon="113.287468">
        <time>2026-06-28T08:33:40Z</time>
      </trkpt>
      <trkpt lat="23.060296" lon="113.287599">
        <time>2026-06-28T08:33:45Z</time>
      </trkpt>
      <trkpt lat="23.060314" lon="113.287687">
        <time>2026-06-28T08:33:50Z</time>
      </trkpt>
      <trkpt lat="23.060243" lon="113.287797">
        <time>2026-06-28T08:33:55Z</time>
      </trkpt>
      <trkpt lat="23.060228" lon="113.287859">
        <time>2026-06-28T08:34:00Z</time>
      </trkpt>
      <trkpt lat="23.060296" lon="113.287795">
        <time>2026-06-28T08:34:05Z</time>
      </trkpt>
      <trkpt lat="23.060299" lon="113.287724">
        <time>2026-06-28T08:34:10Z</time>
      </trkpt>
      <trkpt lat="23.060298" lon="113.287636">
        <time>2026-06-28T08:34:15Z</time>
      </trkpt>
      <trkpt lat="23.060295" lon="113.287489">
        <time>2026-06-28T08:34:20Z</time>
      </trkpt>
      <trkpt lat="23.060278" lon="113.287335">
        <time>2026-06-28T08:34:25Z</time>
      </trkpt>
      <trkpt lat="23.060257" lon="113.287233">
        <time>2026-06-28T08:34:30Z</time>
      </trkpt>
      <trkpt lat="23.060244" lon="113.287132">
        <time>2026-06-28T08:34:35Z</time>
      </trkpt>
      <trkpt lat="23.060234" lon="113.286978">
        <time>2026-06-28T08:34:40Z</time>
      </trkpt>
      <trkpt lat="23.060215" lon="113.286825">
        <time>2026-06-28T08:34:45Z</time>
      </trkpt>
      <trkpt lat="23.060229" lon="113.286718">
        <time>2026-06-28T08:34:50Z</time>
      </trkpt>
      <trkpt lat="23.060234" lon="113.28663">
        <time>2026-06-28T08:34:55Z</time>
      </trkpt>
      <trkpt lat="23.060243" lon="113.286524">
        <time>2026-06-28T08:35:00Z</time>
      </trkpt>
      <trkpt lat="23.060325" lon="113.28646">
        <time>2026-06-28T08:35:05Z</time>
      </trkpt>
      <trkpt lat="23.060401" lon="113.286473">
        <time>2026-06-28T08:35:10Z</time>
      </trkpt>
      <trkpt lat="23.06048" lon="113.286489">
        <time>2026-06-28T08:35:15Z</time>
      </trkpt>
      <trkpt lat="23.060593" lon="113.286507">
        <time>2026-06-28T08:35:20Z</time>
      </trkpt>
      <trkpt lat="23.060726" lon="113.286535">
        <time>2026-06-28T08:35:25Z</time>
      </trkpt>
      <trkpt lat="23.06082" lon="113.286542">
        <time>2026-06-28T08:35:30Z</time>
      </trkpt>
      <trkpt lat="23.06091" lon="113.286532">
        <time>2026-06-28T08:35:35Z</time>
      </trkpt>
      <trkpt lat="23.061046" lon="113.286498">
        <time>2026-06-28T08:35:40Z</time>
      </trkpt>
      <trkpt lat="23.061167" lon="113.286469">
        <time>2026-06-28T08:35:45Z</time>
      </trkpt>
      <trkpt lat="23.061253" lon="113.286457">
        <time>2026-06-28T08:35:50Z</time>
      </trkpt>
      <trkpt lat="23.061343" lon="113.286511">
        <time>2026-06-28T08:35:55Z</time>
      </trkpt>
      <trkpt lat="23.06148" lon="113.28655">
        <time>2026-06-28T08:36:00Z</time>
      </trkpt>
      <trkpt lat="23.061612" lon="113.286554">
        <time>2026-06-28T08:36:05Z</time>
      </trkpt>
      <trkpt lat="23.061695" lon="113.286558">
        <time>2026-06-28T08:36:10Z</time>
      </trkpt>
      <trkpt lat="23.061771" lon="113.286537">
        <time>2026-06-28T08:36:15Z</time>
      </trkpt>
      <trkpt lat="23.061886" lon="113.286491">
        <time>2026-06-28T08:36:20Z</time>
      </trkpt>
      <trkpt lat="23.061982" lon="113.286411">
        <time>2026-06-28T08:36:25Z</time>
      </trkpt>
      <trkpt lat="23.062004" lon="113.286341">
        <time>2026-06-28T08:36:30Z</time>
      </trkpt>
      <trkpt lat="23.061998" lon="113.286267">
        <time>2026-06-28T08:36:35Z</time>
      </trkpt>
      <trkpt lat="23.06199" lon="113.286155">
        <time>2026-06-28T08:36:40Z</time>
      </trkpt>
      <trkpt lat="23.061959" lon="113.286043">
        <time>2026-06-28T08:36:45Z</time>
      </trkpt>
      <trkpt lat="23.061925" lon="113.285953">
        <time>2026-06-28T08:36:50Z</time>
      </trkpt>
      <trkpt lat="23.061908" lon="113.285853">
        <time>2026-06-28T08:36:55Z</time>
      </trkpt>
      <trkpt lat="23.061926" lon="113.285716">
        <time>2026-06-28T08:37:00Z</time>
      </trkpt>
      <trkpt lat="23.061957" lon="113.285575">
        <time>2026-06-28T08:37:05Z</time>
      </trkpt>
      <trkpt lat="23.061977" lon="113.285484">
        <time>2026-06-28T08:37:10Z</time>
      </trkpt>
      <trkpt lat="23.061951" lon="113.285423">
        <time>2026-06-28T08:37:15Z</time>
      </trkpt>
      <trkpt lat="23.06185" lon="113.285409">
        <time>2026-06-28T08:37:20Z</time>
      </trkpt>
      <trkpt lat="23.061743" lon="113.285416">
        <time>2026-06-28T08:37:25Z</time>
      </trkpt>
      <trkpt lat="23.061683" lon="113.28541">
        <time>2026-06-28T08:37:30Z</time>
      </trkpt>
      <trkpt lat="23.06162" lon="113.285401">
        <time>2026-06-28T08:37:35Z</time>
      </trkpt>
      <trkpt lat="23.061511" lon="113.28539">
        <time>2026-06-28T08:37:40Z</time>
      </trkpt>
      <trkpt lat="23.061449" lon="113.285305">
        <time>2026-06-28T08:37:45Z</time>
      </trkpt>
      <trkpt lat="23.061387" lon="113.285239">
        <time>2026-06-28T08:37:50Z</time>
      </trkpt>
      <trkpt lat="23.061298" lon="113.285231">
        <time>2026-06-28T08:37:55Z</time>
      </trkpt>
      <trkpt lat="23.061164" lon="113.285239">
        <time>2026-06-28T08:38:00Z</time>
      </trkpt>
      <trkpt lat="23.061032" lon="113.285212">
        <time>2026-06-28T08:38:05Z</time>
      </trkpt>
      <trkpt lat="23.060939" lon="113.285199">
        <time>2026-06-28T08:38:10Z</time>
      </trkpt>
      <trkpt lat="23.060858" lon="113.285172">
        <time>2026-06-28T08:38:15Z</time>
      </trkpt>
      <trkpt lat="23.060705" lon="113.285147">
        <time>2026-06-28T08:38:20Z</time>
      </trkpt>
      <trkpt lat="23.060553" lon="113.285118">
        <time>2026-06-28T08:38:25Z</time>
      </trkpt>
      <trkpt lat="23.060474" lon="113.285078">
        <time>2026-06-28T08:38:30Z</time>
      </trkpt>
      <trkpt lat="23.060396" lon="113.285045">
        <time>2026-06-28T08:38:35Z</time>
      </trkpt>
      <trkpt lat="23.060267" lon="113.285023">
        <time>2026-06-28T08:38:40Z</time>
      </trkpt>
      <trkpt lat="23.06013" lon="113.284992">
        <time>2026-06-28T08:38:45Z</time>
      </trkpt>
      <trkpt lat="23.060037" lon="113.28497">
        <time>2026-06-28T08:38:50Z</time>
      </trkpt>
      <trkpt lat="23.059952" lon="113.284954">
        <time>2026-06-28T08:38:55Z</time>
      </trkpt>
      <trkpt lat="23.059803" lon="113.284988">
        <time>2026-06-28T08:39:00Z</time>
      </trkpt>
      <trkpt lat="23.059659" lon="113.285025">
        <time>2026-06-28T08:39:05Z</time>
      </trkpt>
      <trkpt lat="23.059579" lon="113.285053">
        <time>2026-06-28T08:39:10Z</time>
      </trkpt>
      <trkpt lat="23.059505" lon="113.28506">
        <time>2026-06-28T08:39:15Z</time>
      </trkpt>
      <trkpt lat="23.05941" lon="113.28501">
        <time>2026-06-28T08:39:20Z</time>
      </trkpt>
      <trkpt lat="23.059349" lon="113.284887">
        <time>2026-06-28T08:39:25Z</time>
      </trkpt>
      <trkpt lat="23.059343" lon="113.284803">
        <time>2026-06-28T08:39:30Z</time>
      </trkpt>
      <trkpt lat="23.059361" lon="113.284709">
        <time>2026-06-28T08:39:35Z</time>
      </trkpt>
      <trkpt lat="23.059411" lon="113.284589">
        <time>2026-06-28T08:39:40Z</time>
      </trkpt>
      <trkpt lat="23.059465" lon="113.28447">
        <time>2026-06-28T08:39:45Z</time>
      </trkpt>
      <trkpt lat="23.059503" lon="113.284391">
        <time>2026-06-28T08:39:50Z</time>
      </trkpt>
      <trkpt lat="23.059546" lon="113.284312">
        <time>2026-06-28T08:39:55Z</time>
      </trkpt>
      <trkpt lat="23.059606" lon="113.284189">
        <time>2026-06-28T08:40:00Z</time>
      </trkpt>
      <trkpt lat="23.059658" lon="113.284065">
        <time>2026-06-28T08:40:05Z</time>
      </trkpt>
      <trkpt lat="23.059686" lon="113.283984">
        <time>2026-06-28T08:40:10Z</time>
      </trkpt>
      <trkpt lat="23.059713" lon="113.283903">
        <time>2026-06-28T08:40:15Z</time>
      </trkpt>
      <trkpt lat="23.059713" lon="113.283795">
        <time>2026-06-28T08:40:20Z</time>
      </trkpt>
      <trkpt lat="23.059686" lon="113.283659">
        <time>2026-06-28T08:40:25Z</time>
      </trkpt>
      <trkpt lat="23.059706" lon="113.283568">
        <time>2026-06-28T08:40:30Z</time>
      </trkpt>
      <trkpt lat="23.059741" lon="113.283485">
        <time>2026-06-28T08:40:35Z</time>
      </trkpt>
      <trkpt lat="23.059808" lon="113.283366">
        <time>2026-06-28T08:40:40Z</time>
      </trkpt>
      <trkpt lat="23.059869" lon="113.283241">
        <time>2026-06-28T08:40:45Z</time>
      </trkpt>
      <trkpt lat="23.059914" lon="113.28316">
        <time>2026-06-28T08:40:50Z</time>
      </trkpt>
      <trkpt lat="23.059963" lon="113.283075">
        <time>2026-06-28T08:40:55Z</time>
      </trkpt>
      <trkpt lat="23.060028" lon="113.282952">
        <time>2026-06-28T08:41:00Z</time>
      </trkpt>
      <trkpt lat="23.060088" lon="113.28283">
        <time>2026-06-28T08:41:05Z</time>
      </trkpt>
      <trkpt lat="23.060122" lon="113.282745">
        <time>2026-06-28T08:41:10Z</time>
      </trkpt>
      <trkpt lat="23.060154" lon="113.282657">
        <time>2026-06-28T08:41:15Z</time>
      </trkpt>
      <trkpt lat="23.060202" lon="113.282531">
        <time>2026-06-28T08:41:20Z</time>
      </trkpt>
      <trkpt lat="23.060253" lon="113.282415">
        <time>2026-06-28T08:41:25Z</time>
      </trkpt>
      <trkpt lat="23.06029" lon="113.28233">
        <time>2026-06-28T08:41:30Z</time>
      </trkpt>
      <trkpt lat="23.060331" lon="113.282244">
        <time>2026-06-28T08:41:35Z</time>
      </trkpt>
      <trkpt lat="23.060381" lon="113.282124">
        <time>2026-06-28T08:41:40Z</time>
      </trkpt>
      <trkpt lat="23.060426" lon="113.282011">
        <time>2026-06-28T08:41:45Z</time>
      </trkpt>
      <trkpt lat="23.060459" lon="113.281933">
        <time>2026-06-28T08:41:50Z</time>
      </trkpt>
      <trkpt lat="23.060495" lon="113.281856">
        <time>2026-06-28T08:41:55Z</time>
      </trkpt>
      <trkpt lat="23.060547" lon="113.281734">
        <time>2026-06-28T08:42:00Z</time>
      </trkpt>
      <trkpt lat="23.060595" lon="113.281613">
        <time>2026-06-28T08:42:05Z</time>
      </trkpt>
      <trkpt lat="23.060625" lon="113.281536">
        <time>2026-06-28T08:42:10Z</time>
      </trkpt>
      <trkpt lat="23.060657" lon="113.281455">
        <time>2026-06-28T08:42:15Z</time>
      </trkpt>
      <trkpt lat="23.060707" lon="113.281331">
        <time>2026-06-28T08:42:20Z</time>
      </trkpt>
      <trkpt lat="23.060764" lon="113.281205">
        <time>2026-06-28T08:42:25Z</time>
      </trkpt>
      <trkpt lat="23.060803" lon="113.281123">
        <time>2026-06-28T08:42:30Z</time>
      </trkpt>
      <trkpt lat="23.060839" lon="113.281038">
        <time>2026-06-28T08:42:35Z</time>
      </trkpt>
      <trkpt lat="23.060894" lon="113.280909">
        <time>2026-06-28T08:42:40Z</time>
      </trkpt>
      <trkpt lat="23.060952" lon="113.28078">
        <time>2026-06-28T08:42:45Z</time>
      </trkpt>
      <trkpt lat="23.06099" lon="113.280688">
        <time>2026-06-28T08:42:50Z</time>
      </trkpt>
      <trkpt lat="23.061019" lon="113.2806">
        <time>2026-06-28T08:42:55Z</time>
      </trkpt>
      <trkpt lat="23.061064" lon="113.280478">
        <time>2026-06-28T08:43:00Z</time>
      </trkpt>
      <trkpt lat="23.061121" lon="113.280374">
        <time>2026-06-28T08:43:05Z</time>
      </trkpt>
      <trkpt lat="23.061142" lon="113.280306">
        <time>2026-06-28T08:43:10Z</time>
      </trkpt>
      <trkpt lat="23.06116" lon="113.280226">
        <time>2026-06-28T08:43:15Z</time>
      </trkpt>
      <trkpt lat="23.061222" lon="113.280102">
        <time>2026-06-28T08:43:20Z</time>
      </trkpt>
      <trkpt lat="23.06127" lon="113.279979">
        <time>2026-06-28T08:43:25Z</time>
      </trkpt>
      <trkpt lat="23.061299" lon="113.279896">
        <time>2026-06-28T08:43:30Z</time>
      </trkpt>
      <trkpt lat="23.061334" lon="113.279817">
        <time>2026-06-28T08:43:35Z</time>
      </trkpt>
      <trkpt lat="23.061403" lon="113.279708">
        <time>2026-06-28T08:43:40Z</time>
      </trkpt>
      <trkpt lat="23.061456" lon="113.279588">
        <time>2026-06-28T08:43:45Z</time>
      </trkpt>
      <trkpt lat="23.061492" lon="113.279509">
        <time>2026-06-28T08:43:50Z</time>
      </trkpt>
      <trkpt lat="23.061528" lon="113.279432">
        <time>2026-06-28T08:43:55Z</time>
      </trkpt>
      <trkpt lat="23.061574" lon="113.279314">
        <time>2026-06-28T08:44:00Z</time>
      </trkpt>
      <trkpt lat="23.061626" lon="113.279198">
        <time>2026-06-28T08:44:05Z</time>
      </trkpt>
      <trkpt lat="23.061661" lon="113.279112">
        <time>2026-06-28T08:44:10Z</time>
      </trkpt>
      <trkpt lat="23.061695" lon="113.279022">
        <time>2026-06-28T08:44:15Z</time>
      </trkpt>
      <trkpt lat="23.061736" lon="113.278894">
        <time>2026-06-28T08:44:20Z</time>
      </trkpt>
      <trkpt lat="23.061778" lon="113.278772">
        <time>2026-06-28T08:44:25Z</time>
      </trkpt>
      <trkpt lat="23.061838" lon="113.278745">
        <time>2026-06-28T08:44:30Z</time>
      </trkpt>
      <trkpt lat="23.061875" lon="113.278686">
        <time>2026-06-28T08:44:35Z</time>
      </trkpt>
      <trkpt lat="23.061878" lon="113.27854">
        <time>2026-06-28T08:44:40Z</time>
      </trkpt>
      <trkpt lat="23.061865" lon="113.278394">
        <time>2026-06-28T08:44:45Z</time>
      </trkpt>
      <trkpt lat="23.061863" lon="113.278299">
        <time>2026-06-28T08:44:50Z</time>
      </trkpt>
      <trkpt lat="23.061862" lon="113.278198">
        <time>2026-06-28T08:44:55Z</time>
      </trkpt>
      <trkpt lat="23.061849" lon="113.278042">
        <time>2026-06-28T08:45:00Z</time>
      </trkpt>
      <trkpt lat="23.061849" lon="113.277889">
        <time>2026-06-28T08:45:05Z</time>
      </trkpt>
      <trkpt lat="23.061856" lon="113.277789">
        <time>2026-06-28T08:45:10Z</time>
      </trkpt>
      <trkpt lat="23.061877" lon="113.277693">
        <time>2026-06-28T08:45:15Z</time>
      </trkpt>
      <trkpt lat="23.061921" lon="113.277553">
        <time>2026-06-28T08:45:20Z</time>
      </trkpt>
      <trkpt lat="23.061973" lon="113.27742">
        <time>2026-06-28T08:45:25Z</time>
      </trkpt>
      <trkpt lat="23.062023" lon="113.277351">
        <time>2026-06-28T08:45:30Z</time>
      </trkpt>
      <trkpt lat="23.062088" lon="113.277303">
        <time>2026-06-28T08:45:35Z</time>
      </trkpt>
      <trkpt lat="23.062159" lon="113.277191">
        <time>2026-06-28T08:45:40Z</time>
      </trkpt>
      <trkpt lat="23.062208" lon="113.277064">
        <time>2026-06-28T08:45:45Z</time>
      </trkpt>
      <trkpt lat="23.062245" lon="113.276982">
        <time>2026-06-28T08:45:50Z</time>
      </trkpt>
      <trkpt lat="23.06228" lon="113.276896">
        <time>2026-06-28T08:45:55Z</time>
      </trkpt>
      <trkpt lat="23.062326" lon="113.276763">
        <time>2026-06-28T08:46:00Z</time>
      </trkpt>
      <trkpt lat="23.062373" lon="113.276628">
        <time>2026-06-28T08:46:05Z</time>
      </trkpt>
      <trkpt lat="23.062406" lon="113.276536">
        <time>2026-06-28T08:46:10Z</time>
      </trkpt>
      <trkpt lat="23.062437" lon="113.276447">
        <time>2026-06-28T08:46:15Z</time>
      </trkpt>
      <trkpt lat="23.062486" lon="113.276314">
        <time>2026-06-28T08:46:20Z</time>
      </trkpt>
      <trkpt lat="23.062539" lon="113.27619">
        <time>2026-06-28T08:46:25Z</time>
      </trkpt>
      <trkpt lat="23.062579" lon="113.276113">
        <time>2026-06-28T08:46:30Z</time>
      </trkpt>
      <trkpt lat="23.062623" lon="113.276036">
        <time>2026-06-28T08:46:35Z</time>
      </trkpt>
      <trkpt lat="23.062699" lon="113.275927">
        <time>2026-06-28T08:46:40Z</time>
      </trkpt>
      <trkpt lat="23.062788" lon="113.275828">
        <time>2026-06-28T08:46:45Z</time>
      </trkpt>
      <trkpt lat="23.06285" lon="113.275763">
        <time>2026-06-28T08:46:50Z</time>
      </trkpt>
      <trkpt lat="23.062914" lon="113.275697">
        <time>2026-06-28T08:46:55Z</time>
      </trkpt>
      <trkpt lat="23.063008" lon="113.275595">
        <time>2026-06-28T08:47:00Z</time>
      </trkpt>
      <trkpt lat="23.063085" lon="113.275479">
        <time>2026-06-28T08:47:05Z</time>
      </trkpt>
      <trkpt lat="23.063134" lon="113.275402">
        <time>2026-06-28T08:47:10Z</time>
      </trkpt>
      <trkpt lat="23.063179" lon="113.275329">
        <time>2026-06-28T08:47:15Z</time>
      </trkpt>
      <trkpt lat="23.063258" lon="113.275224">
        <time>2026-06-28T08:47:20Z</time>
      </trkpt>
      <trkpt lat="23.063354" lon="113.275131">
        <time>2026-06-28T08:47:25Z</time>
      </trkpt>
      <trkpt lat="23.063391" lon="113.275058">
        <time>2026-06-28T08:47:30Z</time>
      </trkpt>
      <trkpt lat="23.063415" lon="113.274975">
        <time>2026-06-28T08:47:35Z</time>
      </trkpt>
      <trkpt lat="23.063453" lon="113.274849">
        <time>2026-06-28T08:47:40Z</time>
      </trkpt>
      <trkpt lat="23.063494" lon="113.274726">
        <time>2026-06-28T08:47:45Z</time>
      </trkpt>
      <trkpt lat="23.063522" lon="113.274639">
        <time>2026-06-28T08:47:50Z</time>
      </trkpt>
      <trkpt lat="23.063535" lon="113.274556">
        <time>2026-06-28T08:47:55Z</time>
      </trkpt>
      <trkpt lat="23.063571" lon="113.274442">
        <time>2026-06-28T08:48:00Z</time>
      </trkpt>
      <trkpt lat="23.063648" lon="113.274325">
        <time>2026-06-28T08:48:05Z</time>
      </trkpt>
      <trkpt lat="23.063713" lon="113.274256">
        <time>2026-06-28T08:48:10Z</time>
      </trkpt>
      <trkpt lat="23.063778" lon="113.274192">
        <time>2026-06-28T08:48:15Z</time>
      </trkpt>
      <trkpt lat="23.063854" lon="113.274083">
        <time>2026-06-28T08:48:20Z</time>
      </trkpt>
      <trkpt lat="23.063931" lon="113.27396">
        <time>2026-06-28T08:48:25Z</time>
      </trkpt>
      <trkpt lat="23.063974" lon="113.273878">
        <time>2026-06-28T08:48:30Z</time>
      </trkpt>
      <trkpt lat="23.064031" lon="113.2738">
        <time>2026-06-28T08:48:35Z</time>
      </trkpt>
      <trkpt lat="23.064127" lon="113.273702">
        <time>2026-06-28T08:48:40Z</time>
      </trkpt>
      <trkpt lat="23.064224" lon="113.273621">
        <time>2026-06-28T08:48:45Z</time>
      </trkpt>
      <trkpt lat="23.064293" lon="113.273569">
        <time>2026-06-28T08:48:50Z</time>
      </trkpt>
      <trkpt lat="23.064363" lon="113.273515">
        <time>2026-06-28T08:48:55Z</time>
      </trkpt>
      <trkpt lat="23.064462" lon="113.273436">
        <time>2026-06-28T08:49:00Z</time>
      </trkpt>
      <trkpt lat="23.064543" lon="113.273335">
        <time>2026-06-28T08:49:05Z</time>
      </trkpt>
      <trkpt lat="23.064571" lon="113.273252">
        <time>2026-06-28T08:49:10Z</time>
      </trkpt>
      <trkpt lat="23.064578" lon="113.273158">
        <time>2026-06-28T08:49:15Z</time>
      </trkpt>
      <trkpt lat="23.064558" lon="113.273015">
        <time>2026-06-28T08:49:20Z</time>
      </trkpt>
      <trkpt lat="23.064512" lon="113.272873">
        <time>2026-06-28T08:49:25Z</time>
      </trkpt>
      <trkpt lat="23.064486" lon="113.272782">
        <time>2026-06-28T08:49:30Z</time>
      </trkpt>
      <trkpt lat="23.064462" lon="113.272694">
        <time>2026-06-28T08:49:35Z</time>
      </trkpt>
      <trkpt lat="23.064468" lon="113.272568">
        <time>2026-06-28T08:49:40Z</time>
      </trkpt>
      <trkpt lat="23.064527" lon="113.272441">
        <time>2026-06-28T08:49:45Z</time>
      </trkpt>
      <trkpt lat="23.064539" lon="113.272344">
        <time>2026-06-28T08:49:50Z</time>
      </trkpt>
      <trkpt lat="23.064551" lon="113.272251">
        <time>2026-06-28T08:49:55Z</time>
      </trkpt>
      <trkpt lat="23.064608" lon="113.272133">
        <time>2026-06-28T08:50:00Z</time>
      </trkpt>
      <trkpt lat="23.064662" lon="113.272017">
        <time>2026-06-28T08:50:05Z</time>
      </trkpt>
      <trkpt lat="23.064704" lon="113.271937">
        <time>2026-06-28T08:50:10Z</time>
      </trkpt>
      <trkpt lat="23.064745" lon="113.271853">
        <time>2026-06-28T08:50:15Z</time>
      </trkpt>
      <trkpt lat="23.064809" lon="113.271729">
        <time>2026-06-28T08:50:20Z</time>
      </trkpt>
      <trkpt lat="23.064881" lon="113.271604">
        <time>2026-06-28T08:50:25Z</time>
      </trkpt>
      <trkpt lat="23.064921" lon="113.271522">
        <time>2026-06-28T08:50:30Z</time>
      </trkpt>
      <trkpt lat="23.064953" lon="113.27144">
        <time>2026-06-28T08:50:35Z</time>
      </trkpt>
      <trkpt lat="23.065009" lon="113.271321">
        <time>2026-06-28T08:50:40Z</time>
      </trkpt>
      <trkpt lat="23.065083" lon="113.271201">
        <time>2026-06-28T08:50:45Z</time>
      </trkpt>
      <trkpt lat="23.065128" lon="113.271123">
        <time>2026-06-28T08:50:50Z</time>
      </trkpt>
      <trkpt lat="23.06516" lon="113.271042">
        <time>2026-06-28T08:50:55Z</time>
      </trkpt>
      <trkpt lat="23.065205" lon="113.270917">
        <time>2026-06-28T08:51:00Z</time>
      </trkpt>
      <trkpt lat="23.065258" lon="113.270787">
        <time>2026-06-28T08:51:05Z</time>
      </trkpt>
      <trkpt lat="23.065296" lon="113.2707">
        <time>2026-06-28T08:51:10Z</time>
      </trkpt>
      <trkpt lat="23.065333" lon="113.270618">
        <time>2026-06-28T08:51:15Z</time>
      </trkpt>
      <trkpt lat="23.065389" lon="113.270494">
        <time>2026-06-28T08:51:20Z</time>
      </trkpt>
      <trkpt lat="23.06544" lon="113.27037">
        <time>2026-06-28T08:51:25Z</time>
      </trkpt>
      <trkpt lat="23.065479" lon="113.270289">
        <time>2026-06-28T08:51:30Z</time>
      </trkpt>
      <trkpt lat="23.065509" lon="113.270205">
        <time>2026-06-28T08:51:35Z</time>
      </trkpt>
      <trkpt lat="23.065545" lon="113.270081">
        <time>2026-06-28T08:51:40Z</time>
      </trkpt>
      <trkpt lat="23.065582" lon="113.269955">
        <time>2026-06-28T08:51:45Z</time>
      </trkpt>
      <trkpt lat="23.065606" lon="113.269869">
        <time>2026-06-28T08:51:50Z</time>
      </trkpt>
      <trkpt lat="23.065629" lon="113.269784">
        <time>2026-06-28T08:51:55Z</time>
      </trkpt>
      <trkpt lat="23.065685" lon="113.269651">
        <time>2026-06-28T08:52:00Z</time>
      </trkpt>
      <trkpt lat="23.065726" lon="113.269515">
        <time>2026-06-28T08:52:05Z</time>
      </trkpt>
      <trkpt lat="23.065741" lon="113.269427">
        <time>2026-06-28T08:52:10Z</time>
      </trkpt>
      <trkpt lat="23.065763" lon="113.269342">
        <time>2026-06-28T08:52:15Z</time>
      </trkpt>
      <trkpt lat="23.065802" lon="113.269219">
        <time>2026-06-28T08:52:20Z</time>
      </trkpt>
      <trkpt lat="23.065839" lon="113.269098">
        <time>2026-06-28T08:52:25Z</time>
      </trkpt>
      <trkpt lat="23.065866" lon="113.269016">
        <time>2026-06-28T08:52:30Z</time>
      </trkpt>
      <trkpt lat="23.065896" lon="113.268931">
        <time>2026-06-28T08:52:35Z</time>
      </trkpt>
      <trkpt lat="23.065945" lon="113.268808">
        <time>2026-06-28T08:52:40Z</time>
      </trkpt>
      <trkpt lat="23.066002" lon="113.268688">
        <time>2026-06-28T08:52:45Z</time>
      </trkpt>
      <trkpt lat="23.066046" lon="113.268612">
        <time>2026-06-28T08:52:50Z</time>
      </trkpt>
      <trkpt lat="23.066098" lon="113.268531">
        <time>2026-06-28T08:52:55Z</time>
      </trkpt>
      <trkpt lat="23.066179" lon="113.26841">
        <time>2026-06-28T08:53:00Z</time>
      </trkpt>
      <trkpt lat="23.066268" lon="113.268304">
        <time>2026-06-28T08:53:05Z</time>
      </trkpt>
      <trkpt lat="23.066335" lon="113.268237">
        <time>2026-06-28T08:53:10Z</time>
      </trkpt>
      <trkpt lat="23.066411" lon="113.268185">
        <time>2026-06-28T08:53:15Z</time>
      </trkpt>
      <trkpt lat="23.06654" lon="113.26816">
        <time>2026-06-28T08:53:20Z</time>
      </trkpt>
      <trkpt lat="23.066666" lon="113.268175">
        <time>2026-06-28T08:53:25Z</time>
      </trkpt>
      <trkpt lat="23.066749" lon="113.268168">
        <time>2026-06-28T08:53:30Z</time>
      </trkpt>
      <trkpt lat="23.066827" lon="113.268164">
        <time>2026-06-28T08:53:35Z</time>
      </trkpt>
      <trkpt lat="23.066955" lon="113.268168">
        <time>2026-06-28T08:53:40Z</time>
      </trkpt>
      <trkpt lat="23.067066" lon="113.268211">
        <time>2026-06-28T08:53:45Z</time>
      </trkpt>
      <trkpt lat="23.067123" lon="113.26824">
        <time>2026-06-28T08:53:50Z</time>
      </trkpt>
      <trkpt lat="23.067186" lon="113.268289">
        <time>2026-06-28T08:53:55Z</time>
      </trkpt>
      <trkpt lat="23.067294" lon="113.268367">
        <time>2026-06-28T08:54:00Z</time>
      </trkpt>
      <trkpt lat="23.067394" lon="113.268426">
        <time>2026-06-28T08:54:05Z</time>
      </trkpt>
      <trkpt lat="23.067468" lon="113.268468">
        <time>2026-06-28T08:54:10Z</time>
      </trkpt>
      <trkpt lat="23.067552" lon="113.268508">
        <time>2026-06-28T08:54:15Z</time>
      </trkpt>
      <trkpt lat="23.067688" lon="113.268567">
        <time>2026-06-28T08:54:20Z</time>
      </trkpt>
      <trkpt lat="23.067814" lon="113.268633">
        <time>2026-06-28T08:54:25Z</time>
      </trkpt>
      <trkpt lat="23.067899" lon="113.268675">
        <time>2026-06-28T08:54:30Z</time>
      </trkpt>
      <trkpt lat="23.067975" lon="113.268717">
        <time>2026-06-28T08:54:35Z</time>
      </trkpt>
      <trkpt lat="23.06807" lon="113.268765">
        <time>2026-06-28T08:54:40Z</time>
      </trkpt>
      <trkpt lat="23.068174" lon="113.268805">
        <time>2026-06-28T08:54:45Z</time>
      </trkpt>
      <trkpt lat="23.068245" lon="113.268825">
        <time>2026-06-28T08:54:50Z</time>
      </trkpt>
      <trkpt lat="23.068322" lon="113.26886">
        <time>2026-06-28T08:54:55Z</time>
      </trkpt>
      <trkpt lat="23.068433" lon="113.268948">
        <time>2026-06-28T08:55:00Z</time>
      </trkpt>
      <trkpt lat="23.068535" lon="113.269062">
        <time>2026-06-28T08:55:05Z</time>
      </trkpt>
      <trkpt lat="23.068614" lon="113.269118">
        <time>2026-06-28T08:55:10Z</time>
      </trkpt>
      <trkpt lat="23.068695" lon="113.269172">
        <time>2026-06-28T08:55:15Z</time>
      </trkpt>
      <trkpt lat="23.068817" lon="113.269198">
        <time>2026-06-28T08:55:20Z</time>
      </trkpt>
      <trkpt lat="23.068938" lon="113.269244">
        <time>2026-06-28T08:55:25Z</time>
      </trkpt>
      <trkpt lat="23.069021" lon="113.269262">
        <time>2026-06-28T08:55:30Z</time>
      </trkpt>
      <trkpt lat="23.069108" lon="113.269264">
        <time>2026-06-28T08:55:35Z</time>
      </trkpt>
      <trkpt lat="23.069228" lon="113.269306">
        <time>2026-06-28T08:55:40Z</time>
      </trkpt>
      <trkpt lat="23.06935" lon="113.269373">
        <time>2026-06-28T08:55:45Z</time>
      </trkpt>
      <trkpt lat="23.069433" lon="113.269408">
        <time>2026-06-28T08:55:50Z</time>
      </trkpt>
      <trkpt lat="23.069517" lon="113.269444">
        <time>2026-06-28T08:55:55Z</time>
      </trkpt>
      <trkpt lat="23.069638" lon="113.26951">
        <time>2026-06-28T08:56:00Z</time>
      </trkpt>
      <trkpt lat="23.069757" lon="113.269566">
        <time>2026-06-28T08:56:05Z</time>
      </trkpt>
      <trkpt lat="23.069832" lon="113.269605">
        <time>2026-06-28T08:56:10Z</time>
      </trkpt>
      <trkpt lat="23.069905" lon="113.269644">
        <time>2026-06-28T08:56:15Z</time>
      </trkpt>
      <trkpt lat="23.070011" lon="113.269716">
        <time>2026-06-28T08:56:20Z</time>
      </trkpt>
      <trkpt lat="23.070119" lon="113.2698">
        <time>2026-06-28T08:56:25Z</time>
      </trkpt>
      <trkpt lat="23.070195" lon="113.269843">
        <time>2026-06-28T08:56:30Z</time>
      </trkpt>
      <trkpt lat="23.070274" lon="113.269885">
        <time>2026-06-28T08:56:35Z</time>
      </trkpt>
      <trkpt lat="23.070384" lon="113.269927">
        <time>2026-06-28T08:56:40Z</time>
      </trkpt>
      <trkpt lat="23.070508" lon="113.269961">
        <time>2026-06-28T08:56:45Z</time>
      </trkpt>
      <trkpt lat="23.070599" lon="113.269973">
        <time>2026-06-28T08:56:50Z</time>
      </trkpt>
      <trkpt lat="23.070674" lon="113.269997">
        <time>2026-06-28T08:56:55Z</time>
      </trkpt>
      <trkpt lat="23.070781" lon="113.270056">
        <time>2026-06-28T08:57:00Z</time>
      </trkpt>
      <trkpt lat="23.070902" lon="113.270076">
        <time>2026-06-28T08:57:05Z</time>
      </trkpt>
      <trkpt lat="23.070967" lon="113.270104">
        <time>2026-06-28T08:57:10Z</time>
      </trkpt>
      <trkpt lat="23.071034" lon="113.270131">
        <time>2026-06-28T08:57:15Z</time>
      </trkpt>
      <trkpt lat="23.071135" lon="113.270203">
        <time>2026-06-28T08:57:20Z</time>
      </trkpt>
      <trkpt lat="23.071235" lon="113.270274">
        <time>2026-06-28T08:57:25Z</time>
      </trkpt>
      <trkpt lat="23.071311" lon="113.27031">
        <time>2026-06-28T08:57:30Z</time>
      </trkpt>
      <trkpt lat="23.071385" lon="113.270351">
        <time>2026-06-28T08:57:35Z</time>
      </trkpt>
      <trkpt lat="23.07149" lon="113.270409">
        <time>2026-06-28T08:57:40Z</time>
      </trkpt>
      <trkpt lat="23.071594" lon="113.270459">
        <time>2026-06-28T08:57:45Z</time>
      </trkpt>
      <trkpt lat="23.071664" lon="113.270489">
        <time>2026-06-28T08:57:50Z</time>
      </trkpt>
      <trkpt lat="23.071733" lon="113.270516">
        <time>2026-06-28T08:57:55Z</time>
      </trkpt>
      <trkpt lat="23.071853" lon="113.270557">
        <time>2026-06-28T08:58:00Z</time>
      </trkpt>
      <trkpt lat="23.071976" lon="113.270613">
        <time>2026-06-28T08:58:05Z</time>
      </trkpt>
      <trkpt lat="23.07205" lon="113.270663">
        <time>2026-06-28T08:58:10Z</time>
      </trkpt>
      <trkpt lat="23.072111" lon="113.270697">
        <time>2026-06-28T08:58:15Z</time>
      </trkpt>
      <trkpt lat="23.07221" lon="113.270761">
        <time>2026-06-28T08:58:20Z</time>
      </trkpt>
      <trkpt lat="23.072323" lon="113.270842">
        <time>2026-06-28T08:58:25Z</time>
      </trkpt>
      <trkpt lat="23.072403" lon="113.270881">
        <time>2026-06-28T08:58:30Z</time>
      </trkpt>
      <trkpt lat="23.072482" lon="113.270917">
        <time>2026-06-28T08:58:35Z</time>
      </trkpt>
      <trkpt lat="23.072588" lon="113.270984">
        <time>2026-06-28T08:58:40Z</time>
      </trkpt>
      <trkpt lat="23.072706" lon="113.27103">
        <time>2026-06-28T08:58:45Z</time>
      </trkpt>
      <trkpt lat="23.07277" lon="113.271065">
        <time>2026-06-28T08:58:50Z</time>
      </trkpt>
      <trkpt lat="23.072844" lon="113.271075">
        <time>2026-06-28T08:58:55Z</time>
      </trkpt>
      <trkpt lat="23.072956" lon="113.271106">
        <time>2026-06-28T08:59:00Z</time>
      </trkpt>
      <trkpt lat="23.073088" lon="113.271138">
        <time>2026-06-28T08:59:05Z</time>
      </trkpt>
      <trkpt lat="23.07317" lon="113.271179">
        <time>2026-06-28T08:59:10Z</time>
      </trkpt>
      <trkpt lat="23.073223" lon="113.271233">
        <time>2026-06-28T08:59:15Z</time>
      </trkpt>
      <trkpt lat="23.073312" lon="113.271311">
        <time>2026-06-28T08:59:20Z</time>
      </trkpt>
      <trkpt lat="23.073419" lon="113.271359">
        <time>2026-06-28T08:59:25Z</time>
      </trkpt>
      <trkpt lat="23.07349" lon="113.271404">
        <time>2026-06-28T08:59:30Z</time>
      </trkpt>
      <trkpt lat="23.073557" lon="113.271457">
        <time>2026-06-28T08:59:35Z</time>
      </trkpt>
      <trkpt lat="23.073653" lon="113.271536">
        <time>2026-06-28T08:59:40Z</time>
      </trkpt>
      <trkpt lat="23.073752" lon="113.271611">
        <time>2026-06-28T08:59:45Z</time>
      </trkpt>
      <trkpt lat="23.073812" lon="113.271652">
        <time>2026-06-28T08:59:50Z</time>
      </trkpt>
      <trkpt lat="23.073872" lon="113.271679">
        <time>2026-06-28T08:59:55Z</time>
      </trkpt>
      <trkpt lat="23.073979" lon="113.271725">
        <time>2026-06-28T09:00:00Z</time>
      </trkpt>
      <trkpt lat="23.07405" lon="113.271764">
        <time>2026-06-28T09:00:05Z</time>
      </trkpt>
      <trkpt lat="23.074078" lon="113.271789">
        <time>2026-06-28T09:00:10Z</time>
      </trkpt>
      <trkpt lat="23.074069" lon="113.271833">
        <time>2026-06-28T09:00:15Z</time>
      </trkpt>
      <trkpt lat="23.074023" lon="113.271952">
        <time>2026-06-28T09:00:20Z</time>
      </trkpt>
      <trkpt lat="23.073969" lon="113.272071">
        <time>2026-06-28T09:00:25Z</time>
      </trkpt>
      <trkpt lat="23.073936" lon="113.27215">
        <time>2026-06-28T09:00:30Z</time>
      </trkpt>
      <trkpt lat="23.073902" lon="113.272234">
        <time>2026-06-28T09:00:35Z</time>
      </trkpt>
      <trkpt lat="23.073853" lon="113.272363">
        <time>2026-06-28T09:00:40Z</time>
      </trkpt>
      <trkpt lat="23.073816" lon="113.272506">
        <time>2026-06-28T09:00:45Z</time>
      </trkpt>
      <trkpt lat="23.073785" lon="113.272605">
        <time>2026-06-28T09:00:50Z</time>
      </trkpt>
      <trkpt lat="23.073752" lon="113.272697">
        <time>2026-06-28T09:00:55Z</time>
      </trkpt>
      <trkpt lat="23.073719" lon="113.272763">
        <time>2026-06-28T09:01:00Z</time>
      </trkpt>
      <trkpt lat="23.073672" lon="113.272832">
        <time>2026-06-28T09:01:05Z</time>
      </trkpt>
      <trkpt lat="23.073634" lon="113.272911">
        <time>2026-06-28T09:01:10Z</time>
      </trkpt>
      <trkpt lat="23.073616" lon="113.272996">
        <time>2026-06-28T09:01:15Z</time>
      </trkpt>
      <trkpt lat="23.073594" lon="113.273119">
        <time>2026-06-28T09:01:20Z</time>
      </trkpt>
      <trkpt lat="23.073557" lon="113.273226">
        <time>2026-06-28T09:01:25Z</time>
      </trkpt>
      <trkpt lat="23.073571" lon="113.273197">
        <time>2026-06-28T09:01:30Z</time>
      </trkpt>
      <trkpt lat="23.073608" lon="113.273124">
        <time>2026-06-28T09:01:35Z</time>
      </trkpt>
      <trkpt lat="23.073643" lon="113.273031">
        <time>2026-06-28T09:01:40Z</time>
      </trkpt>
      <trkpt lat="23.073694" lon="113.27293">
        <time>2026-06-28T09:01:45Z</time>
      </trkpt>
      <trkpt lat="23.073731" lon="113.272856">
        <time>2026-06-28T09:01:50Z</time>
      </trkpt>
      <trkpt lat="23.073762" lon="113.272784">
        <time>2026-06-28T09:01:55Z</time>
      </trkpt>
      <trkpt lat="23.073776" lon="113.272741">
        <time>2026-06-28T09:02:00Z</time>
      </trkpt>
      <trkpt lat="23.073715" lon="113.272871">
        <time>2026-06-28T09:02:05Z</time>
      </trkpt>
      <trkpt lat="23.073744" lon="113.272942">
        <time>2026-06-28T09:02:10Z</time>
      </trkpt>
      <trkpt lat="23.073815" lon="113.272973">
        <time>2026-06-28T09:02:15Z</time>
      </trkpt>
      <trkpt lat="23.073916" lon="113.273">
        <time>2026-06-28T09:02:20Z</time>
      </trkpt>
      <trkpt lat="23.074007" lon="113.272982">
        <time>2026-06-28T09:02:25Z</time>
      </trkpt>
      <trkpt lat="23.074037" lon="113.272905">
        <time>2026-06-28T09:02:30Z</time>
      </trkpt>
      <trkpt lat="23.074065" lon="113.272818">
        <time>2026-06-28T09:02:35Z</time>
      </trkpt>
      <trkpt lat="23.074104" lon="113.272686">
        <time>2026-06-28T09:02:40Z</time>
      </trkpt>
      <trkpt lat="23.074156" lon="113.272587">
        <time>2026-06-28T09:02:45Z</time>
      </trkpt>
      <trkpt lat="23.074198" lon="113.272516">
        <time>2026-06-28T09:02:50Z</time>
      </trkpt>
      <trkpt lat="23.074234" lon="113.272432">
        <time>2026-06-28T09:02:55Z</time>
      </trkpt>
      <trkpt lat="23.074285" lon="113.272329">
        <time>2026-06-28T09:03:00Z</time>
      </trkpt>
      <trkpt lat="23.074327" lon="113.272227">
        <time>2026-06-28T09:03:05Z</time>
      </trkpt>
      <trkpt lat="23.074371" lon="113.272167">
        <time>2026-06-28T09:03:10Z</time>
      </trkpt>
      <trkpt lat="23.07443" lon="113.272107">
        <time>2026-06-28T09:03:15Z</time>
      </trkpt>
      <trkpt lat="23.07452" lon="113.272026">
        <time>2026-06-28T09:03:20Z</time>
      </trkpt>
      <trkpt lat="23.074628" lon="113.272071">
        <time>2026-06-28T09:03:25Z</time>
      </trkpt>
      <trkpt lat="23.074702" lon="113.272113">
        <time>2026-06-28T09:03:30Z</time>
      </trkpt>
      <trkpt lat="23.074782" lon="113.272139">
        <time>2026-06-28T09:03:35Z</time>
      </trkpt>
      <trkpt lat="23.074898" lon="113.272174">
        <time>2026-06-28T09:03:40Z</time>
      </trkpt>
      <trkpt lat="23.074991" lon="113.272242">
        <time>2026-06-28T09:03:45Z</time>
      </trkpt>
      <trkpt lat="23.075053" lon="113.272286">
        <time>2026-06-28T09:03:50Z</time>
      </trkpt>
      <trkpt lat="23.075122" lon="113.27232">
        <time>2026-06-28T09:03:55Z</time>
      </trkpt>
      <trkpt lat="23.075204" lon="113.272346">
        <time>2026-06-28T09:04:00Z</time>
      </trkpt>
      <trkpt lat="23.0753" lon="113.272411">
        <time>2026-06-28T09:04:09Z</time>
      </trkpt>
    </trkseg>
  </trk>
</gpx>