<?xml version="1.0" encoding="UTF-8"?>
<gpx xmlns="http://www.topografix.com/GPX/1/1" xmlns:gpxtpx="http://www.garmin.com/xmlschemas/TrackPointExtension/v1" xmlns:xsi="http://www.w3.org/2001/XMLSchema-instance" xsi:schemaLocation="http://www.topografix.com/GPX/1/1 http://www.topografix.com/GPX/1/1/gpx.xsd" version="1.1" creator="gpx.py -- https://github.com/tkrajina/gpxpy">
  <trk>
    <name>gpx from joyrun</name>
    <trkseg>
      <trkpt lat="23.076066" lon="113.272856">
        <time>2026-06-29T21:39:10Z</time>
      </trkpt>
      <trkpt lat="23.076047" lon="113.272755">
        <time>2026-06-29T21:39:15Z</time>
      </trkpt>
      <trkpt lat="23.075985" lon="113.27266">
        <time>2026-06-29T21:39:20Z</time>
      </trkpt>
      <trkpt lat="23.075863" lon="113.272643">
        <time>2026-06-29T21:39:25Z</time>
      </trkpt>
      <trkpt lat="23.075723" lon="113.272638">
        <time>2026-06-29T21:39:30Z</time>
      </trkpt>
      <trkpt lat="23.075619" lon="113.272619">
        <time>2026-06-29T21:39:35Z</time>
      </trkpt>
      <trkpt lat="23.075474" lon="113.27258">
        <time>2026-06-29T21:39:40Z</time>
      </trkpt>
      <trkpt lat="23.075384" lon="113.27255">
        <time>2026-06-29T21:39:45Z</time>
      </trkpt>
      <trkpt lat="23.075235" lon="113.272504">
        <time>2026-06-29T21:39:50Z</time>
      </trkpt>
      <trkpt lat="23.075148" lon="113.272482">
        <time>2026-06-29T21:39:55Z</time>
      </trkpt>
      <trkpt lat="23.075068" lon="113.272414">
        <time>2026-06-29T21:40:00Z</time>
      </trkpt>
      <trkpt lat="23.074977" lon="113.272343">
        <time>2026-06-29T21:40:05Z</time>
      </trkpt>
      <trkpt lat="23.074846" lon="113.272242">
        <time>2026-06-29T21:40:10Z</time>
      </trkpt>
      <trkpt lat="23.07472" lon="113.272105">
        <time>2026-06-29T21:40:15Z</time>
      </trkpt>
      <trkpt lat="23.074617" lon="113.272059">
        <time>2026-06-29T21:40:20Z</time>
      </trkpt>
      <trkpt lat="23.074515" lon="113.272017">
        <time>2026-06-29T21:40:25Z</time>
      </trkpt>
      <trkpt lat="23.074411" lon="113.272012">
        <time>2026-06-29T21:40:30Z</time>
      </trkpt>
      <trkpt lat="23.074333" lon="113.272115">
        <time>2026-06-29T21:40:35Z</time>
      </trkpt>
      <trkpt lat="23.074282" lon="113.2722">
        <time>2026-06-29T21:40:40Z</time>
      </trkpt>
      <trkpt lat="23.074237" lon="113.272283">
        <time>2026-06-29T21:40:45Z</time>
      </trkpt>
      <trkpt lat="23.074173" lon="113.272416">
        <time>2026-06-29T21:40:50Z</time>
      </trkpt>
      <trkpt lat="23.07412" lon="113.272566">
        <time>2026-06-29T21:40:55Z</time>
      </trkpt>
      <trkpt lat="23.074086" lon="113.272667">
        <time>2026-06-29T21:41:00Z</time>
      </trkpt>
      <trkpt lat="23.074051" lon="113.272771">
        <time>2026-06-29T21:41:05Z</time>
      </trkpt>
      <trkpt lat="23.073985" lon="113.272905">
        <time>2026-06-29T21:41:10Z</time>
      </trkpt>
      <trkpt lat="23.073858" lon="113.272913">
        <time>2026-06-29T21:41:15Z</time>
      </trkpt>
      <trkpt lat="23.073775" lon="113.272856">
        <time>2026-06-29T21:41:20Z</time>
      </trkpt>
      <trkpt lat="23.073694" lon="113.272807">
        <time>2026-06-29T21:41:25Z</time>
      </trkpt>
      <trkpt lat="23.07368" lon="113.2727">
        <time>2026-06-29T21:41:30Z</time>
      </trkpt>
      <trkpt lat="23.073736" lon="113.272576">
        <time>2026-06-29T21:41:35Z</time>
      </trkpt>
      <trkpt lat="23.073769" lon="113.272503">
        <time>2026-06-29T21:41:40Z</time>
      </trkpt>
      <trkpt lat="23.073794" lon="113.272422">
        <time>2026-06-29T21:41:45Z</time>
      </trkpt>
      <trkpt lat="23.073852" lon="113.272293">
        <time>2026-06-29T21:41:50Z</time>
      </trkpt>
      <trkpt lat="23.073909" lon="113.272166">
        <time>2026-06-29T21:41:55Z</time>
      </trkpt>
      <trkpt lat="23.073956" lon="113.272086">
        <time>2026-06-29T21:42:00Z</time>
      </trkpt>
      <trkpt lat="23.074006" lon="113.272">
        <time>2026-06-29T21:42:05Z</time>
      </trkpt>
      <trkpt lat="23.074068" lon="113.271863">
        <time>2026-06-29T21:42:10Z</time>
      </trkpt>
      <trkpt lat="23.074059" lon="113.271737">
        <time>2026-06-29T21:42:15Z</time>
      </trkpt>
      <trkpt lat="23.073988" lon="113.271677">
        <time>2026-06-29T21:42:20Z</time>
      </trkpt>
      <trkpt lat="23.073921" lon="113.27162">
        <time>2026-06-29T21:42:25Z</time>
      </trkpt>
      <trkpt lat="23.073812" lon="113.271552">
        <time>2026-06-29T21:42:30Z</time>
      </trkpt>
      <trkpt lat="23.073679" lon="113.27151">
        <time>2026-06-29T21:42:35Z</time>
      </trkpt>
      <trkpt lat="23.073587" lon="113.271487">
        <time>2026-06-29T21:42:40Z</time>
      </trkpt>
      <trkpt lat="23.073492" lon="113.271451">
        <time>2026-06-29T21:42:45Z</time>
      </trkpt>
      <trkpt lat="23.073358" lon="113.271372">
        <time>2026-06-29T21:42:50Z</time>
      </trkpt>
      <trkpt lat="23.073234" lon="113.271261">
        <time>2026-06-29T21:42:55Z</time>
      </trkpt>
      <trkpt lat="23.073144" lon="113.271203">
        <time>2026-06-29T21:43:00Z</time>
      </trkpt>
      <trkpt lat="23.07305" lon="113.271144">
        <time>2026-06-29T21:43:05Z</time>
      </trkpt>
      <trkpt lat="23.072902" lon="113.271065">
        <time>2026-06-29T21:43:10Z</time>
      </trkpt>
      <trkpt lat="23.072743" lon="113.27099">
        <time>2026-06-29T21:43:15Z</time>
      </trkpt>
      <trkpt lat="23.072636" lon="113.270952">
        <time>2026-06-29T21:43:20Z</time>
      </trkpt>
      <trkpt lat="23.072529" lon="113.270912">
        <time>2026-06-29T21:43:25Z</time>
      </trkpt>
      <trkpt lat="23.072384" lon="113.270865">
        <time>2026-06-29T21:43:30Z</time>
      </trkpt>
      <trkpt lat="23.072232" lon="113.270817">
        <time>2026-06-29T21:43:35Z</time>
      </trkpt>
      <trkpt lat="23.07213" lon="113.270778">
        <time>2026-06-29T21:43:40Z</time>
      </trkpt>
      <trkpt lat="23.072038" lon="113.27073">
        <time>2026-06-29T21:43:45Z</time>
      </trkpt>
      <trkpt lat="23.071899" lon="113.270674">
        <time>2026-06-29T21:43:50Z</time>
      </trkpt>
      <trkpt lat="23.071757" lon="113.2706">
        <time>2026-06-29T21:43:55Z</time>
      </trkpt>
      <trkpt lat="23.071659" lon="113.270551">
        <time>2026-06-29T21:44:00Z</time>
      </trkpt>
      <trkpt lat="23.071564" lon="113.27051">
        <time>2026-06-29T21:44:05Z</time>
      </trkpt>
      <trkpt lat="23.071432" lon="113.27045">
        <time>2026-06-29T21:44:10Z</time>
      </trkpt>
      <trkpt lat="23.071303" lon="113.270397">
        <time>2026-06-29T21:44:15Z</time>
      </trkpt>
      <trkpt lat="23.071206" lon="113.270365">
        <time>2026-06-29T21:44:20Z</time>
      </trkpt>
      <trkpt lat="23.071108" lon="113.270329">
        <time>2026-06-29T21:44:25Z</time>
      </trkpt>
      <trkpt lat="23.07097" lon="113.270248">
        <time>2026-06-29T21:44:30Z</time>
      </trkpt>
      <trkpt lat="23.070838" lon="113.270181">
        <time>2026-06-29T21:44:35Z</time>
      </trkpt>
      <trkpt lat="23.070748" lon="113.270126">
        <time>2026-06-29T21:44:40Z</time>
      </trkpt>
      <trkpt lat="23.070656" lon="113.270068">
        <time>2026-06-29T21:44:45Z</time>
      </trkpt>
      <trkpt lat="23.070495" lon="113.269998">
        <time>2026-06-29T21:44:50Z</time>
      </trkpt>
      <trkpt lat="23.070345" lon="113.269935">
        <time>2026-06-29T21:44:55Z</time>
      </trkpt>
      <trkpt lat="23.070259" lon="113.269878">
        <time>2026-06-29T21:45:00Z</time>
      </trkpt>
      <trkpt lat="23.070178" lon="113.269815">
        <time>2026-06-29T21:45:05Z</time>
      </trkpt>
      <trkpt lat="23.07004" lon="113.269746">
        <time>2026-06-29T21:45:10Z</time>
      </trkpt>
      <trkpt lat="23.069902" lon="113.269654">
        <time>2026-06-29T21:45:15Z</time>
      </trkpt>
      <trkpt lat="23.069807" lon="113.269599">
        <time>2026-06-29T21:45:20Z</time>
      </trkpt>
      <trkpt lat="23.069713" lon="113.269565">
        <time>2026-06-29T21:45:25Z</time>
      </trkpt>
      <trkpt lat="23.069577" lon="113.269492">
        <time>2026-06-29T21:45:30Z</time>
      </trkpt>
      <trkpt lat="23.069454" lon="113.269415">
        <time>2026-06-29T21:45:35Z</time>
      </trkpt>
      <trkpt lat="23.06937" lon="113.269356">
        <time>2026-06-29T21:45:40Z</time>
      </trkpt>
      <trkpt lat="23.069279" lon="113.269277">
        <time>2026-06-29T21:45:45Z</time>
      </trkpt>
      <trkpt lat="23.069139" lon="113.269188">
        <time>2026-06-29T21:45:50Z</time>
      </trkpt>
      <trkpt lat="23.068993" lon="113.26915">
        <time>2026-06-29T21:45:55Z</time>
      </trkpt>
      <trkpt lat="23.068897" lon="113.26911">
        <time>2026-06-29T21:46:00Z</time>
      </trkpt>
      <trkpt lat="23.068804" lon="113.269059">
        <time>2026-06-29T21:46:05Z</time>
      </trkpt>
      <trkpt lat="23.068674" lon="113.269011">
        <time>2026-06-29T21:46:10Z</time>
      </trkpt>
      <trkpt lat="23.068539" lon="113.268989">
        <time>2026-06-29T21:46:15Z</time>
      </trkpt>
      <trkpt lat="23.068439" lon="113.268965">
        <time>2026-06-29T21:46:20Z</time>
      </trkpt>
      <trkpt lat="23.068332" lon="113.268936">
        <time>2026-06-29T21:46:25Z</time>
      </trkpt>
      <trkpt lat="23.068191" lon="113.268866">
        <time>2026-06-29T21:46:30Z</time>
      </trkpt>
      <trkpt lat="23.068069" lon="113.268761">
        <time>2026-06-29T21:46:35Z</time>
      </trkpt>
      <trkpt lat="23.067978" lon="113.268662">
        <time>2026-06-29T21:46:40Z</time>
      </trkpt>
      <trkpt lat="23.067871" lon="113.268585">
        <time>2026-06-29T21:46:45Z</time>
      </trkpt>
      <trkpt lat="23.067716" lon="113.2685">
        <time>2026-06-29T21:46:50Z</time>
      </trkpt>
      <trkpt lat="23.067565" lon="113.268409">
        <time>2026-06-29T21:46:55Z</time>
      </trkpt>
      <trkpt lat="23.067495" lon="113.268321">
        <time>2026-06-29T21:47:00Z</time>
      </trkpt>
      <trkpt lat="23.067422" lon="113.268242">
        <time>2026-06-29T21:47:05Z</time>
      </trkpt>
      <trkpt lat="23.067282" lon="113.268182">
        <time>2026-06-29T21:47:10Z</time>
      </trkpt>
      <trkpt lat="23.067144" lon="113.268124">
        <time>2026-06-29T21:47:15Z</time>
      </trkpt>
      <trkpt lat="23.067051" lon="113.268075">
        <time>2026-06-29T21:47:20Z</time>
      </trkpt>
      <trkpt lat="23.066957" lon="113.268031">
        <time>2026-06-29T21:47:25Z</time>
      </trkpt>
      <trkpt lat="23.0668" lon="113.268014">
        <time>2026-06-29T21:47:30Z</time>
      </trkpt>
      <trkpt lat="23.066638" lon="113.268005">
        <time>2026-06-29T21:47:35Z</time>
      </trkpt>
      <trkpt lat="23.066539" lon="113.267986">
        <time>2026-06-29T21:47:40Z</time>
      </trkpt>
      <trkpt lat="23.066436" lon="113.267965">
        <time>2026-06-29T21:47:45Z</time>
      </trkpt>
      <trkpt lat="23.066285" lon="113.26797">
        <time>2026-06-29T21:47:50Z</time>
      </trkpt>
      <trkpt lat="23.066158" lon="113.268057">
        <time>2026-06-29T21:47:55Z</time>
      </trkpt>
      <trkpt lat="23.066081" lon="113.268128">
        <time>2026-06-29T21:48:00Z</time>
      </trkpt>
      <trkpt lat="23.066012" lon="113.268205">
        <time>2026-06-29T21:48:05Z</time>
      </trkpt>
      <trkpt lat="23.065922" lon="113.268329">
        <time>2026-06-29T21:48:10Z</time>
      </trkpt>
      <trkpt lat="23.065845" lon="113.26846">
        <time>2026-06-29T21:48:15Z</time>
      </trkpt>
      <trkpt lat="23.065794" lon="113.268553">
        <time>2026-06-29T21:48:20Z</time>
      </trkpt>
      <trkpt lat="23.065744" lon="113.26865">
        <time>2026-06-29T21:48:25Z</time>
      </trkpt>
      <trkpt lat="23.065675" lon="113.268802">
        <time>2026-06-29T21:48:30Z</time>
      </trkpt>
      <trkpt lat="23.065621" lon="113.268958">
        <time>2026-06-29T21:48:35Z</time>
      </trkpt>
      <trkpt lat="23.065588" lon="113.269068">
        <time>2026-06-29T21:48:40Z</time>
      </trkpt>
      <trkpt lat="23.065561" lon="113.26918">
        <time>2026-06-29T21:48:45Z</time>
      </trkpt>
      <trkpt lat="23.065526" lon="113.269344">
        <time>2026-06-29T21:48:50Z</time>
      </trkpt>
      <trkpt lat="23.065487" lon="113.269512">
        <time>2026-06-29T21:48:55Z</time>
      </trkpt>
      <trkpt lat="23.065463" lon="113.269622">
        <time>2026-06-29T21:49:00Z</time>
      </trkpt>
      <trkpt lat="23.065435" lon="113.269729">
        <time>2026-06-29T21:49:05Z</time>
      </trkpt>
      <trkpt lat="23.065372" lon="113.269902">
        <time>2026-06-29T21:49:10Z</time>
      </trkpt>
      <trkpt lat="23.06531" lon="113.270066">
        <time>2026-06-29T21:49:15Z</time>
      </trkpt>
      <trkpt lat="23.065267" lon="113.270167">
        <time>2026-06-29T21:49:20Z</time>
      </trkpt>
      <trkpt lat="23.065222" lon="113.270267">
        <time>2026-06-29T21:49:25Z</time>
      </trkpt>
      <trkpt lat="23.06516" lon="113.270415">
        <time>2026-06-29T21:49:30Z</time>
      </trkpt>
      <trkpt lat="23.06509" lon="113.270561">
        <time>2026-06-29T21:49:35Z</time>
      </trkpt>
      <trkpt lat="23.065043" lon="113.270667">
        <time>2026-06-29T21:49:40Z</time>
      </trkpt>
      <trkpt lat="23.064995" lon="113.270772">
        <time>2026-06-29T21:49:45Z</time>
      </trkpt>
      <trkpt lat="23.064929" lon="113.270926">
        <time>2026-06-29T21:49:50Z</time>
      </trkpt>
      <trkpt lat="23.064865" lon="113.271077">
        <time>2026-06-29T21:49:55Z</time>
      </trkpt>
      <trkpt lat="23.064818" lon="113.271177">
        <time>2026-06-29T21:50:00Z</time>
      </trkpt>
      <trkpt lat="23.064776" lon="113.271272">
        <time>2026-06-29T21:50:05Z</time>
      </trkpt>
      <trkpt lat="23.064708" lon="113.271421">
        <time>2026-06-29T21:50:10Z</time>
      </trkpt>
      <trkpt lat="23.064636" lon="113.27157">
        <time>2026-06-29T21:50:15Z</time>
      </trkpt>
      <trkpt lat="23.064588" lon="113.271671">
        <time>2026-06-29T21:50:20Z</time>
      </trkpt>
      <trkpt lat="23.064541" lon="113.271775">
        <time>2026-06-29T21:50:25Z</time>
      </trkpt>
      <trkpt lat="23.064466" lon="113.271934">
        <time>2026-06-29T21:50:30Z</time>
      </trkpt>
      <trkpt lat="23.064391" lon="113.27209">
        <time>2026-06-29T21:50:35Z</time>
      </trkpt>
      <trkpt lat="23.064353" lon="113.272198">
        <time>2026-06-29T21:50:40Z</time>
      </trkpt>
      <trkpt lat="23.064336" lon="113.272311">
        <time>2026-06-29T21:50:45Z</time>
      </trkpt>
      <trkpt lat="23.064318" lon="113.272479">
        <time>2026-06-29T21:50:50Z</time>
      </trkpt>
      <trkpt lat="23.06433" lon="113.272641">
        <time>2026-06-29T21:50:55Z</time>
      </trkpt>
      <trkpt lat="23.064357" lon="113.27274">
        <time>2026-06-29T21:51:00Z</time>
      </trkpt>
      <trkpt lat="23.064389" lon="113.272843">
        <time>2026-06-29T21:51:05Z</time>
      </trkpt>
      <trkpt lat="23.064446" lon="113.273012">
        <time>2026-06-29T21:51:10Z</time>
      </trkpt>
      <trkpt lat="23.064461" lon="113.273178">
        <time>2026-06-29T21:51:15Z</time>
      </trkpt>
      <trkpt lat="23.064414" lon="113.273279">
        <time>2026-06-29T21:51:20Z</time>
      </trkpt>
      <trkpt lat="23.064334" lon="113.273355">
        <time>2026-06-29T21:51:25Z</time>
      </trkpt>
      <trkpt lat="23.064202" lon="113.27345">
        <time>2026-06-29T21:51:30Z</time>
      </trkpt>
      <trkpt lat="23.064068" lon="113.273543">
        <time>2026-06-29T21:51:35Z</time>
      </trkpt>
      <trkpt lat="23.063985" lon="113.273615">
        <time>2026-06-29T21:51:40Z</time>
      </trkpt>
      <trkpt lat="23.063913" lon="113.2737">
        <time>2026-06-29T21:51:45Z</time>
      </trkpt>
      <trkpt lat="23.063824" lon="113.273845">
        <time>2026-06-29T21:51:50Z</time>
      </trkpt>
      <trkpt lat="23.063743" lon="113.273993">
        <time>2026-06-29T21:51:55Z</time>
      </trkpt>
      <trkpt lat="23.063675" lon="113.274073">
        <time>2026-06-29T21:52:00Z</time>
      </trkpt>
      <trkpt lat="23.063597" lon="113.274141">
        <time>2026-06-29T21:52:05Z</time>
      </trkpt>
      <trkpt lat="23.063499" lon="113.274273">
        <time>2026-06-29T21:52:10Z</time>
      </trkpt>
      <trkpt lat="23.063441" lon="113.274425">
        <time>2026-06-29T21:52:15Z</time>
      </trkpt>
      <trkpt lat="23.063406" lon="113.274535">
        <time>2026-06-29T21:52:20Z</time>
      </trkpt>
      <trkpt lat="23.063367" lon="113.274643">
        <time>2026-06-29T21:52:25Z</time>
      </trkpt>
      <trkpt lat="23.063308" lon="113.274799">
        <time>2026-06-29T21:52:30Z</time>
      </trkpt>
      <trkpt lat="23.06325" lon="113.274958">
        <time>2026-06-29T21:52:35Z</time>
      </trkpt>
      <trkpt lat="23.063201" lon="113.275061">
        <time>2026-06-29T21:52:40Z</time>
      </trkpt>
      <trkpt lat="23.063145" lon="113.275162">
        <time>2026-06-29T21:52:45Z</time>
      </trkpt>
      <trkpt lat="23.063067" lon="113.275311">
        <time>2026-06-29T21:52:50Z</time>
      </trkpt>
      <trkpt lat="23.062984" lon="113.275451">
        <time>2026-06-29T21:52:55Z</time>
      </trkpt>
      <trkpt lat="23.062918" lon="113.275539">
        <time>2026-06-29T21:53:00Z</time>
      </trkpt>
      <trkpt lat="23.062845" lon="113.275619">
        <time>2026-06-29T21:53:05Z</time>
      </trkpt>
      <trkpt lat="23.062725" lon="113.275732">
        <time>2026-06-29T21:53:10Z</time>
      </trkpt>
      <trkpt lat="23.062617" lon="113.275852">
        <time>2026-06-29T21:53:15Z</time>
      </trkpt>
      <trkpt lat="23.062556" lon="113.275936">
        <time>2026-06-29T21:53:20Z</time>
      </trkpt>
      <trkpt lat="23.062499" lon="113.276027">
        <time>2026-06-29T21:53:25Z</time>
      </trkpt>
      <trkpt lat="23.062425" lon="113.276174">
        <time>2026-06-29T21:53:30Z</time>
      </trkpt>
      <trkpt lat="23.062374" lon="113.276325">
        <time>2026-06-29T21:53:35Z</time>
      </trkpt>
      <trkpt lat="23.062339" lon="113.276425">
        <time>2026-06-29T21:53:40Z</time>
      </trkpt>
      <trkpt lat="23.06229" lon="113.276522">
        <time>2026-06-29T21:53:45Z</time>
      </trkpt>
      <trkpt lat="23.062227" lon="113.276671">
        <time>2026-06-29T21:53:50Z</time>
      </trkpt>
      <trkpt lat="23.062183" lon="113.276823">
        <time>2026-06-29T21:53:55Z</time>
      </trkpt>
      <trkpt lat="23.062148" lon="113.276926">
        <time>2026-06-29T21:54:00Z</time>
      </trkpt>
      <trkpt lat="23.06211" lon="113.277031">
        <time>2026-06-29T21:54:05Z</time>
      </trkpt>
      <trkpt lat="23.062036" lon="113.277214">
        <time>2026-06-29T21:54:10Z</time>
      </trkpt>
      <trkpt lat="23.061964" lon="113.277393">
        <time>2026-06-29T21:54:15Z</time>
      </trkpt>
      <trkpt lat="23.061922" lon="113.27751">
        <time>2026-06-29T21:54:20Z</time>
      </trkpt>
      <trkpt lat="23.061885" lon="113.277631">
        <time>2026-06-29T21:54:25Z</time>
      </trkpt>
      <trkpt lat="23.061853" lon="113.277807">
        <time>2026-06-29T21:54:30Z</time>
      </trkpt>
      <trkpt lat="23.061833" lon="113.277985">
        <time>2026-06-29T21:54:35Z</time>
      </trkpt>
      <trkpt lat="23.061835" lon="113.278099">
        <time>2026-06-29T21:54:40Z</time>
      </trkpt>
      <trkpt lat="23.061841" lon="113.278208">
        <time>2026-06-29T21:54:45Z</time>
      </trkpt>
      <trkpt lat="23.061846" lon="113.278369">
        <time>2026-06-29T21:54:50Z</time>
      </trkpt>
      <trkpt lat="23.061851" lon="113.278525">
        <time>2026-06-29T21:54:55Z</time>
      </trkpt>
      <trkpt lat="23.061846" lon="113.278631">
        <time>2026-06-29T21:55:00Z</time>
      </trkpt>
      <trkpt lat="23.061819" lon="113.278718">
        <time>2026-06-29T21:55:05Z</time>
      </trkpt>
      <trkpt lat="23.06172" lon="113.278785">
        <time>2026-06-29T21:55:10Z</time>
      </trkpt>
      <trkpt lat="23.061669" lon="113.278928">
        <time>2026-06-29T21:55:15Z</time>
      </trkpt>
      <trkpt lat="23.061634" lon="113.279029">
        <time>2026-06-29T21:55:20Z</time>
      </trkpt>
      <trkpt lat="23.061595" lon="113.279133">
        <time>2026-06-29T21:55:25Z</time>
      </trkpt>
      <trkpt lat="23.061533" lon="113.279285">
        <time>2026-06-29T21:55:30Z</time>
      </trkpt>
      <trkpt lat="23.061466" lon="113.279439">
        <time>2026-06-29T21:55:35Z</time>
      </trkpt>
      <trkpt lat="23.06142" lon="113.279542">
        <time>2026-06-29T21:55:40Z</time>
      </trkpt>
      <trkpt lat="23.061375" lon="113.279642">
        <time>2026-06-29T21:55:45Z</time>
      </trkpt>
      <trkpt lat="23.061308" lon="113.279788">
        <time>2026-06-29T21:55:50Z</time>
      </trkpt>
      <trkpt lat="23.061237" lon="113.279943">
        <time>2026-06-29T21:55:55Z</time>
      </trkpt>
      <trkpt lat="23.061191" lon="113.280051">
        <time>2026-06-29T21:56:00Z</time>
      </trkpt>
      <trkpt lat="23.061153" lon="113.280161">
        <time>2026-06-29T21:56:05Z</time>
      </trkpt>
      <trkpt lat="23.061089" lon="113.280321">
        <time>2026-06-29T21:56:10Z</time>
      </trkpt>
      <trkpt lat="23.06102" lon="113.280478">
        <time>2026-06-29T21:56:15Z</time>
      </trkpt>
      <trkpt lat="23.060973" lon="113.280585">
        <time>2026-06-29T21:56:20Z</time>
      </trkpt>
      <trkpt lat="23.060922" lon="113.280692">
        <time>2026-06-29T21:56:25Z</time>
      </trkpt>
      <trkpt lat="23.060856" lon="113.280856">
        <time>2026-06-29T21:56:30Z</time>
      </trkpt>
      <trkpt lat="23.060785" lon="113.281013">
        <time>2026-06-29T21:56:35Z</time>
      </trkpt>
      <trkpt lat="23.060739" lon="113.281116">
        <time>2026-06-29T21:56:40Z</time>
      </trkpt>
      <trkpt lat="23.060696" lon="113.281219">
        <time>2026-06-29T21:56:45Z</time>
      </trkpt>
      <trkpt lat="23.060629" lon="113.281372">
        <time>2026-06-29T21:56:50Z</time>
      </trkpt>
      <trkpt lat="23.060564" lon="113.281531">
        <time>2026-06-29T21:56:55Z</time>
      </trkpt>
      <trkpt lat="23.060522" lon="113.281639">
        <time>2026-06-29T21:57:00Z</time>
      </trkpt>
      <trkpt lat="23.060477" lon="113.281746">
        <time>2026-06-29T21:57:05Z</time>
      </trkpt>
      <trkpt lat="23.060404" lon="113.281905">
        <time>2026-06-29T21:57:10Z</time>
      </trkpt>
      <trkpt lat="23.060347" lon="113.282072">
        <time>2026-06-29T21:57:15Z</time>
      </trkpt>
      <trkpt lat="23.060307" lon="113.282181">
        <time>2026-06-29T21:57:20Z</time>
      </trkpt>
      <trkpt lat="23.060266" lon="113.282288">
        <time>2026-06-29T21:57:25Z</time>
      </trkpt>
      <trkpt lat="23.060203" lon="113.282442">
        <time>2026-06-29T21:57:30Z</time>
      </trkpt>
      <trkpt lat="23.060139" lon="113.282593">
        <time>2026-06-29T21:57:35Z</time>
      </trkpt>
      <trkpt lat="23.060093" lon="113.2827">
        <time>2026-06-29T21:57:40Z</time>
      </trkpt>
      <trkpt lat="23.060046" lon="113.282809">
        <time>2026-06-29T21:57:45Z</time>
      </trkpt>
      <trkpt lat="23.059982" lon="113.282969">
        <time>2026-06-29T21:57:50Z</time>
      </trkpt>
      <trkpt lat="23.05991" lon="113.283122">
        <time>2026-06-29T21:57:55Z</time>
      </trkpt>
      <trkpt lat="23.059864" lon="113.283225">
        <time>2026-06-29T21:58:00Z</time>
      </trkpt>
      <trkpt lat="23.059813" lon="113.283327">
        <time>2026-06-29T21:58:05Z</time>
      </trkpt>
      <trkpt lat="23.059733" lon="113.283479">
        <time>2026-06-29T21:58:10Z</time>
      </trkpt>
      <trkpt lat="23.059648" lon="113.283631">
        <time>2026-06-29T21:58:15Z</time>
      </trkpt>
      <trkpt lat="23.0596" lon="113.283733">
        <time>2026-06-29T21:58:20Z</time>
      </trkpt>
      <trkpt lat="23.059561" lon="113.28384">
        <time>2026-06-29T21:58:25Z</time>
      </trkpt>
      <trkpt lat="23.059496" lon="113.283993">
        <time>2026-06-29T21:58:30Z</time>
      </trkpt>
      <trkpt lat="23.059406" lon="113.28413">
        <time>2026-06-29T21:58:35Z</time>
      </trkpt>
      <trkpt lat="23.059355" lon="113.284231">
        <time>2026-06-29T21:58:40Z</time>
      </trkpt>
      <trkpt lat="23.059314" lon="113.28434">
        <time>2026-06-29T21:58:45Z</time>
      </trkpt>
      <trkpt lat="23.059275" lon="113.284509">
        <time>2026-06-29T21:58:50Z</time>
      </trkpt>
      <trkpt lat="23.059256" lon="113.284669">
        <time>2026-06-29T21:58:55Z</time>
      </trkpt>
      <trkpt lat="23.059312" lon="113.284693">
        <time>2026-06-29T21:59:00Z</time>
      </trkpt>
      <trkpt lat="23.05938" lon="113.284603">
        <time>2026-06-29T21:59:05Z</time>
      </trkpt>
      <trkpt lat="23.059461" lon="113.28443">
        <time>2026-06-29T21:59:10Z</time>
      </trkpt>
      <trkpt lat="23.059542" lon="113.284259">
        <time>2026-06-29T21:59:15Z</time>
      </trkpt>
      <trkpt lat="23.059589" lon="113.28415">
        <time>2026-06-29T21:59:20Z</time>
      </trkpt>
      <trkpt lat="23.059635" lon="113.284036">
        <time>2026-06-29T21:59:25Z</time>
      </trkpt>
      <trkpt lat="23.059704" lon="113.283868">
        <time>2026-06-29T21:59:30Z</time>
      </trkpt>
      <trkpt lat="23.059773" lon="113.283709">
        <time>2026-06-29T21:59:35Z</time>
      </trkpt>
      <trkpt lat="23.059819" lon="113.283602">
        <time>2026-06-29T21:59:40Z</time>
      </trkpt>
      <trkpt lat="23.059876" lon="113.283498">
        <time>2026-06-29T21:59:45Z</time>
      </trkpt>
      <trkpt lat="23.059952" lon="113.283332">
        <time>2026-06-29T21:59:50Z</time>
      </trkpt>
      <trkpt lat="23.060048" lon="113.283188">
        <time>2026-06-29T21:59:55Z</time>
      </trkpt>
      <trkpt lat="23.060105" lon="113.283097">
        <time>2026-06-29T22:00:00Z</time>
      </trkpt>
      <trkpt lat="23.060155" lon="113.282999">
        <time>2026-06-29T22:00:05Z</time>
      </trkpt>
      <trkpt lat="23.060227" lon="113.28285">
        <time>2026-06-29T22:00:10Z</time>
      </trkpt>
      <trkpt lat="23.060298" lon="113.282694">
        <time>2026-06-29T22:00:15Z</time>
      </trkpt>
      <trkpt lat="23.06034" lon="113.282581">
        <time>2026-06-29T22:00:20Z</time>
      </trkpt>
      <trkpt lat="23.060382" lon="113.282466">
        <time>2026-06-29T22:00:25Z</time>
      </trkpt>
      <trkpt lat="23.060443" lon="113.282293">
        <time>2026-06-29T22:00:30Z</time>
      </trkpt>
      <trkpt lat="23.060509" lon="113.282125">
        <time>2026-06-29T22:00:35Z</time>
      </trkpt>
      <trkpt lat="23.060556" lon="113.282018">
        <time>2026-06-29T22:00:40Z</time>
      </trkpt>
      <trkpt lat="23.060601" lon="113.281911">
        <time>2026-06-29T22:00:45Z</time>
      </trkpt>
      <trkpt lat="23.060663" lon="113.281753">
        <time>2026-06-29T22:00:50Z</time>
      </trkpt>
      <trkpt lat="23.060713" lon="113.281597">
        <time>2026-06-29T22:00:55Z</time>
      </trkpt>
      <trkpt lat="23.060742" lon="113.281497">
        <time>2026-06-29T22:01:00Z</time>
      </trkpt>
      <trkpt lat="23.060779" lon="113.281398">
        <time>2026-06-29T22:01:05Z</time>
      </trkpt>
      <trkpt lat="23.060847" lon="113.281245">
        <time>2026-06-29T22:01:10Z</time>
      </trkpt>
      <trkpt lat="23.060916" lon="113.281093">
        <time>2026-06-29T22:01:15Z</time>
      </trkpt>
      <trkpt lat="23.060959" lon="113.280993">
        <time>2026-06-29T22:01:20Z</time>
      </trkpt>
      <trkpt lat="23.060995" lon="113.28089">
        <time>2026-06-29T22:01:25Z</time>
      </trkpt>
      <trkpt lat="23.061051" lon="113.280735">
        <time>2026-06-29T22:01:30Z</time>
      </trkpt>
      <trkpt lat="23.061128" lon="113.28057">
        <time>2026-06-29T22:01:35Z</time>
      </trkpt>
      <trkpt lat="23.061181" lon="113.280459">
        <time>2026-06-29T22:01:40Z</time>
      </trkpt>
      <trkpt lat="23.061232" lon="113.280353">
        <time>2026-06-29T22:01:45Z</time>
      </trkpt>
      <trkpt lat="23.061315" lon="113.280201">
        <time>2026-06-29T22:01:50Z</time>
      </trkpt>
      <trkpt lat="23.061397" lon="113.280056">
        <time>2026-06-29T22:01:55Z</time>
      </trkpt>
      <trkpt lat="23.061433" lon="113.279954">
        <time>2026-06-29T22:02:00Z</time>
      </trkpt>
      <trkpt lat="23.061469" lon="113.279851">
        <time>2026-06-29T22:02:05Z</time>
      </trkpt>
      <trkpt lat="23.061535" lon="113.279689">
        <time>2026-06-29T22:02:10Z</time>
      </trkpt>
      <trkpt lat="23.06161" lon="113.279525">
        <time>2026-06-29T22:02:15Z</time>
      </trkpt>
      <trkpt lat="23.061653" lon="113.279412">
        <time>2026-06-29T22:02:20Z</time>
      </trkpt>
      <trkpt lat="23.061694" lon="113.279301">
        <time>2026-06-29T22:02:25Z</time>
      </trkpt>
      <trkpt lat="23.061756" lon="113.279143">
        <time>2026-06-29T22:02:30Z</time>
      </trkpt>
      <trkpt lat="23.061831" lon="113.278997">
        <time>2026-06-29T22:02:35Z</time>
      </trkpt>
      <trkpt lat="23.06189" lon="113.278904">
        <time>2026-06-29T22:02:40Z</time>
      </trkpt>
      <trkpt lat="23.061944" lon="113.278804">
        <time>2026-06-29T22:02:45Z</time>
      </trkpt>
      <trkpt lat="23.061978" lon="113.278634">
        <time>2026-06-29T22:02:50Z</time>
      </trkpt>
      <trkpt lat="23.061977" lon="113.278453">
        <time>2026-06-29T22:02:55Z</time>
      </trkpt>
      <trkpt lat="23.061973" lon="113.27833">
        <time>2026-06-29T22:03:00Z</time>
      </trkpt>
      <trkpt lat="23.061969" lon="113.27821">
        <time>2026-06-29T22:03:05Z</time>
      </trkpt>
      <trkpt lat="23.061965" lon="113.278025">
        <time>2026-06-29T22:03:10Z</time>
      </trkpt>
      <trkpt lat="23.06196" lon="113.277831">
        <time>2026-06-29T22:03:15Z</time>
      </trkpt>
      <trkpt lat="23.061971" lon="113.277706">
        <time>2026-06-29T22:03:20Z</time>
      </trkpt>
      <trkpt lat="23.062" lon="113.277589">
        <time>2026-06-29T22:03:25Z</time>
      </trkpt>
      <trkpt lat="23.062057" lon="113.277423">
        <time>2026-06-29T22:03:30Z</time>
      </trkpt>
      <trkpt lat="23.062119" lon="113.277269">
        <time>2026-06-29T22:03:35Z</time>
      </trkpt>
      <trkpt lat="23.062162" lon="113.277163">
        <time>2026-06-29T22:03:40Z</time>
      </trkpt>
      <trkpt lat="23.062195" lon="113.277053">
        <time>2026-06-29T22:03:45Z</time>
      </trkpt>
      <trkpt lat="23.062256" lon="113.276893">
        <time>2026-06-29T22:03:50Z</time>
      </trkpt>
      <trkpt lat="23.062322" lon="113.276726">
        <time>2026-06-29T22:03:55Z</time>
      </trkpt>
      <trkpt lat="23.062364" lon="113.276614">
        <time>2026-06-29T22:04:00Z</time>
      </trkpt>
      <trkpt lat="23.062401" lon="113.276502">
        <time>2026-06-29T22:04:05Z</time>
      </trkpt>
      <trkpt lat="23.062464" lon="113.276337">
        <time>2026-06-29T22:04:10Z</time>
      </trkpt>
      <trkpt lat="23.062535" lon="113.276179">
        <time>2026-06-29T22:04:15Z</time>
      </trkpt>
      <trkpt lat="23.06259" lon="113.276073">
        <time>2026-06-29T22:04:20Z</time>
      </trkpt>
      <trkpt lat="23.062652" lon="113.275967">
        <time>2026-06-29T22:04:25Z</time>
      </trkpt>
      <trkpt lat="23.062761" lon="113.275826">
        <time>2026-06-29T22:04:30Z</time>
      </trkpt>
      <trkpt lat="23.062883" lon="113.275708">
        <time>2026-06-29T22:04:35Z</time>
      </trkpt>
      <trkpt lat="23.062964" lon="113.275627">
        <time>2026-06-29T22:04:40Z</time>
      </trkpt>
      <trkpt lat="23.063037" lon="113.275541">
        <time>2026-06-29T22:04:45Z</time>
      </trkpt>
      <trkpt lat="23.06313" lon="113.275409">
        <time>2026-06-29T22:04:50Z</time>
      </trkpt>
      <trkpt lat="23.063218" lon="113.275269">
        <time>2026-06-29T22:04:55Z</time>
      </trkpt>
      <trkpt lat="23.063279" lon="113.275173">
        <time>2026-06-29T22:05:00Z</time>
      </trkpt>
      <trkpt lat="23.06334" lon="113.27507">
        <time>2026-06-29T22:05:05Z</time>
      </trkpt>
      <trkpt lat="23.0634" lon="113.274911">
        <time>2026-06-29T22:05:10Z</time>
      </trkpt>
      <trkpt lat="23.063437" lon="113.274759">
        <time>2026-06-29T22:05:15Z</time>
      </trkpt>
      <trkpt lat="23.06347" lon="113.274662">
        <time>2026-06-29T22:05:20Z</time>
      </trkpt>
      <trkpt lat="23.063501" lon="113.274566">
        <time>2026-06-29T22:05:25Z</time>
      </trkpt>
      <trkpt lat="23.063546" lon="113.274435">
        <time>2026-06-29T22:05:30Z</time>
      </trkpt>
      <trkpt lat="23.063627" lon="113.27428">
        <time>2026-06-29T22:05:35Z</time>
      </trkpt>
      <trkpt lat="23.063705" lon="113.274204">
        <time>2026-06-29T22:05:40Z</time>
      </trkpt>
      <trkpt lat="23.063796" lon="113.274139">
        <time>2026-06-29T22:05:45Z</time>
      </trkpt>
      <trkpt lat="23.063899" lon="113.274005">
        <time>2026-06-29T22:05:50Z</time>
      </trkpt>
      <trkpt lat="23.063974" lon="113.273856">
        <time>2026-06-29T22:05:55Z</time>
      </trkpt>
      <trkpt lat="23.064032" lon="113.273763">
        <time>2026-06-29T22:06:00Z</time>
      </trkpt>
      <trkpt lat="23.064102" lon="113.273683">
        <time>2026-06-29T22:06:05Z</time>
      </trkpt>
      <trkpt lat="23.064226" lon="113.273584">
        <time>2026-06-29T22:06:10Z</time>
      </trkpt>
      <trkpt lat="23.064345" lon="113.273486">
        <time>2026-06-29T22:06:15Z</time>
      </trkpt>
      <trkpt lat="23.064427" lon="113.273416">
        <time>2026-06-29T22:06:20Z</time>
      </trkpt>
      <trkpt lat="23.064507" lon="113.273337">
        <time>2026-06-29T22:06:25Z</time>
      </trkpt>
      <trkpt lat="23.064578" lon="113.273175">
        <time>2026-06-29T22:06:30Z</time>
      </trkpt>
      <trkpt lat="23.064558" lon="113.27299">
        <time>2026-06-29T22:06:35Z</time>
      </trkpt>
      <trkpt lat="23.064513" lon="113.272874">
        <time>2026-06-29T22:06:40Z</time>
      </trkpt>
      <trkpt lat="23.064471" lon="113.272763">
        <time>2026-06-29T22:06:45Z</time>
      </trkpt>
      <trkpt lat="23.064435" lon="113.272593">
        <time>2026-06-29T22:06:50Z</time>
      </trkpt>
      <trkpt lat="23.064488" lon="113.272422">
        <time>2026-06-29T22:06:55Z</time>
      </trkpt>
      <trkpt lat="23.064536" lon="113.272308">
        <time>2026-06-29T22:07:00Z</time>
      </trkpt>
      <trkpt lat="23.06457" lon="113.272195">
        <time>2026-06-29T22:07:05Z</time>
      </trkpt>
      <trkpt lat="23.064637" lon="113.27204">
        <time>2026-06-29T22:07:10Z</time>
      </trkpt>
      <trkpt lat="23.064705" lon="113.271891">
        <time>2026-06-29T22:07:15Z</time>
      </trkpt>
      <trkpt lat="23.064751" lon="113.271792">
        <time>2026-06-29T22:07:20Z</time>
      </trkpt>
      <trkpt lat="23.064812" lon="113.271698">
        <time>2026-06-29T22:07:25Z</time>
      </trkpt>
      <trkpt lat="23.064902" lon="113.271549">
        <time>2026-06-29T22:07:30Z</time>
      </trkpt>
      <trkpt lat="23.064965" lon="113.271397">
        <time>2026-06-29T22:07:35Z</time>
      </trkpt>
      <trkpt lat="23.065002" lon="113.271294">
        <time>2026-06-29T22:07:40Z</time>
      </trkpt>
      <trkpt lat="23.065049" lon="113.271191">
        <time>2026-06-29T22:07:45Z</time>
      </trkpt>
      <trkpt lat="23.065127" lon="113.271039">
        <time>2026-06-29T22:07:50Z</time>
      </trkpt>
      <trkpt lat="23.065196" lon="113.270882">
        <time>2026-06-29T22:07:55Z</time>
      </trkpt>
      <trkpt lat="23.065239" lon="113.270778">
        <time>2026-06-29T22:08:00Z</time>
      </trkpt>
      <trkpt lat="23.065283" lon="113.27067">
        <time>2026-06-29T22:08:05Z</time>
      </trkpt>
      <trkpt lat="23.065353" lon="113.270515">
        <time>2026-06-29T22:08:10Z</time>
      </trkpt>
      <trkpt lat="23.065414" lon="113.270363">
        <time>2026-06-29T22:08:15Z</time>
      </trkpt>
      <trkpt lat="23.065461" lon="113.270258">
        <time>2026-06-29T22:08:20Z</time>
      </trkpt>
      <trkpt lat="23.065511" lon="113.27015">
        <time>2026-06-29T22:08:25Z</time>
      </trkpt>
      <trkpt lat="23.065565" lon="113.269987">
        <time>2026-06-29T22:08:30Z</time>
      </trkpt>
      <trkpt lat="23.065608" lon="113.269822">
        <time>2026-06-29T22:08:35Z</time>
      </trkpt>
      <trkpt lat="23.065641" lon="113.269713">
        <time>2026-06-29T22:08:40Z</time>
      </trkpt>
      <trkpt lat="23.065685" lon="113.269605">
        <time>2026-06-29T22:08:45Z</time>
      </trkpt>
      <trkpt lat="23.065731" lon="113.26943">
        <time>2026-06-29T22:08:50Z</time>
      </trkpt>
      <trkpt lat="23.065771" lon="113.269259">
        <time>2026-06-29T22:08:55Z</time>
      </trkpt>
      <trkpt lat="23.065805" lon="113.269147">
        <time>2026-06-29T22:09:00Z</time>
      </trkpt>
      <trkpt lat="23.065837" lon="113.269043">
        <time>2026-06-29T22:09:05Z</time>
      </trkpt>
      <trkpt lat="23.065904" lon="113.268894">
        <time>2026-06-29T22:09:10Z</time>
      </trkpt>
      <trkpt lat="23.065978" lon="113.268745">
        <time>2026-06-29T22:09:15Z</time>
      </trkpt>
      <trkpt lat="23.066028" lon="113.268644">
        <time>2026-06-29T22:09:20Z</time>
      </trkpt>
      <trkpt lat="23.066084" lon="113.268545">
        <time>2026-06-29T22:09:25Z</time>
      </trkpt>
      <trkpt lat="23.066179" lon="113.268402">
        <time>2026-06-29T22:09:30Z</time>
      </trkpt>
      <trkpt lat="23.066274" lon="113.268264">
        <time>2026-06-29T22:09:35Z</time>
      </trkpt>
      <trkpt lat="23.066349" lon="113.268187">
        <time>2026-06-29T22:09:40Z</time>
      </trkpt>
      <trkpt lat="23.066438" lon="113.268134">
        <time>2026-06-29T22:09:45Z</time>
      </trkpt>
      <trkpt lat="23.066593" lon="113.268123">
        <time>2026-06-29T22:09:50Z</time>
      </trkpt>
      <trkpt lat="23.066665" lon="113.268044">
        <time>2026-06-29T22:09:55Z</time>
      </trkpt>
      <trkpt lat="23.066575" lon="113.267973">
        <time>2026-06-29T22:10:00Z</time>
      </trkpt>
      <trkpt lat="23.066455" lon="113.267945">
        <time>2026-06-29T22:10:05Z</time>
      </trkpt>
      <trkpt lat="23.066298" lon="113.267963">
        <time>2026-06-29T22:10:10Z</time>
      </trkpt>
      <trkpt lat="23.066172" lon="113.268049">
        <time>2026-06-29T22:10:15Z</time>
      </trkpt>
      <trkpt lat="23.066094" lon="113.268125">
        <time>2026-06-29T22:10:20Z</time>
      </trkpt>
      <trkpt lat="23.066021" lon="113.26821">
        <time>2026-06-29T22:10:25Z</time>
      </trkpt>
      <trkpt lat="23.065924" lon="113.268339">
        <time>2026-06-29T22:10:30Z</time>
      </trkpt>
      <trkpt lat="23.065833" lon="113.268473">
        <time>2026-06-29T22:10:35Z</time>
      </trkpt>
      <trkpt lat="23.065776" lon="113.268569">
        <time>2026-06-29T22:10:40Z</time>
      </trkpt>
      <trkpt lat="23.065722" lon="113.268672">
        <time>2026-06-29T22:10:45Z</time>
      </trkpt>
      <trkpt lat="23.065657" lon="113.268831">
        <time>2026-06-29T22:10:50Z</time>
      </trkpt>
      <trkpt lat="23.065606" lon="113.268982">
        <time>2026-06-29T22:10:55Z</time>
      </trkpt>
      <trkpt lat="23.065575" lon="113.269084">
        <time>2026-06-29T22:11:00Z</time>
      </trkpt>
      <trkpt lat="23.065547" lon="113.269184">
        <time>2026-06-29T22:11:05Z</time>
      </trkpt>
      <trkpt lat="23.065511" lon="113.269338">
        <time>2026-06-29T22:11:10Z</time>
      </trkpt>
      <trkpt lat="23.065477" lon="113.2695">
        <time>2026-06-29T22:11:15Z</time>
      </trkpt>
      <trkpt lat="23.065456" lon="113.269608">
        <time>2026-06-29T22:11:20Z</time>
      </trkpt>
      <trkpt lat="23.065427" lon="113.269711">
        <time>2026-06-29T22:11:25Z</time>
      </trkpt>
      <trkpt lat="23.065372" lon="113.269864">
        <time>2026-06-29T22:11:30Z</time>
      </trkpt>
      <trkpt lat="23.065315" lon="113.270018">
        <time>2026-06-29T22:11:35Z</time>
      </trkpt>
      <trkpt lat="23.06527" lon="113.270116">
        <time>2026-06-29T22:11:40Z</time>
      </trkpt>
      <trkpt lat="23.065223" lon="113.270214">
        <time>2026-06-29T22:11:45Z</time>
      </trkpt>
      <trkpt lat="23.065163" lon="113.270363">
        <time>2026-06-29T22:11:50Z</time>
      </trkpt>
      <trkpt lat="23.065097" lon="113.270513">
        <time>2026-06-29T22:11:55Z</time>
      </trkpt>
      <trkpt lat="23.065054" lon="113.270612">
        <time>2026-06-29T22:12:00Z</time>
      </trkpt>
      <trkpt lat="23.065007" lon="113.270715">
        <time>2026-06-29T22:12:05Z</time>
      </trkpt>
      <trkpt lat="23.064941" lon="113.270868">
        <time>2026-06-29T22:12:10Z</time>
      </trkpt>
      <trkpt lat="23.064876" lon="113.271016">
        <time>2026-06-29T22:12:15Z</time>
      </trkpt>
      <trkpt lat="23.064826" lon="113.271112">
        <time>2026-06-29T22:12:20Z</time>
      </trkpt>
      <trkpt lat="23.064778" lon="113.271209">
        <time>2026-06-29T22:12:25Z</time>
      </trkpt>
      <trkpt lat="23.064714" lon="113.271362">
        <time>2026-06-29T22:12:30Z</time>
      </trkpt>
      <trkpt lat="23.064644" lon="113.271514">
        <time>2026-06-29T22:12:35Z</time>
      </trkpt>
      <trkpt lat="23.064601" lon="113.271615">
        <time>2026-06-29T22:12:40Z</time>
      </trkpt>
      <trkpt lat="23.064554" lon="113.271718">
        <time>2026-06-29T22:12:45Z</time>
      </trkpt>
      <trkpt lat="23.06449" lon="113.27188">
        <time>2026-06-29T22:12:50Z</time>
      </trkpt>
      <trkpt lat="23.064409" lon="113.272037">
        <time>2026-06-29T22:12:55Z</time>
      </trkpt>
      <trkpt lat="23.06436" lon="113.272136">
        <time>2026-06-29T22:13:00Z</time>
      </trkpt>
      <trkpt lat="23.064333" lon="113.272242">
        <time>2026-06-29T22:13:05Z</time>
      </trkpt>
      <trkpt lat="23.064323" lon="113.272402">
        <time>2026-06-29T22:13:10Z</time>
      </trkpt>
      <trkpt lat="23.064318" lon="113.272553">
        <time>2026-06-29T22:13:15Z</time>
      </trkpt>
      <trkpt lat="23.064331" lon="113.272652">
        <time>2026-06-29T22:13:20Z</time>
      </trkpt>
      <trkpt lat="23.064366" lon="113.272754">
        <time>2026-06-29T22:13:25Z</time>
      </trkpt>
      <trkpt lat="23.064423" lon="113.27291">
        <time>2026-06-29T22:13:30Z</time>
      </trkpt>
      <trkpt lat="23.064469" lon="113.273059">
        <time>2026-06-29T22:13:35Z</time>
      </trkpt>
      <trkpt lat="23.064477" lon="113.273161">
        <time>2026-06-29T22:13:40Z</time>
      </trkpt>
      <trkpt lat="23.064443" lon="113.273262">
        <time>2026-06-29T22:13:45Z</time>
      </trkpt>
      <trkpt lat="23.064324" lon="113.273374">
        <time>2026-06-29T22:13:50Z</time>
      </trkpt>
      <trkpt lat="23.064188" lon="113.273461">
        <time>2026-06-29T22:13:55Z</time>
      </trkpt>
      <trkpt lat="23.064102" lon="113.273525">
        <time>2026-06-29T22:14:00Z</time>
      </trkpt>
      <trkpt lat="23.064019" lon="113.273592">
        <time>2026-06-29T22:14:05Z</time>
      </trkpt>
      <trkpt lat="23.063907" lon="113.273714">
        <time>2026-06-29T22:14:10Z</time>
      </trkpt>
      <trkpt lat="23.063819" lon="113.273846">
        <time>2026-06-29T22:14:15Z</time>
      </trkpt>
      <trkpt lat="23.063766" lon="113.273939">
        <time>2026-06-29T22:14:20Z</time>
      </trkpt>
      <trkpt lat="23.063704" lon="113.274031">
        <time>2026-06-29T22:14:25Z</time>
      </trkpt>
      <trkpt lat="23.063589" lon="113.27414">
        <time>2026-06-29T22:14:30Z</time>
      </trkpt>
      <trkpt lat="23.063511" lon="113.274296">
        <time>2026-06-29T22:14:35Z</time>
      </trkpt>
      <trkpt lat="23.063466" lon="113.274406">
        <time>2026-06-29T22:14:40Z</time>
      </trkpt>
      <trkpt lat="23.063421" lon="113.274509">
        <time>2026-06-29T22:14:45Z</time>
      </trkpt>
      <trkpt lat="23.063361" lon="113.274662">
        <time>2026-06-29T22:14:50Z</time>
      </trkpt>
      <trkpt lat="23.063302" lon="113.27482">
        <time>2026-06-29T22:14:55Z</time>
      </trkpt>
      <trkpt lat="23.063261" lon="113.274929">
        <time>2026-06-29T22:15:00Z</time>
      </trkpt>
      <trkpt lat="23.063212" lon="113.275032">
        <time>2026-06-29T22:15:05Z</time>
      </trkpt>
      <trkpt lat="23.063124" lon="113.275184">
        <time>2026-06-29T22:15:10Z</time>
      </trkpt>
      <trkpt lat="23.06304" lon="113.275332">
        <time>2026-06-29T22:15:15Z</time>
      </trkpt>
      <trkpt lat="23.062983" lon="113.275428">
        <time>2026-06-29T22:15:20Z</time>
      </trkpt>
      <trkpt lat="23.062917" lon="113.275523">
        <time>2026-06-29T22:15:25Z</time>
      </trkpt>
      <trkpt lat="23.0628" lon="113.275648">
        <time>2026-06-29T22:15:30Z</time>
      </trkpt>
      <trkpt lat="23.062672" lon="113.275761">
        <time>2026-06-29T22:15:35Z</time>
      </trkpt>
      <trkpt lat="23.062593" lon="113.27585">
        <time>2026-06-29T22:15:40Z</time>
      </trkpt>
      <trkpt lat="23.062525" lon="113.275949">
        <time>2026-06-29T22:15:45Z</time>
      </trkpt>
      <trkpt lat="23.062441" lon="113.276098">
        <time>2026-06-29T22:15:50Z</time>
      </trkpt>
      <trkpt lat="23.062379" lon="113.276255">
        <time>2026-06-29T22:15:55Z</time>
      </trkpt>
      <trkpt lat="23.06235" lon="113.27636">
        <time>2026-06-29T22:16:00Z</time>
      </trkpt>
      <trkpt lat="23.062318" lon="113.276465">
        <time>2026-06-29T22:16:05Z</time>
      </trkpt>
      <trkpt lat="23.06226" lon="113.276619">
        <time>2026-06-29T22:16:10Z</time>
      </trkpt>
      <trkpt lat="23.062202" lon="113.276766">
        <time>2026-06-29T22:16:15Z</time>
      </trkpt>
      <trkpt lat="23.062162" lon="113.276871">
        <time>2026-06-29T22:16:20Z</time>
      </trkpt>
      <trkpt lat="23.062129" lon="113.276974">
        <time>2026-06-29T22:16:25Z</time>
      </trkpt>
      <trkpt lat="23.062072" lon="113.27713">
        <time>2026-06-29T22:16:30Z</time>
      </trkpt>
      <trkpt lat="23.062004" lon="113.277297">
        <time>2026-06-29T22:16:35Z</time>
      </trkpt>
      <trkpt lat="23.061959" lon="113.277405">
        <time>2026-06-29T22:16:40Z</time>
      </trkpt>
      <trkpt lat="23.061924" lon="113.277513">
        <time>2026-06-29T22:16:45Z</time>
      </trkpt>
      <trkpt lat="23.061877" lon="113.277684">
        <time>2026-06-29T22:16:50Z</time>
      </trkpt>
      <trkpt lat="23.061847" lon="113.277844">
        <time>2026-06-29T22:16:55Z</time>
      </trkpt>
      <trkpt lat="23.061847" lon="113.277952">
        <time>2026-06-29T22:17:00Z</time>
      </trkpt>
      <trkpt lat="23.061852" lon="113.278056">
        <time>2026-06-29T22:17:05Z</time>
      </trkpt>
      <trkpt lat="23.061858" lon="113.278214">
        <time>2026-06-29T22:17:10Z</time>
      </trkpt>
      <trkpt lat="23.061866" lon="113.278375">
        <time>2026-06-29T22:17:15Z</time>
      </trkpt>
      <trkpt lat="23.061872" lon="113.278481">
        <time>2026-06-29T22:17:20Z</time>
      </trkpt>
      <trkpt lat="23.061876" lon="113.278586">
        <time>2026-06-29T22:17:25Z</time>
      </trkpt>
      <trkpt lat="23.061847" lon="113.278737">
        <time>2026-06-29T22:17:30Z</time>
      </trkpt>
      <trkpt lat="23.061777" lon="113.278877">
        <time>2026-06-29T22:17:35Z</time>
      </trkpt>
      <trkpt lat="23.061722" lon="113.278971">
        <time>2026-06-29T22:17:40Z</time>
      </trkpt>
      <trkpt lat="23.061666" lon="113.279067">
        <time>2026-06-29T22:17:45Z</time>
      </trkpt>
      <trkpt lat="23.061597" lon="113.279212">
        <time>2026-06-29T22:17:50Z</time>
      </trkpt>
      <trkpt lat="23.061542" lon="113.279355">
        <time>2026-06-29T22:17:55Z</time>
      </trkpt>
      <trkpt lat="23.061506" lon="113.279446">
        <time>2026-06-29T22:18:00Z</time>
      </trkpt>
      <trkpt lat="23.061464" lon="113.279537">
        <time>2026-06-29T22:18:05Z</time>
      </trkpt>
      <trkpt lat="23.061398" lon="113.279681">
        <time>2026-06-29T22:18:10Z</time>
      </trkpt>
      <trkpt lat="23.061334" lon="113.27983">
        <time>2026-06-29T22:18:15Z</time>
      </trkpt>
      <trkpt lat="23.06129" lon="113.279932">
        <time>2026-06-29T22:18:20Z</time>
      </trkpt>
      <trkpt lat="23.061244" lon="113.280033">
        <time>2026-06-29T22:18:25Z</time>
      </trkpt>
      <trkpt lat="23.061183" lon="113.280185">
        <time>2026-06-29T22:18:30Z</time>
      </trkpt>
      <trkpt lat="23.061121" lon="113.280338">
        <time>2026-06-29T22:18:35Z</time>
      </trkpt>
      <trkpt lat="23.061076" lon="113.280442">
        <time>2026-06-29T22:18:40Z</time>
      </trkpt>
      <trkpt lat="23.061029" lon="113.280545">
        <time>2026-06-29T22:18:45Z</time>
      </trkpt>
      <trkpt lat="23.060957" lon="113.280708">
        <time>2026-06-29T22:18:50Z</time>
      </trkpt>
      <trkpt lat="23.060883" lon="113.280869">
        <time>2026-06-29T22:18:55Z</time>
      </trkpt>
      <trkpt lat="23.06084" lon="113.280971">
        <time>2026-06-29T22:19:00Z</time>
      </trkpt>
      <trkpt lat="23.060796" lon="113.28107">
        <time>2026-06-29T22:19:05Z</time>
      </trkpt>
      <trkpt lat="23.060736" lon="113.281221">
        <time>2026-06-29T22:19:10Z</time>
      </trkpt>
      <trkpt lat="23.060676" lon="113.28137">
        <time>2026-06-29T22:19:15Z</time>
      </trkpt>
      <trkpt lat="23.060634" lon="113.28147">
        <time>2026-06-29T22:19:20Z</time>
      </trkpt>
      <trkpt lat="23.060595" lon="113.281571">
        <time>2026-06-29T22:19:25Z</time>
      </trkpt>
      <trkpt lat="23.060531" lon="113.281721">
        <time>2026-06-29T22:19:30Z</time>
      </trkpt>
      <trkpt lat="23.060465" lon="113.281869">
        <time>2026-06-29T22:19:35Z</time>
      </trkpt>
      <trkpt lat="23.060424" lon="113.281968">
        <time>2026-06-29T22:19:40Z</time>
      </trkpt>
      <trkpt lat="23.060382" lon="113.28207">
        <time>2026-06-29T22:19:45Z</time>
      </trkpt>
      <trkpt lat="23.060313" lon="113.282228">
        <time>2026-06-29T22:19:50Z</time>
      </trkpt>
      <trkpt lat="23.060248" lon="113.282384">
        <time>2026-06-29T22:19:55Z</time>
      </trkpt>
      <trkpt lat="23.060207" lon="113.28248">
        <time>2026-06-29T22:20:00Z</time>
      </trkpt>
      <trkpt lat="23.060165" lon="113.282571">
        <time>2026-06-29T22:20:05Z</time>
      </trkpt>
      <trkpt lat="23.060104" lon="113.282715">
        <time>2026-06-29T22:20:10Z</time>
      </trkpt>
      <trkpt lat="23.060045" lon="113.282863">
        <time>2026-06-29T22:20:15Z</time>
      </trkpt>
      <trkpt lat="23.060007" lon="113.282964">
        <time>2026-06-29T22:20:20Z</time>
      </trkpt>
      <trkpt lat="23.05997" lon="113.28306">
        <time>2026-06-29T22:20:25Z</time>
      </trkpt>
      <trkpt lat="23.05991" lon="113.283201">
        <time>2026-06-29T22:20:30Z</time>
      </trkpt>
      <trkpt lat="23.059884" lon="113.283336">
        <time>2026-06-29T22:20:35Z</time>
      </trkpt>
      <trkpt lat="23.059955" lon="113.283334">
        <time>2026-06-29T22:20:40Z</time>
      </trkpt>
      <trkpt lat="23.060014" lon="113.28325">
        <time>2026-06-29T22:20:45Z</time>
      </trkpt>
      <trkpt lat="23.060084" lon="113.283097">
        <time>2026-06-29T22:20:50Z</time>
      </trkpt>
      <trkpt lat="23.060157" lon="113.282937">
        <time>2026-06-29T22:20:55Z</time>
      </trkpt>
      <trkpt lat="23.060199" lon="113.282833">
        <time>2026-06-29T22:21:00Z</time>
      </trkpt>
      <trkpt lat="23.060237" lon="113.282733">
        <time>2026-06-29T22:21:05Z</time>
      </trkpt>
      <trkpt lat="23.060298" lon="113.282592">
        <time>2026-06-29T22:21:10Z</time>
      </trkpt>
      <trkpt lat="23.060359" lon="113.282441">
        <time>2026-06-29T22:21:15Z</time>
      </trkpt>
      <trkpt lat="23.060402" lon="113.282345">
        <time>2026-06-29T22:21:20Z</time>
      </trkpt>
      <trkpt lat="23.06044" lon="113.282248">
        <time>2026-06-29T22:21:25Z</time>
      </trkpt>
      <trkpt lat="23.060491" lon="113.282104">
        <time>2026-06-29T22:21:30Z</time>
      </trkpt>
      <trkpt lat="23.06055" lon="113.281964">
        <time>2026-06-29T22:21:35Z</time>
      </trkpt>
      <trkpt lat="23.060594" lon="113.281859">
        <time>2026-06-29T22:21:40Z</time>
      </trkpt>
      <trkpt lat="23.060642" lon="113.28176">
        <time>2026-06-29T22:21:45Z</time>
      </trkpt>
      <trkpt lat="23.060695" lon="113.281616">
        <time>2026-06-29T22:21:50Z</time>
      </trkpt>
      <trkpt lat="23.060748" lon="113.281471">
        <time>2026-06-29T22:21:55Z</time>
      </trkpt>
      <trkpt lat="23.060794" lon="113.281377">
        <time>2026-06-29T22:22:00Z</time>
      </trkpt>
      <trkpt lat="23.060845" lon="113.281277">
        <time>2026-06-29T22:22:05Z</time>
      </trkpt>
      <trkpt lat="23.060907" lon="113.281118">
        <time>2026-06-29T22:22:10Z</time>
      </trkpt>
      <trkpt lat="23.060969" lon="113.280965">
        <time>2026-06-29T22:22:15Z</time>
      </trkpt>
      <trkpt lat="23.061015" lon="113.280868">
        <time>2026-06-29T22:22:20Z</time>
      </trkpt>
      <trkpt lat="23.061058" lon="113.280773">
        <time>2026-06-29T22:22:25Z</time>
      </trkpt>
      <trkpt lat="23.061128" lon="113.280623">
        <time>2026-06-29T22:22:30Z</time>
      </trkpt>
      <trkpt lat="23.061201" lon="113.280477">
        <time>2026-06-29T22:22:35Z</time>
      </trkpt>
      <trkpt lat="23.061242" lon="113.280378">
        <time>2026-06-29T22:22:40Z</time>
      </trkpt>
      <trkpt lat="23.061283" lon="113.280282">
        <time>2026-06-29T22:22:45Z</time>
      </trkpt>
      <trkpt lat="23.061357" lon="113.280144">
        <time>2026-06-29T22:22:50Z</time>
      </trkpt>
      <trkpt lat="23.061419" lon="113.279994">
        <time>2026-06-29T22:22:55Z</time>
      </trkpt>
      <trkpt lat="23.06146" lon="113.279894">
        <time>2026-06-29T22:23:00Z</time>
      </trkpt>
      <trkpt lat="23.061503" lon="113.279794">
        <time>2026-06-29T22:23:05Z</time>
      </trkpt>
      <trkpt lat="23.061568" lon="113.279643">
        <time>2026-06-29T22:23:10Z</time>
      </trkpt>
      <trkpt lat="23.061624" lon="113.279485">
        <time>2026-06-29T22:23:15Z</time>
      </trkpt>
      <trkpt lat="23.06166" lon="113.279382">
        <time>2026-06-29T22:23:20Z</time>
      </trkpt>
      <trkpt lat="23.061696" lon="113.279282">
        <time>2026-06-29T22:23:25Z</time>
      </trkpt>
      <trkpt lat="23.061758" lon="113.27914">
        <time>2026-06-29T22:23:30Z</time>
      </trkpt>
      <trkpt lat="23.061848" lon="113.27901">
        <time>2026-06-29T22:23:35Z</time>
      </trkpt>
      <trkpt lat="23.06191" lon="113.278919">
        <time>2026-06-29T22:23:40Z</time>
      </trkpt>
      <trkpt lat="23.061961" lon="113.278813">
        <time>2026-06-29T22:23:45Z</time>
      </trkpt>
      <trkpt lat="23.061992" lon="113.278639">
        <time>2026-06-29T22:23:50Z</time>
      </trkpt>
      <trkpt lat="23.061985" lon="113.27847">
        <time>2026-06-29T22:23:55Z</time>
      </trkpt>
      <trkpt lat="23.061979" lon="113.278359">
        <time>2026-06-29T22:24:00Z</time>
      </trkpt>
      <trkpt lat="23.061972" lon="113.278246">
        <time>2026-06-29T22:24:05Z</time>
      </trkpt>
      <trkpt lat="23.061959" lon="113.278079">
        <time>2026-06-29T22:24:10Z</time>
      </trkpt>
      <trkpt lat="23.061952" lon="113.27791">
        <time>2026-06-29T22:24:15Z</time>
      </trkpt>
      <trkpt lat="23.061957" lon="113.277795">
        <time>2026-06-29T22:24:20Z</time>
      </trkpt>
      <trkpt lat="23.061978" lon="113.277685">
        <time>2026-06-29T22:24:25Z</time>
      </trkpt>
      <trkpt lat="23.062032" lon="113.277528">
        <time>2026-06-29T22:24:30Z</time>
      </trkpt>
      <trkpt lat="23.062087" lon="113.277374">
        <time>2026-06-29T22:24:35Z</time>
      </trkpt>
      <trkpt lat="23.062122" lon="113.277273">
        <time>2026-06-29T22:24:40Z</time>
      </trkpt>
      <trkpt lat="23.062157" lon="113.277169">
        <time>2026-06-29T22:24:45Z</time>
      </trkpt>
      <trkpt lat="23.062217" lon="113.277016">
        <time>2026-06-29T22:24:50Z</time>
      </trkpt>
      <trkpt lat="23.06228" lon="113.276865">
        <time>2026-06-29T22:24:55Z</time>
      </trkpt>
      <trkpt lat="23.062317" lon="113.276763">
        <time>2026-06-29T22:25:00Z</time>
      </trkpt>
      <trkpt lat="23.062354" lon="113.276662">
        <time>2026-06-29T22:25:05Z</time>
      </trkpt>
      <trkpt lat="23.062409" lon="113.276507">
        <time>2026-06-29T22:25:10Z</time>
      </trkpt>
      <trkpt lat="23.062464" lon="113.27635">
        <time>2026-06-29T22:25:15Z</time>
      </trkpt>
      <trkpt lat="23.062504" lon="113.276242">
        <time>2026-06-29T22:25:20Z</time>
      </trkpt>
      <trkpt lat="23.062549" lon="113.276141">
        <time>2026-06-29T22:25:25Z</time>
      </trkpt>
      <trkpt lat="23.062634" lon="113.276">
        <time>2026-06-29T22:25:30Z</time>
      </trkpt>
      <trkpt lat="23.062734" lon="113.275866">
        <time>2026-06-29T22:25:35Z</time>
      </trkpt>
      <trkpt lat="23.06281" lon="113.275787">
        <time>2026-06-29T22:25:40Z</time>
      </trkpt>
      <trkpt lat="23.062888" lon="113.275712">
        <time>2026-06-29T22:25:45Z</time>
      </trkpt>
      <trkpt lat="23.063003" lon="113.27559">
        <time>2026-06-29T22:25:50Z</time>
      </trkpt>
      <trkpt lat="23.063099" lon="113.275456">
        <time>2026-06-29T22:25:55Z</time>
      </trkpt>
      <trkpt lat="23.063154" lon="113.27536">
        <time>2026-06-29T22:26:00Z</time>
      </trkpt>
      <trkpt lat="23.06321" lon="113.275261">
        <time>2026-06-29T22:26:05Z</time>
      </trkpt>
      <trkpt lat="23.063307" lon="113.27512">
        <time>2026-06-29T22:26:10Z</time>
      </trkpt>
      <trkpt lat="23.063384" lon="113.274978">
        <time>2026-06-29T22:26:15Z</time>
      </trkpt>
      <trkpt lat="23.063409" lon="113.274881">
        <time>2026-06-29T22:26:20Z</time>
      </trkpt>
      <trkpt lat="23.063435" lon="113.274786">
        <time>2026-06-29T22:26:25Z</time>
      </trkpt>
      <trkpt lat="23.063479" lon="113.274642">
        <time>2026-06-29T22:26:30Z</time>
      </trkpt>
      <trkpt lat="23.063518" lon="113.274502">
        <time>2026-06-29T22:26:35Z</time>
      </trkpt>
      <trkpt lat="23.063557" lon="113.274408">
        <time>2026-06-29T22:26:40Z</time>
      </trkpt>
      <trkpt lat="23.063609" lon="113.274311">
        <time>2026-06-29T22:26:45Z</time>
      </trkpt>
      <trkpt lat="23.063728" lon="113.274194">
        <time>2026-06-29T22:26:50Z</time>
      </trkpt>
      <trkpt lat="23.063841" lon="113.274079">
        <time>2026-06-29T22:26:55Z</time>
      </trkpt>
      <trkpt lat="23.063897" lon="113.273983">
        <time>2026-06-29T22:27:00Z</time>
      </trkpt>
      <trkpt lat="23.063954" lon="113.273888">
        <time>2026-06-29T22:27:05Z</time>
      </trkpt>
      <trkpt lat="23.064048" lon="113.273747">
        <time>2026-06-29T22:27:10Z</time>
      </trkpt>
      <trkpt lat="23.064159" lon="113.27364">
        <time>2026-06-29T22:27:15Z</time>
      </trkpt>
      <trkpt lat="23.06424" lon="113.273578">
        <time>2026-06-29T22:27:20Z</time>
      </trkpt>
      <trkpt lat="23.06432" lon="113.273516">
        <time>2026-06-29T22:27:25Z</time>
      </trkpt>
      <trkpt lat="23.064437" lon="113.273418">
        <time>2026-06-29T22:27:30Z</time>
      </trkpt>
      <trkpt lat="23.064541" lon="113.273294">
        <time>2026-06-29T22:27:35Z</time>
      </trkpt>
      <trkpt lat="23.064582" lon="113.273186">
        <time>2026-06-29T22:27:40Z</time>
      </trkpt>
      <trkpt lat="23.064587" lon="113.273067">
        <time>2026-06-29T22:27:45Z</time>
      </trkpt>
      <trkpt lat="23.064533" lon="113.272898">
        <time>2026-06-29T22:27:50Z</time>
      </trkpt>
      <trkpt lat="23.064471" lon="113.272728">
        <time>2026-06-29T22:27:55Z</time>
      </trkpt>
      <trkpt lat="23.064443" lon="113.272612">
        <time>2026-06-29T22:28:00Z</time>
      </trkpt>
      <trkpt lat="23.064456" lon="113.272497">
        <time>2026-06-29T22:28:05Z</time>
      </trkpt>
      <trkpt lat="23.064533" lon="113.272334">
        <time>2026-06-29T22:28:10Z</time>
      </trkpt>
      <trkpt lat="23.064589" lon="113.272169">
        <time>2026-06-29T22:28:15Z</time>
      </trkpt>
      <trkpt lat="23.064627" lon="113.272065">
        <time>2026-06-29T22:28:20Z</time>
      </trkpt>
      <trkpt lat="23.064676" lon="113.271968">
        <time>2026-06-29T22:28:25Z</time>
      </trkpt>
      <trkpt lat="23.064745" lon="113.271817">
        <time>2026-06-29T22:28:30Z</time>
      </trkpt>
      <trkpt lat="23.064816" lon="113.271668">
        <time>2026-06-29T22:28:35Z</time>
      </trkpt>
      <trkpt lat="23.064862" lon="113.271565">
        <time>2026-06-29T22:28:40Z</time>
      </trkpt>
      <trkpt lat="23.064912" lon="113.271463">
        <time>2026-06-29T22:28:45Z</time>
      </trkpt>
      <trkpt lat="23.064985" lon="113.27131">
        <time>2026-06-29T22:28:50Z</time>
      </trkpt>
      <trkpt lat="23.065059" lon="113.271168">
        <time>2026-06-29T22:28:55Z</time>
      </trkpt>
      <trkpt lat="23.065109" lon="113.27107">
        <time>2026-06-29T22:29:00Z</time>
      </trkpt>
      <trkpt lat="23.065155" lon="113.270967">
        <time>2026-06-29T22:29:05Z</time>
      </trkpt>
      <trkpt lat="23.065222" lon="113.270808">
        <time>2026-06-29T22:29:10Z</time>
      </trkpt>
      <trkpt lat="23.065292" lon="113.270654">
        <time>2026-06-29T22:29:15Z</time>
      </trkpt>
      <trkpt lat="23.065341" lon="113.270556">
        <time>2026-06-29T22:29:20Z</time>
      </trkpt>
      <trkpt lat="23.065388" lon="113.270455">
        <time>2026-06-29T22:29:25Z</time>
      </trkpt>
      <trkpt lat="23.065457" lon="113.270306">
        <time>2026-06-29T22:29:30Z</time>
      </trkpt>
      <trkpt lat="23.065525" lon="113.270159">
        <time>2026-06-29T22:29:35Z</time>
      </trkpt>
      <trkpt lat="23.065552" lon="113.270055">
        <time>2026-06-29T22:29:40Z</time>
      </trkpt>
      <trkpt lat="23.065581" lon="113.269953">
        <time>2026-06-29T22:29:45Z</time>
      </trkpt>
      <trkpt lat="23.065627" lon="113.269795">
        <time>2026-06-29T22:29:50Z</time>
      </trkpt>
      <trkpt lat="23.06567" lon="113.269639">
        <time>2026-06-29T22:29:55Z</time>
      </trkpt>
      <trkpt lat="23.065705" lon="113.269535">
        <time>2026-06-29T22:30:00Z</time>
      </trkpt>
      <trkpt lat="23.06574" lon="113.269434">
        <time>2026-06-29T22:30:05Z</time>
      </trkpt>
      <trkpt lat="23.065779" lon="113.269274">
        <time>2026-06-29T22:30:10Z</time>
      </trkpt>
      <trkpt lat="23.065818" lon="113.26912">
        <time>2026-06-29T22:30:15Z</time>
      </trkpt>
      <trkpt lat="23.065848" lon="113.269021">
        <time>2026-06-29T22:30:20Z</time>
      </trkpt>
      <trkpt lat="23.065888" lon="113.268926">
        <time>2026-06-29T22:30:25Z</time>
      </trkpt>
      <trkpt lat="23.06595" lon="113.26878">
        <time>2026-06-29T22:30:30Z</time>
      </trkpt>
      <trkpt lat="23.066014" lon="113.268632">
        <time>2026-06-29T22:30:35Z</time>
      </trkpt>
      <trkpt lat="23.066066" lon="113.268537">
        <time>2026-06-29T22:30:40Z</time>
      </trkpt>
      <trkpt lat="23.066128" lon="113.268449">
        <time>2026-06-29T22:30:45Z</time>
      </trkpt>
      <trkpt lat="23.066227" lon="113.268323">
        <time>2026-06-29T22:30:50Z</time>
      </trkpt>
      <trkpt lat="23.066326" lon="113.268208">
        <time>2026-06-29T22:30:55Z</time>
      </trkpt>
      <trkpt lat="23.066411" lon="113.26815">
        <time>2026-06-29T22:31:00Z</time>
      </trkpt>
      <trkpt lat="23.066513" lon="113.268125">
        <time>2026-06-29T22:31:05Z</time>
      </trkpt>
      <trkpt lat="23.066672" lon="113.26814">
        <time>2026-06-29T22:31:10Z</time>
      </trkpt>
      <trkpt lat="23.066825" lon="113.268145">
        <time>2026-06-29T22:31:15Z</time>
      </trkpt>
      <trkpt lat="23.066927" lon="113.268157">
        <time>2026-06-29T22:31:20Z</time>
      </trkpt>
      <trkpt lat="23.067023" lon="113.268182">
        <time>2026-06-29T22:31:25Z</time>
      </trkpt>
      <trkpt lat="23.067157" lon="113.268234">
        <time>2026-06-29T22:31:30Z</time>
      </trkpt>
      <trkpt lat="23.067285" lon="113.268311">
        <time>2026-06-29T22:31:35Z</time>
      </trkpt>
      <trkpt lat="23.067359" lon="113.268364">
        <time>2026-06-29T22:31:40Z</time>
      </trkpt>
      <trkpt lat="23.067437" lon="113.268418">
        <time>2026-06-29T22:31:45Z</time>
      </trkpt>
      <trkpt lat="23.067573" lon="113.268505">
        <time>2026-06-29T22:31:50Z</time>
      </trkpt>
      <trkpt lat="23.067727" lon="113.268576">
        <time>2026-06-29T22:31:55Z</time>
      </trkpt>
      <trkpt lat="23.067832" lon="113.268622">
        <time>2026-06-29T22:32:00Z</time>
      </trkpt>
      <trkpt lat="23.067933" lon="113.268673">
        <time>2026-06-29T22:32:05Z</time>
      </trkpt>
      <trkpt lat="23.06808" lon="113.268722">
        <time>2026-06-29T22:32:10Z</time>
      </trkpt>
      <trkpt lat="23.068209" lon="113.268799">
        <time>2026-06-29T22:32:15Z</time>
      </trkpt>
      <trkpt lat="23.068303" lon="113.268844">
        <time>2026-06-29T22:32:20Z</time>
      </trkpt>
      <trkpt lat="23.068394" lon="113.268885">
        <time>2026-06-29T22:32:25Z</time>
      </trkpt>
      <trkpt lat="23.068523" lon="113.268954">
        <time>2026-06-29T22:32:30Z</time>
      </trkpt>
      <trkpt lat="23.068669" lon="113.269019">
        <time>2026-06-29T22:32:35Z</time>
      </trkpt>
      <trkpt lat="23.068764" lon="113.269057">
        <time>2026-06-29T22:32:40Z</time>
      </trkpt>
      <trkpt lat="23.068863" lon="113.269088">
        <time>2026-06-29T22:32:45Z</time>
      </trkpt>
      <trkpt lat="23.069013" lon="113.269159">
        <time>2026-06-29T22:32:50Z</time>
      </trkpt>
      <trkpt lat="23.069155" lon="113.269259">
        <time>2026-06-29T22:32:55Z</time>
      </trkpt>
      <trkpt lat="23.069249" lon="113.269303">
        <time>2026-06-29T22:33:00Z</time>
      </trkpt>
      <trkpt lat="23.069329" lon="113.269366">
        <time>2026-06-29T22:33:05Z</time>
      </trkpt>
      <trkpt lat="23.069464" lon="113.269447">
        <time>2026-06-29T22:33:10Z</time>
      </trkpt>
      <trkpt lat="23.069603" lon="113.269515">
        <time>2026-06-29T22:33:15Z</time>
      </trkpt>
      <trkpt lat="23.069701" lon="113.269556">
        <time>2026-06-29T22:33:20Z</time>
      </trkpt>
      <trkpt lat="23.069793" lon="113.269615">
        <time>2026-06-29T22:33:25Z</time>
      </trkpt>
      <trkpt lat="23.069915" lon="113.269713">
        <time>2026-06-29T22:33:30Z</time>
      </trkpt>
      <trkpt lat="23.070049" lon="113.269797">
        <time>2026-06-29T22:33:35Z</time>
      </trkpt>
      <trkpt lat="23.070141" lon="113.269839">
        <time>2026-06-29T22:33:40Z</time>
      </trkpt>
      <trkpt lat="23.070235" lon="113.269879">
        <time>2026-06-29T22:33:45Z</time>
      </trkpt>
      <trkpt lat="23.070374" lon="113.269915">
        <time>2026-06-29T22:33:50Z</time>
      </trkpt>
      <trkpt lat="23.070518" lon="113.269961">
        <time>2026-06-29T22:33:55Z</time>
      </trkpt>
      <trkpt lat="23.070606" lon="113.269997">
        <time>2026-06-29T22:34:00Z</time>
      </trkpt>
      <trkpt lat="23.070688" lon="113.270032">
        <time>2026-06-29T22:34:05Z</time>
      </trkpt>
      <trkpt lat="23.070821" lon="113.270079">
        <time>2026-06-29T22:34:10Z</time>
      </trkpt>
      <trkpt lat="23.070948" lon="113.27014">
        <time>2026-06-29T22:34:15Z</time>
      </trkpt>
      <trkpt lat="23.071032" lon="113.270182">
        <time>2026-06-29T22:34:20Z</time>
      </trkpt>
      <trkpt lat="23.071116" lon="113.270218">
        <time>2026-06-29T22:34:25Z</time>
      </trkpt>
      <trkpt lat="23.071245" lon="113.270292">
        <time>2026-06-29T22:34:30Z</time>
      </trkpt>
      <trkpt lat="23.071369" lon="113.270366">
        <time>2026-06-29T22:34:35Z</time>
      </trkpt>
      <trkpt lat="23.071457" lon="113.270414">
        <time>2026-06-29T22:34:40Z</time>
      </trkpt>
      <trkpt lat="23.071544" lon="113.270454">
        <time>2026-06-29T22:34:45Z</time>
      </trkpt>
      <trkpt lat="23.071667" lon="113.270508">
        <time>2026-06-29T22:34:50Z</time>
      </trkpt>
      <trkpt lat="23.0718" lon="113.270603">
        <time>2026-06-29T22:34:55Z</time>
      </trkpt>
      <trkpt lat="23.071899" lon="113.270665">
        <time>2026-06-29T22:35:00Z</time>
      </trkpt>
      <trkpt lat="23.071999" lon="113.27069">
        <time>2026-06-29T22:35:05Z</time>
      </trkpt>
      <trkpt lat="23.072118" lon="113.270716">
        <time>2026-06-29T22:35:10Z</time>
      </trkpt>
      <trkpt lat="23.072231" lon="113.270802">
        <time>2026-06-29T22:35:15Z</time>
      </trkpt>
      <trkpt lat="23.072317" lon="113.270852">
        <time>2026-06-29T22:35:20Z</time>
      </trkpt>
      <trkpt lat="23.072407" lon="113.270897">
        <time>2026-06-29T22:35:25Z</time>
      </trkpt>
      <trkpt lat="23.07255" lon="113.270963">
        <time>2026-06-29T22:35:30Z</time>
      </trkpt>
      <trkpt lat="23.072681" lon="113.271039">
        <time>2026-06-29T22:35:35Z</time>
      </trkpt>
      <trkpt lat="23.072764" lon="113.271081">
        <time>2026-06-29T22:35:40Z</time>
      </trkpt>
      <trkpt lat="23.072851" lon="113.271101">
        <time>2026-06-29T22:35:45Z</time>
      </trkpt>
      <trkpt lat="23.072972" lon="113.271149">
        <time>2026-06-29T22:35:50Z</time>
      </trkpt>
      <trkpt lat="23.073112" lon="113.2712">
        <time>2026-06-29T22:35:55Z</time>
      </trkpt>
      <trkpt lat="23.073188" lon="113.271244">
        <time>2026-06-29T22:36:00Z</time>
      </trkpt>
      <trkpt lat="23.073256" lon="113.271302">
        <time>2026-06-29T22:36:05Z</time>
      </trkpt>
      <trkpt lat="23.07338" lon="113.271384">
        <time>2026-06-29T22:36:10Z</time>
      </trkpt>
      <trkpt lat="23.07351" lon="113.271465">
        <time>2026-06-29T22:36:15Z</time>
      </trkpt>
      <trkpt lat="23.073593" lon="113.271517">
        <time>2026-06-29T22:36:20Z</time>
      </trkpt>
      <trkpt lat="23.073672" lon="113.271563">
        <time>2026-06-29T22:36:25Z</time>
      </trkpt>
      <trkpt lat="23.073786" lon="113.271627">
        <time>2026-06-29T22:36:30Z</time>
      </trkpt>
      <trkpt lat="23.073901" lon="113.271694">
        <time>2026-06-29T22:36:35Z</time>
      </trkpt>
      <trkpt lat="23.073961" lon="113.271752">
        <time>2026-06-29T22:36:40Z</time>
      </trkpt>
      <trkpt lat="23.073951" lon="113.271818">
        <time>2026-06-29T22:36:45Z</time>
      </trkpt>
      <trkpt lat="23.073888" lon="113.271907">
        <time>2026-06-29T22:36:50Z</time>
      </trkpt>
      <trkpt lat="23.073882" lon="113.271983">
        <time>2026-06-29T22:36:55Z</time>
      </trkpt>
      <trkpt lat="23.073887" lon="113.272027">
        <time>2026-06-29T22:37:00Z</time>
      </trkpt>
      <trkpt lat="23.073909" lon="113.272085">
        <time>2026-06-29T22:37:05Z</time>
      </trkpt>
      <trkpt lat="23.074037" lon="113.272175">
        <time>2026-06-29T22:37:10Z</time>
      </trkpt>
      <trkpt lat="23.074181" lon="113.272233">
        <time>2026-06-29T22:37:15Z</time>
      </trkpt>
      <trkpt lat="23.07427" lon="113.272268">
        <time>2026-06-29T22:37:20Z</time>
      </trkpt>
      <trkpt lat="23.074338" lon="113.272275">
        <time>2026-06-29T22:37:25Z</time>
      </trkpt>
      <trkpt lat="23.074378" lon="113.272204">
        <time>2026-06-29T22:37:30Z</time>
      </trkpt>
      <trkpt lat="23.074413" lon="113.272127">
        <time>2026-06-29T22:37:35Z</time>
      </trkpt>
      <trkpt lat="23.074453" lon="113.272071">
        <time>2026-06-29T22:37:40Z</time>
      </trkpt>
      <trkpt lat="23.074506" lon="113.272023">
        <time>2026-06-29T22:37:51Z</time>
      </trkpt>
    </trkseg>
  </trk>
</gpx>