<?xml version="1.0" encoding="UTF-8"?>
<gpx xmlns="http://www.topografix.com/GPX/1/1" xmlns:gpxtpx="http://www.garmin.com/xmlschemas/TrackPointExtension/v1" xmlns:xsi="http://www.w3.org/2001/XMLSchema-instance" xsi:schemaLocation="http://www.topografix.com/GPX/1/1 http://www.topografix.com/GPX/1/1/gpx.xsd" version="1.1" creator="gpx.py -- https://github.com/tkrajina/gpxpy">
  <trk>
    <name>gpx from joyrun</name>
    <trkseg>
      <trkpt lat="23.07607" lon="113.272853">
        <time>2026-07-01T21:49:01Z</time>
      </trkpt>
      <trkpt lat="23.076071" lon="113.272833">
        <time>2026-07-01T21:49:06Z</time>
      </trkpt>
      <trkpt lat="23.076032" lon="113.272703">
        <time>2026-07-01T21:49:11Z</time>
      </trkpt>
      <trkpt lat="23.075953" lon="113.272655">
        <time>2026-07-01T21:49:16Z</time>
      </trkpt>
      <trkpt lat="23.075863" lon="113.272618">
        <time>2026-07-01T21:49:21Z</time>
      </trkpt>
      <trkpt lat="23.075733" lon="113.27256">
        <time>2026-07-01T21:49:26Z</time>
      </trkpt>
      <trkpt lat="23.0756" lon="113.272504">
        <time>2026-07-01T21:49:31Z</time>
      </trkpt>
      <trkpt lat="23.075499" lon="113.272488">
        <time>2026-07-01T21:49:36Z</time>
      </trkpt>
      <trkpt lat="23.075407" lon="113.272466">
        <time>2026-07-01T21:49:41Z</time>
      </trkpt>
      <trkpt lat="23.075279" lon="113.272422">
        <time>2026-07-01T21:49:46Z</time>
      </trkpt>
      <trkpt lat="23.075159" lon="113.272373">
        <time>2026-07-01T21:49:51Z</time>
      </trkpt>
      <trkpt lat="23.075087" lon="113.272321">
        <time>2026-07-01T21:49:56Z</time>
      </trkpt>
      <trkpt lat="23.075007" lon="113.272265">
        <time>2026-07-01T21:50:01Z</time>
      </trkpt>
      <trkpt lat="23.074884" lon="113.272183">
        <time>2026-07-01T21:50:06Z</time>
      </trkpt>
      <trkpt lat="23.074753" lon="113.272101">
        <time>2026-07-01T21:50:11Z</time>
      </trkpt>
      <trkpt lat="23.074665" lon="113.272043">
        <time>2026-07-01T21:50:16Z</time>
      </trkpt>
      <trkpt lat="23.074577" lon="113.271997">
        <time>2026-07-01T21:50:21Z</time>
      </trkpt>
      <trkpt lat="23.074459" lon="113.271976">
        <time>2026-07-01T21:50:26Z</time>
      </trkpt>
      <trkpt lat="23.074392" lon="113.272107">
        <time>2026-07-01T21:50:31Z</time>
      </trkpt>
      <trkpt lat="23.074348" lon="113.272206">
        <time>2026-07-01T21:50:36Z</time>
      </trkpt>
      <trkpt lat="23.074314" lon="113.272302">
        <time>2026-07-01T21:50:41Z</time>
      </trkpt>
      <trkpt lat="23.074264" lon="113.272425">
        <time>2026-07-01T21:50:46Z</time>
      </trkpt>
      <trkpt lat="23.074198" lon="113.27257">
        <time>2026-07-01T21:50:51Z</time>
      </trkpt>
      <trkpt lat="23.074157" lon="113.272672">
        <time>2026-07-01T21:50:56Z</time>
      </trkpt>
      <trkpt lat="23.074123" lon="113.27277">
        <time>2026-07-01T21:51:01Z</time>
      </trkpt>
      <trkpt lat="23.074052" lon="113.272923">
        <time>2026-07-01T21:51:06Z</time>
      </trkpt>
      <trkpt lat="23.073927" lon="113.272958">
        <time>2026-07-01T21:51:11Z</time>
      </trkpt>
      <trkpt lat="23.073834" lon="113.272912">
        <time>2026-07-01T21:51:16Z</time>
      </trkpt>
      <trkpt lat="23.07375" lon="113.272867">
        <time>2026-07-01T21:51:21Z</time>
      </trkpt>
      <trkpt lat="23.073742" lon="113.272778">
        <time>2026-07-01T21:51:26Z</time>
      </trkpt>
      <trkpt lat="23.073813" lon="113.272663">
        <time>2026-07-01T21:51:31Z</time>
      </trkpt>
      <trkpt lat="23.07386" lon="113.272584">
        <time>2026-07-01T21:51:36Z</time>
      </trkpt>
      <trkpt lat="23.073896" lon="113.272508">
        <time>2026-07-01T21:51:41Z</time>
      </trkpt>
      <trkpt lat="23.073952" lon="113.272387">
        <time>2026-07-01T21:51:46Z</time>
      </trkpt>
      <trkpt lat="23.07401" lon="113.272265">
        <time>2026-07-01T21:51:51Z</time>
      </trkpt>
      <trkpt lat="23.074051" lon="113.272186">
        <time>2026-07-01T21:51:56Z</time>
      </trkpt>
      <trkpt lat="23.074083" lon="113.272107">
        <time>2026-07-01T21:52:01Z</time>
      </trkpt>
      <trkpt lat="23.074134" lon="113.27199">
        <time>2026-07-01T21:52:06Z</time>
      </trkpt>
      <trkpt lat="23.074095" lon="113.271735">
        <time>2026-07-01T21:52:11Z</time>
      </trkpt>
      <trkpt lat="23.074" lon="113.271629">
        <time>2026-07-01T21:52:16Z</time>
      </trkpt>
      <trkpt lat="23.073911" lon="113.271585">
        <time>2026-07-01T21:52:21Z</time>
      </trkpt>
      <trkpt lat="23.073793" lon="113.271544">
        <time>2026-07-01T21:52:26Z</time>
      </trkpt>
      <trkpt lat="23.073688" lon="113.271473">
        <time>2026-07-01T21:52:31Z</time>
      </trkpt>
      <trkpt lat="23.073609" lon="113.271418">
        <time>2026-07-01T21:52:36Z</time>
      </trkpt>
      <trkpt lat="23.073522" lon="113.271368">
        <time>2026-07-01T21:52:41Z</time>
      </trkpt>
      <trkpt lat="23.073382" lon="113.271298">
        <time>2026-07-01T21:52:46Z</time>
      </trkpt>
      <trkpt lat="23.073257" lon="113.27119">
        <time>2026-07-01T21:52:51Z</time>
      </trkpt>
      <trkpt lat="23.073172" lon="113.271123">
        <time>2026-07-01T21:52:56Z</time>
      </trkpt>
      <trkpt lat="23.073078" lon="113.271085">
        <time>2026-07-01T21:53:01Z</time>
      </trkpt>
      <trkpt lat="23.072944" lon="113.271011">
        <time>2026-07-01T21:53:06Z</time>
      </trkpt>
      <trkpt lat="23.072817" lon="113.270927">
        <time>2026-07-01T21:53:11Z</time>
      </trkpt>
      <trkpt lat="23.072728" lon="113.270875">
        <time>2026-07-01T21:53:16Z</time>
      </trkpt>
      <trkpt lat="23.072639" lon="113.27083">
        <time>2026-07-01T21:53:21Z</time>
      </trkpt>
      <trkpt lat="23.072512" lon="113.270767">
        <time>2026-07-01T21:53:26Z</time>
      </trkpt>
      <trkpt lat="23.072384" lon="113.2707">
        <time>2026-07-01T21:53:31Z</time>
      </trkpt>
      <trkpt lat="23.072293" lon="113.270657">
        <time>2026-07-01T21:53:36Z</time>
      </trkpt>
      <trkpt lat="23.072204" lon="113.270616">
        <time>2026-07-01T21:53:41Z</time>
      </trkpt>
      <trkpt lat="23.072067" lon="113.270556">
        <time>2026-07-01T21:53:46Z</time>
      </trkpt>
      <trkpt lat="23.071928" lon="113.27048">
        <time>2026-07-01T21:53:51Z</time>
      </trkpt>
      <trkpt lat="23.071832" lon="113.270411">
        <time>2026-07-01T21:53:56Z</time>
      </trkpt>
      <trkpt lat="23.07174" lon="113.270361">
        <time>2026-07-01T21:54:01Z</time>
      </trkpt>
      <trkpt lat="23.071596" lon="113.270304">
        <time>2026-07-01T21:54:06Z</time>
      </trkpt>
      <trkpt lat="23.071454" lon="113.270225">
        <time>2026-07-01T21:54:11Z</time>
      </trkpt>
      <trkpt lat="23.071358" lon="113.270171">
        <time>2026-07-01T21:54:16Z</time>
      </trkpt>
      <trkpt lat="23.071261" lon="113.270126">
        <time>2026-07-01T21:54:21Z</time>
      </trkpt>
      <trkpt lat="23.071103" lon="113.270047">
        <time>2026-07-01T21:54:26Z</time>
      </trkpt>
      <trkpt lat="23.070951" lon="113.270015">
        <time>2026-07-01T21:54:31Z</time>
      </trkpt>
      <trkpt lat="23.070861" lon="113.269979">
        <time>2026-07-01T21:54:36Z</time>
      </trkpt>
      <trkpt lat="23.070773" lon="113.269911">
        <time>2026-07-01T21:54:41Z</time>
      </trkpt>
      <trkpt lat="23.070615" lon="113.269801">
        <time>2026-07-01T21:54:46Z</time>
      </trkpt>
      <trkpt lat="23.070467" lon="113.269707">
        <time>2026-07-01T21:54:51Z</time>
      </trkpt>
      <trkpt lat="23.070373" lon="113.269641">
        <time>2026-07-01T21:54:56Z</time>
      </trkpt>
      <trkpt lat="23.070278" lon="113.269593">
        <time>2026-07-01T21:55:01Z</time>
      </trkpt>
      <trkpt lat="23.070126" lon="113.269529">
        <time>2026-07-01T21:55:06Z</time>
      </trkpt>
      <trkpt lat="23.069977" lon="113.269443">
        <time>2026-07-01T21:55:11Z</time>
      </trkpt>
      <trkpt lat="23.06988" lon="113.269391">
        <time>2026-07-01T21:55:16Z</time>
      </trkpt>
      <trkpt lat="23.069783" lon="113.269334">
        <time>2026-07-01T21:55:21Z</time>
      </trkpt>
      <trkpt lat="23.06964" lon="113.269264">
        <time>2026-07-01T21:55:26Z</time>
      </trkpt>
      <trkpt lat="23.069497" lon="113.26922">
        <time>2026-07-01T21:55:31Z</time>
      </trkpt>
      <trkpt lat="23.069392" lon="113.269182">
        <time>2026-07-01T21:55:36Z</time>
      </trkpt>
      <trkpt lat="23.069295" lon="113.26912">
        <time>2026-07-01T21:55:41Z</time>
      </trkpt>
      <trkpt lat="23.069152" lon="113.26901">
        <time>2026-07-01T21:55:46Z</time>
      </trkpt>
      <trkpt lat="23.069011" lon="113.268923">
        <time>2026-07-01T21:55:51Z</time>
      </trkpt>
      <trkpt lat="23.068939" lon="113.268864">
        <time>2026-07-01T21:55:56Z</time>
      </trkpt>
      <trkpt lat="23.068869" lon="113.268813">
        <time>2026-07-01T21:56:01Z</time>
      </trkpt>
      <trkpt lat="23.068747" lon="113.268757">
        <time>2026-07-01T21:56:06Z</time>
      </trkpt>
      <trkpt lat="23.068606" lon="113.268732">
        <time>2026-07-01T21:56:11Z</time>
      </trkpt>
      <trkpt lat="23.0685" lon="113.268707">
        <time>2026-07-01T21:56:16Z</time>
      </trkpt>
      <trkpt lat="23.068381" lon="113.268667">
        <time>2026-07-01T21:56:21Z</time>
      </trkpt>
      <trkpt lat="23.0682" lon="113.268602">
        <time>2026-07-01T21:56:26Z</time>
      </trkpt>
      <trkpt lat="23.068024" lon="113.268513">
        <time>2026-07-01T21:56:31Z</time>
      </trkpt>
      <trkpt lat="23.067908" lon="113.268453">
        <time>2026-07-01T21:56:36Z</time>
      </trkpt>
      <trkpt lat="23.067803" lon="113.268392">
        <time>2026-07-01T21:56:41Z</time>
      </trkpt>
      <trkpt lat="23.067654" lon="113.268312">
        <time>2026-07-01T21:56:46Z</time>
      </trkpt>
      <trkpt lat="23.067503" lon="113.268255">
        <time>2026-07-01T21:56:51Z</time>
      </trkpt>
      <trkpt lat="23.067402" lon="113.268219">
        <time>2026-07-01T21:56:56Z</time>
      </trkpt>
      <trkpt lat="23.067297" lon="113.268187">
        <time>2026-07-01T21:57:01Z</time>
      </trkpt>
      <trkpt lat="23.067155" lon="113.268127">
        <time>2026-07-01T21:57:06Z</time>
      </trkpt>
      <trkpt lat="23.067023" lon="113.26807">
        <time>2026-07-01T21:57:11Z</time>
      </trkpt>
      <trkpt lat="23.066917" lon="113.268042">
        <time>2026-07-01T21:57:16Z</time>
      </trkpt>
      <trkpt lat="23.0668" lon="113.268029">
        <time>2026-07-01T21:57:21Z</time>
      </trkpt>
      <trkpt lat="23.066626" lon="113.267992">
        <time>2026-07-01T21:57:26Z</time>
      </trkpt>
      <trkpt lat="23.066456" lon="113.267943">
        <time>2026-07-01T21:57:31Z</time>
      </trkpt>
      <trkpt lat="23.066345" lon="113.267947">
        <time>2026-07-01T21:57:36Z</time>
      </trkpt>
      <trkpt lat="23.066249" lon="113.267995">
        <time>2026-07-01T21:57:41Z</time>
      </trkpt>
      <trkpt lat="23.066128" lon="113.268121">
        <time>2026-07-01T21:57:46Z</time>
      </trkpt>
      <trkpt lat="23.066019" lon="113.268255">
        <time>2026-07-01T21:57:51Z</time>
      </trkpt>
      <trkpt lat="23.065946" lon="113.26834">
        <time>2026-07-01T21:57:56Z</time>
      </trkpt>
      <trkpt lat="23.065879" lon="113.268428">
        <time>2026-07-01T21:58:01Z</time>
      </trkpt>
      <trkpt lat="23.065787" lon="113.268563">
        <time>2026-07-01T21:58:06Z</time>
      </trkpt>
      <trkpt lat="23.065706" lon="113.26871">
        <time>2026-07-01T21:58:11Z</time>
      </trkpt>
      <trkpt lat="23.065656" lon="113.268815">
        <time>2026-07-01T21:58:16Z</time>
      </trkpt>
      <trkpt lat="23.065616" lon="113.268923">
        <time>2026-07-01T21:58:21Z</time>
      </trkpt>
      <trkpt lat="23.065565" lon="113.269087">
        <time>2026-07-01T21:58:26Z</time>
      </trkpt>
      <trkpt lat="23.065519" lon="113.269248">
        <time>2026-07-01T21:58:31Z</time>
      </trkpt>
      <trkpt lat="23.065491" lon="113.269358">
        <time>2026-07-01T21:58:36Z</time>
      </trkpt>
      <trkpt lat="23.065463" lon="113.269477">
        <time>2026-07-01T21:58:41Z</time>
      </trkpt>
      <trkpt lat="23.065429" lon="113.26966">
        <time>2026-07-01T21:58:46Z</time>
      </trkpt>
      <trkpt lat="23.065386" lon="113.269819">
        <time>2026-07-01T21:58:51Z</time>
      </trkpt>
      <trkpt lat="23.065345" lon="113.26993">
        <time>2026-07-01T21:58:56Z</time>
      </trkpt>
      <trkpt lat="23.065303" lon="113.270049">
        <time>2026-07-01T21:59:01Z</time>
      </trkpt>
      <trkpt lat="23.06524" lon="113.270213">
        <time>2026-07-01T21:59:06Z</time>
      </trkpt>
      <trkpt lat="23.06517" lon="113.270366">
        <time>2026-07-01T21:59:11Z</time>
      </trkpt>
      <trkpt lat="23.065117" lon="113.270476">
        <time>2026-07-01T21:59:16Z</time>
      </trkpt>
      <trkpt lat="23.065064" lon="113.270586">
        <time>2026-07-01T21:59:21Z</time>
      </trkpt>
      <trkpt lat="23.064994" lon="113.270748">
        <time>2026-07-01T21:59:26Z</time>
      </trkpt>
      <trkpt lat="23.064915" lon="113.270903">
        <time>2026-07-01T21:59:31Z</time>
      </trkpt>
      <trkpt lat="23.064867" lon="113.271004">
        <time>2026-07-01T21:59:36Z</time>
      </trkpt>
      <trkpt lat="23.064821" lon="113.271109">
        <time>2026-07-01T21:59:41Z</time>
      </trkpt>
      <trkpt lat="23.064749" lon="113.27127">
        <time>2026-07-01T21:59:46Z</time>
      </trkpt>
      <trkpt lat="23.064678" lon="113.271425">
        <time>2026-07-01T21:59:51Z</time>
      </trkpt>
      <trkpt lat="23.064632" lon="113.271524">
        <time>2026-07-01T21:59:56Z</time>
      </trkpt>
      <trkpt lat="23.064582" lon="113.271626">
        <time>2026-07-01T22:00:01Z</time>
      </trkpt>
      <trkpt lat="23.064505" lon="113.271783">
        <time>2026-07-01T22:00:06Z</time>
      </trkpt>
      <trkpt lat="23.064428" lon="113.271938">
        <time>2026-07-01T22:00:11Z</time>
      </trkpt>
      <trkpt lat="23.064378" lon="113.272044">
        <time>2026-07-01T22:00:16Z</time>
      </trkpt>
      <trkpt lat="23.064334" lon="113.272153">
        <time>2026-07-01T22:00:21Z</time>
      </trkpt>
      <trkpt lat="23.064308" lon="113.272332">
        <time>2026-07-01T22:00:26Z</time>
      </trkpt>
      <trkpt lat="23.064308" lon="113.272506">
        <time>2026-07-01T22:00:31Z</time>
      </trkpt>
      <trkpt lat="23.06432" lon="113.272622">
        <time>2026-07-01T22:00:36Z</time>
      </trkpt>
      <trkpt lat="23.064352" lon="113.272739">
        <time>2026-07-01T22:00:41Z</time>
      </trkpt>
      <trkpt lat="23.064413" lon="113.272931">
        <time>2026-07-01T22:00:46Z</time>
      </trkpt>
      <trkpt lat="23.064456" lon="113.273144">
        <time>2026-07-01T22:00:51Z</time>
      </trkpt>
      <trkpt lat="23.064417" lon="113.273274">
        <time>2026-07-01T22:00:56Z</time>
      </trkpt>
      <trkpt lat="23.064316" lon="113.273374">
        <time>2026-07-01T22:01:01Z</time>
      </trkpt>
      <trkpt lat="23.064142" lon="113.273506">
        <time>2026-07-01T22:01:06Z</time>
      </trkpt>
      <trkpt lat="23.063967" lon="113.273643">
        <time>2026-07-01T22:01:11Z</time>
      </trkpt>
      <trkpt lat="23.063871" lon="113.273758">
        <time>2026-07-01T22:01:16Z</time>
      </trkpt>
      <trkpt lat="23.063796" lon="113.27389">
        <time>2026-07-01T22:01:21Z</time>
      </trkpt>
      <trkpt lat="23.063676" lon="113.274082">
        <time>2026-07-01T22:01:26Z</time>
      </trkpt>
      <trkpt lat="23.06353" lon="113.274223">
        <time>2026-07-01T22:01:31Z</time>
      </trkpt>
      <trkpt lat="23.063461" lon="113.274352">
        <time>2026-07-01T22:01:36Z</time>
      </trkpt>
      <trkpt lat="23.063408" lon="113.274495">
        <time>2026-07-01T22:01:41Z</time>
      </trkpt>
      <trkpt lat="23.063344" lon="113.274698">
        <time>2026-07-01T22:01:46Z</time>
      </trkpt>
      <trkpt lat="23.063293" lon="113.274901">
        <time>2026-07-01T22:01:51Z</time>
      </trkpt>
      <trkpt lat="23.063249" lon="113.275039">
        <time>2026-07-01T22:01:56Z</time>
      </trkpt>
      <trkpt lat="23.063176" lon="113.275175">
        <time>2026-07-01T22:02:01Z</time>
      </trkpt>
      <trkpt lat="23.063053" lon="113.275374">
        <time>2026-07-01T22:02:06Z</time>
      </trkpt>
      <trkpt lat="23.06292" lon="113.275558">
        <time>2026-07-01T22:02:11Z</time>
      </trkpt>
      <trkpt lat="23.062821" lon="113.275664">
        <time>2026-07-01T22:02:16Z</time>
      </trkpt>
      <trkpt lat="23.062711" lon="113.275761">
        <time>2026-07-01T22:02:21Z</time>
      </trkpt>
      <trkpt lat="23.062561" lon="113.275922">
        <time>2026-07-01T22:02:26Z</time>
      </trkpt>
      <trkpt lat="23.06245" lon="113.276106">
        <time>2026-07-01T22:02:31Z</time>
      </trkpt>
      <trkpt lat="23.062391" lon="113.276233">
        <time>2026-07-01T22:02:36Z</time>
      </trkpt>
      <trkpt lat="23.062335" lon="113.276368">
        <time>2026-07-01T22:02:41Z</time>
      </trkpt>
      <trkpt lat="23.062254" lon="113.276562">
        <time>2026-07-01T22:02:46Z</time>
      </trkpt>
      <trkpt lat="23.062185" lon="113.276743">
        <time>2026-07-01T22:02:51Z</time>
      </trkpt>
      <trkpt lat="23.062136" lon="113.276867">
        <time>2026-07-01T22:02:56Z</time>
      </trkpt>
      <trkpt lat="23.062087" lon="113.276994">
        <time>2026-07-01T22:03:01Z</time>
      </trkpt>
      <trkpt lat="23.062009" lon="113.277197">
        <time>2026-07-01T22:03:06Z</time>
      </trkpt>
      <trkpt lat="23.061932" lon="113.277409">
        <time>2026-07-01T22:03:11Z</time>
      </trkpt>
      <trkpt lat="23.061886" lon="113.277549">
        <time>2026-07-01T22:03:16Z</time>
      </trkpt>
      <trkpt lat="23.061846" lon="113.277689">
        <time>2026-07-01T22:03:21Z</time>
      </trkpt>
      <trkpt lat="23.061807" lon="113.277904">
        <time>2026-07-01T22:03:26Z</time>
      </trkpt>
      <trkpt lat="23.061814" lon="113.278116">
        <time>2026-07-01T22:03:31Z</time>
      </trkpt>
      <trkpt lat="23.061822" lon="113.278254">
        <time>2026-07-01T22:03:36Z</time>
      </trkpt>
      <trkpt lat="23.061834" lon="113.278388">
        <time>2026-07-01T22:03:41Z</time>
      </trkpt>
      <trkpt lat="23.06185" lon="113.278588">
        <time>2026-07-01T22:03:46Z</time>
      </trkpt>
      <trkpt lat="23.061813" lon="113.278783">
        <time>2026-07-01T22:03:51Z</time>
      </trkpt>
      <trkpt lat="23.061754" lon="113.278903">
        <time>2026-07-01T22:03:56Z</time>
      </trkpt>
      <trkpt lat="23.061685" lon="113.279018">
        <time>2026-07-01T22:04:01Z</time>
      </trkpt>
      <trkpt lat="23.061592" lon="113.279227">
        <time>2026-07-01T22:04:06Z</time>
      </trkpt>
      <trkpt lat="23.061503" lon="113.279417">
        <time>2026-07-01T22:04:11Z</time>
      </trkpt>
      <trkpt lat="23.061451" lon="113.279549">
        <time>2026-07-01T22:04:16Z</time>
      </trkpt>
      <trkpt lat="23.061404" lon="113.279682">
        <time>2026-07-01T22:04:21Z</time>
      </trkpt>
      <trkpt lat="23.061333" lon="113.279864">
        <time>2026-07-01T22:04:26Z</time>
      </trkpt>
      <trkpt lat="23.061261" lon="113.280056">
        <time>2026-07-01T22:04:31Z</time>
      </trkpt>
      <trkpt lat="23.061208" lon="113.280183">
        <time>2026-07-01T22:04:36Z</time>
      </trkpt>
      <trkpt lat="23.061155" lon="113.280317">
        <time>2026-07-01T22:04:41Z</time>
      </trkpt>
      <trkpt lat="23.061072" lon="113.280515">
        <time>2026-07-01T22:04:46Z</time>
      </trkpt>
      <trkpt lat="23.060979" lon="113.280715">
        <time>2026-07-01T22:04:51Z</time>
      </trkpt>
      <trkpt lat="23.060924" lon="113.280846">
        <time>2026-07-01T22:04:56Z</time>
      </trkpt>
      <trkpt lat="23.060868" lon="113.28098">
        <time>2026-07-01T22:05:01Z</time>
      </trkpt>
      <trkpt lat="23.060782" lon="113.281174">
        <time>2026-07-01T22:05:06Z</time>
      </trkpt>
      <trkpt lat="23.060698" lon="113.28137">
        <time>2026-07-01T22:05:11Z</time>
      </trkpt>
      <trkpt lat="23.060637" lon="113.281506">
        <time>2026-07-01T22:05:16Z</time>
      </trkpt>
      <trkpt lat="23.060575" lon="113.281641">
        <time>2026-07-01T22:05:21Z</time>
      </trkpt>
      <trkpt lat="23.060481" lon="113.281845">
        <time>2026-07-01T22:05:26Z</time>
      </trkpt>
      <trkpt lat="23.060388" lon="113.282048">
        <time>2026-07-01T22:05:31Z</time>
      </trkpt>
      <trkpt lat="23.060343" lon="113.28218">
        <time>2026-07-01T22:05:36Z</time>
      </trkpt>
      <trkpt lat="23.060275" lon="113.282294">
        <time>2026-07-01T22:05:41Z</time>
      </trkpt>
      <trkpt lat="23.060181" lon="113.282481">
        <time>2026-07-01T22:05:46Z</time>
      </trkpt>
      <trkpt lat="23.060105" lon="113.282677">
        <time>2026-07-01T22:05:51Z</time>
      </trkpt>
      <trkpt lat="23.06005" lon="113.282797">
        <time>2026-07-01T22:05:56Z</time>
      </trkpt>
      <trkpt lat="23.059997" lon="113.282915">
        <time>2026-07-01T22:06:01Z</time>
      </trkpt>
      <trkpt lat="23.059906" lon="113.2831">
        <time>2026-07-01T22:06:06Z</time>
      </trkpt>
      <trkpt lat="23.059833" lon="113.283291">
        <time>2026-07-01T22:06:11Z</time>
      </trkpt>
      <trkpt lat="23.059881" lon="113.283365">
        <time>2026-07-01T22:06:16Z</time>
      </trkpt>
      <trkpt lat="23.059965" lon="113.283289">
        <time>2026-07-01T22:06:21Z</time>
      </trkpt>
      <trkpt lat="23.060065" lon="113.283088">
        <time>2026-07-01T22:06:26Z</time>
      </trkpt>
      <trkpt lat="23.060158" lon="113.282884">
        <time>2026-07-01T22:06:31Z</time>
      </trkpt>
      <trkpt lat="23.060218" lon="113.282748">
        <time>2026-07-01T22:06:36Z</time>
      </trkpt>
      <trkpt lat="23.060282" lon="113.282616">
        <time>2026-07-01T22:06:41Z</time>
      </trkpt>
      <trkpt lat="23.060362" lon="113.28242">
        <time>2026-07-01T22:06:46Z</time>
      </trkpt>
      <trkpt lat="23.060433" lon="113.282206">
        <time>2026-07-01T22:06:51Z</time>
      </trkpt>
      <trkpt lat="23.060485" lon="113.282058">
        <time>2026-07-01T22:06:56Z</time>
      </trkpt>
      <trkpt lat="23.060544" lon="113.281924">
        <time>2026-07-01T22:07:01Z</time>
      </trkpt>
      <trkpt lat="23.060637" lon="113.281725">
        <time>2026-07-01T22:07:06Z</time>
      </trkpt>
      <trkpt lat="23.060717" lon="113.281536">
        <time>2026-07-01T22:07:11Z</time>
      </trkpt>
      <trkpt lat="23.060772" lon="113.281402">
        <time>2026-07-01T22:07:16Z</time>
      </trkpt>
      <trkpt lat="23.060832" lon="113.281264">
        <time>2026-07-01T22:07:21Z</time>
      </trkpt>
      <trkpt lat="23.060912" lon="113.28107">
        <time>2026-07-01T22:07:26Z</time>
      </trkpt>
      <trkpt lat="23.06099" lon="113.280875">
        <time>2026-07-01T22:07:31Z</time>
      </trkpt>
      <trkpt lat="23.061045" lon="113.280749">
        <time>2026-07-01T22:07:36Z</time>
      </trkpt>
      <trkpt lat="23.061104" lon="113.280614">
        <time>2026-07-01T22:07:41Z</time>
      </trkpt>
      <trkpt lat="23.06119" lon="113.280408">
        <time>2026-07-01T22:07:46Z</time>
      </trkpt>
      <trkpt lat="23.061274" lon="113.280214">
        <time>2026-07-01T22:07:51Z</time>
      </trkpt>
      <trkpt lat="23.061332" lon="113.28008">
        <time>2026-07-01T22:07:56Z</time>
      </trkpt>
      <trkpt lat="23.061387" lon="113.279945">
        <time>2026-07-01T22:08:01Z</time>
      </trkpt>
      <trkpt lat="23.061476" lon="113.279755">
        <time>2026-07-01T22:08:06Z</time>
      </trkpt>
      <trkpt lat="23.06156" lon="113.279559">
        <time>2026-07-01T22:08:11Z</time>
      </trkpt>
      <trkpt lat="23.061618" lon="113.27942">
        <time>2026-07-01T22:08:16Z</time>
      </trkpt>
      <trkpt lat="23.061675" lon="113.27928">
        <time>2026-07-01T22:08:21Z</time>
      </trkpt>
      <trkpt lat="23.06177" lon="113.279091">
        <time>2026-07-01T22:08:26Z</time>
      </trkpt>
      <trkpt lat="23.061882" lon="113.278917">
        <time>2026-07-01T22:08:31Z</time>
      </trkpt>
      <trkpt lat="23.061948" lon="113.278788">
        <time>2026-07-01T22:08:36Z</time>
      </trkpt>
      <trkpt lat="23.061988" lon="113.278646">
        <time>2026-07-01T22:08:41Z</time>
      </trkpt>
      <trkpt lat="23.06198" lon="113.278425">
        <time>2026-07-01T22:08:46Z</time>
      </trkpt>
      <trkpt lat="23.061965" lon="113.278202">
        <time>2026-07-01T22:08:51Z</time>
      </trkpt>
      <trkpt lat="23.061957" lon="113.278052">
        <time>2026-07-01T22:08:56Z</time>
      </trkpt>
      <trkpt lat="23.061952" lon="113.277899">
        <time>2026-07-01T22:09:01Z</time>
      </trkpt>
      <trkpt lat="23.061981" lon="113.277678">
        <time>2026-07-01T22:09:06Z</time>
      </trkpt>
      <trkpt lat="23.062046" lon="113.277474">
        <time>2026-07-01T22:09:11Z</time>
      </trkpt>
      <trkpt lat="23.062088" lon="113.277329">
        <time>2026-07-01T22:09:16Z</time>
      </trkpt>
      <trkpt lat="23.062135" lon="113.277187">
        <time>2026-07-01T22:09:21Z</time>
      </trkpt>
      <trkpt lat="23.062213" lon="113.276985">
        <time>2026-07-01T22:09:26Z</time>
      </trkpt>
      <trkpt lat="23.062299" lon="113.276792">
        <time>2026-07-01T22:09:31Z</time>
      </trkpt>
      <trkpt lat="23.062356" lon="113.276658">
        <time>2026-07-01T22:09:36Z</time>
      </trkpt>
      <trkpt lat="23.062411" lon="113.276525">
        <time>2026-07-01T22:09:41Z</time>
      </trkpt>
      <trkpt lat="23.062492" lon="113.276316">
        <time>2026-07-01T22:09:46Z</time>
      </trkpt>
      <trkpt lat="23.062575" lon="113.276119">
        <time>2026-07-01T22:09:51Z</time>
      </trkpt>
      <trkpt lat="23.062642" lon="113.276004">
        <time>2026-07-01T22:09:56Z</time>
      </trkpt>
      <trkpt lat="23.062719" lon="113.275891">
        <time>2026-07-01T22:10:01Z</time>
      </trkpt>
      <trkpt lat="23.062855" lon="113.275737">
        <time>2026-07-01T22:10:06Z</time>
      </trkpt>
      <trkpt lat="23.063" lon="113.275578">
        <time>2026-07-01T22:10:11Z</time>
      </trkpt>
      <trkpt lat="23.063079" lon="113.275459">
        <time>2026-07-01T22:10:16Z</time>
      </trkpt>
      <trkpt lat="23.063151" lon="113.275338">
        <time>2026-07-01T22:10:21Z</time>
      </trkpt>
      <trkpt lat="23.063259" lon="113.27516">
        <time>2026-07-01T22:10:26Z</time>
      </trkpt>
      <trkpt lat="23.06336" lon="113.27497">
        <time>2026-07-01T22:10:31Z</time>
      </trkpt>
      <trkpt lat="23.063419" lon="113.274845">
        <time>2026-07-01T22:10:36Z</time>
      </trkpt>
      <trkpt lat="23.063471" lon="113.274714">
        <time>2026-07-01T22:10:41Z</time>
      </trkpt>
      <trkpt lat="23.063534" lon="113.274506">
        <time>2026-07-01T22:10:46Z</time>
      </trkpt>
      <trkpt lat="23.063628" lon="113.274314">
        <time>2026-07-01T22:10:51Z</time>
      </trkpt>
      <trkpt lat="23.063726" lon="113.274213">
        <time>2026-07-01T22:10:56Z</time>
      </trkpt>
      <trkpt lat="23.063821" lon="113.274107">
        <time>2026-07-01T22:11:01Z</time>
      </trkpt>
      <trkpt lat="23.063933" lon="113.273914">
        <time>2026-07-01T22:11:06Z</time>
      </trkpt>
      <trkpt lat="23.064047" lon="113.273731">
        <time>2026-07-01T22:11:11Z</time>
      </trkpt>
      <trkpt lat="23.064146" lon="113.27364">
        <time>2026-07-01T22:11:16Z</time>
      </trkpt>
      <trkpt lat="23.064253" lon="113.273563">
        <time>2026-07-01T22:11:21Z</time>
      </trkpt>
      <trkpt lat="23.064411" lon="113.273433">
        <time>2026-07-01T22:11:26Z</time>
      </trkpt>
      <trkpt lat="23.064545" lon="113.273267">
        <time>2026-07-01T22:11:31Z</time>
      </trkpt>
      <trkpt lat="23.064577" lon="113.273128">
        <time>2026-07-01T22:11:36Z</time>
      </trkpt>
      <trkpt lat="23.064544" lon="113.272975">
        <time>2026-07-01T22:11:41Z</time>
      </trkpt>
      <trkpt lat="23.064469" lon="113.272754">
        <time>2026-07-01T22:11:46Z</time>
      </trkpt>
      <trkpt lat="23.064449" lon="113.272546">
        <time>2026-07-01T22:11:51Z</time>
      </trkpt>
      <trkpt lat="23.064512" lon="113.272425">
        <time>2026-07-01T22:11:56Z</time>
      </trkpt>
      <trkpt lat="23.064555" lon="113.272285">
        <time>2026-07-01T22:12:01Z</time>
      </trkpt>
      <trkpt lat="23.06461" lon="113.272088">
        <time>2026-07-01T22:12:06Z</time>
      </trkpt>
      <trkpt lat="23.064708" lon="113.271899">
        <time>2026-07-01T22:12:11Z</time>
      </trkpt>
      <trkpt lat="23.06477" lon="113.271762">
        <time>2026-07-01T22:12:16Z</time>
      </trkpt>
      <trkpt lat="23.064828" lon="113.271625">
        <time>2026-07-01T22:12:21Z</time>
      </trkpt>
      <trkpt lat="23.064922" lon="113.271417">
        <time>2026-07-01T22:12:26Z</time>
      </trkpt>
      <trkpt lat="23.065016" lon="113.271211">
        <time>2026-07-01T22:12:31Z</time>
      </trkpt>
      <trkpt lat="23.065092" lon="113.271073">
        <time>2026-07-01T22:12:36Z</time>
      </trkpt>
      <trkpt lat="23.065154" lon="113.270933">
        <time>2026-07-01T22:12:41Z</time>
      </trkpt>
      <trkpt lat="23.065246" lon="113.270728">
        <time>2026-07-01T22:12:46Z</time>
      </trkpt>
      <trkpt lat="23.065336" lon="113.270539">
        <time>2026-07-01T22:12:51Z</time>
      </trkpt>
      <trkpt lat="23.065389" lon="113.270421">
        <time>2026-07-01T22:12:56Z</time>
      </trkpt>
      <trkpt lat="23.065442" lon="113.270297">
        <time>2026-07-01T22:13:01Z</time>
      </trkpt>
      <trkpt lat="23.065519" lon="113.270103">
        <time>2026-07-01T22:13:06Z</time>
      </trkpt>
      <trkpt lat="23.065579" lon="113.269906">
        <time>2026-07-01T22:13:11Z</time>
      </trkpt>
      <trkpt lat="23.065621" lon="113.26978">
        <time>2026-07-01T22:13:16Z</time>
      </trkpt>
      <trkpt lat="23.065661" lon="113.269649">
        <time>2026-07-01T22:13:21Z</time>
      </trkpt>
      <trkpt lat="23.065711" lon="113.269448">
        <time>2026-07-01T22:13:26Z</time>
      </trkpt>
      <trkpt lat="23.065771" lon="113.269245">
        <time>2026-07-01T22:13:31Z</time>
      </trkpt>
      <trkpt lat="23.065809" lon="113.269104">
        <time>2026-07-01T22:13:36Z</time>
      </trkpt>
      <trkpt lat="23.065852" lon="113.268968">
        <time>2026-07-01T22:13:41Z</time>
      </trkpt>
      <trkpt lat="23.065934" lon="113.268775">
        <time>2026-07-01T22:13:46Z</time>
      </trkpt>
      <trkpt lat="23.066033" lon="113.268603">
        <time>2026-07-01T22:13:51Z</time>
      </trkpt>
      <trkpt lat="23.066114" lon="113.268487">
        <time>2026-07-01T22:13:56Z</time>
      </trkpt>
      <trkpt lat="23.066202" lon="113.268373">
        <time>2026-07-01T22:14:01Z</time>
      </trkpt>
      <trkpt lat="23.06634" lon="113.268213">
        <time>2026-07-01T22:14:06Z</time>
      </trkpt>
      <trkpt lat="23.066517" lon="113.268142">
        <time>2026-07-01T22:14:11Z</time>
      </trkpt>
      <trkpt lat="23.066627" lon="113.268121">
        <time>2026-07-01T22:14:16Z</time>
      </trkpt>
      <trkpt lat="23.066596" lon="113.268037">
        <time>2026-07-01T22:14:21Z</time>
      </trkpt>
      <trkpt lat="23.066383" lon="113.267983">
        <time>2026-07-01T22:14:26Z</time>
      </trkpt>
      <trkpt lat="23.06618" lon="113.268066">
        <time>2026-07-01T22:14:31Z</time>
      </trkpt>
      <trkpt lat="23.066076" lon="113.268164">
        <time>2026-07-01T22:14:36Z</time>
      </trkpt>
      <trkpt lat="23.06599" lon="113.26827">
        <time>2026-07-01T22:14:41Z</time>
      </trkpt>
      <trkpt lat="23.06587" lon="113.26844">
        <time>2026-07-01T22:14:46Z</time>
      </trkpt>
      <trkpt lat="23.065759" lon="113.26863">
        <time>2026-07-01T22:14:51Z</time>
      </trkpt>
      <trkpt lat="23.065694" lon="113.268763">
        <time>2026-07-01T22:14:56Z</time>
      </trkpt>
      <trkpt lat="23.065633" lon="113.268896">
        <time>2026-07-01T22:15:01Z</time>
      </trkpt>
      <trkpt lat="23.065567" lon="113.269107">
        <time>2026-07-01T22:15:06Z</time>
      </trkpt>
      <trkpt lat="23.065515" lon="113.269329">
        <time>2026-07-01T22:15:11Z</time>
      </trkpt>
      <trkpt lat="23.065482" lon="113.269477">
        <time>2026-07-01T22:15:16Z</time>
      </trkpt>
      <trkpt lat="23.065448" lon="113.269621">
        <time>2026-07-01T22:15:21Z</time>
      </trkpt>
      <trkpt lat="23.065386" lon="113.269834">
        <time>2026-07-01T22:15:26Z</time>
      </trkpt>
      <trkpt lat="23.065319" lon="113.270051">
        <time>2026-07-01T22:15:31Z</time>
      </trkpt>
      <trkpt lat="23.065268" lon="113.270191">
        <time>2026-07-01T22:15:36Z</time>
      </trkpt>
      <trkpt lat="23.065208" lon="113.270325">
        <time>2026-07-01T22:15:41Z</time>
      </trkpt>
      <trkpt lat="23.06511" lon="113.270518">
        <time>2026-07-01T22:15:46Z</time>
      </trkpt>
      <trkpt lat="23.065018" lon="113.270715">
        <time>2026-07-01T22:15:51Z</time>
      </trkpt>
      <trkpt lat="23.064955" lon="113.270846">
        <time>2026-07-01T22:15:56Z</time>
      </trkpt>
      <trkpt lat="23.064895" lon="113.270978">
        <time>2026-07-01T22:16:01Z</time>
      </trkpt>
      <trkpt lat="23.064807" lon="113.271175">
        <time>2026-07-01T22:16:06Z</time>
      </trkpt>
      <trkpt lat="23.064717" lon="113.271366">
        <time>2026-07-01T22:16:11Z</time>
      </trkpt>
      <trkpt lat="23.06466" lon="113.271489">
        <time>2026-07-01T22:16:16Z</time>
      </trkpt>
      <trkpt lat="23.064608" lon="113.271609">
        <time>2026-07-01T22:16:21Z</time>
      </trkpt>
      <trkpt lat="23.064526" lon="113.271795">
        <time>2026-07-01T22:16:26Z</time>
      </trkpt>
      <trkpt lat="23.064444" lon="113.271978">
        <time>2026-07-01T22:16:31Z</time>
      </trkpt>
      <trkpt lat="23.064385" lon="113.272099">
        <time>2026-07-01T22:16:36Z</time>
      </trkpt>
      <trkpt lat="23.064331" lon="113.27222">
        <time>2026-07-01T22:16:41Z</time>
      </trkpt>
      <trkpt lat="23.064312" lon="113.272427">
        <time>2026-07-01T22:16:46Z</time>
      </trkpt>
      <trkpt lat="23.064312" lon="113.27264">
        <time>2026-07-01T22:16:51Z</time>
      </trkpt>
      <trkpt lat="23.064338" lon="113.272776">
        <time>2026-07-01T22:16:56Z</time>
      </trkpt>
      <trkpt lat="23.064375" lon="113.272908">
        <time>2026-07-01T22:17:01Z</time>
      </trkpt>
      <trkpt lat="23.064434" lon="113.273108">
        <time>2026-07-01T22:17:06Z</time>
      </trkpt>
      <trkpt lat="23.064412" lon="113.273304">
        <time>2026-07-01T22:17:11Z</time>
      </trkpt>
      <trkpt lat="23.064321" lon="113.273404">
        <time>2026-07-01T22:17:16Z</time>
      </trkpt>
      <trkpt lat="23.064204" lon="113.273483">
        <time>2026-07-01T22:17:21Z</time>
      </trkpt>
      <trkpt lat="23.064036" lon="113.273611">
        <time>2026-07-01T22:17:26Z</time>
      </trkpt>
      <trkpt lat="23.063885" lon="113.273757">
        <time>2026-07-01T22:17:31Z</time>
      </trkpt>
      <trkpt lat="23.063803" lon="113.273883">
        <time>2026-07-01T22:17:36Z</time>
      </trkpt>
      <trkpt lat="23.063728" lon="113.274017">
        <time>2026-07-01T22:17:41Z</time>
      </trkpt>
      <trkpt lat="23.063591" lon="113.274179">
        <time>2026-07-01T22:17:46Z</time>
      </trkpt>
      <trkpt lat="23.063459" lon="113.274344">
        <time>2026-07-01T22:17:51Z</time>
      </trkpt>
      <trkpt lat="23.0634" lon="113.274484">
        <time>2026-07-01T22:17:56Z</time>
      </trkpt>
      <trkpt lat="23.063358" lon="113.27461">
        <time>2026-07-01T22:18:01Z</time>
      </trkpt>
      <trkpt lat="23.0633" lon="113.274799">
        <time>2026-07-01T22:18:06Z</time>
      </trkpt>
      <trkpt lat="23.063236" lon="113.275">
        <time>2026-07-01T22:18:11Z</time>
      </trkpt>
      <trkpt lat="23.063175" lon="113.275126">
        <time>2026-07-01T22:18:16Z</time>
      </trkpt>
      <trkpt lat="23.063107" lon="113.275249">
        <time>2026-07-01T22:18:21Z</time>
      </trkpt>
      <trkpt lat="23.062998" lon="113.275428">
        <time>2026-07-01T22:18:26Z</time>
      </trkpt>
      <trkpt lat="23.06287" lon="113.275596">
        <time>2026-07-01T22:18:31Z</time>
      </trkpt>
      <trkpt lat="23.062776" lon="113.275698">
        <time>2026-07-01T22:18:36Z</time>
      </trkpt>
      <trkpt lat="23.062693" lon="113.275778">
        <time>2026-07-01T22:18:41Z</time>
      </trkpt>
      <trkpt lat="23.062623" lon="113.275848">
        <time>2026-07-01T22:18:46Z</time>
      </trkpt>
      <trkpt lat="23.062584" lon="113.275898">
        <time>2026-07-01T22:18:51Z</time>
      </trkpt>
      <trkpt lat="23.062552" lon="113.275939">
        <time>2026-07-01T22:18:56Z</time>
      </trkpt>
      <trkpt lat="23.062516" lon="113.275982">
        <time>2026-07-01T22:19:01Z</time>
      </trkpt>
      <trkpt lat="23.062468" lon="113.276047">
        <time>2026-07-01T22:19:06Z</time>
      </trkpt>
      <trkpt lat="23.062434" lon="113.276114">
        <time>2026-07-01T22:19:11Z</time>
      </trkpt>
      <trkpt lat="23.062418" lon="113.276156">
        <time>2026-07-01T22:19:16Z</time>
      </trkpt>
      <trkpt lat="23.062398" lon="113.276198">
        <time>2026-07-01T22:19:21Z</time>
      </trkpt>
      <trkpt lat="23.062373" lon="113.276265">
        <time>2026-07-01T22:19:26Z</time>
      </trkpt>
      <trkpt lat="23.062348" lon="113.27633">
        <time>2026-07-01T22:19:31Z</time>
      </trkpt>
      <trkpt lat="23.062333" lon="113.276371">
        <time>2026-07-01T22:19:36Z</time>
      </trkpt>
      <trkpt lat="23.062316" lon="113.276413">
        <time>2026-07-01T22:19:41Z</time>
      </trkpt>
      <trkpt lat="23.062289" lon="113.276474">
        <time>2026-07-01T22:19:46Z</time>
      </trkpt>
      <trkpt lat="23.062274" lon="113.27654">
        <time>2026-07-01T22:19:51Z</time>
      </trkpt>
      <trkpt lat="23.062268" lon="113.276593">
        <time>2026-07-01T22:19:56Z</time>
      </trkpt>
      <trkpt lat="23.062252" lon="113.276658">
        <time>2026-07-01T22:20:01Z</time>
      </trkpt>
      <trkpt lat="23.062213" lon="113.276769">
        <time>2026-07-01T22:20:06Z</time>
      </trkpt>
      <trkpt lat="23.062174" lon="113.276881">
        <time>2026-07-01T22:20:11Z</time>
      </trkpt>
      <trkpt lat="23.062149" lon="113.276957">
        <time>2026-07-01T22:20:16Z</time>
      </trkpt>
      <trkpt lat="23.062119" lon="113.277037">
        <time>2026-07-01T22:20:21Z</time>
      </trkpt>
      <trkpt lat="23.062067" lon="113.27716">
        <time>2026-07-01T22:20:26Z</time>
      </trkpt>
      <trkpt lat="23.062015" lon="113.277289">
        <time>2026-07-01T22:20:31Z</time>
      </trkpt>
      <trkpt lat="23.061981" lon="113.277374">
        <time>2026-07-01T22:20:36Z</time>
      </trkpt>
      <trkpt lat="23.061947" lon="113.27746">
        <time>2026-07-01T22:20:41Z</time>
      </trkpt>
      <trkpt lat="23.061894" lon="113.277592">
        <time>2026-07-01T22:20:46Z</time>
      </trkpt>
      <trkpt lat="23.061848" lon="113.277728">
        <time>2026-07-01T22:20:51Z</time>
      </trkpt>
      <trkpt lat="23.061833" lon="113.277817">
        <time>2026-07-01T22:20:56Z</time>
      </trkpt>
      <trkpt lat="23.061827" lon="113.277904">
        <time>2026-07-01T22:21:01Z</time>
      </trkpt>
      <trkpt lat="23.061835" lon="113.278029">
        <time>2026-07-01T22:21:06Z</time>
      </trkpt>
      <trkpt lat="23.061841" lon="113.278157">
        <time>2026-07-01T22:21:11Z</time>
      </trkpt>
      <trkpt lat="23.061844" lon="113.278237">
        <time>2026-07-01T22:21:16Z</time>
      </trkpt>
      <trkpt lat="23.061845" lon="113.278312">
        <time>2026-07-01T22:21:21Z</time>
      </trkpt>
      <trkpt lat="23.061843" lon="113.278424">
        <time>2026-07-01T22:21:26Z</time>
      </trkpt>
      <trkpt lat="23.061852" lon="113.278543">
        <time>2026-07-01T22:21:31Z</time>
      </trkpt>
      <trkpt lat="23.061856" lon="113.278623">
        <time>2026-07-01T22:21:36Z</time>
      </trkpt>
      <trkpt lat="23.061844" lon="113.278703">
        <time>2026-07-01T22:21:41Z</time>
      </trkpt>
      <trkpt lat="23.061799" lon="113.278818">
        <time>2026-07-01T22:21:46Z</time>
      </trkpt>
      <trkpt lat="23.061739" lon="113.278932">
        <time>2026-07-01T22:21:51Z</time>
      </trkpt>
      <trkpt lat="23.061697" lon="113.279005">
        <time>2026-07-01T22:21:56Z</time>
      </trkpt>
      <trkpt lat="23.061656" lon="113.279076">
        <time>2026-07-01T22:22:01Z</time>
      </trkpt>
      <trkpt lat="23.061603" lon="113.279187">
        <time>2026-07-01T22:22:06Z</time>
      </trkpt>
      <trkpt lat="23.061574" lon="113.279298">
        <time>2026-07-01T22:22:11Z</time>
      </trkpt>
      <trkpt lat="23.061547" lon="113.279367">
        <time>2026-07-01T22:22:16Z</time>
      </trkpt>
      <trkpt lat="23.061515" lon="113.27944">
        <time>2026-07-01T22:22:21Z</time>
      </trkpt>
      <trkpt lat="23.061463" lon="113.279555">
        <time>2026-07-01T22:22:26Z</time>
      </trkpt>
      <trkpt lat="23.061405" lon="113.279679">
        <time>2026-07-01T22:22:31Z</time>
      </trkpt>
      <trkpt lat="23.061369" lon="113.279764">
        <time>2026-07-01T22:22:36Z</time>
      </trkpt>
      <trkpt lat="23.061332" lon="113.279851">
        <time>2026-07-01T22:22:41Z</time>
      </trkpt>
      <trkpt lat="23.061282" lon="113.279981">
        <time>2026-07-01T22:22:46Z</time>
      </trkpt>
      <trkpt lat="23.061231" lon="113.280113">
        <time>2026-07-01T22:22:51Z</time>
      </trkpt>
      <trkpt lat="23.061193" lon="113.280201">
        <time>2026-07-01T22:22:56Z</time>
      </trkpt>
      <trkpt lat="23.061158" lon="113.280286">
        <time>2026-07-01T22:23:01Z</time>
      </trkpt>
      <trkpt lat="23.061101" lon="113.280408">
        <time>2026-07-01T22:23:06Z</time>
      </trkpt>
      <trkpt lat="23.061019" lon="113.280518">
        <time>2026-07-01T22:23:11Z</time>
      </trkpt>
      <trkpt lat="23.060975" lon="113.280604">
        <time>2026-07-01T22:23:16Z</time>
      </trkpt>
      <trkpt lat="23.060937" lon="113.280687">
        <time>2026-07-01T22:23:21Z</time>
      </trkpt>
      <trkpt lat="23.060876" lon="113.280804">
        <time>2026-07-01T22:23:26Z</time>
      </trkpt>
      <trkpt lat="23.060823" lon="113.280923">
        <time>2026-07-01T22:23:31Z</time>
      </trkpt>
      <trkpt lat="23.060789" lon="113.281003">
        <time>2026-07-01T22:23:36Z</time>
      </trkpt>
      <trkpt lat="23.060753" lon="113.281089">
        <time>2026-07-01T22:23:41Z</time>
      </trkpt>
      <trkpt lat="23.060709" lon="113.281222">
        <time>2026-07-01T22:23:46Z</time>
      </trkpt>
      <trkpt lat="23.060653" lon="113.281342">
        <time>2026-07-01T22:23:51Z</time>
      </trkpt>
      <trkpt lat="23.060615" lon="113.281421">
        <time>2026-07-01T22:23:56Z</time>
      </trkpt>
      <trkpt lat="23.060579" lon="113.281501">
        <time>2026-07-01T22:24:01Z</time>
      </trkpt>
      <trkpt lat="23.060526" lon="113.281623">
        <time>2026-07-01T22:24:06Z</time>
      </trkpt>
      <trkpt lat="23.060475" lon="113.281748">
        <time>2026-07-01T22:24:11Z</time>
      </trkpt>
      <trkpt lat="23.060441" lon="113.28183">
        <time>2026-07-01T22:24:16Z</time>
      </trkpt>
      <trkpt lat="23.060404" lon="113.281911">
        <time>2026-07-01T22:24:21Z</time>
      </trkpt>
      <trkpt lat="23.060351" lon="113.282032">
        <time>2026-07-01T22:24:26Z</time>
      </trkpt>
      <trkpt lat="23.060299" lon="113.282154">
        <time>2026-07-01T22:24:31Z</time>
      </trkpt>
      <trkpt lat="23.060263" lon="113.282235">
        <time>2026-07-01T22:24:36Z</time>
      </trkpt>
      <trkpt lat="23.060229" lon="113.282319">
        <time>2026-07-01T22:24:41Z</time>
      </trkpt>
      <trkpt lat="23.060176" lon="113.282446">
        <time>2026-07-01T22:24:46Z</time>
      </trkpt>
      <trkpt lat="23.060128" lon="113.282573">
        <time>2026-07-01T22:24:51Z</time>
      </trkpt>
      <trkpt lat="23.060099" lon="113.282661">
        <time>2026-07-01T22:24:56Z</time>
      </trkpt>
      <trkpt lat="23.060067" lon="113.282748">
        <time>2026-07-01T22:25:01Z</time>
      </trkpt>
      <trkpt lat="23.060008" lon="113.282878">
        <time>2026-07-01T22:25:06Z</time>
      </trkpt>
      <trkpt lat="23.059945" lon="113.283007">
        <time>2026-07-01T22:25:11Z</time>
      </trkpt>
      <trkpt lat="23.059904" lon="113.283093">
        <time>2026-07-01T22:25:16Z</time>
      </trkpt>
      <trkpt lat="23.059867" lon="113.283174">
        <time>2026-07-01T22:25:21Z</time>
      </trkpt>
      <trkpt lat="23.059822" lon="113.283302">
        <time>2026-07-01T22:25:26Z</time>
      </trkpt>
      <trkpt lat="23.059876" lon="113.283373">
        <time>2026-07-01T22:25:31Z</time>
      </trkpt>
      <trkpt lat="23.059949" lon="113.283338">
        <time>2026-07-01T22:25:36Z</time>
      </trkpt>
      <trkpt lat="23.059998" lon="113.283274">
        <time>2026-07-01T22:25:41Z</time>
      </trkpt>
      <trkpt lat="23.060059" lon="113.283185">
        <time>2026-07-01T22:25:46Z</time>
      </trkpt>
      <trkpt lat="23.060117" lon="113.283066">
        <time>2026-07-01T22:25:51Z</time>
      </trkpt>
      <trkpt lat="23.060164" lon="113.282976">
        <time>2026-07-01T22:25:56Z</time>
      </trkpt>
      <trkpt lat="23.060201" lon="113.282872">
        <time>2026-07-01T22:26:01Z</time>
      </trkpt>
      <trkpt lat="23.060244" lon="113.282719">
        <time>2026-07-01T22:26:06Z</time>
      </trkpt>
      <trkpt lat="23.060299" lon="113.282604">
        <time>2026-07-01T22:26:11Z</time>
      </trkpt>
      <trkpt lat="23.060334" lon="113.282514">
        <time>2026-07-01T22:26:16Z</time>
      </trkpt>
      <trkpt lat="23.060367" lon="113.282421">
        <time>2026-07-01T22:26:21Z</time>
      </trkpt>
      <trkpt lat="23.060416" lon="113.282305">
        <time>2026-07-01T22:26:26Z</time>
      </trkpt>
      <trkpt lat="23.060471" lon="113.282192">
        <time>2026-07-01T22:26:31Z</time>
      </trkpt>
      <trkpt lat="23.060506" lon="113.282123">
        <time>2026-07-01T22:26:36Z</time>
      </trkpt>
      <trkpt lat="23.060548" lon="113.28205">
        <time>2026-07-01T22:26:41Z</time>
      </trkpt>
      <trkpt lat="23.060605" lon="113.281929">
        <time>2026-07-01T22:26:46Z</time>
      </trkpt>
      <trkpt lat="23.060656" lon="113.281808">
        <time>2026-07-01T22:26:51Z</time>
      </trkpt>
      <trkpt lat="23.060686" lon="113.281726">
        <time>2026-07-01T22:26:56Z</time>
      </trkpt>
      <trkpt lat="23.060714" lon="113.281648">
        <time>2026-07-01T22:27:01Z</time>
      </trkpt>
      <trkpt lat="23.060755" lon="113.28154">
        <time>2026-07-01T22:27:06Z</time>
      </trkpt>
      <trkpt lat="23.060794" lon="113.281425">
        <time>2026-07-01T22:27:11Z</time>
      </trkpt>
      <trkpt lat="23.060824" lon="113.281346">
        <time>2026-07-01T22:27:16Z</time>
      </trkpt>
      <trkpt lat="23.060862" lon="113.281275">
        <time>2026-07-01T22:27:21Z</time>
      </trkpt>
      <trkpt lat="23.060908" lon="113.281163">
        <time>2026-07-01T22:27:26Z</time>
      </trkpt>
      <trkpt lat="23.060946" lon="113.281046">
        <time>2026-07-01T22:27:31Z</time>
      </trkpt>
      <trkpt lat="23.060973" lon="113.280967">
        <time>2026-07-01T22:27:36Z</time>
      </trkpt>
      <trkpt lat="23.061005" lon="113.280887">
        <time>2026-07-01T22:27:41Z</time>
      </trkpt>
      <trkpt lat="23.06106" lon="113.280773">
        <time>2026-07-01T22:27:46Z</time>
      </trkpt>
      <trkpt lat="23.061124" lon="113.280656">
        <time>2026-07-01T22:27:51Z</time>
      </trkpt>
      <trkpt lat="23.06116" lon="113.280573">
        <time>2026-07-01T22:27:56Z</time>
      </trkpt>
      <trkpt lat="23.061195" lon="113.280489">
        <time>2026-07-01T22:28:01Z</time>
      </trkpt>
      <trkpt lat="23.061243" lon="113.280367">
        <time>2026-07-01T22:28:06Z</time>
      </trkpt>
      <trkpt lat="23.061293" lon="113.280247">
        <time>2026-07-01T22:28:11Z</time>
      </trkpt>
      <trkpt lat="23.061339" lon="113.280171">
        <time>2026-07-01T22:28:16Z</time>
      </trkpt>
      <trkpt lat="23.061378" lon="113.280095">
        <time>2026-07-01T22:28:21Z</time>
      </trkpt>
      <trkpt lat="23.061423" lon="113.279977">
        <time>2026-07-01T22:28:26Z</time>
      </trkpt>
      <trkpt lat="23.061472" lon="113.279858">
        <time>2026-07-01T22:28:31Z</time>
      </trkpt>
      <trkpt lat="23.061503" lon="113.279779">
        <time>2026-07-01T22:28:36Z</time>
      </trkpt>
      <trkpt lat="23.061531" lon="113.279698">
        <time>2026-07-01T22:28:41Z</time>
      </trkpt>
      <trkpt lat="23.061579" lon="113.27958">
        <time>2026-07-01T22:28:46Z</time>
      </trkpt>
      <trkpt lat="23.061627" lon="113.279465">
        <time>2026-07-01T22:28:51Z</time>
      </trkpt>
      <trkpt lat="23.061656" lon="113.279387">
        <time>2026-07-01T22:28:56Z</time>
      </trkpt>
      <trkpt lat="23.061687" lon="113.279309">
        <time>2026-07-01T22:29:01Z</time>
      </trkpt>
      <trkpt lat="23.061734" lon="113.279185">
        <time>2026-07-01T22:29:06Z</time>
      </trkpt>
      <trkpt lat="23.061799" lon="113.279074">
        <time>2026-07-01T22:29:11Z</time>
      </trkpt>
      <trkpt lat="23.061847" lon="113.279008">
        <time>2026-07-01T22:29:16Z</time>
      </trkpt>
      <trkpt lat="23.061894" lon="113.278936">
        <time>2026-07-01T22:29:21Z</time>
      </trkpt>
      <trkpt lat="23.061956" lon="113.278811">
        <time>2026-07-01T22:29:26Z</time>
      </trkpt>
      <trkpt lat="23.061973" lon="113.278671">
        <time>2026-07-01T22:29:31Z</time>
      </trkpt>
      <trkpt lat="23.061969" lon="113.278577">
        <time>2026-07-01T22:29:36Z</time>
      </trkpt>
      <trkpt lat="23.061964" lon="113.278482">
        <time>2026-07-01T22:29:41Z</time>
      </trkpt>
      <trkpt lat="23.061957" lon="113.278342">
        <time>2026-07-01T22:29:46Z</time>
      </trkpt>
      <trkpt lat="23.061947" lon="113.278205">
        <time>2026-07-01T22:29:51Z</time>
      </trkpt>
      <trkpt lat="23.061944" lon="113.278113">
        <time>2026-07-01T22:29:56Z</time>
      </trkpt>
      <trkpt lat="23.061941" lon="113.278017">
        <time>2026-07-01T22:30:01Z</time>
      </trkpt>
      <trkpt lat="23.061934" lon="113.277873">
        <time>2026-07-01T22:30:06Z</time>
      </trkpt>
      <trkpt lat="23.061949" lon="113.277734">
        <time>2026-07-01T22:30:11Z</time>
      </trkpt>
      <trkpt lat="23.061977" lon="113.277644">
        <time>2026-07-01T22:30:16Z</time>
      </trkpt>
      <trkpt lat="23.062013" lon="113.277556">
        <time>2026-07-01T22:30:21Z</time>
      </trkpt>
      <trkpt lat="23.062063" lon="113.277427">
        <time>2026-07-01T22:30:26Z</time>
      </trkpt>
      <trkpt lat="23.06211" lon="113.277302">
        <time>2026-07-01T22:30:31Z</time>
      </trkpt>
      <trkpt lat="23.062144" lon="113.277218">
        <time>2026-07-01T22:30:36Z</time>
      </trkpt>
      <trkpt lat="23.062175" lon="113.277128">
        <time>2026-07-01T22:30:41Z</time>
      </trkpt>
      <trkpt lat="23.062231" lon="113.277005">
        <time>2026-07-01T22:30:46Z</time>
      </trkpt>
      <trkpt lat="23.062281" lon="113.276881">
        <time>2026-07-01T22:30:51Z</time>
      </trkpt>
      <trkpt lat="23.062311" lon="113.276793">
        <time>2026-07-01T22:30:56Z</time>
      </trkpt>
      <trkpt lat="23.062341" lon="113.276702">
        <time>2026-07-01T22:31:01Z</time>
      </trkpt>
      <trkpt lat="23.062389" lon="113.276565">
        <time>2026-07-01T22:31:06Z</time>
      </trkpt>
      <trkpt lat="23.06244" lon="113.276427">
        <time>2026-07-01T22:31:11Z</time>
      </trkpt>
      <trkpt lat="23.06247" lon="113.276339">
        <time>2026-07-01T22:31:16Z</time>
      </trkpt>
      <trkpt lat="23.062505" lon="113.276253">
        <time>2026-07-01T22:31:21Z</time>
      </trkpt>
      <trkpt lat="23.06257" lon="113.276128">
        <time>2026-07-01T22:31:26Z</time>
      </trkpt>
      <trkpt lat="23.062653" lon="113.276016">
        <time>2026-07-01T22:31:31Z</time>
      </trkpt>
      <trkpt lat="23.062713" lon="113.275942">
        <time>2026-07-01T22:31:36Z</time>
      </trkpt>
      <trkpt lat="23.062772" lon="113.275868">
        <time>2026-07-01T22:31:41Z</time>
      </trkpt>
      <trkpt lat="23.062873" lon="113.275766">
        <time>2026-07-01T22:31:46Z</time>
      </trkpt>
      <trkpt lat="23.062975" lon="113.275669">
        <time>2026-07-01T22:31:51Z</time>
      </trkpt>
      <trkpt lat="23.063032" lon="113.275599">
        <time>2026-07-01T22:31:56Z</time>
      </trkpt>
      <trkpt lat="23.063083" lon="113.275531">
        <time>2026-07-01T22:32:01Z</time>
      </trkpt>
      <trkpt lat="23.063144" lon="113.275416">
        <time>2026-07-01T22:32:06Z</time>
      </trkpt>
      <trkpt lat="23.063209" lon="113.275299">
        <time>2026-07-01T22:32:11Z</time>
      </trkpt>
      <trkpt lat="23.063258" lon="113.275221">
        <time>2026-07-01T22:32:16Z</time>
      </trkpt>
      <trkpt lat="23.063316" lon="113.275143">
        <time>2026-07-01T22:32:21Z</time>
      </trkpt>
      <trkpt lat="23.06338" lon="113.275012">
        <time>2026-07-01T22:32:26Z</time>
      </trkpt>
      <trkpt lat="23.063414" lon="113.274879">
        <time>2026-07-01T22:32:31Z</time>
      </trkpt>
      <trkpt lat="23.063434" lon="113.2748">
        <time>2026-07-01T22:32:36Z</time>
      </trkpt>
      <trkpt lat="23.063459" lon="113.274716">
        <time>2026-07-01T22:32:41Z</time>
      </trkpt>
      <trkpt lat="23.063498" lon="113.274585">
        <time>2026-07-01T22:32:46Z</time>
      </trkpt>
      <trkpt lat="23.063538" lon="113.274459">
        <time>2026-07-01T22:32:51Z</time>
      </trkpt>
      <trkpt lat="23.063582" lon="113.27438">
        <time>2026-07-01T22:32:56Z</time>
      </trkpt>
      <trkpt lat="23.06364" lon="113.274311">
        <time>2026-07-01T22:33:01Z</time>
      </trkpt>
      <trkpt lat="23.063739" lon="113.274223">
        <time>2026-07-01T22:33:06Z</time>
      </trkpt>
      <trkpt lat="23.063822" lon="113.274133">
        <time>2026-07-01T22:33:11Z</time>
      </trkpt>
      <trkpt lat="23.063866" lon="113.274054">
        <time>2026-07-01T22:33:16Z</time>
      </trkpt>
      <trkpt lat="23.063916" lon="113.273971">
        <time>2026-07-01T22:33:21Z</time>
      </trkpt>
      <trkpt lat="23.063977" lon="113.273862">
        <time>2026-07-01T22:33:26Z</time>
      </trkpt>
      <trkpt lat="23.064032" lon="113.273785">
        <time>2026-07-01T22:33:31Z</time>
      </trkpt>
      <trkpt lat="23.064071" lon="113.27374">
        <time>2026-07-01T22:33:36Z</time>
      </trkpt>
      <trkpt lat="23.06411" lon="113.273706">
        <time>2026-07-01T22:33:41Z</time>
      </trkpt>
      <trkpt lat="23.064177" lon="113.273656">
        <time>2026-07-01T22:33:46Z</time>
      </trkpt>
      <trkpt lat="23.064247" lon="113.2736">
        <time>2026-07-01T22:33:51Z</time>
      </trkpt>
      <trkpt lat="23.064289" lon="113.273562">
        <time>2026-07-01T22:33:56Z</time>
      </trkpt>
      <trkpt lat="23.06433" lon="113.27352">
        <time>2026-07-01T22:34:01Z</time>
      </trkpt>
      <trkpt lat="23.06442" lon="113.273432">
        <time>2026-07-01T22:34:06Z</time>
      </trkpt>
      <trkpt lat="23.064519" lon="113.273328">
        <time>2026-07-01T22:34:11Z</time>
      </trkpt>
      <trkpt lat="23.064562" lon="113.273241">
        <time>2026-07-01T22:34:16Z</time>
      </trkpt>
      <trkpt lat="23.064574" lon="113.27314">
        <time>2026-07-01T22:34:21Z</time>
      </trkpt>
      <trkpt lat="23.064546" lon="113.272991">
        <time>2026-07-01T22:34:26Z</time>
      </trkpt>
      <trkpt lat="23.064493" lon="113.272846">
        <time>2026-07-01T22:34:31Z</time>
      </trkpt>
      <trkpt lat="23.06446" lon="113.272748">
        <time>2026-07-01T22:34:36Z</time>
      </trkpt>
      <trkpt lat="23.064438" lon="113.272651">
        <time>2026-07-01T22:34:41Z</time>
      </trkpt>
      <trkpt lat="23.064463" lon="113.272514">
        <time>2026-07-01T22:34:46Z</time>
      </trkpt>
      <trkpt lat="23.064548" lon="113.272391">
        <time>2026-07-01T22:34:51Z</time>
      </trkpt>
      <trkpt lat="23.064566" lon="113.272302">
        <time>2026-07-01T22:34:56Z</time>
      </trkpt>
      <trkpt lat="23.06458" lon="113.272208">
        <time>2026-07-01T22:35:01Z</time>
      </trkpt>
      <trkpt lat="23.064624" lon="113.272097">
        <time>2026-07-01T22:35:06Z</time>
      </trkpt>
      <trkpt lat="23.064684" lon="113.271978">
        <time>2026-07-01T22:35:11Z</time>
      </trkpt>
      <trkpt lat="23.064728" lon="113.271896">
        <time>2026-07-01T22:35:16Z</time>
      </trkpt>
      <trkpt lat="23.064771" lon="113.271815">
        <time>2026-07-01T22:35:21Z</time>
      </trkpt>
      <trkpt lat="23.064837" lon="113.271695">
        <time>2026-07-01T22:35:26Z</time>
      </trkpt>
      <trkpt lat="23.064913" lon="113.271554">
        <time>2026-07-01T22:35:31Z</time>
      </trkpt>
      <trkpt lat="23.064945" lon="113.271454">
        <time>2026-07-01T22:35:36Z</time>
      </trkpt>
      <trkpt lat="23.064977" lon="113.271361">
        <time>2026-07-01T22:35:41Z</time>
      </trkpt>
      <trkpt lat="23.065019" lon="113.271237">
        <time>2026-07-01T22:35:46Z</time>
      </trkpt>
      <trkpt lat="23.065088" lon="113.271107">
        <time>2026-07-01T22:35:51Z</time>
      </trkpt>
      <trkpt lat="23.065134" lon="113.271012">
        <time>2026-07-01T22:35:56Z</time>
      </trkpt>
      <trkpt lat="23.06517" lon="113.270919">
        <time>2026-07-01T22:36:01Z</time>
      </trkpt>
      <trkpt lat="23.065227" lon="113.270793">
        <time>2026-07-01T22:36:06Z</time>
      </trkpt>
      <trkpt lat="23.06529" lon="113.270668">
        <time>2026-07-01T22:36:11Z</time>
      </trkpt>
      <trkpt lat="23.065328" lon="113.270589">
        <time>2026-07-01T22:36:16Z</time>
      </trkpt>
      <trkpt lat="23.065362" lon="113.270508">
        <time>2026-07-01T22:36:21Z</time>
      </trkpt>
      <trkpt lat="23.065414" lon="113.270392">
        <time>2026-07-01T22:36:26Z</time>
      </trkpt>
      <trkpt lat="23.065467" lon="113.270275">
        <time>2026-07-01T22:36:31Z</time>
      </trkpt>
      <trkpt lat="23.065503" lon="113.270193">
        <time>2026-07-01T22:36:36Z</time>
      </trkpt>
      <trkpt lat="23.065534" lon="113.270109">
        <time>2026-07-01T22:36:41Z</time>
      </trkpt>
      <trkpt lat="23.065575" lon="113.269982">
        <time>2026-07-01T22:36:46Z</time>
      </trkpt>
      <trkpt lat="23.065608" lon="113.269851">
        <time>2026-07-01T22:36:51Z</time>
      </trkpt>
      <trkpt lat="23.065632" lon="113.269766">
        <time>2026-07-01T22:36:56Z</time>
      </trkpt>
      <trkpt lat="23.065665" lon="113.269684">
        <time>2026-07-01T22:37:01Z</time>
      </trkpt>
      <trkpt lat="23.065719" lon="113.269565">
        <time>2026-07-01T22:37:06Z</time>
      </trkpt>
      <trkpt lat="23.065753" lon="113.269434">
        <time>2026-07-01T22:37:11Z</time>
      </trkpt>
      <trkpt lat="23.065767" lon="113.269345">
        <time>2026-07-01T22:37:16Z</time>
      </trkpt>
      <trkpt lat="23.065789" lon="113.269257">
        <time>2026-07-01T22:37:21Z</time>
      </trkpt>
      <trkpt lat="23.065823" lon="113.269126">
        <time>2026-07-01T22:37:26Z</time>
      </trkpt>
      <trkpt lat="23.065872" lon="113.269005">
        <time>2026-07-01T22:37:31Z</time>
      </trkpt>
      <trkpt lat="23.065907" lon="113.268924">
        <time>2026-07-01T22:37:36Z</time>
      </trkpt>
      <trkpt lat="23.065935" lon="113.26884">
        <time>2026-07-01T22:37:41Z</time>
      </trkpt>
      <trkpt lat="23.065981" lon="113.26872">
        <time>2026-07-01T22:37:46Z</time>
      </trkpt>
      <trkpt lat="23.066039" lon="113.268608">
        <time>2026-07-01T22:37:51Z</time>
      </trkpt>
      <trkpt lat="23.066086" lon="113.268534">
        <time>2026-07-01T22:37:56Z</time>
      </trkpt>
      <trkpt lat="23.066134" lon="113.268458">
        <time>2026-07-01T22:38:01Z</time>
      </trkpt>
      <trkpt lat="23.066214" lon="113.26835">
        <time>2026-07-01T22:38:06Z</time>
      </trkpt>
      <trkpt lat="23.066309" lon="113.26825">
        <time>2026-07-01T22:38:11Z</time>
      </trkpt>
      <trkpt lat="23.066378" lon="113.268192">
        <time>2026-07-01T22:38:16Z</time>
      </trkpt>
      <trkpt lat="23.066457" lon="113.268159">
        <time>2026-07-01T22:38:21Z</time>
      </trkpt>
      <trkpt lat="23.06658" lon="113.268157">
        <time>2026-07-01T22:38:26Z</time>
      </trkpt>
      <trkpt lat="23.066704" lon="113.268173">
        <time>2026-07-01T22:38:31Z</time>
      </trkpt>
      <trkpt lat="23.06679" lon="113.268168">
        <time>2026-07-01T22:38:36Z</time>
      </trkpt>
      <trkpt lat="23.066873" lon="113.268179">
        <time>2026-07-01T22:38:41Z</time>
      </trkpt>
      <trkpt lat="23.066993" lon="113.268208">
        <time>2026-07-01T22:38:46Z</time>
      </trkpt>
      <trkpt lat="23.067095" lon="113.268259">
        <time>2026-07-01T22:38:51Z</time>
      </trkpt>
      <trkpt lat="23.067166" lon="113.268294">
        <time>2026-07-01T22:38:56Z</time>
      </trkpt>
      <trkpt lat="23.067238" lon="113.268325">
        <time>2026-07-01T22:39:01Z</time>
      </trkpt>
      <trkpt lat="23.06735" lon="113.268379">
        <time>2026-07-01T22:39:06Z</time>
      </trkpt>
      <trkpt lat="23.067457" lon="113.268451">
        <time>2026-07-01T22:39:11Z</time>
      </trkpt>
      <trkpt lat="23.067537" lon="113.268511">
        <time>2026-07-01T22:39:16Z</time>
      </trkpt>
      <trkpt lat="23.067622" lon="113.268565">
        <time>2026-07-01T22:39:21Z</time>
      </trkpt>
      <trkpt lat="23.067747" lon="113.268633">
        <time>2026-07-01T22:39:26Z</time>
      </trkpt>
      <trkpt lat="23.067875" lon="113.268685">
        <time>2026-07-01T22:39:31Z</time>
      </trkpt>
      <trkpt lat="23.067949" lon="113.268734">
        <time>2026-07-01T22:39:36Z</time>
      </trkpt>
      <trkpt lat="23.068009" lon="113.268777">
        <time>2026-07-01T22:39:41Z</time>
      </trkpt>
      <trkpt lat="23.06811" lon="113.268797">
        <time>2026-07-01T22:39:46Z</time>
      </trkpt>
      <trkpt lat="23.068217" lon="113.268829">
        <time>2026-07-01T22:39:51Z</time>
      </trkpt>
      <trkpt lat="23.068295" lon="113.26888">
        <time>2026-07-01T22:39:56Z</time>
      </trkpt>
      <trkpt lat="23.068372" lon="113.268937">
        <time>2026-07-01T22:40:01Z</time>
      </trkpt>
      <trkpt lat="23.068491" lon="113.269023">
        <time>2026-07-01T22:40:06Z</time>
      </trkpt>
      <trkpt lat="23.068627" lon="113.269108">
        <time>2026-07-01T22:40:11Z</time>
      </trkpt>
      <trkpt lat="23.068707" lon="113.269154">
        <time>2026-07-01T22:40:16Z</time>
      </trkpt>
      <trkpt lat="23.068782" lon="113.269199">
        <time>2026-07-01T22:40:21Z</time>
      </trkpt>
      <trkpt lat="23.068907" lon="113.269249">
        <time>2026-07-01T22:40:26Z</time>
      </trkpt>
      <trkpt lat="23.06903" lon="113.2693">
        <time>2026-07-01T22:40:31Z</time>
      </trkpt>
      <trkpt lat="23.069118" lon="113.269319">
        <time>2026-07-01T22:40:36Z</time>
      </trkpt>
      <trkpt lat="23.069197" lon="113.269356">
        <time>2026-07-01T22:40:41Z</time>
      </trkpt>
      <trkpt lat="23.069325" lon="113.26941">
        <time>2026-07-01T22:40:46Z</time>
      </trkpt>
      <trkpt lat="23.069451" lon="113.269452">
        <time>2026-07-01T22:40:51Z</time>
      </trkpt>
      <trkpt lat="23.069526" lon="113.269491">
        <time>2026-07-01T22:40:56Z</time>
      </trkpt>
      <trkpt lat="23.069602" lon="113.269539">
        <time>2026-07-01T22:41:01Z</time>
      </trkpt>
      <trkpt lat="23.069728" lon="113.269606">
        <time>2026-07-01T22:41:06Z</time>
      </trkpt>
      <trkpt lat="23.069856" lon="113.26966">
        <time>2026-07-01T22:41:11Z</time>
      </trkpt>
      <trkpt lat="23.069932" lon="113.269713">
        <time>2026-07-01T22:41:16Z</time>
      </trkpt>
      <trkpt lat="23.070011" lon="113.269758">
        <time>2026-07-01T22:41:21Z</time>
      </trkpt>
      <trkpt lat="23.070133" lon="113.269819">
        <time>2026-07-01T22:41:26Z</time>
      </trkpt>
      <trkpt lat="23.07025" lon="113.269881">
        <time>2026-07-01T22:41:31Z</time>
      </trkpt>
      <trkpt lat="23.070324" lon="113.269915">
        <time>2026-07-01T22:41:36Z</time>
      </trkpt>
      <trkpt lat="23.070399" lon="113.269949">
        <time>2026-07-01T22:41:41Z</time>
      </trkpt>
      <trkpt lat="23.07052" lon="113.270005">
        <time>2026-07-01T22:41:46Z</time>
      </trkpt>
      <trkpt lat="23.070643" lon="113.270047">
        <time>2026-07-01T22:41:51Z</time>
      </trkpt>
      <trkpt lat="23.070716" lon="113.270082">
        <time>2026-07-01T22:41:56Z</time>
      </trkpt>
      <trkpt lat="23.070787" lon="113.270131">
        <time>2026-07-01T22:42:01Z</time>
      </trkpt>
      <trkpt lat="23.070892" lon="113.270192">
        <time>2026-07-01T22:42:06Z</time>
      </trkpt>
      <trkpt lat="23.071" lon="113.270238">
        <time>2026-07-01T22:42:11Z</time>
      </trkpt>
      <trkpt lat="23.071074" lon="113.270263">
        <time>2026-07-01T22:42:16Z</time>
      </trkpt>
      <trkpt lat="23.07115" lon="113.270304">
        <time>2026-07-01T22:42:21Z</time>
      </trkpt>
      <trkpt lat="23.071278" lon="113.27035">
        <time>2026-07-01T22:42:26Z</time>
      </trkpt>
      <trkpt lat="23.071405" lon="113.270397">
        <time>2026-07-01T22:42:31Z</time>
      </trkpt>
      <trkpt lat="23.071485" lon="113.270433">
        <time>2026-07-01T22:42:36Z</time>
      </trkpt>
      <trkpt lat="23.071564" lon="113.270468">
        <time>2026-07-01T22:42:41Z</time>
      </trkpt>
      <trkpt lat="23.071688" lon="113.270521">
        <time>2026-07-01T22:42:46Z</time>
      </trkpt>
      <trkpt lat="23.071802" lon="113.270607">
        <time>2026-07-01T22:42:51Z</time>
      </trkpt>
      <trkpt lat="23.07188" lon="113.270657">
        <time>2026-07-01T22:42:56Z</time>
      </trkpt>
      <trkpt lat="23.071958" lon="113.270688">
        <time>2026-07-01T22:43:01Z</time>
      </trkpt>
      <trkpt lat="23.072069" lon="113.270738">
        <time>2026-07-01T22:43:06Z</time>
      </trkpt>
      <trkpt lat="23.072186" lon="113.270783">
        <time>2026-07-01T22:43:11Z</time>
      </trkpt>
      <trkpt lat="23.072264" lon="113.270834">
        <time>2026-07-01T22:43:16Z</time>
      </trkpt>
      <trkpt lat="23.072342" lon="113.270892">
        <time>2026-07-01T22:43:21Z</time>
      </trkpt>
      <trkpt lat="23.072467" lon="113.270968">
        <time>2026-07-01T22:43:26Z</time>
      </trkpt>
      <trkpt lat="23.072605" lon="113.271012">
        <time>2026-07-01T22:43:31Z</time>
      </trkpt>
      <trkpt lat="23.072695" lon="113.271048">
        <time>2026-07-01T22:43:36Z</time>
      </trkpt>
      <trkpt lat="23.072783" lon="113.271071">
        <time>2026-07-01T22:43:41Z</time>
      </trkpt>
      <trkpt lat="23.0729" lon="113.271109">
        <time>2026-07-01T22:43:46Z</time>
      </trkpt>
      <trkpt lat="23.073007" lon="113.271173">
        <time>2026-07-01T22:43:51Z</time>
      </trkpt>
      <trkpt lat="23.07308" lon="113.271216">
        <time>2026-07-01T22:43:56Z</time>
      </trkpt>
      <trkpt lat="23.073153" lon="113.271258">
        <time>2026-07-01T22:44:01Z</time>
      </trkpt>
      <trkpt lat="23.07324" lon="113.271329">
        <time>2026-07-01T22:44:06Z</time>
      </trkpt>
      <trkpt lat="23.07335" lon="113.271376">
        <time>2026-07-01T22:44:11Z</time>
      </trkpt>
      <trkpt lat="23.073431" lon="113.271416">
        <time>2026-07-01T22:44:16Z</time>
      </trkpt>
      <trkpt lat="23.073513" lon="113.271464">
        <time>2026-07-01T22:44:21Z</time>
      </trkpt>
      <trkpt lat="23.073624" lon="113.271535">
        <time>2026-07-01T22:44:26Z</time>
      </trkpt>
      <trkpt lat="23.073722" lon="113.271602">
        <time>2026-07-01T22:44:31Z</time>
      </trkpt>
      <trkpt lat="23.073778" lon="113.271664">
        <time>2026-07-01T22:44:36Z</time>
      </trkpt>
      <trkpt lat="23.073829" lon="113.271723">
        <time>2026-07-01T22:44:41Z</time>
      </trkpt>
      <trkpt lat="23.073926" lon="113.271809">
        <time>2026-07-01T22:44:46Z</time>
      </trkpt>
      <trkpt lat="23.074038" lon="113.271849">
        <time>2026-07-01T22:44:51Z</time>
      </trkpt>
      <trkpt lat="23.07404" lon="113.271898">
        <time>2026-07-01T22:44:56Z</time>
      </trkpt>
      <trkpt lat="23.074011" lon="113.271968">
        <time>2026-07-01T22:45:01Z</time>
      </trkpt>
      <trkpt lat="23.073958" lon="113.272087">
        <time>2026-07-01T22:45:06Z</time>
      </trkpt>
      <trkpt lat="23.073909" lon="113.272203">
        <time>2026-07-01T22:45:11Z</time>
      </trkpt>
      <trkpt lat="23.073876" lon="113.272274">
        <time>2026-07-01T22:45:16Z</time>
      </trkpt>
      <trkpt lat="23.073844" lon="113.272345">
        <time>2026-07-01T22:45:21Z</time>
      </trkpt>
      <trkpt lat="23.073791" lon="113.272468">
        <time>2026-07-01T22:45:26Z</time>
      </trkpt>
      <trkpt lat="23.073737" lon="113.272615">
        <time>2026-07-01T22:45:31Z</time>
      </trkpt>
      <trkpt lat="23.073707" lon="113.272717">
        <time>2026-07-01T22:45:36Z</time>
      </trkpt>
      <trkpt lat="23.073683" lon="113.272813">
        <time>2026-07-01T22:45:41Z</time>
      </trkpt>
      <trkpt lat="23.073775" lon="113.272912">
        <time>2026-07-01T22:45:46Z</time>
      </trkpt>
      <trkpt lat="23.073909" lon="113.273007">
        <time>2026-07-01T22:45:51Z</time>
      </trkpt>
      <trkpt lat="23.073989" lon="113.273005">
        <time>2026-07-01T22:45:56Z</time>
      </trkpt>
      <trkpt lat="23.074039" lon="113.272929">
        <time>2026-07-01T22:46:01Z</time>
      </trkpt>
      <trkpt lat="23.074093" lon="113.272786">
        <time>2026-07-01T22:46:06Z</time>
      </trkpt>
      <trkpt lat="23.074145" lon="113.272648">
        <time>2026-07-01T22:46:11Z</time>
      </trkpt>
      <trkpt lat="23.07418" lon="113.272565">
        <time>2026-07-01T22:46:16Z</time>
      </trkpt>
      <trkpt lat="23.074226" lon="113.272493">
        <time>2026-07-01T22:46:21Z</time>
      </trkpt>
      <trkpt lat="23.074296" lon="113.27237">
        <time>2026-07-01T22:46:26Z</time>
      </trkpt>
      <trkpt lat="23.074361" lon="113.27223">
        <time>2026-07-01T22:46:31Z</time>
      </trkpt>
      <trkpt lat="23.07438" lon="113.272135">
        <time>2026-07-01T22:46:36Z</time>
      </trkpt>
      <trkpt lat="23.074412" lon="113.272059">
        <time>2026-07-01T22:46:41Z</time>
      </trkpt>
      <trkpt lat="23.074505" lon="113.271997">
        <time>2026-07-01T22:46:46Z</time>
      </trkpt>
      <trkpt lat="23.074608" lon="113.272041">
        <time>2026-07-01T22:46:51Z</time>
      </trkpt>
      <trkpt lat="23.074679" lon="113.272091">
        <time>2026-07-01T22:46:56Z</time>
      </trkpt>
      <trkpt lat="23.074752" lon="113.272139">
        <time>2026-07-01T22:47:01Z</time>
      </trkpt>
      <trkpt lat="23.074862" lon="113.272212">
        <time>2026-07-01T22:47:06Z</time>
      </trkpt>
      <trkpt lat="23.074965" lon="113.272292">
        <time>2026-07-01T22:47:11Z</time>
      </trkpt>
      <trkpt lat="23.075033" lon="113.272345">
        <time>2026-07-01T22:47:16Z</time>
      </trkpt>
      <trkpt lat="23.075102" lon="113.272395">
        <time>2026-07-01T22:47:21Z</time>
      </trkpt>
      <trkpt lat="23.075225" lon="113.27246">
        <time>2026-07-01T22:47:26Z</time>
      </trkpt>
      <trkpt lat="23.075357" lon="113.272513">
        <time>2026-07-01T22:47:31Z</time>
      </trkpt>
      <trkpt lat="23.075441" lon="113.272553">
        <time>2026-07-01T22:47:36Z</time>
      </trkpt>
      <trkpt lat="23.075522" lon="113.272597">
        <time>2026-07-01T22:47:41Z</time>
      </trkpt>
      <trkpt lat="23.075635" lon="113.272652">
        <time>2026-07-01T22:47:46Z</time>
      </trkpt>
      <trkpt lat="23.075786" lon="113.272708">
        <time>2026-07-01T22:47:53Z</time>
      </trkpt>
    </trkseg>
  </trk>
</gpx>