<?xml version="1.0" encoding="UTF-8"?>
<gpx xmlns="http://www.topografix.com/GPX/1/1" xmlns:gpxtpx="http://www.garmin.com/xmlschemas/TrackPointExtension/v1" xmlns:xsi="http://www.w3.org/2001/XMLSchema-instance" xsi:schemaLocation="http://www.topografix.com/GPX/1/1 http://www.topografix.com/GPX/1/1/gpx.xsd" version="1.1" creator="gpx.py -- https://github.com/tkrajina/gpxpy">
  <trk>
    <name>gpx from joyrun</name>
    <trkseg>
      <trkpt lat="23.076059" lon="113.272961">
        <time>2026-07-04T23:43:44Z</time>
      </trkpt>
      <trkpt lat="23.076077" lon="113.272929">
        <time>2026-07-04T23:43:49Z</time>
      </trkpt>
      <trkpt lat="23.076096" lon="113.272861">
        <time>2026-07-04T23:43:54Z</time>
      </trkpt>
      <trkpt lat="23.07607" lon="113.27277">
        <time>2026-07-04T23:43:59Z</time>
      </trkpt>
      <trkpt lat="23.075932" lon="113.272654">
        <time>2026-07-04T23:44:04Z</time>
      </trkpt>
      <trkpt lat="23.075802" lon="113.272558">
        <time>2026-07-04T23:44:09Z</time>
      </trkpt>
      <trkpt lat="23.075732" lon="113.27249">
        <time>2026-07-04T23:44:14Z</time>
      </trkpt>
      <trkpt lat="23.075652" lon="113.272437">
        <time>2026-07-04T23:44:19Z</time>
      </trkpt>
      <trkpt lat="23.075447" lon="113.272409">
        <time>2026-07-04T23:44:24Z</time>
      </trkpt>
      <trkpt lat="23.07528" lon="113.272371">
        <time>2026-07-04T23:44:29Z</time>
      </trkpt>
      <trkpt lat="23.075184" lon="113.272326">
        <time>2026-07-04T23:44:34Z</time>
      </trkpt>
      <trkpt lat="23.075089" lon="113.272266">
        <time>2026-07-04T23:44:39Z</time>
      </trkpt>
      <trkpt lat="23.074977" lon="113.272179">
        <time>2026-07-04T23:44:44Z</time>
      </trkpt>
      <trkpt lat="23.074867" lon="113.272102">
        <time>2026-07-04T23:44:49Z</time>
      </trkpt>
      <trkpt lat="23.074785" lon="113.272054">
        <time>2026-07-04T23:44:54Z</time>
      </trkpt>
      <trkpt lat="23.074698" lon="113.272006">
        <time>2026-07-04T23:44:59Z</time>
      </trkpt>
      <trkpt lat="23.074564" lon="113.271931">
        <time>2026-07-04T23:45:04Z</time>
      </trkpt>
      <trkpt lat="23.074442" lon="113.271896">
        <time>2026-07-04T23:45:09Z</time>
      </trkpt>
      <trkpt lat="23.074389" lon="113.271951">
        <time>2026-07-04T23:45:14Z</time>
      </trkpt>
      <trkpt lat="23.074329" lon="113.272063">
        <time>2026-07-04T23:45:19Z</time>
      </trkpt>
      <trkpt lat="23.074276" lon="113.27219">
        <time>2026-07-04T23:45:24Z</time>
      </trkpt>
      <trkpt lat="23.074227" lon="113.272309">
        <time>2026-07-04T23:45:29Z</time>
      </trkpt>
      <trkpt lat="23.074183" lon="113.272398">
        <time>2026-07-04T23:45:34Z</time>
      </trkpt>
      <trkpt lat="23.074143" lon="113.272501">
        <time>2026-07-04T23:45:39Z</time>
      </trkpt>
      <trkpt lat="23.074078" lon="113.272643">
        <time>2026-07-04T23:45:44Z</time>
      </trkpt>
      <trkpt lat="23.073962" lon="113.272756">
        <time>2026-07-04T23:45:49Z</time>
      </trkpt>
      <trkpt lat="23.073875" lon="113.272803">
        <time>2026-07-04T23:45:54Z</time>
      </trkpt>
      <trkpt lat="23.073786" lon="113.272802">
        <time>2026-07-04T23:45:59Z</time>
      </trkpt>
      <trkpt lat="23.073689" lon="113.272756">
        <time>2026-07-04T23:46:04Z</time>
      </trkpt>
      <trkpt lat="23.073722" lon="113.272666">
        <time>2026-07-04T23:46:09Z</time>
      </trkpt>
      <trkpt lat="23.073763" lon="113.272599">
        <time>2026-07-04T23:46:14Z</time>
      </trkpt>
      <trkpt lat="23.073799" lon="113.272527">
        <time>2026-07-04T23:46:19Z</time>
      </trkpt>
      <trkpt lat="23.073843" lon="113.272425">
        <time>2026-07-04T23:46:24Z</time>
      </trkpt>
      <trkpt lat="23.073885" lon="113.27232">
        <time>2026-07-04T23:46:29Z</time>
      </trkpt>
      <trkpt lat="23.073912" lon="113.272233">
        <time>2026-07-04T23:46:34Z</time>
      </trkpt>
      <trkpt lat="23.073949" lon="113.27215">
        <time>2026-07-04T23:46:39Z</time>
      </trkpt>
      <trkpt lat="23.074039" lon="113.271998">
        <time>2026-07-04T23:46:44Z</time>
      </trkpt>
      <trkpt lat="23.074098" lon="113.271871">
        <time>2026-07-04T23:46:49Z</time>
      </trkpt>
      <trkpt lat="23.07412" lon="113.271799">
        <time>2026-07-04T23:46:54Z</time>
      </trkpt>
      <trkpt lat="23.074128" lon="113.271726">
        <time>2026-07-04T23:46:59Z</time>
      </trkpt>
      <trkpt lat="23.074044" lon="113.271652">
        <time>2026-07-04T23:47:04Z</time>
      </trkpt>
      <trkpt lat="23.073944" lon="113.271602">
        <time>2026-07-04T23:47:09Z</time>
      </trkpt>
      <trkpt lat="23.073883" lon="113.271563">
        <time>2026-07-04T23:47:14Z</time>
      </trkpt>
      <trkpt lat="23.073823" lon="113.271522">
        <time>2026-07-04T23:47:19Z</time>
      </trkpt>
      <trkpt lat="23.073711" lon="113.271479">
        <time>2026-07-04T23:47:24Z</time>
      </trkpt>
      <trkpt lat="23.073548" lon="113.271446">
        <time>2026-07-04T23:47:29Z</time>
      </trkpt>
      <trkpt lat="23.073456" lon="113.271416">
        <time>2026-07-04T23:47:34Z</time>
      </trkpt>
      <trkpt lat="23.073364" lon="113.271374">
        <time>2026-07-04T23:47:39Z</time>
      </trkpt>
      <trkpt lat="23.073231" lon="113.27124">
        <time>2026-07-04T23:47:44Z</time>
      </trkpt>
      <trkpt lat="23.073109" lon="113.271108">
        <time>2026-07-04T23:47:49Z</time>
      </trkpt>
      <trkpt lat="23.073043" lon="113.271075">
        <time>2026-07-04T23:47:54Z</time>
      </trkpt>
      <trkpt lat="23.072974" lon="113.271045">
        <time>2026-07-04T23:47:59Z</time>
      </trkpt>
      <trkpt lat="23.072857" lon="113.270973">
        <time>2026-07-04T23:48:04Z</time>
      </trkpt>
      <trkpt lat="23.07274" lon="113.270914">
        <time>2026-07-04T23:48:09Z</time>
      </trkpt>
      <trkpt lat="23.07266" lon="113.270883">
        <time>2026-07-04T23:48:14Z</time>
      </trkpt>
      <trkpt lat="23.072582" lon="113.270843">
        <time>2026-07-04T23:48:19Z</time>
      </trkpt>
      <trkpt lat="23.072451" lon="113.270782">
        <time>2026-07-04T23:48:24Z</time>
      </trkpt>
      <trkpt lat="23.072323" lon="113.270734">
        <time>2026-07-04T23:48:29Z</time>
      </trkpt>
      <trkpt lat="23.072238" lon="113.270697">
        <time>2026-07-04T23:48:34Z</time>
      </trkpt>
      <trkpt lat="23.072163" lon="113.270651">
        <time>2026-07-04T23:48:39Z</time>
      </trkpt>
      <trkpt lat="23.072059" lon="113.270587">
        <time>2026-07-04T23:48:44Z</time>
      </trkpt>
      <trkpt lat="23.071943" lon="113.270516">
        <time>2026-07-04T23:48:49Z</time>
      </trkpt>
      <trkpt lat="23.071858" lon="113.270462">
        <time>2026-07-04T23:48:54Z</time>
      </trkpt>
      <trkpt lat="23.071771" lon="113.270417">
        <time>2026-07-04T23:48:59Z</time>
      </trkpt>
      <trkpt lat="23.071643" lon="113.270378">
        <time>2026-07-04T23:49:04Z</time>
      </trkpt>
      <trkpt lat="23.071519" lon="113.270319">
        <time>2026-07-04T23:49:09Z</time>
      </trkpt>
      <trkpt lat="23.07144" lon="113.270274">
        <time>2026-07-04T23:49:14Z</time>
      </trkpt>
      <trkpt lat="23.071379" lon="113.270235">
        <time>2026-07-04T23:49:19Z</time>
      </trkpt>
      <trkpt lat="23.071254" lon="113.270197">
        <time>2026-07-04T23:49:24Z</time>
      </trkpt>
      <trkpt lat="23.071133" lon="113.270138">
        <time>2026-07-04T23:49:29Z</time>
      </trkpt>
      <trkpt lat="23.071052" lon="113.270105">
        <time>2026-07-04T23:49:34Z</time>
      </trkpt>
      <trkpt lat="23.070968" lon="113.270086">
        <time>2026-07-04T23:49:39Z</time>
      </trkpt>
      <trkpt lat="23.070841" lon="113.270042">
        <time>2026-07-04T23:49:44Z</time>
      </trkpt>
      <trkpt lat="23.070717" lon="113.26995">
        <time>2026-07-04T23:49:49Z</time>
      </trkpt>
      <trkpt lat="23.070629" lon="113.269902">
        <time>2026-07-04T23:49:54Z</time>
      </trkpt>
      <trkpt lat="23.070535" lon="113.269868">
        <time>2026-07-04T23:49:59Z</time>
      </trkpt>
      <trkpt lat="23.070406" lon="113.269804">
        <time>2026-07-04T23:50:04Z</time>
      </trkpt>
      <trkpt lat="23.070283" lon="113.269732">
        <time>2026-07-04T23:50:09Z</time>
      </trkpt>
      <trkpt lat="23.0702" lon="113.269689">
        <time>2026-07-04T23:50:14Z</time>
      </trkpt>
      <trkpt lat="23.070116" lon="113.269644">
        <time>2026-07-04T23:50:19Z</time>
      </trkpt>
      <trkpt lat="23.06999" lon="113.26957">
        <time>2026-07-04T23:50:24Z</time>
      </trkpt>
      <trkpt lat="23.069869" lon="113.269499">
        <time>2026-07-04T23:50:29Z</time>
      </trkpt>
      <trkpt lat="23.069787" lon="113.269462">
        <time>2026-07-04T23:50:34Z</time>
      </trkpt>
      <trkpt lat="23.069703" lon="113.269415">
        <time>2026-07-04T23:50:39Z</time>
      </trkpt>
      <trkpt lat="23.06958" lon="113.269332">
        <time>2026-07-04T23:50:44Z</time>
      </trkpt>
      <trkpt lat="23.069454" lon="113.269268">
        <time>2026-07-04T23:50:49Z</time>
      </trkpt>
      <trkpt lat="23.069359" lon="113.269227">
        <time>2026-07-04T23:50:54Z</time>
      </trkpt>
      <trkpt lat="23.069249" lon="113.269182">
        <time>2026-07-04T23:50:59Z</time>
      </trkpt>
      <trkpt lat="23.0691" lon="113.269131">
        <time>2026-07-04T23:51:04Z</time>
      </trkpt>
      <trkpt lat="23.068974" lon="113.269105">
        <time>2026-07-04T23:51:09Z</time>
      </trkpt>
      <trkpt lat="23.068891" lon="113.269077">
        <time>2026-07-04T23:51:14Z</time>
      </trkpt>
      <trkpt lat="23.068809" lon="113.269043">
        <time>2026-07-04T23:51:19Z</time>
      </trkpt>
      <trkpt lat="23.068682" lon="113.268998">
        <time>2026-07-04T23:51:24Z</time>
      </trkpt>
      <trkpt lat="23.068564" lon="113.268944">
        <time>2026-07-04T23:51:29Z</time>
      </trkpt>
      <trkpt lat="23.068493" lon="113.268899">
        <time>2026-07-04T23:51:34Z</time>
      </trkpt>
      <trkpt lat="23.068434" lon="113.26881">
        <time>2026-07-04T23:51:39Z</time>
      </trkpt>
      <trkpt lat="23.068308" lon="113.268805">
        <time>2026-07-04T23:51:44Z</time>
      </trkpt>
      <trkpt lat="23.068181" lon="113.268788">
        <time>2026-07-04T23:51:49Z</time>
      </trkpt>
      <trkpt lat="23.068101" lon="113.268736">
        <time>2026-07-04T23:51:54Z</time>
      </trkpt>
      <trkpt lat="23.068031" lon="113.268619">
        <time>2026-07-04T23:51:59Z</time>
      </trkpt>
      <trkpt lat="23.067904" lon="113.268541">
        <time>2026-07-04T23:52:04Z</time>
      </trkpt>
      <trkpt lat="23.067776" lon="113.268483">
        <time>2026-07-04T23:52:09Z</time>
      </trkpt>
      <trkpt lat="23.067694" lon="113.268438">
        <time>2026-07-04T23:52:14Z</time>
      </trkpt>
      <trkpt lat="23.067637" lon="113.268399">
        <time>2026-07-04T23:52:19Z</time>
      </trkpt>
      <trkpt lat="23.067526" lon="113.268358">
        <time>2026-07-04T23:52:24Z</time>
      </trkpt>
      <trkpt lat="23.06741" lon="113.268304">
        <time>2026-07-04T23:52:29Z</time>
      </trkpt>
      <trkpt lat="23.067331" lon="113.268269">
        <time>2026-07-04T23:52:34Z</time>
      </trkpt>
      <trkpt lat="23.067252" lon="113.268232">
        <time>2026-07-04T23:52:39Z</time>
      </trkpt>
      <trkpt lat="23.067133" lon="113.268178">
        <time>2026-07-04T23:52:44Z</time>
      </trkpt>
      <trkpt lat="23.067023" lon="113.26812">
        <time>2026-07-04T23:52:49Z</time>
      </trkpt>
      <trkpt lat="23.066944" lon="113.268094">
        <time>2026-07-04T23:52:54Z</time>
      </trkpt>
      <trkpt lat="23.066859" lon="113.268089">
        <time>2026-07-04T23:52:59Z</time>
      </trkpt>
      <trkpt lat="23.066722" lon="113.268092">
        <time>2026-07-04T23:53:04Z</time>
      </trkpt>
      <trkpt lat="23.066581" lon="113.268085">
        <time>2026-07-04T23:53:09Z</time>
      </trkpt>
      <trkpt lat="23.06649" lon="113.268092">
        <time>2026-07-04T23:53:14Z</time>
      </trkpt>
      <trkpt lat="23.066406" lon="113.268133">
        <time>2026-07-04T23:53:19Z</time>
      </trkpt>
      <trkpt lat="23.066304" lon="113.26822">
        <time>2026-07-04T23:53:24Z</time>
      </trkpt>
      <trkpt lat="23.06622" lon="113.268332">
        <time>2026-07-04T23:53:29Z</time>
      </trkpt>
      <trkpt lat="23.066162" lon="113.268409">
        <time>2026-07-04T23:53:34Z</time>
      </trkpt>
      <trkpt lat="23.066107" lon="113.268488">
        <time>2026-07-04T23:53:39Z</time>
      </trkpt>
      <trkpt lat="23.06603" lon="113.268601">
        <time>2026-07-04T23:53:44Z</time>
      </trkpt>
      <trkpt lat="23.065961" lon="113.268727">
        <time>2026-07-04T23:53:49Z</time>
      </trkpt>
      <trkpt lat="23.06592" lon="113.268813">
        <time>2026-07-04T23:53:54Z</time>
      </trkpt>
      <trkpt lat="23.065882" lon="113.268897">
        <time>2026-07-04T23:53:59Z</time>
      </trkpt>
      <trkpt lat="23.065833" lon="113.269022">
        <time>2026-07-04T23:54:04Z</time>
      </trkpt>
      <trkpt lat="23.06579" lon="113.269153">
        <time>2026-07-04T23:54:09Z</time>
      </trkpt>
      <trkpt lat="23.065757" lon="113.269243">
        <time>2026-07-04T23:54:14Z</time>
      </trkpt>
      <trkpt lat="23.065727" lon="113.26933">
        <time>2026-07-04T23:54:19Z</time>
      </trkpt>
      <trkpt lat="23.065709" lon="113.269471">
        <time>2026-07-04T23:54:24Z</time>
      </trkpt>
      <trkpt lat="23.065669" lon="113.269607">
        <time>2026-07-04T23:54:29Z</time>
      </trkpt>
      <trkpt lat="23.065642" lon="113.269695">
        <time>2026-07-04T23:54:34Z</time>
      </trkpt>
      <trkpt lat="23.065615" lon="113.269786">
        <time>2026-07-04T23:54:39Z</time>
      </trkpt>
      <trkpt lat="23.065583" lon="113.269921">
        <time>2026-07-04T23:54:44Z</time>
      </trkpt>
      <trkpt lat="23.065534" lon="113.270051">
        <time>2026-07-04T23:54:49Z</time>
      </trkpt>
      <trkpt lat="23.065493" lon="113.270133">
        <time>2026-07-04T23:54:54Z</time>
      </trkpt>
      <trkpt lat="23.06546" lon="113.270218">
        <time>2026-07-04T23:54:59Z</time>
      </trkpt>
      <trkpt lat="23.065417" lon="113.270352">
        <time>2026-07-04T23:55:04Z</time>
      </trkpt>
      <trkpt lat="23.065363" lon="113.270476">
        <time>2026-07-04T23:55:09Z</time>
      </trkpt>
      <trkpt lat="23.065325" lon="113.270558">
        <time>2026-07-04T23:55:14Z</time>
      </trkpt>
      <trkpt lat="23.065291" lon="113.270639">
        <time>2026-07-04T23:55:19Z</time>
      </trkpt>
      <trkpt lat="23.065239" lon="113.270757">
        <time>2026-07-04T23:55:24Z</time>
      </trkpt>
      <trkpt lat="23.065188" lon="113.270881">
        <time>2026-07-04T23:55:29Z</time>
      </trkpt>
      <trkpt lat="23.065158" lon="113.270965">
        <time>2026-07-04T23:55:34Z</time>
      </trkpt>
      <trkpt lat="23.065126" lon="113.271048">
        <time>2026-07-04T23:55:39Z</time>
      </trkpt>
      <trkpt lat="23.065064" lon="113.271168">
        <time>2026-07-04T23:55:44Z</time>
      </trkpt>
      <trkpt lat="23.065007" lon="113.271286">
        <time>2026-07-04T23:55:49Z</time>
      </trkpt>
      <trkpt lat="23.064969" lon="113.271368">
        <time>2026-07-04T23:55:54Z</time>
      </trkpt>
      <trkpt lat="23.064928" lon="113.271452">
        <time>2026-07-04T23:55:59Z</time>
      </trkpt>
      <trkpt lat="23.06487" lon="113.271576">
        <time>2026-07-04T23:56:04Z</time>
      </trkpt>
      <trkpt lat="23.064812" lon="113.271692">
        <time>2026-07-04T23:56:09Z</time>
      </trkpt>
      <trkpt lat="23.064774" lon="113.271771">
        <time>2026-07-04T23:56:14Z</time>
      </trkpt>
      <trkpt lat="23.064734" lon="113.271851">
        <time>2026-07-04T23:56:19Z</time>
      </trkpt>
      <trkpt lat="23.064679" lon="113.271972">
        <time>2026-07-04T23:56:24Z</time>
      </trkpt>
      <trkpt lat="23.064619" lon="113.272093">
        <time>2026-07-04T23:56:29Z</time>
      </trkpt>
      <trkpt lat="23.064578" lon="113.272179">
        <time>2026-07-04T23:56:34Z</time>
      </trkpt>
      <trkpt lat="23.064556" lon="113.272272">
        <time>2026-07-04T23:56:39Z</time>
      </trkpt>
      <trkpt lat="23.064519" lon="113.272411">
        <time>2026-07-04T23:56:44Z</time>
      </trkpt>
      <trkpt lat="23.064477" lon="113.272542">
        <time>2026-07-04T23:56:49Z</time>
      </trkpt>
      <trkpt lat="23.064463" lon="113.272628">
        <time>2026-07-04T23:56:54Z</time>
      </trkpt>
      <trkpt lat="23.064476" lon="113.272719">
        <time>2026-07-04T23:56:59Z</time>
      </trkpt>
      <trkpt lat="23.06452" lon="113.272863">
        <time>2026-07-04T23:57:04Z</time>
      </trkpt>
      <trkpt lat="23.064557" lon="113.273">
        <time>2026-07-04T23:57:09Z</time>
      </trkpt>
      <trkpt lat="23.064582" lon="113.273087">
        <time>2026-07-04T23:57:14Z</time>
      </trkpt>
      <trkpt lat="23.064596" lon="113.273172">
        <time>2026-07-04T23:57:19Z</time>
      </trkpt>
      <trkpt lat="23.064568" lon="113.273294">
        <time>2026-07-04T23:57:24Z</time>
      </trkpt>
      <trkpt lat="23.06449" lon="113.273403">
        <time>2026-07-04T23:57:29Z</time>
      </trkpt>
      <trkpt lat="23.064423" lon="113.273459">
        <time>2026-07-04T23:57:34Z</time>
      </trkpt>
      <trkpt lat="23.064341" lon="113.273504">
        <time>2026-07-04T23:57:39Z</time>
      </trkpt>
      <trkpt lat="23.064229" lon="113.273581">
        <time>2026-07-04T23:57:44Z</time>
      </trkpt>
      <trkpt lat="23.064128" lon="113.273664">
        <time>2026-07-04T23:57:49Z</time>
      </trkpt>
      <trkpt lat="23.064065" lon="113.273723">
        <time>2026-07-04T23:57:54Z</time>
      </trkpt>
      <trkpt lat="23.064009" lon="113.27379">
        <time>2026-07-04T23:57:59Z</time>
      </trkpt>
      <trkpt lat="23.063934" lon="113.273903">
        <time>2026-07-04T23:58:04Z</time>
      </trkpt>
      <trkpt lat="23.063863" lon="113.274021">
        <time>2026-07-04T23:58:09Z</time>
      </trkpt>
      <trkpt lat="23.063816" lon="113.274095">
        <time>2026-07-04T23:58:14Z</time>
      </trkpt>
      <trkpt lat="23.063763" lon="113.274159">
        <time>2026-07-04T23:58:19Z</time>
      </trkpt>
      <trkpt lat="23.063685" lon="113.274242">
        <time>2026-07-04T23:58:24Z</time>
      </trkpt>
      <trkpt lat="23.063639" lon="113.274364">
        <time>2026-07-04T23:58:29Z</time>
      </trkpt>
      <trkpt lat="23.063594" lon="113.274445">
        <time>2026-07-04T23:58:34Z</time>
      </trkpt>
      <trkpt lat="23.063548" lon="113.274534">
        <time>2026-07-04T23:58:39Z</time>
      </trkpt>
      <trkpt lat="23.063493" lon="113.274682">
        <time>2026-07-04T23:58:44Z</time>
      </trkpt>
      <trkpt lat="23.063446" lon="113.274826">
        <time>2026-07-04T23:58:49Z</time>
      </trkpt>
      <trkpt lat="23.063417" lon="113.274921">
        <time>2026-07-04T23:58:54Z</time>
      </trkpt>
      <trkpt lat="23.063377" lon="113.275015">
        <time>2026-07-04T23:58:59Z</time>
      </trkpt>
      <trkpt lat="23.063314" lon="113.275151">
        <time>2026-07-04T23:59:04Z</time>
      </trkpt>
      <trkpt lat="23.063226" lon="113.275263">
        <time>2026-07-04T23:59:09Z</time>
      </trkpt>
      <trkpt lat="23.063179" lon="113.275339">
        <time>2026-07-04T23:59:14Z</time>
      </trkpt>
      <trkpt lat="23.063134" lon="113.275416">
        <time>2026-07-04T23:59:19Z</time>
      </trkpt>
      <trkpt lat="23.063062" lon="113.275525">
        <time>2026-07-04T23:59:24Z</time>
      </trkpt>
      <trkpt lat="23.062968" lon="113.275621">
        <time>2026-07-04T23:59:29Z</time>
      </trkpt>
      <trkpt lat="23.062907" lon="113.27569">
        <time>2026-07-04T23:59:34Z</time>
      </trkpt>
      <trkpt lat="23.062849" lon="113.275754">
        <time>2026-07-04T23:59:39Z</time>
      </trkpt>
      <trkpt lat="23.062758" lon="113.275849">
        <time>2026-07-04T23:59:44Z</time>
      </trkpt>
      <trkpt lat="23.062671" lon="113.275953">
        <time>2026-07-04T23:59:49Z</time>
      </trkpt>
      <trkpt lat="23.062619" lon="113.276025">
        <time>2026-07-04T23:59:54Z</time>
      </trkpt>
      <trkpt lat="23.062572" lon="113.2761">
        <time>2026-07-04T23:59:59Z</time>
      </trkpt>
      <trkpt lat="23.062514" lon="113.276223">
        <time>2026-07-05T00:00:04Z</time>
      </trkpt>
      <trkpt lat="23.062465" lon="113.276351">
        <time>2026-07-05T00:00:09Z</time>
      </trkpt>
      <trkpt lat="23.062436" lon="113.276436">
        <time>2026-07-05T00:00:14Z</time>
      </trkpt>
      <trkpt lat="23.062408" lon="113.276519">
        <time>2026-07-05T00:00:19Z</time>
      </trkpt>
      <trkpt lat="23.062364" lon="113.276642">
        <time>2026-07-05T00:00:24Z</time>
      </trkpt>
      <trkpt lat="23.062325" lon="113.276762">
        <time>2026-07-05T00:00:29Z</time>
      </trkpt>
      <trkpt lat="23.0623" lon="113.276844">
        <time>2026-07-05T00:00:34Z</time>
      </trkpt>
      <trkpt lat="23.06227" lon="113.276931">
        <time>2026-07-05T00:00:39Z</time>
      </trkpt>
      <trkpt lat="23.062213" lon="113.277059">
        <time>2026-07-05T00:00:44Z</time>
      </trkpt>
      <trkpt lat="23.062163" lon="113.277193">
        <time>2026-07-05T00:00:49Z</time>
      </trkpt>
      <trkpt lat="23.062129" lon="113.277285">
        <time>2026-07-05T00:00:54Z</time>
      </trkpt>
      <trkpt lat="23.062101" lon="113.277375">
        <time>2026-07-05T00:00:59Z</time>
      </trkpt>
      <trkpt lat="23.062059" lon="113.277508">
        <time>2026-07-05T00:01:04Z</time>
      </trkpt>
      <trkpt lat="23.062016" lon="113.277639">
        <time>2026-07-05T00:01:09Z</time>
      </trkpt>
      <trkpt lat="23.06199" lon="113.27773">
        <time>2026-07-05T00:01:14Z</time>
      </trkpt>
      <trkpt lat="23.061972" lon="113.277821">
        <time>2026-07-05T00:01:19Z</time>
      </trkpt>
      <trkpt lat="23.061969" lon="113.277956">
        <time>2026-07-05T00:01:24Z</time>
      </trkpt>
      <trkpt lat="23.061963" lon="113.278088">
        <time>2026-07-05T00:01:29Z</time>
      </trkpt>
      <trkpt lat="23.061968" lon="113.278174">
        <time>2026-07-05T00:01:34Z</time>
      </trkpt>
      <trkpt lat="23.061985" lon="113.278256">
        <time>2026-07-05T00:01:39Z</time>
      </trkpt>
      <trkpt lat="23.061995" lon="113.278386">
        <time>2026-07-05T00:01:44Z</time>
      </trkpt>
      <trkpt lat="23.061997" lon="113.27851">
        <time>2026-07-05T00:01:49Z</time>
      </trkpt>
      <trkpt lat="23.061997" lon="113.278589">
        <time>2026-07-05T00:01:54Z</time>
      </trkpt>
      <trkpt lat="23.061997" lon="113.278671">
        <time>2026-07-05T00:01:59Z</time>
      </trkpt>
      <trkpt lat="23.061973" lon="113.278793">
        <time>2026-07-05T00:02:04Z</time>
      </trkpt>
      <trkpt lat="23.061903" lon="113.278905">
        <time>2026-07-05T00:02:09Z</time>
      </trkpt>
      <trkpt lat="23.061854" lon="113.278975">
        <time>2026-07-05T00:02:14Z</time>
      </trkpt>
      <trkpt lat="23.061813" lon="113.279047">
        <time>2026-07-05T00:02:19Z</time>
      </trkpt>
      <trkpt lat="23.061758" lon="113.279155">
        <time>2026-07-05T00:02:24Z</time>
      </trkpt>
      <trkpt lat="23.061687" lon="113.279262">
        <time>2026-07-05T00:02:29Z</time>
      </trkpt>
      <trkpt lat="23.061653" lon="113.279347">
        <time>2026-07-05T00:02:34Z</time>
      </trkpt>
      <trkpt lat="23.061621" lon="113.279434">
        <time>2026-07-05T00:02:39Z</time>
      </trkpt>
      <trkpt lat="23.061571" lon="113.279559">
        <time>2026-07-05T00:02:44Z</time>
      </trkpt>
      <trkpt lat="23.06152" lon="113.27968">
        <time>2026-07-05T00:02:49Z</time>
      </trkpt>
      <trkpt lat="23.061481" lon="113.279759">
        <time>2026-07-05T00:02:54Z</time>
      </trkpt>
      <trkpt lat="23.061449" lon="113.279842">
        <time>2026-07-05T00:02:59Z</time>
      </trkpt>
      <trkpt lat="23.061402" lon="113.279966">
        <time>2026-07-05T00:03:04Z</time>
      </trkpt>
      <trkpt lat="23.061353" lon="113.280089">
        <time>2026-07-05T00:03:09Z</time>
      </trkpt>
      <trkpt lat="23.061321" lon="113.280172">
        <time>2026-07-05T00:03:14Z</time>
      </trkpt>
      <trkpt lat="23.061288" lon="113.280256">
        <time>2026-07-05T00:03:19Z</time>
      </trkpt>
      <trkpt lat="23.06123" lon="113.280389">
        <time>2026-07-05T00:03:24Z</time>
      </trkpt>
      <trkpt lat="23.061179" lon="113.280519">
        <time>2026-07-05T00:03:29Z</time>
      </trkpt>
      <trkpt lat="23.061142" lon="113.280603">
        <time>2026-07-05T00:03:34Z</time>
      </trkpt>
      <trkpt lat="23.061102" lon="113.280685">
        <time>2026-07-05T00:03:39Z</time>
      </trkpt>
      <trkpt lat="23.061047" lon="113.280806">
        <time>2026-07-05T00:03:44Z</time>
      </trkpt>
      <trkpt lat="23.060997" lon="113.280926">
        <time>2026-07-05T00:03:49Z</time>
      </trkpt>
      <trkpt lat="23.06096" lon="113.281003">
        <time>2026-07-05T00:03:54Z</time>
      </trkpt>
      <trkpt lat="23.060923" lon="113.281077">
        <time>2026-07-05T00:03:59Z</time>
      </trkpt>
      <trkpt lat="23.060874" lon="113.281192">
        <time>2026-07-05T00:04:04Z</time>
      </trkpt>
      <trkpt lat="23.06082" lon="113.281312">
        <time>2026-07-05T00:04:09Z</time>
      </trkpt>
      <trkpt lat="23.060782" lon="113.28139">
        <time>2026-07-05T00:04:14Z</time>
      </trkpt>
      <trkpt lat="23.060744" lon="113.281467">
        <time>2026-07-05T00:04:19Z</time>
      </trkpt>
      <trkpt lat="23.060692" lon="113.281591">
        <time>2026-07-05T00:04:24Z</time>
      </trkpt>
      <trkpt lat="23.060645" lon="113.281716">
        <time>2026-07-05T00:04:29Z</time>
      </trkpt>
      <trkpt lat="23.060613" lon="113.2818">
        <time>2026-07-05T00:04:34Z</time>
      </trkpt>
      <trkpt lat="23.060575" lon="113.281884">
        <time>2026-07-05T00:04:39Z</time>
      </trkpt>
      <trkpt lat="23.060522" lon="113.282006">
        <time>2026-07-05T00:04:44Z</time>
      </trkpt>
      <trkpt lat="23.060473" lon="113.282128">
        <time>2026-07-05T00:04:49Z</time>
      </trkpt>
      <trkpt lat="23.060436" lon="113.282212">
        <time>2026-07-05T00:04:54Z</time>
      </trkpt>
      <trkpt lat="23.060402" lon="113.282296">
        <time>2026-07-05T00:04:59Z</time>
      </trkpt>
      <trkpt lat="23.060353" lon="113.282419">
        <time>2026-07-05T00:05:04Z</time>
      </trkpt>
      <trkpt lat="23.060306" lon="113.282547">
        <time>2026-07-05T00:05:09Z</time>
      </trkpt>
      <trkpt lat="23.060275" lon="113.28263">
        <time>2026-07-05T00:05:14Z</time>
      </trkpt>
      <trkpt lat="23.060249" lon="113.282712">
        <time>2026-07-05T00:05:19Z</time>
      </trkpt>
      <trkpt lat="23.060199" lon="113.282834">
        <time>2026-07-05T00:05:24Z</time>
      </trkpt>
      <trkpt lat="23.060149" lon="113.282952">
        <time>2026-07-05T00:05:29Z</time>
      </trkpt>
      <trkpt lat="23.060112" lon="113.283026">
        <time>2026-07-05T00:05:34Z</time>
      </trkpt>
      <trkpt lat="23.060067" lon="113.283102">
        <time>2026-07-05T00:05:39Z</time>
      </trkpt>
      <trkpt lat="23.060009" lon="113.28323">
        <time>2026-07-05T00:05:44Z</time>
      </trkpt>
      <trkpt lat="23.059962" lon="113.283359">
        <time>2026-07-05T00:05:49Z</time>
      </trkpt>
      <trkpt lat="23.059982" lon="113.28343">
        <time>2026-07-05T00:05:54Z</time>
      </trkpt>
      <trkpt lat="23.060051" lon="113.283426">
        <time>2026-07-05T00:05:59Z</time>
      </trkpt>
      <trkpt lat="23.060116" lon="113.283319">
        <time>2026-07-05T00:06:04Z</time>
      </trkpt>
      <trkpt lat="23.060181" lon="113.283188">
        <time>2026-07-05T00:06:09Z</time>
      </trkpt>
      <trkpt lat="23.060232" lon="113.283097">
        <time>2026-07-05T00:06:14Z</time>
      </trkpt>
      <trkpt lat="23.060278" lon="113.28301">
        <time>2026-07-05T00:06:19Z</time>
      </trkpt>
      <trkpt lat="23.060334" lon="113.282872">
        <time>2026-07-05T00:06:24Z</time>
      </trkpt>
      <trkpt lat="23.060394" lon="113.282748">
        <time>2026-07-05T00:06:29Z</time>
      </trkpt>
      <trkpt lat="23.060437" lon="113.28267">
        <time>2026-07-05T00:06:34Z</time>
      </trkpt>
      <trkpt lat="23.060483" lon="113.282595">
        <time>2026-07-05T00:06:39Z</time>
      </trkpt>
      <trkpt lat="23.060553" lon="113.282487">
        <time>2026-07-05T00:06:44Z</time>
      </trkpt>
      <trkpt lat="23.060545" lon="113.282377">
        <time>2026-07-05T00:06:49Z</time>
      </trkpt>
      <trkpt lat="23.060454" lon="113.282349">
        <time>2026-07-05T00:06:54Z</time>
      </trkpt>
      <trkpt lat="23.060388" lon="113.28241">
        <time>2026-07-05T00:06:59Z</time>
      </trkpt>
      <trkpt lat="23.060323" lon="113.282532">
        <time>2026-07-05T00:07:04Z</time>
      </trkpt>
      <trkpt lat="23.060261" lon="113.282649">
        <time>2026-07-05T00:07:09Z</time>
      </trkpt>
      <trkpt lat="23.060223" lon="113.282724">
        <time>2026-07-05T00:07:14Z</time>
      </trkpt>
      <trkpt lat="23.060186" lon="113.282801">
        <time>2026-07-05T00:07:19Z</time>
      </trkpt>
      <trkpt lat="23.060138" lon="113.282922">
        <time>2026-07-05T00:07:24Z</time>
      </trkpt>
      <trkpt lat="23.060093" lon="113.283044">
        <time>2026-07-05T00:07:29Z</time>
      </trkpt>
      <trkpt lat="23.060058" lon="113.283124">
        <time>2026-07-05T00:07:34Z</time>
      </trkpt>
      <trkpt lat="23.060022" lon="113.283205">
        <time>2026-07-05T00:07:39Z</time>
      </trkpt>
      <trkpt lat="23.059972" lon="113.283325">
        <time>2026-07-05T00:07:44Z</time>
      </trkpt>
      <trkpt lat="23.059972" lon="113.283433">
        <time>2026-07-05T00:07:49Z</time>
      </trkpt>
      <trkpt lat="23.06004" lon="113.283422">
        <time>2026-07-05T00:07:54Z</time>
      </trkpt>
      <trkpt lat="23.060089" lon="113.283355">
        <time>2026-07-05T00:07:59Z</time>
      </trkpt>
      <trkpt lat="23.06015" lon="113.283234">
        <time>2026-07-05T00:08:04Z</time>
      </trkpt>
      <trkpt lat="23.06022" lon="113.283105">
        <time>2026-07-05T00:08:09Z</time>
      </trkpt>
      <trkpt lat="23.060263" lon="113.283022">
        <time>2026-07-05T00:08:14Z</time>
      </trkpt>
      <trkpt lat="23.060303" lon="113.282938">
        <time>2026-07-05T00:08:19Z</time>
      </trkpt>
      <trkpt lat="23.060361" lon="113.282808">
        <time>2026-07-05T00:08:24Z</time>
      </trkpt>
      <trkpt lat="23.060416" lon="113.28268">
        <time>2026-07-05T00:08:29Z</time>
      </trkpt>
      <trkpt lat="23.060452" lon="113.282597">
        <time>2026-07-05T00:08:34Z</time>
      </trkpt>
      <trkpt lat="23.060488" lon="113.282518">
        <time>2026-07-05T00:08:39Z</time>
      </trkpt>
      <trkpt lat="23.060536" lon="113.282397">
        <time>2026-07-05T00:08:44Z</time>
      </trkpt>
      <trkpt lat="23.060488" lon="113.282295">
        <time>2026-07-05T00:08:49Z</time>
      </trkpt>
      <trkpt lat="23.060491" lon="113.282222">
        <time>2026-07-05T00:08:54Z</time>
      </trkpt>
      <trkpt lat="23.060516" lon="113.28214">
        <time>2026-07-05T00:08:59Z</time>
      </trkpt>
      <trkpt lat="23.06056" lon="113.282024">
        <time>2026-07-05T00:09:04Z</time>
      </trkpt>
      <trkpt lat="23.060604" lon="113.281906">
        <time>2026-07-05T00:09:09Z</time>
      </trkpt>
      <trkpt lat="23.060635" lon="113.281834">
        <time>2026-07-05T00:09:14Z</time>
      </trkpt>
      <trkpt lat="23.060668" lon="113.281762">
        <time>2026-07-05T00:09:19Z</time>
      </trkpt>
      <trkpt lat="23.060725" lon="113.281651">
        <time>2026-07-05T00:09:24Z</time>
      </trkpt>
      <trkpt lat="23.060775" lon="113.28153">
        <time>2026-07-05T00:09:29Z</time>
      </trkpt>
      <trkpt lat="23.060805" lon="113.28145">
        <time>2026-07-05T00:09:34Z</time>
      </trkpt>
      <trkpt lat="23.060838" lon="113.281369">
        <time>2026-07-05T00:09:39Z</time>
      </trkpt>
      <trkpt lat="23.060894" lon="113.281238">
        <time>2026-07-05T00:09:44Z</time>
      </trkpt>
      <trkpt lat="23.060943" lon="113.281109">
        <time>2026-07-05T00:09:49Z</time>
      </trkpt>
      <trkpt lat="23.060976" lon="113.281026">
        <time>2026-07-05T00:09:54Z</time>
      </trkpt>
      <trkpt lat="23.061008" lon="113.28094">
        <time>2026-07-05T00:09:59Z</time>
      </trkpt>
      <trkpt lat="23.061053" lon="113.280819">
        <time>2026-07-05T00:10:04Z</time>
      </trkpt>
      <trkpt lat="23.061111" lon="113.280693">
        <time>2026-07-05T00:10:09Z</time>
      </trkpt>
      <trkpt lat="23.061156" lon="113.280605">
        <time>2026-07-05T00:10:14Z</time>
      </trkpt>
      <trkpt lat="23.061198" lon="113.280513">
        <time>2026-07-05T00:10:19Z</time>
      </trkpt>
      <trkpt lat="23.061259" lon="113.280376">
        <time>2026-07-05T00:10:24Z</time>
      </trkpt>
      <trkpt lat="23.061309" lon="113.280244">
        <time>2026-07-05T00:10:29Z</time>
      </trkpt>
      <trkpt lat="23.061347" lon="113.280169">
        <time>2026-07-05T00:10:34Z</time>
      </trkpt>
      <trkpt lat="23.061384" lon="113.280093">
        <time>2026-07-05T00:10:39Z</time>
      </trkpt>
      <trkpt lat="23.061428" lon="113.279972">
        <time>2026-07-05T00:10:44Z</time>
      </trkpt>
      <trkpt lat="23.061477" lon="113.279848">
        <time>2026-07-05T00:10:49Z</time>
      </trkpt>
      <trkpt lat="23.06151" lon="113.279761">
        <time>2026-07-05T00:10:54Z</time>
      </trkpt>
      <trkpt lat="23.061544" lon="113.279676">
        <time>2026-07-05T00:10:59Z</time>
      </trkpt>
      <trkpt lat="23.061595" lon="113.279553">
        <time>2026-07-05T00:11:04Z</time>
      </trkpt>
      <trkpt lat="23.061637" lon="113.279431">
        <time>2026-07-05T00:11:09Z</time>
      </trkpt>
      <trkpt lat="23.061668" lon="113.279353">
        <time>2026-07-05T00:11:14Z</time>
      </trkpt>
      <trkpt lat="23.061701" lon="113.279279">
        <time>2026-07-05T00:11:19Z</time>
      </trkpt>
      <trkpt lat="23.061755" lon="113.279159">
        <time>2026-07-05T00:11:24Z</time>
      </trkpt>
      <trkpt lat="23.061817" lon="113.279047">
        <time>2026-07-05T00:11:29Z</time>
      </trkpt>
      <trkpt lat="23.061867" lon="113.278981">
        <time>2026-07-05T00:11:34Z</time>
      </trkpt>
      <trkpt lat="23.061917" lon="113.278911">
        <time>2026-07-05T00:11:39Z</time>
      </trkpt>
      <trkpt lat="23.06197" lon="113.278783">
        <time>2026-07-05T00:11:44Z</time>
      </trkpt>
      <trkpt lat="23.061986" lon="113.278644">
        <time>2026-07-05T00:11:49Z</time>
      </trkpt>
      <trkpt lat="23.061981" lon="113.278549">
        <time>2026-07-05T00:11:54Z</time>
      </trkpt>
      <trkpt lat="23.061975" lon="113.278452">
        <time>2026-07-05T00:11:59Z</time>
      </trkpt>
      <trkpt lat="23.06197" lon="113.278307">
        <time>2026-07-05T00:12:04Z</time>
      </trkpt>
      <trkpt lat="23.061964" lon="113.27816">
        <time>2026-07-05T00:12:09Z</time>
      </trkpt>
      <trkpt lat="23.061961" lon="113.278061">
        <time>2026-07-05T00:12:14Z</time>
      </trkpt>
      <trkpt lat="23.061958" lon="113.277964">
        <time>2026-07-05T00:12:19Z</time>
      </trkpt>
      <trkpt lat="23.061956" lon="113.277816">
        <time>2026-07-05T00:12:24Z</time>
      </trkpt>
      <trkpt lat="23.061978" lon="113.277675">
        <time>2026-07-05T00:12:29Z</time>
      </trkpt>
      <trkpt lat="23.062006" lon="113.277588">
        <time>2026-07-05T00:12:34Z</time>
      </trkpt>
      <trkpt lat="23.06204" lon="113.277505">
        <time>2026-07-05T00:12:39Z</time>
      </trkpt>
      <trkpt lat="23.062093" lon="113.277378">
        <time>2026-07-05T00:12:44Z</time>
      </trkpt>
      <trkpt lat="23.062141" lon="113.277249">
        <time>2026-07-05T00:12:49Z</time>
      </trkpt>
      <trkpt lat="23.062169" lon="113.277165">
        <time>2026-07-05T00:12:54Z</time>
      </trkpt>
      <trkpt lat="23.062195" lon="113.277083">
        <time>2026-07-05T00:12:59Z</time>
      </trkpt>
      <trkpt lat="23.062251" lon="113.276961">
        <time>2026-07-05T00:13:04Z</time>
      </trkpt>
      <trkpt lat="23.062303" lon="113.276834">
        <time>2026-07-05T00:13:09Z</time>
      </trkpt>
      <trkpt lat="23.062337" lon="113.276749">
        <time>2026-07-05T00:13:14Z</time>
      </trkpt>
      <trkpt lat="23.06237" lon="113.276662">
        <time>2026-07-05T00:13:19Z</time>
      </trkpt>
      <trkpt lat="23.062419" lon="113.276538">
        <time>2026-07-05T00:13:24Z</time>
      </trkpt>
      <trkpt lat="23.062465" lon="113.276413">
        <time>2026-07-05T00:13:29Z</time>
      </trkpt>
      <trkpt lat="23.062493" lon="113.276329">
        <time>2026-07-05T00:13:34Z</time>
      </trkpt>
      <trkpt lat="23.062525" lon="113.27624">
        <time>2026-07-05T00:13:39Z</time>
      </trkpt>
      <trkpt lat="23.062588" lon="113.276113">
        <time>2026-07-05T00:13:44Z</time>
      </trkpt>
      <trkpt lat="23.062663" lon="113.275997">
        <time>2026-07-05T00:13:49Z</time>
      </trkpt>
      <trkpt lat="23.062717" lon="113.27592">
        <time>2026-07-05T00:13:54Z</time>
      </trkpt>
      <trkpt lat="23.062775" lon="113.275851">
        <time>2026-07-05T00:13:59Z</time>
      </trkpt>
      <trkpt lat="23.062862" lon="113.275747">
        <time>2026-07-05T00:14:04Z</time>
      </trkpt>
      <trkpt lat="23.062952" lon="113.275653">
        <time>2026-07-05T00:14:09Z</time>
      </trkpt>
      <trkpt lat="23.063017" lon="113.275594">
        <time>2026-07-05T00:14:14Z</time>
      </trkpt>
      <trkpt lat="23.063069" lon="113.275522">
        <time>2026-07-05T00:14:19Z</time>
      </trkpt>
      <trkpt lat="23.063128" lon="113.275401">
        <time>2026-07-05T00:14:24Z</time>
      </trkpt>
      <trkpt lat="23.0632" lon="113.275282">
        <time>2026-07-05T00:14:29Z</time>
      </trkpt>
      <trkpt lat="23.063256" lon="113.275206">
        <time>2026-07-05T00:14:34Z</time>
      </trkpt>
      <trkpt lat="23.063315" lon="113.275136">
        <time>2026-07-05T00:14:39Z</time>
      </trkpt>
      <trkpt lat="23.063391" lon="113.275017">
        <time>2026-07-05T00:14:44Z</time>
      </trkpt>
      <trkpt lat="23.063438" lon="113.27489">
        <time>2026-07-05T00:14:49Z</time>
      </trkpt>
      <trkpt lat="23.063462" lon="113.274808">
        <time>2026-07-05T00:14:54Z</time>
      </trkpt>
      <trkpt lat="23.063488" lon="113.274725">
        <time>2026-07-05T00:14:59Z</time>
      </trkpt>
      <trkpt lat="23.063528" lon="113.274612">
        <time>2026-07-05T00:15:04Z</time>
      </trkpt>
      <trkpt lat="23.063547" lon="113.274488">
        <time>2026-07-05T00:15:09Z</time>
      </trkpt>
      <trkpt lat="23.06358" lon="113.274409">
        <time>2026-07-05T00:15:14Z</time>
      </trkpt>
      <trkpt lat="23.06363" lon="113.274345">
        <time>2026-07-05T00:15:19Z</time>
      </trkpt>
      <trkpt lat="23.063698" lon="113.274234">
        <time>2026-07-05T00:15:24Z</time>
      </trkpt>
      <trkpt lat="23.063798" lon="113.274134">
        <time>2026-07-05T00:15:29Z</time>
      </trkpt>
      <trkpt lat="23.063861" lon="113.274069">
        <time>2026-07-05T00:15:34Z</time>
      </trkpt>
      <trkpt lat="23.063902" lon="113.273994">
        <time>2026-07-05T00:15:39Z</time>
      </trkpt>
      <trkpt lat="23.063958" lon="113.273881">
        <time>2026-07-05T00:15:44Z</time>
      </trkpt>
      <trkpt lat="23.06403" lon="113.273776">
        <time>2026-07-05T00:15:49Z</time>
      </trkpt>
      <trkpt lat="23.064088" lon="113.273712">
        <time>2026-07-05T00:15:54Z</time>
      </trkpt>
      <trkpt lat="23.064152" lon="113.27366">
        <time>2026-07-05T00:15:59Z</time>
      </trkpt>
      <trkpt lat="23.064255" lon="113.273578">
        <time>2026-07-05T00:16:04Z</time>
      </trkpt>
      <trkpt lat="23.064362" lon="113.273497">
        <time>2026-07-05T00:16:09Z</time>
      </trkpt>
      <trkpt lat="23.064431" lon="113.273442">
        <time>2026-07-05T00:16:14Z</time>
      </trkpt>
      <trkpt lat="23.064492" lon="113.27338">
        <time>2026-07-05T00:16:19Z</time>
      </trkpt>
      <trkpt lat="23.06457" lon="113.273273">
        <time>2026-07-05T00:16:24Z</time>
      </trkpt>
      <trkpt lat="23.064599" lon="113.273139">
        <time>2026-07-05T00:16:29Z</time>
      </trkpt>
      <trkpt lat="23.064585" lon="113.273046">
        <time>2026-07-05T00:16:34Z</time>
      </trkpt>
      <trkpt lat="23.064559" lon="113.272955">
        <time>2026-07-05T00:16:39Z</time>
      </trkpt>
      <trkpt lat="23.064515" lon="113.272816">
        <time>2026-07-05T00:16:44Z</time>
      </trkpt>
      <trkpt lat="23.064476" lon="113.272672">
        <time>2026-07-05T00:16:49Z</time>
      </trkpt>
      <trkpt lat="23.064473" lon="113.272575">
        <time>2026-07-05T00:16:54Z</time>
      </trkpt>
      <trkpt lat="23.06451" lon="113.27249">
        <time>2026-07-05T00:16:59Z</time>
      </trkpt>
      <trkpt lat="23.064551" lon="113.272357">
        <time>2026-07-05T00:17:04Z</time>
      </trkpt>
      <trkpt lat="23.064582" lon="113.272216">
        <time>2026-07-05T00:17:09Z</time>
      </trkpt>
      <trkpt lat="23.064608" lon="113.272141">
        <time>2026-07-05T00:17:14Z</time>
      </trkpt>
      <trkpt lat="23.064647" lon="113.272069">
        <time>2026-07-05T00:17:19Z</time>
      </trkpt>
      <trkpt lat="23.064706" lon="113.271946">
        <time>2026-07-05T00:17:24Z</time>
      </trkpt>
      <trkpt lat="23.064769" lon="113.271816">
        <time>2026-07-05T00:17:29Z</time>
      </trkpt>
      <trkpt lat="23.064811" lon="113.271727">
        <time>2026-07-05T00:17:34Z</time>
      </trkpt>
      <trkpt lat="23.064852" lon="113.271647">
        <time>2026-07-05T00:17:39Z</time>
      </trkpt>
      <trkpt lat="23.06491" lon="113.271535">
        <time>2026-07-05T00:17:44Z</time>
      </trkpt>
      <trkpt lat="23.064971" lon="113.27142">
        <time>2026-07-05T00:17:49Z</time>
      </trkpt>
      <trkpt lat="23.065011" lon="113.27134">
        <time>2026-07-05T00:17:54Z</time>
      </trkpt>
      <trkpt lat="23.065054" lon="113.271256">
        <time>2026-07-05T00:17:59Z</time>
      </trkpt>
      <trkpt lat="23.065124" lon="113.271148">
        <time>2026-07-05T00:18:04Z</time>
      </trkpt>
      <trkpt lat="23.065215" lon="113.271151">
        <time>2026-07-05T00:18:09Z</time>
      </trkpt>
      <trkpt lat="23.065287" lon="113.271191">
        <time>2026-07-05T00:18:14Z</time>
      </trkpt>
      <trkpt lat="23.065358" lon="113.271226">
        <time>2026-07-05T00:18:19Z</time>
      </trkpt>
      <trkpt lat="23.065466" lon="113.271266">
        <time>2026-07-05T00:18:24Z</time>
      </trkpt>
      <trkpt lat="23.065574" lon="113.271308">
        <time>2026-07-05T00:18:29Z</time>
      </trkpt>
      <trkpt lat="23.065639" lon="113.271337">
        <time>2026-07-05T00:18:34Z</time>
      </trkpt>
      <trkpt lat="23.065712" lon="113.271385">
        <time>2026-07-05T00:18:39Z</time>
      </trkpt>
      <trkpt lat="23.065816" lon="113.271435">
        <time>2026-07-05T00:18:44Z</time>
      </trkpt>
      <trkpt lat="23.06592" lon="113.271475">
        <time>2026-07-05T00:18:49Z</time>
      </trkpt>
      <trkpt lat="23.066" lon="113.271507">
        <time>2026-07-05T00:18:54Z</time>
      </trkpt>
      <trkpt lat="23.066087" lon="113.271524">
        <time>2026-07-05T00:18:59Z</time>
      </trkpt>
      <trkpt lat="23.066222" lon="113.271519">
        <time>2026-07-05T00:19:04Z</time>
      </trkpt>
      <trkpt lat="23.066325" lon="113.271552">
        <time>2026-07-05T00:19:09Z</time>
      </trkpt>
      <trkpt lat="23.066365" lon="113.271499">
        <time>2026-07-05T00:19:14Z</time>
      </trkpt>
      <trkpt lat="23.066346" lon="113.27143">
        <time>2026-07-05T00:19:19Z</time>
      </trkpt>
      <trkpt lat="23.06623" lon="113.271385">
        <time>2026-07-05T00:19:24Z</time>
      </trkpt>
      <trkpt lat="23.066087" lon="113.271344">
        <time>2026-07-05T00:19:29Z</time>
      </trkpt>
      <trkpt lat="23.066005" lon="113.271311">
        <time>2026-07-05T00:19:34Z</time>
      </trkpt>
      <trkpt lat="23.065924" lon="113.271277">
        <time>2026-07-05T00:19:39Z</time>
      </trkpt>
      <trkpt lat="23.065789" lon="113.271246">
        <time>2026-07-05T00:19:44Z</time>
      </trkpt>
      <trkpt lat="23.065665" lon="113.271214">
        <time>2026-07-05T00:19:49Z</time>
      </trkpt>
      <trkpt lat="23.065585" lon="113.271188">
        <time>2026-07-05T00:19:54Z</time>
      </trkpt>
      <trkpt lat="23.065505" lon="113.271161">
        <time>2026-07-05T00:19:59Z</time>
      </trkpt>
      <trkpt lat="23.065388" lon="113.271135">
        <time>2026-07-05T00:20:04Z</time>
      </trkpt>
      <trkpt lat="23.065284" lon="113.27109">
        <time>2026-07-05T00:20:09Z</time>
      </trkpt>
      <trkpt lat="23.06525" lon="113.271003">
        <time>2026-07-05T00:20:14Z</time>
      </trkpt>
      <trkpt lat="23.065251" lon="113.270903">
        <time>2026-07-05T00:20:19Z</time>
      </trkpt>
      <trkpt lat="23.065286" lon="113.270764">
        <time>2026-07-05T00:20:24Z</time>
      </trkpt>
      <trkpt lat="23.065335" lon="113.270647">
        <time>2026-07-05T00:20:29Z</time>
      </trkpt>
      <trkpt lat="23.065373" lon="113.270573">
        <time>2026-07-05T00:20:34Z</time>
      </trkpt>
      <trkpt lat="23.065413" lon="113.270495">
        <time>2026-07-05T00:20:39Z</time>
      </trkpt>
      <trkpt lat="23.065474" lon="113.270366">
        <time>2026-07-05T00:20:44Z</time>
      </trkpt>
      <trkpt lat="23.065531" lon="113.270245">
        <time>2026-07-05T00:20:49Z</time>
      </trkpt>
      <trkpt lat="23.065561" lon="113.270159">
        <time>2026-07-05T00:20:54Z</time>
      </trkpt>
      <trkpt lat="23.065586" lon="113.270072">
        <time>2026-07-05T00:20:59Z</time>
      </trkpt>
      <trkpt lat="23.065638" lon="113.269955">
        <time>2026-07-05T00:21:04Z</time>
      </trkpt>
      <trkpt lat="23.06568" lon="113.269831">
        <time>2026-07-05T00:21:09Z</time>
      </trkpt>
      <trkpt lat="23.0657" lon="113.269748">
        <time>2026-07-05T00:21:14Z</time>
      </trkpt>
      <trkpt lat="23.065719" lon="113.269664">
        <time>2026-07-05T00:21:19Z</time>
      </trkpt>
      <trkpt lat="23.065731" lon="113.269528">
        <time>2026-07-05T00:21:24Z</time>
      </trkpt>
      <trkpt lat="23.065751" lon="113.269385">
        <time>2026-07-05T00:21:29Z</time>
      </trkpt>
      <trkpt lat="23.065786" lon="113.269292">
        <time>2026-07-05T00:21:34Z</time>
      </trkpt>
      <trkpt lat="23.065829" lon="113.269198">
        <time>2026-07-05T00:21:39Z</time>
      </trkpt>
      <trkpt lat="23.065877" lon="113.269067">
        <time>2026-07-05T00:21:44Z</time>
      </trkpt>
      <trkpt lat="23.065918" lon="113.268952">
        <time>2026-07-05T00:21:49Z</time>
      </trkpt>
      <trkpt lat="23.06595" lon="113.268869">
        <time>2026-07-05T00:21:54Z</time>
      </trkpt>
      <trkpt lat="23.065987" lon="113.268777">
        <time>2026-07-05T00:21:59Z</time>
      </trkpt>
      <trkpt lat="23.066045" lon="113.268649">
        <time>2026-07-05T00:22:04Z</time>
      </trkpt>
      <trkpt lat="23.066112" lon="113.268533">
        <time>2026-07-05T00:22:09Z</time>
      </trkpt>
      <trkpt lat="23.066159" lon="113.268455">
        <time>2026-07-05T00:22:14Z</time>
      </trkpt>
      <trkpt lat="23.066209" lon="113.26838">
        <time>2026-07-05T00:22:19Z</time>
      </trkpt>
      <trkpt lat="23.066291" lon="113.268268">
        <time>2026-07-05T00:22:24Z</time>
      </trkpt>
      <trkpt lat="23.066387" lon="113.26817">
        <time>2026-07-05T00:22:29Z</time>
      </trkpt>
      <trkpt lat="23.066463" lon="113.268133">
        <time>2026-07-05T00:22:34Z</time>
      </trkpt>
      <trkpt lat="23.066547" lon="113.268127">
        <time>2026-07-05T00:22:39Z</time>
      </trkpt>
      <trkpt lat="23.066674" lon="113.268151">
        <time>2026-07-05T00:22:44Z</time>
      </trkpt>
      <trkpt lat="23.066804" lon="113.268151">
        <time>2026-07-05T00:22:49Z</time>
      </trkpt>
      <trkpt lat="23.066893" lon="113.268168">
        <time>2026-07-05T00:22:54Z</time>
      </trkpt>
      <trkpt lat="23.066977" lon="113.268187">
        <time>2026-07-05T00:22:59Z</time>
      </trkpt>
      <trkpt lat="23.06709" lon="113.268238">
        <time>2026-07-05T00:23:04Z</time>
      </trkpt>
      <trkpt lat="23.0672" lon="113.268301">
        <time>2026-07-05T00:23:09Z</time>
      </trkpt>
      <trkpt lat="23.067268" lon="113.26834">
        <time>2026-07-05T00:23:14Z</time>
      </trkpt>
      <trkpt lat="23.067336" lon="113.26838">
        <time>2026-07-05T00:23:19Z</time>
      </trkpt>
      <trkpt lat="23.067427" lon="113.268441">
        <time>2026-07-05T00:23:24Z</time>
      </trkpt>
      <trkpt lat="23.06754" lon="113.268504">
        <time>2026-07-05T00:23:29Z</time>
      </trkpt>
      <trkpt lat="23.067636" lon="113.268541">
        <time>2026-07-05T00:23:34Z</time>
      </trkpt>
      <trkpt lat="23.067713" lon="113.268592">
        <time>2026-07-05T00:23:39Z</time>
      </trkpt>
      <trkpt lat="23.067832" lon="113.268657">
        <time>2026-07-05T00:23:44Z</time>
      </trkpt>
      <trkpt lat="23.067949" lon="113.268718">
        <time>2026-07-05T00:23:49Z</time>
      </trkpt>
      <trkpt lat="23.068003" lon="113.26877">
        <time>2026-07-05T00:23:54Z</time>
      </trkpt>
      <trkpt lat="23.068068" lon="113.268811">
        <time>2026-07-05T00:23:59Z</time>
      </trkpt>
      <trkpt lat="23.068171" lon="113.26885">
        <time>2026-07-05T00:24:04Z</time>
      </trkpt>
      <trkpt lat="23.068279" lon="113.268876">
        <time>2026-07-05T00:24:09Z</time>
      </trkpt>
      <trkpt lat="23.068361" lon="113.26891">
        <time>2026-07-05T00:24:14Z</time>
      </trkpt>
      <trkpt lat="23.068437" lon="113.268973">
        <time>2026-07-05T00:24:19Z</time>
      </trkpt>
      <trkpt lat="23.068538" lon="113.269085">
        <time>2026-07-05T00:24:24Z</time>
      </trkpt>
      <trkpt lat="23.068647" lon="113.269179">
        <time>2026-07-05T00:24:29Z</time>
      </trkpt>
      <trkpt lat="23.068725" lon="113.269221">
        <time>2026-07-05T00:24:34Z</time>
      </trkpt>
      <trkpt lat="23.068829" lon="113.269237">
        <time>2026-07-05T00:24:39Z</time>
      </trkpt>
      <trkpt lat="23.068964" lon="113.269258">
        <time>2026-07-05T00:24:44Z</time>
      </trkpt>
      <trkpt lat="23.069085" lon="113.269276">
        <time>2026-07-05T00:24:49Z</time>
      </trkpt>
      <trkpt lat="23.069164" lon="113.269293">
        <time>2026-07-05T00:24:54Z</time>
      </trkpt>
      <trkpt lat="23.069235" lon="113.269331">
        <time>2026-07-05T00:24:59Z</time>
      </trkpt>
      <trkpt lat="23.069364" lon="113.269375">
        <time>2026-07-05T00:25:04Z</time>
      </trkpt>
      <trkpt lat="23.069491" lon="113.269431">
        <time>2026-07-05T00:25:09Z</time>
      </trkpt>
      <trkpt lat="23.069568" lon="113.269482">
        <time>2026-07-05T00:25:14Z</time>
      </trkpt>
      <trkpt lat="23.069641" lon="113.269531">
        <time>2026-07-05T00:25:19Z</time>
      </trkpt>
      <trkpt lat="23.069755" lon="113.269599">
        <time>2026-07-05T00:25:24Z</time>
      </trkpt>
      <trkpt lat="23.069875" lon="113.269659">
        <time>2026-07-05T00:25:29Z</time>
      </trkpt>
      <trkpt lat="23.069952" lon="113.269705">
        <time>2026-07-05T00:25:34Z</time>
      </trkpt>
      <trkpt lat="23.070027" lon="113.269755">
        <time>2026-07-05T00:25:39Z</time>
      </trkpt>
      <trkpt lat="23.070151" lon="113.269815">
        <time>2026-07-05T00:25:44Z</time>
      </trkpt>
      <trkpt lat="23.070264" lon="113.269874">
        <time>2026-07-05T00:25:49Z</time>
      </trkpt>
      <trkpt lat="23.070335" lon="113.269919">
        <time>2026-07-05T00:25:54Z</time>
      </trkpt>
      <trkpt lat="23.07041" lon="113.269957">
        <time>2026-07-05T00:25:59Z</time>
      </trkpt>
      <trkpt lat="23.07053" lon="113.269992">
        <time>2026-07-05T00:26:04Z</time>
      </trkpt>
      <trkpt lat="23.070649" lon="113.270009">
        <time>2026-07-05T00:26:09Z</time>
      </trkpt>
      <trkpt lat="23.070731" lon="113.27003">
        <time>2026-07-05T00:26:14Z</time>
      </trkpt>
      <trkpt lat="23.070807" lon="113.270054">
        <time>2026-07-05T00:26:19Z</time>
      </trkpt>
      <trkpt lat="23.070907" lon="113.270109">
        <time>2026-07-05T00:26:24Z</time>
      </trkpt>
      <trkpt lat="23.070989" lon="113.270179">
        <time>2026-07-05T00:26:29Z</time>
      </trkpt>
      <trkpt lat="23.071059" lon="113.27021">
        <time>2026-07-05T00:26:34Z</time>
      </trkpt>
      <trkpt lat="23.071135" lon="113.27024">
        <time>2026-07-05T00:26:39Z</time>
      </trkpt>
      <trkpt lat="23.071255" lon="113.270291">
        <time>2026-07-05T00:26:44Z</time>
      </trkpt>
      <trkpt lat="23.071363" lon="113.270359">
        <time>2026-07-05T00:26:49Z</time>
      </trkpt>
      <trkpt lat="23.071435" lon="113.270406">
        <time>2026-07-05T00:26:54Z</time>
      </trkpt>
      <trkpt lat="23.071507" lon="113.270456">
        <time>2026-07-05T00:26:59Z</time>
      </trkpt>
      <trkpt lat="23.071605" lon="113.270526">
        <time>2026-07-05T00:27:04Z</time>
      </trkpt>
      <trkpt lat="23.071701" lon="113.270582">
        <time>2026-07-05T00:27:09Z</time>
      </trkpt>
      <trkpt lat="23.07177" lon="113.270614">
        <time>2026-07-05T00:27:14Z</time>
      </trkpt>
      <trkpt lat="23.071857" lon="113.270635">
        <time>2026-07-05T00:27:19Z</time>
      </trkpt>
      <trkpt lat="23.072018" lon="113.27057">
        <time>2026-07-05T00:27:24Z</time>
      </trkpt>
      <trkpt lat="23.072105" lon="113.27062">
        <time>2026-07-05T00:27:29Z</time>
      </trkpt>
      <trkpt lat="23.072176" lon="113.270675">
        <time>2026-07-05T00:27:34Z</time>
      </trkpt>
      <trkpt lat="23.07225" lon="113.270732">
        <time>2026-07-05T00:27:39Z</time>
      </trkpt>
      <trkpt lat="23.072351" lon="113.270801">
        <time>2026-07-05T00:27:44Z</time>
      </trkpt>
      <trkpt lat="23.072449" lon="113.27086">
        <time>2026-07-05T00:27:49Z</time>
      </trkpt>
      <trkpt lat="23.072516" lon="113.270911">
        <time>2026-07-05T00:27:54Z</time>
      </trkpt>
      <trkpt lat="23.072583" lon="113.270953">
        <time>2026-07-05T00:27:59Z</time>
      </trkpt>
      <trkpt lat="23.072695" lon="113.27102">
        <time>2026-07-05T00:28:04Z</time>
      </trkpt>
      <trkpt lat="23.07281" lon="113.271075">
        <time>2026-07-05T00:28:09Z</time>
      </trkpt>
      <trkpt lat="23.072889" lon="113.271098">
        <time>2026-07-05T00:28:14Z</time>
      </trkpt>
      <trkpt lat="23.072965" lon="113.271121">
        <time>2026-07-05T00:28:19Z</time>
      </trkpt>
      <trkpt lat="23.073088" lon="113.271168">
        <time>2026-07-05T00:28:24Z</time>
      </trkpt>
      <trkpt lat="23.073214" lon="113.2712">
        <time>2026-07-05T00:28:29Z</time>
      </trkpt>
      <trkpt lat="23.073255" lon="113.271247">
        <time>2026-07-05T00:28:34Z</time>
      </trkpt>
      <trkpt lat="23.073318" lon="113.271301">
        <time>2026-07-05T00:28:39Z</time>
      </trkpt>
      <trkpt lat="23.073432" lon="113.271379">
        <time>2026-07-05T00:28:44Z</time>
      </trkpt>
      <trkpt lat="23.073533" lon="113.271458">
        <time>2026-07-05T00:28:49Z</time>
      </trkpt>
      <trkpt lat="23.073593" lon="113.271519">
        <time>2026-07-05T00:28:54Z</time>
      </trkpt>
      <trkpt lat="23.073653" lon="113.271576">
        <time>2026-07-05T00:28:59Z</time>
      </trkpt>
      <trkpt lat="23.073773" lon="113.271628">
        <time>2026-07-05T00:29:04Z</time>
      </trkpt>
      <trkpt lat="23.073886" lon="113.271676">
        <time>2026-07-05T00:29:09Z</time>
      </trkpt>
      <trkpt lat="23.073955" lon="113.271727">
        <time>2026-07-05T00:29:14Z</time>
      </trkpt>
      <trkpt lat="23.074036" lon="113.271777">
        <time>2026-07-05T00:29:19Z</time>
      </trkpt>
      <trkpt lat="23.074094" lon="113.271845">
        <time>2026-07-05T00:29:24Z</time>
      </trkpt>
      <trkpt lat="23.074032" lon="113.271953">
        <time>2026-07-05T00:29:29Z</time>
      </trkpt>
      <trkpt lat="23.073989" lon="113.272025">
        <time>2026-07-05T00:29:34Z</time>
      </trkpt>
      <trkpt lat="23.07396" lon="113.272088">
        <time>2026-07-05T00:29:39Z</time>
      </trkpt>
      <trkpt lat="23.073923" lon="113.272176">
        <time>2026-07-05T00:29:44Z</time>
      </trkpt>
      <trkpt lat="23.073877" lon="113.272266">
        <time>2026-07-05T00:29:49Z</time>
      </trkpt>
      <trkpt lat="23.073842" lon="113.272338">
        <time>2026-07-05T00:29:54Z</time>
      </trkpt>
      <trkpt lat="23.073807" lon="113.272411">
        <time>2026-07-05T00:29:59Z</time>
      </trkpt>
      <trkpt lat="23.073754" lon="113.272517">
        <time>2026-07-05T00:30:04Z</time>
      </trkpt>
      <trkpt lat="23.0737" lon="113.272621">
        <time>2026-07-05T00:30:09Z</time>
      </trkpt>
      <trkpt lat="23.0737" lon="113.272656">
        <time>2026-07-05T00:30:14Z</time>
      </trkpt>
      <trkpt lat="23.073737" lon="113.272611">
        <time>2026-07-05T00:30:19Z</time>
      </trkpt>
      <trkpt lat="23.073779" lon="113.272556">
        <time>2026-07-05T00:30:24Z</time>
      </trkpt>
      <trkpt lat="23.073738" lon="113.272631">
        <time>2026-07-05T00:30:29Z</time>
      </trkpt>
      <trkpt lat="23.073725" lon="113.272687">
        <time>2026-07-05T00:30:34Z</time>
      </trkpt>
      <trkpt lat="23.07375" lon="113.272667">
        <time>2026-07-05T00:30:39Z</time>
      </trkpt>
      <trkpt lat="23.073713" lon="113.272684">
        <time>2026-07-05T00:30:44Z</time>
      </trkpt>
      <trkpt lat="23.073681" lon="113.272811">
        <time>2026-07-05T00:30:49Z</time>
      </trkpt>
      <trkpt lat="23.073701" lon="113.272901">
        <time>2026-07-05T00:30:54Z</time>
      </trkpt>
      <trkpt lat="23.073771" lon="113.272957">
        <time>2026-07-05T00:30:59Z</time>
      </trkpt>
      <trkpt lat="23.073889" lon="113.273002">
        <time>2026-07-05T00:31:04Z</time>
      </trkpt>
      <trkpt lat="23.073993" lon="113.272964">
        <time>2026-07-05T00:31:09Z</time>
      </trkpt>
      <trkpt lat="23.074032" lon="113.272877">
        <time>2026-07-05T00:31:14Z</time>
      </trkpt>
      <trkpt lat="23.074071" lon="113.272789">
        <time>2026-07-05T00:31:19Z</time>
      </trkpt>
      <trkpt lat="23.074119" lon="113.272666">
        <time>2026-07-05T00:31:24Z</time>
      </trkpt>
      <trkpt lat="23.074186" lon="113.272548">
        <time>2026-07-05T00:31:29Z</time>
      </trkpt>
      <trkpt lat="23.074228" lon="113.272473">
        <time>2026-07-05T00:31:34Z</time>
      </trkpt>
      <trkpt lat="23.074267" lon="113.272395">
        <time>2026-07-05T00:31:39Z</time>
      </trkpt>
      <trkpt lat="23.074326" lon="113.272282">
        <time>2026-07-05T00:31:44Z</time>
      </trkpt>
      <trkpt lat="23.07436" lon="113.272171">
        <time>2026-07-05T00:31:49Z</time>
      </trkpt>
      <trkpt lat="23.074385" lon="113.272112">
        <time>2026-07-05T00:31:54Z</time>
      </trkpt>
      <trkpt lat="23.074445" lon="113.272058">
        <time>2026-07-05T00:31:59Z</time>
      </trkpt>
      <trkpt lat="23.074546" lon="113.272023">
        <time>2026-07-05T00:32:04Z</time>
      </trkpt>
      <trkpt lat="23.07466" lon="113.272082">
        <time>2026-07-05T00:32:09Z</time>
      </trkpt>
      <trkpt lat="23.074734" lon="113.272121">
        <time>2026-07-05T00:32:14Z</time>
      </trkpt>
      <trkpt lat="23.074814" lon="113.272136">
        <time>2026-07-05T00:32:19Z</time>
      </trkpt>
      <trkpt lat="23.074918" lon="113.272172">
        <time>2026-07-05T00:32:24Z</time>
      </trkpt>
      <trkpt lat="23.07501" lon="113.272239">
        <time>2026-07-05T00:32:29Z</time>
      </trkpt>
      <trkpt lat="23.075075" lon="113.272281">
        <time>2026-07-05T00:32:34Z</time>
      </trkpt>
      <trkpt lat="23.075136" lon="113.272332">
        <time>2026-07-05T00:32:39Z</time>
      </trkpt>
      <trkpt lat="23.075215" lon="113.272425">
        <time>2026-07-05T00:32:44Z</time>
      </trkpt>
      <trkpt lat="23.075246" lon="113.272551">
        <time>2026-07-05T00:32:49Z</time>
      </trkpt>
      <trkpt lat="23.075252" lon="113.272629">
        <time>2026-07-05T00:32:54Z</time>
      </trkpt>
      <trkpt lat="23.075255" lon="113.272723">
        <time>2026-07-05T00:32:59Z</time>
      </trkpt>
      <trkpt lat="23.075311" lon="113.272838">
        <time>2026-07-05T00:33:04Z</time>
      </trkpt>
      <trkpt lat="23.075389" lon="113.272956">
        <time>2026-07-05T00:33:09Z</time>
      </trkpt>
      <trkpt lat="23.075419" lon="113.273052">
        <time>2026-07-05T00:33:14Z</time>
      </trkpt>
      <trkpt lat="23.075438" lon="113.273148">
        <time>2026-07-05T00:33:19Z</time>
      </trkpt>
      <trkpt lat="23.075487" lon="113.273286">
        <time>2026-07-05T00:33:25Z</time>
      </trkpt>
    </trkseg>
  </trk>
</gpx>