<?xml version="1.0" encoding="UTF-8"?>
<gpx xmlns="http://www.topografix.com/GPX/1/1" xmlns:gpxtpx="http://www.garmin.com/xmlschemas/TrackPointExtension/v1" xmlns:xsi="http://www.w3.org/2001/XMLSchema-instance" xsi:schemaLocation="http://www.topografix.com/GPX/1/1 http://www.topografix.com/GPX/1/1/gpx.xsd" version="1.1" creator="gpx.py -- https://github.com/tkrajina/gpxpy">
  <trk>
    <name>gpx from joyrun</name>
    <trkseg>
      <trkpt lat="23.075997" lon="113.272969">
        <time>2026-07-06T22:08:50Z</time>
      </trkpt>
      <trkpt lat="23.076004" lon="113.272958">
        <time>2026-07-06T22:08:55Z</time>
      </trkpt>
      <trkpt lat="23.076027" lon="113.272823">
        <time>2026-07-06T22:09:00Z</time>
      </trkpt>
      <trkpt lat="23.076017" lon="113.272706">
        <time>2026-07-06T22:09:05Z</time>
      </trkpt>
      <trkpt lat="23.075939" lon="113.272653">
        <time>2026-07-06T22:09:10Z</time>
      </trkpt>
      <trkpt lat="23.075777" lon="113.272597">
        <time>2026-07-06T22:09:15Z</time>
      </trkpt>
      <trkpt lat="23.075643" lon="113.27249">
        <time>2026-07-06T22:09:20Z</time>
      </trkpt>
      <trkpt lat="23.075549" lon="113.272439">
        <time>2026-07-06T22:09:25Z</time>
      </trkpt>
      <trkpt lat="23.075452" lon="113.27239">
        <time>2026-07-06T22:09:30Z</time>
      </trkpt>
      <trkpt lat="23.075283" lon="113.27236">
        <time>2026-07-06T22:09:35Z</time>
      </trkpt>
      <trkpt lat="23.075136" lon="113.272335">
        <time>2026-07-06T22:09:40Z</time>
      </trkpt>
      <trkpt lat="23.075054" lon="113.272273">
        <time>2026-07-06T22:09:45Z</time>
      </trkpt>
      <trkpt lat="23.074972" lon="113.272193">
        <time>2026-07-06T22:09:50Z</time>
      </trkpt>
      <trkpt lat="23.074839" lon="113.272103">
        <time>2026-07-06T22:09:55Z</time>
      </trkpt>
      <trkpt lat="23.07469" lon="113.27205">
        <time>2026-07-06T22:10:00Z</time>
      </trkpt>
      <trkpt lat="23.074596" lon="113.272009">
        <time>2026-07-06T22:10:05Z</time>
      </trkpt>
      <trkpt lat="23.074507" lon="113.27197">
        <time>2026-07-06T22:10:10Z</time>
      </trkpt>
      <trkpt lat="23.074389" lon="113.272029">
        <time>2026-07-06T22:10:15Z</time>
      </trkpt>
      <trkpt lat="23.074285" lon="113.272156">
        <time>2026-07-06T22:10:20Z</time>
      </trkpt>
      <trkpt lat="23.074248" lon="113.272281">
        <time>2026-07-06T22:10:25Z</time>
      </trkpt>
      <trkpt lat="23.07421" lon="113.272402">
        <time>2026-07-06T22:10:30Z</time>
      </trkpt>
      <trkpt lat="23.074131" lon="113.272564">
        <time>2026-07-06T22:10:35Z</time>
      </trkpt>
      <trkpt lat="23.074074" lon="113.2727">
        <time>2026-07-06T22:10:40Z</time>
      </trkpt>
      <trkpt lat="23.074046" lon="113.272789">
        <time>2026-07-06T22:10:45Z</time>
      </trkpt>
      <trkpt lat="23.073999" lon="113.272884">
        <time>2026-07-06T22:10:50Z</time>
      </trkpt>
      <trkpt lat="23.073939" lon="113.273036">
        <time>2026-07-06T22:10:55Z</time>
      </trkpt>
      <trkpt lat="23.073886" lon="113.273186">
        <time>2026-07-06T22:11:00Z</time>
      </trkpt>
      <trkpt lat="23.073868" lon="113.273233">
        <time>2026-07-06T22:11:05Z</time>
      </trkpt>
      <trkpt lat="23.073887" lon="113.273161">
        <time>2026-07-06T22:11:10Z</time>
      </trkpt>
      <trkpt lat="23.073948" lon="113.273029">
        <time>2026-07-06T22:11:15Z</time>
      </trkpt>
      <trkpt lat="23.073905" lon="113.272955">
        <time>2026-07-06T22:11:20Z</time>
      </trkpt>
      <trkpt lat="23.073808" lon="113.272922">
        <time>2026-07-06T22:11:25Z</time>
      </trkpt>
      <trkpt lat="23.073713" lon="113.272878">
        <time>2026-07-06T22:11:30Z</time>
      </trkpt>
      <trkpt lat="23.07369" lon="113.27276">
        <time>2026-07-06T22:11:35Z</time>
      </trkpt>
      <trkpt lat="23.073758" lon="113.272604">
        <time>2026-07-06T22:11:40Z</time>
      </trkpt>
      <trkpt lat="23.073798" lon="113.27252">
        <time>2026-07-06T22:11:45Z</time>
      </trkpt>
      <trkpt lat="23.073832" lon="113.272449">
        <time>2026-07-06T22:11:50Z</time>
      </trkpt>
      <trkpt lat="23.073871" lon="113.272326">
        <time>2026-07-06T22:11:55Z</time>
      </trkpt>
      <trkpt lat="23.073948" lon="113.272185">
        <time>2026-07-06T22:12:00Z</time>
      </trkpt>
      <trkpt lat="23.073976" lon="113.272091">
        <time>2026-07-06T22:12:05Z</time>
      </trkpt>
      <trkpt lat="23.073999" lon="113.271994">
        <time>2026-07-06T22:12:10Z</time>
      </trkpt>
      <trkpt lat="23.074039" lon="113.271851">
        <time>2026-07-06T22:12:15Z</time>
      </trkpt>
      <trkpt lat="23.07402" lon="113.271719">
        <time>2026-07-06T22:12:20Z</time>
      </trkpt>
      <trkpt lat="23.073938" lon="113.271672">
        <time>2026-07-06T22:12:25Z</time>
      </trkpt>
      <trkpt lat="23.07386" lon="113.271635">
        <time>2026-07-06T22:12:30Z</time>
      </trkpt>
      <trkpt lat="23.073754" lon="113.271584">
        <time>2026-07-06T22:12:35Z</time>
      </trkpt>
      <trkpt lat="23.073616" lon="113.271519">
        <time>2026-07-06T22:12:40Z</time>
      </trkpt>
      <trkpt lat="23.073522" lon="113.271478">
        <time>2026-07-06T22:12:45Z</time>
      </trkpt>
      <trkpt lat="23.073434" lon="113.271436">
        <time>2026-07-06T22:12:50Z</time>
      </trkpt>
      <trkpt lat="23.07328" lon="113.271357">
        <time>2026-07-06T22:12:55Z</time>
      </trkpt>
      <trkpt lat="23.073157" lon="113.271221">
        <time>2026-07-06T22:13:00Z</time>
      </trkpt>
      <trkpt lat="23.073072" lon="113.271143">
        <time>2026-07-06T22:13:05Z</time>
      </trkpt>
      <trkpt lat="23.072981" lon="113.271079">
        <time>2026-07-06T22:13:10Z</time>
      </trkpt>
      <trkpt lat="23.072834" lon="113.271006">
        <time>2026-07-06T22:13:15Z</time>
      </trkpt>
      <trkpt lat="23.072674" lon="113.270966">
        <time>2026-07-06T22:13:20Z</time>
      </trkpt>
      <trkpt lat="23.072564" lon="113.270948">
        <time>2026-07-06T22:13:25Z</time>
      </trkpt>
      <trkpt lat="23.072468" lon="113.270914">
        <time>2026-07-06T22:13:30Z</time>
      </trkpt>
      <trkpt lat="23.072333" lon="113.270864">
        <time>2026-07-06T22:13:35Z</time>
      </trkpt>
      <trkpt lat="23.072213" lon="113.27079">
        <time>2026-07-06T22:13:40Z</time>
      </trkpt>
      <trkpt lat="23.072132" lon="113.27075">
        <time>2026-07-06T22:13:45Z</time>
      </trkpt>
      <trkpt lat="23.072047" lon="113.270689">
        <time>2026-07-06T22:13:50Z</time>
      </trkpt>
      <trkpt lat="23.071917" lon="113.270545">
        <time>2026-07-06T22:13:55Z</time>
      </trkpt>
      <trkpt lat="23.071765" lon="113.270457">
        <time>2026-07-06T22:14:00Z</time>
      </trkpt>
      <trkpt lat="23.071663" lon="113.270416">
        <time>2026-07-06T22:14:05Z</time>
      </trkpt>
      <trkpt lat="23.07157" lon="113.27037">
        <time>2026-07-06T22:14:10Z</time>
      </trkpt>
      <trkpt lat="23.071427" lon="113.270299">
        <time>2026-07-06T22:14:15Z</time>
      </trkpt>
      <trkpt lat="23.07128" lon="113.270246">
        <time>2026-07-06T22:14:20Z</time>
      </trkpt>
      <trkpt lat="23.071187" lon="113.270201">
        <time>2026-07-06T22:14:25Z</time>
      </trkpt>
      <trkpt lat="23.071098" lon="113.270144">
        <time>2026-07-06T22:14:30Z</time>
      </trkpt>
      <trkpt lat="23.070944" lon="113.270109">
        <time>2026-07-06T22:14:35Z</time>
      </trkpt>
      <trkpt lat="23.07079" lon="113.270091">
        <time>2026-07-06T22:14:40Z</time>
      </trkpt>
      <trkpt lat="23.070691" lon="113.27004">
        <time>2026-07-06T22:14:45Z</time>
      </trkpt>
      <trkpt lat="23.070595" lon="113.269973">
        <time>2026-07-06T22:14:50Z</time>
      </trkpt>
      <trkpt lat="23.070431" lon="113.269884">
        <time>2026-07-06T22:14:55Z</time>
      </trkpt>
      <trkpt lat="23.070256" lon="113.269817">
        <time>2026-07-06T22:15:00Z</time>
      </trkpt>
      <trkpt lat="23.07016" lon="113.269771">
        <time>2026-07-06T22:15:05Z</time>
      </trkpt>
      <trkpt lat="23.070075" lon="113.269703">
        <time>2026-07-06T22:15:10Z</time>
      </trkpt>
      <trkpt lat="23.069942" lon="113.269595">
        <time>2026-07-06T22:15:15Z</time>
      </trkpt>
      <trkpt lat="23.069806" lon="113.269531">
        <time>2026-07-06T22:15:20Z</time>
      </trkpt>
      <trkpt lat="23.069703" lon="113.269488">
        <time>2026-07-06T22:15:25Z</time>
      </trkpt>
      <trkpt lat="23.069595" lon="113.269428">
        <time>2026-07-06T22:15:30Z</time>
      </trkpt>
      <trkpt lat="23.06945" lon="113.269353">
        <time>2026-07-06T22:15:35Z</time>
      </trkpt>
      <trkpt lat="23.069306" lon="113.269292">
        <time>2026-07-06T22:15:40Z</time>
      </trkpt>
      <trkpt lat="23.069206" lon="113.269232">
        <time>2026-07-06T22:15:45Z</time>
      </trkpt>
      <trkpt lat="23.069112" lon="113.269171">
        <time>2026-07-06T22:15:50Z</time>
      </trkpt>
      <trkpt lat="23.068966" lon="113.26913">
        <time>2026-07-06T22:15:55Z</time>
      </trkpt>
      <trkpt lat="23.068824" lon="113.269059">
        <time>2026-07-06T22:16:00Z</time>
      </trkpt>
      <trkpt lat="23.068739" lon="113.269008">
        <time>2026-07-06T22:16:05Z</time>
      </trkpt>
      <trkpt lat="23.068638" lon="113.268975">
        <time>2026-07-06T22:16:10Z</time>
      </trkpt>
      <trkpt lat="23.068479" lon="113.268941">
        <time>2026-07-06T22:16:15Z</time>
      </trkpt>
      <trkpt lat="23.068331" lon="113.268899">
        <time>2026-07-06T22:16:20Z</time>
      </trkpt>
      <trkpt lat="23.068237" lon="113.26886">
        <time>2026-07-06T22:16:25Z</time>
      </trkpt>
      <trkpt lat="23.068151" lon="113.268815">
        <time>2026-07-06T22:16:30Z</time>
      </trkpt>
      <trkpt lat="23.068017" lon="113.268726">
        <time>2026-07-06T22:16:35Z</time>
      </trkpt>
      <trkpt lat="23.067922" lon="113.268554">
        <time>2026-07-06T22:16:40Z</time>
      </trkpt>
      <trkpt lat="23.067818" lon="113.268497">
        <time>2026-07-06T22:16:45Z</time>
      </trkpt>
      <trkpt lat="23.067706" lon="113.268451">
        <time>2026-07-06T22:16:50Z</time>
      </trkpt>
      <trkpt lat="23.067564" lon="113.268368">
        <time>2026-07-06T22:16:55Z</time>
      </trkpt>
      <trkpt lat="23.067438" lon="113.268301">
        <time>2026-07-06T22:17:00Z</time>
      </trkpt>
      <trkpt lat="23.067354" lon="113.268256">
        <time>2026-07-06T22:17:05Z</time>
      </trkpt>
      <trkpt lat="23.067265" lon="113.268206">
        <time>2026-07-06T22:17:10Z</time>
      </trkpt>
      <trkpt lat="23.067137" lon="113.268157">
        <time>2026-07-06T22:17:15Z</time>
      </trkpt>
      <trkpt lat="23.067001" lon="113.268112">
        <time>2026-07-06T22:17:20Z</time>
      </trkpt>
      <trkpt lat="23.066909" lon="113.26808">
        <time>2026-07-06T22:17:25Z</time>
      </trkpt>
      <trkpt lat="23.066799" lon="113.268055">
        <time>2026-07-06T22:17:30Z</time>
      </trkpt>
      <trkpt lat="23.066636" lon="113.26802">
        <time>2026-07-06T22:17:35Z</time>
      </trkpt>
      <trkpt lat="23.066486" lon="113.267975">
        <time>2026-07-06T22:17:40Z</time>
      </trkpt>
      <trkpt lat="23.066378" lon="113.267963">
        <time>2026-07-06T22:17:45Z</time>
      </trkpt>
      <trkpt lat="23.066269" lon="113.267981">
        <time>2026-07-06T22:17:50Z</time>
      </trkpt>
      <trkpt lat="23.066133" lon="113.268079">
        <time>2026-07-06T22:17:55Z</time>
      </trkpt>
      <trkpt lat="23.066016" lon="113.268207">
        <time>2026-07-06T22:18:00Z</time>
      </trkpt>
      <trkpt lat="23.065939" lon="113.268298">
        <time>2026-07-06T22:18:05Z</time>
      </trkpt>
      <trkpt lat="23.065868" lon="113.268383">
        <time>2026-07-06T22:18:10Z</time>
      </trkpt>
      <trkpt lat="23.06578" lon="113.268506">
        <time>2026-07-06T22:18:15Z</time>
      </trkpt>
      <trkpt lat="23.06572" lon="113.268648">
        <time>2026-07-06T22:18:20Z</time>
      </trkpt>
      <trkpt lat="23.065679" lon="113.268747">
        <time>2026-07-06T22:18:25Z</time>
      </trkpt>
      <trkpt lat="23.065639" lon="113.268853">
        <time>2026-07-06T22:18:30Z</time>
      </trkpt>
      <trkpt lat="23.065594" lon="113.269024">
        <time>2026-07-06T22:18:35Z</time>
      </trkpt>
      <trkpt lat="23.065554" lon="113.269188">
        <time>2026-07-06T22:18:40Z</time>
      </trkpt>
      <trkpt lat="23.065522" lon="113.269292">
        <time>2026-07-06T22:18:45Z</time>
      </trkpt>
      <trkpt lat="23.065491" lon="113.2694">
        <time>2026-07-06T22:18:50Z</time>
      </trkpt>
      <trkpt lat="23.065455" lon="113.269565">
        <time>2026-07-06T22:18:55Z</time>
      </trkpt>
      <trkpt lat="23.06542" lon="113.269725">
        <time>2026-07-06T22:19:00Z</time>
      </trkpt>
      <trkpt lat="23.065394" lon="113.26983">
        <time>2026-07-06T22:19:05Z</time>
      </trkpt>
      <trkpt lat="23.065355" lon="113.26993">
        <time>2026-07-06T22:19:10Z</time>
      </trkpt>
      <trkpt lat="23.06529" lon="113.270089">
        <time>2026-07-06T22:19:15Z</time>
      </trkpt>
      <trkpt lat="23.065227" lon="113.27024">
        <time>2026-07-06T22:19:20Z</time>
      </trkpt>
      <trkpt lat="23.065182" lon="113.270349">
        <time>2026-07-06T22:19:25Z</time>
      </trkpt>
      <trkpt lat="23.065136" lon="113.270451">
        <time>2026-07-06T22:19:30Z</time>
      </trkpt>
      <trkpt lat="23.065065" lon="113.270596">
        <time>2026-07-06T22:19:35Z</time>
      </trkpt>
      <trkpt lat="23.064996" lon="113.270742">
        <time>2026-07-06T22:19:40Z</time>
      </trkpt>
      <trkpt lat="23.064952" lon="113.270846">
        <time>2026-07-06T22:19:45Z</time>
      </trkpt>
      <trkpt lat="23.064902" lon="113.270949">
        <time>2026-07-06T22:19:50Z</time>
      </trkpt>
      <trkpt lat="23.064827" lon="113.271088">
        <time>2026-07-06T22:19:55Z</time>
      </trkpt>
      <trkpt lat="23.064748" lon="113.271231">
        <time>2026-07-06T22:20:00Z</time>
      </trkpt>
      <trkpt lat="23.064704" lon="113.271334">
        <time>2026-07-06T22:20:05Z</time>
      </trkpt>
      <trkpt lat="23.064665" lon="113.271443">
        <time>2026-07-06T22:20:10Z</time>
      </trkpt>
      <trkpt lat="23.0646" lon="113.271592">
        <time>2026-07-06T22:20:15Z</time>
      </trkpt>
      <trkpt lat="23.064527" lon="113.271732">
        <time>2026-07-06T22:20:20Z</time>
      </trkpt>
      <trkpt lat="23.064483" lon="113.271832">
        <time>2026-07-06T22:20:25Z</time>
      </trkpt>
      <trkpt lat="23.064442" lon="113.271933">
        <time>2026-07-06T22:20:30Z</time>
      </trkpt>
      <trkpt lat="23.064375" lon="113.272097">
        <time>2026-07-06T22:20:35Z</time>
      </trkpt>
      <trkpt lat="23.06431" lon="113.272265">
        <time>2026-07-06T22:20:40Z</time>
      </trkpt>
      <trkpt lat="23.064291" lon="113.272376">
        <time>2026-07-06T22:20:45Z</time>
      </trkpt>
      <trkpt lat="23.064281" lon="113.272486">
        <time>2026-07-06T22:20:50Z</time>
      </trkpt>
      <trkpt lat="23.06428" lon="113.272653">
        <time>2026-07-06T22:20:55Z</time>
      </trkpt>
      <trkpt lat="23.064322" lon="113.272805">
        <time>2026-07-06T22:21:00Z</time>
      </trkpt>
      <trkpt lat="23.064356" lon="113.272907">
        <time>2026-07-06T22:21:05Z</time>
      </trkpt>
      <trkpt lat="23.064389" lon="113.27301">
        <time>2026-07-06T22:21:10Z</time>
      </trkpt>
      <trkpt lat="23.064429" lon="113.273154">
        <time>2026-07-06T22:21:15Z</time>
      </trkpt>
      <trkpt lat="23.064401" lon="113.273305">
        <time>2026-07-06T22:21:20Z</time>
      </trkpt>
      <trkpt lat="23.064329" lon="113.273371">
        <time>2026-07-06T22:21:25Z</time>
      </trkpt>
      <trkpt lat="23.064242" lon="113.273427">
        <time>2026-07-06T22:21:30Z</time>
      </trkpt>
      <trkpt lat="23.064121" lon="113.273514">
        <time>2026-07-06T22:21:35Z</time>
      </trkpt>
      <trkpt lat="23.063989" lon="113.273611">
        <time>2026-07-06T22:21:40Z</time>
      </trkpt>
      <trkpt lat="23.063911" lon="113.273689">
        <time>2026-07-06T22:21:45Z</time>
      </trkpt>
      <trkpt lat="23.063854" lon="113.273781">
        <time>2026-07-06T22:21:50Z</time>
      </trkpt>
      <trkpt lat="23.063783" lon="113.273928">
        <time>2026-07-06T22:21:55Z</time>
      </trkpt>
      <trkpt lat="23.063711" lon="113.274069">
        <time>2026-07-06T22:22:00Z</time>
      </trkpt>
      <trkpt lat="23.063634" lon="113.274138">
        <time>2026-07-06T22:22:05Z</time>
      </trkpt>
      <trkpt lat="23.063552" lon="113.274192">
        <time>2026-07-06T22:22:10Z</time>
      </trkpt>
      <trkpt lat="23.063469" lon="113.274331">
        <time>2026-07-06T22:22:15Z</time>
      </trkpt>
      <trkpt lat="23.063406" lon="113.274504">
        <time>2026-07-06T22:22:20Z</time>
      </trkpt>
      <trkpt lat="23.063357" lon="113.274613">
        <time>2026-07-06T22:22:25Z</time>
      </trkpt>
      <trkpt lat="23.063319" lon="113.274716">
        <time>2026-07-06T22:22:30Z</time>
      </trkpt>
      <trkpt lat="23.063269" lon="113.27487">
        <time>2026-07-06T22:22:35Z</time>
      </trkpt>
      <trkpt lat="23.063213" lon="113.275036">
        <time>2026-07-06T22:22:40Z</time>
      </trkpt>
      <trkpt lat="23.063163" lon="113.27514">
        <time>2026-07-06T22:22:45Z</time>
      </trkpt>
      <trkpt lat="23.063107" lon="113.275236">
        <time>2026-07-06T22:22:50Z</time>
      </trkpt>
      <trkpt lat="23.063028" lon="113.275374">
        <time>2026-07-06T22:22:55Z</time>
      </trkpt>
      <trkpt lat="23.062948" lon="113.275507">
        <time>2026-07-06T22:23:00Z</time>
      </trkpt>
      <trkpt lat="23.062877" lon="113.275594">
        <time>2026-07-06T22:23:05Z</time>
      </trkpt>
      <trkpt lat="23.062793" lon="113.275682">
        <time>2026-07-06T22:23:10Z</time>
      </trkpt>
      <trkpt lat="23.062675" lon="113.275796">
        <time>2026-07-06T22:23:15Z</time>
      </trkpt>
      <trkpt lat="23.06257" lon="113.275916">
        <time>2026-07-06T22:23:20Z</time>
      </trkpt>
      <trkpt lat="23.062502" lon="113.276008">
        <time>2026-07-06T22:23:25Z</time>
      </trkpt>
      <trkpt lat="23.062448" lon="113.276105">
        <time>2026-07-06T22:23:30Z</time>
      </trkpt>
      <trkpt lat="23.062382" lon="113.276249">
        <time>2026-07-06T22:23:35Z</time>
      </trkpt>
      <trkpt lat="23.06233" lon="113.276401">
        <time>2026-07-06T22:23:40Z</time>
      </trkpt>
      <trkpt lat="23.062293" lon="113.276508">
        <time>2026-07-06T22:23:45Z</time>
      </trkpt>
      <trkpt lat="23.062256" lon="113.276612">
        <time>2026-07-06T22:23:50Z</time>
      </trkpt>
      <trkpt lat="23.062208" lon="113.276757">
        <time>2026-07-06T22:23:55Z</time>
      </trkpt>
      <trkpt lat="23.062158" lon="113.2769">
        <time>2026-07-06T22:24:00Z</time>
      </trkpt>
      <trkpt lat="23.06212" lon="113.276998">
        <time>2026-07-06T22:24:05Z</time>
      </trkpt>
      <trkpt lat="23.062077" lon="113.277104">
        <time>2026-07-06T22:24:10Z</time>
      </trkpt>
      <trkpt lat="23.062015" lon="113.277267">
        <time>2026-07-06T22:24:15Z</time>
      </trkpt>
      <trkpt lat="23.061957" lon="113.277421">
        <time>2026-07-06T22:24:20Z</time>
      </trkpt>
      <trkpt lat="23.06192" lon="113.27752">
        <time>2026-07-06T22:24:25Z</time>
      </trkpt>
      <trkpt lat="23.061881" lon="113.277621">
        <time>2026-07-06T22:24:30Z</time>
      </trkpt>
      <trkpt lat="23.061839" lon="113.277783">
        <time>2026-07-06T22:24:35Z</time>
      </trkpt>
      <trkpt lat="23.061824" lon="113.277954">
        <time>2026-07-06T22:24:40Z</time>
      </trkpt>
      <trkpt lat="23.06183" lon="113.278061">
        <time>2026-07-06T22:24:45Z</time>
      </trkpt>
      <trkpt lat="23.061835" lon="113.278168">
        <time>2026-07-06T22:24:50Z</time>
      </trkpt>
      <trkpt lat="23.061846" lon="113.278338">
        <time>2026-07-06T22:24:55Z</time>
      </trkpt>
      <trkpt lat="23.061856" lon="113.278496">
        <time>2026-07-06T22:25:00Z</time>
      </trkpt>
      <trkpt lat="23.061859" lon="113.278602">
        <time>2026-07-06T22:25:05Z</time>
      </trkpt>
      <trkpt lat="23.061852" lon="113.278706">
        <time>2026-07-06T22:25:10Z</time>
      </trkpt>
      <trkpt lat="23.061795" lon="113.278853">
        <time>2026-07-06T22:25:15Z</time>
      </trkpt>
      <trkpt lat="23.061713" lon="113.278998">
        <time>2026-07-06T22:25:20Z</time>
      </trkpt>
      <trkpt lat="23.061656" lon="113.279092">
        <time>2026-07-06T22:25:25Z</time>
      </trkpt>
      <trkpt lat="23.061606" lon="113.279188">
        <time>2026-07-06T22:25:30Z</time>
      </trkpt>
      <trkpt lat="23.061547" lon="113.279339">
        <time>2026-07-06T22:25:35Z</time>
      </trkpt>
      <trkpt lat="23.061487" lon="113.279494">
        <time>2026-07-06T22:25:40Z</time>
      </trkpt>
      <trkpt lat="23.061445" lon="113.279599">
        <time>2026-07-06T22:25:45Z</time>
      </trkpt>
      <trkpt lat="23.061401" lon="113.2797">
        <time>2026-07-06T22:25:50Z</time>
      </trkpt>
      <trkpt lat="23.06134" lon="113.279848">
        <time>2026-07-06T22:25:55Z</time>
      </trkpt>
      <trkpt lat="23.06128" lon="113.28001">
        <time>2026-07-06T22:26:00Z</time>
      </trkpt>
      <trkpt lat="23.061239" lon="113.280121">
        <time>2026-07-06T22:26:05Z</time>
      </trkpt>
      <trkpt lat="23.061193" lon="113.280232">
        <time>2026-07-06T22:26:10Z</time>
      </trkpt>
      <trkpt lat="23.061123" lon="113.280395">
        <time>2026-07-06T22:26:15Z</time>
      </trkpt>
      <trkpt lat="23.061051" lon="113.280557">
        <time>2026-07-06T22:26:20Z</time>
      </trkpt>
      <trkpt lat="23.060996" lon="113.280666">
        <time>2026-07-06T22:26:25Z</time>
      </trkpt>
      <trkpt lat="23.060944" lon="113.280775">
        <time>2026-07-06T22:26:30Z</time>
      </trkpt>
      <trkpt lat="23.060868" lon="113.280932">
        <time>2026-07-06T22:26:35Z</time>
      </trkpt>
      <trkpt lat="23.060793" lon="113.281084">
        <time>2026-07-06T22:26:40Z</time>
      </trkpt>
      <trkpt lat="23.060751" lon="113.281187">
        <time>2026-07-06T22:26:45Z</time>
      </trkpt>
      <trkpt lat="23.060715" lon="113.281294">
        <time>2026-07-06T22:26:50Z</time>
      </trkpt>
      <trkpt lat="23.060651" lon="113.28145">
        <time>2026-07-06T22:26:55Z</time>
      </trkpt>
      <trkpt lat="23.06057" lon="113.281621">
        <time>2026-07-06T22:27:00Z</time>
      </trkpt>
      <trkpt lat="23.060519" lon="113.281734">
        <time>2026-07-06T22:27:05Z</time>
      </trkpt>
      <trkpt lat="23.060472" lon="113.281844">
        <time>2026-07-06T22:27:10Z</time>
      </trkpt>
      <trkpt lat="23.060396" lon="113.282004">
        <time>2026-07-06T22:27:15Z</time>
      </trkpt>
      <trkpt lat="23.060325" lon="113.282165">
        <time>2026-07-06T22:27:20Z</time>
      </trkpt>
      <trkpt lat="23.060281" lon="113.282272">
        <time>2026-07-06T22:27:25Z</time>
      </trkpt>
      <trkpt lat="23.060243" lon="113.282372">
        <time>2026-07-06T22:27:30Z</time>
      </trkpt>
      <trkpt lat="23.060179" lon="113.282522">
        <time>2026-07-06T22:27:35Z</time>
      </trkpt>
      <trkpt lat="23.060114" lon="113.282677">
        <time>2026-07-06T22:27:40Z</time>
      </trkpt>
      <trkpt lat="23.06007" lon="113.282775">
        <time>2026-07-06T22:27:45Z</time>
      </trkpt>
      <trkpt lat="23.060028" lon="113.282879">
        <time>2026-07-06T22:27:50Z</time>
      </trkpt>
      <trkpt lat="23.059957" lon="113.283034">
        <time>2026-07-06T22:27:55Z</time>
      </trkpt>
      <trkpt lat="23.059895" lon="113.283191">
        <time>2026-07-06T22:28:00Z</time>
      </trkpt>
      <trkpt lat="23.059854" lon="113.283296">
        <time>2026-07-06T22:28:05Z</time>
      </trkpt>
      <trkpt lat="23.059863" lon="113.283381">
        <time>2026-07-06T22:28:10Z</time>
      </trkpt>
      <trkpt lat="23.059961" lon="113.283315">
        <time>2026-07-06T22:28:15Z</time>
      </trkpt>
      <trkpt lat="23.060052" lon="113.283162">
        <time>2026-07-06T22:28:20Z</time>
      </trkpt>
      <trkpt lat="23.060111" lon="113.283055">
        <time>2026-07-06T22:28:25Z</time>
      </trkpt>
      <trkpt lat="23.060153" lon="113.282942">
        <time>2026-07-06T22:28:30Z</time>
      </trkpt>
      <trkpt lat="23.06021" lon="113.282766">
        <time>2026-07-06T22:28:35Z</time>
      </trkpt>
      <trkpt lat="23.060269" lon="113.282588">
        <time>2026-07-06T22:28:40Z</time>
      </trkpt>
      <trkpt lat="23.060308" lon="113.282468">
        <time>2026-07-06T22:28:45Z</time>
      </trkpt>
      <trkpt lat="23.060347" lon="113.282354">
        <time>2026-07-06T22:28:50Z</time>
      </trkpt>
      <trkpt lat="23.060408" lon="113.282188">
        <time>2026-07-06T22:28:55Z</time>
      </trkpt>
      <trkpt lat="23.06047" lon="113.282029">
        <time>2026-07-06T22:29:00Z</time>
      </trkpt>
      <trkpt lat="23.060514" lon="113.281932">
        <time>2026-07-06T22:29:05Z</time>
      </trkpt>
      <trkpt lat="23.060558" lon="113.28184">
        <time>2026-07-06T22:29:10Z</time>
      </trkpt>
      <trkpt lat="23.060628" lon="113.281688">
        <time>2026-07-06T22:29:15Z</time>
      </trkpt>
      <trkpt lat="23.060693" lon="113.281535">
        <time>2026-07-06T22:29:20Z</time>
      </trkpt>
      <trkpt lat="23.060737" lon="113.281435">
        <time>2026-07-06T22:29:25Z</time>
      </trkpt>
      <trkpt lat="23.060779" lon="113.281331">
        <time>2026-07-06T22:29:30Z</time>
      </trkpt>
      <trkpt lat="23.060854" lon="113.281181">
        <time>2026-07-06T22:29:35Z</time>
      </trkpt>
      <trkpt lat="23.060923" lon="113.281038">
        <time>2026-07-06T22:29:40Z</time>
      </trkpt>
      <trkpt lat="23.060965" lon="113.280942">
        <time>2026-07-06T22:29:45Z</time>
      </trkpt>
      <trkpt lat="23.061006" lon="113.28084">
        <time>2026-07-06T22:29:50Z</time>
      </trkpt>
      <trkpt lat="23.061078" lon="113.280675">
        <time>2026-07-06T22:29:55Z</time>
      </trkpt>
      <trkpt lat="23.061157" lon="113.280517">
        <time>2026-07-06T22:30:00Z</time>
      </trkpt>
      <trkpt lat="23.061201" lon="113.280414">
        <time>2026-07-06T22:30:05Z</time>
      </trkpt>
      <trkpt lat="23.061238" lon="113.280318">
        <time>2026-07-06T22:30:10Z</time>
      </trkpt>
      <trkpt lat="23.061316" lon="113.280174">
        <time>2026-07-06T22:30:15Z</time>
      </trkpt>
      <trkpt lat="23.061386" lon="113.280028">
        <time>2026-07-06T22:30:20Z</time>
      </trkpt>
      <trkpt lat="23.061426" lon="113.279929">
        <time>2026-07-06T22:30:25Z</time>
      </trkpt>
      <trkpt lat="23.061467" lon="113.279831">
        <time>2026-07-06T22:30:30Z</time>
      </trkpt>
      <trkpt lat="23.061524" lon="113.279681">
        <time>2026-07-06T22:30:35Z</time>
      </trkpt>
      <trkpt lat="23.061582" lon="113.279521">
        <time>2026-07-06T22:30:40Z</time>
      </trkpt>
      <trkpt lat="23.061621" lon="113.27942">
        <time>2026-07-06T22:30:45Z</time>
      </trkpt>
      <trkpt lat="23.061661" lon="113.279323">
        <time>2026-07-06T22:30:50Z</time>
      </trkpt>
      <trkpt lat="23.061733" lon="113.279174">
        <time>2026-07-06T22:30:55Z</time>
      </trkpt>
      <trkpt lat="23.061826" lon="113.279031">
        <time>2026-07-06T22:31:00Z</time>
      </trkpt>
      <trkpt lat="23.061895" lon="113.278933">
        <time>2026-07-06T22:31:05Z</time>
      </trkpt>
      <trkpt lat="23.061944" lon="113.27882">
        <time>2026-07-06T22:31:10Z</time>
      </trkpt>
      <trkpt lat="23.061964" lon="113.278631">
        <time>2026-07-06T22:31:15Z</time>
      </trkpt>
      <trkpt lat="23.061957" lon="113.278452">
        <time>2026-07-06T22:31:20Z</time>
      </trkpt>
      <trkpt lat="23.061952" lon="113.278342">
        <time>2026-07-06T22:31:25Z</time>
      </trkpt>
      <trkpt lat="23.061946" lon="113.278233">
        <time>2026-07-06T22:31:30Z</time>
      </trkpt>
      <trkpt lat="23.061935" lon="113.278071">
        <time>2026-07-06T22:31:35Z</time>
      </trkpt>
      <trkpt lat="23.061928" lon="113.277906">
        <time>2026-07-06T22:31:40Z</time>
      </trkpt>
      <trkpt lat="23.061941" lon="113.277796">
        <time>2026-07-06T22:31:45Z</time>
      </trkpt>
      <trkpt lat="23.061966" lon="113.277688">
        <time>2026-07-06T22:31:50Z</time>
      </trkpt>
      <trkpt lat="23.062032" lon="113.277527">
        <time>2026-07-06T22:31:55Z</time>
      </trkpt>
      <trkpt lat="23.062099" lon="113.277366">
        <time>2026-07-06T22:32:00Z</time>
      </trkpt>
      <trkpt lat="23.062135" lon="113.27726">
        <time>2026-07-06T22:32:05Z</time>
      </trkpt>
      <trkpt lat="23.062167" lon="113.277151">
        <time>2026-07-06T22:32:10Z</time>
      </trkpt>
      <trkpt lat="23.06222" lon="113.276999">
        <time>2026-07-06T22:32:15Z</time>
      </trkpt>
      <trkpt lat="23.062268" lon="113.276854">
        <time>2026-07-06T22:32:20Z</time>
      </trkpt>
      <trkpt lat="23.062302" lon="113.276755">
        <time>2026-07-06T22:32:25Z</time>
      </trkpt>
      <trkpt lat="23.062339" lon="113.276655">
        <time>2026-07-06T22:32:30Z</time>
      </trkpt>
      <trkpt lat="23.062392" lon="113.276498">
        <time>2026-07-06T22:32:35Z</time>
      </trkpt>
      <trkpt lat="23.062453" lon="113.276341">
        <time>2026-07-06T22:32:40Z</time>
      </trkpt>
      <trkpt lat="23.062495" lon="113.276238">
        <time>2026-07-06T22:32:45Z</time>
      </trkpt>
      <trkpt lat="23.062544" lon="113.276138">
        <time>2026-07-06T22:32:50Z</time>
      </trkpt>
      <trkpt lat="23.062634" lon="113.275986">
        <time>2026-07-06T22:32:55Z</time>
      </trkpt>
      <trkpt lat="23.062743" lon="113.275849">
        <time>2026-07-06T22:33:00Z</time>
      </trkpt>
      <trkpt lat="23.062822" lon="113.275769">
        <time>2026-07-06T22:33:05Z</time>
      </trkpt>
      <trkpt lat="23.062903" lon="113.27569">
        <time>2026-07-06T22:33:10Z</time>
      </trkpt>
      <trkpt lat="23.063015" lon="113.275567">
        <time>2026-07-06T22:33:15Z</time>
      </trkpt>
      <trkpt lat="23.063097" lon="113.275427">
        <time>2026-07-06T22:33:20Z</time>
      </trkpt>
      <trkpt lat="23.063152" lon="113.275332">
        <time>2026-07-06T22:33:25Z</time>
      </trkpt>
      <trkpt lat="23.063218" lon="113.275238">
        <time>2026-07-06T22:33:30Z</time>
      </trkpt>
      <trkpt lat="23.063337" lon="113.27511">
        <time>2026-07-06T22:33:35Z</time>
      </trkpt>
      <trkpt lat="23.063397" lon="113.274954">
        <time>2026-07-06T22:33:40Z</time>
      </trkpt>
      <trkpt lat="23.063418" lon="113.274846">
        <time>2026-07-06T22:33:45Z</time>
      </trkpt>
      <trkpt lat="23.063443" lon="113.274743">
        <time>2026-07-06T22:33:50Z</time>
      </trkpt>
      <trkpt lat="23.063477" lon="113.27459">
        <time>2026-07-06T22:33:55Z</time>
      </trkpt>
      <trkpt lat="23.063534" lon="113.274444">
        <time>2026-07-06T22:34:00Z</time>
      </trkpt>
      <trkpt lat="23.063594" lon="113.274354">
        <time>2026-07-06T22:34:05Z</time>
      </trkpt>
      <trkpt lat="23.063676" lon="113.274269">
        <time>2026-07-06T22:34:10Z</time>
      </trkpt>
      <trkpt lat="23.063803" lon="113.274145">
        <time>2026-07-06T22:34:15Z</time>
      </trkpt>
      <trkpt lat="23.0639" lon="113.273997">
        <time>2026-07-06T22:34:20Z</time>
      </trkpt>
      <trkpt lat="23.063961" lon="113.273888">
        <time>2026-07-06T22:34:25Z</time>
      </trkpt>
      <trkpt lat="23.064034" lon="113.273785">
        <time>2026-07-06T22:34:30Z</time>
      </trkpt>
      <trkpt lat="23.064155" lon="113.27367">
        <time>2026-07-06T22:34:35Z</time>
      </trkpt>
      <trkpt lat="23.064279" lon="113.273574">
        <time>2026-07-06T22:34:40Z</time>
      </trkpt>
      <trkpt lat="23.064359" lon="113.273514">
        <time>2026-07-06T22:34:45Z</time>
      </trkpt>
      <trkpt lat="23.064431" lon="113.273448">
        <time>2026-07-06T22:34:50Z</time>
      </trkpt>
      <trkpt lat="23.064526" lon="113.273323">
        <time>2026-07-06T22:34:55Z</time>
      </trkpt>
      <trkpt lat="23.064569" lon="113.273162">
        <time>2026-07-06T22:35:00Z</time>
      </trkpt>
      <trkpt lat="23.064557" lon="113.273051">
        <time>2026-07-06T22:35:05Z</time>
      </trkpt>
      <trkpt lat="23.064524" lon="113.272945">
        <time>2026-07-06T22:35:10Z</time>
      </trkpt>
      <trkpt lat="23.06447" lon="113.272787">
        <time>2026-07-06T22:35:15Z</time>
      </trkpt>
      <trkpt lat="23.064439" lon="113.272623">
        <time>2026-07-06T22:35:20Z</time>
      </trkpt>
      <trkpt lat="23.06446" lon="113.272519">
        <time>2026-07-06T22:35:25Z</time>
      </trkpt>
      <trkpt lat="23.064483" lon="113.272411">
        <time>2026-07-06T22:35:30Z</time>
      </trkpt>
      <trkpt lat="23.064536" lon="113.27225">
        <time>2026-07-06T22:35:35Z</time>
      </trkpt>
      <trkpt lat="23.064612" lon="113.272093">
        <time>2026-07-06T22:35:40Z</time>
      </trkpt>
      <trkpt lat="23.06466" lon="113.271996">
        <time>2026-07-06T22:35:45Z</time>
      </trkpt>
      <trkpt lat="23.064702" lon="113.271906">
        <time>2026-07-06T22:35:50Z</time>
      </trkpt>
      <trkpt lat="23.064767" lon="113.271764">
        <time>2026-07-06T22:35:55Z</time>
      </trkpt>
      <trkpt lat="23.064838" lon="113.271615">
        <time>2026-07-06T22:36:00Z</time>
      </trkpt>
      <trkpt lat="23.064882" lon="113.271514">
        <time>2026-07-06T22:36:05Z</time>
      </trkpt>
      <trkpt lat="23.064926" lon="113.271411">
        <time>2026-07-06T22:36:10Z</time>
      </trkpt>
      <trkpt lat="23.064983" lon="113.271244">
        <time>2026-07-06T22:36:15Z</time>
      </trkpt>
      <trkpt lat="23.065067" lon="113.271085">
        <time>2026-07-06T22:36:20Z</time>
      </trkpt>
      <trkpt lat="23.065115" lon="113.270979">
        <time>2026-07-06T22:36:25Z</time>
      </trkpt>
      <trkpt lat="23.065156" lon="113.27087">
        <time>2026-07-06T22:36:30Z</time>
      </trkpt>
      <trkpt lat="23.06523" lon="113.270703">
        <time>2026-07-06T22:36:35Z</time>
      </trkpt>
      <trkpt lat="23.065305" lon="113.270548">
        <time>2026-07-06T22:36:40Z</time>
      </trkpt>
      <trkpt lat="23.065355" lon="113.270453">
        <time>2026-07-06T22:36:45Z</time>
      </trkpt>
      <trkpt lat="23.065407" lon="113.270352">
        <time>2026-07-06T22:36:50Z</time>
      </trkpt>
      <trkpt lat="23.065485" lon="113.270196">
        <time>2026-07-06T22:36:55Z</time>
      </trkpt>
      <trkpt lat="23.065551" lon="113.270036">
        <time>2026-07-06T22:37:00Z</time>
      </trkpt>
      <trkpt lat="23.065588" lon="113.269933">
        <time>2026-07-06T22:37:05Z</time>
      </trkpt>
      <trkpt lat="23.065622" lon="113.269829">
        <time>2026-07-06T22:37:10Z</time>
      </trkpt>
      <trkpt lat="23.065676" lon="113.269666">
        <time>2026-07-06T22:37:15Z</time>
      </trkpt>
      <trkpt lat="23.065737" lon="113.269504">
        <time>2026-07-06T22:37:20Z</time>
      </trkpt>
      <trkpt lat="23.065761" lon="113.2694">
        <time>2026-07-06T22:37:25Z</time>
      </trkpt>
      <trkpt lat="23.065781" lon="113.269284">
        <time>2026-07-06T22:37:30Z</time>
      </trkpt>
      <trkpt lat="23.065819" lon="113.269115">
        <time>2026-07-06T22:37:35Z</time>
      </trkpt>
      <trkpt lat="23.065858" lon="113.268968">
        <time>2026-07-06T22:37:40Z</time>
      </trkpt>
      <trkpt lat="23.065898" lon="113.26887">
        <time>2026-07-06T22:37:45Z</time>
      </trkpt>
      <trkpt lat="23.065941" lon="113.268773">
        <time>2026-07-06T22:37:50Z</time>
      </trkpt>
      <trkpt lat="23.066013" lon="113.268632">
        <time>2026-07-06T22:37:55Z</time>
      </trkpt>
      <trkpt lat="23.066103" lon="113.268499">
        <time>2026-07-06T22:38:00Z</time>
      </trkpt>
      <trkpt lat="23.066169" lon="113.268408">
        <time>2026-07-06T22:38:05Z</time>
      </trkpt>
      <trkpt lat="23.066239" lon="113.268319">
        <time>2026-07-06T22:38:10Z</time>
      </trkpt>
      <trkpt lat="23.066365" lon="113.268206">
        <time>2026-07-06T22:38:15Z</time>
      </trkpt>
      <trkpt lat="23.066521" lon="113.268161">
        <time>2026-07-06T22:38:20Z</time>
      </trkpt>
      <trkpt lat="23.066624" lon="113.26815">
        <time>2026-07-06T22:38:25Z</time>
      </trkpt>
      <trkpt lat="23.066637" lon="113.26807">
        <time>2026-07-06T22:38:30Z</time>
      </trkpt>
      <trkpt lat="23.06649" lon="113.267987">
        <time>2026-07-06T22:38:35Z</time>
      </trkpt>
      <trkpt lat="23.066325" lon="113.267991">
        <time>2026-07-06T22:38:40Z</time>
      </trkpt>
      <trkpt lat="23.066226" lon="113.268036">
        <time>2026-07-06T22:38:45Z</time>
      </trkpt>
      <trkpt lat="23.066143" lon="113.268107">
        <time>2026-07-06T22:38:50Z</time>
      </trkpt>
      <trkpt lat="23.066034" lon="113.268225">
        <time>2026-07-06T22:38:55Z</time>
      </trkpt>
      <trkpt lat="23.065936" lon="113.268345">
        <time>2026-07-06T22:39:00Z</time>
      </trkpt>
      <trkpt lat="23.065874" lon="113.268431">
        <time>2026-07-06T22:39:05Z</time>
      </trkpt>
      <trkpt lat="23.065817" lon="113.26852">
        <time>2026-07-06T22:39:10Z</time>
      </trkpt>
      <trkpt lat="23.065732" lon="113.268658">
        <time>2026-07-06T22:39:15Z</time>
      </trkpt>
      <trkpt lat="23.065664" lon="113.268807">
        <time>2026-07-06T22:39:20Z</time>
      </trkpt>
      <trkpt lat="23.065629" lon="113.268907">
        <time>2026-07-06T22:39:25Z</time>
      </trkpt>
      <trkpt lat="23.065601" lon="113.269013">
        <time>2026-07-06T22:39:30Z</time>
      </trkpt>
      <trkpt lat="23.065566" lon="113.269181">
        <time>2026-07-06T22:39:35Z</time>
      </trkpt>
      <trkpt lat="23.065518" lon="113.269345">
        <time>2026-07-06T22:39:40Z</time>
      </trkpt>
      <trkpt lat="23.065487" lon="113.269449">
        <time>2026-07-06T22:39:45Z</time>
      </trkpt>
      <trkpt lat="23.065462" lon="113.269556">
        <time>2026-07-06T22:39:50Z</time>
      </trkpt>
      <trkpt lat="23.065425" lon="113.269712">
        <time>2026-07-06T22:39:55Z</time>
      </trkpt>
      <trkpt lat="23.065374" lon="113.269859">
        <time>2026-07-06T22:40:00Z</time>
      </trkpt>
      <trkpt lat="23.06533" lon="113.269959">
        <time>2026-07-06T22:40:05Z</time>
      </trkpt>
      <trkpt lat="23.065291" lon="113.270059">
        <time>2026-07-06T22:40:10Z</time>
      </trkpt>
      <trkpt lat="23.065233" lon="113.270214">
        <time>2026-07-06T22:40:15Z</time>
      </trkpt>
      <trkpt lat="23.065171" lon="113.270369">
        <time>2026-07-06T22:40:20Z</time>
      </trkpt>
      <trkpt lat="23.065126" lon="113.270471">
        <time>2026-07-06T22:40:25Z</time>
      </trkpt>
      <trkpt lat="23.065082" lon="113.270569">
        <time>2026-07-06T22:40:30Z</time>
      </trkpt>
      <trkpt lat="23.065023" lon="113.270716">
        <time>2026-07-06T22:40:35Z</time>
      </trkpt>
      <trkpt lat="23.064957" lon="113.270865">
        <time>2026-07-06T22:40:40Z</time>
      </trkpt>
      <trkpt lat="23.064908" lon="113.270965">
        <time>2026-07-06T22:40:45Z</time>
      </trkpt>
      <trkpt lat="23.064856" lon="113.271062">
        <time>2026-07-06T22:40:50Z</time>
      </trkpt>
      <trkpt lat="23.064788" lon="113.27121">
        <time>2026-07-06T22:40:55Z</time>
      </trkpt>
      <trkpt lat="23.064723" lon="113.271354">
        <time>2026-07-06T22:41:00Z</time>
      </trkpt>
      <trkpt lat="23.064675" lon="113.271453">
        <time>2026-07-06T22:41:05Z</time>
      </trkpt>
      <trkpt lat="23.064623" lon="113.271554">
        <time>2026-07-06T22:41:10Z</time>
      </trkpt>
      <trkpt lat="23.064549" lon="113.271698">
        <time>2026-07-06T22:41:15Z</time>
      </trkpt>
      <trkpt lat="23.064482" lon="113.271855">
        <time>2026-07-06T22:41:20Z</time>
      </trkpt>
      <trkpt lat="23.064441" lon="113.271966">
        <time>2026-07-06T22:41:25Z</time>
      </trkpt>
      <trkpt lat="23.064396" lon="113.272067">
        <time>2026-07-06T22:41:30Z</time>
      </trkpt>
      <trkpt lat="23.06434" lon="113.272217">
        <time>2026-07-06T22:41:35Z</time>
      </trkpt>
      <trkpt lat="23.064328" lon="113.272384">
        <time>2026-07-06T22:41:40Z</time>
      </trkpt>
      <trkpt lat="23.064321" lon="113.272499">
        <time>2026-07-06T22:41:45Z</time>
      </trkpt>
      <trkpt lat="23.064324" lon="113.272612">
        <time>2026-07-06T22:41:50Z</time>
      </trkpt>
      <trkpt lat="23.064356" lon="113.272774">
        <time>2026-07-06T22:41:55Z</time>
      </trkpt>
      <trkpt lat="23.064402" lon="113.272925">
        <time>2026-07-06T22:42:00Z</time>
      </trkpt>
      <trkpt lat="23.064434" lon="113.273027">
        <time>2026-07-06T22:42:05Z</time>
      </trkpt>
      <trkpt lat="23.06446" lon="113.273133">
        <time>2026-07-06T22:42:10Z</time>
      </trkpt>
      <trkpt lat="23.064437" lon="113.273288">
        <time>2026-07-06T22:42:15Z</time>
      </trkpt>
      <trkpt lat="23.064329" lon="113.273396">
        <time>2026-07-06T22:42:20Z</time>
      </trkpt>
      <trkpt lat="23.064238" lon="113.273456">
        <time>2026-07-06T22:42:25Z</time>
      </trkpt>
      <trkpt lat="23.064149" lon="113.273519">
        <time>2026-07-06T22:42:30Z</time>
      </trkpt>
      <trkpt lat="23.064018" lon="113.273622">
        <time>2026-07-06T22:42:35Z</time>
      </trkpt>
      <trkpt lat="23.063906" lon="113.273742">
        <time>2026-07-06T22:42:40Z</time>
      </trkpt>
      <trkpt lat="23.063849" lon="113.273833">
        <time>2026-07-06T22:42:45Z</time>
      </trkpt>
      <trkpt lat="23.063796" lon="113.273927">
        <time>2026-07-06T22:42:50Z</time>
      </trkpt>
      <trkpt lat="23.063715" lon="113.274061">
        <time>2026-07-06T22:42:55Z</time>
      </trkpt>
      <trkpt lat="23.063598" lon="113.274164">
        <time>2026-07-06T22:43:00Z</time>
      </trkpt>
      <trkpt lat="23.06352" lon="113.274246">
        <time>2026-07-06T22:43:05Z</time>
      </trkpt>
      <trkpt lat="23.063469" lon="113.274345">
        <time>2026-07-06T22:43:10Z</time>
      </trkpt>
      <trkpt lat="23.063421" lon="113.274524">
        <time>2026-07-06T22:43:15Z</time>
      </trkpt>
      <trkpt lat="23.06337" lon="113.274696">
        <time>2026-07-06T22:43:20Z</time>
      </trkpt>
      <trkpt lat="23.063323" lon="113.274808">
        <time>2026-07-06T22:43:25Z</time>
      </trkpt>
      <trkpt lat="23.06328" lon="113.274919">
        <time>2026-07-06T22:43:30Z</time>
      </trkpt>
      <trkpt lat="23.063215" lon="113.275074">
        <time>2026-07-06T22:43:35Z</time>
      </trkpt>
      <trkpt lat="23.063142" lon="113.275214">
        <time>2026-07-06T22:43:40Z</time>
      </trkpt>
      <trkpt lat="23.063092" lon="113.275303">
        <time>2026-07-06T22:43:45Z</time>
      </trkpt>
      <trkpt lat="23.063041" lon="113.275395">
        <time>2026-07-06T22:43:50Z</time>
      </trkpt>
      <trkpt lat="23.062945" lon="113.275525">
        <time>2026-07-06T22:43:55Z</time>
      </trkpt>
      <trkpt lat="23.062836" lon="113.275643">
        <time>2026-07-06T22:44:00Z</time>
      </trkpt>
      <trkpt lat="23.062761" lon="113.275713">
        <time>2026-07-06T22:44:05Z</time>
      </trkpt>
      <trkpt lat="23.062687" lon="113.275788">
        <time>2026-07-06T22:44:10Z</time>
      </trkpt>
      <trkpt lat="23.062582" lon="113.275912">
        <time>2026-07-06T22:44:15Z</time>
      </trkpt>
      <trkpt lat="23.06249" lon="113.276056">
        <time>2026-07-06T22:44:20Z</time>
      </trkpt>
      <trkpt lat="23.062437" lon="113.276157">
        <time>2026-07-06T22:44:25Z</time>
      </trkpt>
      <trkpt lat="23.062386" lon="113.276252">
        <time>2026-07-06T22:44:30Z</time>
      </trkpt>
      <trkpt lat="23.062333" lon="113.276396">
        <time>2026-07-06T22:44:35Z</time>
      </trkpt>
      <trkpt lat="23.062287" lon="113.27655">
        <time>2026-07-06T22:44:40Z</time>
      </trkpt>
      <trkpt lat="23.062247" lon="113.276644">
        <time>2026-07-06T22:44:45Z</time>
      </trkpt>
      <trkpt lat="23.062207" lon="113.276737">
        <time>2026-07-06T22:44:50Z</time>
      </trkpt>
      <trkpt lat="23.062156" lon="113.276879">
        <time>2026-07-06T22:44:55Z</time>
      </trkpt>
      <trkpt lat="23.062111" lon="113.277022">
        <time>2026-07-06T22:45:00Z</time>
      </trkpt>
      <trkpt lat="23.062071" lon="113.277125">
        <time>2026-07-06T22:45:05Z</time>
      </trkpt>
      <trkpt lat="23.062025" lon="113.277232">
        <time>2026-07-06T22:45:10Z</time>
      </trkpt>
      <trkpt lat="23.061961" lon="113.277396">
        <time>2026-07-06T22:45:15Z</time>
      </trkpt>
      <trkpt lat="23.061901" lon="113.27755">
        <time>2026-07-06T22:45:20Z</time>
      </trkpt>
      <trkpt lat="23.061866" lon="113.277655">
        <time>2026-07-06T22:45:25Z</time>
      </trkpt>
      <trkpt lat="23.061838" lon="113.277759">
        <time>2026-07-06T22:45:30Z</time>
      </trkpt>
      <trkpt lat="23.061822" lon="113.27792">
        <time>2026-07-06T22:45:35Z</time>
      </trkpt>
      <trkpt lat="23.061822" lon="113.278077">
        <time>2026-07-06T22:45:40Z</time>
      </trkpt>
      <trkpt lat="23.06183" lon="113.278177">
        <time>2026-07-06T22:45:45Z</time>
      </trkpt>
      <trkpt lat="23.061835" lon="113.278275">
        <time>2026-07-06T22:45:50Z</time>
      </trkpt>
      <trkpt lat="23.061844" lon="113.27843">
        <time>2026-07-06T22:45:55Z</time>
      </trkpt>
      <trkpt lat="23.061854" lon="113.278589">
        <time>2026-07-06T22:46:00Z</time>
      </trkpt>
      <trkpt lat="23.061847" lon="113.27869">
        <time>2026-07-06T22:46:05Z</time>
      </trkpt>
      <trkpt lat="23.061792" lon="113.278742">
        <time>2026-07-06T22:46:10Z</time>
      </trkpt>
      <trkpt lat="23.061707" lon="113.278845">
        <time>2026-07-06T22:46:15Z</time>
      </trkpt>
      <trkpt lat="23.061654" lon="113.279005">
        <time>2026-07-06T22:46:20Z</time>
      </trkpt>
      <trkpt lat="23.061609" lon="113.279103">
        <time>2026-07-06T22:46:25Z</time>
      </trkpt>
      <trkpt lat="23.061563" lon="113.279199">
        <time>2026-07-06T22:46:30Z</time>
      </trkpt>
      <trkpt lat="23.061505" lon="113.279346">
        <time>2026-07-06T22:46:35Z</time>
      </trkpt>
      <trkpt lat="23.061443" lon="113.2795">
        <time>2026-07-06T22:46:40Z</time>
      </trkpt>
      <trkpt lat="23.061399" lon="113.279607">
        <time>2026-07-06T22:46:45Z</time>
      </trkpt>
      <trkpt lat="23.061353" lon="113.279711">
        <time>2026-07-06T22:46:50Z</time>
      </trkpt>
      <trkpt lat="23.06129" lon="113.279864">
        <time>2026-07-06T22:46:55Z</time>
      </trkpt>
      <trkpt lat="23.061233" lon="113.280015">
        <time>2026-07-06T22:47:00Z</time>
      </trkpt>
      <trkpt lat="23.061192" lon="113.280114">
        <time>2026-07-06T22:47:05Z</time>
      </trkpt>
      <trkpt lat="23.061151" lon="113.280218">
        <time>2026-07-06T22:47:10Z</time>
      </trkpt>
      <trkpt lat="23.061088" lon="113.280374">
        <time>2026-07-06T22:47:15Z</time>
      </trkpt>
      <trkpt lat="23.061023" lon="113.280534">
        <time>2026-07-06T22:47:20Z</time>
      </trkpt>
      <trkpt lat="23.06098" lon="113.28064">
        <time>2026-07-06T22:47:25Z</time>
      </trkpt>
      <trkpt lat="23.060934" lon="113.280738">
        <time>2026-07-06T22:47:30Z</time>
      </trkpt>
      <trkpt lat="23.060872" lon="113.280892">
        <time>2026-07-06T22:47:35Z</time>
      </trkpt>
      <trkpt lat="23.060808" lon="113.281047">
        <time>2026-07-06T22:47:40Z</time>
      </trkpt>
      <trkpt lat="23.060764" lon="113.281153">
        <time>2026-07-06T22:47:45Z</time>
      </trkpt>
      <trkpt lat="23.06072" lon="113.281259">
        <time>2026-07-06T22:47:50Z</time>
      </trkpt>
      <trkpt lat="23.06065" lon="113.281404">
        <time>2026-07-06T22:47:55Z</time>
      </trkpt>
      <trkpt lat="23.060579" lon="113.28155">
        <time>2026-07-06T22:48:00Z</time>
      </trkpt>
      <trkpt lat="23.060528" lon="113.281649">
        <time>2026-07-06T22:48:05Z</time>
      </trkpt>
      <trkpt lat="23.060476" lon="113.281745">
        <time>2026-07-06T22:48:10Z</time>
      </trkpt>
      <trkpt lat="23.060405" lon="113.281896">
        <time>2026-07-06T22:48:15Z</time>
      </trkpt>
      <trkpt lat="23.060343" lon="113.282048">
        <time>2026-07-06T22:48:20Z</time>
      </trkpt>
      <trkpt lat="23.0603" lon="113.282152">
        <time>2026-07-06T22:48:25Z</time>
      </trkpt>
      <trkpt lat="23.060261" lon="113.282255">
        <time>2026-07-06T22:48:30Z</time>
      </trkpt>
      <trkpt lat="23.060214" lon="113.282405">
        <time>2026-07-06T22:48:35Z</time>
      </trkpt>
      <trkpt lat="23.060161" lon="113.282547">
        <time>2026-07-06T22:48:40Z</time>
      </trkpt>
      <trkpt lat="23.060122" lon="113.282636">
        <time>2026-07-06T22:48:45Z</time>
      </trkpt>
      <trkpt lat="23.060081" lon="113.282723">
        <time>2026-07-06T22:48:50Z</time>
      </trkpt>
      <trkpt lat="23.060023" lon="113.282854">
        <time>2026-07-06T22:48:55Z</time>
      </trkpt>
      <trkpt lat="23.059963" lon="113.282999">
        <time>2026-07-06T22:49:00Z</time>
      </trkpt>
      <trkpt lat="23.059922" lon="113.283095">
        <time>2026-07-06T22:49:05Z</time>
      </trkpt>
      <trkpt lat="23.059877" lon="113.283189">
        <time>2026-07-06T22:49:10Z</time>
      </trkpt>
      <trkpt lat="23.059805" lon="113.283333">
        <time>2026-07-06T22:49:15Z</time>
      </trkpt>
      <trkpt lat="23.05974" lon="113.28348">
        <time>2026-07-06T22:49:20Z</time>
      </trkpt>
      <trkpt lat="23.059698" lon="113.283584">
        <time>2026-07-06T22:49:25Z</time>
      </trkpt>
      <trkpt lat="23.059654" lon="113.283683">
        <time>2026-07-06T22:49:30Z</time>
      </trkpt>
      <trkpt lat="23.05958" lon="113.28383">
        <time>2026-07-06T22:49:35Z</time>
      </trkpt>
      <trkpt lat="23.059509" lon="113.283983">
        <time>2026-07-06T22:49:40Z</time>
      </trkpt>
      <trkpt lat="23.059459" lon="113.284083">
        <time>2026-07-06T22:49:45Z</time>
      </trkpt>
      <trkpt lat="23.059408" lon="113.284186">
        <time>2026-07-06T22:49:50Z</time>
      </trkpt>
      <trkpt lat="23.059368" lon="113.284336">
        <time>2026-07-06T22:49:55Z</time>
      </trkpt>
      <trkpt lat="23.059336" lon="113.284495">
        <time>2026-07-06T22:50:00Z</time>
      </trkpt>
      <trkpt lat="23.059294" lon="113.284594">
        <time>2026-07-06T22:50:05Z</time>
      </trkpt>
      <trkpt lat="23.059253" lon="113.284693">
        <time>2026-07-06T22:50:10Z</time>
      </trkpt>
      <trkpt lat="23.059198" lon="113.284837">
        <time>2026-07-06T22:50:15Z</time>
      </trkpt>
      <trkpt lat="23.059138" lon="113.284981">
        <time>2026-07-06T22:50:20Z</time>
      </trkpt>
      <trkpt lat="23.059099" lon="113.285081">
        <time>2026-07-06T22:50:25Z</time>
      </trkpt>
      <trkpt lat="23.05906" lon="113.285177">
        <time>2026-07-06T22:50:30Z</time>
      </trkpt>
      <trkpt lat="23.058997" lon="113.285331">
        <time>2026-07-06T22:50:35Z</time>
      </trkpt>
      <trkpt lat="23.058919" lon="113.285483">
        <time>2026-07-06T22:50:40Z</time>
      </trkpt>
      <trkpt lat="23.058878" lon="113.285583">
        <time>2026-07-06T22:50:45Z</time>
      </trkpt>
      <trkpt lat="23.058837" lon="113.285685">
        <time>2026-07-06T22:50:50Z</time>
      </trkpt>
      <trkpt lat="23.058776" lon="113.285832">
        <time>2026-07-06T22:50:55Z</time>
      </trkpt>
      <trkpt lat="23.058705" lon="113.285981">
        <time>2026-07-06T22:51:00Z</time>
      </trkpt>
      <trkpt lat="23.058671" lon="113.286071">
        <time>2026-07-06T22:51:05Z</time>
      </trkpt>
      <trkpt lat="23.058713" lon="113.286134">
        <time>2026-07-06T22:51:10Z</time>
      </trkpt>
      <trkpt lat="23.058862" lon="113.286117">
        <time>2026-07-06T22:51:15Z</time>
      </trkpt>
      <trkpt lat="23.058953" lon="113.285984">
        <time>2026-07-06T22:51:20Z</time>
      </trkpt>
      <trkpt lat="23.058991" lon="113.285866">
        <time>2026-07-06T22:51:25Z</time>
      </trkpt>
      <trkpt lat="23.059041" lon="113.285754">
        <time>2026-07-06T22:51:30Z</time>
      </trkpt>
      <trkpt lat="23.059122" lon="113.285596">
        <time>2026-07-06T22:51:35Z</time>
      </trkpt>
      <trkpt lat="23.059188" lon="113.28544">
        <time>2026-07-06T22:51:40Z</time>
      </trkpt>
      <trkpt lat="23.059228" lon="113.28534">
        <time>2026-07-06T22:51:45Z</time>
      </trkpt>
      <trkpt lat="23.059267" lon="113.28524">
        <time>2026-07-06T22:51:50Z</time>
      </trkpt>
      <trkpt lat="23.059335" lon="113.28509">
        <time>2026-07-06T22:51:55Z</time>
      </trkpt>
      <trkpt lat="23.05939" lon="113.284937">
        <time>2026-07-06T22:52:00Z</time>
      </trkpt>
      <trkpt lat="23.059428" lon="113.284838">
        <time>2026-07-06T22:52:05Z</time>
      </trkpt>
      <trkpt lat="23.059465" lon="113.284737">
        <time>2026-07-06T22:52:10Z</time>
      </trkpt>
      <trkpt lat="23.05952" lon="113.284588">
        <time>2026-07-06T22:52:15Z</time>
      </trkpt>
      <trkpt lat="23.059573" lon="113.28445">
        <time>2026-07-06T22:52:20Z</time>
      </trkpt>
      <trkpt lat="23.059608" lon="113.28435">
        <time>2026-07-06T22:52:25Z</time>
      </trkpt>
      <trkpt lat="23.05962" lon="113.284238">
        <time>2026-07-06T22:52:30Z</time>
      </trkpt>
      <trkpt lat="23.05966" lon="113.284081">
        <time>2026-07-06T22:52:35Z</time>
      </trkpt>
      <trkpt lat="23.05973" lon="113.283934">
        <time>2026-07-06T22:52:40Z</time>
      </trkpt>
      <trkpt lat="23.059771" lon="113.283837">
        <time>2026-07-06T22:52:45Z</time>
      </trkpt>
      <trkpt lat="23.059836" lon="113.283746">
        <time>2026-07-06T22:52:50Z</time>
      </trkpt>
      <trkpt lat="23.059903" lon="113.283586">
        <time>2026-07-06T22:52:55Z</time>
      </trkpt>
      <trkpt lat="23.05993" lon="113.283419">
        <time>2026-07-06T22:53:00Z</time>
      </trkpt>
      <trkpt lat="23.05996" lon="113.283318">
        <time>2026-07-06T22:53:05Z</time>
      </trkpt>
      <trkpt lat="23.060004" lon="113.283232">
        <time>2026-07-06T22:53:10Z</time>
      </trkpt>
      <trkpt lat="23.060073" lon="113.283112">
        <time>2026-07-06T22:53:15Z</time>
      </trkpt>
      <trkpt lat="23.06015" lon="113.282983">
        <time>2026-07-06T22:53:20Z</time>
      </trkpt>
      <trkpt lat="23.060192" lon="113.282881">
        <time>2026-07-06T22:53:25Z</time>
      </trkpt>
      <trkpt lat="23.060227" lon="113.282773">
        <time>2026-07-06T22:53:30Z</time>
      </trkpt>
      <trkpt lat="23.060277" lon="113.282609">
        <time>2026-07-06T22:53:35Z</time>
      </trkpt>
      <trkpt lat="23.06033" lon="113.282456">
        <time>2026-07-06T22:53:40Z</time>
      </trkpt>
      <trkpt lat="23.060368" lon="113.282356">
        <time>2026-07-06T22:53:45Z</time>
      </trkpt>
      <trkpt lat="23.060405" lon="113.28226">
        <time>2026-07-06T22:53:50Z</time>
      </trkpt>
      <trkpt lat="23.060457" lon="113.2821">
        <time>2026-07-06T22:53:55Z</time>
      </trkpt>
      <trkpt lat="23.060521" lon="113.281941">
        <time>2026-07-06T22:54:00Z</time>
      </trkpt>
      <trkpt lat="23.060569" lon="113.281844">
        <time>2026-07-06T22:54:05Z</time>
      </trkpt>
      <trkpt lat="23.060615" lon="113.281753">
        <time>2026-07-06T22:54:10Z</time>
      </trkpt>
      <trkpt lat="23.060682" lon="113.281615">
        <time>2026-07-06T22:54:15Z</time>
      </trkpt>
      <trkpt lat="23.060748" lon="113.281477">
        <time>2026-07-06T22:54:20Z</time>
      </trkpt>
      <trkpt lat="23.060793" lon="113.281376">
        <time>2026-07-06T22:54:25Z</time>
      </trkpt>
      <trkpt lat="23.06084" lon="113.281276">
        <time>2026-07-06T22:54:30Z</time>
      </trkpt>
      <trkpt lat="23.060901" lon="113.281125">
        <time>2026-07-06T22:54:35Z</time>
      </trkpt>
      <trkpt lat="23.060959" lon="113.280983">
        <time>2026-07-06T22:54:40Z</time>
      </trkpt>
      <trkpt lat="23.060999" lon="113.280884">
        <time>2026-07-06T22:54:45Z</time>
      </trkpt>
      <trkpt lat="23.061042" lon="113.280782">
        <time>2026-07-06T22:54:50Z</time>
      </trkpt>
      <trkpt lat="23.061115" lon="113.280625">
        <time>2026-07-06T22:54:55Z</time>
      </trkpt>
      <trkpt lat="23.061197" lon="113.28048">
        <time>2026-07-06T22:55:00Z</time>
      </trkpt>
      <trkpt lat="23.061241" lon="113.28038">
        <time>2026-07-06T22:55:05Z</time>
      </trkpt>
      <trkpt lat="23.061278" lon="113.280274">
        <time>2026-07-06T22:55:10Z</time>
      </trkpt>
      <trkpt lat="23.061344" lon="113.280126">
        <time>2026-07-06T22:55:15Z</time>
      </trkpt>
      <trkpt lat="23.061392" lon="113.279969">
        <time>2026-07-06T22:55:20Z</time>
      </trkpt>
      <trkpt lat="23.061424" lon="113.279863">
        <time>2026-07-06T22:55:25Z</time>
      </trkpt>
      <trkpt lat="23.061457" lon="113.279758">
        <time>2026-07-06T22:55:30Z</time>
      </trkpt>
      <trkpt lat="23.061511" lon="113.279615">
        <time>2026-07-06T22:55:35Z</time>
      </trkpt>
      <trkpt lat="23.061565" lon="113.279485">
        <time>2026-07-06T22:55:40Z</time>
      </trkpt>
      <trkpt lat="23.061606" lon="113.279388">
        <time>2026-07-06T22:55:45Z</time>
      </trkpt>
      <trkpt lat="23.061651" lon="113.279295">
        <time>2026-07-06T22:55:50Z</time>
      </trkpt>
      <trkpt lat="23.061723" lon="113.279156">
        <time>2026-07-06T22:55:55Z</time>
      </trkpt>
      <trkpt lat="23.061801" lon="113.279026">
        <time>2026-07-06T22:56:00Z</time>
      </trkpt>
      <trkpt lat="23.06186" lon="113.278939">
        <time>2026-07-06T22:56:05Z</time>
      </trkpt>
      <trkpt lat="23.061918" lon="113.278843">
        <time>2026-07-06T22:56:10Z</time>
      </trkpt>
      <trkpt lat="23.061969" lon="113.278675">
        <time>2026-07-06T22:56:15Z</time>
      </trkpt>
      <trkpt lat="23.061966" lon="113.278504">
        <time>2026-07-06T22:56:20Z</time>
      </trkpt>
      <trkpt lat="23.061958" lon="113.278392">
        <time>2026-07-06T22:56:25Z</time>
      </trkpt>
      <trkpt lat="23.06196" lon="113.278281">
        <time>2026-07-06T22:56:30Z</time>
      </trkpt>
      <trkpt lat="23.061955" lon="113.278117">
        <time>2026-07-06T22:56:35Z</time>
      </trkpt>
      <trkpt lat="23.061947" lon="113.277956">
        <time>2026-07-06T22:56:40Z</time>
      </trkpt>
      <trkpt lat="23.061945" lon="113.277848">
        <time>2026-07-06T22:56:45Z</time>
      </trkpt>
      <trkpt lat="23.061957" lon="113.277737">
        <time>2026-07-06T22:56:50Z</time>
      </trkpt>
      <trkpt lat="23.062006" lon="113.277577">
        <time>2026-07-06T22:56:55Z</time>
      </trkpt>
      <trkpt lat="23.062063" lon="113.277423">
        <time>2026-07-06T22:57:00Z</time>
      </trkpt>
      <trkpt lat="23.062098" lon="113.277322">
        <time>2026-07-06T22:57:05Z</time>
      </trkpt>
      <trkpt lat="23.062137" lon="113.277218">
        <time>2026-07-06T22:57:10Z</time>
      </trkpt>
      <trkpt lat="23.062188" lon="113.277065">
        <time>2026-07-06T22:57:15Z</time>
      </trkpt>
      <trkpt lat="23.062249" lon="113.27692">
        <time>2026-07-06T22:57:20Z</time>
      </trkpt>
      <trkpt lat="23.062287" lon="113.276822">
        <time>2026-07-06T22:57:25Z</time>
      </trkpt>
      <trkpt lat="23.062322" lon="113.276719">
        <time>2026-07-06T22:57:30Z</time>
      </trkpt>
      <trkpt lat="23.062378" lon="113.276565">
        <time>2026-07-06T22:57:35Z</time>
      </trkpt>
      <trkpt lat="23.062432" lon="113.276414">
        <time>2026-07-06T22:57:40Z</time>
      </trkpt>
      <trkpt lat="23.062466" lon="113.276308">
        <time>2026-07-06T22:57:45Z</time>
      </trkpt>
      <trkpt lat="23.062507" lon="113.276205">
        <time>2026-07-06T22:57:50Z</time>
      </trkpt>
      <trkpt lat="23.062588" lon="113.276063">
        <time>2026-07-06T22:57:55Z</time>
      </trkpt>
      <trkpt lat="23.06268" lon="113.275927">
        <time>2026-07-06T22:58:00Z</time>
      </trkpt>
      <trkpt lat="23.062752" lon="113.275846">
        <time>2026-07-06T22:58:05Z</time>
      </trkpt>
      <trkpt lat="23.062827" lon="113.275767">
        <time>2026-07-06T22:58:10Z</time>
      </trkpt>
      <trkpt lat="23.062946" lon="113.275638">
        <time>2026-07-06T22:58:15Z</time>
      </trkpt>
      <trkpt lat="23.063053" lon="113.275506">
        <time>2026-07-06T22:58:20Z</time>
      </trkpt>
      <trkpt lat="23.06311" lon="113.275413">
        <time>2026-07-06T22:58:25Z</time>
      </trkpt>
      <trkpt lat="23.063166" lon="113.275319">
        <time>2026-07-06T22:58:30Z</time>
      </trkpt>
      <trkpt lat="23.063245" lon="113.275171">
        <time>2026-07-06T22:58:35Z</time>
      </trkpt>
      <trkpt lat="23.063325" lon="113.275023">
        <time>2026-07-06T22:58:40Z</time>
      </trkpt>
      <trkpt lat="23.063372" lon="113.274919">
        <time>2026-07-06T22:58:45Z</time>
      </trkpt>
      <trkpt lat="23.063409" lon="113.274817">
        <time>2026-07-06T22:58:50Z</time>
      </trkpt>
      <trkpt lat="23.063463" lon="113.274662">
        <time>2026-07-06T22:58:55Z</time>
      </trkpt>
      <trkpt lat="23.063515" lon="113.274505">
        <time>2026-07-06T22:59:00Z</time>
      </trkpt>
      <trkpt lat="23.06355" lon="113.274412">
        <time>2026-07-06T22:59:05Z</time>
      </trkpt>
      <trkpt lat="23.063592" lon="113.274323">
        <time>2026-07-06T22:59:10Z</time>
      </trkpt>
      <trkpt lat="23.063686" lon="113.274205">
        <time>2026-07-06T22:59:15Z</time>
      </trkpt>
      <trkpt lat="23.063809" lon="113.274111">
        <time>2026-07-06T22:59:20Z</time>
      </trkpt>
      <trkpt lat="23.063864" lon="113.274037">
        <time>2026-07-06T22:59:25Z</time>
      </trkpt>
      <trkpt lat="23.063908" lon="113.273953">
        <time>2026-07-06T22:59:30Z</time>
      </trkpt>
      <trkpt lat="23.063986" lon="113.273819">
        <time>2026-07-06T22:59:35Z</time>
      </trkpt>
      <trkpt lat="23.064104" lon="113.273695">
        <time>2026-07-06T22:59:40Z</time>
      </trkpt>
      <trkpt lat="23.064184" lon="113.273634">
        <time>2026-07-06T22:59:45Z</time>
      </trkpt>
      <trkpt lat="23.064264" lon="113.273585">
        <time>2026-07-06T22:59:50Z</time>
      </trkpt>
      <trkpt lat="23.064382" lon="113.273496">
        <time>2026-07-06T22:59:55Z</time>
      </trkpt>
      <trkpt lat="23.064488" lon="113.273392">
        <time>2026-07-06T23:00:00Z</time>
      </trkpt>
      <trkpt lat="23.064544" lon="113.27331">
        <time>2026-07-06T23:00:05Z</time>
      </trkpt>
      <trkpt lat="23.064571" lon="113.273203">
        <time>2026-07-06T23:00:10Z</time>
      </trkpt>
      <trkpt lat="23.064556" lon="113.273026">
        <time>2026-07-06T23:00:15Z</time>
      </trkpt>
      <trkpt lat="23.064505" lon="113.272864">
        <time>2026-07-06T23:00:20Z</time>
      </trkpt>
      <trkpt lat="23.064477" lon="113.272761">
        <time>2026-07-06T23:00:25Z</time>
      </trkpt>
      <trkpt lat="23.064454" lon="113.272654">
        <time>2026-07-06T23:00:30Z</time>
      </trkpt>
      <trkpt lat="23.064466" lon="113.272498">
        <time>2026-07-06T23:00:35Z</time>
      </trkpt>
      <trkpt lat="23.064524" lon="113.272322">
        <time>2026-07-06T23:00:40Z</time>
      </trkpt>
      <trkpt lat="23.064549" lon="113.272212">
        <time>2026-07-06T23:00:45Z</time>
      </trkpt>
      <trkpt lat="23.064591" lon="113.272114">
        <time>2026-07-06T23:00:50Z</time>
      </trkpt>
      <trkpt lat="23.064656" lon="113.271974">
        <time>2026-07-06T23:00:55Z</time>
      </trkpt>
      <trkpt lat="23.064727" lon="113.27182">
        <time>2026-07-06T23:01:00Z</time>
      </trkpt>
      <trkpt lat="23.064779" lon="113.271713">
        <time>2026-07-06T23:01:05Z</time>
      </trkpt>
      <trkpt lat="23.064827" lon="113.271608">
        <time>2026-07-06T23:01:10Z</time>
      </trkpt>
      <trkpt lat="23.064898" lon="113.271462">
        <time>2026-07-06T23:01:15Z</time>
      </trkpt>
      <trkpt lat="23.064971" lon="113.271324">
        <time>2026-07-06T23:01:20Z</time>
      </trkpt>
      <trkpt lat="23.065015" lon="113.271235">
        <time>2026-07-06T23:01:25Z</time>
      </trkpt>
      <trkpt lat="23.065075" lon="113.271161">
        <time>2026-07-06T23:01:30Z</time>
      </trkpt>
      <trkpt lat="23.065154" lon="113.271024">
        <time>2026-07-06T23:01:35Z</time>
      </trkpt>
      <trkpt lat="23.065191" lon="113.270838">
        <time>2026-07-06T23:01:40Z</time>
      </trkpt>
      <trkpt lat="23.065238" lon="113.270732">
        <time>2026-07-06T23:01:45Z</time>
      </trkpt>
      <trkpt lat="23.065289" lon="113.270636">
        <time>2026-07-06T23:01:50Z</time>
      </trkpt>
      <trkpt lat="23.065361" lon="113.270487">
        <time>2026-07-06T23:01:55Z</time>
      </trkpt>
      <trkpt lat="23.065428" lon="113.270338">
        <time>2026-07-06T23:02:00Z</time>
      </trkpt>
      <trkpt lat="23.065469" lon="113.270241">
        <time>2026-07-06T23:02:05Z</time>
      </trkpt>
      <trkpt lat="23.065509" lon="113.270142">
        <time>2026-07-06T23:02:10Z</time>
      </trkpt>
      <trkpt lat="23.065559" lon="113.269992">
        <time>2026-07-06T23:02:15Z</time>
      </trkpt>
      <trkpt lat="23.065599" lon="113.269839">
        <time>2026-07-06T23:02:20Z</time>
      </trkpt>
      <trkpt lat="23.065625" lon="113.269741">
        <time>2026-07-06T23:02:25Z</time>
      </trkpt>
      <trkpt lat="23.065657" lon="113.26964">
        <time>2026-07-06T23:02:30Z</time>
      </trkpt>
      <trkpt lat="23.065712" lon="113.269477">
        <time>2026-07-06T23:02:35Z</time>
      </trkpt>
      <trkpt lat="23.065747" lon="113.269309">
        <time>2026-07-06T23:02:40Z</time>
      </trkpt>
      <trkpt lat="23.065776" lon="113.269202">
        <time>2026-07-06T23:02:45Z</time>
      </trkpt>
      <trkpt lat="23.065811" lon="113.269098">
        <time>2026-07-06T23:02:50Z</time>
      </trkpt>
      <trkpt lat="23.065878" lon="113.268945">
        <time>2026-07-06T23:02:55Z</time>
      </trkpt>
      <trkpt lat="23.065946" lon="113.268797">
        <time>2026-07-06T23:03:00Z</time>
      </trkpt>
      <trkpt lat="23.065994" lon="113.268697">
        <time>2026-07-06T23:03:05Z</time>
      </trkpt>
      <trkpt lat="23.066052" lon="113.268603">
        <time>2026-07-06T23:03:10Z</time>
      </trkpt>
      <trkpt lat="23.066142" lon="113.268461">
        <time>2026-07-06T23:03:15Z</time>
      </trkpt>
      <trkpt lat="23.066235" lon="113.268327">
        <time>2026-07-06T23:03:20Z</time>
      </trkpt>
      <trkpt lat="23.066298" lon="113.268248">
        <time>2026-07-06T23:03:25Z</time>
      </trkpt>
      <trkpt lat="23.066369" lon="113.268178">
        <time>2026-07-06T23:03:30Z</time>
      </trkpt>
      <trkpt lat="23.0665" lon="113.268129">
        <time>2026-07-06T23:03:35Z</time>
      </trkpt>
      <trkpt lat="23.066649" lon="113.26815">
        <time>2026-07-06T23:03:40Z</time>
      </trkpt>
      <trkpt lat="23.066681" lon="113.268092">
        <time>2026-07-06T23:03:45Z</time>
      </trkpt>
      <trkpt lat="23.066606" lon="113.268013">
        <time>2026-07-06T23:03:50Z</time>
      </trkpt>
      <trkpt lat="23.066444" lon="113.267966">
        <time>2026-07-06T23:03:55Z</time>
      </trkpt>
      <trkpt lat="23.066294" lon="113.26798">
        <time>2026-07-06T23:04:00Z</time>
      </trkpt>
      <trkpt lat="23.066205" lon="113.268033">
        <time>2026-07-06T23:04:05Z</time>
      </trkpt>
      <trkpt lat="23.066127" lon="113.268107">
        <time>2026-07-06T23:04:10Z</time>
      </trkpt>
      <trkpt lat="23.066025" lon="113.268221">
        <time>2026-07-06T23:04:15Z</time>
      </trkpt>
      <trkpt lat="23.065933" lon="113.268341">
        <time>2026-07-06T23:04:20Z</time>
      </trkpt>
      <trkpt lat="23.065872" lon="113.268419">
        <time>2026-07-06T23:04:25Z</time>
      </trkpt>
      <trkpt lat="23.065819" lon="113.268505">
        <time>2026-07-06T23:04:30Z</time>
      </trkpt>
      <trkpt lat="23.065748" lon="113.268639">
        <time>2026-07-06T23:04:35Z</time>
      </trkpt>
      <trkpt lat="23.065683" lon="113.268786">
        <time>2026-07-06T23:04:40Z</time>
      </trkpt>
      <trkpt lat="23.065646" lon="113.268892">
        <time>2026-07-06T23:04:45Z</time>
      </trkpt>
      <trkpt lat="23.065614" lon="113.268999">
        <time>2026-07-06T23:04:50Z</time>
      </trkpt>
      <trkpt lat="23.065573" lon="113.269158">
        <time>2026-07-06T23:04:55Z</time>
      </trkpt>
      <trkpt lat="23.065521" lon="113.269311">
        <time>2026-07-06T23:05:00Z</time>
      </trkpt>
      <trkpt lat="23.065491" lon="113.269418">
        <time>2026-07-06T23:05:05Z</time>
      </trkpt>
      <trkpt lat="23.06547" lon="113.269529">
        <time>2026-07-06T23:05:10Z</time>
      </trkpt>
      <trkpt lat="23.065433" lon="113.269686">
        <time>2026-07-06T23:05:15Z</time>
      </trkpt>
      <trkpt lat="23.065383" lon="113.269834">
        <time>2026-07-06T23:05:20Z</time>
      </trkpt>
      <trkpt lat="23.065346" lon="113.269939">
        <time>2026-07-06T23:05:25Z</time>
      </trkpt>
      <trkpt lat="23.065307" lon="113.270043">
        <time>2026-07-06T23:05:30Z</time>
      </trkpt>
      <trkpt lat="23.06524" lon="113.270195">
        <time>2026-07-06T23:05:35Z</time>
      </trkpt>
      <trkpt lat="23.065171" lon="113.270343">
        <time>2026-07-06T23:05:40Z</time>
      </trkpt>
      <trkpt lat="23.065128" lon="113.27044">
        <time>2026-07-06T23:05:45Z</time>
      </trkpt>
      <trkpt lat="23.065085" lon="113.270538">
        <time>2026-07-06T23:05:50Z</time>
      </trkpt>
      <trkpt lat="23.065023" lon="113.270681">
        <time>2026-07-06T23:05:55Z</time>
      </trkpt>
      <trkpt lat="23.064958" lon="113.270828">
        <time>2026-07-06T23:06:00Z</time>
      </trkpt>
      <trkpt lat="23.064921" lon="113.27093">
        <time>2026-07-06T23:06:05Z</time>
      </trkpt>
      <trkpt lat="23.064885" lon="113.271028">
        <time>2026-07-06T23:06:10Z</time>
      </trkpt>
      <trkpt lat="23.064822" lon="113.271171">
        <time>2026-07-06T23:06:15Z</time>
      </trkpt>
      <trkpt lat="23.064749" lon="113.271312">
        <time>2026-07-06T23:06:20Z</time>
      </trkpt>
      <trkpt lat="23.064709" lon="113.271412">
        <time>2026-07-06T23:06:25Z</time>
      </trkpt>
      <trkpt lat="23.064668" lon="113.271512">
        <time>2026-07-06T23:06:30Z</time>
      </trkpt>
      <trkpt lat="23.064596" lon="113.271652">
        <time>2026-07-06T23:06:35Z</time>
      </trkpt>
      <trkpt lat="23.064524" lon="113.271793">
        <time>2026-07-06T23:06:40Z</time>
      </trkpt>
      <trkpt lat="23.064477" lon="113.27189">
        <time>2026-07-06T23:06:45Z</time>
      </trkpt>
      <trkpt lat="23.06443" lon="113.271991">
        <time>2026-07-06T23:06:50Z</time>
      </trkpt>
      <trkpt lat="23.06437" lon="113.272128">
        <time>2026-07-06T23:06:55Z</time>
      </trkpt>
      <trkpt lat="23.064342" lon="113.272273">
        <time>2026-07-06T23:07:00Z</time>
      </trkpt>
      <trkpt lat="23.064387" lon="113.272344">
        <time>2026-07-06T23:07:05Z</time>
      </trkpt>
      <trkpt lat="23.064469" lon="113.272393">
        <time>2026-07-06T23:07:10Z</time>
      </trkpt>
      <trkpt lat="23.064566" lon="113.272344">
        <time>2026-07-06T23:07:15Z</time>
      </trkpt>
      <trkpt lat="23.064572" lon="113.272174">
        <time>2026-07-06T23:07:20Z</time>
      </trkpt>
      <trkpt lat="23.064611" lon="113.272077">
        <time>2026-07-06T23:07:25Z</time>
      </trkpt>
      <trkpt lat="23.064652" lon="113.271984">
        <time>2026-07-06T23:07:30Z</time>
      </trkpt>
      <trkpt lat="23.064724" lon="113.271838">
        <time>2026-07-06T23:07:35Z</time>
      </trkpt>
      <trkpt lat="23.064794" lon="113.271695">
        <time>2026-07-06T23:07:40Z</time>
      </trkpt>
      <trkpt lat="23.064833" lon="113.2716">
        <time>2026-07-06T23:07:45Z</time>
      </trkpt>
      <trkpt lat="23.06487" lon="113.271505">
        <time>2026-07-06T23:07:50Z</time>
      </trkpt>
      <trkpt lat="23.064938" lon="113.271371">
        <time>2026-07-06T23:07:55Z</time>
      </trkpt>
      <trkpt lat="23.064999" lon="113.271238">
        <time>2026-07-06T23:08:00Z</time>
      </trkpt>
      <trkpt lat="23.065072" lon="113.271173">
        <time>2026-07-06T23:08:05Z</time>
      </trkpt>
      <trkpt lat="23.06517" lon="113.271159">
        <time>2026-07-06T23:08:10Z</time>
      </trkpt>
      <trkpt lat="23.06532" lon="113.271197">
        <time>2026-07-06T23:08:15Z</time>
      </trkpt>
      <trkpt lat="23.065463" lon="113.271245">
        <time>2026-07-06T23:08:20Z</time>
      </trkpt>
      <trkpt lat="23.065553" lon="113.271284">
        <time>2026-07-06T23:08:25Z</time>
      </trkpt>
      <trkpt lat="23.065642" lon="113.271333">
        <time>2026-07-06T23:08:30Z</time>
      </trkpt>
      <trkpt lat="23.065779" lon="113.271399">
        <time>2026-07-06T23:08:35Z</time>
      </trkpt>
      <trkpt lat="23.065921" lon="113.271465">
        <time>2026-07-06T23:08:40Z</time>
      </trkpt>
      <trkpt lat="23.06601" lon="113.271504">
        <time>2026-07-06T23:08:45Z</time>
      </trkpt>
      <trkpt lat="23.066098" lon="113.271539">
        <time>2026-07-06T23:08:50Z</time>
      </trkpt>
      <trkpt lat="23.066218" lon="113.271585">
        <time>2026-07-06T23:08:55Z</time>
      </trkpt>
      <trkpt lat="23.0663" lon="113.27152">
        <time>2026-07-06T23:09:00Z</time>
      </trkpt>
      <trkpt lat="23.066213" lon="113.271477">
        <time>2026-07-06T23:09:05Z</time>
      </trkpt>
      <trkpt lat="23.066106" lon="113.271441">
        <time>2026-07-06T23:09:10Z</time>
      </trkpt>
      <trkpt lat="23.065964" lon="113.271332">
        <time>2026-07-06T23:09:15Z</time>
      </trkpt>
      <trkpt lat="23.065819" lon="113.271271">
        <time>2026-07-06T23:09:20Z</time>
      </trkpt>
      <trkpt lat="23.065715" lon="113.271239">
        <time>2026-07-06T23:09:25Z</time>
      </trkpt>
      <trkpt lat="23.065617" lon="113.271207">
        <time>2026-07-06T23:09:30Z</time>
      </trkpt>
      <trkpt lat="23.065471" lon="113.271162">
        <time>2026-07-06T23:09:35Z</time>
      </trkpt>
      <trkpt lat="23.065324" lon="113.2711">
        <time>2026-07-06T23:09:40Z</time>
      </trkpt>
      <trkpt lat="23.06524" lon="113.27102">
        <time>2026-07-06T23:09:45Z</time>
      </trkpt>
      <trkpt lat="23.06521" lon="113.270916">
        <time>2026-07-06T23:09:50Z</time>
      </trkpt>
      <trkpt lat="23.06527" lon="113.270765">
        <time>2026-07-06T23:09:55Z</time>
      </trkpt>
      <trkpt lat="23.065332" lon="113.27062">
        <time>2026-07-06T23:10:00Z</time>
      </trkpt>
      <trkpt lat="23.065374" lon="113.270525">
        <time>2026-07-06T23:10:05Z</time>
      </trkpt>
      <trkpt lat="23.06542" lon="113.270432">
        <time>2026-07-06T23:10:10Z</time>
      </trkpt>
      <trkpt lat="23.065487" lon="113.270295">
        <time>2026-07-06T23:10:15Z</time>
      </trkpt>
      <trkpt lat="23.065514" lon="113.270141">
        <time>2026-07-06T23:10:20Z</time>
      </trkpt>
      <trkpt lat="23.065536" lon="113.270039">
        <time>2026-07-06T23:10:25Z</time>
      </trkpt>
      <trkpt lat="23.065569" lon="113.269941">
        <time>2026-07-06T23:10:30Z</time>
      </trkpt>
      <trkpt lat="23.06562" lon="113.269785">
        <time>2026-07-06T23:10:35Z</time>
      </trkpt>
      <trkpt lat="23.06566" lon="113.269625">
        <time>2026-07-06T23:10:40Z</time>
      </trkpt>
      <trkpt lat="23.065699" lon="113.269523">
        <time>2026-07-06T23:10:45Z</time>
      </trkpt>
      <trkpt lat="23.065733" lon="113.269421">
        <time>2026-07-06T23:10:50Z</time>
      </trkpt>
      <trkpt lat="23.065764" lon="113.269249">
        <time>2026-07-06T23:10:55Z</time>
      </trkpt>
      <trkpt lat="23.065801" lon="113.269087">
        <time>2026-07-06T23:11:00Z</time>
      </trkpt>
      <trkpt lat="23.065841" lon="113.268983">
        <time>2026-07-06T23:11:05Z</time>
      </trkpt>
      <trkpt lat="23.065886" lon="113.268882">
        <time>2026-07-06T23:11:10Z</time>
      </trkpt>
      <trkpt lat="23.065953" lon="113.268729">
        <time>2026-07-06T23:11:15Z</time>
      </trkpt>
      <trkpt lat="23.066039" lon="113.268581">
        <time>2026-07-06T23:11:20Z</time>
      </trkpt>
      <trkpt lat="23.066102" lon="113.268489">
        <time>2026-07-06T23:11:25Z</time>
      </trkpt>
      <trkpt lat="23.066163" lon="113.2684">
        <time>2026-07-06T23:11:30Z</time>
      </trkpt>
      <trkpt lat="23.066258" lon="113.268276">
        <time>2026-07-06T23:11:35Z</time>
      </trkpt>
      <trkpt lat="23.066365" lon="113.268167">
        <time>2026-07-06T23:11:40Z</time>
      </trkpt>
      <trkpt lat="23.066461" lon="113.268129">
        <time>2026-07-06T23:11:45Z</time>
      </trkpt>
      <trkpt lat="23.066567" lon="113.268123">
        <time>2026-07-06T23:11:50Z</time>
      </trkpt>
      <trkpt lat="23.066731" lon="113.268143">
        <time>2026-07-06T23:11:55Z</time>
      </trkpt>
      <trkpt lat="23.066891" lon="113.268161">
        <time>2026-07-06T23:12:00Z</time>
      </trkpt>
      <trkpt lat="23.066986" lon="113.268178">
        <time>2026-07-06T23:12:05Z</time>
      </trkpt>
      <trkpt lat="23.06707" lon="113.268215">
        <time>2026-07-06T23:12:10Z</time>
      </trkpt>
      <trkpt lat="23.067196" lon="113.268285">
        <time>2026-07-06T23:12:15Z</time>
      </trkpt>
      <trkpt lat="23.067334" lon="113.268365">
        <time>2026-07-06T23:12:20Z</time>
      </trkpt>
      <trkpt lat="23.067423" lon="113.268414">
        <time>2026-07-06T23:12:25Z</time>
      </trkpt>
      <trkpt lat="23.067519" lon="113.268475">
        <time>2026-07-06T23:12:30Z</time>
      </trkpt>
      <trkpt lat="23.067663" lon="113.268554">
        <time>2026-07-06T23:12:35Z</time>
      </trkpt>
      <trkpt lat="23.067789" lon="113.268635">
        <time>2026-07-06T23:12:40Z</time>
      </trkpt>
      <trkpt lat="23.067886" lon="113.268684">
        <time>2026-07-06T23:12:45Z</time>
      </trkpt>
      <trkpt lat="23.067978" lon="113.268735">
        <time>2026-07-06T23:12:50Z</time>
      </trkpt>
      <trkpt lat="23.06811" lon="113.268787">
        <time>2026-07-06T23:12:55Z</time>
      </trkpt>
      <trkpt lat="23.068241" lon="113.268836">
        <time>2026-07-06T23:13:00Z</time>
      </trkpt>
      <trkpt lat="23.068335" lon="113.268874">
        <time>2026-07-06T23:13:05Z</time>
      </trkpt>
      <trkpt lat="23.068422" lon="113.268915">
        <time>2026-07-06T23:13:10Z</time>
      </trkpt>
      <trkpt lat="23.068568" lon="113.268962">
        <time>2026-07-06T23:13:15Z</time>
      </trkpt>
      <trkpt lat="23.068713" lon="113.269022">
        <time>2026-07-06T23:13:20Z</time>
      </trkpt>
      <trkpt lat="23.068801" lon="113.269069">
        <time>2026-07-06T23:13:25Z</time>
      </trkpt>
      <trkpt lat="23.068896" lon="113.269122">
        <time>2026-07-06T23:13:30Z</time>
      </trkpt>
      <trkpt lat="23.069034" lon="113.26918">
        <time>2026-07-06T23:13:35Z</time>
      </trkpt>
      <trkpt lat="23.069146" lon="113.269254">
        <time>2026-07-06T23:13:40Z</time>
      </trkpt>
      <trkpt lat="23.069213" lon="113.269328">
        <time>2026-07-06T23:13:45Z</time>
      </trkpt>
      <trkpt lat="23.069302" lon="113.269376">
        <time>2026-07-06T23:13:50Z</time>
      </trkpt>
      <trkpt lat="23.069471" lon="113.269432">
        <time>2026-07-06T23:13:55Z</time>
      </trkpt>
      <trkpt lat="23.069616" lon="113.269512">
        <time>2026-07-06T23:14:00Z</time>
      </trkpt>
      <trkpt lat="23.069706" lon="113.269567">
        <time>2026-07-06T23:14:05Z</time>
      </trkpt>
      <trkpt lat="23.0698" lon="113.269625">
        <time>2026-07-06T23:14:10Z</time>
      </trkpt>
      <trkpt lat="23.069938" lon="113.2697">
        <time>2026-07-06T23:14:15Z</time>
      </trkpt>
      <trkpt lat="23.070076" lon="113.269767">
        <time>2026-07-06T23:14:20Z</time>
      </trkpt>
      <trkpt lat="23.070164" lon="113.269819">
        <time>2026-07-06T23:14:25Z</time>
      </trkpt>
      <trkpt lat="23.070252" lon="113.269864">
        <time>2026-07-06T23:14:30Z</time>
      </trkpt>
      <trkpt lat="23.070383" lon="113.269918">
        <time>2026-07-06T23:14:35Z</time>
      </trkpt>
      <trkpt lat="23.070507" lon="113.269973">
        <time>2026-07-06T23:14:40Z</time>
      </trkpt>
      <trkpt lat="23.070606" lon="113.270003">
        <time>2026-07-06T23:14:45Z</time>
      </trkpt>
      <trkpt lat="23.070696" lon="113.270044">
        <time>2026-07-06T23:14:50Z</time>
      </trkpt>
      <trkpt lat="23.07083" lon="113.270092">
        <time>2026-07-06T23:14:55Z</time>
      </trkpt>
      <trkpt lat="23.070947" lon="113.27016">
        <time>2026-07-06T23:15:00Z</time>
      </trkpt>
      <trkpt lat="23.07103" lon="113.270218">
        <time>2026-07-06T23:15:05Z</time>
      </trkpt>
      <trkpt lat="23.071117" lon="113.270267">
        <time>2026-07-06T23:15:10Z</time>
      </trkpt>
      <trkpt lat="23.071249" lon="113.270358">
        <time>2026-07-06T23:15:15Z</time>
      </trkpt>
      <trkpt lat="23.071386" lon="113.270406">
        <time>2026-07-06T23:15:20Z</time>
      </trkpt>
      <trkpt lat="23.071479" lon="113.270444">
        <time>2026-07-06T23:15:25Z</time>
      </trkpt>
      <trkpt lat="23.071566" lon="113.270484">
        <time>2026-07-06T23:15:30Z</time>
      </trkpt>
      <trkpt lat="23.071699" lon="113.270545">
        <time>2026-07-06T23:15:35Z</time>
      </trkpt>
      <trkpt lat="23.071831" lon="113.270614">
        <time>2026-07-06T23:15:40Z</time>
      </trkpt>
      <trkpt lat="23.071909" lon="113.270666">
        <time>2026-07-06T23:15:45Z</time>
      </trkpt>
      <trkpt lat="23.071959" lon="113.270716">
        <time>2026-07-06T23:15:50Z</time>
      </trkpt>
      <trkpt lat="23.072006" lon="113.270728">
        <time>2026-07-06T23:15:55Z</time>
      </trkpt>
      <trkpt lat="23.07213" lon="113.270753">
        <time>2026-07-06T23:16:00Z</time>
      </trkpt>
      <trkpt lat="23.072229" lon="113.270779">
        <time>2026-07-06T23:16:05Z</time>
      </trkpt>
      <trkpt lat="23.072329" lon="113.270819">
        <time>2026-07-06T23:16:10Z</time>
      </trkpt>
      <trkpt lat="23.072461" lon="113.270888">
        <time>2026-07-06T23:16:15Z</time>
      </trkpt>
      <trkpt lat="23.072592" lon="113.270984">
        <time>2026-07-06T23:16:20Z</time>
      </trkpt>
      <trkpt lat="23.072688" lon="113.271042">
        <time>2026-07-06T23:16:25Z</time>
      </trkpt>
      <trkpt lat="23.072776" lon="113.271085">
        <time>2026-07-06T23:16:30Z</time>
      </trkpt>
      <trkpt lat="23.072905" lon="113.271143">
        <time>2026-07-06T23:16:35Z</time>
      </trkpt>
      <trkpt lat="23.073037" lon="113.271184">
        <time>2026-07-06T23:16:40Z</time>
      </trkpt>
      <trkpt lat="23.073116" lon="113.271212">
        <time>2026-07-06T23:16:45Z</time>
      </trkpt>
      <trkpt lat="23.073166" lon="113.27128">
        <time>2026-07-06T23:16:50Z</time>
      </trkpt>
      <trkpt lat="23.073296" lon="113.271354">
        <time>2026-07-06T23:16:55Z</time>
      </trkpt>
      <trkpt lat="23.073437" lon="113.271401">
        <time>2026-07-06T23:17:00Z</time>
      </trkpt>
      <trkpt lat="23.07352" lon="113.271453">
        <time>2026-07-06T23:17:05Z</time>
      </trkpt>
      <trkpt lat="23.073597" lon="113.271539">
        <time>2026-07-06T23:17:10Z</time>
      </trkpt>
      <trkpt lat="23.073709" lon="113.271647">
        <time>2026-07-06T23:17:15Z</time>
      </trkpt>
      <trkpt lat="23.073825" lon="113.271728">
        <time>2026-07-06T23:17:20Z</time>
      </trkpt>
      <trkpt lat="23.0739" lon="113.271788">
        <time>2026-07-06T23:17:25Z</time>
      </trkpt>
      <trkpt lat="23.073975" lon="113.271827">
        <time>2026-07-06T23:17:30Z</time>
      </trkpt>
      <trkpt lat="23.073974" lon="113.271937">
        <time>2026-07-06T23:17:35Z</time>
      </trkpt>
      <trkpt lat="23.073927" lon="113.27208">
        <time>2026-07-06T23:17:40Z</time>
      </trkpt>
      <trkpt lat="23.073895" lon="113.272181">
        <time>2026-07-06T23:17:45Z</time>
      </trkpt>
      <trkpt lat="23.073852" lon="113.272295">
        <time>2026-07-06T23:17:50Z</time>
      </trkpt>
      <trkpt lat="23.073786" lon="113.272485">
        <time>2026-07-06T23:17:55Z</time>
      </trkpt>
      <trkpt lat="23.073731" lon="113.272651">
        <time>2026-07-06T23:18:00Z</time>
      </trkpt>
      <trkpt lat="23.073691" lon="113.272743">
        <time>2026-07-06T23:18:05Z</time>
      </trkpt>
      <trkpt lat="23.073651" lon="113.272834">
        <time>2026-07-06T23:18:10Z</time>
      </trkpt>
      <trkpt lat="23.073585" lon="113.272943">
        <time>2026-07-06T23:18:15Z</time>
      </trkpt>
      <trkpt lat="23.073525" lon="113.273064">
        <time>2026-07-06T23:18:20Z</time>
      </trkpt>
      <trkpt lat="23.073492" lon="113.273156">
        <time>2026-07-06T23:18:25Z</time>
      </trkpt>
      <trkpt lat="23.073491" lon="113.273186">
        <time>2026-07-06T23:18:30Z</time>
      </trkpt>
      <trkpt lat="23.07354" lon="113.273076">
        <time>2026-07-06T23:18:35Z</time>
      </trkpt>
      <trkpt lat="23.073596" lon="113.272941">
        <time>2026-07-06T23:18:40Z</time>
      </trkpt>
      <trkpt lat="23.073635" lon="113.27285">
        <time>2026-07-06T23:18:45Z</time>
      </trkpt>
      <trkpt lat="23.073667" lon="113.272791">
        <time>2026-07-06T23:18:50Z</time>
      </trkpt>
      <trkpt lat="23.073698" lon="113.272879">
        <time>2026-07-06T23:18:55Z</time>
      </trkpt>
      <trkpt lat="23.073837" lon="113.272977">
        <time>2026-07-06T23:19:00Z</time>
      </trkpt>
      <trkpt lat="23.073943" lon="113.27302">
        <time>2026-07-06T23:19:05Z</time>
      </trkpt>
      <trkpt lat="23.074018" lon="113.272987">
        <time>2026-07-06T23:19:10Z</time>
      </trkpt>
      <trkpt lat="23.074089" lon="113.27282">
        <time>2026-07-06T23:19:15Z</time>
      </trkpt>
      <trkpt lat="23.074137" lon="113.272667">
        <time>2026-07-06T23:19:20Z</time>
      </trkpt>
      <trkpt lat="23.074156" lon="113.27259">
        <time>2026-07-06T23:19:25Z</time>
      </trkpt>
      <trkpt lat="23.074181" lon="113.272509">
        <time>2026-07-06T23:19:30Z</time>
      </trkpt>
      <trkpt lat="23.07424" lon="113.272362">
        <time>2026-07-06T23:19:35Z</time>
      </trkpt>
      <trkpt lat="23.074308" lon="113.272219">
        <time>2026-07-06T23:19:40Z</time>
      </trkpt>
      <trkpt lat="23.074333" lon="113.272139">
        <time>2026-07-06T23:19:45Z</time>
      </trkpt>
      <trkpt lat="23.074386" lon="113.272075">
        <time>2026-07-06T23:19:50Z</time>
      </trkpt>
      <trkpt lat="23.074505" lon="113.272038">
        <time>2026-07-06T23:19:55Z</time>
      </trkpt>
      <trkpt lat="23.074661" lon="113.272133">
        <time>2026-07-06T23:20:00Z</time>
      </trkpt>
      <trkpt lat="23.074749" lon="113.272192">
        <time>2026-07-06T23:20:05Z</time>
      </trkpt>
      <trkpt lat="23.074841" lon="113.272237">
        <time>2026-07-06T23:20:10Z</time>
      </trkpt>
      <trkpt lat="23.074973" lon="113.272335">
        <time>2026-07-06T23:20:15Z</time>
      </trkpt>
      <trkpt lat="23.075157" lon="113.272489">
        <time>2026-07-06T23:20:19Z</time>
      </trkpt>
    </trkseg>
  </trk>
</gpx>