<?xml version="1.0" encoding="UTF-8"?>
<gpx xmlns="http://www.topografix.com/GPX/1/1" xmlns:gpxtpx="http://www.garmin.com/xmlschemas/TrackPointExtension/v1" xmlns:xsi="http://www.w3.org/2001/XMLSchema-instance" xsi:schemaLocation="http://www.topografix.com/GPX/1/1 http://www.topografix.com/GPX/1/1/gpx.xsd" version="1.1" creator="gpx.py -- https://github.com/tkrajina/gpxpy">
  <trk>
    <name>gpx from joyrun</name>
    <trkseg>
      <trkpt lat="23.075823" lon="113.272821">
        <time>2026-07-08T22:05:32Z</time>
      </trkpt>
      <trkpt lat="23.075745" lon="113.27273">
        <time>2026-07-08T22:05:37Z</time>
      </trkpt>
      <trkpt lat="23.075643" lon="113.272671">
        <time>2026-07-08T22:05:42Z</time>
      </trkpt>
      <trkpt lat="23.07555" lon="113.272629">
        <time>2026-07-08T22:05:47Z</time>
      </trkpt>
      <trkpt lat="23.07545" lon="113.272509">
        <time>2026-07-08T22:05:52Z</time>
      </trkpt>
      <trkpt lat="23.075338" lon="113.272427">
        <time>2026-07-08T22:05:57Z</time>
      </trkpt>
      <trkpt lat="23.075249" lon="113.272385">
        <time>2026-07-08T22:06:02Z</time>
      </trkpt>
      <trkpt lat="23.075165" lon="113.272352">
        <time>2026-07-08T22:06:07Z</time>
      </trkpt>
      <trkpt lat="23.075042" lon="113.272296">
        <time>2026-07-08T22:06:12Z</time>
      </trkpt>
      <trkpt lat="23.074905" lon="113.272212">
        <time>2026-07-08T22:06:17Z</time>
      </trkpt>
      <trkpt lat="23.074823" lon="113.272153">
        <time>2026-07-08T22:06:22Z</time>
      </trkpt>
      <trkpt lat="23.074738" lon="113.272094">
        <time>2026-07-08T22:06:27Z</time>
      </trkpt>
      <trkpt lat="23.074604" lon="113.272014">
        <time>2026-07-08T22:06:32Z</time>
      </trkpt>
      <trkpt lat="23.07446" lon="113.271969">
        <time>2026-07-08T22:06:37Z</time>
      </trkpt>
      <trkpt lat="23.074386" lon="113.272006">
        <time>2026-07-08T22:06:42Z</time>
      </trkpt>
      <trkpt lat="23.074341" lon="113.272113">
        <time>2026-07-08T22:06:47Z</time>
      </trkpt>
      <trkpt lat="23.074286" lon="113.272293">
        <time>2026-07-08T22:06:52Z</time>
      </trkpt>
      <trkpt lat="23.074227" lon="113.272464">
        <time>2026-07-08T22:06:57Z</time>
      </trkpt>
      <trkpt lat="23.074189" lon="113.272581">
        <time>2026-07-08T22:07:02Z</time>
      </trkpt>
      <trkpt lat="23.074157" lon="113.272691">
        <time>2026-07-08T22:07:07Z</time>
      </trkpt>
      <trkpt lat="23.0741" lon="113.272848">
        <time>2026-07-08T22:07:12Z</time>
      </trkpt>
      <trkpt lat="23.074011" lon="113.272979">
        <time>2026-07-08T22:07:17Z</time>
      </trkpt>
      <trkpt lat="23.073918" lon="113.272988">
        <time>2026-07-08T22:07:22Z</time>
      </trkpt>
      <trkpt lat="23.073818" lon="113.272948">
        <time>2026-07-08T22:07:27Z</time>
      </trkpt>
      <trkpt lat="23.073702" lon="113.272865">
        <time>2026-07-08T22:07:32Z</time>
      </trkpt>
      <trkpt lat="23.073713" lon="113.272749">
        <time>2026-07-08T22:07:37Z</time>
      </trkpt>
      <trkpt lat="23.073744" lon="113.272647">
        <time>2026-07-08T22:07:42Z</time>
      </trkpt>
      <trkpt lat="23.073779" lon="113.272563">
        <time>2026-07-08T22:07:47Z</time>
      </trkpt>
      <trkpt lat="23.07383" lon="113.27246">
        <time>2026-07-08T22:07:52Z</time>
      </trkpt>
      <trkpt lat="23.073889" lon="113.272348">
        <time>2026-07-08T22:07:57Z</time>
      </trkpt>
      <trkpt lat="23.073931" lon="113.272267">
        <time>2026-07-08T22:08:02Z</time>
      </trkpt>
      <trkpt lat="23.073968" lon="113.272185">
        <time>2026-07-08T22:08:07Z</time>
      </trkpt>
      <trkpt lat="23.07401" lon="113.272065">
        <time>2026-07-08T22:08:12Z</time>
      </trkpt>
      <trkpt lat="23.074047" lon="113.271942">
        <time>2026-07-08T22:08:17Z</time>
      </trkpt>
      <trkpt lat="23.074083" lon="113.27185">
        <time>2026-07-08T22:08:22Z</time>
      </trkpt>
      <trkpt lat="23.074058" lon="113.271769">
        <time>2026-07-08T22:08:27Z</time>
      </trkpt>
      <trkpt lat="23.07396" lon="113.271698">
        <time>2026-07-08T22:08:32Z</time>
      </trkpt>
      <trkpt lat="23.073871" lon="113.271643">
        <time>2026-07-08T22:08:37Z</time>
      </trkpt>
      <trkpt lat="23.073799" lon="113.271609">
        <time>2026-07-08T22:08:42Z</time>
      </trkpt>
      <trkpt lat="23.073719" lon="113.271562">
        <time>2026-07-08T22:08:47Z</time>
      </trkpt>
      <trkpt lat="23.073592" lon="113.271473">
        <time>2026-07-08T22:08:52Z</time>
      </trkpt>
      <trkpt lat="23.073464" lon="113.271399">
        <time>2026-07-08T22:08:57Z</time>
      </trkpt>
      <trkpt lat="23.07338" lon="113.27136">
        <time>2026-07-08T22:09:02Z</time>
      </trkpt>
      <trkpt lat="23.0733" lon="113.271309">
        <time>2026-07-08T22:09:07Z</time>
      </trkpt>
      <trkpt lat="23.073199" lon="113.271239">
        <time>2026-07-08T22:09:12Z</time>
      </trkpt>
      <trkpt lat="23.073069" lon="113.271185">
        <time>2026-07-08T22:09:17Z</time>
      </trkpt>
      <trkpt lat="23.072978" lon="113.27114">
        <time>2026-07-08T22:09:22Z</time>
      </trkpt>
      <trkpt lat="23.072894" lon="113.271089">
        <time>2026-07-08T22:09:27Z</time>
      </trkpt>
      <trkpt lat="23.07276" lon="113.271018">
        <time>2026-07-08T22:09:32Z</time>
      </trkpt>
      <trkpt lat="23.072622" lon="113.270953">
        <time>2026-07-08T22:09:37Z</time>
      </trkpt>
      <trkpt lat="23.072537" lon="113.270909">
        <time>2026-07-08T22:09:42Z</time>
      </trkpt>
      <trkpt lat="23.072445" lon="113.270877">
        <time>2026-07-08T22:09:47Z</time>
      </trkpt>
      <trkpt lat="23.072306" lon="113.270822">
        <time>2026-07-08T22:09:52Z</time>
      </trkpt>
      <trkpt lat="23.072176" lon="113.270748">
        <time>2026-07-08T22:09:57Z</time>
      </trkpt>
      <trkpt lat="23.072095" lon="113.270684">
        <time>2026-07-08T22:10:02Z</time>
      </trkpt>
      <trkpt lat="23.072005" lon="113.270632">
        <time>2026-07-08T22:10:07Z</time>
      </trkpt>
      <trkpt lat="23.071858" lon="113.270569">
        <time>2026-07-08T22:10:12Z</time>
      </trkpt>
      <trkpt lat="23.071712" lon="113.270498">
        <time>2026-07-08T22:10:17Z</time>
      </trkpt>
      <trkpt lat="23.071617" lon="113.270457">
        <time>2026-07-08T22:10:22Z</time>
      </trkpt>
      <trkpt lat="23.071529" lon="113.27041">
        <time>2026-07-08T22:10:27Z</time>
      </trkpt>
      <trkpt lat="23.071396" lon="113.270353">
        <time>2026-07-08T22:10:32Z</time>
      </trkpt>
      <trkpt lat="23.071262" lon="113.270292">
        <time>2026-07-08T22:10:37Z</time>
      </trkpt>
      <trkpt lat="23.071177" lon="113.270242">
        <time>2026-07-08T22:10:42Z</time>
      </trkpt>
      <trkpt lat="23.071097" lon="113.270194">
        <time>2026-07-08T22:10:47Z</time>
      </trkpt>
      <trkpt lat="23.070956" lon="113.270164">
        <time>2026-07-08T22:10:52Z</time>
      </trkpt>
      <trkpt lat="23.07082" lon="113.270114">
        <time>2026-07-08T22:10:57Z</time>
      </trkpt>
      <trkpt lat="23.070726" lon="113.270053">
        <time>2026-07-08T22:11:02Z</time>
      </trkpt>
      <trkpt lat="23.070638" lon="113.269981">
        <time>2026-07-08T22:11:07Z</time>
      </trkpt>
      <trkpt lat="23.070488" lon="113.269923">
        <time>2026-07-08T22:11:12Z</time>
      </trkpt>
      <trkpt lat="23.070337" lon="113.269871">
        <time>2026-07-08T22:11:17Z</time>
      </trkpt>
      <trkpt lat="23.070245" lon="113.269827">
        <time>2026-07-08T22:11:22Z</time>
      </trkpt>
      <trkpt lat="23.070157" lon="113.269783">
        <time>2026-07-08T22:11:27Z</time>
      </trkpt>
      <trkpt lat="23.070026" lon="113.269706">
        <time>2026-07-08T22:11:32Z</time>
      </trkpt>
      <trkpt lat="23.069902" lon="113.269637">
        <time>2026-07-08T22:11:37Z</time>
      </trkpt>
      <trkpt lat="23.069823" lon="113.26959">
        <time>2026-07-08T22:11:42Z</time>
      </trkpt>
      <trkpt lat="23.069737" lon="113.269541">
        <time>2026-07-08T22:11:47Z</time>
      </trkpt>
      <trkpt lat="23.069604" lon="113.269459">
        <time>2026-07-08T22:11:52Z</time>
      </trkpt>
      <trkpt lat="23.06948" lon="113.2694">
        <time>2026-07-08T22:11:57Z</time>
      </trkpt>
      <trkpt lat="23.069394" lon="113.269363">
        <time>2026-07-08T22:12:02Z</time>
      </trkpt>
      <trkpt lat="23.069307" lon="113.26931">
        <time>2026-07-08T22:12:07Z</time>
      </trkpt>
      <trkpt lat="23.069184" lon="113.269229">
        <time>2026-07-08T22:12:12Z</time>
      </trkpt>
      <trkpt lat="23.069044" lon="113.269185">
        <time>2026-07-08T22:12:17Z</time>
      </trkpt>
      <trkpt lat="23.068952" lon="113.269162">
        <time>2026-07-08T22:12:22Z</time>
      </trkpt>
      <trkpt lat="23.068855" lon="113.269126">
        <time>2026-07-08T22:12:27Z</time>
      </trkpt>
      <trkpt lat="23.068718" lon="113.269066">
        <time>2026-07-08T22:12:32Z</time>
      </trkpt>
      <trkpt lat="23.068574" lon="113.269021">
        <time>2026-07-08T22:12:37Z</time>
      </trkpt>
      <trkpt lat="23.068477" lon="113.268989">
        <time>2026-07-08T22:12:42Z</time>
      </trkpt>
      <trkpt lat="23.068392" lon="113.268947">
        <time>2026-07-08T22:12:47Z</time>
      </trkpt>
      <trkpt lat="23.06827" lon="113.268882">
        <time>2026-07-08T22:12:52Z</time>
      </trkpt>
      <trkpt lat="23.06814" lon="113.26882">
        <time>2026-07-08T22:12:57Z</time>
      </trkpt>
      <trkpt lat="23.068048" lon="113.268789">
        <time>2026-07-08T22:13:02Z</time>
      </trkpt>
      <trkpt lat="23.067954" lon="113.268712">
        <time>2026-07-08T22:13:07Z</time>
      </trkpt>
      <trkpt lat="23.067819" lon="113.268577">
        <time>2026-07-08T22:13:12Z</time>
      </trkpt>
      <trkpt lat="23.067683" lon="113.268501">
        <time>2026-07-08T22:13:17Z</time>
      </trkpt>
      <trkpt lat="23.06759" lon="113.268464">
        <time>2026-07-08T22:13:22Z</time>
      </trkpt>
      <trkpt lat="23.067499" lon="113.268422">
        <time>2026-07-08T22:13:27Z</time>
      </trkpt>
      <trkpt lat="23.067366" lon="113.268357">
        <time>2026-07-08T22:13:32Z</time>
      </trkpt>
      <trkpt lat="23.067249" lon="113.268266">
        <time>2026-07-08T22:13:37Z</time>
      </trkpt>
      <trkpt lat="23.067174" lon="113.268205">
        <time>2026-07-08T22:13:42Z</time>
      </trkpt>
      <trkpt lat="23.06709" lon="113.268162">
        <time>2026-07-08T22:13:47Z</time>
      </trkpt>
      <trkpt lat="23.066953" lon="113.268109">
        <time>2026-07-08T22:13:52Z</time>
      </trkpt>
      <trkpt lat="23.0668" lon="113.268078">
        <time>2026-07-08T22:13:57Z</time>
      </trkpt>
      <trkpt lat="23.066699" lon="113.268062">
        <time>2026-07-08T22:14:02Z</time>
      </trkpt>
      <trkpt lat="23.066601" lon="113.268041">
        <time>2026-07-08T22:14:07Z</time>
      </trkpt>
      <trkpt lat="23.066454" lon="113.267989">
        <time>2026-07-08T22:14:12Z</time>
      </trkpt>
      <trkpt lat="23.066309" lon="113.267991">
        <time>2026-07-08T22:14:17Z</time>
      </trkpt>
      <trkpt lat="23.066216" lon="113.268037">
        <time>2026-07-08T22:14:22Z</time>
      </trkpt>
      <trkpt lat="23.066141" lon="113.268113">
        <time>2026-07-08T22:14:27Z</time>
      </trkpt>
      <trkpt lat="23.066043" lon="113.268242">
        <time>2026-07-08T22:14:32Z</time>
      </trkpt>
      <trkpt lat="23.065954" lon="113.268367">
        <time>2026-07-08T22:14:37Z</time>
      </trkpt>
      <trkpt lat="23.065891" lon="113.268457">
        <time>2026-07-08T22:14:42Z</time>
      </trkpt>
      <trkpt lat="23.065829" lon="113.26855">
        <time>2026-07-08T22:14:47Z</time>
      </trkpt>
      <trkpt lat="23.065749" lon="113.268691">
        <time>2026-07-08T22:14:52Z</time>
      </trkpt>
      <trkpt lat="23.065681" lon="113.268837">
        <time>2026-07-08T22:14:57Z</time>
      </trkpt>
      <trkpt lat="23.065642" lon="113.268935">
        <time>2026-07-08T22:15:02Z</time>
      </trkpt>
      <trkpt lat="23.065609" lon="113.269034">
        <time>2026-07-08T22:15:07Z</time>
      </trkpt>
      <trkpt lat="23.065563" lon="113.269193">
        <time>2026-07-08T22:15:12Z</time>
      </trkpt>
      <trkpt lat="23.065523" lon="113.269347">
        <time>2026-07-08T22:15:17Z</time>
      </trkpt>
      <trkpt lat="23.065488" lon="113.269446">
        <time>2026-07-08T22:15:22Z</time>
      </trkpt>
      <trkpt lat="23.065461" lon="113.269548">
        <time>2026-07-08T22:15:27Z</time>
      </trkpt>
      <trkpt lat="23.065425" lon="113.269705">
        <time>2026-07-08T22:15:32Z</time>
      </trkpt>
      <trkpt lat="23.065379" lon="113.269858">
        <time>2026-07-08T22:15:37Z</time>
      </trkpt>
      <trkpt lat="23.065342" lon="113.26996">
        <time>2026-07-08T22:15:42Z</time>
      </trkpt>
      <trkpt lat="23.065307" lon="113.270065">
        <time>2026-07-08T22:15:47Z</time>
      </trkpt>
      <trkpt lat="23.065256" lon="113.270214">
        <time>2026-07-08T22:15:52Z</time>
      </trkpt>
      <trkpt lat="23.065194" lon="113.270357">
        <time>2026-07-08T22:15:57Z</time>
      </trkpt>
      <trkpt lat="23.065152" lon="113.270451">
        <time>2026-07-08T22:16:02Z</time>
      </trkpt>
      <trkpt lat="23.065109" lon="113.270547">
        <time>2026-07-08T22:16:07Z</time>
      </trkpt>
      <trkpt lat="23.065047" lon="113.270693">
        <time>2026-07-08T22:16:12Z</time>
      </trkpt>
      <trkpt lat="23.064987" lon="113.270839">
        <time>2026-07-08T22:16:17Z</time>
      </trkpt>
      <trkpt lat="23.064948" lon="113.270943">
        <time>2026-07-08T22:16:22Z</time>
      </trkpt>
      <trkpt lat="23.06491" lon="113.27105">
        <time>2026-07-08T22:16:27Z</time>
      </trkpt>
      <trkpt lat="23.064845" lon="113.271195">
        <time>2026-07-08T22:16:32Z</time>
      </trkpt>
      <trkpt lat="23.064769" lon="113.271335">
        <time>2026-07-08T22:16:37Z</time>
      </trkpt>
      <trkpt lat="23.064726" lon="113.271426">
        <time>2026-07-08T22:16:42Z</time>
      </trkpt>
      <trkpt lat="23.064679" lon="113.271516">
        <time>2026-07-08T22:16:47Z</time>
      </trkpt>
      <trkpt lat="23.064607" lon="113.271655">
        <time>2026-07-08T22:16:52Z</time>
      </trkpt>
      <trkpt lat="23.064535" lon="113.271798">
        <time>2026-07-08T22:16:57Z</time>
      </trkpt>
      <trkpt lat="23.06449" lon="113.271894">
        <time>2026-07-08T22:17:02Z</time>
      </trkpt>
      <trkpt lat="23.064444" lon="113.271993">
        <time>2026-07-08T22:17:07Z</time>
      </trkpt>
      <trkpt lat="23.064379" lon="113.272139">
        <time>2026-07-08T22:17:12Z</time>
      </trkpt>
      <trkpt lat="23.064317" lon="113.272293">
        <time>2026-07-08T22:17:17Z</time>
      </trkpt>
      <trkpt lat="23.064299" lon="113.2724">
        <time>2026-07-08T22:17:22Z</time>
      </trkpt>
      <trkpt lat="23.06429" lon="113.272509">
        <time>2026-07-08T22:17:27Z</time>
      </trkpt>
      <trkpt lat="23.064285" lon="113.272682">
        <time>2026-07-08T22:17:32Z</time>
      </trkpt>
      <trkpt lat="23.064324" lon="113.27285">
        <time>2026-07-08T22:17:37Z</time>
      </trkpt>
      <trkpt lat="23.064363" lon="113.272964">
        <time>2026-07-08T22:17:42Z</time>
      </trkpt>
      <trkpt lat="23.0644" lon="113.273085">
        <time>2026-07-08T22:17:47Z</time>
      </trkpt>
      <trkpt lat="23.064422" lon="113.273264">
        <time>2026-07-08T22:17:52Z</time>
      </trkpt>
      <trkpt lat="23.064336" lon="113.273425">
        <time>2026-07-08T22:17:57Z</time>
      </trkpt>
      <trkpt lat="23.064233" lon="113.27351">
        <time>2026-07-08T22:18:02Z</time>
      </trkpt>
      <trkpt lat="23.064131" lon="113.273587">
        <time>2026-07-08T22:18:07Z</time>
      </trkpt>
      <trkpt lat="23.063989" lon="113.273711">
        <time>2026-07-08T22:18:12Z</time>
      </trkpt>
      <trkpt lat="23.063872" lon="113.273864">
        <time>2026-07-08T22:18:17Z</time>
      </trkpt>
      <trkpt lat="23.063799" lon="113.273969">
        <time>2026-07-08T22:18:22Z</time>
      </trkpt>
      <trkpt lat="23.063735" lon="113.274082">
        <time>2026-07-08T22:18:27Z</time>
      </trkpt>
      <trkpt lat="23.063609" lon="113.274218">
        <time>2026-07-08T22:18:32Z</time>
      </trkpt>
      <trkpt lat="23.063494" lon="113.274366">
        <time>2026-07-08T22:18:37Z</time>
      </trkpt>
      <trkpt lat="23.063445" lon="113.274495">
        <time>2026-07-08T22:18:42Z</time>
      </trkpt>
      <trkpt lat="23.063398" lon="113.274628">
        <time>2026-07-08T22:18:47Z</time>
      </trkpt>
      <trkpt lat="23.063326" lon="113.274831">
        <time>2026-07-08T22:18:52Z</time>
      </trkpt>
      <trkpt lat="23.063264" lon="113.275033">
        <time>2026-07-08T22:18:57Z</time>
      </trkpt>
      <trkpt lat="23.063206" lon="113.275165">
        <time>2026-07-08T22:19:02Z</time>
      </trkpt>
      <trkpt lat="23.063135" lon="113.275291">
        <time>2026-07-08T22:19:07Z</time>
      </trkpt>
      <trkpt lat="23.063031" lon="113.275476">
        <time>2026-07-08T22:19:12Z</time>
      </trkpt>
      <trkpt lat="23.062915" lon="113.275649">
        <time>2026-07-08T22:19:17Z</time>
      </trkpt>
      <trkpt lat="23.062819" lon="113.275753">
        <time>2026-07-08T22:19:22Z</time>
      </trkpt>
      <trkpt lat="23.06272" lon="113.275851">
        <time>2026-07-08T22:19:27Z</time>
      </trkpt>
      <trkpt lat="23.06258" lon="113.276009">
        <time>2026-07-08T22:19:32Z</time>
      </trkpt>
      <trkpt lat="23.062467" lon="113.276197">
        <time>2026-07-08T22:19:37Z</time>
      </trkpt>
      <trkpt lat="23.062409" lon="113.276322">
        <time>2026-07-08T22:19:42Z</time>
      </trkpt>
      <trkpt lat="23.062361" lon="113.276447">
        <time>2026-07-08T22:19:47Z</time>
      </trkpt>
      <trkpt lat="23.06229" lon="113.276641">
        <time>2026-07-08T22:19:52Z</time>
      </trkpt>
      <trkpt lat="23.06222" lon="113.276833">
        <time>2026-07-08T22:19:57Z</time>
      </trkpt>
      <trkpt lat="23.062176" lon="113.276964">
        <time>2026-07-08T22:20:02Z</time>
      </trkpt>
      <trkpt lat="23.062134" lon="113.277095">
        <time>2026-07-08T22:20:07Z</time>
      </trkpt>
      <trkpt lat="23.062051" lon="113.277313">
        <time>2026-07-08T22:20:12Z</time>
      </trkpt>
      <trkpt lat="23.061968" lon="113.277528">
        <time>2026-07-08T22:20:17Z</time>
      </trkpt>
      <trkpt lat="23.061916" lon="113.277664">
        <time>2026-07-08T22:20:22Z</time>
      </trkpt>
      <trkpt lat="23.061872" lon="113.277803">
        <time>2026-07-08T22:20:27Z</time>
      </trkpt>
      <trkpt lat="23.061851" lon="113.278008">
        <time>2026-07-08T22:20:32Z</time>
      </trkpt>
      <trkpt lat="23.061861" lon="113.278202">
        <time>2026-07-08T22:20:37Z</time>
      </trkpt>
      <trkpt lat="23.061865" lon="113.278332">
        <time>2026-07-08T22:20:42Z</time>
      </trkpt>
      <trkpt lat="23.061867" lon="113.278464">
        <time>2026-07-08T22:20:47Z</time>
      </trkpt>
      <trkpt lat="23.061872" lon="113.278664">
        <time>2026-07-08T22:20:52Z</time>
      </trkpt>
      <trkpt lat="23.061829" lon="113.278861">
        <time>2026-07-08T22:20:57Z</time>
      </trkpt>
      <trkpt lat="23.061765" lon="113.278983">
        <time>2026-07-08T22:21:02Z</time>
      </trkpt>
      <trkpt lat="23.061686" lon="113.279097">
        <time>2026-07-08T22:21:07Z</time>
      </trkpt>
      <trkpt lat="23.061596" lon="113.279284">
        <time>2026-07-08T22:21:12Z</time>
      </trkpt>
      <trkpt lat="23.061517" lon="113.279477">
        <time>2026-07-08T22:21:17Z</time>
      </trkpt>
      <trkpt lat="23.061461" lon="113.279605">
        <time>2026-07-08T22:21:22Z</time>
      </trkpt>
      <trkpt lat="23.061409" lon="113.279733">
        <time>2026-07-08T22:21:27Z</time>
      </trkpt>
      <trkpt lat="23.061334" lon="113.279924">
        <time>2026-07-08T22:21:32Z</time>
      </trkpt>
      <trkpt lat="23.061261" lon="113.280128">
        <time>2026-07-08T22:21:37Z</time>
      </trkpt>
      <trkpt lat="23.061211" lon="113.28026">
        <time>2026-07-08T22:21:42Z</time>
      </trkpt>
      <trkpt lat="23.061151" lon="113.280395">
        <time>2026-07-08T22:21:47Z</time>
      </trkpt>
      <trkpt lat="23.061057" lon="113.280603">
        <time>2026-07-08T22:21:52Z</time>
      </trkpt>
      <trkpt lat="23.060964" lon="113.2808">
        <time>2026-07-08T22:21:57Z</time>
      </trkpt>
      <trkpt lat="23.060908" lon="113.280926">
        <time>2026-07-08T22:22:02Z</time>
      </trkpt>
      <trkpt lat="23.060852" lon="113.281055">
        <time>2026-07-08T22:22:07Z</time>
      </trkpt>
      <trkpt lat="23.060761" lon="113.281256">
        <time>2026-07-08T22:22:12Z</time>
      </trkpt>
      <trkpt lat="23.060675" lon="113.281447">
        <time>2026-07-08T22:22:17Z</time>
      </trkpt>
      <trkpt lat="23.06062" lon="113.281579">
        <time>2026-07-08T22:22:22Z</time>
      </trkpt>
      <trkpt lat="23.060565" lon="113.281713">
        <time>2026-07-08T22:22:27Z</time>
      </trkpt>
      <trkpt lat="23.060484" lon="113.281918">
        <time>2026-07-08T22:22:32Z</time>
      </trkpt>
      <trkpt lat="23.060399" lon="113.282121">
        <time>2026-07-08T22:22:37Z</time>
      </trkpt>
      <trkpt lat="23.060344" lon="113.282254">
        <time>2026-07-08T22:22:42Z</time>
      </trkpt>
      <trkpt lat="23.060287" lon="113.282394">
        <time>2026-07-08T22:22:47Z</time>
      </trkpt>
      <trkpt lat="23.060194" lon="113.282594">
        <time>2026-07-08T22:22:52Z</time>
      </trkpt>
      <trkpt lat="23.060111" lon="113.2828">
        <time>2026-07-08T22:22:57Z</time>
      </trkpt>
      <trkpt lat="23.060063" lon="113.282931">
        <time>2026-07-08T22:23:02Z</time>
      </trkpt>
      <trkpt lat="23.060006" lon="113.283064">
        <time>2026-07-08T22:23:07Z</time>
      </trkpt>
      <trkpt lat="23.059915" lon="113.283261">
        <time>2026-07-08T22:23:12Z</time>
      </trkpt>
      <trkpt lat="23.059874" lon="113.283443">
        <time>2026-07-08T22:23:17Z</time>
      </trkpt>
      <trkpt lat="23.059939" lon="113.283397">
        <time>2026-07-08T22:23:22Z</time>
      </trkpt>
      <trkpt lat="23.060006" lon="113.28326">
        <time>2026-07-08T22:23:27Z</time>
      </trkpt>
      <trkpt lat="23.060096" lon="113.283054">
        <time>2026-07-08T22:23:32Z</time>
      </trkpt>
      <trkpt lat="23.060189" lon="113.282839">
        <time>2026-07-08T22:23:37Z</time>
      </trkpt>
      <trkpt lat="23.060257" lon="113.282688">
        <time>2026-07-08T22:23:42Z</time>
      </trkpt>
      <trkpt lat="23.060316" lon="113.282544">
        <time>2026-07-08T22:23:47Z</time>
      </trkpt>
      <trkpt lat="23.060391" lon="113.282333">
        <time>2026-07-08T22:23:52Z</time>
      </trkpt>
      <trkpt lat="23.060459" lon="113.282131">
        <time>2026-07-08T22:23:57Z</time>
      </trkpt>
      <trkpt lat="23.060512" lon="113.282005">
        <time>2026-07-08T22:24:02Z</time>
      </trkpt>
      <trkpt lat="23.060572" lon="113.281882">
        <time>2026-07-08T22:24:07Z</time>
      </trkpt>
      <trkpt lat="23.060648" lon="113.281689">
        <time>2026-07-08T22:24:12Z</time>
      </trkpt>
      <trkpt lat="23.060728" lon="113.281497">
        <time>2026-07-08T22:24:17Z</time>
      </trkpt>
      <trkpt lat="23.06079" lon="113.281373">
        <time>2026-07-08T22:24:22Z</time>
      </trkpt>
      <trkpt lat="23.060853" lon="113.281247">
        <time>2026-07-08T22:24:27Z</time>
      </trkpt>
      <trkpt lat="23.060935" lon="113.281054">
        <time>2026-07-08T22:24:32Z</time>
      </trkpt>
      <trkpt lat="23.061012" lon="113.280859">
        <time>2026-07-08T22:24:37Z</time>
      </trkpt>
      <trkpt lat="23.061076" lon="113.28072">
        <time>2026-07-08T22:24:42Z</time>
      </trkpt>
      <trkpt lat="23.061147" lon="113.280579">
        <time>2026-07-08T22:24:47Z</time>
      </trkpt>
      <trkpt lat="23.061251" lon="113.280371">
        <time>2026-07-08T22:24:52Z</time>
      </trkpt>
      <trkpt lat="23.06134" lon="113.28018">
        <time>2026-07-08T22:24:57Z</time>
      </trkpt>
      <trkpt lat="23.061397" lon="113.280059">
        <time>2026-07-08T22:25:02Z</time>
      </trkpt>
      <trkpt lat="23.06145" lon="113.279935">
        <time>2026-07-08T22:25:07Z</time>
      </trkpt>
      <trkpt lat="23.061519" lon="113.279742">
        <time>2026-07-08T22:25:12Z</time>
      </trkpt>
      <trkpt lat="23.061594" lon="113.279547">
        <time>2026-07-08T22:25:17Z</time>
      </trkpt>
      <trkpt lat="23.061644" lon="113.279415">
        <time>2026-07-08T22:25:22Z</time>
      </trkpt>
      <trkpt lat="23.061706" lon="113.279287">
        <time>2026-07-08T22:25:27Z</time>
      </trkpt>
      <trkpt lat="23.061813" lon="113.279101">
        <time>2026-07-08T22:25:32Z</time>
      </trkpt>
      <trkpt lat="23.061934" lon="113.27891">
        <time>2026-07-08T22:25:37Z</time>
      </trkpt>
      <trkpt lat="23.061978" lon="113.278765">
        <time>2026-07-08T22:25:42Z</time>
      </trkpt>
      <trkpt lat="23.061987" lon="113.278612">
        <time>2026-07-08T22:25:47Z</time>
      </trkpt>
      <trkpt lat="23.061973" lon="113.278385">
        <time>2026-07-08T22:25:52Z</time>
      </trkpt>
      <trkpt lat="23.061956" lon="113.278157">
        <time>2026-07-08T22:25:57Z</time>
      </trkpt>
      <trkpt lat="23.061946" lon="113.278004">
        <time>2026-07-08T22:26:02Z</time>
      </trkpt>
      <trkpt lat="23.061946" lon="113.277856">
        <time>2026-07-08T22:26:07Z</time>
      </trkpt>
      <trkpt lat="23.061987" lon="113.27764">
        <time>2026-07-08T22:26:12Z</time>
      </trkpt>
      <trkpt lat="23.06207" lon="113.277428">
        <time>2026-07-08T22:26:17Z</time>
      </trkpt>
      <trkpt lat="23.062123" lon="113.277288">
        <time>2026-07-08T22:26:22Z</time>
      </trkpt>
      <trkpt lat="23.062165" lon="113.277152">
        <time>2026-07-08T22:26:27Z</time>
      </trkpt>
      <trkpt lat="23.062243" lon="113.276952">
        <time>2026-07-08T22:26:32Z</time>
      </trkpt>
      <trkpt lat="23.062318" lon="113.276754">
        <time>2026-07-08T22:26:37Z</time>
      </trkpt>
      <trkpt lat="23.062365" lon="113.27662">
        <time>2026-07-08T22:26:42Z</time>
      </trkpt>
      <trkpt lat="23.062415" lon="113.276486">
        <time>2026-07-08T22:26:47Z</time>
      </trkpt>
      <trkpt lat="23.062501" lon="113.276279">
        <time>2026-07-08T22:26:52Z</time>
      </trkpt>
      <trkpt lat="23.062605" lon="113.276086">
        <time>2026-07-08T22:26:57Z</time>
      </trkpt>
      <trkpt lat="23.062688" lon="113.275971">
        <time>2026-07-08T22:27:02Z</time>
      </trkpt>
      <trkpt lat="23.062776" lon="113.275865">
        <time>2026-07-08T22:27:07Z</time>
      </trkpt>
      <trkpt lat="23.062925" lon="113.275726">
        <time>2026-07-08T22:27:12Z</time>
      </trkpt>
      <trkpt lat="23.063062" lon="113.275571">
        <time>2026-07-08T22:27:17Z</time>
      </trkpt>
      <trkpt lat="23.063136" lon="113.275454">
        <time>2026-07-08T22:27:22Z</time>
      </trkpt>
      <trkpt lat="23.063205" lon="113.275333">
        <time>2026-07-08T22:27:27Z</time>
      </trkpt>
      <trkpt lat="23.063303" lon="113.275145">
        <time>2026-07-08T22:27:32Z</time>
      </trkpt>
      <trkpt lat="23.063373" lon="113.274947">
        <time>2026-07-08T22:27:37Z</time>
      </trkpt>
      <trkpt lat="23.06341" lon="113.274824">
        <time>2026-07-08T22:27:42Z</time>
      </trkpt>
      <trkpt lat="23.063449" lon="113.274696">
        <time>2026-07-08T22:27:47Z</time>
      </trkpt>
      <trkpt lat="23.063514" lon="113.274494">
        <time>2026-07-08T22:27:52Z</time>
      </trkpt>
      <trkpt lat="23.063602" lon="113.274319">
        <time>2026-07-08T22:27:57Z</time>
      </trkpt>
      <trkpt lat="23.063698" lon="113.274225">
        <time>2026-07-08T22:28:02Z</time>
      </trkpt>
      <trkpt lat="23.0638" lon="113.27413">
        <time>2026-07-08T22:28:07Z</time>
      </trkpt>
      <trkpt lat="23.063922" lon="113.273946">
        <time>2026-07-08T22:28:12Z</time>
      </trkpt>
      <trkpt lat="23.064043" lon="113.273762">
        <time>2026-07-08T22:28:17Z</time>
      </trkpt>
      <trkpt lat="23.064156" lon="113.273668">
        <time>2026-07-08T22:28:22Z</time>
      </trkpt>
      <trkpt lat="23.064271" lon="113.273584">
        <time>2026-07-08T22:28:27Z</time>
      </trkpt>
      <trkpt lat="23.064436" lon="113.273459">
        <time>2026-07-08T22:28:32Z</time>
      </trkpt>
      <trkpt lat="23.064567" lon="113.273288">
        <time>2026-07-08T22:28:37Z</time>
      </trkpt>
      <trkpt lat="23.064588" lon="113.273136">
        <time>2026-07-08T22:28:42Z</time>
      </trkpt>
      <trkpt lat="23.064549" lon="113.272984">
        <time>2026-07-08T22:28:47Z</time>
      </trkpt>
      <trkpt lat="23.064467" lon="113.272768">
        <time>2026-07-08T22:28:52Z</time>
      </trkpt>
      <trkpt lat="23.064446" lon="113.272557">
        <time>2026-07-08T22:28:57Z</time>
      </trkpt>
      <trkpt lat="23.06449" lon="113.272416">
        <time>2026-07-08T22:29:02Z</time>
      </trkpt>
      <trkpt lat="23.064535" lon="113.272272">
        <time>2026-07-08T22:29:07Z</time>
      </trkpt>
      <trkpt lat="23.064613" lon="113.272072">
        <time>2026-07-08T22:29:12Z</time>
      </trkpt>
      <trkpt lat="23.064712" lon="113.271895">
        <time>2026-07-08T22:29:17Z</time>
      </trkpt>
      <trkpt lat="23.06478" lon="113.271779">
        <time>2026-07-08T22:29:22Z</time>
      </trkpt>
      <trkpt lat="23.064849" lon="113.271654">
        <time>2026-07-08T22:29:27Z</time>
      </trkpt>
      <trkpt lat="23.064944" lon="113.271455">
        <time>2026-07-08T22:29:32Z</time>
      </trkpt>
      <trkpt lat="23.065049" lon="113.271245">
        <time>2026-07-08T22:29:37Z</time>
      </trkpt>
      <trkpt lat="23.065118" lon="113.271098">
        <time>2026-07-08T22:29:42Z</time>
      </trkpt>
      <trkpt lat="23.065181" lon="113.270957">
        <time>2026-07-08T22:29:47Z</time>
      </trkpt>
      <trkpt lat="23.065276" lon="113.27075">
        <time>2026-07-08T22:29:52Z</time>
      </trkpt>
      <trkpt lat="23.065363" lon="113.270541">
        <time>2026-07-08T22:29:57Z</time>
      </trkpt>
      <trkpt lat="23.065419" lon="113.270401">
        <time>2026-07-08T22:30:02Z</time>
      </trkpt>
      <trkpt lat="23.065478" lon="113.270264">
        <time>2026-07-08T22:30:07Z</time>
      </trkpt>
      <trkpt lat="23.065558" lon="113.270057">
        <time>2026-07-08T22:30:12Z</time>
      </trkpt>
      <trkpt lat="23.065628" lon="113.269855">
        <time>2026-07-08T22:30:17Z</time>
      </trkpt>
      <trkpt lat="23.065665" lon="113.269715">
        <time>2026-07-08T22:30:22Z</time>
      </trkpt>
      <trkpt lat="23.065707" lon="113.269576">
        <time>2026-07-08T22:30:27Z</time>
      </trkpt>
      <trkpt lat="23.065757" lon="113.26937">
        <time>2026-07-08T22:30:32Z</time>
      </trkpt>
      <trkpt lat="23.065812" lon="113.269165">
        <time>2026-07-08T22:30:37Z</time>
      </trkpt>
      <trkpt lat="23.065857" lon="113.269031">
        <time>2026-07-08T22:30:42Z</time>
      </trkpt>
      <trkpt lat="23.06591" lon="113.268899">
        <time>2026-07-08T22:30:47Z</time>
      </trkpt>
      <trkpt lat="23.066012" lon="113.268697">
        <time>2026-07-08T22:30:52Z</time>
      </trkpt>
      <trkpt lat="23.066132" lon="113.268512">
        <time>2026-07-08T22:30:57Z</time>
      </trkpt>
      <trkpt lat="23.066208" lon="113.268393">
        <time>2026-07-08T22:31:02Z</time>
      </trkpt>
      <trkpt lat="23.066286" lon="113.268278">
        <time>2026-07-08T22:31:07Z</time>
      </trkpt>
      <trkpt lat="23.066445" lon="113.268154">
        <time>2026-07-08T22:31:12Z</time>
      </trkpt>
      <trkpt lat="23.066639" lon="113.268141">
        <time>2026-07-08T22:31:17Z</time>
      </trkpt>
      <trkpt lat="23.066655" lon="113.268078">
        <time>2026-07-08T22:31:22Z</time>
      </trkpt>
      <trkpt lat="23.066536" lon="113.268011">
        <time>2026-07-08T22:31:27Z</time>
      </trkpt>
      <trkpt lat="23.066318" lon="113.268015">
        <time>2026-07-08T22:31:32Z</time>
      </trkpt>
      <trkpt lat="23.066142" lon="113.268129">
        <time>2026-07-08T22:31:37Z</time>
      </trkpt>
      <trkpt lat="23.066054" lon="113.268237">
        <time>2026-07-08T22:31:42Z</time>
      </trkpt>
      <trkpt lat="23.065978" lon="113.26835">
        <time>2026-07-08T22:31:47Z</time>
      </trkpt>
      <trkpt lat="23.065861" lon="113.268522">
        <time>2026-07-08T22:31:52Z</time>
      </trkpt>
      <trkpt lat="23.065749" lon="113.268698">
        <time>2026-07-08T22:31:57Z</time>
      </trkpt>
      <trkpt lat="23.065694" lon="113.268823">
        <time>2026-07-08T22:32:02Z</time>
      </trkpt>
      <trkpt lat="23.06565" lon="113.26895">
        <time>2026-07-08T22:32:07Z</time>
      </trkpt>
      <trkpt lat="23.06559" lon="113.269154">
        <time>2026-07-08T22:32:12Z</time>
      </trkpt>
      <trkpt lat="23.065539" lon="113.269371">
        <time>2026-07-08T22:32:17Z</time>
      </trkpt>
      <trkpt lat="23.065501" lon="113.269516">
        <time>2026-07-08T22:32:22Z</time>
      </trkpt>
      <trkpt lat="23.065466" lon="113.269663">
        <time>2026-07-08T22:32:27Z</time>
      </trkpt>
      <trkpt lat="23.065402" lon="113.269878">
        <time>2026-07-08T22:32:32Z</time>
      </trkpt>
      <trkpt lat="23.065335" lon="113.270088">
        <time>2026-07-08T22:32:37Z</time>
      </trkpt>
      <trkpt lat="23.065283" lon="113.270223">
        <time>2026-07-08T22:32:42Z</time>
      </trkpt>
      <trkpt lat="23.065222" lon="113.270352">
        <time>2026-07-08T22:32:47Z</time>
      </trkpt>
      <trkpt lat="23.065128" lon="113.270546">
        <time>2026-07-08T22:32:52Z</time>
      </trkpt>
      <trkpt lat="23.065041" lon="113.270743">
        <time>2026-07-08T22:32:57Z</time>
      </trkpt>
      <trkpt lat="23.064986" lon="113.270874">
        <time>2026-07-08T22:33:02Z</time>
      </trkpt>
      <trkpt lat="23.064928" lon="113.271003">
        <time>2026-07-08T22:33:07Z</time>
      </trkpt>
      <trkpt lat="23.064834" lon="113.271199">
        <time>2026-07-08T22:33:12Z</time>
      </trkpt>
      <trkpt lat="23.064744" lon="113.271393">
        <time>2026-07-08T22:33:17Z</time>
      </trkpt>
      <trkpt lat="23.064686" lon="113.271526">
        <time>2026-07-08T22:33:22Z</time>
      </trkpt>
      <trkpt lat="23.064621" lon="113.271656">
        <time>2026-07-08T22:33:27Z</time>
      </trkpt>
      <trkpt lat="23.064528" lon="113.27186">
        <time>2026-07-08T22:33:32Z</time>
      </trkpt>
      <trkpt lat="23.06443" lon="113.272058">
        <time>2026-07-08T22:33:37Z</time>
      </trkpt>
      <trkpt lat="23.064367" lon="113.272191">
        <time>2026-07-08T22:33:42Z</time>
      </trkpt>
      <trkpt lat="23.064328" lon="113.272331">
        <time>2026-07-08T22:33:47Z</time>
      </trkpt>
      <trkpt lat="23.064304" lon="113.272555">
        <time>2026-07-08T22:33:52Z</time>
      </trkpt>
      <trkpt lat="23.064322" lon="113.272761">
        <time>2026-07-08T22:33:57Z</time>
      </trkpt>
      <trkpt lat="23.064371" lon="113.272889">
        <time>2026-07-08T22:34:02Z</time>
      </trkpt>
      <trkpt lat="23.064412" lon="113.273023">
        <time>2026-07-08T22:34:07Z</time>
      </trkpt>
      <trkpt lat="23.064448" lon="113.273229">
        <time>2026-07-08T22:34:12Z</time>
      </trkpt>
      <trkpt lat="23.064372" lon="113.273412">
        <time>2026-07-08T22:34:17Z</time>
      </trkpt>
      <trkpt lat="23.064267" lon="113.273501">
        <time>2026-07-08T22:34:22Z</time>
      </trkpt>
      <trkpt lat="23.064157" lon="113.273583">
        <time>2026-07-08T22:34:27Z</time>
      </trkpt>
      <trkpt lat="23.063996" lon="113.2737">
        <time>2026-07-08T22:34:32Z</time>
      </trkpt>
      <trkpt lat="23.063868" lon="113.273844">
        <time>2026-07-08T22:34:37Z</time>
      </trkpt>
      <trkpt lat="23.063799" lon="113.273956">
        <time>2026-07-08T22:34:42Z</time>
      </trkpt>
      <trkpt lat="23.06373" lon="113.274069">
        <time>2026-07-08T22:34:47Z</time>
      </trkpt>
      <trkpt lat="23.063592" lon="113.274203">
        <time>2026-07-08T22:34:52Z</time>
      </trkpt>
      <trkpt lat="23.063494" lon="113.27437">
        <time>2026-07-08T22:34:57Z</time>
      </trkpt>
      <trkpt lat="23.063438" lon="113.274504">
        <time>2026-07-08T22:35:02Z</time>
      </trkpt>
      <trkpt lat="23.063396" lon="113.274633">
        <time>2026-07-08T22:35:07Z</time>
      </trkpt>
      <trkpt lat="23.063325" lon="113.274832">
        <time>2026-07-08T22:35:12Z</time>
      </trkpt>
      <trkpt lat="23.063249" lon="113.275043">
        <time>2026-07-08T22:35:17Z</time>
      </trkpt>
      <trkpt lat="23.063182" lon="113.27517">
        <time>2026-07-08T22:35:22Z</time>
      </trkpt>
      <trkpt lat="23.063108" lon="113.275295">
        <time>2026-07-08T22:35:27Z</time>
      </trkpt>
      <trkpt lat="23.063002" lon="113.275477">
        <time>2026-07-08T22:35:32Z</time>
      </trkpt>
      <trkpt lat="23.062864" lon="113.275653">
        <time>2026-07-08T22:35:37Z</time>
      </trkpt>
      <trkpt lat="23.062761" lon="113.275761">
        <time>2026-07-08T22:35:42Z</time>
      </trkpt>
      <trkpt lat="23.062651" lon="113.275859">
        <time>2026-07-08T22:35:47Z</time>
      </trkpt>
      <trkpt lat="23.062515" lon="113.276041">
        <time>2026-07-08T22:35:52Z</time>
      </trkpt>
      <trkpt lat="23.062414" lon="113.276257">
        <time>2026-07-08T22:35:57Z</time>
      </trkpt>
      <trkpt lat="23.062364" lon="113.276402">
        <time>2026-07-08T22:36:02Z</time>
      </trkpt>
      <trkpt lat="23.062315" lon="113.276544">
        <time>2026-07-08T22:36:07Z</time>
      </trkpt>
      <trkpt lat="23.062235" lon="113.276751">
        <time>2026-07-08T22:36:12Z</time>
      </trkpt>
      <trkpt lat="23.062167" lon="113.276943">
        <time>2026-07-08T22:36:17Z</time>
      </trkpt>
      <trkpt lat="23.062116" lon="113.277073">
        <time>2026-07-08T22:36:22Z</time>
      </trkpt>
      <trkpt lat="23.062063" lon="113.277214">
        <time>2026-07-08T22:36:27Z</time>
      </trkpt>
      <trkpt lat="23.061987" lon="113.27742">
        <time>2026-07-08T22:36:32Z</time>
      </trkpt>
      <trkpt lat="23.061923" lon="113.277614">
        <time>2026-07-08T22:36:37Z</time>
      </trkpt>
      <trkpt lat="23.061879" lon="113.277743">
        <time>2026-07-08T22:36:42Z</time>
      </trkpt>
      <trkpt lat="23.061849" lon="113.277882">
        <time>2026-07-08T22:36:47Z</time>
      </trkpt>
      <trkpt lat="23.06184" lon="113.278086">
        <time>2026-07-08T22:36:52Z</time>
      </trkpt>
      <trkpt lat="23.061846" lon="113.278298">
        <time>2026-07-08T22:36:57Z</time>
      </trkpt>
      <trkpt lat="23.061849" lon="113.278432">
        <time>2026-07-08T22:37:02Z</time>
      </trkpt>
      <trkpt lat="23.061855" lon="113.278563">
        <time>2026-07-08T22:37:07Z</time>
      </trkpt>
      <trkpt lat="23.061846" lon="113.278772">
        <time>2026-07-08T22:37:12Z</time>
      </trkpt>
      <trkpt lat="23.061783" lon="113.278958">
        <time>2026-07-08T22:37:17Z</time>
      </trkpt>
      <trkpt lat="23.06171" lon="113.279072">
        <time>2026-07-08T22:37:22Z</time>
      </trkpt>
      <trkpt lat="23.061639" lon="113.279192">
        <time>2026-07-08T22:37:27Z</time>
      </trkpt>
      <trkpt lat="23.061555" lon="113.27938">
        <time>2026-07-08T22:37:32Z</time>
      </trkpt>
      <trkpt lat="23.061479" lon="113.279564">
        <time>2026-07-08T22:37:37Z</time>
      </trkpt>
      <trkpt lat="23.061427" lon="113.279696">
        <time>2026-07-08T22:37:42Z</time>
      </trkpt>
      <trkpt lat="23.061374" lon="113.279822">
        <time>2026-07-08T22:37:47Z</time>
      </trkpt>
      <trkpt lat="23.06129" lon="113.280008">
        <time>2026-07-08T22:37:52Z</time>
      </trkpt>
      <trkpt lat="23.061212" lon="113.280205">
        <time>2026-07-08T22:37:57Z</time>
      </trkpt>
      <trkpt lat="23.061147" lon="113.280329">
        <time>2026-07-08T22:38:02Z</time>
      </trkpt>
      <trkpt lat="23.061069" lon="113.280458">
        <time>2026-07-08T22:38:07Z</time>
      </trkpt>
      <trkpt lat="23.060974" lon="113.28066">
        <time>2026-07-08T22:38:12Z</time>
      </trkpt>
      <trkpt lat="23.060892" lon="113.280873">
        <time>2026-07-08T22:38:17Z</time>
      </trkpt>
      <trkpt lat="23.06084" lon="113.281013">
        <time>2026-07-08T22:38:22Z</time>
      </trkpt>
      <trkpt lat="23.060786" lon="113.281147">
        <time>2026-07-08T22:38:27Z</time>
      </trkpt>
      <trkpt lat="23.060698" lon="113.281354">
        <time>2026-07-08T22:38:32Z</time>
      </trkpt>
      <trkpt lat="23.060608" lon="113.281553">
        <time>2026-07-08T22:38:37Z</time>
      </trkpt>
      <trkpt lat="23.060546" lon="113.281684">
        <time>2026-07-08T22:38:42Z</time>
      </trkpt>
      <trkpt lat="23.060483" lon="113.281816">
        <time>2026-07-08T22:38:47Z</time>
      </trkpt>
      <trkpt lat="23.060396" lon="113.282025">
        <time>2026-07-08T22:38:52Z</time>
      </trkpt>
      <trkpt lat="23.060299" lon="113.282233">
        <time>2026-07-08T22:38:57Z</time>
      </trkpt>
      <trkpt lat="23.060239" lon="113.28237">
        <time>2026-07-08T22:39:02Z</time>
      </trkpt>
      <trkpt lat="23.060183" lon="113.282502">
        <time>2026-07-08T22:39:07Z</time>
      </trkpt>
      <trkpt lat="23.0601" lon="113.282703">
        <time>2026-07-08T22:39:12Z</time>
      </trkpt>
      <trkpt lat="23.060021" lon="113.282897">
        <time>2026-07-08T22:39:17Z</time>
      </trkpt>
      <trkpt lat="23.05996" lon="113.283021">
        <time>2026-07-08T22:39:22Z</time>
      </trkpt>
      <trkpt lat="23.059899" lon="113.283144">
        <time>2026-07-08T22:39:27Z</time>
      </trkpt>
      <trkpt lat="23.059823" lon="113.283334">
        <time>2026-07-08T22:39:32Z</time>
      </trkpt>
      <trkpt lat="23.059905" lon="113.283402">
        <time>2026-07-08T22:39:37Z</time>
      </trkpt>
      <trkpt lat="23.059979" lon="113.283293">
        <time>2026-07-08T22:39:42Z</time>
      </trkpt>
      <trkpt lat="23.060046" lon="113.283151">
        <time>2026-07-08T22:39:47Z</time>
      </trkpt>
      <trkpt lat="23.060146" lon="113.282936">
        <time>2026-07-08T22:39:52Z</time>
      </trkpt>
      <trkpt lat="23.060242" lon="113.282717">
        <time>2026-07-08T22:39:57Z</time>
      </trkpt>
      <trkpt lat="23.060296" lon="113.282569">
        <time>2026-07-08T22:40:02Z</time>
      </trkpt>
      <trkpt lat="23.060355" lon="113.282426">
        <time>2026-07-08T22:40:07Z</time>
      </trkpt>
      <trkpt lat="23.060439" lon="113.282218">
        <time>2026-07-08T22:40:12Z</time>
      </trkpt>
      <trkpt lat="23.060509" lon="113.282011">
        <time>2026-07-08T22:40:17Z</time>
      </trkpt>
      <trkpt lat="23.060559" lon="113.281877">
        <time>2026-07-08T22:40:22Z</time>
      </trkpt>
      <trkpt lat="23.060617" lon="113.281745">
        <time>2026-07-08T22:40:27Z</time>
      </trkpt>
      <trkpt lat="23.06071" lon="113.28155">
        <time>2026-07-08T22:40:32Z</time>
      </trkpt>
      <trkpt lat="23.060794" lon="113.281345">
        <time>2026-07-08T22:40:37Z</time>
      </trkpt>
      <trkpt lat="23.060847" lon="113.281214">
        <time>2026-07-08T22:40:42Z</time>
      </trkpt>
      <trkpt lat="23.060907" lon="113.281088">
        <time>2026-07-08T22:40:47Z</time>
      </trkpt>
      <trkpt lat="23.060996" lon="113.280897">
        <time>2026-07-08T22:40:52Z</time>
      </trkpt>
      <trkpt lat="23.061082" lon="113.2807">
        <time>2026-07-08T22:40:57Z</time>
      </trkpt>
      <trkpt lat="23.061149" lon="113.280568">
        <time>2026-07-08T22:41:02Z</time>
      </trkpt>
      <trkpt lat="23.061214" lon="113.280439">
        <time>2026-07-08T22:41:07Z</time>
      </trkpt>
      <trkpt lat="23.061301" lon="113.280246">
        <time>2026-07-08T22:41:12Z</time>
      </trkpt>
      <trkpt lat="23.061392" lon="113.280063">
        <time>2026-07-08T22:41:17Z</time>
      </trkpt>
      <trkpt lat="23.061446" lon="113.279936">
        <time>2026-07-08T22:41:22Z</time>
      </trkpt>
      <trkpt lat="23.061496" lon="113.279802">
        <time>2026-07-08T22:41:27Z</time>
      </trkpt>
      <trkpt lat="23.061571" lon="113.279599">
        <time>2026-07-08T22:41:32Z</time>
      </trkpt>
      <trkpt lat="23.06165" lon="113.279403">
        <time>2026-07-08T22:41:37Z</time>
      </trkpt>
      <trkpt lat="23.061697" lon="113.279273">
        <time>2026-07-08T22:41:42Z</time>
      </trkpt>
      <trkpt lat="23.061754" lon="113.279147">
        <time>2026-07-08T22:41:47Z</time>
      </trkpt>
      <trkpt lat="23.061853" lon="113.278973">
        <time>2026-07-08T22:41:52Z</time>
      </trkpt>
      <trkpt lat="23.061959" lon="113.278783">
        <time>2026-07-08T22:41:57Z</time>
      </trkpt>
      <trkpt lat="23.061994" lon="113.278636">
        <time>2026-07-08T22:42:02Z</time>
      </trkpt>
      <trkpt lat="23.061998" lon="113.27848">
        <time>2026-07-08T22:42:07Z</time>
      </trkpt>
      <trkpt lat="23.061983" lon="113.278255">
        <time>2026-07-08T22:42:12Z</time>
      </trkpt>
      <trkpt lat="23.061972" lon="113.278026">
        <time>2026-07-08T22:42:17Z</time>
      </trkpt>
      <trkpt lat="23.061972" lon="113.277869">
        <time>2026-07-08T22:42:22Z</time>
      </trkpt>
      <trkpt lat="23.061991" lon="113.277719">
        <time>2026-07-08T22:42:27Z</time>
      </trkpt>
      <trkpt lat="23.062048" lon="113.277506">
        <time>2026-07-08T22:42:32Z</time>
      </trkpt>
      <trkpt lat="23.062127" lon="113.277304">
        <time>2026-07-08T22:42:37Z</time>
      </trkpt>
      <trkpt lat="23.062174" lon="113.277171">
        <time>2026-07-08T22:42:42Z</time>
      </trkpt>
      <trkpt lat="23.062217" lon="113.277039">
        <time>2026-07-08T22:42:47Z</time>
      </trkpt>
      <trkpt lat="23.062294" lon="113.276846">
        <time>2026-07-08T22:42:52Z</time>
      </trkpt>
      <trkpt lat="23.062372" lon="113.276654">
        <time>2026-07-08T22:42:57Z</time>
      </trkpt>
      <trkpt lat="23.06242" lon="113.276529">
        <time>2026-07-08T22:43:02Z</time>
      </trkpt>
      <trkpt lat="23.062465" lon="113.276403">
        <time>2026-07-08T22:43:07Z</time>
      </trkpt>
      <trkpt lat="23.06253" lon="113.276215">
        <time>2026-07-08T22:43:12Z</time>
      </trkpt>
      <trkpt lat="23.062621" lon="113.276032">
        <time>2026-07-08T22:43:17Z</time>
      </trkpt>
      <trkpt lat="23.062702" lon="113.27592">
        <time>2026-07-08T22:43:22Z</time>
      </trkpt>
      <trkpt lat="23.062792" lon="113.275816">
        <time>2026-07-08T22:43:27Z</time>
      </trkpt>
      <trkpt lat="23.062937" lon="113.275673">
        <time>2026-07-08T22:43:32Z</time>
      </trkpt>
      <trkpt lat="23.063065" lon="113.275519">
        <time>2026-07-08T22:43:37Z</time>
      </trkpt>
      <trkpt lat="23.06314" lon="113.275404">
        <time>2026-07-08T22:43:42Z</time>
      </trkpt>
      <trkpt lat="23.063213" lon="113.275281">
        <time>2026-07-08T22:43:47Z</time>
      </trkpt>
      <trkpt lat="23.06332" lon="113.275094">
        <time>2026-07-08T22:43:52Z</time>
      </trkpt>
      <trkpt lat="23.063399" lon="113.274895">
        <time>2026-07-08T22:43:57Z</time>
      </trkpt>
      <trkpt lat="23.063444" lon="113.274759">
        <time>2026-07-08T22:44:02Z</time>
      </trkpt>
      <trkpt lat="23.063484" lon="113.274623">
        <time>2026-07-08T22:44:07Z</time>
      </trkpt>
      <trkpt lat="23.063553" lon="113.274429">
        <time>2026-07-08T22:44:12Z</time>
      </trkpt>
      <trkpt lat="23.06366" lon="113.274263">
        <time>2026-07-08T22:44:17Z</time>
      </trkpt>
      <trkpt lat="23.063767" lon="113.274187">
        <time>2026-07-08T22:44:22Z</time>
      </trkpt>
      <trkpt lat="23.063863" lon="113.274087">
        <time>2026-07-08T22:44:27Z</time>
      </trkpt>
      <trkpt lat="23.063962" lon="113.273896">
        <time>2026-07-08T22:44:32Z</time>
      </trkpt>
      <trkpt lat="23.064088" lon="113.273721">
        <time>2026-07-08T22:44:37Z</time>
      </trkpt>
      <trkpt lat="23.064191" lon="113.273629">
        <time>2026-07-08T22:44:42Z</time>
      </trkpt>
      <trkpt lat="23.064299" lon="113.273553">
        <time>2026-07-08T22:44:47Z</time>
      </trkpt>
      <trkpt lat="23.064458" lon="113.273436">
        <time>2026-07-08T22:44:52Z</time>
      </trkpt>
      <trkpt lat="23.064574" lon="113.273277">
        <time>2026-07-08T22:44:57Z</time>
      </trkpt>
      <trkpt lat="23.064591" lon="113.273175">
        <time>2026-07-08T22:45:02Z</time>
      </trkpt>
      <trkpt lat="23.064577" lon="113.273105">
        <time>2026-07-08T22:45:07Z</time>
      </trkpt>
      <trkpt lat="23.064561" lon="113.273023">
        <time>2026-07-08T22:45:12Z</time>
      </trkpt>
      <trkpt lat="23.06454" lon="113.272948">
        <time>2026-07-08T22:45:17Z</time>
      </trkpt>
      <trkpt lat="23.064517" lon="113.272903">
        <time>2026-07-08T22:45:22Z</time>
      </trkpt>
      <trkpt lat="23.064496" lon="113.272857">
        <time>2026-07-08T22:45:27Z</time>
      </trkpt>
      <trkpt lat="23.064478" lon="113.272783">
        <time>2026-07-08T22:45:32Z</time>
      </trkpt>
      <trkpt lat="23.064468" lon="113.272705">
        <time>2026-07-08T22:45:37Z</time>
      </trkpt>
      <trkpt lat="23.064461" lon="113.272654">
        <time>2026-07-08T22:45:42Z</time>
      </trkpt>
      <trkpt lat="23.064465" lon="113.272602">
        <time>2026-07-08T22:45:47Z</time>
      </trkpt>
      <trkpt lat="23.064501" lon="113.272538">
        <time>2026-07-08T22:45:52Z</time>
      </trkpt>
      <trkpt lat="23.064525" lon="113.272459">
        <time>2026-07-08T22:45:57Z</time>
      </trkpt>
      <trkpt lat="23.064519" lon="113.272418">
        <time>2026-07-08T22:46:02Z</time>
      </trkpt>
      <trkpt lat="23.064498" lon="113.272444">
        <time>2026-07-08T22:46:07Z</time>
      </trkpt>
      <trkpt lat="23.064524" lon="113.272503">
        <time>2026-07-08T22:46:12Z</time>
      </trkpt>
      <trkpt lat="23.064586" lon="113.27253">
        <time>2026-07-08T22:46:17Z</time>
      </trkpt>
      <trkpt lat="23.064626" lon="113.272544">
        <time>2026-07-08T22:46:22Z</time>
      </trkpt>
      <trkpt lat="23.064666" lon="113.272549">
        <time>2026-07-08T22:46:27Z</time>
      </trkpt>
      <trkpt lat="23.064728" lon="113.27257">
        <time>2026-07-08T22:46:32Z</time>
      </trkpt>
      <trkpt lat="23.06479" lon="113.272584">
        <time>2026-07-08T22:46:37Z</time>
      </trkpt>
      <trkpt lat="23.064834" lon="113.272592">
        <time>2026-07-08T22:46:42Z</time>
      </trkpt>
      <trkpt lat="23.064876" lon="113.272604">
        <time>2026-07-08T22:46:47Z</time>
      </trkpt>
      <trkpt lat="23.064941" lon="113.272616">
        <time>2026-07-08T22:46:52Z</time>
      </trkpt>
      <trkpt lat="23.065013" lon="113.272624">
        <time>2026-07-08T22:46:57Z</time>
      </trkpt>
      <trkpt lat="23.065063" lon="113.272634">
        <time>2026-07-08T22:47:02Z</time>
      </trkpt>
      <trkpt lat="23.065118" lon="113.272656">
        <time>2026-07-08T22:47:07Z</time>
      </trkpt>
      <trkpt lat="23.065211" lon="113.272685">
        <time>2026-07-08T22:47:12Z</time>
      </trkpt>
      <trkpt lat="23.065307" lon="113.272716">
        <time>2026-07-08T22:47:17Z</time>
      </trkpt>
      <trkpt lat="23.065371" lon="113.272735">
        <time>2026-07-08T22:47:22Z</time>
      </trkpt>
      <trkpt lat="23.065435" lon="113.272755">
        <time>2026-07-08T22:47:27Z</time>
      </trkpt>
      <trkpt lat="23.065537" lon="113.272784">
        <time>2026-07-08T22:47:32Z</time>
      </trkpt>
      <trkpt lat="23.065639" lon="113.27283">
        <time>2026-07-08T22:47:37Z</time>
      </trkpt>
      <trkpt lat="23.065654" lon="113.272877">
        <time>2026-07-08T22:47:42Z</time>
      </trkpt>
      <trkpt lat="23.065594" lon="113.272891">
        <time>2026-07-08T22:47:47Z</time>
      </trkpt>
      <trkpt lat="23.065479" lon="113.272884">
        <time>2026-07-08T22:47:52Z</time>
      </trkpt>
      <trkpt lat="23.065387" lon="113.272855">
        <time>2026-07-08T22:47:57Z</time>
      </trkpt>
      <trkpt lat="23.065321" lon="113.272843">
        <time>2026-07-08T22:48:02Z</time>
      </trkpt>
      <trkpt lat="23.065249" lon="113.272848">
        <time>2026-07-08T22:48:07Z</time>
      </trkpt>
      <trkpt lat="23.065132" lon="113.272816">
        <time>2026-07-08T22:48:12Z</time>
      </trkpt>
      <trkpt lat="23.065042" lon="113.272757">
        <time>2026-07-08T22:48:17Z</time>
      </trkpt>
      <trkpt lat="23.064991" lon="113.272726">
        <time>2026-07-08T22:48:22Z</time>
      </trkpt>
      <trkpt lat="23.064936" lon="113.2727">
        <time>2026-07-08T22:48:27Z</time>
      </trkpt>
      <trkpt lat="23.064832" lon="113.272711">
        <time>2026-07-08T22:48:32Z</time>
      </trkpt>
      <trkpt lat="23.064808" lon="113.272756">
        <time>2026-07-08T22:48:37Z</time>
      </trkpt>
      <trkpt lat="23.064874" lon="113.272752">
        <time>2026-07-08T22:48:42Z</time>
      </trkpt>
      <trkpt lat="23.064945" lon="113.272764">
        <time>2026-07-08T22:48:47Z</time>
      </trkpt>
      <trkpt lat="23.065036" lon="113.272808">
        <time>2026-07-08T22:48:52Z</time>
      </trkpt>
      <trkpt lat="23.065122" lon="113.272872">
        <time>2026-07-08T22:48:57Z</time>
      </trkpt>
      <trkpt lat="23.065182" lon="113.272907">
        <time>2026-07-08T22:49:02Z</time>
      </trkpt>
      <trkpt lat="23.065246" lon="113.272903">
        <time>2026-07-08T22:49:07Z</time>
      </trkpt>
      <trkpt lat="23.065341" lon="113.272898">
        <time>2026-07-08T22:49:12Z</time>
      </trkpt>
      <trkpt lat="23.065388" lon="113.272977">
        <time>2026-07-08T22:49:17Z</time>
      </trkpt>
      <trkpt lat="23.065366" lon="113.273047">
        <time>2026-07-08T22:49:22Z</time>
      </trkpt>
      <trkpt lat="23.065329" lon="113.27311">
        <time>2026-07-08T22:49:27Z</time>
      </trkpt>
      <trkpt lat="23.065262" lon="113.273188">
        <time>2026-07-08T22:49:32Z</time>
      </trkpt>
      <trkpt lat="23.065201" lon="113.273269">
        <time>2026-07-08T22:49:37Z</time>
      </trkpt>
      <trkpt lat="23.065159" lon="113.273327">
        <time>2026-07-08T22:49:42Z</time>
      </trkpt>
      <trkpt lat="23.06513" lon="113.273389">
        <time>2026-07-08T22:49:47Z</time>
      </trkpt>
      <trkpt lat="23.065172" lon="113.273437">
        <time>2026-07-08T22:49:52Z</time>
      </trkpt>
      <trkpt lat="23.065252" lon="113.273359">
        <time>2026-07-08T22:49:57Z</time>
      </trkpt>
      <trkpt lat="23.06529" lon="113.27329">
        <time>2026-07-08T22:50:02Z</time>
      </trkpt>
      <trkpt lat="23.06531" lon="113.273222">
        <time>2026-07-08T22:50:07Z</time>
      </trkpt>
      <trkpt lat="23.065359" lon="113.273132">
        <time>2026-07-08T22:50:12Z</time>
      </trkpt>
      <trkpt lat="23.06542" lon="113.273044">
        <time>2026-07-08T22:50:17Z</time>
      </trkpt>
      <trkpt lat="23.065462" lon="113.272981">
        <time>2026-07-08T22:50:22Z</time>
      </trkpt>
      <trkpt lat="23.065521" lon="113.272941">
        <time>2026-07-08T22:50:27Z</time>
      </trkpt>
      <trkpt lat="23.065623" lon="113.272917">
        <time>2026-07-08T22:50:32Z</time>
      </trkpt>
      <trkpt lat="23.065675" lon="113.272856">
        <time>2026-07-08T22:50:37Z</time>
      </trkpt>
      <trkpt lat="23.065635" lon="113.272809">
        <time>2026-07-08T22:50:42Z</time>
      </trkpt>
      <trkpt lat="23.065582" lon="113.272768">
        <time>2026-07-08T22:50:47Z</time>
      </trkpt>
      <trkpt lat="23.065486" lon="113.272718">
        <time>2026-07-08T22:50:52Z</time>
      </trkpt>
      <trkpt lat="23.065383" lon="113.272665">
        <time>2026-07-08T22:50:57Z</time>
      </trkpt>
      <trkpt lat="23.065309" lon="113.272635">
        <time>2026-07-08T22:51:02Z</time>
      </trkpt>
      <trkpt lat="23.065231" lon="113.272618">
        <time>2026-07-08T22:51:07Z</time>
      </trkpt>
      <trkpt lat="23.065124" lon="113.272585">
        <time>2026-07-08T22:51:12Z</time>
      </trkpt>
      <trkpt lat="23.06503" lon="113.272556">
        <time>2026-07-08T22:51:17Z</time>
      </trkpt>
      <trkpt lat="23.064965" lon="113.272531">
        <time>2026-07-08T22:51:22Z</time>
      </trkpt>
      <trkpt lat="23.064899" lon="113.272506">
        <time>2026-07-08T22:51:27Z</time>
      </trkpt>
      <trkpt lat="23.064809" lon="113.272478">
        <time>2026-07-08T22:51:32Z</time>
      </trkpt>
      <trkpt lat="23.064738" lon="113.272424">
        <time>2026-07-08T22:51:37Z</time>
      </trkpt>
      <trkpt lat="23.064676" lon="113.272383">
        <time>2026-07-08T22:51:42Z</time>
      </trkpt>
      <trkpt lat="23.064629" lon="113.272327">
        <time>2026-07-08T22:51:47Z</time>
      </trkpt>
      <trkpt lat="23.064612" lon="113.27222">
        <time>2026-07-08T22:51:52Z</time>
      </trkpt>
      <trkpt lat="23.064631" lon="113.272113">
        <time>2026-07-08T22:51:57Z</time>
      </trkpt>
      <trkpt lat="23.064654" lon="113.272049">
        <time>2026-07-08T22:52:02Z</time>
      </trkpt>
      <trkpt lat="23.064678" lon="113.27199">
        <time>2026-07-08T22:52:07Z</time>
      </trkpt>
      <trkpt lat="23.064719" lon="113.271902">
        <time>2026-07-08T22:52:12Z</time>
      </trkpt>
      <trkpt lat="23.064763" lon="113.271805">
        <time>2026-07-08T22:52:17Z</time>
      </trkpt>
      <trkpt lat="23.064791" lon="113.271741">
        <time>2026-07-08T22:52:22Z</time>
      </trkpt>
      <trkpt lat="23.064819" lon="113.271684">
        <time>2026-07-08T22:52:27Z</time>
      </trkpt>
      <trkpt lat="23.064863" lon="113.271584">
        <time>2026-07-08T22:52:32Z</time>
      </trkpt>
      <trkpt lat="23.064913" lon="113.271489">
        <time>2026-07-08T22:52:37Z</time>
      </trkpt>
      <trkpt lat="23.064944" lon="113.271426">
        <time>2026-07-08T22:52:42Z</time>
      </trkpt>
      <trkpt lat="23.064975" lon="113.271359">
        <time>2026-07-08T22:52:47Z</time>
      </trkpt>
      <trkpt lat="23.065016" lon="113.271238">
        <time>2026-07-08T22:52:52Z</time>
      </trkpt>
      <trkpt lat="23.065076" lon="113.271133">
        <time>2026-07-08T22:52:57Z</time>
      </trkpt>
      <trkpt lat="23.065118" lon="113.27107">
        <time>2026-07-08T22:53:02Z</time>
      </trkpt>
      <trkpt lat="23.065151" lon="113.271001">
        <time>2026-07-08T22:53:07Z</time>
      </trkpt>
      <trkpt lat="23.065192" lon="113.270892">
        <time>2026-07-08T22:53:12Z</time>
      </trkpt>
      <trkpt lat="23.065242" lon="113.270785">
        <time>2026-07-08T22:53:17Z</time>
      </trkpt>
      <trkpt lat="23.065274" lon="113.270717">
        <time>2026-07-08T22:53:22Z</time>
      </trkpt>
      <trkpt lat="23.065304" lon="113.270646">
        <time>2026-07-08T22:53:27Z</time>
      </trkpt>
      <trkpt lat="23.065349" lon="113.270547">
        <time>2026-07-08T22:53:32Z</time>
      </trkpt>
      <trkpt lat="23.065393" lon="113.270452">
        <time>2026-07-08T22:53:37Z</time>
      </trkpt>
      <trkpt lat="23.065423" lon="113.27039">
        <time>2026-07-08T22:53:42Z</time>
      </trkpt>
      <trkpt lat="23.065451" lon="113.270327">
        <time>2026-07-08T22:53:47Z</time>
      </trkpt>
      <trkpt lat="23.065493" lon="113.270235">
        <time>2026-07-08T22:53:52Z</time>
      </trkpt>
      <trkpt lat="23.065526" lon="113.270139">
        <time>2026-07-08T22:53:57Z</time>
      </trkpt>
      <trkpt lat="23.065546" lon="113.270072">
        <time>2026-07-08T22:54:02Z</time>
      </trkpt>
      <trkpt lat="23.065567" lon="113.270006">
        <time>2026-07-08T22:54:07Z</time>
      </trkpt>
      <trkpt lat="23.065599" lon="113.269915">
        <time>2026-07-08T22:54:12Z</time>
      </trkpt>
      <trkpt lat="23.06562" lon="113.269837">
        <time>2026-07-08T22:54:17Z</time>
      </trkpt>
      <trkpt lat="23.065634" lon="113.269787">
        <time>2026-07-08T22:54:22Z</time>
      </trkpt>
      <trkpt lat="23.065652" lon="113.269741">
        <time>2026-07-08T22:54:27Z</time>
      </trkpt>
      <trkpt lat="23.065673" lon="113.269667">
        <time>2026-07-08T22:54:32Z</time>
      </trkpt>
      <trkpt lat="23.065686" lon="113.269589">
        <time>2026-07-08T22:54:37Z</time>
      </trkpt>
      <trkpt lat="23.065704" lon="113.269536">
        <time>2026-07-08T22:54:42Z</time>
      </trkpt>
      <trkpt lat="23.065725" lon="113.269486">
        <time>2026-07-08T22:54:47Z</time>
      </trkpt>
      <trkpt lat="23.065746" lon="113.269409">
        <time>2026-07-08T22:54:52Z</time>
      </trkpt>
      <trkpt lat="23.065771" lon="113.269293">
        <time>2026-07-08T22:54:57Z</time>
      </trkpt>
      <trkpt lat="23.065792" lon="113.269215">
        <time>2026-07-08T22:55:02Z</time>
      </trkpt>
      <trkpt lat="23.065814" lon="113.269137">
        <time>2026-07-08T22:55:07Z</time>
      </trkpt>
      <trkpt lat="23.065854" lon="113.269032">
        <time>2026-07-08T22:55:12Z</time>
      </trkpt>
      <trkpt lat="23.065899" lon="113.268929">
        <time>2026-07-08T22:55:17Z</time>
      </trkpt>
      <trkpt lat="23.065925" lon="113.268858">
        <time>2026-07-08T22:55:22Z</time>
      </trkpt>
      <trkpt lat="23.065954" lon="113.268782">
        <time>2026-07-08T22:55:27Z</time>
      </trkpt>
      <trkpt lat="23.06601" lon="113.268675">
        <time>2026-07-08T22:55:32Z</time>
      </trkpt>
      <trkpt lat="23.066081" lon="113.268581">
        <time>2026-07-08T22:55:37Z</time>
      </trkpt>
      <trkpt lat="23.066129" lon="113.268518">
        <time>2026-07-08T22:55:42Z</time>
      </trkpt>
      <trkpt lat="23.066171" lon="113.268451">
        <time>2026-07-08T22:55:47Z</time>
      </trkpt>
      <trkpt lat="23.066232" lon="113.268357">
        <time>2026-07-08T22:55:52Z</time>
      </trkpt>
      <trkpt lat="23.066295" lon="113.268271">
        <time>2026-07-08T22:55:57Z</time>
      </trkpt>
      <trkpt lat="23.066341" lon="113.268214">
        <time>2026-07-08T22:56:02Z</time>
      </trkpt>
      <trkpt lat="23.066399" lon="113.268172">
        <time>2026-07-08T22:56:07Z</time>
      </trkpt>
      <trkpt lat="23.066507" lon="113.268155">
        <time>2026-07-08T22:56:12Z</time>
      </trkpt>
      <trkpt lat="23.066613" lon="113.268173">
        <time>2026-07-08T22:56:17Z</time>
      </trkpt>
      <trkpt lat="23.066683" lon="113.268192">
        <time>2026-07-08T22:56:22Z</time>
      </trkpt>
      <trkpt lat="23.066754" lon="113.268192">
        <time>2026-07-08T22:56:27Z</time>
      </trkpt>
      <trkpt lat="23.066858" lon="113.268192">
        <time>2026-07-08T22:56:32Z</time>
      </trkpt>
      <trkpt lat="23.066967" lon="113.268201">
        <time>2026-07-08T22:56:37Z</time>
      </trkpt>
      <trkpt lat="23.067032" lon="113.268223">
        <time>2026-07-08T22:56:42Z</time>
      </trkpt>
      <trkpt lat="23.06709" lon="113.268259">
        <time>2026-07-08T22:56:47Z</time>
      </trkpt>
      <trkpt lat="23.067172" lon="113.268297">
        <time>2026-07-08T22:56:52Z</time>
      </trkpt>
      <trkpt lat="23.067268" lon="113.268365">
        <time>2026-07-08T22:56:57Z</time>
      </trkpt>
      <trkpt lat="23.067332" lon="113.268415">
        <time>2026-07-08T22:57:02Z</time>
      </trkpt>
      <trkpt lat="23.067392" lon="113.268456">
        <time>2026-07-08T22:57:07Z</time>
      </trkpt>
      <trkpt lat="23.067482" lon="113.268514">
        <time>2026-07-08T22:57:12Z</time>
      </trkpt>
      <trkpt lat="23.067598" lon="113.26857">
        <time>2026-07-08T22:57:17Z</time>
      </trkpt>
      <trkpt lat="23.067673" lon="113.268611">
        <time>2026-07-08T22:57:22Z</time>
      </trkpt>
      <trkpt lat="23.067742" lon="113.268653">
        <time>2026-07-08T22:57:27Z</time>
      </trkpt>
      <trkpt lat="23.067839" lon="113.268692">
        <time>2026-07-08T22:57:32Z</time>
      </trkpt>
      <trkpt lat="23.067924" lon="113.268742">
        <time>2026-07-08T22:57:37Z</time>
      </trkpt>
      <trkpt lat="23.067976" lon="113.268783">
        <time>2026-07-08T22:57:42Z</time>
      </trkpt>
      <trkpt lat="23.068023" lon="113.268805">
        <time>2026-07-08T22:57:47Z</time>
      </trkpt>
      <trkpt lat="23.068089" lon="113.268829">
        <time>2026-07-08T22:57:52Z</time>
      </trkpt>
      <trkpt lat="23.068153" lon="113.268832">
        <time>2026-07-08T22:57:57Z</time>
      </trkpt>
      <trkpt lat="23.068218" lon="113.268854">
        <time>2026-07-08T22:58:02Z</time>
      </trkpt>
      <trkpt lat="23.068295" lon="113.268893">
        <time>2026-07-08T22:58:07Z</time>
      </trkpt>
      <trkpt lat="23.068408" lon="113.26896">
        <time>2026-07-08T22:58:12Z</time>
      </trkpt>
      <trkpt lat="23.068518" lon="113.269061">
        <time>2026-07-08T22:58:17Z</time>
      </trkpt>
      <trkpt lat="23.068592" lon="113.269127">
        <time>2026-07-08T22:58:22Z</time>
      </trkpt>
      <trkpt lat="23.068657" lon="113.269173">
        <time>2026-07-08T22:58:27Z</time>
      </trkpt>
      <trkpt lat="23.068746" lon="113.269222">
        <time>2026-07-08T22:58:32Z</time>
      </trkpt>
      <trkpt lat="23.068857" lon="113.269236">
        <time>2026-07-08T22:58:37Z</time>
      </trkpt>
      <trkpt lat="23.068933" lon="113.269241">
        <time>2026-07-08T22:58:42Z</time>
      </trkpt>
      <trkpt lat="23.068992" lon="113.269254">
        <time>2026-07-08T22:58:47Z</time>
      </trkpt>
      <trkpt lat="23.069082" lon="113.269281">
        <time>2026-07-08T22:58:52Z</time>
      </trkpt>
      <trkpt lat="23.069176" lon="113.269329">
        <time>2026-07-08T22:58:57Z</time>
      </trkpt>
      <trkpt lat="23.069245" lon="113.269362">
        <time>2026-07-08T22:59:02Z</time>
      </trkpt>
      <trkpt lat="23.069319" lon="113.269396">
        <time>2026-07-08T22:59:07Z</time>
      </trkpt>
      <trkpt lat="23.069425" lon="113.269445">
        <time>2026-07-08T22:59:12Z</time>
      </trkpt>
      <trkpt lat="23.069522" lon="113.269499">
        <time>2026-07-08T22:59:17Z</time>
      </trkpt>
      <trkpt lat="23.069593" lon="113.269535">
        <time>2026-07-08T22:59:22Z</time>
      </trkpt>
      <trkpt lat="23.069656" lon="113.269571">
        <time>2026-07-08T22:59:27Z</time>
      </trkpt>
      <trkpt lat="23.069687" lon="113.269655">
        <time>2026-07-08T22:59:32Z</time>
      </trkpt>
      <trkpt lat="23.069719" lon="113.26972">
        <time>2026-07-08T22:59:37Z</time>
      </trkpt>
      <trkpt lat="23.069762" lon="113.269763">
        <time>2026-07-08T22:59:42Z</time>
      </trkpt>
      <trkpt lat="23.069811" lon="113.269812">
        <time>2026-07-08T22:59:47Z</time>
      </trkpt>
      <trkpt lat="23.069889" lon="113.269888">
        <time>2026-07-08T22:59:52Z</time>
      </trkpt>
      <trkpt lat="23.069972" lon="113.269973">
        <time>2026-07-08T22:59:57Z</time>
      </trkpt>
      <trkpt lat="23.070058" lon="113.270025">
        <time>2026-07-08T23:00:02Z</time>
      </trkpt>
      <trkpt lat="23.070137" lon="113.270069">
        <time>2026-07-08T23:00:07Z</time>
      </trkpt>
      <trkpt lat="23.070252" lon="113.270124">
        <time>2026-07-08T23:00:12Z</time>
      </trkpt>
      <trkpt lat="23.070379" lon="113.270144">
        <time>2026-07-08T23:00:17Z</time>
      </trkpt>
      <trkpt lat="23.070477" lon="113.27014">
        <time>2026-07-08T23:00:22Z</time>
      </trkpt>
      <trkpt lat="23.07055" lon="113.270119">
        <time>2026-07-08T23:00:27Z</time>
      </trkpt>
      <trkpt lat="23.070669" lon="113.270097">
        <time>2026-07-08T23:00:32Z</time>
      </trkpt>
      <trkpt lat="23.070751" lon="113.270109">
        <time>2026-07-08T23:00:37Z</time>
      </trkpt>
      <trkpt lat="23.070801" lon="113.270117">
        <time>2026-07-08T23:00:42Z</time>
      </trkpt>
      <trkpt lat="23.070855" lon="113.270119">
        <time>2026-07-08T23:00:47Z</time>
      </trkpt>
      <trkpt lat="23.070936" lon="113.270144">
        <time>2026-07-08T23:00:52Z</time>
      </trkpt>
      <trkpt lat="23.071025" lon="113.270197">
        <time>2026-07-08T23:00:57Z</time>
      </trkpt>
      <trkpt lat="23.071086" lon="113.270241">
        <time>2026-07-08T23:01:02Z</time>
      </trkpt>
      <trkpt lat="23.071138" lon="113.270288">
        <time>2026-07-08T23:01:07Z</time>
      </trkpt>
      <trkpt lat="23.071225" lon="113.270342">
        <time>2026-07-08T23:01:12Z</time>
      </trkpt>
      <trkpt lat="23.07132" lon="113.2704">
        <time>2026-07-08T23:01:17Z</time>
      </trkpt>
      <trkpt lat="23.071379" lon="113.270428">
        <time>2026-07-08T23:01:22Z</time>
      </trkpt>
      <trkpt lat="23.07144" lon="113.270453">
        <time>2026-07-08T23:01:27Z</time>
      </trkpt>
      <trkpt lat="23.071527" lon="113.27048">
        <time>2026-07-08T23:01:32Z</time>
      </trkpt>
      <trkpt lat="23.071616" lon="113.270517">
        <time>2026-07-08T23:01:37Z</time>
      </trkpt>
      <trkpt lat="23.071674" lon="113.270561">
        <time>2026-07-08T23:01:42Z</time>
      </trkpt>
      <trkpt lat="23.071734" lon="113.270619">
        <time>2026-07-08T23:01:47Z</time>
      </trkpt>
      <trkpt lat="23.071829" lon="113.270684">
        <time>2026-07-08T23:01:52Z</time>
      </trkpt>
      <trkpt lat="23.071923" lon="113.270709">
        <time>2026-07-08T23:01:57Z</time>
      </trkpt>
      <trkpt lat="23.072003" lon="113.27073">
        <time>2026-07-08T23:02:02Z</time>
      </trkpt>
      <trkpt lat="23.072071" lon="113.27076">
        <time>2026-07-08T23:02:07Z</time>
      </trkpt>
      <trkpt lat="23.072157" lon="113.270818">
        <time>2026-07-08T23:02:12Z</time>
      </trkpt>
      <trkpt lat="23.072242" lon="113.270851">
        <time>2026-07-08T23:02:17Z</time>
      </trkpt>
      <trkpt lat="23.072312" lon="113.270866">
        <time>2026-07-08T23:02:22Z</time>
      </trkpt>
      <trkpt lat="23.072378" lon="113.27088">
        <time>2026-07-08T23:02:27Z</time>
      </trkpt>
      <trkpt lat="23.07246" lon="113.270914">
        <time>2026-07-08T23:02:32Z</time>
      </trkpt>
      <trkpt lat="23.072549" lon="113.270936">
        <time>2026-07-08T23:02:37Z</time>
      </trkpt>
      <trkpt lat="23.072611" lon="113.270975">
        <time>2026-07-08T23:02:42Z</time>
      </trkpt>
      <trkpt lat="23.072679" lon="113.271009">
        <time>2026-07-08T23:02:47Z</time>
      </trkpt>
      <trkpt lat="23.072772" lon="113.27106">
        <time>2026-07-08T23:02:52Z</time>
      </trkpt>
      <trkpt lat="23.072855" lon="113.271115">
        <time>2026-07-08T23:02:57Z</time>
      </trkpt>
      <trkpt lat="23.072914" lon="113.271142">
        <time>2026-07-08T23:03:02Z</time>
      </trkpt>
      <trkpt lat="23.072981" lon="113.271158">
        <time>2026-07-08T23:03:07Z</time>
      </trkpt>
      <trkpt lat="23.073074" lon="113.2712">
        <time>2026-07-08T23:03:12Z</time>
      </trkpt>
      <trkpt lat="23.073145" lon="113.271251">
        <time>2026-07-08T23:03:17Z</time>
      </trkpt>
      <trkpt lat="23.073166" lon="113.27129">
        <time>2026-07-08T23:03:22Z</time>
      </trkpt>
      <trkpt lat="23.073205" lon="113.271329">
        <time>2026-07-08T23:03:27Z</time>
      </trkpt>
      <trkpt lat="23.073317" lon="113.271383">
        <time>2026-07-08T23:03:32Z</time>
      </trkpt>
      <trkpt lat="23.073421" lon="113.271443">
        <time>2026-07-08T23:03:37Z</time>
      </trkpt>
      <trkpt lat="23.073484" lon="113.271492">
        <time>2026-07-08T23:03:42Z</time>
      </trkpt>
      <trkpt lat="23.073547" lon="113.271541">
        <time>2026-07-08T23:03:47Z</time>
      </trkpt>
      <trkpt lat="23.07363" lon="113.271614">
        <time>2026-07-08T23:03:52Z</time>
      </trkpt>
      <trkpt lat="23.073715" lon="113.27168">
        <time>2026-07-08T23:03:57Z</time>
      </trkpt>
      <trkpt lat="23.073779" lon="113.271709">
        <time>2026-07-08T23:04:02Z</time>
      </trkpt>
      <trkpt lat="23.073838" lon="113.271731">
        <time>2026-07-08T23:04:07Z</time>
      </trkpt>
      <trkpt lat="23.073921" lon="113.271769">
        <time>2026-07-08T23:04:12Z</time>
      </trkpt>
      <trkpt lat="23.074003" lon="113.271828">
        <time>2026-07-08T23:04:17Z</time>
      </trkpt>
      <trkpt lat="23.074071" lon="113.271828">
        <time>2026-07-08T23:04:22Z</time>
      </trkpt>
      <trkpt lat="23.074102" lon="113.271859">
        <time>2026-07-08T23:04:27Z</time>
      </trkpt>
      <trkpt lat="23.074065" lon="113.271958">
        <time>2026-07-08T23:04:32Z</time>
      </trkpt>
      <trkpt lat="23.074016" lon="113.272053">
        <time>2026-07-08T23:04:37Z</time>
      </trkpt>
      <trkpt lat="23.073985" lon="113.272119">
        <time>2026-07-08T23:04:42Z</time>
      </trkpt>
      <trkpt lat="23.073951" lon="113.272187">
        <time>2026-07-08T23:04:47Z</time>
      </trkpt>
      <trkpt lat="23.0739" lon="113.272289">
        <time>2026-07-08T23:04:52Z</time>
      </trkpt>
      <trkpt lat="23.073851" lon="113.2724">
        <time>2026-07-08T23:04:57Z</time>
      </trkpt>
      <trkpt lat="23.07381" lon="113.272475">
        <time>2026-07-08T23:05:02Z</time>
      </trkpt>
      <trkpt lat="23.073773" lon="113.272553">
        <time>2026-07-08T23:05:07Z</time>
      </trkpt>
      <trkpt lat="23.073713" lon="113.272666">
        <time>2026-07-08T23:05:12Z</time>
      </trkpt>
      <trkpt lat="23.073692" lon="113.272791">
        <time>2026-07-08T23:05:17Z</time>
      </trkpt>
      <trkpt lat="23.073729" lon="113.27289">
        <time>2026-07-08T23:05:22Z</time>
      </trkpt>
      <trkpt lat="23.073798" lon="113.272952">
        <time>2026-07-08T23:05:27Z</time>
      </trkpt>
      <trkpt lat="23.073909" lon="113.27299">
        <time>2026-07-08T23:05:32Z</time>
      </trkpt>
      <trkpt lat="23.073987" lon="113.272937">
        <time>2026-07-08T23:05:37Z</time>
      </trkpt>
      <trkpt lat="23.074022" lon="113.272866">
        <time>2026-07-08T23:05:42Z</time>
      </trkpt>
      <trkpt lat="23.074058" lon="113.272802">
        <time>2026-07-08T23:05:47Z</time>
      </trkpt>
      <trkpt lat="23.074101" lon="113.272705">
        <time>2026-07-08T23:05:52Z</time>
      </trkpt>
      <trkpt lat="23.074133" lon="113.272606">
        <time>2026-07-08T23:05:57Z</time>
      </trkpt>
      <trkpt lat="23.07416" lon="113.272545">
        <time>2026-07-08T23:06:02Z</time>
      </trkpt>
      <trkpt lat="23.074188" lon="113.272469">
        <time>2026-07-08T23:06:07Z</time>
      </trkpt>
      <trkpt lat="23.074242" lon="113.272383">
        <time>2026-07-08T23:06:12Z</time>
      </trkpt>
      <trkpt lat="23.074295" lon="113.272284">
        <time>2026-07-08T23:06:17Z</time>
      </trkpt>
      <trkpt lat="23.07433" lon="113.272202">
        <time>2026-07-08T23:06:22Z</time>
      </trkpt>
      <trkpt lat="23.074358" lon="113.272133">
        <time>2026-07-08T23:06:27Z</time>
      </trkpt>
      <trkpt lat="23.074437" lon="113.272055">
        <time>2026-07-08T23:06:32Z</time>
      </trkpt>
      <trkpt lat="23.074552" lon="113.272057">
        <time>2026-07-08T23:06:37Z</time>
      </trkpt>
      <trkpt lat="23.07462" lon="113.272089">
        <time>2026-07-08T23:06:42Z</time>
      </trkpt>
      <trkpt lat="23.074676" lon="113.272125">
        <time>2026-07-08T23:06:47Z</time>
      </trkpt>
      <trkpt lat="23.074753" lon="113.272193">
        <time>2026-07-08T23:06:52Z</time>
      </trkpt>
      <trkpt lat="23.074831" lon="113.272259">
        <time>2026-07-08T23:06:57Z</time>
      </trkpt>
      <trkpt lat="23.074894" lon="113.272296">
        <time>2026-07-08T23:07:02Z</time>
      </trkpt>
      <trkpt lat="23.074959" lon="113.272342">
        <time>2026-07-08T23:07:07Z</time>
      </trkpt>
      <trkpt lat="23.075045" lon="113.272418">
        <time>2026-07-08T23:07:12Z</time>
      </trkpt>
      <trkpt lat="23.075143" lon="113.272477">
        <time>2026-07-08T23:07:17Z</time>
      </trkpt>
      <trkpt lat="23.075217" lon="113.272488">
        <time>2026-07-08T23:07:22Z</time>
      </trkpt>
      <trkpt lat="23.07528" lon="113.272512">
        <time>2026-07-08T23:07:27Z</time>
      </trkpt>
      <trkpt lat="23.075358" lon="113.272543">
        <time>2026-07-08T23:07:32Z</time>
      </trkpt>
      <trkpt lat="23.075443" lon="113.272567">
        <time>2026-07-08T23:07:37Z</time>
      </trkpt>
      <trkpt lat="23.075511" lon="113.272612">
        <time>2026-07-08T23:07:42Z</time>
      </trkpt>
      <trkpt lat="23.075584" lon="113.272648">
        <time>2026-07-08T23:07:47Z</time>
      </trkpt>
      <trkpt lat="23.075713" lon="113.272646">
        <time>2026-07-08T23:07:52Z</time>
      </trkpt>
      <trkpt lat="23.07587" lon="113.272676">
        <time>2026-07-08T23:07:57Z</time>
      </trkpt>
      <trkpt lat="23.075957" lon="113.272718">
        <time>2026-07-08T23:08:02Z</time>
      </trkpt>
      <trkpt lat="23.076001" lon="113.27278">
        <time>2026-07-08T23:08:07Z</time>
      </trkpt>
      <trkpt lat="23.075959" lon="113.272892">
        <time>2026-07-08T23:08:12Z</time>
      </trkpt>
      <trkpt lat="23.075877" lon="113.273004">
        <time>2026-07-08T23:08:17Z</time>
      </trkpt>
      <trkpt lat="23.075835" lon="113.273073">
        <time>2026-07-08T23:08:22Z</time>
      </trkpt>
      <trkpt lat="23.075799" lon="113.273136">
        <time>2026-07-08T23:08:27Z</time>
      </trkpt>
      <trkpt lat="23.075742" lon="113.273217">
        <time>2026-07-08T23:08:32Z</time>
      </trkpt>
      <trkpt lat="23.075703" lon="113.273307">
        <time>2026-07-08T23:08:37Z</time>
      </trkpt>
      <trkpt lat="23.075646" lon="113.273319">
        <time>2026-07-08T23:08:42Z</time>
      </trkpt>
      <trkpt lat="23.075581" lon="113.273316">
        <time>2026-07-08T23:08:47Z</time>
      </trkpt>
      <trkpt lat="23.075508" lon="113.273283">
        <time>2026-07-08T23:08:52Z</time>
      </trkpt>
      <trkpt lat="23.075463" lon="113.273205">
        <time>2026-07-08T23:08:57Z</time>
      </trkpt>
      <trkpt lat="23.075452" lon="113.273141">
        <time>2026-07-08T23:09:02Z</time>
      </trkpt>
      <trkpt lat="23.075434" lon="113.273057">
        <time>2026-07-08T23:09:07Z</time>
      </trkpt>
      <trkpt lat="23.075363" lon="113.272929">
        <time>2026-07-08T23:09:12Z</time>
      </trkpt>
      <trkpt lat="23.075344" lon="113.272801">
        <time>2026-07-08T23:09:17Z</time>
      </trkpt>
      <trkpt lat="23.075339" lon="113.272717">
        <time>2026-07-08T23:09:22Z</time>
      </trkpt>
      <trkpt lat="23.075337" lon="113.272642">
        <time>2026-07-08T23:09:27Z</time>
      </trkpt>
      <trkpt lat="23.075329" lon="113.272492">
        <time>2026-07-08T23:09:32Z</time>
      </trkpt>
      <trkpt lat="23.075389" lon="113.272454">
        <time>2026-07-08T23:09:37Z</time>
      </trkpt>
      <trkpt lat="23.075454" lon="113.27249">
        <time>2026-07-08T23:09:42Z</time>
      </trkpt>
      <trkpt lat="23.075514" lon="113.27254">
        <time>2026-07-08T23:09:47Z</time>
      </trkpt>
      <trkpt lat="23.075588" lon="113.272631">
        <time>2026-07-08T23:09:52Z</time>
      </trkpt>
      <trkpt lat="23.075675" lon="113.272703">
        <time>2026-07-08T23:09:57Z</time>
      </trkpt>
      <trkpt lat="23.075753" lon="113.272732">
        <time>2026-07-08T23:10:02Z</time>
      </trkpt>
      <trkpt lat="23.075835" lon="113.272745">
        <time>2026-07-08T23:10:07Z</time>
      </trkpt>
      <trkpt lat="23.07596" lon="113.272779">
        <time>2026-07-08T23:10:12Z</time>
      </trkpt>
      <trkpt lat="23.076015" lon="113.272817">
        <time>2026-07-08T23:10:17Z</time>
      </trkpt>
      <trkpt lat="23.075976" lon="113.27289">
        <time>2026-07-08T23:10:22Z</time>
      </trkpt>
      <trkpt lat="23.075906" lon="113.272965">
        <time>2026-07-08T23:10:27Z</time>
      </trkpt>
      <trkpt lat="23.075825" lon="113.273068">
        <time>2026-07-08T23:10:32Z</time>
      </trkpt>
      <trkpt lat="23.075754" lon="113.273154">
        <time>2026-07-08T23:10:37Z</time>
      </trkpt>
      <trkpt lat="23.075697" lon="113.27321">
        <time>2026-07-08T23:10:42Z</time>
      </trkpt>
      <trkpt lat="23.075666" lon="113.273277">
        <time>2026-07-08T23:10:47Z</time>
      </trkpt>
      <trkpt lat="23.075631" lon="113.273333">
        <time>2026-07-08T23:10:52Z</time>
      </trkpt>
      <trkpt lat="23.075545" lon="113.27333">
        <time>2026-07-08T23:10:57Z</time>
      </trkpt>
      <trkpt lat="23.075496" lon="113.273287">
        <time>2026-07-08T23:11:02Z</time>
      </trkpt>
      <trkpt lat="23.075472" lon="113.273231">
        <time>2026-07-08T23:11:07Z</time>
      </trkpt>
      <trkpt lat="23.075468" lon="113.273134">
        <time>2026-07-08T23:11:12Z</time>
      </trkpt>
      <trkpt lat="23.075435" lon="113.273003">
        <time>2026-07-08T23:11:17Z</time>
      </trkpt>
      <trkpt lat="23.075408" lon="113.272921">
        <time>2026-07-08T23:11:22Z</time>
      </trkpt>
      <trkpt lat="23.075387" lon="113.272847">
        <time>2026-07-08T23:11:27Z</time>
      </trkpt>
      <trkpt lat="23.075381" lon="113.272735">
        <time>2026-07-08T23:11:32Z</time>
      </trkpt>
      <trkpt lat="23.075388" lon="113.272621">
        <time>2026-07-08T23:11:37Z</time>
      </trkpt>
      <trkpt lat="23.075401" lon="113.272534">
        <time>2026-07-08T23:11:42Z</time>
      </trkpt>
      <trkpt lat="23.075446" lon="113.272499">
        <time>2026-07-08T23:11:47Z</time>
      </trkpt>
      <trkpt lat="23.07552" lon="113.272526">
        <time>2026-07-08T23:11:52Z</time>
      </trkpt>
      <trkpt lat="23.0756" lon="113.272602">
        <time>2026-07-08T23:11:57Z</time>
      </trkpt>
      <trkpt lat="23.07565" lon="113.272661">
        <time>2026-07-08T23:12:02Z</time>
      </trkpt>
      <trkpt lat="23.075696" lon="113.272717">
        <time>2026-07-08T23:12:07Z</time>
      </trkpt>
      <trkpt lat="23.075785" lon="113.272775">
        <time>2026-07-08T23:12:12Z</time>
      </trkpt>
      <trkpt lat="23.075923" lon="113.272799">
        <time>2026-07-08T23:12:17Z</time>
      </trkpt>
      <trkpt lat="23.075994" lon="113.272825">
        <time>2026-07-08T23:12:22Z</time>
      </trkpt>
      <trkpt lat="23.075991" lon="113.272876">
        <time>2026-07-08T23:12:27Z</time>
      </trkpt>
      <trkpt lat="23.075908" lon="113.272975">
        <time>2026-07-08T23:12:32Z</time>
      </trkpt>
      <trkpt lat="23.07582" lon="113.273067">
        <time>2026-07-08T23:12:37Z</time>
      </trkpt>
      <trkpt lat="23.075779" lon="113.273128">
        <time>2026-07-08T23:12:42Z</time>
      </trkpt>
      <trkpt lat="23.075739" lon="113.273192">
        <time>2026-07-08T23:12:47Z</time>
      </trkpt>
      <trkpt lat="23.07573" lon="113.273308">
        <time>2026-07-08T23:12:52Z</time>
      </trkpt>
      <trkpt lat="23.07565" lon="113.273343">
        <time>2026-07-08T23:12:57Z</time>
      </trkpt>
      <trkpt lat="23.075572" lon="113.273323">
        <time>2026-07-08T23:13:02Z</time>
      </trkpt>
      <trkpt lat="23.075515" lon="113.273277">
        <time>2026-07-08T23:13:07Z</time>
      </trkpt>
      <trkpt lat="23.075504" lon="113.273194">
        <time>2026-07-08T23:13:12Z</time>
      </trkpt>
      <trkpt lat="23.0755" lon="113.273106">
        <time>2026-07-08T23:13:17Z</time>
      </trkpt>
      <trkpt lat="23.075467" lon="113.273028">
        <time>2026-07-08T23:13:22Z</time>
      </trkpt>
      <trkpt lat="23.075446" lon="113.272938">
        <time>2026-07-08T23:13:27Z</time>
      </trkpt>
      <trkpt lat="23.07541" lon="113.272822">
        <time>2026-07-08T23:13:32Z</time>
      </trkpt>
      <trkpt lat="23.075422" lon="113.272731">
        <time>2026-07-08T23:13:37Z</time>
      </trkpt>
      <trkpt lat="23.075419" lon="113.272648">
        <time>2026-07-08T23:13:42Z</time>
      </trkpt>
      <trkpt lat="23.075418" lon="113.272533">
        <time>2026-07-08T23:13:47Z</time>
      </trkpt>
      <trkpt lat="23.075414" lon="113.272367">
        <time>2026-07-08T23:13:52Z</time>
      </trkpt>
      <trkpt lat="23.075453" lon="113.272347">
        <time>2026-07-08T23:13:57Z</time>
      </trkpt>
      <trkpt lat="23.075496" lon="113.272405">
        <time>2026-07-08T23:14:02Z</time>
      </trkpt>
      <trkpt lat="23.07553" lon="113.272458">
        <time>2026-07-08T23:14:07Z</time>
      </trkpt>
      <trkpt lat="23.075533" lon="113.272559">
        <time>2026-07-08T23:14:12Z</time>
      </trkpt>
      <trkpt lat="23.075594" lon="113.272649">
        <time>2026-07-08T23:14:17Z</time>
      </trkpt>
      <trkpt lat="23.07565" lon="113.2727">
        <time>2026-07-08T23:14:22Z</time>
      </trkpt>
      <trkpt lat="23.075717" lon="113.272736">
        <time>2026-07-08T23:14:27Z</time>
      </trkpt>
      <trkpt lat="23.075855" lon="113.272778">
        <time>2026-07-08T23:14:32Z</time>
      </trkpt>
      <trkpt lat="23.076024" lon="113.272793">
        <time>2026-07-08T23:14:37Z</time>
      </trkpt>
      <trkpt lat="23.07605" lon="113.272806">
        <time>2026-07-08T23:14:42Z</time>
      </trkpt>
      <trkpt lat="23.076024" lon="113.272881">
        <time>2026-07-08T23:14:47Z</time>
      </trkpt>
      <trkpt lat="23.075927" lon="113.27299">
        <time>2026-07-08T23:14:52Z</time>
      </trkpt>
      <trkpt lat="23.07588" lon="113.273016">
        <time>2026-07-08T23:14:57Z</time>
      </trkpt>
      <trkpt lat="23.075912" lon="113.272934">
        <time>2026-07-08T23:15:02Z</time>
      </trkpt>
      <trkpt lat="23.075939" lon="113.272827">
        <time>2026-07-08T23:15:07Z</time>
      </trkpt>
      <trkpt lat="23.075888" lon="113.272722">
        <time>2026-07-08T23:15:12Z</time>
      </trkpt>
      <trkpt lat="23.075803" lon="113.272666">
        <time>2026-07-08T23:15:17Z</time>
      </trkpt>
      <trkpt lat="23.075744" lon="113.272624">
        <time>2026-07-08T23:15:22Z</time>
      </trkpt>
      <trkpt lat="23.075674" lon="113.272583">
        <time>2026-07-08T23:15:27Z</time>
      </trkpt>
      <trkpt lat="23.075554" lon="113.272522">
        <time>2026-07-08T23:15:32Z</time>
      </trkpt>
      <trkpt lat="23.075489" lon="113.272436">
        <time>2026-07-08T23:15:37Z</time>
      </trkpt>
      <trkpt lat="23.075465" lon="113.27237">
        <time>2026-07-08T23:15:42Z</time>
      </trkpt>
      <trkpt lat="23.075408" lon="113.272317">
        <time>2026-07-08T23:15:47Z</time>
      </trkpt>
      <trkpt lat="23.075308" lon="113.272321">
        <time>2026-07-08T23:15:52Z</time>
      </trkpt>
      <trkpt lat="23.07533" lon="113.27245">
        <time>2026-07-08T23:15:57Z</time>
      </trkpt>
      <trkpt lat="23.0754" lon="113.272473">
        <time>2026-07-08T23:16:02Z</time>
      </trkpt>
      <trkpt lat="23.07548" lon="113.272513">
        <time>2026-07-08T23:16:07Z</time>
      </trkpt>
      <trkpt lat="23.075589" lon="113.272616">
        <time>2026-07-08T23:16:12Z</time>
      </trkpt>
      <trkpt lat="23.075687" lon="113.272714">
        <time>2026-07-08T23:16:17Z</time>
      </trkpt>
      <trkpt lat="23.075765" lon="113.272762">
        <time>2026-07-08T23:16:22Z</time>
      </trkpt>
      <trkpt lat="23.075847" lon="113.272792">
        <time>2026-07-08T23:16:27Z</time>
      </trkpt>
      <trkpt lat="23.076002" lon="113.272776">
        <time>2026-07-08T23:16:32Z</time>
      </trkpt>
      <trkpt lat="23.075962" lon="113.272882">
        <time>2026-07-08T23:16:37Z</time>
      </trkpt>
      <trkpt lat="23.07589" lon="113.272949">
        <time>2026-07-08T23:16:42Z</time>
      </trkpt>
      <trkpt lat="23.075818" lon="113.273012">
        <time>2026-07-08T23:16:47Z</time>
      </trkpt>
      <trkpt lat="23.075739" lon="113.273115">
        <time>2026-07-08T23:16:52Z</time>
      </trkpt>
      <trkpt lat="23.075726" lon="113.273249">
        <time>2026-07-08T23:16:57Z</time>
      </trkpt>
      <trkpt lat="23.075695" lon="113.27332">
        <time>2026-07-08T23:17:02Z</time>
      </trkpt>
      <trkpt lat="23.075606" lon="113.273342">
        <time>2026-07-08T23:17:07Z</time>
      </trkpt>
      <trkpt lat="23.075487" lon="113.273319">
        <time>2026-07-08T23:17:12Z</time>
      </trkpt>
      <trkpt lat="23.075447" lon="113.273194">
        <time>2026-07-08T23:17:17Z</time>
      </trkpt>
      <trkpt lat="23.07546" lon="113.273098">
        <time>2026-07-08T23:17:22Z</time>
      </trkpt>
      <trkpt lat="23.07545" lon="113.27301">
        <time>2026-07-08T23:17:27Z</time>
      </trkpt>
      <trkpt lat="23.07543" lon="113.272866">
        <time>2026-07-08T23:17:32Z</time>
      </trkpt>
      <trkpt lat="23.075369" lon="113.272726">
        <time>2026-07-08T23:17:37Z</time>
      </trkpt>
      <trkpt lat="23.075359" lon="113.272647">
        <time>2026-07-08T23:17:42Z</time>
      </trkpt>
      <trkpt lat="23.075363" lon="113.272567">
        <time>2026-07-08T23:17:47Z</time>
      </trkpt>
      <trkpt lat="23.075377" lon="113.272456">
        <time>2026-07-08T23:17:52Z</time>
      </trkpt>
      <trkpt lat="23.075397" lon="113.272349">
        <time>2026-07-08T23:17:57Z</time>
      </trkpt>
      <trkpt lat="23.075449" lon="113.272369">
        <time>2026-07-08T23:18:02Z</time>
      </trkpt>
      <trkpt lat="23.075499" lon="113.272426">
        <time>2026-07-08T23:18:07Z</time>
      </trkpt>
      <trkpt lat="23.075533" lon="113.272517">
        <time>2026-07-08T23:18:12Z</time>
      </trkpt>
      <trkpt lat="23.075585" lon="113.272631">
        <time>2026-07-08T23:18:17Z</time>
      </trkpt>
      <trkpt lat="23.075652" lon="113.27269">
        <time>2026-07-08T23:18:22Z</time>
      </trkpt>
      <trkpt lat="23.075726" lon="113.272744">
        <time>2026-07-08T23:18:27Z</time>
      </trkpt>
      <trkpt lat="23.075838" lon="113.272792">
        <time>2026-07-08T23:18:32Z</time>
      </trkpt>
      <trkpt lat="23.075933" lon="113.272822">
        <time>2026-07-08T23:18:37Z</time>
      </trkpt>
      <trkpt lat="23.075978" lon="113.272851">
        <time>2026-07-08T23:18:42Z</time>
      </trkpt>
      <trkpt lat="23.075955" lon="113.272907">
        <time>2026-07-08T23:18:47Z</time>
      </trkpt>
      <trkpt lat="23.075857" lon="113.272991">
        <time>2026-07-08T23:18:52Z</time>
      </trkpt>
      <trkpt lat="23.075766" lon="113.273079">
        <time>2026-07-08T23:18:57Z</time>
      </trkpt>
      <trkpt lat="23.075712" lon="113.273144">
        <time>2026-07-08T23:19:02Z</time>
      </trkpt>
      <trkpt lat="23.075659" lon="113.273217">
        <time>2026-07-08T23:19:07Z</time>
      </trkpt>
      <trkpt lat="23.075637" lon="113.273341">
        <time>2026-07-08T23:19:12Z</time>
      </trkpt>
      <trkpt lat="23.075543" lon="113.273335">
        <time>2026-07-08T23:19:17Z</time>
      </trkpt>
      <trkpt lat="23.075482" lon="113.27327">
        <time>2026-07-08T23:19:22Z</time>
      </trkpt>
      <trkpt lat="23.07545" lon="113.273183">
        <time>2026-07-08T23:19:27Z</time>
      </trkpt>
      <trkpt lat="23.075446" lon="113.273058">
        <time>2026-07-08T23:19:32Z</time>
      </trkpt>
      <trkpt lat="23.075418" lon="113.272946">
        <time>2026-07-08T23:19:37Z</time>
      </trkpt>
      <trkpt lat="23.07538" lon="113.272871">
        <time>2026-07-08T23:19:42Z</time>
      </trkpt>
      <trkpt lat="23.07535" lon="113.272778">
        <time>2026-07-08T23:19:47Z</time>
      </trkpt>
      <trkpt lat="23.075347" lon="113.272615">
        <time>2026-07-08T23:19:52Z</time>
      </trkpt>
      <trkpt lat="23.07529" lon="113.272425">
        <time>2026-07-08T23:19:57Z</time>
      </trkpt>
      <trkpt lat="23.075311" lon="113.272341">
        <time>2026-07-08T23:20:02Z</time>
      </trkpt>
      <trkpt lat="23.075357" lon="113.27232">
        <time>2026-07-08T23:20:07Z</time>
      </trkpt>
      <trkpt lat="23.075462" lon="113.272395">
        <time>2026-07-08T23:20:12Z</time>
      </trkpt>
      <trkpt lat="23.075489" lon="113.272509">
        <time>2026-07-08T23:20:17Z</time>
      </trkpt>
      <trkpt lat="23.075551" lon="113.272572">
        <time>2026-07-08T23:20:22Z</time>
      </trkpt>
    </trkseg>
  </trk>
</gpx>