<?xml version="1.0" encoding="UTF-8"?>
<gpx xmlns="http://www.topografix.com/GPX/1/1" xmlns:gpxtpx="http://www.garmin.com/xmlschemas/TrackPointExtension/v1" xmlns:xsi="http://www.w3.org/2001/XMLSchema-instance" xsi:schemaLocation="http://www.topografix.com/GPX/1/1 http://www.topografix.com/GPX/1/1/gpx.xsd" version="1.1" creator="gpx.py -- https://github.com/tkrajina/gpxpy">
  <trk>
    <name>gpx from joyrun</name>
    <trkseg>
      <trkpt lat="23.075262" lon="113.272393">
        <time>2026-07-13T21:55:07Z</time>
      </trkpt>
      <trkpt lat="23.075206" lon="113.272353">
        <time>2026-07-13T21:55:12Z</time>
      </trkpt>
      <trkpt lat="23.075083" lon="113.272303">
        <time>2026-07-13T21:55:17Z</time>
      </trkpt>
      <trkpt lat="23.074968" lon="113.272223">
        <time>2026-07-13T21:55:22Z</time>
      </trkpt>
      <trkpt lat="23.074888" lon="113.272174">
        <time>2026-07-13T21:55:27Z</time>
      </trkpt>
      <trkpt lat="23.074808" lon="113.272121">
        <time>2026-07-13T21:55:32Z</time>
      </trkpt>
      <trkpt lat="23.074686" lon="113.272046">
        <time>2026-07-13T21:55:37Z</time>
      </trkpt>
      <trkpt lat="23.074544" lon="113.272">
        <time>2026-07-13T21:55:42Z</time>
      </trkpt>
      <trkpt lat="23.074467" lon="113.272029">
        <time>2026-07-13T21:55:47Z</time>
      </trkpt>
      <trkpt lat="23.074393" lon="113.272104">
        <time>2026-07-13T21:55:52Z</time>
      </trkpt>
      <trkpt lat="23.074313" lon="113.27224">
        <time>2026-07-13T21:55:57Z</time>
      </trkpt>
      <trkpt lat="23.074247" lon="113.272384">
        <time>2026-07-13T21:56:02Z</time>
      </trkpt>
      <trkpt lat="23.074199" lon="113.272482">
        <time>2026-07-13T21:56:07Z</time>
      </trkpt>
      <trkpt lat="23.074158" lon="113.272581">
        <time>2026-07-13T21:56:12Z</time>
      </trkpt>
      <trkpt lat="23.074102" lon="113.272723">
        <time>2026-07-13T21:56:17Z</time>
      </trkpt>
      <trkpt lat="23.074026" lon="113.272882">
        <time>2026-07-13T21:56:22Z</time>
      </trkpt>
      <trkpt lat="23.073932" lon="113.272947">
        <time>2026-07-13T21:56:27Z</time>
      </trkpt>
      <trkpt lat="23.073821" lon="113.272935">
        <time>2026-07-13T21:56:32Z</time>
      </trkpt>
      <trkpt lat="23.073693" lon="113.27284">
        <time>2026-07-13T21:56:37Z</time>
      </trkpt>
      <trkpt lat="23.073723" lon="113.27269">
        <time>2026-07-13T21:56:42Z</time>
      </trkpt>
      <trkpt lat="23.073755" lon="113.272595">
        <time>2026-07-13T21:56:47Z</time>
      </trkpt>
      <trkpt lat="23.073787" lon="113.272505">
        <time>2026-07-13T21:56:52Z</time>
      </trkpt>
      <trkpt lat="23.073842" lon="113.272368">
        <time>2026-07-13T21:56:57Z</time>
      </trkpt>
      <trkpt lat="23.073902" lon="113.27224">
        <time>2026-07-13T21:57:02Z</time>
      </trkpt>
      <trkpt lat="23.073941" lon="113.272151">
        <time>2026-07-13T21:57:07Z</time>
      </trkpt>
      <trkpt lat="23.073973" lon="113.272056">
        <time>2026-07-13T21:57:12Z</time>
      </trkpt>
      <trkpt lat="23.074019" lon="113.271917">
        <time>2026-07-13T21:57:17Z</time>
      </trkpt>
      <trkpt lat="23.074029" lon="113.271782">
        <time>2026-07-13T21:57:22Z</time>
      </trkpt>
      <trkpt lat="23.073966" lon="113.271723">
        <time>2026-07-13T21:57:27Z</time>
      </trkpt>
      <trkpt lat="23.073883" lon="113.271677">
        <time>2026-07-13T21:57:32Z</time>
      </trkpt>
      <trkpt lat="23.073757" lon="113.271619">
        <time>2026-07-13T21:57:37Z</time>
      </trkpt>
      <trkpt lat="23.073641" lon="113.271566">
        <time>2026-07-13T21:57:42Z</time>
      </trkpt>
      <trkpt lat="23.073566" lon="113.271533">
        <time>2026-07-13T21:57:47Z</time>
      </trkpt>
      <trkpt lat="23.073482" lon="113.271506">
        <time>2026-07-13T21:57:52Z</time>
      </trkpt>
      <trkpt lat="23.07334" lon="113.271446">
        <time>2026-07-13T21:57:57Z</time>
      </trkpt>
      <trkpt lat="23.073213" lon="113.271352">
        <time>2026-07-13T21:58:02Z</time>
      </trkpt>
      <trkpt lat="23.073124" lon="113.271281">
        <time>2026-07-13T21:58:07Z</time>
      </trkpt>
      <trkpt lat="23.073029" lon="113.271233">
        <time>2026-07-13T21:58:12Z</time>
      </trkpt>
      <trkpt lat="23.072894" lon="113.271154">
        <time>2026-07-13T21:58:17Z</time>
      </trkpt>
      <trkpt lat="23.072763" lon="113.271077">
        <time>2026-07-13T21:58:22Z</time>
      </trkpt>
      <trkpt lat="23.072657" lon="113.27103">
        <time>2026-07-13T21:58:27Z</time>
      </trkpt>
      <trkpt lat="23.072548" lon="113.270981">
        <time>2026-07-13T21:58:32Z</time>
      </trkpt>
      <trkpt lat="23.072391" lon="113.270907">
        <time>2026-07-13T21:58:37Z</time>
      </trkpt>
      <trkpt lat="23.072249" lon="113.270841">
        <time>2026-07-13T21:58:42Z</time>
      </trkpt>
      <trkpt lat="23.072163" lon="113.270782">
        <time>2026-07-13T21:58:47Z</time>
      </trkpt>
      <trkpt lat="23.072072" lon="113.27072">
        <time>2026-07-13T21:58:52Z</time>
      </trkpt>
      <trkpt lat="23.071918" lon="113.270658">
        <time>2026-07-13T21:58:57Z</time>
      </trkpt>
      <trkpt lat="23.071781" lon="113.270573">
        <time>2026-07-13T21:59:02Z</time>
      </trkpt>
      <trkpt lat="23.071682" lon="113.270533">
        <time>2026-07-13T21:59:07Z</time>
      </trkpt>
      <trkpt lat="23.071581" lon="113.270496">
        <time>2026-07-13T21:59:12Z</time>
      </trkpt>
      <trkpt lat="23.07143" lon="113.270431">
        <time>2026-07-13T21:59:17Z</time>
      </trkpt>
      <trkpt lat="23.071282" lon="113.270367">
        <time>2026-07-13T21:59:22Z</time>
      </trkpt>
      <trkpt lat="23.071181" lon="113.270325">
        <time>2026-07-13T21:59:27Z</time>
      </trkpt>
      <trkpt lat="23.071095" lon="113.270273">
        <time>2026-07-13T21:59:32Z</time>
      </trkpt>
      <trkpt lat="23.070956" lon="113.270187">
        <time>2026-07-13T21:59:37Z</time>
      </trkpt>
      <trkpt lat="23.070819" lon="113.270105">
        <time>2026-07-13T21:59:42Z</time>
      </trkpt>
      <trkpt lat="23.070724" lon="113.270046">
        <time>2026-07-13T21:59:47Z</time>
      </trkpt>
      <trkpt lat="23.070625" lon="113.269975">
        <time>2026-07-13T21:59:52Z</time>
      </trkpt>
      <trkpt lat="23.070454" lon="113.269915">
        <time>2026-07-13T21:59:57Z</time>
      </trkpt>
      <trkpt lat="23.070292" lon="113.269861">
        <time>2026-07-13T22:00:02Z</time>
      </trkpt>
      <trkpt lat="23.070197" lon="113.269814">
        <time>2026-07-13T22:00:07Z</time>
      </trkpt>
      <trkpt lat="23.070107" lon="113.269765">
        <time>2026-07-13T22:00:12Z</time>
      </trkpt>
      <trkpt lat="23.069979" lon="113.26968">
        <time>2026-07-13T22:00:17Z</time>
      </trkpt>
      <trkpt lat="23.069848" lon="113.269594">
        <time>2026-07-13T22:00:22Z</time>
      </trkpt>
      <trkpt lat="23.069755" lon="113.269551">
        <time>2026-07-13T22:00:27Z</time>
      </trkpt>
      <trkpt lat="23.069655" lon="113.26951">
        <time>2026-07-13T22:00:32Z</time>
      </trkpt>
      <trkpt lat="23.069504" lon="113.269444">
        <time>2026-07-13T22:00:37Z</time>
      </trkpt>
      <trkpt lat="23.069362" lon="113.269373">
        <time>2026-07-13T22:00:42Z</time>
      </trkpt>
      <trkpt lat="23.069262" lon="113.26932">
        <time>2026-07-13T22:00:47Z</time>
      </trkpt>
      <trkpt lat="23.069164" lon="113.269264">
        <time>2026-07-13T22:00:52Z</time>
      </trkpt>
      <trkpt lat="23.069022" lon="113.26922">
        <time>2026-07-13T22:00:57Z</time>
      </trkpt>
      <trkpt lat="23.0689" lon="113.269186">
        <time>2026-07-13T22:01:02Z</time>
      </trkpt>
      <trkpt lat="23.0688" lon="113.269145">
        <time>2026-07-13T22:01:07Z</time>
      </trkpt>
      <trkpt lat="23.068698" lon="113.269099">
        <time>2026-07-13T22:01:12Z</time>
      </trkpt>
      <trkpt lat="23.068545" lon="113.269051">
        <time>2026-07-13T22:01:17Z</time>
      </trkpt>
      <trkpt lat="23.068388" lon="113.269006">
        <time>2026-07-13T22:01:22Z</time>
      </trkpt>
      <trkpt lat="23.06829" lon="113.268969">
        <time>2026-07-13T22:01:27Z</time>
      </trkpt>
      <trkpt lat="23.068194" lon="113.268936">
        <time>2026-07-13T22:01:32Z</time>
      </trkpt>
      <trkpt lat="23.068064" lon="113.268873">
        <time>2026-07-13T22:01:37Z</time>
      </trkpt>
      <trkpt lat="23.067937" lon="113.268748">
        <time>2026-07-13T22:01:42Z</time>
      </trkpt>
      <trkpt lat="23.067862" lon="113.2686">
        <time>2026-07-13T22:01:47Z</time>
      </trkpt>
      <trkpt lat="23.067782" lon="113.268488">
        <time>2026-07-13T22:01:52Z</time>
      </trkpt>
      <trkpt lat="23.067641" lon="113.268388">
        <time>2026-07-13T22:01:57Z</time>
      </trkpt>
      <trkpt lat="23.0675" lon="113.268321">
        <time>2026-07-13T22:02:02Z</time>
      </trkpt>
      <trkpt lat="23.067399" lon="113.268295">
        <time>2026-07-13T22:02:07Z</time>
      </trkpt>
      <trkpt lat="23.067303" lon="113.268263">
        <time>2026-07-13T22:02:12Z</time>
      </trkpt>
      <trkpt lat="23.067175" lon="113.268205">
        <time>2026-07-13T22:02:17Z</time>
      </trkpt>
      <trkpt lat="23.067039" lon="113.268145">
        <time>2026-07-13T22:02:22Z</time>
      </trkpt>
      <trkpt lat="23.066945" lon="113.268105">
        <time>2026-07-13T22:02:27Z</time>
      </trkpt>
      <trkpt lat="23.066846" lon="113.268069">
        <time>2026-07-13T22:02:32Z</time>
      </trkpt>
      <trkpt lat="23.066654" lon="113.268032">
        <time>2026-07-13T22:02:37Z</time>
      </trkpt>
      <trkpt lat="23.066496" lon="113.267969">
        <time>2026-07-13T22:02:42Z</time>
      </trkpt>
      <trkpt lat="23.066392" lon="113.267943">
        <time>2026-07-13T22:02:47Z</time>
      </trkpt>
      <trkpt lat="23.06629" lon="113.267952">
        <time>2026-07-13T22:02:52Z</time>
      </trkpt>
      <trkpt lat="23.06616" lon="113.26803">
        <time>2026-07-13T22:02:57Z</time>
      </trkpt>
      <trkpt lat="23.066051" lon="113.268158">
        <time>2026-07-13T22:03:02Z</time>
      </trkpt>
      <trkpt lat="23.065992" lon="113.26825">
        <time>2026-07-13T22:03:07Z</time>
      </trkpt>
      <trkpt lat="23.06593" lon="113.268343">
        <time>2026-07-13T22:03:12Z</time>
      </trkpt>
      <trkpt lat="23.065832" lon="113.268482">
        <time>2026-07-13T22:03:17Z</time>
      </trkpt>
      <trkpt lat="23.065752" lon="113.268617">
        <time>2026-07-13T22:03:22Z</time>
      </trkpt>
      <trkpt lat="23.065702" lon="113.268713">
        <time>2026-07-13T22:03:27Z</time>
      </trkpt>
      <trkpt lat="23.065659" lon="113.26882">
        <time>2026-07-13T22:03:32Z</time>
      </trkpt>
      <trkpt lat="23.065612" lon="113.268994">
        <time>2026-07-13T22:03:37Z</time>
      </trkpt>
      <trkpt lat="23.065558" lon="113.269162">
        <time>2026-07-13T22:03:42Z</time>
      </trkpt>
      <trkpt lat="23.065526" lon="113.269268">
        <time>2026-07-13T22:03:47Z</time>
      </trkpt>
      <trkpt lat="23.065496" lon="113.269384">
        <time>2026-07-13T22:03:52Z</time>
      </trkpt>
      <trkpt lat="23.065454" lon="113.269559">
        <time>2026-07-13T22:03:57Z</time>
      </trkpt>
      <trkpt lat="23.065408" lon="113.26973">
        <time>2026-07-13T22:04:02Z</time>
      </trkpt>
      <trkpt lat="23.065374" lon="113.269846">
        <time>2026-07-13T22:04:07Z</time>
      </trkpt>
      <trkpt lat="23.065327" lon="113.26996">
        <time>2026-07-13T22:04:12Z</time>
      </trkpt>
      <trkpt lat="23.065258" lon="113.270122">
        <time>2026-07-13T22:04:17Z</time>
      </trkpt>
      <trkpt lat="23.065178" lon="113.270285">
        <time>2026-07-13T22:04:22Z</time>
      </trkpt>
      <trkpt lat="23.065125" lon="113.270398">
        <time>2026-07-13T22:04:27Z</time>
      </trkpt>
      <trkpt lat="23.065082" lon="113.270513">
        <time>2026-07-13T22:04:32Z</time>
      </trkpt>
      <trkpt lat="23.065012" lon="113.270678">
        <time>2026-07-13T22:04:37Z</time>
      </trkpt>
      <trkpt lat="23.064944" lon="113.270839">
        <time>2026-07-13T22:04:42Z</time>
      </trkpt>
      <trkpt lat="23.064901" lon="113.270951">
        <time>2026-07-13T22:04:47Z</time>
      </trkpt>
      <trkpt lat="23.064855" lon="113.27106">
        <time>2026-07-13T22:04:52Z</time>
      </trkpt>
      <trkpt lat="23.064782" lon="113.271224">
        <time>2026-07-13T22:04:57Z</time>
      </trkpt>
      <trkpt lat="23.0647" lon="113.271384">
        <time>2026-07-13T22:05:02Z</time>
      </trkpt>
      <trkpt lat="23.064643" lon="113.271486">
        <time>2026-07-13T22:05:07Z</time>
      </trkpt>
      <trkpt lat="23.064588" lon="113.271589">
        <time>2026-07-13T22:05:12Z</time>
      </trkpt>
      <trkpt lat="23.064506" lon="113.271753">
        <time>2026-07-13T22:05:17Z</time>
      </trkpt>
      <trkpt lat="23.064429" lon="113.271918">
        <time>2026-07-13T22:05:22Z</time>
      </trkpt>
      <trkpt lat="23.06438" lon="113.27203">
        <time>2026-07-13T22:05:27Z</time>
      </trkpt>
      <trkpt lat="23.064336" lon="113.272139">
        <time>2026-07-13T22:05:32Z</time>
      </trkpt>
      <trkpt lat="23.064307" lon="113.272312">
        <time>2026-07-13T22:05:37Z</time>
      </trkpt>
      <trkpt lat="23.064301" lon="113.272486">
        <time>2026-07-13T22:05:42Z</time>
      </trkpt>
      <trkpt lat="23.064311" lon="113.272602">
        <time>2026-07-13T22:05:47Z</time>
      </trkpt>
      <trkpt lat="23.064344" lon="113.272719">
        <time>2026-07-13T22:05:52Z</time>
      </trkpt>
      <trkpt lat="23.064409" lon="113.272897">
        <time>2026-07-13T22:05:57Z</time>
      </trkpt>
      <trkpt lat="23.06445" lon="113.27306">
        <time>2026-07-13T22:06:02Z</time>
      </trkpt>
      <trkpt lat="23.064458" lon="113.273169">
        <time>2026-07-13T22:06:07Z</time>
      </trkpt>
      <trkpt lat="23.064426" lon="113.273273">
        <time>2026-07-13T22:06:12Z</time>
      </trkpt>
      <trkpt lat="23.064311" lon="113.273402">
        <time>2026-07-13T22:06:17Z</time>
      </trkpt>
      <trkpt lat="23.064172" lon="113.2735">
        <time>2026-07-13T22:06:22Z</time>
      </trkpt>
      <trkpt lat="23.064089" lon="113.273569">
        <time>2026-07-13T22:06:27Z</time>
      </trkpt>
      <trkpt lat="23.064002" lon="113.273638">
        <time>2026-07-13T22:06:32Z</time>
      </trkpt>
      <trkpt lat="23.063888" lon="113.273758">
        <time>2026-07-13T22:06:37Z</time>
      </trkpt>
      <trkpt lat="23.063795" lon="113.273898">
        <time>2026-07-13T22:06:42Z</time>
      </trkpt>
      <trkpt lat="23.063735" lon="113.273997">
        <time>2026-07-13T22:06:47Z</time>
      </trkpt>
      <trkpt lat="23.063659" lon="113.274078">
        <time>2026-07-13T22:06:52Z</time>
      </trkpt>
      <trkpt lat="23.063525" lon="113.274175">
        <time>2026-07-13T22:06:57Z</time>
      </trkpt>
      <trkpt lat="23.063439" lon="113.274312">
        <time>2026-07-13T22:07:02Z</time>
      </trkpt>
      <trkpt lat="23.063396" lon="113.274429">
        <time>2026-07-13T22:07:07Z</time>
      </trkpt>
      <trkpt lat="23.063368" lon="113.27455">
        <time>2026-07-13T22:07:12Z</time>
      </trkpt>
      <trkpt lat="23.06332" lon="113.274729">
        <time>2026-07-13T22:07:17Z</time>
      </trkpt>
      <trkpt lat="23.063265" lon="113.274905">
        <time>2026-07-13T22:07:22Z</time>
      </trkpt>
      <trkpt lat="23.063224" lon="113.275019">
        <time>2026-07-13T22:07:27Z</time>
      </trkpt>
      <trkpt lat="23.063168" lon="113.275123">
        <time>2026-07-13T22:07:32Z</time>
      </trkpt>
      <trkpt lat="23.063075" lon="113.275273">
        <time>2026-07-13T22:07:37Z</time>
      </trkpt>
      <trkpt lat="23.062997" lon="113.275429">
        <time>2026-07-13T22:07:42Z</time>
      </trkpt>
      <trkpt lat="23.062931" lon="113.275531">
        <time>2026-07-13T22:07:47Z</time>
      </trkpt>
      <trkpt lat="23.062849" lon="113.275626">
        <time>2026-07-13T22:07:52Z</time>
      </trkpt>
      <trkpt lat="23.062717" lon="113.275753">
        <time>2026-07-13T22:07:57Z</time>
      </trkpt>
      <trkpt lat="23.062597" lon="113.275882">
        <time>2026-07-13T22:08:02Z</time>
      </trkpt>
      <trkpt lat="23.062526" lon="113.275974">
        <time>2026-07-13T22:08:07Z</time>
      </trkpt>
      <trkpt lat="23.062465" lon="113.276078">
        <time>2026-07-13T22:08:12Z</time>
      </trkpt>
      <trkpt lat="23.062391" lon="113.276239">
        <time>2026-07-13T22:08:17Z</time>
      </trkpt>
      <trkpt lat="23.062328" lon="113.276401">
        <time>2026-07-13T22:08:22Z</time>
      </trkpt>
      <trkpt lat="23.062289" lon="113.276506">
        <time>2026-07-13T22:08:27Z</time>
      </trkpt>
      <trkpt lat="23.062248" lon="113.276615">
        <time>2026-07-13T22:08:32Z</time>
      </trkpt>
      <trkpt lat="23.062197" lon="113.27677">
        <time>2026-07-13T22:08:37Z</time>
      </trkpt>
      <trkpt lat="23.062147" lon="113.276921">
        <time>2026-07-13T22:08:42Z</time>
      </trkpt>
      <trkpt lat="23.062112" lon="113.277024">
        <time>2026-07-13T22:08:47Z</time>
      </trkpt>
      <trkpt lat="23.062076" lon="113.27713">
        <time>2026-07-13T22:08:52Z</time>
      </trkpt>
      <trkpt lat="23.06202" lon="113.27729">
        <time>2026-07-13T22:08:57Z</time>
      </trkpt>
      <trkpt lat="23.061955" lon="113.277449">
        <time>2026-07-13T22:09:02Z</time>
      </trkpt>
      <trkpt lat="23.061906" lon="113.277563">
        <time>2026-07-13T22:09:07Z</time>
      </trkpt>
      <trkpt lat="23.061868" lon="113.277675">
        <time>2026-07-13T22:09:12Z</time>
      </trkpt>
      <trkpt lat="23.061833" lon="113.277832">
        <time>2026-07-13T22:09:17Z</time>
      </trkpt>
      <trkpt lat="23.061827" lon="113.277988">
        <time>2026-07-13T22:09:22Z</time>
      </trkpt>
      <trkpt lat="23.061832" lon="113.278092">
        <time>2026-07-13T22:09:27Z</time>
      </trkpt>
      <trkpt lat="23.06184" lon="113.278196">
        <time>2026-07-13T22:09:32Z</time>
      </trkpt>
      <trkpt lat="23.061851" lon="113.27836">
        <time>2026-07-13T22:09:37Z</time>
      </trkpt>
      <trkpt lat="23.06186" lon="113.278531">
        <time>2026-07-13T22:09:42Z</time>
      </trkpt>
      <trkpt lat="23.061863" lon="113.278643">
        <time>2026-07-13T22:09:47Z</time>
      </trkpt>
      <trkpt lat="23.061844" lon="113.278753">
        <time>2026-07-13T22:09:52Z</time>
      </trkpt>
      <trkpt lat="23.061773" lon="113.278906">
        <time>2026-07-13T22:09:57Z</time>
      </trkpt>
      <trkpt lat="23.061686" lon="113.279048">
        <time>2026-07-13T22:10:02Z</time>
      </trkpt>
      <trkpt lat="23.061632" lon="113.279143">
        <time>2026-07-13T22:10:07Z</time>
      </trkpt>
      <trkpt lat="23.061579" lon="113.279245">
        <time>2026-07-13T22:10:12Z</time>
      </trkpt>
      <trkpt lat="23.061506" lon="113.2794">
        <time>2026-07-13T22:10:17Z</time>
      </trkpt>
      <trkpt lat="23.061444" lon="113.279558">
        <time>2026-07-13T22:10:22Z</time>
      </trkpt>
      <trkpt lat="23.061401" lon="113.27966">
        <time>2026-07-13T22:10:27Z</time>
      </trkpt>
      <trkpt lat="23.061361" lon="113.27977">
        <time>2026-07-13T22:10:32Z</time>
      </trkpt>
      <trkpt lat="23.061297" lon="113.279938">
        <time>2026-07-13T22:10:37Z</time>
      </trkpt>
      <trkpt lat="23.061234" lon="113.280097">
        <time>2026-07-13T22:10:42Z</time>
      </trkpt>
      <trkpt lat="23.061189" lon="113.280203">
        <time>2026-07-13T22:10:47Z</time>
      </trkpt>
      <trkpt lat="23.061139" lon="113.280305">
        <time>2026-07-13T22:10:52Z</time>
      </trkpt>
      <trkpt lat="23.061063" lon="113.280462">
        <time>2026-07-13T22:10:57Z</time>
      </trkpt>
      <trkpt lat="23.06099" lon="113.280619">
        <time>2026-07-13T22:11:02Z</time>
      </trkpt>
      <trkpt lat="23.060944" lon="113.280732">
        <time>2026-07-13T22:11:07Z</time>
      </trkpt>
      <trkpt lat="23.0609" lon="113.280841">
        <time>2026-07-13T22:11:12Z</time>
      </trkpt>
      <trkpt lat="23.060835" lon="113.281001">
        <time>2026-07-13T22:11:17Z</time>
      </trkpt>
      <trkpt lat="23.060766" lon="113.281158">
        <time>2026-07-13T22:11:22Z</time>
      </trkpt>
      <trkpt lat="23.060726" lon="113.281266">
        <time>2026-07-13T22:11:27Z</time>
      </trkpt>
      <trkpt lat="23.060685" lon="113.281372">
        <time>2026-07-13T22:11:32Z</time>
      </trkpt>
      <trkpt lat="23.06062" lon="113.281523">
        <time>2026-07-13T22:11:37Z</time>
      </trkpt>
      <trkpt lat="23.060547" lon="113.281667">
        <time>2026-07-13T22:11:42Z</time>
      </trkpt>
      <trkpt lat="23.060498" lon="113.281772">
        <time>2026-07-13T22:11:47Z</time>
      </trkpt>
      <trkpt lat="23.060448" lon="113.281878">
        <time>2026-07-13T22:11:52Z</time>
      </trkpt>
      <trkpt lat="23.060372" lon="113.282034">
        <time>2026-07-13T22:11:57Z</time>
      </trkpt>
      <trkpt lat="23.06031" lon="113.282189">
        <time>2026-07-13T22:12:02Z</time>
      </trkpt>
      <trkpt lat="23.06027" lon="113.282295">
        <time>2026-07-13T22:12:07Z</time>
      </trkpt>
      <trkpt lat="23.060226" lon="113.282398">
        <time>2026-07-13T22:12:12Z</time>
      </trkpt>
      <trkpt lat="23.060167" lon="113.282555">
        <time>2026-07-13T22:12:17Z</time>
      </trkpt>
      <trkpt lat="23.060107" lon="113.282713">
        <time>2026-07-13T22:12:22Z</time>
      </trkpt>
      <trkpt lat="23.060069" lon="113.28282">
        <time>2026-07-13T22:12:27Z</time>
      </trkpt>
      <trkpt lat="23.060025" lon="113.282925">
        <time>2026-07-13T22:12:32Z</time>
      </trkpt>
      <trkpt lat="23.059956" lon="113.283085">
        <time>2026-07-13T22:12:37Z</time>
      </trkpt>
      <trkpt lat="23.05989" lon="113.283241">
        <time>2026-07-13T22:12:42Z</time>
      </trkpt>
      <trkpt lat="23.059838" lon="113.283333">
        <time>2026-07-13T22:12:47Z</time>
      </trkpt>
      <trkpt lat="23.059787" lon="113.283433">
        <time>2026-07-13T22:12:52Z</time>
      </trkpt>
      <trkpt lat="23.059715" lon="113.28359">
        <time>2026-07-13T22:12:57Z</time>
      </trkpt>
      <trkpt lat="23.059641" lon="113.283748">
        <time>2026-07-13T22:13:02Z</time>
      </trkpt>
      <trkpt lat="23.059595" lon="113.283867">
        <time>2026-07-13T22:13:07Z</time>
      </trkpt>
      <trkpt lat="23.059546" lon="113.28399">
        <time>2026-07-13T22:13:12Z</time>
      </trkpt>
      <trkpt lat="23.059468" lon="113.284184">
        <time>2026-07-13T22:13:17Z</time>
      </trkpt>
      <trkpt lat="23.059392" lon="113.284371">
        <time>2026-07-13T22:13:22Z</time>
      </trkpt>
      <trkpt lat="23.059342" lon="113.284487">
        <time>2026-07-13T22:13:27Z</time>
      </trkpt>
      <trkpt lat="23.059291" lon="113.284594">
        <time>2026-07-13T22:13:32Z</time>
      </trkpt>
      <trkpt lat="23.059217" lon="113.28475">
        <time>2026-07-13T22:13:37Z</time>
      </trkpt>
      <trkpt lat="23.059153" lon="113.284908">
        <time>2026-07-13T22:13:42Z</time>
      </trkpt>
      <trkpt lat="23.059107" lon="113.285015">
        <time>2026-07-13T22:13:47Z</time>
      </trkpt>
      <trkpt lat="23.059061" lon="113.285119">
        <time>2026-07-13T22:13:52Z</time>
      </trkpt>
      <trkpt lat="23.058992" lon="113.285275">
        <time>2026-07-13T22:13:57Z</time>
      </trkpt>
      <trkpt lat="23.058925" lon="113.285433">
        <time>2026-07-13T22:14:02Z</time>
      </trkpt>
      <trkpt lat="23.058883" lon="113.285539">
        <time>2026-07-13T22:14:07Z</time>
      </trkpt>
      <trkpt lat="23.058838" lon="113.28565">
        <time>2026-07-13T22:14:12Z</time>
      </trkpt>
      <trkpt lat="23.058768" lon="113.28582">
        <time>2026-07-13T22:14:17Z</time>
      </trkpt>
      <trkpt lat="23.058697" lon="113.285988">
        <time>2026-07-13T22:14:22Z</time>
      </trkpt>
      <trkpt lat="23.058652" lon="113.286097">
        <time>2026-07-13T22:14:27Z</time>
      </trkpt>
      <trkpt lat="23.058636" lon="113.286208">
        <time>2026-07-13T22:14:32Z</time>
      </trkpt>
      <trkpt lat="23.058707" lon="113.286339">
        <time>2026-07-13T22:14:37Z</time>
      </trkpt>
      <trkpt lat="23.058855" lon="113.286373">
        <time>2026-07-13T22:14:42Z</time>
      </trkpt>
      <trkpt lat="23.058952" lon="113.286387">
        <time>2026-07-13T22:14:47Z</time>
      </trkpt>
      <trkpt lat="23.05905" lon="113.286405">
        <time>2026-07-13T22:14:52Z</time>
      </trkpt>
      <trkpt lat="23.059204" lon="113.286429">
        <time>2026-07-13T22:14:57Z</time>
      </trkpt>
      <trkpt lat="23.059361" lon="113.286453">
        <time>2026-07-13T22:15:02Z</time>
      </trkpt>
      <trkpt lat="23.059467" lon="113.286462">
        <time>2026-07-13T22:15:07Z</time>
      </trkpt>
      <trkpt lat="23.05957" lon="113.286474">
        <time>2026-07-13T22:15:12Z</time>
      </trkpt>
      <trkpt lat="23.059719" lon="113.286488">
        <time>2026-07-13T22:15:17Z</time>
      </trkpt>
      <trkpt lat="23.059865" lon="113.286508">
        <time>2026-07-13T22:15:22Z</time>
      </trkpt>
      <trkpt lat="23.059962" lon="113.28653">
        <time>2026-07-13T22:15:27Z</time>
      </trkpt>
      <trkpt lat="23.060044" lon="113.286592">
        <time>2026-07-13T22:15:32Z</time>
      </trkpt>
      <trkpt lat="23.060097" lon="113.286733">
        <time>2026-07-13T22:15:37Z</time>
      </trkpt>
      <trkpt lat="23.060092" lon="113.286882">
        <time>2026-07-13T22:15:42Z</time>
      </trkpt>
      <trkpt lat="23.060097" lon="113.28699">
        <time>2026-07-13T22:15:47Z</time>
      </trkpt>
      <trkpt lat="23.060104" lon="113.287101">
        <time>2026-07-13T22:15:52Z</time>
      </trkpt>
      <trkpt lat="23.060121" lon="113.287265">
        <time>2026-07-13T22:15:57Z</time>
      </trkpt>
      <trkpt lat="23.060121" lon="113.287434">
        <time>2026-07-13T22:16:02Z</time>
      </trkpt>
      <trkpt lat="23.060094" lon="113.287549">
        <time>2026-07-13T22:16:07Z</time>
      </trkpt>
      <trkpt lat="23.06007" lon="113.287673">
        <time>2026-07-13T22:16:12Z</time>
      </trkpt>
      <trkpt lat="23.060115" lon="113.287838">
        <time>2026-07-13T22:16:17Z</time>
      </trkpt>
      <trkpt lat="23.06024" lon="113.287836">
        <time>2026-07-13T22:16:22Z</time>
      </trkpt>
      <trkpt lat="23.060241" lon="113.287752">
        <time>2026-07-13T22:16:27Z</time>
      </trkpt>
      <trkpt lat="23.060228" lon="113.287659">
        <time>2026-07-13T22:16:32Z</time>
      </trkpt>
      <trkpt lat="23.0602" lon="113.287489">
        <time>2026-07-13T22:16:37Z</time>
      </trkpt>
      <trkpt lat="23.060165" lon="113.287316">
        <time>2026-07-13T22:16:42Z</time>
      </trkpt>
      <trkpt lat="23.06013" lon="113.287186">
        <time>2026-07-13T22:16:47Z</time>
      </trkpt>
      <trkpt lat="23.060083" lon="113.287069">
        <time>2026-07-13T22:16:52Z</time>
      </trkpt>
      <trkpt lat="23.060016" lon="113.28687">
        <time>2026-07-13T22:16:57Z</time>
      </trkpt>
      <trkpt lat="23.060017" lon="113.286678">
        <time>2026-07-13T22:17:02Z</time>
      </trkpt>
      <trkpt lat="23.060052" lon="113.286576">
        <time>2026-07-13T22:17:07Z</time>
      </trkpt>
      <trkpt lat="23.060199" lon="113.286505">
        <time>2026-07-13T22:17:12Z</time>
      </trkpt>
      <trkpt lat="23.060383" lon="113.286491">
        <time>2026-07-13T22:17:17Z</time>
      </trkpt>
      <trkpt lat="23.060535" lon="113.286535">
        <time>2026-07-13T22:17:22Z</time>
      </trkpt>
      <trkpt lat="23.060628" lon="113.286589">
        <time>2026-07-13T22:17:27Z</time>
      </trkpt>
      <trkpt lat="23.060712" lon="113.28664">
        <time>2026-07-13T22:17:32Z</time>
      </trkpt>
      <trkpt lat="23.06087" lon="113.286655">
        <time>2026-07-13T22:17:37Z</time>
      </trkpt>
      <trkpt lat="23.06105" lon="113.286611">
        <time>2026-07-13T22:17:42Z</time>
      </trkpt>
      <trkpt lat="23.061171" lon="113.286562">
        <time>2026-07-13T22:17:47Z</time>
      </trkpt>
      <trkpt lat="23.06127" lon="113.286551">
        <time>2026-07-13T22:17:52Z</time>
      </trkpt>
      <trkpt lat="23.061395" lon="113.286532">
        <time>2026-07-13T22:17:57Z</time>
      </trkpt>
      <trkpt lat="23.061551" lon="113.286493">
        <time>2026-07-13T22:18:02Z</time>
      </trkpt>
      <trkpt lat="23.061663" lon="113.28647">
        <time>2026-07-13T22:18:07Z</time>
      </trkpt>
      <trkpt lat="23.06178" lon="113.286466">
        <time>2026-07-13T22:18:12Z</time>
      </trkpt>
      <trkpt lat="23.061958" lon="113.28645">
        <time>2026-07-13T22:18:17Z</time>
      </trkpt>
      <trkpt lat="23.062054" lon="113.286325">
        <time>2026-07-13T22:18:22Z</time>
      </trkpt>
      <trkpt lat="23.062077" lon="113.286213">
        <time>2026-07-13T22:18:27Z</time>
      </trkpt>
      <trkpt lat="23.062069" lon="113.2861">
        <time>2026-07-13T22:18:32Z</time>
      </trkpt>
      <trkpt lat="23.062045" lon="113.285925">
        <time>2026-07-13T22:18:37Z</time>
      </trkpt>
      <trkpt lat="23.062042" lon="113.285741">
        <time>2026-07-13T22:18:42Z</time>
      </trkpt>
      <trkpt lat="23.062031" lon="113.285636">
        <time>2026-07-13T22:18:47Z</time>
      </trkpt>
      <trkpt lat="23.062019" lon="113.285524">
        <time>2026-07-13T22:18:52Z</time>
      </trkpt>
      <trkpt lat="23.062029" lon="113.285348">
        <time>2026-07-13T22:18:57Z</time>
      </trkpt>
      <trkpt lat="23.062069" lon="113.28518">
        <time>2026-07-13T22:19:02Z</time>
      </trkpt>
      <trkpt lat="23.062087" lon="113.285085">
        <time>2026-07-13T22:19:07Z</time>
      </trkpt>
      <trkpt lat="23.062092" lon="113.284984">
        <time>2026-07-13T22:19:12Z</time>
      </trkpt>
      <trkpt lat="23.062094" lon="113.284833">
        <time>2026-07-13T22:19:17Z</time>
      </trkpt>
      <trkpt lat="23.062087" lon="113.284668">
        <time>2026-07-13T22:19:22Z</time>
      </trkpt>
      <trkpt lat="23.062067" lon="113.284551">
        <time>2026-07-13T22:19:27Z</time>
      </trkpt>
      <trkpt lat="23.062036" lon="113.284428">
        <time>2026-07-13T22:19:32Z</time>
      </trkpt>
      <trkpt lat="23.062021" lon="113.284242">
        <time>2026-07-13T22:19:37Z</time>
      </trkpt>
      <trkpt lat="23.062018" lon="113.284046">
        <time>2026-07-13T22:19:42Z</time>
      </trkpt>
      <trkpt lat="23.062045" lon="113.28391">
        <time>2026-07-13T22:19:47Z</time>
      </trkpt>
      <trkpt lat="23.062066" lon="113.283782">
        <time>2026-07-13T22:19:52Z</time>
      </trkpt>
      <trkpt lat="23.062085" lon="113.283625">
        <time>2026-07-13T22:19:57Z</time>
      </trkpt>
      <trkpt lat="23.062062" lon="113.283496">
        <time>2026-07-13T22:20:02Z</time>
      </trkpt>
      <trkpt lat="23.062066" lon="113.283381">
        <time>2026-07-13T22:20:07Z</time>
      </trkpt>
      <trkpt lat="23.062083" lon="113.283251">
        <time>2026-07-13T22:20:12Z</time>
      </trkpt>
      <trkpt lat="23.062106" lon="113.283058">
        <time>2026-07-13T22:20:17Z</time>
      </trkpt>
      <trkpt lat="23.06212" lon="113.282867">
        <time>2026-07-13T22:20:22Z</time>
      </trkpt>
      <trkpt lat="23.062138" lon="113.282742">
        <time>2026-07-13T22:20:27Z</time>
      </trkpt>
      <trkpt lat="23.062143" lon="113.282626">
        <time>2026-07-13T22:20:32Z</time>
      </trkpt>
      <trkpt lat="23.062126" lon="113.282461">
        <time>2026-07-13T22:20:37Z</time>
      </trkpt>
      <trkpt lat="23.062119" lon="113.282287">
        <time>2026-07-13T22:20:42Z</time>
      </trkpt>
      <trkpt lat="23.062054" lon="113.282196">
        <time>2026-07-13T22:20:47Z</time>
      </trkpt>
      <trkpt lat="23.061958" lon="113.282168">
        <time>2026-07-13T22:20:52Z</time>
      </trkpt>
      <trkpt lat="23.061812" lon="113.282168">
        <time>2026-07-13T22:20:57Z</time>
      </trkpt>
      <trkpt lat="23.061652" lon="113.282184">
        <time>2026-07-13T22:21:02Z</time>
      </trkpt>
      <trkpt lat="23.061544" lon="113.28218">
        <time>2026-07-13T22:21:07Z</time>
      </trkpt>
      <trkpt lat="23.061438" lon="113.282173">
        <time>2026-07-13T22:21:12Z</time>
      </trkpt>
      <trkpt lat="23.061274" lon="113.282176">
        <time>2026-07-13T22:21:17Z</time>
      </trkpt>
      <trkpt lat="23.061115" lon="113.282185">
        <time>2026-07-13T22:21:22Z</time>
      </trkpt>
      <trkpt lat="23.061007" lon="113.282198">
        <time>2026-07-13T22:21:27Z</time>
      </trkpt>
      <trkpt lat="23.060899" lon="113.282213">
        <time>2026-07-13T22:21:32Z</time>
      </trkpt>
      <trkpt lat="23.060737" lon="113.282227">
        <time>2026-07-13T22:21:37Z</time>
      </trkpt>
      <trkpt lat="23.060575" lon="113.282285">
        <time>2026-07-13T22:21:42Z</time>
      </trkpt>
      <trkpt lat="23.060495" lon="113.282368">
        <time>2026-07-13T22:21:47Z</time>
      </trkpt>
      <trkpt lat="23.060442" lon="113.282466">
        <time>2026-07-13T22:21:52Z</time>
      </trkpt>
      <trkpt lat="23.060378" lon="113.282618">
        <time>2026-07-13T22:21:57Z</time>
      </trkpt>
      <trkpt lat="23.060319" lon="113.282758">
        <time>2026-07-13T22:22:02Z</time>
      </trkpt>
      <trkpt lat="23.060273" lon="113.28285">
        <time>2026-07-13T22:22:07Z</time>
      </trkpt>
      <trkpt lat="23.060228" lon="113.282945">
        <time>2026-07-13T22:22:12Z</time>
      </trkpt>
      <trkpt lat="23.060165" lon="113.283101">
        <time>2026-07-13T22:22:17Z</time>
      </trkpt>
      <trkpt lat="23.060108" lon="113.283257">
        <time>2026-07-13T22:22:22Z</time>
      </trkpt>
      <trkpt lat="23.060072" lon="113.283365">
        <time>2026-07-13T22:22:27Z</time>
      </trkpt>
      <trkpt lat="23.060009" lon="113.283446">
        <time>2026-07-13T22:22:32Z</time>
      </trkpt>
      <trkpt lat="23.059948" lon="113.28337">
        <time>2026-07-13T22:22:37Z</time>
      </trkpt>
      <trkpt lat="23.060009" lon="113.283201">
        <time>2026-07-13T22:22:42Z</time>
      </trkpt>
      <trkpt lat="23.060053" lon="113.283089">
        <time>2026-07-13T22:22:47Z</time>
      </trkpt>
      <trkpt lat="23.060096" lon="113.282976">
        <time>2026-07-13T22:22:52Z</time>
      </trkpt>
      <trkpt lat="23.060154" lon="113.282804">
        <time>2026-07-13T22:22:57Z</time>
      </trkpt>
      <trkpt lat="23.060211" lon="113.282638">
        <time>2026-07-13T22:23:02Z</time>
      </trkpt>
      <trkpt lat="23.060254" lon="113.282528">
        <time>2026-07-13T22:23:07Z</time>
      </trkpt>
      <trkpt lat="23.060297" lon="113.282419">
        <time>2026-07-13T22:23:12Z</time>
      </trkpt>
      <trkpt lat="23.060363" lon="113.282265">
        <time>2026-07-13T22:23:17Z</time>
      </trkpt>
      <trkpt lat="23.060424" lon="113.282108">
        <time>2026-07-13T22:23:22Z</time>
      </trkpt>
      <trkpt lat="23.060466" lon="113.282005">
        <time>2026-07-13T22:23:27Z</time>
      </trkpt>
      <trkpt lat="23.060512" lon="113.281906">
        <time>2026-07-13T22:23:32Z</time>
      </trkpt>
      <trkpt lat="23.060577" lon="113.281758">
        <time>2026-07-13T22:23:37Z</time>
      </trkpt>
      <trkpt lat="23.060643" lon="113.28159">
        <time>2026-07-13T22:23:42Z</time>
      </trkpt>
      <trkpt lat="23.060691" lon="113.281481">
        <time>2026-07-13T22:23:47Z</time>
      </trkpt>
      <trkpt lat="23.060747" lon="113.281381">
        <time>2026-07-13T22:23:52Z</time>
      </trkpt>
      <trkpt lat="23.060821" lon="113.281224">
        <time>2026-07-13T22:23:57Z</time>
      </trkpt>
      <trkpt lat="23.060886" lon="113.281063">
        <time>2026-07-13T22:24:02Z</time>
      </trkpt>
      <trkpt lat="23.060931" lon="113.280956">
        <time>2026-07-13T22:24:07Z</time>
      </trkpt>
      <trkpt lat="23.060972" lon="113.280854">
        <time>2026-07-13T22:24:12Z</time>
      </trkpt>
      <trkpt lat="23.061043" lon="113.280694">
        <time>2026-07-13T22:24:17Z</time>
      </trkpt>
      <trkpt lat="23.061125" lon="113.28053">
        <time>2026-07-13T22:24:22Z</time>
      </trkpt>
      <trkpt lat="23.061173" lon="113.280425">
        <time>2026-07-13T22:24:27Z</time>
      </trkpt>
      <trkpt lat="23.06122" lon="113.280326">
        <time>2026-07-13T22:24:32Z</time>
      </trkpt>
      <trkpt lat="23.061295" lon="113.28018">
        <time>2026-07-13T22:24:37Z</time>
      </trkpt>
      <trkpt lat="23.061363" lon="113.280038">
        <time>2026-07-13T22:24:42Z</time>
      </trkpt>
      <trkpt lat="23.061399" lon="113.279942">
        <time>2026-07-13T22:24:47Z</time>
      </trkpt>
      <trkpt lat="23.061429" lon="113.279843">
        <time>2026-07-13T22:24:52Z</time>
      </trkpt>
      <trkpt lat="23.061475" lon="113.279701">
        <time>2026-07-13T22:24:57Z</time>
      </trkpt>
      <trkpt lat="23.061535" lon="113.27956">
        <time>2026-07-13T22:25:02Z</time>
      </trkpt>
      <trkpt lat="23.061575" lon="113.279466">
        <time>2026-07-13T22:25:07Z</time>
      </trkpt>
      <trkpt lat="23.061614" lon="113.279368">
        <time>2026-07-13T22:25:12Z</time>
      </trkpt>
      <trkpt lat="23.061682" lon="113.279226">
        <time>2026-07-13T22:25:17Z</time>
      </trkpt>
      <trkpt lat="23.061769" lon="113.279081">
        <time>2026-07-13T22:25:22Z</time>
      </trkpt>
      <trkpt lat="23.061835" lon="113.278989">
        <time>2026-07-13T22:25:27Z</time>
      </trkpt>
      <trkpt lat="23.061899" lon="113.27889">
        <time>2026-07-13T22:25:32Z</time>
      </trkpt>
      <trkpt lat="23.061948" lon="113.278722">
        <time>2026-07-13T22:25:37Z</time>
      </trkpt>
      <trkpt lat="23.061946" lon="113.278556">
        <time>2026-07-13T22:25:42Z</time>
      </trkpt>
      <trkpt lat="23.061937" lon="113.278445">
        <time>2026-07-13T22:25:47Z</time>
      </trkpt>
      <trkpt lat="23.061934" lon="113.278334">
        <time>2026-07-13T22:25:52Z</time>
      </trkpt>
      <trkpt lat="23.061924" lon="113.278169">
        <time>2026-07-13T22:25:57Z</time>
      </trkpt>
      <trkpt lat="23.061912" lon="113.277998">
        <time>2026-07-13T22:26:02Z</time>
      </trkpt>
      <trkpt lat="23.061906" lon="113.277885">
        <time>2026-07-13T22:26:07Z</time>
      </trkpt>
      <trkpt lat="23.061911" lon="113.277773">
        <time>2026-07-13T22:26:12Z</time>
      </trkpt>
      <trkpt lat="23.061955" lon="113.277605">
        <time>2026-07-13T22:26:17Z</time>
      </trkpt>
      <trkpt lat="23.062023" lon="113.277445">
        <time>2026-07-13T22:26:22Z</time>
      </trkpt>
      <trkpt lat="23.062065" lon="113.277345">
        <time>2026-07-13T22:26:27Z</time>
      </trkpt>
      <trkpt lat="23.062102" lon="113.277246">
        <time>2026-07-13T22:26:32Z</time>
      </trkpt>
      <trkpt lat="23.062154" lon="113.277095">
        <time>2026-07-13T22:26:37Z</time>
      </trkpt>
      <trkpt lat="23.062203" lon="113.276949">
        <time>2026-07-13T22:26:42Z</time>
      </trkpt>
      <trkpt lat="23.062236" lon="113.276853">
        <time>2026-07-13T22:26:47Z</time>
      </trkpt>
      <trkpt lat="23.062275" lon="113.276756">
        <time>2026-07-13T22:26:52Z</time>
      </trkpt>
      <trkpt lat="23.062329" lon="113.276598">
        <time>2026-07-13T22:26:57Z</time>
      </trkpt>
      <trkpt lat="23.062386" lon="113.276437">
        <time>2026-07-13T22:27:02Z</time>
      </trkpt>
      <trkpt lat="23.062425" lon="113.276335">
        <time>2026-07-13T22:27:07Z</time>
      </trkpt>
      <trkpt lat="23.062471" lon="113.276236">
        <time>2026-07-13T22:27:12Z</time>
      </trkpt>
      <trkpt lat="23.062553" lon="113.276086">
        <time>2026-07-13T22:27:17Z</time>
      </trkpt>
      <trkpt lat="23.062648" lon="113.27595">
        <time>2026-07-13T22:27:22Z</time>
      </trkpt>
      <trkpt lat="23.062721" lon="113.275859">
        <time>2026-07-13T22:27:27Z</time>
      </trkpt>
      <trkpt lat="23.062802" lon="113.275777">
        <time>2026-07-13T22:27:32Z</time>
      </trkpt>
      <trkpt lat="23.062929" lon="113.275662">
        <time>2026-07-13T22:27:37Z</time>
      </trkpt>
      <trkpt lat="23.063034" lon="113.275531">
        <time>2026-07-13T22:27:42Z</time>
      </trkpt>
      <trkpt lat="23.063092" lon="113.275433">
        <time>2026-07-13T22:27:47Z</time>
      </trkpt>
      <trkpt lat="23.063152" lon="113.275336">
        <time>2026-07-13T22:27:52Z</time>
      </trkpt>
      <trkpt lat="23.06324" lon="113.275189">
        <time>2026-07-13T22:27:57Z</time>
      </trkpt>
      <trkpt lat="23.06332" lon="113.275042">
        <time>2026-07-13T22:28:02Z</time>
      </trkpt>
      <trkpt lat="23.063359" lon="113.274942">
        <time>2026-07-13T22:28:07Z</time>
      </trkpt>
      <trkpt lat="23.063391" lon="113.274841">
        <time>2026-07-13T22:28:12Z</time>
      </trkpt>
      <trkpt lat="23.06344" lon="113.274692">
        <time>2026-07-13T22:28:17Z</time>
      </trkpt>
      <trkpt lat="23.06349" lon="113.274544">
        <time>2026-07-13T22:28:22Z</time>
      </trkpt>
      <trkpt lat="23.063533" lon="113.274451">
        <time>2026-07-13T22:28:27Z</time>
      </trkpt>
      <trkpt lat="23.063576" lon="113.274361">
        <time>2026-07-13T22:28:32Z</time>
      </trkpt>
      <trkpt lat="23.063668" lon="113.274243">
        <time>2026-07-13T22:28:37Z</time>
      </trkpt>
      <trkpt lat="23.063798" lon="113.274139">
        <time>2026-07-13T22:28:42Z</time>
      </trkpt>
      <trkpt lat="23.063856" lon="113.274046">
        <time>2026-07-13T22:28:47Z</time>
      </trkpt>
      <trkpt lat="23.063906" lon="113.273947">
        <time>2026-07-13T22:28:52Z</time>
      </trkpt>
      <trkpt lat="23.063986" lon="113.273806">
        <time>2026-07-13T22:28:57Z</time>
      </trkpt>
      <trkpt lat="23.064094" lon="113.273689">
        <time>2026-07-13T22:29:02Z</time>
      </trkpt>
      <trkpt lat="23.06418" lon="113.273626">
        <time>2026-07-13T22:29:07Z</time>
      </trkpt>
      <trkpt lat="23.064266" lon="113.273564">
        <time>2026-07-13T22:29:12Z</time>
      </trkpt>
      <trkpt lat="23.064386" lon="113.27347">
        <time>2026-07-13T22:29:17Z</time>
      </trkpt>
      <trkpt lat="23.064499" lon="113.273365">
        <time>2026-07-13T22:29:22Z</time>
      </trkpt>
      <trkpt lat="23.064549" lon="113.273271">
        <time>2026-07-13T22:29:27Z</time>
      </trkpt>
      <trkpt lat="23.06456" lon="113.273155">
        <time>2026-07-13T22:29:32Z</time>
      </trkpt>
      <trkpt lat="23.06452" lon="113.272976">
        <time>2026-07-13T22:29:37Z</time>
      </trkpt>
      <trkpt lat="23.064458" lon="113.272809">
        <time>2026-07-13T22:29:42Z</time>
      </trkpt>
      <trkpt lat="23.064425" lon="113.272701">
        <time>2026-07-13T22:29:47Z</time>
      </trkpt>
      <trkpt lat="23.064412" lon="113.272595">
        <time>2026-07-13T22:29:52Z</time>
      </trkpt>
      <trkpt lat="23.064479" lon="113.272436">
        <time>2026-07-13T22:29:57Z</time>
      </trkpt>
      <trkpt lat="23.064541" lon="113.272272">
        <time>2026-07-13T22:30:02Z</time>
      </trkpt>
      <trkpt lat="23.064565" lon="113.272161">
        <time>2026-07-13T22:30:07Z</time>
      </trkpt>
      <trkpt lat="23.064607" lon="113.272064">
        <time>2026-07-13T22:30:12Z</time>
      </trkpt>
      <trkpt lat="23.064674" lon="113.271926">
        <time>2026-07-13T22:30:17Z</time>
      </trkpt>
      <trkpt lat="23.064737" lon="113.271786">
        <time>2026-07-13T22:30:22Z</time>
      </trkpt>
      <trkpt lat="23.06478" lon="113.271687">
        <time>2026-07-13T22:30:27Z</time>
      </trkpt>
      <trkpt lat="23.06482" lon="113.271582">
        <time>2026-07-13T22:30:32Z</time>
      </trkpt>
      <trkpt lat="23.064883" lon="113.271438">
        <time>2026-07-13T22:30:37Z</time>
      </trkpt>
      <trkpt lat="23.064946" lon="113.271293">
        <time>2026-07-13T22:30:42Z</time>
      </trkpt>
      <trkpt lat="23.064999" lon="113.271195">
        <time>2026-07-13T22:30:47Z</time>
      </trkpt>
      <trkpt lat="23.065053" lon="113.271099">
        <time>2026-07-13T22:30:52Z</time>
      </trkpt>
      <trkpt lat="23.065127" lon="113.270946">
        <time>2026-07-13T22:30:57Z</time>
      </trkpt>
      <trkpt lat="23.065197" lon="113.270797">
        <time>2026-07-13T22:31:02Z</time>
      </trkpt>
      <trkpt lat="23.065248" lon="113.270699">
        <time>2026-07-13T22:31:07Z</time>
      </trkpt>
      <trkpt lat="23.0653" lon="113.270605">
        <time>2026-07-13T22:31:12Z</time>
      </trkpt>
      <trkpt lat="23.065374" lon="113.270458">
        <time>2026-07-13T22:31:17Z</time>
      </trkpt>
      <trkpt lat="23.065442" lon="113.270312">
        <time>2026-07-13T22:31:22Z</time>
      </trkpt>
      <trkpt lat="23.065484" lon="113.270213">
        <time>2026-07-13T22:31:27Z</time>
      </trkpt>
      <trkpt lat="23.065524" lon="113.270112">
        <time>2026-07-13T22:31:32Z</time>
      </trkpt>
      <trkpt lat="23.065573" lon="113.26996">
        <time>2026-07-13T22:31:37Z</time>
      </trkpt>
      <trkpt lat="23.065619" lon="113.269804">
        <time>2026-07-13T22:31:42Z</time>
      </trkpt>
      <trkpt lat="23.065653" lon="113.269695">
        <time>2026-07-13T22:31:47Z</time>
      </trkpt>
      <trkpt lat="23.065694" lon="113.269585">
        <time>2026-07-13T22:31:52Z</time>
      </trkpt>
      <trkpt lat="23.065729" lon="113.269421">
        <time>2026-07-13T22:31:57Z</time>
      </trkpt>
      <trkpt lat="23.065763" lon="113.269252">
        <time>2026-07-13T22:32:02Z</time>
      </trkpt>
      <trkpt lat="23.065794" lon="113.269143">
        <time>2026-07-13T22:32:07Z</time>
      </trkpt>
      <trkpt lat="23.065832" lon="113.269038">
        <time>2026-07-13T22:32:12Z</time>
      </trkpt>
      <trkpt lat="23.065895" lon="113.26888">
        <time>2026-07-13T22:32:17Z</time>
      </trkpt>
      <trkpt lat="23.065963" lon="113.268726">
        <time>2026-07-13T22:32:22Z</time>
      </trkpt>
      <trkpt lat="23.066015" lon="113.268626">
        <time>2026-07-13T22:32:27Z</time>
      </trkpt>
      <trkpt lat="23.066072" lon="113.268529">
        <time>2026-07-13T22:32:32Z</time>
      </trkpt>
      <trkpt lat="23.06617" lon="113.268385">
        <time>2026-07-13T22:32:37Z</time>
      </trkpt>
      <trkpt lat="23.066277" lon="113.268252">
        <time>2026-07-13T22:32:42Z</time>
      </trkpt>
      <trkpt lat="23.066357" lon="113.268178">
        <time>2026-07-13T22:32:47Z</time>
      </trkpt>
      <trkpt lat="23.066457" lon="113.268139">
        <time>2026-07-13T22:32:52Z</time>
      </trkpt>
      <trkpt lat="23.066618" lon="113.26815">
        <time>2026-07-13T22:32:57Z</time>
      </trkpt>
      <trkpt lat="23.066774" lon="113.268155">
        <time>2026-07-13T22:33:02Z</time>
      </trkpt>
      <trkpt lat="23.066886" lon="113.268159">
        <time>2026-07-13T22:33:07Z</time>
      </trkpt>
      <trkpt lat="23.066996" lon="113.268188">
        <time>2026-07-13T22:33:12Z</time>
      </trkpt>
      <trkpt lat="23.067128" lon="113.268262">
        <time>2026-07-13T22:33:17Z</time>
      </trkpt>
      <trkpt lat="23.067261" lon="113.268333">
        <time>2026-07-13T22:33:22Z</time>
      </trkpt>
      <trkpt lat="23.067347" lon="113.26838">
        <time>2026-07-13T22:33:27Z</time>
      </trkpt>
      <trkpt lat="23.067431" lon="113.268428">
        <time>2026-07-13T22:33:32Z</time>
      </trkpt>
      <trkpt lat="23.067573" lon="113.268513">
        <time>2026-07-13T22:33:37Z</time>
      </trkpt>
      <trkpt lat="23.067725" lon="113.268594">
        <time>2026-07-13T22:33:42Z</time>
      </trkpt>
      <trkpt lat="23.067825" lon="113.268634">
        <time>2026-07-13T22:33:47Z</time>
      </trkpt>
      <trkpt lat="23.067895" lon="113.268609">
        <time>2026-07-13T22:33:52Z</time>
      </trkpt>
      <trkpt lat="23.067798" lon="113.268502">
        <time>2026-07-13T22:33:57Z</time>
      </trkpt>
      <trkpt lat="23.06765" lon="113.268423">
        <time>2026-07-13T22:34:02Z</time>
      </trkpt>
      <trkpt lat="23.067553" lon="113.268372">
        <time>2026-07-13T22:34:07Z</time>
      </trkpt>
      <trkpt lat="23.067456" lon="113.268317">
        <time>2026-07-13T22:34:12Z</time>
      </trkpt>
      <trkpt lat="23.067308" lon="113.268241">
        <time>2026-07-13T22:34:17Z</time>
      </trkpt>
      <trkpt lat="23.067173" lon="113.268176">
        <time>2026-07-13T22:34:22Z</time>
      </trkpt>
      <trkpt lat="23.067083" lon="113.268124">
        <time>2026-07-13T22:34:27Z</time>
      </trkpt>
      <trkpt lat="23.06699" lon="113.268084">
        <time>2026-07-13T22:34:32Z</time>
      </trkpt>
      <trkpt lat="23.06685" lon="113.268055">
        <time>2026-07-13T22:34:37Z</time>
      </trkpt>
      <trkpt lat="23.066696" lon="113.268046">
        <time>2026-07-13T22:34:42Z</time>
      </trkpt>
      <trkpt lat="23.066597" lon="113.268031">
        <time>2026-07-13T22:34:47Z</time>
      </trkpt>
      <trkpt lat="23.0665" lon="113.26799">
        <time>2026-07-13T22:34:52Z</time>
      </trkpt>
      <trkpt lat="23.066354" lon="113.267966">
        <time>2026-07-13T22:34:57Z</time>
      </trkpt>
      <trkpt lat="23.066207" lon="113.268021">
        <time>2026-07-13T22:35:02Z</time>
      </trkpt>
      <trkpt lat="23.066128" lon="113.268092">
        <time>2026-07-13T22:35:07Z</time>
      </trkpt>
      <trkpt lat="23.066056" lon="113.268175">
        <time>2026-07-13T22:35:12Z</time>
      </trkpt>
      <trkpt lat="23.065954" lon="113.268299">
        <time>2026-07-13T22:35:17Z</time>
      </trkpt>
      <trkpt lat="23.065864" lon="113.268433">
        <time>2026-07-13T22:35:22Z</time>
      </trkpt>
      <trkpt lat="23.065806" lon="113.268524">
        <time>2026-07-13T22:35:27Z</time>
      </trkpt>
      <trkpt lat="23.065753" lon="113.268615">
        <time>2026-07-13T22:35:32Z</time>
      </trkpt>
      <trkpt lat="23.065688" lon="113.268763">
        <time>2026-07-13T22:35:37Z</time>
      </trkpt>
      <trkpt lat="23.06563" lon="113.268914">
        <time>2026-07-13T22:35:42Z</time>
      </trkpt>
      <trkpt lat="23.065593" lon="113.269018">
        <time>2026-07-13T22:35:47Z</time>
      </trkpt>
      <trkpt lat="23.065562" lon="113.269125">
        <time>2026-07-13T22:35:52Z</time>
      </trkpt>
      <trkpt lat="23.065522" lon="113.269291">
        <time>2026-07-13T22:35:57Z</time>
      </trkpt>
      <trkpt lat="23.065491" lon="113.26946">
        <time>2026-07-13T22:36:02Z</time>
      </trkpt>
      <trkpt lat="23.065467" lon="113.269569">
        <time>2026-07-13T22:36:07Z</time>
      </trkpt>
      <trkpt lat="23.065443" lon="113.269674">
        <time>2026-07-13T22:36:12Z</time>
      </trkpt>
      <trkpt lat="23.065401" lon="113.269827">
        <time>2026-07-13T22:36:17Z</time>
      </trkpt>
      <trkpt lat="23.06534" lon="113.269972">
        <time>2026-07-13T22:36:22Z</time>
      </trkpt>
      <trkpt lat="23.0653" lon="113.270076">
        <time>2026-07-13T22:36:27Z</time>
      </trkpt>
      <trkpt lat="23.065255" lon="113.270183">
        <time>2026-07-13T22:36:32Z</time>
      </trkpt>
      <trkpt lat="23.06519" lon="113.27034">
        <time>2026-07-13T22:36:37Z</time>
      </trkpt>
      <trkpt lat="23.065121" lon="113.27049">
        <time>2026-07-13T22:36:42Z</time>
      </trkpt>
      <trkpt lat="23.065074" lon="113.270588">
        <time>2026-07-13T22:36:47Z</time>
      </trkpt>
      <trkpt lat="23.065031" lon="113.270688">
        <time>2026-07-13T22:36:52Z</time>
      </trkpt>
      <trkpt lat="23.064961" lon="113.270829">
        <time>2026-07-13T22:36:57Z</time>
      </trkpt>
      <trkpt lat="23.0649" lon="113.270975">
        <time>2026-07-13T22:37:02Z</time>
      </trkpt>
      <trkpt lat="23.064857" lon="113.271073">
        <time>2026-07-13T22:37:07Z</time>
      </trkpt>
      <trkpt lat="23.06481" lon="113.271171">
        <time>2026-07-13T22:37:12Z</time>
      </trkpt>
      <trkpt lat="23.064739" lon="113.271316">
        <time>2026-07-13T22:37:17Z</time>
      </trkpt>
      <trkpt lat="23.064676" lon="113.271464">
        <time>2026-07-13T22:37:22Z</time>
      </trkpt>
      <trkpt lat="23.064634" lon="113.271558">
        <time>2026-07-13T22:37:27Z</time>
      </trkpt>
      <trkpt lat="23.06459" lon="113.271653">
        <time>2026-07-13T22:37:32Z</time>
      </trkpt>
      <trkpt lat="23.064527" lon="113.271809">
        <time>2026-07-13T22:37:37Z</time>
      </trkpt>
      <trkpt lat="23.064457" lon="113.271954">
        <time>2026-07-13T22:37:42Z</time>
      </trkpt>
      <trkpt lat="23.064413" lon="113.272051">
        <time>2026-07-13T22:37:47Z</time>
      </trkpt>
      <trkpt lat="23.064372" lon="113.272153">
        <time>2026-07-13T22:37:52Z</time>
      </trkpt>
      <trkpt lat="23.064332" lon="113.272311">
        <time>2026-07-13T22:37:57Z</time>
      </trkpt>
      <trkpt lat="23.064317" lon="113.272472">
        <time>2026-07-13T22:38:02Z</time>
      </trkpt>
      <trkpt lat="23.064319" lon="113.272576">
        <time>2026-07-13T22:38:07Z</time>
      </trkpt>
      <trkpt lat="23.06434" lon="113.27268">
        <time>2026-07-13T22:38:12Z</time>
      </trkpt>
      <trkpt lat="23.064386" lon="113.272827">
        <time>2026-07-13T22:38:17Z</time>
      </trkpt>
      <trkpt lat="23.064434" lon="113.272972">
        <time>2026-07-13T22:38:22Z</time>
      </trkpt>
      <trkpt lat="23.064467" lon="113.273072">
        <time>2026-07-13T22:38:27Z</time>
      </trkpt>
      <trkpt lat="23.064473" lon="113.273179">
        <time>2026-07-13T22:38:32Z</time>
      </trkpt>
      <trkpt lat="23.064396" lon="113.273329">
        <time>2026-07-13T22:38:37Z</time>
      </trkpt>
      <trkpt lat="23.06427" lon="113.273433">
        <time>2026-07-13T22:38:42Z</time>
      </trkpt>
      <trkpt lat="23.064187" lon="113.273498">
        <time>2026-07-13T22:38:47Z</time>
      </trkpt>
      <trkpt lat="23.064105" lon="113.273559">
        <time>2026-07-13T22:38:52Z</time>
      </trkpt>
      <trkpt lat="23.063983" lon="113.273655">
        <time>2026-07-13T22:38:57Z</time>
      </trkpt>
      <trkpt lat="23.063881" lon="113.273779">
        <time>2026-07-13T22:39:02Z</time>
      </trkpt>
      <trkpt lat="23.063823" lon="113.273868">
        <time>2026-07-13T22:39:07Z</time>
      </trkpt>
      <trkpt lat="23.063773" lon="113.273963">
        <time>2026-07-13T22:39:12Z</time>
      </trkpt>
      <trkpt lat="23.063685" lon="113.274099">
        <time>2026-07-13T22:39:17Z</time>
      </trkpt>
      <trkpt lat="23.063559" lon="113.274193">
        <time>2026-07-13T22:39:22Z</time>
      </trkpt>
      <trkpt lat="23.063506" lon="113.274281">
        <time>2026-07-13T22:39:27Z</time>
      </trkpt>
      <trkpt lat="23.063467" lon="113.274385">
        <time>2026-07-13T22:39:32Z</time>
      </trkpt>
      <trkpt lat="23.063406" lon="113.274548">
        <time>2026-07-13T22:39:37Z</time>
      </trkpt>
      <trkpt lat="23.063348" lon="113.274718">
        <time>2026-07-13T22:39:42Z</time>
      </trkpt>
      <trkpt lat="23.063313" lon="113.274822">
        <time>2026-07-13T22:39:47Z</time>
      </trkpt>
      <trkpt lat="23.06328" lon="113.274927">
        <time>2026-07-13T22:39:52Z</time>
      </trkpt>
      <trkpt lat="23.063213" lon="113.27508">
        <time>2026-07-13T22:39:57Z</time>
      </trkpt>
      <trkpt lat="23.063127" lon="113.275228">
        <time>2026-07-13T22:40:02Z</time>
      </trkpt>
      <trkpt lat="23.063071" lon="113.275323">
        <time>2026-07-13T22:40:07Z</time>
      </trkpt>
      <trkpt lat="23.06302" lon="113.275413">
        <time>2026-07-13T22:40:12Z</time>
      </trkpt>
      <trkpt lat="23.062923" lon="113.275545">
        <time>2026-07-13T22:40:17Z</time>
      </trkpt>
      <trkpt lat="23.062811" lon="113.27567">
        <time>2026-07-13T22:40:22Z</time>
      </trkpt>
      <trkpt lat="23.062732" lon="113.275749">
        <time>2026-07-13T22:40:27Z</time>
      </trkpt>
      <trkpt lat="23.062657" lon="113.275831">
        <time>2026-07-13T22:40:32Z</time>
      </trkpt>
      <trkpt lat="23.062559" lon="113.275958">
        <time>2026-07-13T22:40:37Z</time>
      </trkpt>
      <trkpt lat="23.062477" lon="113.276091">
        <time>2026-07-13T22:40:42Z</time>
      </trkpt>
      <trkpt lat="23.062431" lon="113.276184">
        <time>2026-07-13T22:40:47Z</time>
      </trkpt>
      <trkpt lat="23.062389" lon="113.27628">
        <time>2026-07-13T22:40:52Z</time>
      </trkpt>
      <trkpt lat="23.062341" lon="113.276422">
        <time>2026-07-13T22:40:57Z</time>
      </trkpt>
      <trkpt lat="23.062291" lon="113.27656">
        <time>2026-07-13T22:41:02Z</time>
      </trkpt>
      <trkpt lat="23.062255" lon="113.276654">
        <time>2026-07-13T22:41:07Z</time>
      </trkpt>
      <trkpt lat="23.062221" lon="113.276749">
        <time>2026-07-13T22:41:12Z</time>
      </trkpt>
      <trkpt lat="23.062172" lon="113.276896">
        <time>2026-07-13T22:41:17Z</time>
      </trkpt>
      <trkpt lat="23.062119" lon="113.277044">
        <time>2026-07-13T22:41:22Z</time>
      </trkpt>
      <trkpt lat="23.062087" lon="113.277147">
        <time>2026-07-13T22:41:27Z</time>
      </trkpt>
      <trkpt lat="23.06204" lon="113.277249">
        <time>2026-07-13T22:41:32Z</time>
      </trkpt>
      <trkpt lat="23.061966" lon="113.277414">
        <time>2026-07-13T22:41:37Z</time>
      </trkpt>
      <trkpt lat="23.0619" lon="113.277572">
        <time>2026-07-13T22:41:42Z</time>
      </trkpt>
      <trkpt lat="23.061866" lon="113.277675">
        <time>2026-07-13T22:41:47Z</time>
      </trkpt>
      <trkpt lat="23.061841" lon="113.277777">
        <time>2026-07-13T22:41:52Z</time>
      </trkpt>
      <trkpt lat="23.061826" lon="113.277933">
        <time>2026-07-13T22:41:57Z</time>
      </trkpt>
      <trkpt lat="23.061825" lon="113.278089">
        <time>2026-07-13T22:42:02Z</time>
      </trkpt>
      <trkpt lat="23.061833" lon="113.278194">
        <time>2026-07-13T22:42:07Z</time>
      </trkpt>
      <trkpt lat="23.061835" lon="113.278302">
        <time>2026-07-13T22:42:12Z</time>
      </trkpt>
      <trkpt lat="23.061844" lon="113.278465">
        <time>2026-07-13T22:42:17Z</time>
      </trkpt>
      <trkpt lat="23.061849" lon="113.278626">
        <time>2026-07-13T22:42:22Z</time>
      </trkpt>
      <trkpt lat="23.061836" lon="113.278724">
        <time>2026-07-13T22:42:27Z</time>
      </trkpt>
      <trkpt lat="23.061782" lon="113.278774">
        <time>2026-07-13T22:42:32Z</time>
      </trkpt>
      <trkpt lat="23.061708" lon="113.278864">
        <time>2026-07-13T22:42:37Z</time>
      </trkpt>
      <trkpt lat="23.061668" lon="113.279003">
        <time>2026-07-13T22:42:42Z</time>
      </trkpt>
      <trkpt lat="23.061633" lon="113.279092">
        <time>2026-07-13T22:42:47Z</time>
      </trkpt>
      <trkpt lat="23.06159" lon="113.279181">
        <time>2026-07-13T22:42:52Z</time>
      </trkpt>
      <trkpt lat="23.061538" lon="113.279321">
        <time>2026-07-13T22:42:57Z</time>
      </trkpt>
      <trkpt lat="23.061486" lon="113.27946">
        <time>2026-07-13T22:43:02Z</time>
      </trkpt>
      <trkpt lat="23.061446" lon="113.279554">
        <time>2026-07-13T22:43:07Z</time>
      </trkpt>
      <trkpt lat="23.061404" lon="113.27965">
        <time>2026-07-13T22:43:12Z</time>
      </trkpt>
      <trkpt lat="23.061338" lon="113.279796">
        <time>2026-07-13T22:43:17Z</time>
      </trkpt>
      <trkpt lat="23.061273" lon="113.279945">
        <time>2026-07-13T22:43:22Z</time>
      </trkpt>
      <trkpt lat="23.061224" lon="113.280046">
        <time>2026-07-13T22:43:27Z</time>
      </trkpt>
      <trkpt lat="23.061177" lon="113.280147">
        <time>2026-07-13T22:43:32Z</time>
      </trkpt>
      <trkpt lat="23.061112" lon="113.280299">
        <time>2026-07-13T22:43:37Z</time>
      </trkpt>
      <trkpt lat="23.061047" lon="113.280455">
        <time>2026-07-13T22:43:42Z</time>
      </trkpt>
      <trkpt lat="23.060995" lon="113.280558">
        <time>2026-07-13T22:43:47Z</time>
      </trkpt>
      <trkpt lat="23.060947" lon="113.280655">
        <time>2026-07-13T22:43:52Z</time>
      </trkpt>
      <trkpt lat="23.060893" lon="113.280812">
        <time>2026-07-13T22:43:57Z</time>
      </trkpt>
      <trkpt lat="23.060828" lon="113.280964">
        <time>2026-07-13T22:44:02Z</time>
      </trkpt>
      <trkpt lat="23.060782" lon="113.281071">
        <time>2026-07-13T22:44:07Z</time>
      </trkpt>
      <trkpt lat="23.06074" lon="113.281179">
        <time>2026-07-13T22:44:12Z</time>
      </trkpt>
      <trkpt lat="23.060676" lon="113.281335">
        <time>2026-07-13T22:44:17Z</time>
      </trkpt>
      <trkpt lat="23.060608" lon="113.281481">
        <time>2026-07-13T22:44:22Z</time>
      </trkpt>
      <trkpt lat="23.060568" lon="113.281579">
        <time>2026-07-13T22:44:27Z</time>
      </trkpt>
      <trkpt lat="23.060531" lon="113.281677">
        <time>2026-07-13T22:44:32Z</time>
      </trkpt>
      <trkpt lat="23.060464" lon="113.281815">
        <time>2026-07-13T22:44:37Z</time>
      </trkpt>
      <trkpt lat="23.060396" lon="113.281959">
        <time>2026-07-13T22:44:42Z</time>
      </trkpt>
      <trkpt lat="23.060357" lon="113.282056">
        <time>2026-07-13T22:44:47Z</time>
      </trkpt>
      <trkpt lat="23.060316" lon="113.282151">
        <time>2026-07-13T22:44:52Z</time>
      </trkpt>
      <trkpt lat="23.060254" lon="113.282296">
        <time>2026-07-13T22:44:57Z</time>
      </trkpt>
      <trkpt lat="23.060196" lon="113.282433">
        <time>2026-07-13T22:45:02Z</time>
      </trkpt>
      <trkpt lat="23.060161" lon="113.282524">
        <time>2026-07-13T22:45:07Z</time>
      </trkpt>
      <trkpt lat="23.060125" lon="113.282621">
        <time>2026-07-13T22:45:12Z</time>
      </trkpt>
      <trkpt lat="23.060054" lon="113.282776">
        <time>2026-07-13T22:45:17Z</time>
      </trkpt>
      <trkpt lat="23.059993" lon="113.282934">
        <time>2026-07-13T22:45:22Z</time>
      </trkpt>
      <trkpt lat="23.05995" lon="113.283029">
        <time>2026-07-13T22:45:27Z</time>
      </trkpt>
      <trkpt lat="23.059904" lon="113.283126">
        <time>2026-07-13T22:45:32Z</time>
      </trkpt>
      <trkpt lat="23.059837" lon="113.283275">
        <time>2026-07-13T22:45:37Z</time>
      </trkpt>
      <trkpt lat="23.059824" lon="113.283367">
        <time>2026-07-13T22:45:42Z</time>
      </trkpt>
      <trkpt lat="23.059891" lon="113.283374">
        <time>2026-07-13T22:45:47Z</time>
      </trkpt>
      <trkpt lat="23.059964" lon="113.283306">
        <time>2026-07-13T22:45:52Z</time>
      </trkpt>
      <trkpt lat="23.060027" lon="113.283148">
        <time>2026-07-13T22:45:57Z</time>
      </trkpt>
      <trkpt lat="23.060102" lon="113.282994">
        <time>2026-07-13T22:46:02Z</time>
      </trkpt>
      <trkpt lat="23.060152" lon="113.282891">
        <time>2026-07-13T22:46:07Z</time>
      </trkpt>
      <trkpt lat="23.060195" lon="113.282793">
        <time>2026-07-13T22:46:12Z</time>
      </trkpt>
      <trkpt lat="23.060255" lon="113.282644">
        <time>2026-07-13T22:46:17Z</time>
      </trkpt>
      <trkpt lat="23.060313" lon="113.282492">
        <time>2026-07-13T22:46:22Z</time>
      </trkpt>
      <trkpt lat="23.060354" lon="113.28239">
        <time>2026-07-13T22:46:27Z</time>
      </trkpt>
      <trkpt lat="23.060396" lon="113.28229">
        <time>2026-07-13T22:46:32Z</time>
      </trkpt>
      <trkpt lat="23.060449" lon="113.282142">
        <time>2026-07-13T22:46:37Z</time>
      </trkpt>
      <trkpt lat="23.0605" lon="113.282006">
        <time>2026-07-13T22:46:42Z</time>
      </trkpt>
      <trkpt lat="23.060548" lon="113.281924">
        <time>2026-07-13T22:46:47Z</time>
      </trkpt>
      <trkpt lat="23.060597" lon="113.281838">
        <time>2026-07-13T22:46:52Z</time>
      </trkpt>
      <trkpt lat="23.060661" lon="113.281691">
        <time>2026-07-13T22:46:57Z</time>
      </trkpt>
      <trkpt lat="23.060721" lon="113.281547">
        <time>2026-07-13T22:47:02Z</time>
      </trkpt>
      <trkpt lat="23.060761" lon="113.281453">
        <time>2026-07-13T22:47:07Z</time>
      </trkpt>
      <trkpt lat="23.060804" lon="113.281354">
        <time>2026-07-13T22:47:12Z</time>
      </trkpt>
      <trkpt lat="23.060864" lon="113.281207">
        <time>2026-07-13T22:47:17Z</time>
      </trkpt>
      <trkpt lat="23.06093" lon="113.281069">
        <time>2026-07-13T22:47:22Z</time>
      </trkpt>
      <trkpt lat="23.060971" lon="113.280975">
        <time>2026-07-13T22:47:27Z</time>
      </trkpt>
      <trkpt lat="23.061005" lon="113.280876">
        <time>2026-07-13T22:47:32Z</time>
      </trkpt>
      <trkpt lat="23.06106" lon="113.280738">
        <time>2026-07-13T22:47:37Z</time>
      </trkpt>
      <trkpt lat="23.061135" lon="113.280597">
        <time>2026-07-13T22:47:42Z</time>
      </trkpt>
      <trkpt lat="23.061183" lon="113.280501">
        <time>2026-07-13T22:47:47Z</time>
      </trkpt>
      <trkpt lat="23.061221" lon="113.280401">
        <time>2026-07-13T22:47:52Z</time>
      </trkpt>
      <trkpt lat="23.061282" lon="113.280251">
        <time>2026-07-13T22:47:57Z</time>
      </trkpt>
      <trkpt lat="23.061352" lon="113.280104">
        <time>2026-07-13T22:48:02Z</time>
      </trkpt>
      <trkpt lat="23.061389" lon="113.280011">
        <time>2026-07-13T22:48:07Z</time>
      </trkpt>
      <trkpt lat="23.061425" lon="113.279922">
        <time>2026-07-13T22:48:12Z</time>
      </trkpt>
      <trkpt lat="23.061482" lon="113.27979">
        <time>2026-07-13T22:48:17Z</time>
      </trkpt>
      <trkpt lat="23.061538" lon="113.279659">
        <time>2026-07-13T22:48:22Z</time>
      </trkpt>
      <trkpt lat="23.061577" lon="113.279572">
        <time>2026-07-13T22:48:27Z</time>
      </trkpt>
      <trkpt lat="23.061616" lon="113.279478">
        <time>2026-07-13T22:48:32Z</time>
      </trkpt>
      <trkpt lat="23.061675" lon="113.279338">
        <time>2026-07-13T22:48:37Z</time>
      </trkpt>
      <trkpt lat="23.061734" lon="113.279203">
        <time>2026-07-13T22:48:42Z</time>
      </trkpt>
      <trkpt lat="23.061779" lon="113.279116">
        <time>2026-07-13T22:48:47Z</time>
      </trkpt>
      <trkpt lat="23.061831" lon="113.279034">
        <time>2026-07-13T22:48:52Z</time>
      </trkpt>
      <trkpt lat="23.061907" lon="113.278901">
        <time>2026-07-13T22:48:57Z</time>
      </trkpt>
      <trkpt lat="23.061957" lon="113.278746">
        <time>2026-07-13T22:49:02Z</time>
      </trkpt>
      <trkpt lat="23.06196" lon="113.278634">
        <time>2026-07-13T22:49:07Z</time>
      </trkpt>
      <trkpt lat="23.061957" lon="113.278523">
        <time>2026-07-13T22:49:12Z</time>
      </trkpt>
      <trkpt lat="23.061957" lon="113.278365">
        <time>2026-07-13T22:49:17Z</time>
      </trkpt>
      <trkpt lat="23.061954" lon="113.278206">
        <time>2026-07-13T22:49:22Z</time>
      </trkpt>
      <trkpt lat="23.06195" lon="113.278099">
        <time>2026-07-13T22:49:27Z</time>
      </trkpt>
      <trkpt lat="23.061946" lon="113.277994">
        <time>2026-07-13T22:49:32Z</time>
      </trkpt>
      <trkpt lat="23.061943" lon="113.277834">
        <time>2026-07-13T22:49:37Z</time>
      </trkpt>
      <trkpt lat="23.06197" lon="113.27767">
        <time>2026-07-13T22:49:42Z</time>
      </trkpt>
      <trkpt lat="23.062009" lon="113.277564">
        <time>2026-07-13T22:49:47Z</time>
      </trkpt>
      <trkpt lat="23.062049" lon="113.277462">
        <time>2026-07-13T22:49:52Z</time>
      </trkpt>
      <trkpt lat="23.062099" lon="113.277315">
        <time>2026-07-13T22:49:57Z</time>
      </trkpt>
      <trkpt lat="23.062149" lon="113.277162">
        <time>2026-07-13T22:50:02Z</time>
      </trkpt>
      <trkpt lat="23.062182" lon="113.277064">
        <time>2026-07-13T22:50:07Z</time>
      </trkpt>
      <trkpt lat="23.06222" lon="113.276964">
        <time>2026-07-13T22:50:12Z</time>
      </trkpt>
      <trkpt lat="23.062281" lon="113.276812">
        <time>2026-07-13T22:50:17Z</time>
      </trkpt>
      <trkpt lat="23.062334" lon="113.276662">
        <time>2026-07-13T22:50:22Z</time>
      </trkpt>
      <trkpt lat="23.062367" lon="113.276564">
        <time>2026-07-13T22:50:27Z</time>
      </trkpt>
      <trkpt lat="23.062401" lon="113.276463">
        <time>2026-07-13T22:50:32Z</time>
      </trkpt>
      <trkpt lat="23.062452" lon="113.276315">
        <time>2026-07-13T22:50:37Z</time>
      </trkpt>
      <trkpt lat="23.062516" lon="113.276173">
        <time>2026-07-13T22:50:42Z</time>
      </trkpt>
      <trkpt lat="23.062567" lon="113.276081">
        <time>2026-07-13T22:50:47Z</time>
      </trkpt>
      <trkpt lat="23.062628" lon="113.275995">
        <time>2026-07-13T22:50:52Z</time>
      </trkpt>
      <trkpt lat="23.062729" lon="113.275874">
        <time>2026-07-13T22:50:57Z</time>
      </trkpt>
      <trkpt lat="23.06284" lon="113.275762">
        <time>2026-07-13T22:51:02Z</time>
      </trkpt>
      <trkpt lat="23.062917" lon="113.27569">
        <time>2026-07-13T22:51:07Z</time>
      </trkpt>
      <trkpt lat="23.062989" lon="113.275613">
        <time>2026-07-13T22:51:12Z</time>
      </trkpt>
      <trkpt lat="23.063078" lon="113.275487">
        <time>2026-07-13T22:51:17Z</time>
      </trkpt>
      <trkpt lat="23.06315" lon="113.275356">
        <time>2026-07-13T22:51:22Z</time>
      </trkpt>
      <trkpt lat="23.0632" lon="113.275267">
        <time>2026-07-13T22:51:27Z</time>
      </trkpt>
      <trkpt lat="23.063261" lon="113.275184">
        <time>2026-07-13T22:51:32Z</time>
      </trkpt>
      <trkpt lat="23.063351" lon="113.275055">
        <time>2026-07-13T22:51:37Z</time>
      </trkpt>
      <trkpt lat="23.063405" lon="113.274911">
        <time>2026-07-13T22:51:42Z</time>
      </trkpt>
      <trkpt lat="23.063433" lon="113.274817">
        <time>2026-07-13T22:51:47Z</time>
      </trkpt>
      <trkpt lat="23.063464" lon="113.274725">
        <time>2026-07-13T22:51:52Z</time>
      </trkpt>
      <trkpt lat="23.0635" lon="113.274594">
        <time>2026-07-13T22:51:57Z</time>
      </trkpt>
      <trkpt lat="23.063538" lon="113.274468">
        <time>2026-07-13T22:52:02Z</time>
      </trkpt>
      <trkpt lat="23.063592" lon="113.274394">
        <time>2026-07-13T22:52:07Z</time>
      </trkpt>
      <trkpt lat="23.063668" lon="113.274327">
        <time>2026-07-13T22:52:12Z</time>
      </trkpt>
      <trkpt lat="23.06378" lon="113.274208">
        <time>2026-07-13T22:52:17Z</time>
      </trkpt>
      <trkpt lat="23.063867" lon="113.274089">
        <time>2026-07-13T22:52:22Z</time>
      </trkpt>
      <trkpt lat="23.063914" lon="113.274">
        <time>2026-07-13T22:52:27Z</time>
      </trkpt>
      <trkpt lat="23.063965" lon="113.273901">
        <time>2026-07-13T22:52:32Z</time>
      </trkpt>
      <trkpt lat="23.064056" lon="113.273766">
        <time>2026-07-13T22:52:37Z</time>
      </trkpt>
      <trkpt lat="23.064156" lon="113.273664">
        <time>2026-07-13T22:52:42Z</time>
      </trkpt>
      <trkpt lat="23.064232" lon="113.273604">
        <time>2026-07-13T22:52:47Z</time>
      </trkpt>
      <trkpt lat="23.064304" lon="113.273547">
        <time>2026-07-13T22:52:52Z</time>
      </trkpt>
      <trkpt lat="23.064418" lon="113.273454">
        <time>2026-07-13T22:52:57Z</time>
      </trkpt>
      <trkpt lat="23.064518" lon="113.273351">
        <time>2026-07-13T22:53:02Z</time>
      </trkpt>
      <trkpt lat="23.064568" lon="113.273258">
        <time>2026-07-13T22:53:07Z</time>
      </trkpt>
      <trkpt lat="23.064578" lon="113.273149">
        <time>2026-07-13T22:53:12Z</time>
      </trkpt>
      <trkpt lat="23.064545" lon="113.272986">
        <time>2026-07-13T22:53:17Z</time>
      </trkpt>
      <trkpt lat="23.064496" lon="113.27283">
        <time>2026-07-13T22:53:22Z</time>
      </trkpt>
      <trkpt lat="23.064464" lon="113.272726">
        <time>2026-07-13T22:53:27Z</time>
      </trkpt>
      <trkpt lat="23.064447" lon="113.272618">
        <time>2026-07-13T22:53:32Z</time>
      </trkpt>
      <trkpt lat="23.064499" lon="113.272478">
        <time>2026-07-13T22:53:37Z</time>
      </trkpt>
      <trkpt lat="23.064546" lon="113.272329">
        <time>2026-07-13T22:53:42Z</time>
      </trkpt>
      <trkpt lat="23.064572" lon="113.272224">
        <time>2026-07-13T22:53:47Z</time>
      </trkpt>
      <trkpt lat="23.064608" lon="113.272121">
        <time>2026-07-13T22:53:52Z</time>
      </trkpt>
      <trkpt lat="23.064671" lon="113.271979">
        <time>2026-07-13T22:53:57Z</time>
      </trkpt>
      <trkpt lat="23.06473" lon="113.27184">
        <time>2026-07-13T22:54:02Z</time>
      </trkpt>
      <trkpt lat="23.064772" lon="113.271745">
        <time>2026-07-13T22:54:07Z</time>
      </trkpt>
      <trkpt lat="23.064818" lon="113.271645">
        <time>2026-07-13T22:54:12Z</time>
      </trkpt>
      <trkpt lat="23.064871" lon="113.271493">
        <time>2026-07-13T22:54:17Z</time>
      </trkpt>
      <trkpt lat="23.064931" lon="113.271362">
        <time>2026-07-13T22:54:22Z</time>
      </trkpt>
      <trkpt lat="23.064979" lon="113.271276">
        <time>2026-07-13T22:54:27Z</time>
      </trkpt>
      <trkpt lat="23.065045" lon="113.271186">
        <time>2026-07-13T22:54:32Z</time>
      </trkpt>
      <trkpt lat="23.065122" lon="113.271033">
        <time>2026-07-13T22:54:37Z</time>
      </trkpt>
      <trkpt lat="23.065197" lon="113.270884">
        <time>2026-07-13T22:54:42Z</time>
      </trkpt>
      <trkpt lat="23.065244" lon="113.270781">
        <time>2026-07-13T22:54:47Z</time>
      </trkpt>
      <trkpt lat="23.065292" lon="113.27068">
        <time>2026-07-13T22:54:52Z</time>
      </trkpt>
      <trkpt lat="23.065359" lon="113.270532">
        <time>2026-07-13T22:54:57Z</time>
      </trkpt>
      <trkpt lat="23.065426" lon="113.270384">
        <time>2026-07-13T22:55:02Z</time>
      </trkpt>
      <trkpt lat="23.065467" lon="113.270282">
        <time>2026-07-13T22:55:07Z</time>
      </trkpt>
      <trkpt lat="23.065505" lon="113.270183">
        <time>2026-07-13T22:55:12Z</time>
      </trkpt>
      <trkpt lat="23.065555" lon="113.270039">
        <time>2026-07-13T22:55:17Z</time>
      </trkpt>
      <trkpt lat="23.065603" lon="113.269897">
        <time>2026-07-13T22:55:22Z</time>
      </trkpt>
      <trkpt lat="23.06563" lon="113.269798">
        <time>2026-07-13T22:55:27Z</time>
      </trkpt>
      <trkpt lat="23.065656" lon="113.269696">
        <time>2026-07-13T22:55:32Z</time>
      </trkpt>
      <trkpt lat="23.065704" lon="113.269542">
        <time>2026-07-13T22:55:37Z</time>
      </trkpt>
      <trkpt lat="23.065741" lon="113.269383">
        <time>2026-07-13T22:55:42Z</time>
      </trkpt>
      <trkpt lat="23.06577" lon="113.269273">
        <time>2026-07-13T22:55:47Z</time>
      </trkpt>
      <trkpt lat="23.065803" lon="113.269163">
        <time>2026-07-13T22:55:52Z</time>
      </trkpt>
      <trkpt lat="23.065856" lon="113.269006">
        <time>2026-07-13T22:55:57Z</time>
      </trkpt>
      <trkpt lat="23.065916" lon="113.26886">
        <time>2026-07-13T22:56:02Z</time>
      </trkpt>
      <trkpt lat="23.06596" lon="113.268765">
        <time>2026-07-13T22:56:07Z</time>
      </trkpt>
      <trkpt lat="23.066007" lon="113.268671">
        <time>2026-07-13T22:56:12Z</time>
      </trkpt>
      <trkpt lat="23.066085" lon="113.268531">
        <time>2026-07-13T22:56:17Z</time>
      </trkpt>
      <trkpt lat="23.066175" lon="113.268396">
        <time>2026-07-13T22:56:22Z</time>
      </trkpt>
      <trkpt lat="23.066236" lon="113.268311">
        <time>2026-07-13T22:56:27Z</time>
      </trkpt>
      <trkpt lat="23.066309" lon="113.268232">
        <time>2026-07-13T22:56:32Z</time>
      </trkpt>
      <trkpt lat="23.066446" lon="113.268146">
        <time>2026-07-13T22:56:37Z</time>
      </trkpt>
      <trkpt lat="23.066607" lon="113.268138">
        <time>2026-07-13T22:56:42Z</time>
      </trkpt>
      <trkpt lat="23.066717" lon="113.268149">
        <time>2026-07-13T22:56:47Z</time>
      </trkpt>
      <trkpt lat="23.066821" lon="113.268143">
        <time>2026-07-13T22:56:52Z</time>
      </trkpt>
      <trkpt lat="23.066976" lon="113.268151">
        <time>2026-07-13T22:56:57Z</time>
      </trkpt>
      <trkpt lat="23.06711" lon="113.268223">
        <time>2026-07-13T22:57:02Z</time>
      </trkpt>
      <trkpt lat="23.067196" lon="113.268272">
        <time>2026-07-13T22:57:07Z</time>
      </trkpt>
      <trkpt lat="23.067282" lon="113.268336">
        <time>2026-07-13T22:57:12Z</time>
      </trkpt>
      <trkpt lat="23.067411" lon="113.268435">
        <time>2026-07-13T22:57:17Z</time>
      </trkpt>
      <trkpt lat="23.06753" lon="113.268502">
        <time>2026-07-13T22:57:22Z</time>
      </trkpt>
      <trkpt lat="23.06763" lon="113.268552">
        <time>2026-07-13T22:57:27Z</time>
      </trkpt>
      <trkpt lat="23.067731" lon="113.268591">
        <time>2026-07-13T22:57:32Z</time>
      </trkpt>
      <trkpt lat="23.067868" lon="113.268658">
        <time>2026-07-13T22:57:37Z</time>
      </trkpt>
      <trkpt lat="23.067998" lon="113.268709">
        <time>2026-07-13T22:57:42Z</time>
      </trkpt>
      <trkpt lat="23.068087" lon="113.268746">
        <time>2026-07-13T22:57:47Z</time>
      </trkpt>
      <trkpt lat="23.068171" lon="113.268791">
        <time>2026-07-13T22:57:52Z</time>
      </trkpt>
      <trkpt lat="23.068304" lon="113.268851">
        <time>2026-07-13T22:57:57Z</time>
      </trkpt>
      <trkpt lat="23.068448" lon="113.268904">
        <time>2026-07-13T22:58:02Z</time>
      </trkpt>
      <trkpt lat="23.068551" lon="113.268935">
        <time>2026-07-13T22:58:07Z</time>
      </trkpt>
      <trkpt lat="23.068654" lon="113.268967">
        <time>2026-07-13T22:58:12Z</time>
      </trkpt>
      <trkpt lat="23.068795" lon="113.269042">
        <time>2026-07-13T22:58:17Z</time>
      </trkpt>
      <trkpt lat="23.068939" lon="113.269105">
        <time>2026-07-13T22:58:22Z</time>
      </trkpt>
      <trkpt lat="23.069017" lon="113.269137">
        <time>2026-07-13T22:58:27Z</time>
      </trkpt>
      <trkpt lat="23.069104" lon="113.269183">
        <time>2026-07-13T22:58:32Z</time>
      </trkpt>
      <trkpt lat="23.069236" lon="113.269289">
        <time>2026-07-13T22:58:37Z</time>
      </trkpt>
      <trkpt lat="23.069384" lon="113.26938">
        <time>2026-07-13T22:58:42Z</time>
      </trkpt>
      <trkpt lat="23.069483" lon="113.269422">
        <time>2026-07-13T22:58:47Z</time>
      </trkpt>
      <trkpt lat="23.069564" lon="113.269459">
        <time>2026-07-13T22:58:52Z</time>
      </trkpt>
      <trkpt lat="23.069684" lon="113.269524">
        <time>2026-07-13T22:58:57Z</time>
      </trkpt>
      <trkpt lat="23.069815" lon="113.269595">
        <time>2026-07-13T22:59:02Z</time>
      </trkpt>
      <trkpt lat="23.069896" lon="113.269645">
        <time>2026-07-13T22:59:07Z</time>
      </trkpt>
      <trkpt lat="23.069981" lon="113.269705">
        <time>2026-07-13T22:59:12Z</time>
      </trkpt>
      <trkpt lat="23.070109" lon="113.269799">
        <time>2026-07-13T22:59:17Z</time>
      </trkpt>
      <trkpt lat="23.070245" lon="113.269865">
        <time>2026-07-13T22:59:22Z</time>
      </trkpt>
      <trkpt lat="23.07034" lon="113.269903">
        <time>2026-07-13T22:59:27Z</time>
      </trkpt>
      <trkpt lat="23.070429" lon="113.269945">
        <time>2026-07-13T22:59:32Z</time>
      </trkpt>
      <trkpt lat="23.070567" lon="113.269992">
        <time>2026-07-13T22:59:37Z</time>
      </trkpt>
      <trkpt lat="23.070689" lon="113.270047">
        <time>2026-07-13T22:59:42Z</time>
      </trkpt>
      <trkpt lat="23.070774" lon="113.270094">
        <time>2026-07-13T22:59:47Z</time>
      </trkpt>
      <trkpt lat="23.070862" lon="113.270133">
        <time>2026-07-13T22:59:52Z</time>
      </trkpt>
      <trkpt lat="23.070991" lon="113.270201">
        <time>2026-07-13T22:59:57Z</time>
      </trkpt>
      <trkpt lat="23.071129" lon="113.270266">
        <time>2026-07-13T23:00:02Z</time>
      </trkpt>
      <trkpt lat="23.071209" lon="113.270324">
        <time>2026-07-13T23:00:07Z</time>
      </trkpt>
      <trkpt lat="23.071285" lon="113.270382">
        <time>2026-07-13T23:00:12Z</time>
      </trkpt>
      <trkpt lat="23.07142" lon="113.27043">
        <time>2026-07-13T23:00:17Z</time>
      </trkpt>
      <trkpt lat="23.071549" lon="113.270487">
        <time>2026-07-13T23:00:22Z</time>
      </trkpt>
      <trkpt lat="23.071623" lon="113.270537">
        <time>2026-07-13T23:00:27Z</time>
      </trkpt>
      <trkpt lat="23.071699" lon="113.270593">
        <time>2026-07-13T23:00:32Z</time>
      </trkpt>
      <trkpt lat="23.071837" lon="113.270634">
        <time>2026-07-13T23:00:37Z</time>
      </trkpt>
      <trkpt lat="23.071974" lon="113.270672">
        <time>2026-07-13T23:00:42Z</time>
      </trkpt>
      <trkpt lat="23.072064" lon="113.270703">
        <time>2026-07-13T23:00:47Z</time>
      </trkpt>
      <trkpt lat="23.072144" lon="113.270749">
        <time>2026-07-13T23:00:52Z</time>
      </trkpt>
      <trkpt lat="23.072271" lon="113.27081">
        <time>2026-07-13T23:00:57Z</time>
      </trkpt>
      <trkpt lat="23.072403" lon="113.270868">
        <time>2026-07-13T23:01:02Z</time>
      </trkpt>
      <trkpt lat="23.072499" lon="113.270912">
        <time>2026-07-13T23:01:07Z</time>
      </trkpt>
      <trkpt lat="23.07259" lon="113.270964">
        <time>2026-07-13T23:01:12Z</time>
      </trkpt>
      <trkpt lat="23.072715" lon="113.271034">
        <time>2026-07-13T23:01:17Z</time>
      </trkpt>
      <trkpt lat="23.072841" lon="113.271087">
        <time>2026-07-13T23:01:22Z</time>
      </trkpt>
      <trkpt lat="23.072921" lon="113.271119">
        <time>2026-07-13T23:01:27Z</time>
      </trkpt>
      <trkpt lat="23.073012" lon="113.271147">
        <time>2026-07-13T23:01:32Z</time>
      </trkpt>
      <trkpt lat="23.073158" lon="113.271184">
        <time>2026-07-13T23:01:37Z</time>
      </trkpt>
      <trkpt lat="23.073251" lon="113.271246">
        <time>2026-07-13T23:01:42Z</time>
      </trkpt>
      <trkpt lat="23.073334" lon="113.271281">
        <time>2026-07-13T23:01:47Z</time>
      </trkpt>
      <trkpt lat="23.073418" lon="113.271329">
        <time>2026-07-13T23:01:52Z</time>
      </trkpt>
      <trkpt lat="23.073531" lon="113.271425">
        <time>2026-07-13T23:01:57Z</time>
      </trkpt>
      <trkpt lat="23.073642" lon="113.271533">
        <time>2026-07-13T23:02:02Z</time>
      </trkpt>
      <trkpt lat="23.073714" lon="113.271579">
        <time>2026-07-13T23:02:07Z</time>
      </trkpt>
      <trkpt lat="23.073789" lon="113.271627">
        <time>2026-07-13T23:02:12Z</time>
      </trkpt>
      <trkpt lat="23.073915" lon="113.27168">
        <time>2026-07-13T23:02:17Z</time>
      </trkpt>
      <trkpt lat="23.074037" lon="113.271779">
        <time>2026-07-13T23:02:22Z</time>
      </trkpt>
      <trkpt lat="23.07408" lon="113.271828">
        <time>2026-07-13T23:02:27Z</time>
      </trkpt>
      <trkpt lat="23.07406" lon="113.271901">
        <time>2026-07-13T23:02:32Z</time>
      </trkpt>
      <trkpt lat="23.074004" lon="113.272024">
        <time>2026-07-13T23:02:37Z</time>
      </trkpt>
      <trkpt lat="23.073941" lon="113.272146">
        <time>2026-07-13T23:02:42Z</time>
      </trkpt>
      <trkpt lat="23.0739" lon="113.272227">
        <time>2026-07-13T23:02:47Z</time>
      </trkpt>
      <trkpt lat="23.073866" lon="113.272314">
        <time>2026-07-13T23:02:52Z</time>
      </trkpt>
      <trkpt lat="23.073828" lon="113.272443">
        <time>2026-07-13T23:02:57Z</time>
      </trkpt>
      <trkpt lat="23.073777" lon="113.27257">
        <time>2026-07-13T23:03:02Z</time>
      </trkpt>
      <trkpt lat="23.073736" lon="113.272656">
        <time>2026-07-13T23:03:07Z</time>
      </trkpt>
      <trkpt lat="23.073701" lon="113.272738">
        <time>2026-07-13T23:03:12Z</time>
      </trkpt>
      <trkpt lat="23.073649" lon="113.272867">
        <time>2026-07-13T23:03:17Z</time>
      </trkpt>
      <trkpt lat="23.073596" lon="113.273009">
        <time>2026-07-13T23:03:22Z</time>
      </trkpt>
      <trkpt lat="23.073582" lon="113.273054">
        <time>2026-07-13T23:03:27Z</time>
      </trkpt>
      <trkpt lat="23.073615" lon="113.273008">
        <time>2026-07-13T23:03:32Z</time>
      </trkpt>
      <trkpt lat="23.073748" lon="113.272962">
        <time>2026-07-13T23:03:37Z</time>
      </trkpt>
      <trkpt lat="23.073896" lon="113.272996">
        <time>2026-07-13T23:03:42Z</time>
      </trkpt>
      <trkpt lat="23.073985" lon="113.272996">
        <time>2026-07-13T23:03:47Z</time>
      </trkpt>
      <trkpt lat="23.074046" lon="113.272942">
        <time>2026-07-13T23:03:52Z</time>
      </trkpt>
      <trkpt lat="23.074096" lon="113.272823">
        <time>2026-07-13T23:03:57Z</time>
      </trkpt>
      <trkpt lat="23.074137" lon="113.272696">
        <time>2026-07-13T23:04:02Z</time>
      </trkpt>
      <trkpt lat="23.074159" lon="113.272629">
        <time>2026-07-13T23:04:07Z</time>
      </trkpt>
      <trkpt lat="23.074186" lon="113.272555">
        <time>2026-07-13T23:04:12Z</time>
      </trkpt>
      <trkpt lat="23.074239" lon="113.272404">
        <time>2026-07-13T23:04:17Z</time>
      </trkpt>
      <trkpt lat="23.074286" lon="113.272278">
        <time>2026-07-13T23:04:22Z</time>
      </trkpt>
      <trkpt lat="23.074316" lon="113.272201">
        <time>2026-07-13T23:04:27Z</time>
      </trkpt>
      <trkpt lat="23.074345" lon="113.272126">
        <time>2026-07-13T23:04:32Z</time>
      </trkpt>
      <trkpt lat="23.074477" lon="113.27203">
        <time>2026-07-13T23:04:37Z</time>
      </trkpt>
      <trkpt lat="23.074616" lon="113.272069">
        <time>2026-07-13T23:04:42Z</time>
      </trkpt>
      <trkpt lat="23.074709" lon="113.272118">
        <time>2026-07-13T23:04:47Z</time>
      </trkpt>
      <trkpt lat="23.074794" lon="113.272155">
        <time>2026-07-13T23:04:52Z</time>
      </trkpt>
      <trkpt lat="23.074899" lon="113.272235">
        <time>2026-07-13T23:04:57Z</time>
      </trkpt>
      <trkpt lat="23.075011" lon="113.272336">
        <time>2026-07-13T23:05:02Z</time>
      </trkpt>
      <trkpt lat="23.07509" lon="113.272411">
        <time>2026-07-13T23:05:07Z</time>
      </trkpt>
      <trkpt lat="23.075176" lon="113.27247">
        <time>2026-07-13T23:05:12Z</time>
      </trkpt>
      <trkpt lat="23.075291" lon="113.272545">
        <time>2026-07-13T23:05:17Z</time>
      </trkpt>
      <trkpt lat="23.075416" lon="113.272564">
        <time>2026-07-13T23:05:22Z</time>
      </trkpt>
      <trkpt lat="23.075489" lon="113.272553">
        <time>2026-07-13T23:05:27Z</time>
      </trkpt>
      <trkpt lat="23.075565" lon="113.272582">
        <time>2026-07-13T23:05:32Z</time>
      </trkpt>
      <trkpt lat="23.075678" lon="113.272641">
        <time>2026-07-13T23:05:37Z</time>
      </trkpt>
      <trkpt lat="23.075796" lon="113.272691">
        <time>2026-07-13T23:05:42Z</time>
      </trkpt>
      <trkpt lat="23.075885" lon="113.272687">
        <time>2026-07-13T23:05:50Z</time>
      </trkpt>
    </trkseg>
  </trk>
</gpx>