<?xml version="1.0" encoding="UTF-8"?>
<gpx xmlns="http://www.topografix.com/GPX/1/1" xmlns:gpxtpx="http://www.garmin.com/xmlschemas/TrackPointExtension/v1" xmlns:xsi="http://www.w3.org/2001/XMLSchema-instance" xsi:schemaLocation="http://www.topografix.com/GPX/1/1 http://www.topografix.com/GPX/1/1/gpx.xsd" version="1.1" creator="gpx.py -- https://github.com/tkrajina/gpxpy">
  <trk>
    <name>gpx from joyrun</name>
    <trkseg>
      <trkpt lat="23.076197" lon="113.272541">
        <time>2026-07-15T21:53:12Z</time>
      </trkpt>
      <trkpt lat="23.076143" lon="113.272466">
        <time>2026-07-15T21:53:17Z</time>
      </trkpt>
      <trkpt lat="23.07601" lon="113.272424">
        <time>2026-07-15T21:53:22Z</time>
      </trkpt>
      <trkpt lat="23.075902" lon="113.272411">
        <time>2026-07-15T21:53:27Z</time>
      </trkpt>
      <trkpt lat="23.075784" lon="113.272401">
        <time>2026-07-15T21:53:32Z</time>
      </trkpt>
      <trkpt lat="23.075684" lon="113.27236">
        <time>2026-07-15T21:53:37Z</time>
      </trkpt>
      <trkpt lat="23.075545" lon="113.272297">
        <time>2026-07-15T21:53:42Z</time>
      </trkpt>
      <trkpt lat="23.075376" lon="113.272273">
        <time>2026-07-15T21:53:47Z</time>
      </trkpt>
      <trkpt lat="23.075284" lon="113.272232">
        <time>2026-07-15T21:53:52Z</time>
      </trkpt>
      <trkpt lat="23.075194" lon="113.272196">
        <time>2026-07-15T21:53:57Z</time>
      </trkpt>
      <trkpt lat="23.075063" lon="113.27214">
        <time>2026-07-15T21:54:02Z</time>
      </trkpt>
      <trkpt lat="23.074929" lon="113.27207">
        <time>2026-07-15T21:54:07Z</time>
      </trkpt>
      <trkpt lat="23.074838" lon="113.272023">
        <time>2026-07-15T21:54:12Z</time>
      </trkpt>
      <trkpt lat="23.074749" lon="113.271985">
        <time>2026-07-15T21:54:17Z</time>
      </trkpt>
      <trkpt lat="23.074603" lon="113.271931">
        <time>2026-07-15T21:54:22Z</time>
      </trkpt>
      <trkpt lat="23.074476" lon="113.271943">
        <time>2026-07-15T21:54:27Z</time>
      </trkpt>
      <trkpt lat="23.0744" lon="113.272014">
        <time>2026-07-15T21:54:32Z</time>
      </trkpt>
      <trkpt lat="23.074346" lon="113.272113">
        <time>2026-07-15T21:54:37Z</time>
      </trkpt>
      <trkpt lat="23.074271" lon="113.272275">
        <time>2026-07-15T21:54:42Z</time>
      </trkpt>
      <trkpt lat="23.074196" lon="113.272455">
        <time>2026-07-15T21:54:47Z</time>
      </trkpt>
      <trkpt lat="23.074162" lon="113.272573">
        <time>2026-07-15T21:54:52Z</time>
      </trkpt>
      <trkpt lat="23.074126" lon="113.272676">
        <time>2026-07-15T21:54:57Z</time>
      </trkpt>
      <trkpt lat="23.074067" lon="113.272835">
        <time>2026-07-15T21:55:02Z</time>
      </trkpt>
      <trkpt lat="23.07401" lon="113.27298">
        <time>2026-07-15T21:55:07Z</time>
      </trkpt>
      <trkpt lat="23.073956" lon="113.273074">
        <time>2026-07-15T21:55:12Z</time>
      </trkpt>
      <trkpt lat="23.073906" lon="113.273165">
        <time>2026-07-15T21:55:17Z</time>
      </trkpt>
      <trkpt lat="23.073847" lon="113.273305">
        <time>2026-07-15T21:55:22Z</time>
      </trkpt>
      <trkpt lat="23.07381" lon="113.273387">
        <time>2026-07-15T21:55:27Z</time>
      </trkpt>
      <trkpt lat="23.073825" lon="113.273338">
        <time>2026-07-15T21:55:32Z</time>
      </trkpt>
      <trkpt lat="23.073831" lon="113.273251">
        <time>2026-07-15T21:55:37Z</time>
      </trkpt>
      <trkpt lat="23.073861" lon="113.273133">
        <time>2026-07-15T21:55:42Z</time>
      </trkpt>
      <trkpt lat="23.073904" lon="113.273018">
        <time>2026-07-15T21:55:47Z</time>
      </trkpt>
      <trkpt lat="23.073909" lon="113.272962">
        <time>2026-07-15T21:55:52Z</time>
      </trkpt>
      <trkpt lat="23.073863" lon="113.27292">
        <time>2026-07-15T21:55:57Z</time>
      </trkpt>
      <trkpt lat="23.073744" lon="113.27287">
        <time>2026-07-15T21:56:02Z</time>
      </trkpt>
      <trkpt lat="23.073687" lon="113.272782">
        <time>2026-07-15T21:56:07Z</time>
      </trkpt>
      <trkpt lat="23.073713" lon="113.272708">
        <time>2026-07-15T21:56:12Z</time>
      </trkpt>
      <trkpt lat="23.073743" lon="113.272625">
        <time>2026-07-15T21:56:17Z</time>
      </trkpt>
      <trkpt lat="23.073798" lon="113.272501">
        <time>2026-07-15T21:56:22Z</time>
      </trkpt>
      <trkpt lat="23.073854" lon="113.272391">
        <time>2026-07-15T21:56:27Z</time>
      </trkpt>
      <trkpt lat="23.073899" lon="113.272309">
        <time>2026-07-15T21:56:32Z</time>
      </trkpt>
      <trkpt lat="23.073951" lon="113.272225">
        <time>2026-07-15T21:56:37Z</time>
      </trkpt>
      <trkpt lat="23.074019" lon="113.272087">
        <time>2026-07-15T21:56:42Z</time>
      </trkpt>
      <trkpt lat="23.074062" lon="113.27196">
        <time>2026-07-15T21:56:47Z</time>
      </trkpt>
      <trkpt lat="23.074084" lon="113.271873">
        <time>2026-07-15T21:56:52Z</time>
      </trkpt>
      <trkpt lat="23.074096" lon="113.271779">
        <time>2026-07-15T21:56:57Z</time>
      </trkpt>
      <trkpt lat="23.074034" lon="113.271665">
        <time>2026-07-15T21:57:02Z</time>
      </trkpt>
      <trkpt lat="23.073936" lon="113.271584">
        <time>2026-07-15T21:57:07Z</time>
      </trkpt>
      <trkpt lat="23.073856" lon="113.271545">
        <time>2026-07-15T21:57:12Z</time>
      </trkpt>
      <trkpt lat="23.073763" lon="113.271514">
        <time>2026-07-15T21:57:17Z</time>
      </trkpt>
      <trkpt lat="23.07364" lon="113.271454">
        <time>2026-07-15T21:57:22Z</time>
      </trkpt>
      <trkpt lat="23.073518" lon="113.271389">
        <time>2026-07-15T21:57:27Z</time>
      </trkpt>
      <trkpt lat="23.07343" lon="113.271343">
        <time>2026-07-15T21:57:32Z</time>
      </trkpt>
      <trkpt lat="23.073348" lon="113.271279">
        <time>2026-07-15T21:57:37Z</time>
      </trkpt>
      <trkpt lat="23.073221" lon="113.271144">
        <time>2026-07-15T21:57:42Z</time>
      </trkpt>
      <trkpt lat="23.073082" lon="113.271072">
        <time>2026-07-15T21:57:47Z</time>
      </trkpt>
      <trkpt lat="23.072999" lon="113.271036">
        <time>2026-07-15T21:57:52Z</time>
      </trkpt>
      <trkpt lat="23.072911" lon="113.270971">
        <time>2026-07-15T21:57:57Z</time>
      </trkpt>
      <trkpt lat="23.072767" lon="113.270876">
        <time>2026-07-15T21:58:02Z</time>
      </trkpt>
      <trkpt lat="23.072622" lon="113.270804">
        <time>2026-07-15T21:58:07Z</time>
      </trkpt>
      <trkpt lat="23.072517" lon="113.270767">
        <time>2026-07-15T21:58:12Z</time>
      </trkpt>
      <trkpt lat="23.072411" lon="113.270728">
        <time>2026-07-15T21:58:17Z</time>
      </trkpt>
      <trkpt lat="23.072261" lon="113.270658">
        <time>2026-07-15T21:58:22Z</time>
      </trkpt>
      <trkpt lat="23.072127" lon="113.270556">
        <time>2026-07-15T21:58:27Z</time>
      </trkpt>
      <trkpt lat="23.072043" lon="113.270486">
        <time>2026-07-15T21:58:32Z</time>
      </trkpt>
      <trkpt lat="23.071951" lon="113.270438">
        <time>2026-07-15T21:58:37Z</time>
      </trkpt>
      <trkpt lat="23.071811" lon="113.270361">
        <time>2026-07-15T21:58:42Z</time>
      </trkpt>
      <trkpt lat="23.07167" lon="113.270295">
        <time>2026-07-15T21:58:47Z</time>
      </trkpt>
      <trkpt lat="23.071573" lon="113.270272">
        <time>2026-07-15T21:58:52Z</time>
      </trkpt>
      <trkpt lat="23.071472" lon="113.270253">
        <time>2026-07-15T21:58:57Z</time>
      </trkpt>
      <trkpt lat="23.071328" lon="113.270204">
        <time>2026-07-15T21:59:02Z</time>
      </trkpt>
      <trkpt lat="23.071184" lon="113.27014">
        <time>2026-07-15T21:59:07Z</time>
      </trkpt>
      <trkpt lat="23.071091" lon="113.270106">
        <time>2026-07-15T21:59:12Z</time>
      </trkpt>
      <trkpt lat="23.070992" lon="113.270066">
        <time>2026-07-15T21:59:17Z</time>
      </trkpt>
      <trkpt lat="23.070854" lon="113.269985">
        <time>2026-07-15T21:59:22Z</time>
      </trkpt>
      <trkpt lat="23.070718" lon="113.269885">
        <time>2026-07-15T21:59:27Z</time>
      </trkpt>
      <trkpt lat="23.070623" lon="113.269821">
        <time>2026-07-15T21:59:32Z</time>
      </trkpt>
      <trkpt lat="23.070516" lon="113.269783">
        <time>2026-07-15T21:59:37Z</time>
      </trkpt>
      <trkpt lat="23.070372" lon="113.269702">
        <time>2026-07-15T21:59:42Z</time>
      </trkpt>
      <trkpt lat="23.07022" lon="113.269639">
        <time>2026-07-15T21:59:47Z</time>
      </trkpt>
      <trkpt lat="23.070122" lon="113.269608">
        <time>2026-07-15T21:59:52Z</time>
      </trkpt>
      <trkpt lat="23.070024" lon="113.269566">
        <time>2026-07-15T21:59:57Z</time>
      </trkpt>
      <trkpt lat="23.06988" lon="113.269482">
        <time>2026-07-15T22:00:02Z</time>
      </trkpt>
      <trkpt lat="23.06973" lon="113.269408">
        <time>2026-07-15T22:00:07Z</time>
      </trkpt>
      <trkpt lat="23.069629" lon="113.269358">
        <time>2026-07-15T22:00:12Z</time>
      </trkpt>
      <trkpt lat="23.069524" lon="113.26933">
        <time>2026-07-15T22:00:17Z</time>
      </trkpt>
      <trkpt lat="23.069386" lon="113.269272">
        <time>2026-07-15T22:00:22Z</time>
      </trkpt>
      <trkpt lat="23.069255" lon="113.269179">
        <time>2026-07-15T22:00:27Z</time>
      </trkpt>
      <trkpt lat="23.069165" lon="113.269135">
        <time>2026-07-15T22:00:32Z</time>
      </trkpt>
      <trkpt lat="23.06907" lon="113.269103">
        <time>2026-07-15T22:00:37Z</time>
      </trkpt>
      <trkpt lat="23.068928" lon="113.26905">
        <time>2026-07-15T22:00:42Z</time>
      </trkpt>
      <trkpt lat="23.068785" lon="113.268987">
        <time>2026-07-15T22:00:47Z</time>
      </trkpt>
      <trkpt lat="23.068695" lon="113.268942">
        <time>2026-07-15T22:00:52Z</time>
      </trkpt>
      <trkpt lat="23.068603" lon="113.268902">
        <time>2026-07-15T22:00:57Z</time>
      </trkpt>
      <trkpt lat="23.068466" lon="113.268855">
        <time>2026-07-15T22:01:02Z</time>
      </trkpt>
      <trkpt lat="23.068301" lon="113.268815">
        <time>2026-07-15T22:01:07Z</time>
      </trkpt>
      <trkpt lat="23.068191" lon="113.268766">
        <time>2026-07-15T22:01:12Z</time>
      </trkpt>
      <trkpt lat="23.068092" lon="113.268698">
        <time>2026-07-15T22:01:17Z</time>
      </trkpt>
      <trkpt lat="23.067988" lon="113.268549">
        <time>2026-07-15T22:01:22Z</time>
      </trkpt>
      <trkpt lat="23.06788" lon="113.268411">
        <time>2026-07-15T22:01:27Z</time>
      </trkpt>
      <trkpt lat="23.067787" lon="113.268355">
        <time>2026-07-15T22:01:32Z</time>
      </trkpt>
      <trkpt lat="23.067688" lon="113.268307">
        <time>2026-07-15T22:01:37Z</time>
      </trkpt>
      <trkpt lat="23.067547" lon="113.268242">
        <time>2026-07-15T22:01:42Z</time>
      </trkpt>
      <trkpt lat="23.067403" lon="113.268194">
        <time>2026-07-15T22:01:47Z</time>
      </trkpt>
      <trkpt lat="23.067313" lon="113.268164">
        <time>2026-07-15T22:01:52Z</time>
      </trkpt>
      <trkpt lat="23.067247" lon="113.268149">
        <time>2026-07-15T22:01:57Z</time>
      </trkpt>
      <trkpt lat="23.067135" lon="113.268106">
        <time>2026-07-15T22:02:02Z</time>
      </trkpt>
      <trkpt lat="23.067014" lon="113.268038">
        <time>2026-07-15T22:02:07Z</time>
      </trkpt>
      <trkpt lat="23.066927" lon="113.268006">
        <time>2026-07-15T22:02:12Z</time>
      </trkpt>
      <trkpt lat="23.066827" lon="113.267979">
        <time>2026-07-15T22:02:17Z</time>
      </trkpt>
      <trkpt lat="23.066672" lon="113.26796">
        <time>2026-07-15T22:02:22Z</time>
      </trkpt>
      <trkpt lat="23.066519" lon="113.267907">
        <time>2026-07-15T22:02:27Z</time>
      </trkpt>
      <trkpt lat="23.066418" lon="113.267894">
        <time>2026-07-15T22:02:32Z</time>
      </trkpt>
      <trkpt lat="23.066319" lon="113.267909">
        <time>2026-07-15T22:02:37Z</time>
      </trkpt>
      <trkpt lat="23.06619" lon="113.267991">
        <time>2026-07-15T22:02:42Z</time>
      </trkpt>
      <trkpt lat="23.066086" lon="113.268112">
        <time>2026-07-15T22:02:47Z</time>
      </trkpt>
      <trkpt lat="23.066015" lon="113.268188">
        <time>2026-07-15T22:02:52Z</time>
      </trkpt>
      <trkpt lat="23.065948" lon="113.268271">
        <time>2026-07-15T22:02:57Z</time>
      </trkpt>
      <trkpt lat="23.065855" lon="113.268401">
        <time>2026-07-15T22:03:02Z</time>
      </trkpt>
      <trkpt lat="23.06577" lon="113.26854">
        <time>2026-07-15T22:03:07Z</time>
      </trkpt>
      <trkpt lat="23.065718" lon="113.268639">
        <time>2026-07-15T22:03:12Z</time>
      </trkpt>
      <trkpt lat="23.06567" lon="113.268743">
        <time>2026-07-15T22:03:17Z</time>
      </trkpt>
      <trkpt lat="23.065609" lon="113.268907">
        <time>2026-07-15T22:03:22Z</time>
      </trkpt>
      <trkpt lat="23.065558" lon="113.269071">
        <time>2026-07-15T22:03:27Z</time>
      </trkpt>
      <trkpt lat="23.065527" lon="113.269182">
        <time>2026-07-15T22:03:32Z</time>
      </trkpt>
      <trkpt lat="23.065503" lon="113.269298">
        <time>2026-07-15T22:03:37Z</time>
      </trkpt>
      <trkpt lat="23.065468" lon="113.269478">
        <time>2026-07-15T22:03:42Z</time>
      </trkpt>
      <trkpt lat="23.065428" lon="113.269653">
        <time>2026-07-15T22:03:47Z</time>
      </trkpt>
      <trkpt lat="23.065399" lon="113.269765">
        <time>2026-07-15T22:03:52Z</time>
      </trkpt>
      <trkpt lat="23.065365" lon="113.269877">
        <time>2026-07-15T22:03:57Z</time>
      </trkpt>
      <trkpt lat="23.065296" lon="113.27005">
        <time>2026-07-15T22:04:02Z</time>
      </trkpt>
      <trkpt lat="23.065219" lon="113.270218">
        <time>2026-07-15T22:04:07Z</time>
      </trkpt>
      <trkpt lat="23.065169" lon="113.270323">
        <time>2026-07-15T22:04:12Z</time>
      </trkpt>
      <trkpt lat="23.06512" lon="113.270425">
        <time>2026-07-15T22:04:17Z</time>
      </trkpt>
      <trkpt lat="23.06505" lon="113.270574">
        <time>2026-07-15T22:04:22Z</time>
      </trkpt>
      <trkpt lat="23.064982" lon="113.270727">
        <time>2026-07-15T22:04:27Z</time>
      </trkpt>
      <trkpt lat="23.064934" lon="113.270833">
        <time>2026-07-15T22:04:32Z</time>
      </trkpt>
      <trkpt lat="23.06489" lon="113.270943">
        <time>2026-07-15T22:04:37Z</time>
      </trkpt>
      <trkpt lat="23.064815" lon="113.2711">
        <time>2026-07-15T22:04:42Z</time>
      </trkpt>
      <trkpt lat="23.064742" lon="113.27126">
        <time>2026-07-15T22:04:47Z</time>
      </trkpt>
      <trkpt lat="23.064694" lon="113.271368">
        <time>2026-07-15T22:04:52Z</time>
      </trkpt>
      <trkpt lat="23.06464" lon="113.271472">
        <time>2026-07-15T22:04:57Z</time>
      </trkpt>
      <trkpt lat="23.064565" lon="113.271635">
        <time>2026-07-15T22:05:02Z</time>
      </trkpt>
      <trkpt lat="23.064487" lon="113.271818">
        <time>2026-07-15T22:05:07Z</time>
      </trkpt>
      <trkpt lat="23.064428" lon="113.271941">
        <time>2026-07-15T22:05:12Z</time>
      </trkpt>
      <trkpt lat="23.064369" lon="113.272068">
        <time>2026-07-15T22:05:17Z</time>
      </trkpt>
      <trkpt lat="23.064318" lon="113.272275">
        <time>2026-07-15T22:05:22Z</time>
      </trkpt>
      <trkpt lat="23.064308" lon="113.272489">
        <time>2026-07-15T22:05:27Z</time>
      </trkpt>
      <trkpt lat="23.064327" lon="113.27263">
        <time>2026-07-15T22:05:32Z</time>
      </trkpt>
      <trkpt lat="23.064369" lon="113.272769">
        <time>2026-07-15T22:05:37Z</time>
      </trkpt>
      <trkpt lat="23.064437" lon="113.272961">
        <time>2026-07-15T22:05:42Z</time>
      </trkpt>
      <trkpt lat="23.064461" lon="113.273168">
        <time>2026-07-15T22:05:47Z</time>
      </trkpt>
      <trkpt lat="23.064401" lon="113.273286">
        <time>2026-07-15T22:05:52Z</time>
      </trkpt>
      <trkpt lat="23.064291" lon="113.273372">
        <time>2026-07-15T22:05:57Z</time>
      </trkpt>
      <trkpt lat="23.064114" lon="113.273484">
        <time>2026-07-15T22:06:02Z</time>
      </trkpt>
      <trkpt lat="23.06395" lon="113.273605">
        <time>2026-07-15T22:06:07Z</time>
      </trkpt>
      <trkpt lat="23.063861" lon="113.27371">
        <time>2026-07-15T22:06:12Z</time>
      </trkpt>
      <trkpt lat="23.063789" lon="113.273829">
        <time>2026-07-15T22:06:17Z</time>
      </trkpt>
      <trkpt lat="23.063708" lon="113.274037">
        <time>2026-07-15T22:06:22Z</time>
      </trkpt>
      <trkpt lat="23.063578" lon="113.27418">
        <time>2026-07-15T22:06:27Z</time>
      </trkpt>
      <trkpt lat="23.063505" lon="113.27429">
        <time>2026-07-15T22:06:32Z</time>
      </trkpt>
      <trkpt lat="23.063449" lon="113.274425">
        <time>2026-07-15T22:06:37Z</time>
      </trkpt>
      <trkpt lat="23.063379" lon="113.274632">
        <time>2026-07-15T22:06:42Z</time>
      </trkpt>
      <trkpt lat="23.063311" lon="113.274837">
        <time>2026-07-15T22:06:47Z</time>
      </trkpt>
      <trkpt lat="23.063263" lon="113.274972">
        <time>2026-07-15T22:06:52Z</time>
      </trkpt>
      <trkpt lat="23.063202" lon="113.275096">
        <time>2026-07-15T22:06:57Z</time>
      </trkpt>
      <trkpt lat="23.063102" lon="113.27527">
        <time>2026-07-15T22:07:02Z</time>
      </trkpt>
      <trkpt lat="23.062995" lon="113.275448">
        <time>2026-07-15T22:07:07Z</time>
      </trkpt>
      <trkpt lat="23.062903" lon="113.275573">
        <time>2026-07-15T22:07:12Z</time>
      </trkpt>
      <trkpt lat="23.062799" lon="113.275686">
        <time>2026-07-15T22:07:17Z</time>
      </trkpt>
      <trkpt lat="23.062648" lon="113.275842">
        <time>2026-07-15T22:07:22Z</time>
      </trkpt>
      <trkpt lat="23.062519" lon="113.276014">
        <time>2026-07-15T22:07:27Z</time>
      </trkpt>
      <trkpt lat="23.062445" lon="113.276138">
        <time>2026-07-15T22:07:32Z</time>
      </trkpt>
      <trkpt lat="23.062381" lon="113.276254">
        <time>2026-07-15T22:07:37Z</time>
      </trkpt>
      <trkpt lat="23.062327" lon="113.276435">
        <time>2026-07-15T22:07:42Z</time>
      </trkpt>
      <trkpt lat="23.062275" lon="113.276634">
        <time>2026-07-15T22:07:47Z</time>
      </trkpt>
      <trkpt lat="23.062229" lon="113.276763">
        <time>2026-07-15T22:07:52Z</time>
      </trkpt>
      <trkpt lat="23.062184" lon="113.276893">
        <time>2026-07-15T22:07:57Z</time>
      </trkpt>
      <trkpt lat="23.062116" lon="113.277087">
        <time>2026-07-15T22:08:02Z</time>
      </trkpt>
      <trkpt lat="23.062036" lon="113.277306">
        <time>2026-07-15T22:08:07Z</time>
      </trkpt>
      <trkpt lat="23.061984" lon="113.277444">
        <time>2026-07-15T22:08:12Z</time>
      </trkpt>
      <trkpt lat="23.061933" lon="113.277575">
        <time>2026-07-15T22:08:17Z</time>
      </trkpt>
      <trkpt lat="23.061871" lon="113.277782">
        <time>2026-07-15T22:08:22Z</time>
      </trkpt>
      <trkpt lat="23.061856" lon="113.277993">
        <time>2026-07-15T22:08:27Z</time>
      </trkpt>
      <trkpt lat="23.061862" lon="113.278128">
        <time>2026-07-15T22:08:32Z</time>
      </trkpt>
      <trkpt lat="23.061867" lon="113.278261">
        <time>2026-07-15T22:08:37Z</time>
      </trkpt>
      <trkpt lat="23.061874" lon="113.278462">
        <time>2026-07-15T22:08:42Z</time>
      </trkpt>
      <trkpt lat="23.061873" lon="113.278663">
        <time>2026-07-15T22:08:47Z</time>
      </trkpt>
      <trkpt lat="23.061833" lon="113.278794">
        <time>2026-07-15T22:08:52Z</time>
      </trkpt>
      <trkpt lat="23.061766" lon="113.278919">
        <time>2026-07-15T22:08:57Z</time>
      </trkpt>
      <trkpt lat="23.061658" lon="113.279098">
        <time>2026-07-15T22:09:02Z</time>
      </trkpt>
      <trkpt lat="23.061574" lon="113.279283">
        <time>2026-07-15T22:09:07Z</time>
      </trkpt>
      <trkpt lat="23.061528" lon="113.279409">
        <time>2026-07-15T22:09:12Z</time>
      </trkpt>
      <trkpt lat="23.061475" lon="113.279534">
        <time>2026-07-15T22:09:17Z</time>
      </trkpt>
      <trkpt lat="23.061393" lon="113.279736">
        <time>2026-07-15T22:09:22Z</time>
      </trkpt>
      <trkpt lat="23.061313" lon="113.279936">
        <time>2026-07-15T22:09:27Z</time>
      </trkpt>
      <trkpt lat="23.061258" lon="113.280067">
        <time>2026-07-15T22:09:32Z</time>
      </trkpt>
      <trkpt lat="23.061203" lon="113.280204">
        <time>2026-07-15T22:09:37Z</time>
      </trkpt>
      <trkpt lat="23.061118" lon="113.280416">
        <time>2026-07-15T22:09:42Z</time>
      </trkpt>
      <trkpt lat="23.061025" lon="113.280622">
        <time>2026-07-15T22:09:47Z</time>
      </trkpt>
      <trkpt lat="23.060967" lon="113.280764">
        <time>2026-07-15T22:09:52Z</time>
      </trkpt>
      <trkpt lat="23.060909" lon="113.280896">
        <time>2026-07-15T22:09:57Z</time>
      </trkpt>
      <trkpt lat="23.060828" lon="113.28109">
        <time>2026-07-15T22:10:02Z</time>
      </trkpt>
      <trkpt lat="23.060747" lon="113.281284">
        <time>2026-07-15T22:10:07Z</time>
      </trkpt>
      <trkpt lat="23.060689" lon="113.281412">
        <time>2026-07-15T22:10:12Z</time>
      </trkpt>
      <trkpt lat="23.06063" lon="113.281539">
        <time>2026-07-15T22:10:17Z</time>
      </trkpt>
      <trkpt lat="23.060539" lon="113.281733">
        <time>2026-07-15T22:10:22Z</time>
      </trkpt>
      <trkpt lat="23.060452" lon="113.281925">
        <time>2026-07-15T22:10:27Z</time>
      </trkpt>
      <trkpt lat="23.060391" lon="113.282057">
        <time>2026-07-15T22:10:32Z</time>
      </trkpt>
      <trkpt lat="23.060334" lon="113.282192">
        <time>2026-07-15T22:10:37Z</time>
      </trkpt>
      <trkpt lat="23.060252" lon="113.282395">
        <time>2026-07-15T22:10:42Z</time>
      </trkpt>
      <trkpt lat="23.060166" lon="113.282596">
        <time>2026-07-15T22:10:47Z</time>
      </trkpt>
      <trkpt lat="23.060112" lon="113.282732">
        <time>2026-07-15T22:10:52Z</time>
      </trkpt>
      <trkpt lat="23.060057" lon="113.282866">
        <time>2026-07-15T22:10:57Z</time>
      </trkpt>
      <trkpt lat="23.059973" lon="113.28305">
        <time>2026-07-15T22:11:02Z</time>
      </trkpt>
      <trkpt lat="23.059892" lon="113.283225">
        <time>2026-07-15T22:11:07Z</time>
      </trkpt>
      <trkpt lat="23.059867" lon="113.283346">
        <time>2026-07-15T22:11:12Z</time>
      </trkpt>
      <trkpt lat="23.059925" lon="113.28335">
        <time>2026-07-15T22:11:17Z</time>
      </trkpt>
      <trkpt lat="23.060015" lon="113.283161">
        <time>2026-07-15T22:11:22Z</time>
      </trkpt>
      <trkpt lat="23.060101" lon="113.282974">
        <time>2026-07-15T22:11:27Z</time>
      </trkpt>
      <trkpt lat="23.06016" lon="113.282853">
        <time>2026-07-15T22:11:32Z</time>
      </trkpt>
      <trkpt lat="23.060219" lon="113.282727">
        <time>2026-07-15T22:11:37Z</time>
      </trkpt>
      <trkpt lat="23.060298" lon="113.282524">
        <time>2026-07-15T22:11:42Z</time>
      </trkpt>
      <trkpt lat="23.060373" lon="113.282314">
        <time>2026-07-15T22:11:47Z</time>
      </trkpt>
      <trkpt lat="23.060423" lon="113.282181">
        <time>2026-07-15T22:11:52Z</time>
      </trkpt>
      <trkpt lat="23.060475" lon="113.28205">
        <time>2026-07-15T22:11:57Z</time>
      </trkpt>
      <trkpt lat="23.060554" lon="113.281847">
        <time>2026-07-15T22:12:02Z</time>
      </trkpt>
      <trkpt lat="23.060638" lon="113.281645">
        <time>2026-07-15T22:12:07Z</time>
      </trkpt>
      <trkpt lat="23.060689" lon="113.281517">
        <time>2026-07-15T22:12:12Z</time>
      </trkpt>
      <trkpt lat="23.060741" lon="113.281388">
        <time>2026-07-15T22:12:17Z</time>
      </trkpt>
      <trkpt lat="23.06083" lon="113.281198">
        <time>2026-07-15T22:12:22Z</time>
      </trkpt>
      <trkpt lat="23.060909" lon="113.281006">
        <time>2026-07-15T22:12:27Z</time>
      </trkpt>
      <trkpt lat="23.060964" lon="113.280874">
        <time>2026-07-15T22:12:32Z</time>
      </trkpt>
      <trkpt lat="23.061023" lon="113.280739">
        <time>2026-07-15T22:12:37Z</time>
      </trkpt>
      <trkpt lat="23.061123" lon="113.280546">
        <time>2026-07-15T22:12:42Z</time>
      </trkpt>
      <trkpt lat="23.061225" lon="113.280354">
        <time>2026-07-15T22:12:47Z</time>
      </trkpt>
      <trkpt lat="23.061292" lon="113.280223">
        <time>2026-07-15T22:12:52Z</time>
      </trkpt>
      <trkpt lat="23.061355" lon="113.280092">
        <time>2026-07-15T22:12:57Z</time>
      </trkpt>
      <trkpt lat="23.061435" lon="113.279896">
        <time>2026-07-15T22:13:02Z</time>
      </trkpt>
      <trkpt lat="23.061501" lon="113.279696">
        <time>2026-07-15T22:13:07Z</time>
      </trkpt>
      <trkpt lat="23.061551" lon="113.279559">
        <time>2026-07-15T22:13:12Z</time>
      </trkpt>
      <trkpt lat="23.061604" lon="113.279427">
        <time>2026-07-15T22:13:17Z</time>
      </trkpt>
      <trkpt lat="23.061685" lon="113.279223">
        <time>2026-07-15T22:13:22Z</time>
      </trkpt>
      <trkpt lat="23.061785" lon="113.279039">
        <time>2026-07-15T22:13:27Z</time>
      </trkpt>
      <trkpt lat="23.061863" lon="113.278924">
        <time>2026-07-15T22:13:32Z</time>
      </trkpt>
      <trkpt lat="23.061932" lon="113.278798">
        <time>2026-07-15T22:13:37Z</time>
      </trkpt>
      <trkpt lat="23.061967" lon="113.278577">
        <time>2026-07-15T22:13:42Z</time>
      </trkpt>
      <trkpt lat="23.06196" lon="113.278346">
        <time>2026-07-15T22:13:47Z</time>
      </trkpt>
      <trkpt lat="23.061959" lon="113.278196">
        <time>2026-07-15T22:13:52Z</time>
      </trkpt>
      <trkpt lat="23.061957" lon="113.278049">
        <time>2026-07-15T22:13:57Z</time>
      </trkpt>
      <trkpt lat="23.061943" lon="113.277834">
        <time>2026-07-15T22:14:02Z</time>
      </trkpt>
      <trkpt lat="23.061969" lon="113.277622">
        <time>2026-07-15T22:14:07Z</time>
      </trkpt>
      <trkpt lat="23.062012" lon="113.277489">
        <time>2026-07-15T22:14:12Z</time>
      </trkpt>
      <trkpt lat="23.062061" lon="113.277356">
        <time>2026-07-15T22:14:17Z</time>
      </trkpt>
      <trkpt lat="23.062133" lon="113.277155">
        <time>2026-07-15T22:14:22Z</time>
      </trkpt>
      <trkpt lat="23.06221" lon="113.276957">
        <time>2026-07-15T22:14:27Z</time>
      </trkpt>
      <trkpt lat="23.062264" lon="113.276821">
        <time>2026-07-15T22:14:32Z</time>
      </trkpt>
      <trkpt lat="23.062318" lon="113.276687">
        <time>2026-07-15T22:14:37Z</time>
      </trkpt>
      <trkpt lat="23.062397" lon="113.276488">
        <time>2026-07-15T22:14:42Z</time>
      </trkpt>
      <trkpt lat="23.062477" lon="113.276283">
        <time>2026-07-15T22:14:47Z</time>
      </trkpt>
      <trkpt lat="23.062534" lon="113.276149">
        <time>2026-07-15T22:14:52Z</time>
      </trkpt>
      <trkpt lat="23.062603" lon="113.276023">
        <time>2026-07-15T22:14:57Z</time>
      </trkpt>
      <trkpt lat="23.062728" lon="113.275854">
        <time>2026-07-15T22:15:02Z</time>
      </trkpt>
      <trkpt lat="23.062874" lon="113.275707">
        <time>2026-07-15T22:15:07Z</time>
      </trkpt>
      <trkpt lat="23.062976" lon="113.275614">
        <time>2026-07-15T22:15:12Z</time>
      </trkpt>
      <trkpt lat="23.063064" lon="113.275506">
        <time>2026-07-15T22:15:17Z</time>
      </trkpt>
      <trkpt lat="23.063167" lon="113.275323">
        <time>2026-07-15T22:15:22Z</time>
      </trkpt>
      <trkpt lat="23.063265" lon="113.275137">
        <time>2026-07-15T22:15:27Z</time>
      </trkpt>
      <trkpt lat="23.063332" lon="113.275015">
        <time>2026-07-15T22:15:32Z</time>
      </trkpt>
      <trkpt lat="23.063383" lon="113.274885">
        <time>2026-07-15T22:15:37Z</time>
      </trkpt>
      <trkpt lat="23.063439" lon="113.274682">
        <time>2026-07-15T22:15:42Z</time>
      </trkpt>
      <trkpt lat="23.063504" lon="113.274477">
        <time>2026-07-15T22:15:47Z</time>
      </trkpt>
      <trkpt lat="23.063555" lon="113.27435">
        <time>2026-07-15T22:15:52Z</time>
      </trkpt>
      <trkpt lat="23.063629" lon="113.274238">
        <time>2026-07-15T22:15:57Z</time>
      </trkpt>
      <trkpt lat="23.063801" lon="113.274118">
        <time>2026-07-15T22:16:02Z</time>
      </trkpt>
      <trkpt lat="23.063926" lon="113.273966">
        <time>2026-07-15T22:16:07Z</time>
      </trkpt>
      <trkpt lat="23.063992" lon="113.273843">
        <time>2026-07-15T22:16:12Z</time>
      </trkpt>
      <trkpt lat="23.064073" lon="113.273734">
        <time>2026-07-15T22:16:17Z</time>
      </trkpt>
      <trkpt lat="23.064223" lon="113.273612">
        <time>2026-07-15T22:16:22Z</time>
      </trkpt>
      <trkpt lat="23.064379" lon="113.273496">
        <time>2026-07-15T22:16:27Z</time>
      </trkpt>
      <trkpt lat="23.064475" lon="113.273403">
        <time>2026-07-15T22:16:32Z</time>
      </trkpt>
      <trkpt lat="23.064556" lon="113.273292">
        <time>2026-07-15T22:16:37Z</time>
      </trkpt>
      <trkpt lat="23.064586" lon="113.273074">
        <time>2026-07-15T22:16:42Z</time>
      </trkpt>
      <trkpt lat="23.064519" lon="113.272846">
        <time>2026-07-15T22:16:47Z</time>
      </trkpt>
      <trkpt lat="23.064469" lon="113.2727">
        <time>2026-07-15T22:16:52Z</time>
      </trkpt>
      <trkpt lat="23.064446" lon="113.272562">
        <time>2026-07-15T22:16:57Z</time>
      </trkpt>
      <trkpt lat="23.064517" lon="113.272368">
        <time>2026-07-15T22:17:02Z</time>
      </trkpt>
      <trkpt lat="23.06456" lon="113.272159">
        <time>2026-07-15T22:17:07Z</time>
      </trkpt>
      <trkpt lat="23.064606" lon="113.272029">
        <time>2026-07-15T22:17:12Z</time>
      </trkpt>
      <trkpt lat="23.064661" lon="113.271907">
        <time>2026-07-15T22:17:17Z</time>
      </trkpt>
      <trkpt lat="23.064745" lon="113.271728">
        <time>2026-07-15T22:17:22Z</time>
      </trkpt>
      <trkpt lat="23.064842" lon="113.271546">
        <time>2026-07-15T22:17:27Z</time>
      </trkpt>
      <trkpt lat="23.064899" lon="113.271419">
        <time>2026-07-15T22:17:32Z</time>
      </trkpt>
      <trkpt lat="23.064962" lon="113.271289">
        <time>2026-07-15T22:17:37Z</time>
      </trkpt>
      <trkpt lat="23.065056" lon="113.271078">
        <time>2026-07-15T22:17:42Z</time>
      </trkpt>
      <trkpt lat="23.065141" lon="113.270866">
        <time>2026-07-15T22:17:47Z</time>
      </trkpt>
      <trkpt lat="23.065201" lon="113.270733">
        <time>2026-07-15T22:17:52Z</time>
      </trkpt>
      <trkpt lat="23.06527" lon="113.270604">
        <time>2026-07-15T22:17:57Z</time>
      </trkpt>
      <trkpt lat="23.065367" lon="113.270409">
        <time>2026-07-15T22:18:02Z</time>
      </trkpt>
      <trkpt lat="23.065458" lon="113.27022">
        <time>2026-07-15T22:18:07Z</time>
      </trkpt>
      <trkpt lat="23.065513" lon="113.270085">
        <time>2026-07-15T22:18:12Z</time>
      </trkpt>
      <trkpt lat="23.065561" lon="113.269946">
        <time>2026-07-15T22:18:17Z</time>
      </trkpt>
      <trkpt lat="23.065625" lon="113.269732">
        <time>2026-07-15T22:18:22Z</time>
      </trkpt>
      <trkpt lat="23.065687" lon="113.269525">
        <time>2026-07-15T22:18:27Z</time>
      </trkpt>
      <trkpt lat="23.065724" lon="113.269384">
        <time>2026-07-15T22:18:32Z</time>
      </trkpt>
      <trkpt lat="23.065758" lon="113.26924">
        <time>2026-07-15T22:18:37Z</time>
      </trkpt>
      <trkpt lat="23.065815" lon="113.269034">
        <time>2026-07-15T22:18:42Z</time>
      </trkpt>
      <trkpt lat="23.065899" lon="113.26884">
        <time>2026-07-15T22:18:47Z</time>
      </trkpt>
      <trkpt lat="23.065957" lon="113.268715">
        <time>2026-07-15T22:18:52Z</time>
      </trkpt>
      <trkpt lat="23.066025" lon="113.268598">
        <time>2026-07-15T22:18:57Z</time>
      </trkpt>
      <trkpt lat="23.066142" lon="113.268422">
        <time>2026-07-15T22:19:02Z</time>
      </trkpt>
      <trkpt lat="23.066266" lon="113.268258">
        <time>2026-07-15T22:19:07Z</time>
      </trkpt>
      <trkpt lat="23.066372" lon="113.268172">
        <time>2026-07-15T22:19:12Z</time>
      </trkpt>
      <trkpt lat="23.066499" lon="113.268132">
        <time>2026-07-15T22:19:17Z</time>
      </trkpt>
      <trkpt lat="23.066667" lon="113.268104">
        <time>2026-07-15T22:19:22Z</time>
      </trkpt>
      <trkpt lat="23.066553" lon="113.267973">
        <time>2026-07-15T22:19:27Z</time>
      </trkpt>
      <trkpt lat="23.066413" lon="113.267941">
        <time>2026-07-15T22:19:32Z</time>
      </trkpt>
      <trkpt lat="23.066283" lon="113.267962">
        <time>2026-07-15T22:19:37Z</time>
      </trkpt>
      <trkpt lat="23.066129" lon="113.268092">
        <time>2026-07-15T22:19:42Z</time>
      </trkpt>
      <trkpt lat="23.065996" lon="113.268248">
        <time>2026-07-15T22:19:47Z</time>
      </trkpt>
      <trkpt lat="23.065909" lon="113.268348">
        <time>2026-07-15T22:19:52Z</time>
      </trkpt>
      <trkpt lat="23.065832" lon="113.268462">
        <time>2026-07-15T22:19:57Z</time>
      </trkpt>
      <trkpt lat="23.065733" lon="113.26864">
        <time>2026-07-15T22:20:02Z</time>
      </trkpt>
      <trkpt lat="23.065656" lon="113.268837">
        <time>2026-07-15T22:20:07Z</time>
      </trkpt>
      <trkpt lat="23.065613" lon="113.268973">
        <time>2026-07-15T22:20:12Z</time>
      </trkpt>
      <trkpt lat="23.065568" lon="113.26911">
        <time>2026-07-15T22:20:17Z</time>
      </trkpt>
      <trkpt lat="23.065513" lon="113.269318">
        <time>2026-07-15T22:20:22Z</time>
      </trkpt>
      <trkpt lat="23.065464" lon="113.269531">
        <time>2026-07-15T22:20:27Z</time>
      </trkpt>
      <trkpt lat="23.065432" lon="113.269671">
        <time>2026-07-15T22:20:32Z</time>
      </trkpt>
      <trkpt lat="23.065396" lon="113.269806">
        <time>2026-07-15T22:20:37Z</time>
      </trkpt>
      <trkpt lat="23.065326" lon="113.27001">
        <time>2026-07-15T22:20:42Z</time>
      </trkpt>
      <trkpt lat="23.065233" lon="113.270212">
        <time>2026-07-15T22:20:47Z</time>
      </trkpt>
      <trkpt lat="23.065173" lon="113.270344">
        <time>2026-07-15T22:20:52Z</time>
      </trkpt>
      <trkpt lat="23.065118" lon="113.270479">
        <time>2026-07-15T22:20:57Z</time>
      </trkpt>
      <trkpt lat="23.065032" lon="113.270681">
        <time>2026-07-15T22:21:02Z</time>
      </trkpt>
      <trkpt lat="23.064944" lon="113.270881">
        <time>2026-07-15T22:21:07Z</time>
      </trkpt>
      <trkpt lat="23.064889" lon="113.271015">
        <time>2026-07-15T22:21:12Z</time>
      </trkpt>
      <trkpt lat="23.064834" lon="113.271148">
        <time>2026-07-15T22:21:17Z</time>
      </trkpt>
      <trkpt lat="23.064743" lon="113.271342">
        <time>2026-07-15T22:21:22Z</time>
      </trkpt>
      <trkpt lat="23.064656" lon="113.271534">
        <time>2026-07-15T22:21:27Z</time>
      </trkpt>
      <trkpt lat="23.064589" lon="113.271669">
        <time>2026-07-15T22:21:32Z</time>
      </trkpt>
      <trkpt lat="23.064526" lon="113.271806">
        <time>2026-07-15T22:21:37Z</time>
      </trkpt>
      <trkpt lat="23.064431" lon="113.272003">
        <time>2026-07-15T22:21:42Z</time>
      </trkpt>
      <trkpt lat="23.064345" lon="113.272197">
        <time>2026-07-15T22:21:47Z</time>
      </trkpt>
      <trkpt lat="23.064316" lon="113.272335">
        <time>2026-07-15T22:21:52Z</time>
      </trkpt>
      <trkpt lat="23.064307" lon="113.272474">
        <time>2026-07-15T22:21:57Z</time>
      </trkpt>
      <trkpt lat="23.06433" lon="113.272689">
        <time>2026-07-15T22:22:02Z</time>
      </trkpt>
      <trkpt lat="23.064395" lon="113.272897">
        <time>2026-07-15T22:22:07Z</time>
      </trkpt>
      <trkpt lat="23.064442" lon="113.273037">
        <time>2026-07-15T22:22:12Z</time>
      </trkpt>
      <trkpt lat="23.064464" lon="113.273183">
        <time>2026-07-15T22:22:17Z</time>
      </trkpt>
      <trkpt lat="23.064361" lon="113.273372">
        <time>2026-07-15T22:22:22Z</time>
      </trkpt>
      <trkpt lat="23.064188" lon="113.273508">
        <time>2026-07-15T22:22:27Z</time>
      </trkpt>
      <trkpt lat="23.064068" lon="113.273594">
        <time>2026-07-15T22:22:32Z</time>
      </trkpt>
      <trkpt lat="23.063954" lon="113.273681">
        <time>2026-07-15T22:22:37Z</time>
      </trkpt>
      <trkpt lat="23.063825" lon="113.27384">
        <time>2026-07-15T22:22:42Z</time>
      </trkpt>
      <trkpt lat="23.063721" lon="113.27402">
        <time>2026-07-15T22:22:47Z</time>
      </trkpt>
      <trkpt lat="23.063628" lon="113.274123">
        <time>2026-07-15T22:22:52Z</time>
      </trkpt>
      <trkpt lat="23.063535" lon="113.274214">
        <time>2026-07-15T22:22:57Z</time>
      </trkpt>
      <trkpt lat="23.063441" lon="113.274398">
        <time>2026-07-15T22:23:02Z</time>
      </trkpt>
      <trkpt lat="23.063379" lon="113.274614">
        <time>2026-07-15T22:23:07Z</time>
      </trkpt>
      <trkpt lat="23.063342" lon="113.274752">
        <time>2026-07-15T22:23:12Z</time>
      </trkpt>
      <trkpt lat="23.063302" lon="113.27489">
        <time>2026-07-15T22:23:17Z</time>
      </trkpt>
      <trkpt lat="23.063219" lon="113.275089">
        <time>2026-07-15T22:23:22Z</time>
      </trkpt>
      <trkpt lat="23.063114" lon="113.275273">
        <time>2026-07-15T22:23:27Z</time>
      </trkpt>
      <trkpt lat="23.063045" lon="113.275397">
        <time>2026-07-15T22:23:32Z</time>
      </trkpt>
      <trkpt lat="23.062971" lon="113.275518">
        <time>2026-07-15T22:23:37Z</time>
      </trkpt>
      <trkpt lat="23.062832" lon="113.275684">
        <time>2026-07-15T22:23:42Z</time>
      </trkpt>
      <trkpt lat="23.062671" lon="113.27583">
        <time>2026-07-15T22:23:47Z</time>
      </trkpt>
      <trkpt lat="23.062576" lon="113.275947">
        <time>2026-07-15T22:23:52Z</time>
      </trkpt>
      <trkpt lat="23.062499" lon="113.276075">
        <time>2026-07-15T22:23:57Z</time>
      </trkpt>
      <trkpt lat="23.062405" lon="113.276285">
        <time>2026-07-15T22:24:02Z</time>
      </trkpt>
      <trkpt lat="23.062324" lon="113.276498">
        <time>2026-07-15T22:24:07Z</time>
      </trkpt>
      <trkpt lat="23.062273" lon="113.276638">
        <time>2026-07-15T22:24:12Z</time>
      </trkpt>
      <trkpt lat="23.062226" lon="113.276772">
        <time>2026-07-15T22:24:17Z</time>
      </trkpt>
      <trkpt lat="23.062143" lon="113.276966">
        <time>2026-07-15T22:24:22Z</time>
      </trkpt>
      <trkpt lat="23.062055" lon="113.277182">
        <time>2026-07-15T22:24:27Z</time>
      </trkpt>
      <trkpt lat="23.061999" lon="113.27733">
        <time>2026-07-15T22:24:32Z</time>
      </trkpt>
      <trkpt lat="23.061946" lon="113.277477">
        <time>2026-07-15T22:24:37Z</time>
      </trkpt>
      <trkpt lat="23.061874" lon="113.277697">
        <time>2026-07-15T22:24:42Z</time>
      </trkpt>
      <trkpt lat="23.06184" lon="113.277916">
        <time>2026-07-15T22:24:47Z</time>
      </trkpt>
      <trkpt lat="23.061841" lon="113.27806">
        <time>2026-07-15T22:24:52Z</time>
      </trkpt>
      <trkpt lat="23.061849" lon="113.278196">
        <time>2026-07-15T22:24:57Z</time>
      </trkpt>
      <trkpt lat="23.061852" lon="113.278405">
        <time>2026-07-15T22:25:02Z</time>
      </trkpt>
      <trkpt lat="23.061855" lon="113.278617">
        <time>2026-07-15T22:25:07Z</time>
      </trkpt>
      <trkpt lat="23.061838" lon="113.278754">
        <time>2026-07-15T22:25:12Z</time>
      </trkpt>
      <trkpt lat="23.061788" lon="113.278883">
        <time>2026-07-15T22:25:17Z</time>
      </trkpt>
      <trkpt lat="23.061684" lon="113.279067">
        <time>2026-07-15T22:25:22Z</time>
      </trkpt>
      <trkpt lat="23.061585" lon="113.279259">
        <time>2026-07-15T22:25:27Z</time>
      </trkpt>
      <trkpt lat="23.061528" lon="113.279389">
        <time>2026-07-15T22:25:32Z</time>
      </trkpt>
      <trkpt lat="23.061474" lon="113.279515">
        <time>2026-07-15T22:25:37Z</time>
      </trkpt>
      <trkpt lat="23.061393" lon="113.279713">
        <time>2026-07-15T22:25:42Z</time>
      </trkpt>
      <trkpt lat="23.061307" lon="113.279924">
        <time>2026-07-15T22:25:47Z</time>
      </trkpt>
      <trkpt lat="23.061239" lon="113.280059">
        <time>2026-07-15T22:25:52Z</time>
      </trkpt>
      <trkpt lat="23.061187" lon="113.280199">
        <time>2026-07-15T22:25:57Z</time>
      </trkpt>
      <trkpt lat="23.061111" lon="113.280403">
        <time>2026-07-15T22:26:02Z</time>
      </trkpt>
      <trkpt lat="23.061016" lon="113.2806">
        <time>2026-07-15T22:26:07Z</time>
      </trkpt>
      <trkpt lat="23.060953" lon="113.280731">
        <time>2026-07-15T22:26:12Z</time>
      </trkpt>
      <trkpt lat="23.060899" lon="113.280862">
        <time>2026-07-15T22:26:17Z</time>
      </trkpt>
      <trkpt lat="23.060814" lon="113.281052">
        <time>2026-07-15T22:26:22Z</time>
      </trkpt>
      <trkpt lat="23.060724" lon="113.281247">
        <time>2026-07-15T22:26:27Z</time>
      </trkpt>
      <trkpt lat="23.060658" lon="113.281376">
        <time>2026-07-15T22:26:32Z</time>
      </trkpt>
      <trkpt lat="23.060594" lon="113.281506">
        <time>2026-07-15T22:26:37Z</time>
      </trkpt>
      <trkpt lat="23.060507" lon="113.281702">
        <time>2026-07-15T22:26:42Z</time>
      </trkpt>
      <trkpt lat="23.060435" lon="113.281894">
        <time>2026-07-15T22:26:47Z</time>
      </trkpt>
      <trkpt lat="23.06038" lon="113.282022">
        <time>2026-07-15T22:26:52Z</time>
      </trkpt>
      <trkpt lat="23.060322" lon="113.28216">
        <time>2026-07-15T22:26:57Z</time>
      </trkpt>
      <trkpt lat="23.060241" lon="113.28237">
        <time>2026-07-15T22:27:02Z</time>
      </trkpt>
      <trkpt lat="23.060167" lon="113.282561">
        <time>2026-07-15T22:27:07Z</time>
      </trkpt>
      <trkpt lat="23.060113" lon="113.282684">
        <time>2026-07-15T22:27:12Z</time>
      </trkpt>
      <trkpt lat="23.060056" lon="113.282809">
        <time>2026-07-15T22:27:17Z</time>
      </trkpt>
      <trkpt lat="23.059974" lon="113.283007">
        <time>2026-07-15T22:27:22Z</time>
      </trkpt>
      <trkpt lat="23.059897" lon="113.283202">
        <time>2026-07-15T22:27:27Z</time>
      </trkpt>
      <trkpt lat="23.059858" lon="113.283326">
        <time>2026-07-15T22:27:32Z</time>
      </trkpt>
      <trkpt lat="23.059909" lon="113.283377">
        <time>2026-07-15T22:27:37Z</time>
      </trkpt>
      <trkpt lat="23.060023" lon="113.283218">
        <time>2026-07-15T22:27:42Z</time>
      </trkpt>
      <trkpt lat="23.060113" lon="113.283013">
        <time>2026-07-15T22:27:47Z</time>
      </trkpt>
      <trkpt lat="23.060163" lon="113.282872">
        <time>2026-07-15T22:27:52Z</time>
      </trkpt>
      <trkpt lat="23.060216" lon="113.282732">
        <time>2026-07-15T22:27:57Z</time>
      </trkpt>
      <trkpt lat="23.060299" lon="113.282521">
        <time>2026-07-15T22:28:02Z</time>
      </trkpt>
      <trkpt lat="23.060379" lon="113.282322">
        <time>2026-07-15T22:28:07Z</time>
      </trkpt>
      <trkpt lat="23.06044" lon="113.282194">
        <time>2026-07-15T22:28:12Z</time>
      </trkpt>
      <trkpt lat="23.060504" lon="113.282068">
        <time>2026-07-15T22:28:17Z</time>
      </trkpt>
      <trkpt lat="23.060594" lon="113.281881">
        <time>2026-07-15T22:28:22Z</time>
      </trkpt>
      <trkpt lat="23.060674" lon="113.281691">
        <time>2026-07-15T22:28:27Z</time>
      </trkpt>
      <trkpt lat="23.060723" lon="113.281563">
        <time>2026-07-15T22:28:32Z</time>
      </trkpt>
      <trkpt lat="23.060773" lon="113.281439">
        <time>2026-07-15T22:28:37Z</time>
      </trkpt>
      <trkpt lat="23.060849" lon="113.281249">
        <time>2026-07-15T22:28:42Z</time>
      </trkpt>
      <trkpt lat="23.060925" lon="113.281065">
        <time>2026-07-15T22:28:47Z</time>
      </trkpt>
      <trkpt lat="23.060977" lon="113.28094">
        <time>2026-07-15T22:28:52Z</time>
      </trkpt>
      <trkpt lat="23.061027" lon="113.280809">
        <time>2026-07-15T22:28:57Z</time>
      </trkpt>
      <trkpt lat="23.061113" lon="113.28061">
        <time>2026-07-15T22:29:02Z</time>
      </trkpt>
      <trkpt lat="23.061201" lon="113.280412">
        <time>2026-07-15T22:29:07Z</time>
      </trkpt>
      <trkpt lat="23.06126" lon="113.280281">
        <time>2026-07-15T22:29:12Z</time>
      </trkpt>
      <trkpt lat="23.061323" lon="113.280148">
        <time>2026-07-15T22:29:17Z</time>
      </trkpt>
      <trkpt lat="23.061407" lon="113.279951">
        <time>2026-07-15T22:29:22Z</time>
      </trkpt>
      <trkpt lat="23.061483" lon="113.279741">
        <time>2026-07-15T22:29:27Z</time>
      </trkpt>
      <trkpt lat="23.06153" lon="113.27961">
        <time>2026-07-15T22:29:32Z</time>
      </trkpt>
      <trkpt lat="23.061575" lon="113.279486">
        <time>2026-07-15T22:29:37Z</time>
      </trkpt>
      <trkpt lat="23.061651" lon="113.279298">
        <time>2026-07-15T22:29:42Z</time>
      </trkpt>
      <trkpt lat="23.061744" lon="113.27911">
        <time>2026-07-15T22:29:47Z</time>
      </trkpt>
      <trkpt lat="23.061821" lon="113.27899">
        <time>2026-07-15T22:29:52Z</time>
      </trkpt>
      <trkpt lat="23.061902" lon="113.278872">
        <time>2026-07-15T22:29:57Z</time>
      </trkpt>
      <trkpt lat="23.06198" lon="113.278678">
        <time>2026-07-15T22:30:02Z</time>
      </trkpt>
      <trkpt lat="23.061983" lon="113.278466">
        <time>2026-07-15T22:30:07Z</time>
      </trkpt>
      <trkpt lat="23.061975" lon="113.278324">
        <time>2026-07-15T22:30:12Z</time>
      </trkpt>
      <trkpt lat="23.061965" lon="113.278176">
        <time>2026-07-15T22:30:17Z</time>
      </trkpt>
      <trkpt lat="23.061962" lon="113.277955">
        <time>2026-07-15T22:30:22Z</time>
      </trkpt>
      <trkpt lat="23.061971" lon="113.277743">
        <time>2026-07-15T22:30:27Z</time>
      </trkpt>
      <trkpt lat="23.061997" lon="113.277608">
        <time>2026-07-15T22:30:32Z</time>
      </trkpt>
      <trkpt lat="23.062042" lon="113.277471">
        <time>2026-07-15T22:30:37Z</time>
      </trkpt>
      <trkpt lat="23.062122" lon="113.277266">
        <time>2026-07-15T22:30:42Z</time>
      </trkpt>
      <trkpt lat="23.062179" lon="113.277058">
        <time>2026-07-15T22:30:47Z</time>
      </trkpt>
      <trkpt lat="23.062233" lon="113.276935">
        <time>2026-07-15T22:30:52Z</time>
      </trkpt>
      <trkpt lat="23.062288" lon="113.276811">
        <time>2026-07-15T22:30:57Z</time>
      </trkpt>
      <trkpt lat="23.062364" lon="113.27662">
        <time>2026-07-15T22:31:02Z</time>
      </trkpt>
      <trkpt lat="23.062434" lon="113.276422">
        <time>2026-07-15T22:31:07Z</time>
      </trkpt>
      <trkpt lat="23.062481" lon="113.276294">
        <time>2026-07-15T22:31:12Z</time>
      </trkpt>
      <trkpt lat="23.062535" lon="113.276167">
        <time>2026-07-15T22:31:17Z</time>
      </trkpt>
      <trkpt lat="23.062643" lon="113.275988">
        <time>2026-07-15T22:31:22Z</time>
      </trkpt>
      <trkpt lat="23.062772" lon="113.275828">
        <time>2026-07-15T22:31:27Z</time>
      </trkpt>
      <trkpt lat="23.062867" lon="113.275731">
        <time>2026-07-15T22:31:32Z</time>
      </trkpt>
      <trkpt lat="23.062964" lon="113.275632">
        <time>2026-07-15T22:31:37Z</time>
      </trkpt>
      <trkpt lat="23.063092" lon="113.275459">
        <time>2026-07-15T22:31:42Z</time>
      </trkpt>
      <trkpt lat="23.063194" lon="113.275273">
        <time>2026-07-15T22:31:47Z</time>
      </trkpt>
      <trkpt lat="23.063274" lon="113.275155">
        <time>2026-07-15T22:31:52Z</time>
      </trkpt>
      <trkpt lat="23.063358" lon="113.275041">
        <time>2026-07-15T22:31:57Z</time>
      </trkpt>
      <trkpt lat="23.063427" lon="113.274848">
        <time>2026-07-15T22:32:02Z</time>
      </trkpt>
      <trkpt lat="23.063485" lon="113.274645">
        <time>2026-07-15T22:32:07Z</time>
      </trkpt>
      <trkpt lat="23.063525" lon="113.274514">
        <time>2026-07-15T22:32:12Z</time>
      </trkpt>
      <trkpt lat="23.063571" lon="113.274397">
        <time>2026-07-15T22:32:17Z</time>
      </trkpt>
      <trkpt lat="23.063687" lon="113.274264">
        <time>2026-07-15T22:32:22Z</time>
      </trkpt>
      <trkpt lat="23.06375" lon="113.274195">
        <time>2026-07-15T22:32:27Z</time>
      </trkpt>
      <trkpt lat="23.063774" lon="113.274165">
        <time>2026-07-15T22:32:32Z</time>
      </trkpt>
      <trkpt lat="23.063798" lon="113.274134">
        <time>2026-07-15T22:32:37Z</time>
      </trkpt>
      <trkpt lat="23.063832" lon="113.274076">
        <time>2026-07-15T22:32:42Z</time>
      </trkpt>
      <trkpt lat="23.063883" lon="113.273994">
        <time>2026-07-15T22:32:47Z</time>
      </trkpt>
      <trkpt lat="23.063916" lon="113.273945">
        <time>2026-07-15T22:32:52Z</time>
      </trkpt>
      <trkpt lat="23.063947" lon="113.273897">
        <time>2026-07-15T22:32:57Z</time>
      </trkpt>
      <trkpt lat="23.063997" lon="113.27383">
        <time>2026-07-15T22:33:02Z</time>
      </trkpt>
      <trkpt lat="23.064038" lon="113.273773">
        <time>2026-07-15T22:33:07Z</time>
      </trkpt>
      <trkpt lat="23.064068" lon="113.273737">
        <time>2026-07-15T22:33:12Z</time>
      </trkpt>
      <trkpt lat="23.0641" lon="113.273705">
        <time>2026-07-15T22:33:17Z</time>
      </trkpt>
      <trkpt lat="23.064152" lon="113.273666">
        <time>2026-07-15T22:33:22Z</time>
      </trkpt>
      <trkpt lat="23.064202" lon="113.273626">
        <time>2026-07-15T22:33:27Z</time>
      </trkpt>
      <trkpt lat="23.064234" lon="113.273598">
        <time>2026-07-15T22:33:32Z</time>
      </trkpt>
      <trkpt lat="23.064268" lon="113.273572">
        <time>2026-07-15T22:33:37Z</time>
      </trkpt>
      <trkpt lat="23.064314" lon="113.27353">
        <time>2026-07-15T22:33:42Z</time>
      </trkpt>
      <trkpt lat="23.064364" lon="113.273485">
        <time>2026-07-15T22:33:47Z</time>
      </trkpt>
      <trkpt lat="23.064404" lon="113.27346">
        <time>2026-07-15T22:33:52Z</time>
      </trkpt>
      <trkpt lat="23.064437" lon="113.273433">
        <time>2026-07-15T22:33:57Z</time>
      </trkpt>
      <trkpt lat="23.06448" lon="113.273391">
        <time>2026-07-15T22:34:02Z</time>
      </trkpt>
      <trkpt lat="23.064524" lon="113.273342">
        <time>2026-07-15T22:34:07Z</time>
      </trkpt>
      <trkpt lat="23.064547" lon="113.2733">
        <time>2026-07-15T22:34:12Z</time>
      </trkpt>
      <trkpt lat="23.064564" lon="113.273256">
        <time>2026-07-15T22:34:17Z</time>
      </trkpt>
      <trkpt lat="23.064576" lon="113.273177">
        <time>2026-07-15T22:34:22Z</time>
      </trkpt>
      <trkpt lat="23.06458" lon="113.273095">
        <time>2026-07-15T22:34:27Z</time>
      </trkpt>
      <trkpt lat="23.064567" lon="113.27303">
        <time>2026-07-15T22:34:32Z</time>
      </trkpt>
      <trkpt lat="23.064541" lon="113.272955">
        <time>2026-07-15T22:34:37Z</time>
      </trkpt>
      <trkpt lat="23.064494" lon="113.272835">
        <time>2026-07-15T22:34:42Z</time>
      </trkpt>
      <trkpt lat="23.064459" lon="113.272713">
        <time>2026-07-15T22:34:47Z</time>
      </trkpt>
      <trkpt lat="23.064446" lon="113.272628">
        <time>2026-07-15T22:34:52Z</time>
      </trkpt>
      <trkpt lat="23.064454" lon="113.27255">
        <time>2026-07-15T22:34:57Z</time>
      </trkpt>
      <trkpt lat="23.06454" lon="113.272468">
        <time>2026-07-15T22:35:02Z</time>
      </trkpt>
      <trkpt lat="23.064659" lon="113.272502">
        <time>2026-07-15T22:35:07Z</time>
      </trkpt>
      <trkpt lat="23.064731" lon="113.272529">
        <time>2026-07-15T22:35:12Z</time>
      </trkpt>
      <trkpt lat="23.064802" lon="113.272551">
        <time>2026-07-15T22:35:17Z</time>
      </trkpt>
      <trkpt lat="23.06491" lon="113.272584">
        <time>2026-07-15T22:35:22Z</time>
      </trkpt>
      <trkpt lat="23.065012" lon="113.272629">
        <time>2026-07-15T22:35:27Z</time>
      </trkpt>
      <trkpt lat="23.065083" lon="113.272657">
        <time>2026-07-15T22:35:32Z</time>
      </trkpt>
      <trkpt lat="23.065156" lon="113.272676">
        <time>2026-07-15T22:35:37Z</time>
      </trkpt>
      <trkpt lat="23.065265" lon="113.272703">
        <time>2026-07-15T22:35:42Z</time>
      </trkpt>
      <trkpt lat="23.065358" lon="113.272729">
        <time>2026-07-15T22:35:47Z</time>
      </trkpt>
      <trkpt lat="23.065422" lon="113.272744">
        <time>2026-07-15T22:35:52Z</time>
      </trkpt>
      <trkpt lat="23.06549" lon="113.272764">
        <time>2026-07-15T22:35:57Z</time>
      </trkpt>
      <trkpt lat="23.065601" lon="113.272799">
        <time>2026-07-15T22:36:02Z</time>
      </trkpt>
      <trkpt lat="23.065721" lon="113.272834">
        <time>2026-07-15T22:36:07Z</time>
      </trkpt>
      <trkpt lat="23.065789" lon="113.272857">
        <time>2026-07-15T22:36:12Z</time>
      </trkpt>
      <trkpt lat="23.06586" lon="113.272872">
        <time>2026-07-15T22:36:17Z</time>
      </trkpt>
      <trkpt lat="23.065975" lon="113.272873">
        <time>2026-07-15T22:36:22Z</time>
      </trkpt>
      <trkpt lat="23.066085" lon="113.272866">
        <time>2026-07-15T22:36:27Z</time>
      </trkpt>
      <trkpt lat="23.066151" lon="113.272844">
        <time>2026-07-15T22:36:32Z</time>
      </trkpt>
      <trkpt lat="23.066214" lon="113.272817">
        <time>2026-07-15T22:36:37Z</time>
      </trkpt>
      <trkpt lat="23.066307" lon="113.272765">
        <time>2026-07-15T22:36:42Z</time>
      </trkpt>
      <trkpt lat="23.066363" lon="113.272656">
        <time>2026-07-15T22:36:47Z</time>
      </trkpt>
      <trkpt lat="23.066382" lon="113.272573">
        <time>2026-07-15T22:36:52Z</time>
      </trkpt>
      <trkpt lat="23.066382" lon="113.272493">
        <time>2026-07-15T22:36:57Z</time>
      </trkpt>
      <trkpt lat="23.066375" lon="113.272376">
        <time>2026-07-15T22:37:02Z</time>
      </trkpt>
      <trkpt lat="23.066362" lon="113.272252">
        <time>2026-07-15T22:37:07Z</time>
      </trkpt>
      <trkpt lat="23.066358" lon="113.272168">
        <time>2026-07-15T22:37:12Z</time>
      </trkpt>
      <trkpt lat="23.066364" lon="113.272082">
        <time>2026-07-15T22:37:17Z</time>
      </trkpt>
      <trkpt lat="23.066388" lon="113.271953">
        <time>2026-07-15T22:37:22Z</time>
      </trkpt>
      <trkpt lat="23.066396" lon="113.27182">
        <time>2026-07-15T22:37:27Z</time>
      </trkpt>
      <trkpt lat="23.066408" lon="113.271731">
        <time>2026-07-15T22:37:32Z</time>
      </trkpt>
      <trkpt lat="23.066427" lon="113.271642">
        <time>2026-07-15T22:37:37Z</time>
      </trkpt>
      <trkpt lat="23.066442" lon="113.271517">
        <time>2026-07-15T22:37:42Z</time>
      </trkpt>
      <trkpt lat="23.066388" lon="113.271414">
        <time>2026-07-15T22:37:47Z</time>
      </trkpt>
      <trkpt lat="23.0663" lon="113.271387">
        <time>2026-07-15T22:37:52Z</time>
      </trkpt>
      <trkpt lat="23.06622" lon="113.271365">
        <time>2026-07-15T22:37:57Z</time>
      </trkpt>
      <trkpt lat="23.066078" lon="113.27132">
        <time>2026-07-15T22:38:02Z</time>
      </trkpt>
      <trkpt lat="23.065922" lon="113.271277">
        <time>2026-07-15T22:38:07Z</time>
      </trkpt>
      <trkpt lat="23.065828" lon="113.271259">
        <time>2026-07-15T22:38:12Z</time>
      </trkpt>
      <trkpt lat="23.065761" lon="113.271235">
        <time>2026-07-15T22:38:17Z</time>
      </trkpt>
      <trkpt lat="23.065647" lon="113.271193">
        <time>2026-07-15T22:38:22Z</time>
      </trkpt>
      <trkpt lat="23.065532" lon="113.271167">
        <time>2026-07-15T22:38:27Z</time>
      </trkpt>
      <trkpt lat="23.065453" lon="113.271146">
        <time>2026-07-15T22:38:32Z</time>
      </trkpt>
      <trkpt lat="23.065369" lon="113.271124">
        <time>2026-07-15T22:38:37Z</time>
      </trkpt>
      <trkpt lat="23.065245" lon="113.271074">
        <time>2026-07-15T22:38:42Z</time>
      </trkpt>
      <trkpt lat="23.065168" lon="113.27097">
        <time>2026-07-15T22:38:47Z</time>
      </trkpt>
      <trkpt lat="23.065148" lon="113.270892">
        <time>2026-07-15T22:38:52Z</time>
      </trkpt>
      <trkpt lat="23.065174" lon="113.270817">
        <time>2026-07-15T22:38:57Z</time>
      </trkpt>
      <trkpt lat="23.065237" lon="113.270711">
        <time>2026-07-15T22:39:02Z</time>
      </trkpt>
      <trkpt lat="23.065286" lon="113.270601">
        <time>2026-07-15T22:39:07Z</time>
      </trkpt>
      <trkpt lat="23.065319" lon="113.27053">
        <time>2026-07-15T22:39:12Z</time>
      </trkpt>
      <trkpt lat="23.065352" lon="113.270458">
        <time>2026-07-15T22:39:17Z</time>
      </trkpt>
      <trkpt lat="23.065398" lon="113.270348">
        <time>2026-07-15T22:39:22Z</time>
      </trkpt>
      <trkpt lat="23.065451" lon="113.270242">
        <time>2026-07-15T22:39:27Z</time>
      </trkpt>
      <trkpt lat="23.065485" lon="113.270171">
        <time>2026-07-15T22:39:32Z</time>
      </trkpt>
      <trkpt lat="23.065504" lon="113.270095">
        <time>2026-07-15T22:39:37Z</time>
      </trkpt>
      <trkpt lat="23.065542" lon="113.269986">
        <time>2026-07-15T22:39:42Z</time>
      </trkpt>
      <trkpt lat="23.065574" lon="113.269878">
        <time>2026-07-15T22:39:47Z</time>
      </trkpt>
      <trkpt lat="23.065596" lon="113.269805">
        <time>2026-07-15T22:39:52Z</time>
      </trkpt>
      <trkpt lat="23.065618" lon="113.269732">
        <time>2026-07-15T22:39:57Z</time>
      </trkpt>
      <trkpt lat="23.065652" lon="113.269618">
        <time>2026-07-15T22:40:02Z</time>
      </trkpt>
      <trkpt lat="23.065688" lon="113.269503">
        <time>2026-07-15T22:40:07Z</time>
      </trkpt>
      <trkpt lat="23.065707" lon="113.269431">
        <time>2026-07-15T22:40:12Z</time>
      </trkpt>
      <trkpt lat="23.065723" lon="113.269356">
        <time>2026-07-15T22:40:17Z</time>
      </trkpt>
      <trkpt lat="23.065755" lon="113.269239">
        <time>2026-07-15T22:40:22Z</time>
      </trkpt>
      <trkpt lat="23.065792" lon="113.269123">
        <time>2026-07-15T22:40:27Z</time>
      </trkpt>
      <trkpt lat="23.065817" lon="113.269047">
        <time>2026-07-15T22:40:32Z</time>
      </trkpt>
      <trkpt lat="23.065851" lon="113.268972">
        <time>2026-07-15T22:40:37Z</time>
      </trkpt>
      <trkpt lat="23.065903" lon="113.268864">
        <time>2026-07-15T22:40:42Z</time>
      </trkpt>
      <trkpt lat="23.065955" lon="113.268751">
        <time>2026-07-15T22:40:47Z</time>
      </trkpt>
      <trkpt lat="23.065996" lon="113.26868">
        <time>2026-07-15T22:40:52Z</time>
      </trkpt>
      <trkpt lat="23.066038" lon="113.268612">
        <time>2026-07-15T22:40:57Z</time>
      </trkpt>
      <trkpt lat="23.066105" lon="113.26851">
        <time>2026-07-15T22:41:02Z</time>
      </trkpt>
      <trkpt lat="23.06617" lon="113.268408">
        <time>2026-07-15T22:41:07Z</time>
      </trkpt>
      <trkpt lat="23.066216" lon="113.268346">
        <time>2026-07-15T22:41:12Z</time>
      </trkpt>
      <trkpt lat="23.066265" lon="113.268285">
        <time>2026-07-15T22:41:17Z</time>
      </trkpt>
      <trkpt lat="23.066353" lon="113.268193">
        <time>2026-07-15T22:41:22Z</time>
      </trkpt>
      <trkpt lat="23.066465" lon="113.268138">
        <time>2026-07-15T22:41:27Z</time>
      </trkpt>
      <trkpt lat="23.066544" lon="113.268133">
        <time>2026-07-15T22:41:32Z</time>
      </trkpt>
      <trkpt lat="23.066623" lon="113.268154">
        <time>2026-07-15T22:41:37Z</time>
      </trkpt>
      <trkpt lat="23.066736" lon="113.268183">
        <time>2026-07-15T22:41:42Z</time>
      </trkpt>
      <trkpt lat="23.066851" lon="113.268165">
        <time>2026-07-15T22:41:47Z</time>
      </trkpt>
      <trkpt lat="23.066929" lon="113.268169">
        <time>2026-07-15T22:41:52Z</time>
      </trkpt>
      <trkpt lat="23.067" lon="113.268196">
        <time>2026-07-15T22:41:57Z</time>
      </trkpt>
      <trkpt lat="23.067093" lon="113.268251">
        <time>2026-07-15T22:42:02Z</time>
      </trkpt>
      <trkpt lat="23.067195" lon="113.2683">
        <time>2026-07-15T22:42:07Z</time>
      </trkpt>
      <trkpt lat="23.067267" lon="113.268341">
        <time>2026-07-15T22:42:12Z</time>
      </trkpt>
      <trkpt lat="23.067341" lon="113.268385">
        <time>2026-07-15T22:42:17Z</time>
      </trkpt>
      <trkpt lat="23.067453" lon="113.26845">
        <time>2026-07-15T22:42:22Z</time>
      </trkpt>
      <trkpt lat="23.067557" lon="113.268503">
        <time>2026-07-15T22:42:27Z</time>
      </trkpt>
      <trkpt lat="23.067625" lon="113.268536">
        <time>2026-07-15T22:42:32Z</time>
      </trkpt>
      <trkpt lat="23.0677" lon="113.268569">
        <time>2026-07-15T22:42:37Z</time>
      </trkpt>
      <trkpt lat="23.067809" lon="113.268621">
        <time>2026-07-15T22:42:42Z</time>
      </trkpt>
      <trkpt lat="23.067906" lon="113.268681">
        <time>2026-07-15T22:42:47Z</time>
      </trkpt>
      <trkpt lat="23.067977" lon="113.2687">
        <time>2026-07-15T22:42:52Z</time>
      </trkpt>
      <trkpt lat="23.068019" lon="113.268642">
        <time>2026-07-15T22:42:57Z</time>
      </trkpt>
      <trkpt lat="23.067951" lon="113.268557">
        <time>2026-07-15T22:43:02Z</time>
      </trkpt>
      <trkpt lat="23.067844" lon="113.268505">
        <time>2026-07-15T22:43:07Z</time>
      </trkpt>
      <trkpt lat="23.067775" lon="113.268469">
        <time>2026-07-15T22:43:12Z</time>
      </trkpt>
      <trkpt lat="23.067705" lon="113.268431">
        <time>2026-07-15T22:43:17Z</time>
      </trkpt>
      <trkpt lat="23.067596" lon="113.268359">
        <time>2026-07-15T22:43:22Z</time>
      </trkpt>
      <trkpt lat="23.067484" lon="113.268288">
        <time>2026-07-15T22:43:27Z</time>
      </trkpt>
      <trkpt lat="23.067416" lon="113.26826">
        <time>2026-07-15T22:43:32Z</time>
      </trkpt>
      <trkpt lat="23.067349" lon="113.268229">
        <time>2026-07-15T22:43:37Z</time>
      </trkpt>
      <trkpt lat="23.067251" lon="113.268172">
        <time>2026-07-15T22:43:42Z</time>
      </trkpt>
      <trkpt lat="23.06715" lon="113.268135">
        <time>2026-07-15T22:43:47Z</time>
      </trkpt>
      <trkpt lat="23.067085" lon="113.268104">
        <time>2026-07-15T22:43:52Z</time>
      </trkpt>
      <trkpt lat="23.067014" lon="113.268076">
        <time>2026-07-15T22:43:57Z</time>
      </trkpt>
      <trkpt lat="23.066895" lon="113.268049">
        <time>2026-07-15T22:44:02Z</time>
      </trkpt>
      <trkpt lat="23.066765" lon="113.268039">
        <time>2026-07-15T22:44:07Z</time>
      </trkpt>
      <trkpt lat="23.066681" lon="113.268033">
        <time>2026-07-15T22:44:12Z</time>
      </trkpt>
      <trkpt lat="23.066606" lon="113.268016">
        <time>2026-07-15T22:44:17Z</time>
      </trkpt>
      <trkpt lat="23.066493" lon="113.26797">
        <time>2026-07-15T22:44:22Z</time>
      </trkpt>
      <trkpt lat="23.066376" lon="113.267946">
        <time>2026-07-15T22:44:27Z</time>
      </trkpt>
      <trkpt lat="23.066298" lon="113.26796">
        <time>2026-07-15T22:44:32Z</time>
      </trkpt>
      <trkpt lat="23.06623" lon="113.268">
        <time>2026-07-15T22:44:37Z</time>
      </trkpt>
      <trkpt lat="23.066134" lon="113.268092">
        <time>2026-07-15T22:44:42Z</time>
      </trkpt>
      <trkpt lat="23.066043" lon="113.26819">
        <time>2026-07-15T22:44:47Z</time>
      </trkpt>
      <trkpt lat="23.065985" lon="113.26825">
        <time>2026-07-15T22:44:52Z</time>
      </trkpt>
      <trkpt lat="23.065932" lon="113.268311">
        <time>2026-07-15T22:44:57Z</time>
      </trkpt>
      <trkpt lat="23.065861" lon="113.268409">
        <time>2026-07-15T22:45:02Z</time>
      </trkpt>
      <trkpt lat="23.065794" lon="113.268513">
        <time>2026-07-15T22:45:07Z</time>
      </trkpt>
      <trkpt lat="23.065751" lon="113.268586">
        <time>2026-07-15T22:45:12Z</time>
      </trkpt>
      <trkpt lat="23.065716" lon="113.268665">
        <time>2026-07-15T22:45:17Z</time>
      </trkpt>
      <trkpt lat="23.065673" lon="113.268788">
        <time>2026-07-15T22:45:22Z</time>
      </trkpt>
      <trkpt lat="23.065626" lon="113.268905">
        <time>2026-07-15T22:45:27Z</time>
      </trkpt>
      <trkpt lat="23.065595" lon="113.268986">
        <time>2026-07-15T22:45:32Z</time>
      </trkpt>
      <trkpt lat="23.065571" lon="113.26907">
        <time>2026-07-15T22:45:37Z</time>
      </trkpt>
      <trkpt lat="23.065537" lon="113.269196">
        <time>2026-07-15T22:45:42Z</time>
      </trkpt>
      <trkpt lat="23.06551" lon="113.26932">
        <time>2026-07-15T22:45:47Z</time>
      </trkpt>
      <trkpt lat="23.065493" lon="113.269408">
        <time>2026-07-15T22:45:52Z</time>
      </trkpt>
      <trkpt lat="23.065475" lon="113.269495">
        <time>2026-07-15T22:45:57Z</time>
      </trkpt>
      <trkpt lat="23.065445" lon="113.269627">
        <time>2026-07-15T22:46:02Z</time>
      </trkpt>
      <trkpt lat="23.065409" lon="113.269758">
        <time>2026-07-15T22:46:07Z</time>
      </trkpt>
      <trkpt lat="23.065378" lon="113.269843">
        <time>2026-07-15T22:46:12Z</time>
      </trkpt>
      <trkpt lat="23.065342" lon="113.269923">
        <time>2026-07-15T22:46:17Z</time>
      </trkpt>
      <trkpt lat="23.065296" lon="113.270048">
        <time>2026-07-15T22:46:22Z</time>
      </trkpt>
      <trkpt lat="23.065243" lon="113.27017">
        <time>2026-07-15T22:46:27Z</time>
      </trkpt>
      <trkpt lat="23.065209" lon="113.270248">
        <time>2026-07-15T22:46:32Z</time>
      </trkpt>
      <trkpt lat="23.065173" lon="113.270324">
        <time>2026-07-15T22:46:37Z</time>
      </trkpt>
      <trkpt lat="23.065115" lon="113.270442">
        <time>2026-07-15T22:46:42Z</time>
      </trkpt>
      <trkpt lat="23.065061" lon="113.270563">
        <time>2026-07-15T22:46:47Z</time>
      </trkpt>
      <trkpt lat="23.065028" lon="113.270645">
        <time>2026-07-15T22:46:52Z</time>
      </trkpt>
      <trkpt lat="23.064997" lon="113.270722">
        <time>2026-07-15T22:46:57Z</time>
      </trkpt>
      <trkpt lat="23.064942" lon="113.270831">
        <time>2026-07-15T22:47:02Z</time>
      </trkpt>
      <trkpt lat="23.064887" lon="113.270938">
        <time>2026-07-15T22:47:07Z</time>
      </trkpt>
      <trkpt lat="23.064861" lon="113.27102">
        <time>2026-07-15T22:47:12Z</time>
      </trkpt>
      <trkpt lat="23.064828" lon="113.271101">
        <time>2026-07-15T22:47:17Z</time>
      </trkpt>
      <trkpt lat="23.064773" lon="113.271223">
        <time>2026-07-15T22:47:22Z</time>
      </trkpt>
      <trkpt lat="23.064719" lon="113.271341">
        <time>2026-07-15T22:47:27Z</time>
      </trkpt>
      <trkpt lat="23.064679" lon="113.271418">
        <time>2026-07-15T22:47:32Z</time>
      </trkpt>
      <trkpt lat="23.064642" lon="113.271495">
        <time>2026-07-15T22:47:37Z</time>
      </trkpt>
      <trkpt lat="23.064587" lon="113.271612">
        <time>2026-07-15T22:47:42Z</time>
      </trkpt>
      <trkpt lat="23.064537" lon="113.271732">
        <time>2026-07-15T22:47:47Z</time>
      </trkpt>
      <trkpt lat="23.0645" lon="113.271811">
        <time>2026-07-15T22:47:52Z</time>
      </trkpt>
      <trkpt lat="23.064466" lon="113.271888">
        <time>2026-07-15T22:47:57Z</time>
      </trkpt>
      <trkpt lat="23.064416" lon="113.272005">
        <time>2026-07-15T22:48:02Z</time>
      </trkpt>
      <trkpt lat="23.064357" lon="113.272114">
        <time>2026-07-15T22:48:07Z</time>
      </trkpt>
      <trkpt lat="23.064324" lon="113.27219">
        <time>2026-07-15T22:48:12Z</time>
      </trkpt>
      <trkpt lat="23.064323" lon="113.272277">
        <time>2026-07-15T22:48:17Z</time>
      </trkpt>
      <trkpt lat="23.064383" lon="113.272392">
        <time>2026-07-15T22:48:22Z</time>
      </trkpt>
      <trkpt lat="23.064496" lon="113.272455">
        <time>2026-07-15T22:48:27Z</time>
      </trkpt>
      <trkpt lat="23.064577" lon="113.272481">
        <time>2026-07-15T22:48:32Z</time>
      </trkpt>
      <trkpt lat="23.06465" lon="113.272512">
        <time>2026-07-15T22:48:37Z</time>
      </trkpt>
      <trkpt lat="23.064758" lon="113.272553">
        <time>2026-07-15T22:48:42Z</time>
      </trkpt>
      <trkpt lat="23.064869" lon="113.272586">
        <time>2026-07-15T22:48:47Z</time>
      </trkpt>
      <trkpt lat="23.064947" lon="113.272607">
        <time>2026-07-15T22:48:52Z</time>
      </trkpt>
      <trkpt lat="23.065028" lon="113.27263">
        <time>2026-07-15T22:48:57Z</time>
      </trkpt>
      <trkpt lat="23.065149" lon="113.272662">
        <time>2026-07-15T22:49:02Z</time>
      </trkpt>
      <trkpt lat="23.065261" lon="113.2727">
        <time>2026-07-15T22:49:07Z</time>
      </trkpt>
      <trkpt lat="23.06533" lon="113.272722">
        <time>2026-07-15T22:49:12Z</time>
      </trkpt>
      <trkpt lat="23.0654" lon="113.27274">
        <time>2026-07-15T22:49:17Z</time>
      </trkpt>
      <trkpt lat="23.065513" lon="113.272774">
        <time>2026-07-15T22:49:22Z</time>
      </trkpt>
      <trkpt lat="23.06564" lon="113.272808">
        <time>2026-07-15T22:49:27Z</time>
      </trkpt>
      <trkpt lat="23.065729" lon="113.272823">
        <time>2026-07-15T22:49:32Z</time>
      </trkpt>
      <trkpt lat="23.065816" lon="113.272842">
        <time>2026-07-15T22:49:37Z</time>
      </trkpt>
      <trkpt lat="23.065943" lon="113.272858">
        <time>2026-07-15T22:49:42Z</time>
      </trkpt>
      <trkpt lat="23.066072" lon="113.272848">
        <time>2026-07-15T22:49:47Z</time>
      </trkpt>
      <trkpt lat="23.066153" lon="113.272826">
        <time>2026-07-15T22:49:52Z</time>
      </trkpt>
      <trkpt lat="23.066228" lon="113.272783">
        <time>2026-07-15T22:49:57Z</time>
      </trkpt>
      <trkpt lat="23.066343" lon="113.272719">
        <time>2026-07-15T22:50:02Z</time>
      </trkpt>
      <trkpt lat="23.066414" lon="113.272613">
        <time>2026-07-15T22:50:07Z</time>
      </trkpt>
      <trkpt lat="23.066414" lon="113.272514">
        <time>2026-07-15T22:50:12Z</time>
      </trkpt>
      <trkpt lat="23.066395" lon="113.272419">
        <time>2026-07-15T22:50:17Z</time>
      </trkpt>
      <trkpt lat="23.06638" lon="113.272283">
        <time>2026-07-15T22:50:22Z</time>
      </trkpt>
      <trkpt lat="23.066382" lon="113.272148">
        <time>2026-07-15T22:50:27Z</time>
      </trkpt>
      <trkpt lat="23.066395" lon="113.272057">
        <time>2026-07-15T22:50:32Z</time>
      </trkpt>
      <trkpt lat="23.066408" lon="113.271973">
        <time>2026-07-15T22:50:37Z</time>
      </trkpt>
      <trkpt lat="23.066418" lon="113.271845">
        <time>2026-07-15T22:50:42Z</time>
      </trkpt>
      <trkpt lat="23.066439" lon="113.271712">
        <time>2026-07-15T22:50:47Z</time>
      </trkpt>
      <trkpt lat="23.066438" lon="113.27162">
        <time>2026-07-15T22:50:52Z</time>
      </trkpt>
      <trkpt lat="23.066425" lon="113.271526">
        <time>2026-07-15T22:50:57Z</time>
      </trkpt>
      <trkpt lat="23.066402" lon="113.271408">
        <time>2026-07-15T22:51:02Z</time>
      </trkpt>
      <trkpt lat="23.066309" lon="113.271371">
        <time>2026-07-15T22:51:07Z</time>
      </trkpt>
      <trkpt lat="23.066212" lon="113.271354">
        <time>2026-07-15T22:51:12Z</time>
      </trkpt>
      <trkpt lat="23.06611" lon="113.271318">
        <time>2026-07-15T22:51:17Z</time>
      </trkpt>
      <trkpt lat="23.065959" lon="113.271283">
        <time>2026-07-15T22:51:22Z</time>
      </trkpt>
      <trkpt lat="23.065822" lon="113.271273">
        <time>2026-07-15T22:51:27Z</time>
      </trkpt>
      <trkpt lat="23.065735" lon="113.271252">
        <time>2026-07-15T22:51:32Z</time>
      </trkpt>
      <trkpt lat="23.065647" lon="113.271225">
        <time>2026-07-15T22:51:37Z</time>
      </trkpt>
      <trkpt lat="23.065525" lon="113.27119">
        <time>2026-07-15T22:51:42Z</time>
      </trkpt>
      <trkpt lat="23.065404" lon="113.271152">
        <time>2026-07-15T22:51:47Z</time>
      </trkpt>
      <trkpt lat="23.065323" lon="113.271124">
        <time>2026-07-15T22:51:52Z</time>
      </trkpt>
      <trkpt lat="23.065249" lon="113.271084">
        <time>2026-07-15T22:51:57Z</time>
      </trkpt>
      <trkpt lat="23.065173" lon="113.270975">
        <time>2026-07-15T22:52:02Z</time>
      </trkpt>
      <trkpt lat="23.065173" lon="113.270836">
        <time>2026-07-15T22:52:07Z</time>
      </trkpt>
      <trkpt lat="23.065219" lon="113.270749">
        <time>2026-07-15T22:52:12Z</time>
      </trkpt>
      <trkpt lat="23.065257" lon="113.270669">
        <time>2026-07-15T22:52:17Z</time>
      </trkpt>
      <trkpt lat="23.065315" lon="113.270552">
        <time>2026-07-15T22:52:22Z</time>
      </trkpt>
      <trkpt lat="23.065372" lon="113.270426">
        <time>2026-07-15T22:52:27Z</time>
      </trkpt>
      <trkpt lat="23.065418" lon="113.270344">
        <time>2026-07-15T22:52:32Z</time>
      </trkpt>
      <trkpt lat="23.065461" lon="113.27026">
        <time>2026-07-15T22:52:37Z</time>
      </trkpt>
      <trkpt lat="23.065512" lon="113.270127">
        <time>2026-07-15T22:52:42Z</time>
      </trkpt>
      <trkpt lat="23.065552" lon="113.270002">
        <time>2026-07-15T22:52:47Z</time>
      </trkpt>
      <trkpt lat="23.065575" lon="113.269923">
        <time>2026-07-15T22:52:52Z</time>
      </trkpt>
      <trkpt lat="23.065601" lon="113.269839">
        <time>2026-07-15T22:52:57Z</time>
      </trkpt>
      <trkpt lat="23.065648" lon="113.269709">
        <time>2026-07-15T22:53:02Z</time>
      </trkpt>
      <trkpt lat="23.065702" lon="113.269579">
        <time>2026-07-15T22:53:07Z</time>
      </trkpt>
      <trkpt lat="23.065727" lon="113.269487">
        <time>2026-07-15T22:53:12Z</time>
      </trkpt>
      <trkpt lat="23.065744" lon="113.269389">
        <time>2026-07-15T22:53:17Z</time>
      </trkpt>
      <trkpt lat="23.065781" lon="113.269247">
        <time>2026-07-15T22:53:22Z</time>
      </trkpt>
      <trkpt lat="23.065827" lon="113.269122">
        <time>2026-07-15T22:53:27Z</time>
      </trkpt>
      <trkpt lat="23.065858" lon="113.26904">
        <time>2026-07-15T22:53:32Z</time>
      </trkpt>
      <trkpt lat="23.06589" lon="113.268954">
        <time>2026-07-15T22:53:37Z</time>
      </trkpt>
      <trkpt lat="23.065933" lon="113.268829">
        <time>2026-07-15T22:53:42Z</time>
      </trkpt>
      <trkpt lat="23.06598" lon="113.268709">
        <time>2026-07-15T22:53:47Z</time>
      </trkpt>
      <trkpt lat="23.06602" lon="113.268634">
        <time>2026-07-15T22:53:52Z</time>
      </trkpt>
      <trkpt lat="23.066063" lon="113.268561">
        <time>2026-07-15T22:53:57Z</time>
      </trkpt>
      <trkpt lat="23.06613" lon="113.268453">
        <time>2026-07-15T22:54:02Z</time>
      </trkpt>
      <trkpt lat="23.066203" lon="113.268347">
        <time>2026-07-15T22:54:07Z</time>
      </trkpt>
      <trkpt lat="23.066257" lon="113.268278">
        <time>2026-07-15T22:54:12Z</time>
      </trkpt>
      <trkpt lat="23.066313" lon="113.268212">
        <time>2026-07-15T22:54:17Z</time>
      </trkpt>
      <trkpt lat="23.066429" lon="113.268144">
        <time>2026-07-15T22:54:22Z</time>
      </trkpt>
      <trkpt lat="23.066556" lon="113.268138">
        <time>2026-07-15T22:54:27Z</time>
      </trkpt>
      <trkpt lat="23.066643" lon="113.268165">
        <time>2026-07-15T22:54:32Z</time>
      </trkpt>
      <trkpt lat="23.06673" lon="113.268178">
        <time>2026-07-15T22:54:37Z</time>
      </trkpt>
      <trkpt lat="23.066858" lon="113.26817">
        <time>2026-07-15T22:54:42Z</time>
      </trkpt>
      <trkpt lat="23.066986" lon="113.268187">
        <time>2026-07-15T22:54:47Z</time>
      </trkpt>
      <trkpt lat="23.067053" lon="113.26822">
        <time>2026-07-15T22:54:52Z</time>
      </trkpt>
      <trkpt lat="23.06712" lon="113.268252">
        <time>2026-07-15T22:54:57Z</time>
      </trkpt>
      <trkpt lat="23.067226" lon="113.268303">
        <time>2026-07-15T22:55:02Z</time>
      </trkpt>
      <trkpt lat="23.067334" lon="113.268387">
        <time>2026-07-15T22:55:07Z</time>
      </trkpt>
      <trkpt lat="23.067403" lon="113.26844">
        <time>2026-07-15T22:55:12Z</time>
      </trkpt>
      <trkpt lat="23.067475" lon="113.268481">
        <time>2026-07-15T22:55:17Z</time>
      </trkpt>
      <trkpt lat="23.0676" lon="113.268548">
        <time>2026-07-15T22:55:22Z</time>
      </trkpt>
      <trkpt lat="23.067736" lon="113.268616">
        <time>2026-07-15T22:55:27Z</time>
      </trkpt>
      <trkpt lat="23.067812" lon="113.268656">
        <time>2026-07-15T22:55:32Z</time>
      </trkpt>
      <trkpt lat="23.067879" lon="113.268705">
        <time>2026-07-15T22:55:37Z</time>
      </trkpt>
      <trkpt lat="23.067968" lon="113.268778">
        <time>2026-07-15T22:55:42Z</time>
      </trkpt>
      <trkpt lat="23.06808" lon="113.268824">
        <time>2026-07-15T22:55:47Z</time>
      </trkpt>
      <trkpt lat="23.068152" lon="113.268838">
        <time>2026-07-15T22:55:52Z</time>
      </trkpt>
      <trkpt lat="23.068218" lon="113.268848">
        <time>2026-07-15T22:55:57Z</time>
      </trkpt>
      <trkpt lat="23.06833" lon="113.26891">
        <time>2026-07-15T22:56:02Z</time>
      </trkpt>
      <trkpt lat="23.068435" lon="113.269011">
        <time>2026-07-15T22:56:07Z</time>
      </trkpt>
      <trkpt lat="23.068506" lon="113.269088">
        <time>2026-07-15T22:56:12Z</time>
      </trkpt>
      <trkpt lat="23.068592" lon="113.269134">
        <time>2026-07-15T22:56:17Z</time>
      </trkpt>
      <trkpt lat="23.068702" lon="113.269195">
        <time>2026-07-15T22:56:22Z</time>
      </trkpt>
      <trkpt lat="23.068834" lon="113.269232">
        <time>2026-07-15T22:56:27Z</time>
      </trkpt>
      <trkpt lat="23.068925" lon="113.269264">
        <time>2026-07-15T22:56:32Z</time>
      </trkpt>
      <trkpt lat="23.069002" lon="113.269281">
        <time>2026-07-15T22:56:37Z</time>
      </trkpt>
      <trkpt lat="23.069127" lon="113.269298">
        <time>2026-07-15T22:56:42Z</time>
      </trkpt>
      <trkpt lat="23.069265" lon="113.269349">
        <time>2026-07-15T22:56:47Z</time>
      </trkpt>
      <trkpt lat="23.069353" lon="113.269386">
        <time>2026-07-15T22:56:52Z</time>
      </trkpt>
      <trkpt lat="23.069433" lon="113.269427">
        <time>2026-07-15T22:56:57Z</time>
      </trkpt>
      <trkpt lat="23.069569" lon="113.269482">
        <time>2026-07-15T22:57:02Z</time>
      </trkpt>
      <trkpt lat="23.0697" lon="113.269542">
        <time>2026-07-15T22:57:07Z</time>
      </trkpt>
      <trkpt lat="23.069783" lon="113.269589">
        <time>2026-07-15T22:57:12Z</time>
      </trkpt>
      <trkpt lat="23.069858" lon="113.269635">
        <time>2026-07-15T22:57:17Z</time>
      </trkpt>
      <trkpt lat="23.069955" lon="113.269706">
        <time>2026-07-15T22:57:22Z</time>
      </trkpt>
      <trkpt lat="23.070063" lon="113.269766">
        <time>2026-07-15T22:57:27Z</time>
      </trkpt>
      <trkpt lat="23.070141" lon="113.269797">
        <time>2026-07-15T22:57:32Z</time>
      </trkpt>
      <trkpt lat="23.070217" lon="113.269827">
        <time>2026-07-15T22:57:37Z</time>
      </trkpt>
      <trkpt lat="23.070321" lon="113.269867">
        <time>2026-07-15T22:57:42Z</time>
      </trkpt>
      <trkpt lat="23.070442" lon="113.269902">
        <time>2026-07-15T22:57:47Z</time>
      </trkpt>
      <trkpt lat="23.070529" lon="113.269946">
        <time>2026-07-15T22:57:52Z</time>
      </trkpt>
      <trkpt lat="23.070617" lon="113.269977">
        <time>2026-07-15T22:57:57Z</time>
      </trkpt>
      <trkpt lat="23.07073" lon="113.270029">
        <time>2026-07-15T22:58:02Z</time>
      </trkpt>
      <trkpt lat="23.070845" lon="113.270105">
        <time>2026-07-15T22:58:07Z</time>
      </trkpt>
      <trkpt lat="23.070928" lon="113.270133">
        <time>2026-07-15T22:58:12Z</time>
      </trkpt>
      <trkpt lat="23.071005" lon="113.270169">
        <time>2026-07-15T22:58:17Z</time>
      </trkpt>
      <trkpt lat="23.071124" lon="113.270223">
        <time>2026-07-15T22:58:22Z</time>
      </trkpt>
      <trkpt lat="23.071225" lon="113.270269">
        <time>2026-07-15T22:58:27Z</time>
      </trkpt>
      <trkpt lat="23.071292" lon="113.270299">
        <time>2026-07-15T22:58:32Z</time>
      </trkpt>
      <trkpt lat="23.071379" lon="113.270342">
        <time>2026-07-15T22:58:37Z</time>
      </trkpt>
      <trkpt lat="23.071497" lon="113.270408">
        <time>2026-07-15T22:58:42Z</time>
      </trkpt>
      <trkpt lat="23.071608" lon="113.270472">
        <time>2026-07-15T22:58:47Z</time>
      </trkpt>
      <trkpt lat="23.071681" lon="113.270514">
        <time>2026-07-15T22:58:52Z</time>
      </trkpt>
      <trkpt lat="23.07175" lon="113.270561">
        <time>2026-07-15T22:58:57Z</time>
      </trkpt>
      <trkpt lat="23.071856" lon="113.270618">
        <time>2026-07-15T22:59:02Z</time>
      </trkpt>
      <trkpt lat="23.071982" lon="113.270663">
        <time>2026-07-15T22:59:07Z</time>
      </trkpt>
      <trkpt lat="23.072064" lon="113.270704">
        <time>2026-07-15T22:59:12Z</time>
      </trkpt>
      <trkpt lat="23.072134" lon="113.27075">
        <time>2026-07-15T22:59:17Z</time>
      </trkpt>
      <trkpt lat="23.072241" lon="113.270798">
        <time>2026-07-15T22:59:22Z</time>
      </trkpt>
      <trkpt lat="23.07235" lon="113.270843">
        <time>2026-07-15T22:59:27Z</time>
      </trkpt>
      <trkpt lat="23.072425" lon="113.270897">
        <time>2026-07-15T22:59:32Z</time>
      </trkpt>
      <trkpt lat="23.072502" lon="113.270954">
        <time>2026-07-15T22:59:37Z</time>
      </trkpt>
      <trkpt lat="23.07262" lon="113.271013">
        <time>2026-07-15T22:59:42Z</time>
      </trkpt>
      <trkpt lat="23.072739" lon="113.271049">
        <time>2026-07-15T22:59:47Z</time>
      </trkpt>
      <trkpt lat="23.072822" lon="113.271065">
        <time>2026-07-15T22:59:52Z</time>
      </trkpt>
      <trkpt lat="23.072896" lon="113.271093">
        <time>2026-07-15T22:59:57Z</time>
      </trkpt>
      <trkpt lat="23.073016" lon="113.271149">
        <time>2026-07-15T23:00:02Z</time>
      </trkpt>
      <trkpt lat="23.073144" lon="113.271204">
        <time>2026-07-15T23:00:07Z</time>
      </trkpt>
      <trkpt lat="23.073212" lon="113.271242">
        <time>2026-07-15T23:00:12Z</time>
      </trkpt>
      <trkpt lat="23.073252" lon="113.271302">
        <time>2026-07-15T23:00:17Z</time>
      </trkpt>
      <trkpt lat="23.07336" lon="113.271367">
        <time>2026-07-15T23:00:22Z</time>
      </trkpt>
      <trkpt lat="23.073474" lon="113.271433">
        <time>2026-07-15T23:00:27Z</time>
      </trkpt>
      <trkpt lat="23.073544" lon="113.27148">
        <time>2026-07-15T23:00:32Z</time>
      </trkpt>
      <trkpt lat="23.073617" lon="113.271529">
        <time>2026-07-15T23:00:37Z</time>
      </trkpt>
      <trkpt lat="23.073726" lon="113.271604">
        <time>2026-07-15T23:00:42Z</time>
      </trkpt>
      <trkpt lat="23.073841" lon="113.271662">
        <time>2026-07-15T23:00:47Z</time>
      </trkpt>
      <trkpt lat="23.073901" lon="113.271697">
        <time>2026-07-15T23:00:52Z</time>
      </trkpt>
      <trkpt lat="23.073959" lon="113.271751">
        <time>2026-07-15T23:00:57Z</time>
      </trkpt>
      <trkpt lat="23.074052" lon="113.271821">
        <time>2026-07-15T23:01:02Z</time>
      </trkpt>
      <trkpt lat="23.074038" lon="113.271908">
        <time>2026-07-15T23:01:07Z</time>
      </trkpt>
      <trkpt lat="23.074006" lon="113.271986">
        <time>2026-07-15T23:01:12Z</time>
      </trkpt>
      <trkpt lat="23.073981" lon="113.272062">
        <time>2026-07-15T23:01:17Z</time>
      </trkpt>
      <trkpt lat="23.073921" lon="113.272167">
        <time>2026-07-15T23:01:22Z</time>
      </trkpt>
      <trkpt lat="23.073859" lon="113.272294">
        <time>2026-07-15T23:01:27Z</time>
      </trkpt>
      <trkpt lat="23.073819" lon="113.272398">
        <time>2026-07-15T23:01:32Z</time>
      </trkpt>
      <trkpt lat="23.073776" lon="113.272506">
        <time>2026-07-15T23:01:37Z</time>
      </trkpt>
      <trkpt lat="23.07371" lon="113.272666">
        <time>2026-07-15T23:01:42Z</time>
      </trkpt>
      <trkpt lat="23.073677" lon="113.27282">
        <time>2026-07-15T23:01:47Z</time>
      </trkpt>
      <trkpt lat="23.07375" lon="113.272913">
        <time>2026-07-15T23:01:52Z</time>
      </trkpt>
      <trkpt lat="23.073857" lon="113.272973">
        <time>2026-07-15T23:01:57Z</time>
      </trkpt>
      <trkpt lat="23.073991" lon="113.272955">
        <time>2026-07-15T23:02:02Z</time>
      </trkpt>
      <trkpt lat="23.07405" lon="113.272829">
        <time>2026-07-15T23:02:07Z</time>
      </trkpt>
      <trkpt lat="23.074085" lon="113.272741">
        <time>2026-07-15T23:02:12Z</time>
      </trkpt>
      <trkpt lat="23.07412" lon="113.27266">
        <time>2026-07-15T23:02:17Z</time>
      </trkpt>
      <trkpt lat="23.074168" lon="113.272544">
        <time>2026-07-15T23:02:22Z</time>
      </trkpt>
      <trkpt lat="23.074228" lon="113.272411">
        <time>2026-07-15T23:02:27Z</time>
      </trkpt>
      <trkpt lat="23.074278" lon="113.272325">
        <time>2026-07-15T23:02:32Z</time>
      </trkpt>
      <trkpt lat="23.074315" lon="113.272241">
        <time>2026-07-15T23:02:37Z</time>
      </trkpt>
      <trkpt lat="23.074372" lon="113.272142">
        <time>2026-07-15T23:02:42Z</time>
      </trkpt>
      <trkpt lat="23.074479" lon="113.272085">
        <time>2026-07-15T23:02:47Z</time>
      </trkpt>
      <trkpt lat="23.074549" lon="113.272058">
        <time>2026-07-15T23:02:52Z</time>
      </trkpt>
      <trkpt lat="23.074631" lon="113.272087">
        <time>2026-07-15T23:02:57Z</time>
      </trkpt>
      <trkpt lat="23.074746" lon="113.272153">
        <time>2026-07-15T23:03:02Z</time>
      </trkpt>
      <trkpt lat="23.074843" lon="113.272221">
        <time>2026-07-15T23:03:07Z</time>
      </trkpt>
      <trkpt lat="23.074913" lon="113.272283">
        <time>2026-07-15T23:03:12Z</time>
      </trkpt>
      <trkpt lat="23.074993" lon="113.272348">
        <time>2026-07-15T23:03:17Z</time>
      </trkpt>
      <trkpt lat="23.075129" lon="113.272421">
        <time>2026-07-15T23:03:22Z</time>
      </trkpt>
      <trkpt lat="23.075259" lon="113.272457">
        <time>2026-07-15T23:03:27Z</time>
      </trkpt>
      <trkpt lat="23.075344" lon="113.272477">
        <time>2026-07-15T23:03:32Z</time>
      </trkpt>
      <trkpt lat="23.075427" lon="113.272506">
        <time>2026-07-15T23:03:39Z</time>
      </trkpt>
    </trkseg>
  </trk>
</gpx>