<?xml version="1.0" encoding="UTF-8"?>
<gpx xmlns="http://www.topografix.com/GPX/1/1" xmlns:gpxtpx="http://www.garmin.com/xmlschemas/TrackPointExtension/v1" xmlns:xsi="http://www.w3.org/2001/XMLSchema-instance" xsi:schemaLocation="http://www.topografix.com/GPX/1/1 http://www.topografix.com/GPX/1/1/gpx.xsd" version="1.1" creator="gpx.py -- https://github.com/tkrajina/gpxpy">
  <trk>
    <name>gpx from joyrun</name>
    <trkseg>
      <trkpt lat="23.075975" lon="113.272953">
        <time>2026-07-18T23:18:40Z</time>
      </trkpt>
      <trkpt lat="23.076011" lon="113.272808">
        <time>2026-07-18T23:18:45Z</time>
      </trkpt>
      <trkpt lat="23.075966" lon="113.272731">
        <time>2026-07-18T23:18:50Z</time>
      </trkpt>
      <trkpt lat="23.075881" lon="113.272638">
        <time>2026-07-18T23:18:55Z</time>
      </trkpt>
      <trkpt lat="23.075779" lon="113.272542">
        <time>2026-07-18T23:19:00Z</time>
      </trkpt>
      <trkpt lat="23.075724" lon="113.272438">
        <time>2026-07-18T23:19:05Z</time>
      </trkpt>
      <trkpt lat="23.075696" lon="113.272339">
        <time>2026-07-18T23:19:10Z</time>
      </trkpt>
      <trkpt lat="23.075619" lon="113.272228">
        <time>2026-07-18T23:19:15Z</time>
      </trkpt>
      <trkpt lat="23.075477" lon="113.272217">
        <time>2026-07-18T23:19:20Z</time>
      </trkpt>
      <trkpt lat="23.075381" lon="113.272224">
        <time>2026-07-18T23:19:25Z</time>
      </trkpt>
      <trkpt lat="23.075338" lon="113.272179">
        <time>2026-07-18T23:19:30Z</time>
      </trkpt>
      <trkpt lat="23.075371" lon="113.272071">
        <time>2026-07-18T23:19:35Z</time>
      </trkpt>
      <trkpt lat="23.075371" lon="113.272071">
        <time>2026-07-18T23:19:40Z</time>
      </trkpt>
      <trkpt lat="23.075388" lon="113.272046">
        <time>2026-07-18T23:19:45Z</time>
      </trkpt>
      <trkpt lat="23.075418" lon="113.272026">
        <time>2026-07-18T23:19:50Z</time>
      </trkpt>
      <trkpt lat="23.075496" lon="113.272045">
        <time>2026-07-18T23:19:55Z</time>
      </trkpt>
      <trkpt lat="23.075582" lon="113.272087">
        <time>2026-07-18T23:20:00Z</time>
      </trkpt>
      <trkpt lat="23.075641" lon="113.272126">
        <time>2026-07-18T23:20:05Z</time>
      </trkpt>
      <trkpt lat="23.075706" lon="113.272161">
        <time>2026-07-18T23:20:10Z</time>
      </trkpt>
      <trkpt lat="23.0758" lon="113.272206">
        <time>2026-07-18T23:20:15Z</time>
      </trkpt>
      <trkpt lat="23.075894" lon="113.272276">
        <time>2026-07-18T23:20:20Z</time>
      </trkpt>
      <trkpt lat="23.075958" lon="113.272341">
        <time>2026-07-18T23:20:25Z</time>
      </trkpt>
      <trkpt lat="23.076018" lon="113.272407">
        <time>2026-07-18T23:20:30Z</time>
      </trkpt>
      <trkpt lat="23.076106" lon="113.272478">
        <time>2026-07-18T23:20:35Z</time>
      </trkpt>
      <trkpt lat="23.076192" lon="113.272551">
        <time>2026-07-18T23:20:40Z</time>
      </trkpt>
      <trkpt lat="23.076261" lon="113.272588">
        <time>2026-07-18T23:20:45Z</time>
      </trkpt>
      <trkpt lat="23.076336" lon="113.272614">
        <time>2026-07-18T23:20:50Z</time>
      </trkpt>
      <trkpt lat="23.076435" lon="113.272684">
        <time>2026-07-18T23:20:55Z</time>
      </trkpt>
      <trkpt lat="23.076549" lon="113.27277">
        <time>2026-07-18T23:21:00Z</time>
      </trkpt>
      <trkpt lat="23.0766" lon="113.272856">
        <time>2026-07-18T23:21:05Z</time>
      </trkpt>
      <trkpt lat="23.076604" lon="113.272983">
        <time>2026-07-18T23:21:10Z</time>
      </trkpt>
      <trkpt lat="23.076671" lon="113.273102">
        <time>2026-07-18T23:21:15Z</time>
      </trkpt>
      <trkpt lat="23.076762" lon="113.273207">
        <time>2026-07-18T23:21:20Z</time>
      </trkpt>
      <trkpt lat="23.076798" lon="113.273299">
        <time>2026-07-18T23:21:25Z</time>
      </trkpt>
      <trkpt lat="23.076844" lon="113.273367">
        <time>2026-07-18T23:21:30Z</time>
      </trkpt>
      <trkpt lat="23.076953" lon="113.273441">
        <time>2026-07-18T23:21:35Z</time>
      </trkpt>
      <trkpt lat="23.077055" lon="113.273537">
        <time>2026-07-18T23:21:40Z</time>
      </trkpt>
      <trkpt lat="23.077124" lon="113.273589">
        <time>2026-07-18T23:21:45Z</time>
      </trkpt>
      <trkpt lat="23.077194" lon="113.273595">
        <time>2026-07-18T23:21:50Z</time>
      </trkpt>
      <trkpt lat="23.077286" lon="113.273614">
        <time>2026-07-18T23:21:55Z</time>
      </trkpt>
      <trkpt lat="23.077384" lon="113.273577">
        <time>2026-07-18T23:22:00Z</time>
      </trkpt>
      <trkpt lat="23.077446" lon="113.273519">
        <time>2026-07-18T23:22:05Z</time>
      </trkpt>
      <trkpt lat="23.077514" lon="113.27346">
        <time>2026-07-18T23:22:10Z</time>
      </trkpt>
      <trkpt lat="23.077616" lon="113.273376">
        <time>2026-07-18T23:22:15Z</time>
      </trkpt>
      <trkpt lat="23.077709" lon="113.273294">
        <time>2026-07-18T23:22:20Z</time>
      </trkpt>
      <trkpt lat="23.077771" lon="113.273253">
        <time>2026-07-18T23:22:25Z</time>
      </trkpt>
      <trkpt lat="23.077838" lon="113.273221">
        <time>2026-07-18T23:22:30Z</time>
      </trkpt>
      <trkpt lat="23.077956" lon="113.273173">
        <time>2026-07-18T23:22:35Z</time>
      </trkpt>
      <trkpt lat="23.078062" lon="113.27311">
        <time>2026-07-18T23:22:40Z</time>
      </trkpt>
      <trkpt lat="23.078126" lon="113.273065">
        <time>2026-07-18T23:22:45Z</time>
      </trkpt>
      <trkpt lat="23.078183" lon="113.273011">
        <time>2026-07-18T23:22:50Z</time>
      </trkpt>
      <trkpt lat="23.078264" lon="113.272929">
        <time>2026-07-18T23:22:55Z</time>
      </trkpt>
      <trkpt lat="23.078344" lon="113.272827">
        <time>2026-07-18T23:23:00Z</time>
      </trkpt>
      <trkpt lat="23.078404" lon="113.27275">
        <time>2026-07-18T23:23:05Z</time>
      </trkpt>
      <trkpt lat="23.078471" lon="113.272681">
        <time>2026-07-18T23:23:10Z</time>
      </trkpt>
      <trkpt lat="23.078584" lon="113.272591">
        <time>2026-07-18T23:23:15Z</time>
      </trkpt>
      <trkpt lat="23.078694" lon="113.272517">
        <time>2026-07-18T23:23:20Z</time>
      </trkpt>
      <trkpt lat="23.07877" lon="113.272468">
        <time>2026-07-18T23:23:25Z</time>
      </trkpt>
      <trkpt lat="23.078846" lon="113.272415">
        <time>2026-07-18T23:23:30Z</time>
      </trkpt>
      <trkpt lat="23.078952" lon="113.272333">
        <time>2026-07-18T23:23:35Z</time>
      </trkpt>
      <trkpt lat="23.079066" lon="113.272257">
        <time>2026-07-18T23:23:40Z</time>
      </trkpt>
      <trkpt lat="23.079149" lon="113.272202">
        <time>2026-07-18T23:23:45Z</time>
      </trkpt>
      <trkpt lat="23.079228" lon="113.272146">
        <time>2026-07-18T23:23:50Z</time>
      </trkpt>
      <trkpt lat="23.079329" lon="113.272062">
        <time>2026-07-18T23:23:55Z</time>
      </trkpt>
      <trkpt lat="23.079401" lon="113.272043">
        <time>2026-07-18T23:24:00Z</time>
      </trkpt>
      <trkpt lat="23.079467" lon="113.27209">
        <time>2026-07-18T23:24:05Z</time>
      </trkpt>
      <trkpt lat="23.079546" lon="113.272135">
        <time>2026-07-18T23:24:10Z</time>
      </trkpt>
      <trkpt lat="23.079665" lon="113.272169">
        <time>2026-07-18T23:24:15Z</time>
      </trkpt>
      <trkpt lat="23.079768" lon="113.272216">
        <time>2026-07-18T23:24:20Z</time>
      </trkpt>
      <trkpt lat="23.07984" lon="113.272216">
        <time>2026-07-18T23:24:25Z</time>
      </trkpt>
      <trkpt lat="23.079906" lon="113.272229">
        <time>2026-07-18T23:24:30Z</time>
      </trkpt>
      <trkpt lat="23.07997" lon="113.272281">
        <time>2026-07-18T23:24:35Z</time>
      </trkpt>
      <trkpt lat="23.080045" lon="113.272363">
        <time>2026-07-18T23:24:40Z</time>
      </trkpt>
      <trkpt lat="23.080116" lon="113.272401">
        <time>2026-07-18T23:24:45Z</time>
      </trkpt>
      <trkpt lat="23.080194" lon="113.272415">
        <time>2026-07-18T23:24:50Z</time>
      </trkpt>
      <trkpt lat="23.080308" lon="113.272457">
        <time>2026-07-18T23:24:55Z</time>
      </trkpt>
      <trkpt lat="23.080398" lon="113.272534">
        <time>2026-07-18T23:25:00Z</time>
      </trkpt>
      <trkpt lat="23.080475" lon="113.272586">
        <time>2026-07-18T23:25:05Z</time>
      </trkpt>
      <trkpt lat="23.080565" lon="113.27262">
        <time>2026-07-18T23:25:10Z</time>
      </trkpt>
      <trkpt lat="23.080698" lon="113.272666">
        <time>2026-07-18T23:25:15Z</time>
      </trkpt>
      <trkpt lat="23.080834" lon="113.27271">
        <time>2026-07-18T23:25:20Z</time>
      </trkpt>
      <trkpt lat="23.080923" lon="113.272738">
        <time>2026-07-18T23:25:25Z</time>
      </trkpt>
      <trkpt lat="23.081012" lon="113.272762">
        <time>2026-07-18T23:25:30Z</time>
      </trkpt>
      <trkpt lat="23.08115" lon="113.272792">
        <time>2026-07-18T23:25:35Z</time>
      </trkpt>
      <trkpt lat="23.081281" lon="113.272826">
        <time>2026-07-18T23:25:40Z</time>
      </trkpt>
      <trkpt lat="23.081345" lon="113.272846">
        <time>2026-07-18T23:25:45Z</time>
      </trkpt>
      <trkpt lat="23.081361" lon="113.272941">
        <time>2026-07-18T23:25:50Z</time>
      </trkpt>
      <trkpt lat="23.081326" lon="113.273118">
        <time>2026-07-18T23:25:55Z</time>
      </trkpt>
      <trkpt lat="23.081232" lon="113.27309">
        <time>2026-07-18T23:26:00Z</time>
      </trkpt>
      <trkpt lat="23.081167" lon="113.273065">
        <time>2026-07-18T23:26:05Z</time>
      </trkpt>
      <trkpt lat="23.081099" lon="113.273038">
        <time>2026-07-18T23:26:10Z</time>
      </trkpt>
      <trkpt lat="23.080985" lon="113.272994">
        <time>2026-07-18T23:26:15Z</time>
      </trkpt>
      <trkpt lat="23.080847" lon="113.272969">
        <time>2026-07-18T23:26:20Z</time>
      </trkpt>
      <trkpt lat="23.080746" lon="113.272989">
        <time>2026-07-18T23:26:25Z</time>
      </trkpt>
      <trkpt lat="23.08065" lon="113.273047">
        <time>2026-07-18T23:26:30Z</time>
      </trkpt>
      <trkpt lat="23.080555" lon="113.273183">
        <time>2026-07-18T23:26:35Z</time>
      </trkpt>
      <trkpt lat="23.080497" lon="113.273341">
        <time>2026-07-18T23:26:40Z</time>
      </trkpt>
      <trkpt lat="23.080474" lon="113.273461">
        <time>2026-07-18T23:26:45Z</time>
      </trkpt>
      <trkpt lat="23.080478" lon="113.273575">
        <time>2026-07-18T23:26:50Z</time>
      </trkpt>
      <trkpt lat="23.08054" lon="113.27374">
        <time>2026-07-18T23:26:55Z</time>
      </trkpt>
      <trkpt lat="23.08068" lon="113.273872">
        <time>2026-07-18T23:27:00Z</time>
      </trkpt>
      <trkpt lat="23.080783" lon="113.273893">
        <time>2026-07-18T23:27:05Z</time>
      </trkpt>
      <trkpt lat="23.080865" lon="113.273919">
        <time>2026-07-18T23:27:10Z</time>
      </trkpt>
      <trkpt lat="23.080991" lon="113.273959">
        <time>2026-07-18T23:27:15Z</time>
      </trkpt>
      <trkpt lat="23.081118" lon="113.273997">
        <time>2026-07-18T23:27:20Z</time>
      </trkpt>
      <trkpt lat="23.081202" lon="113.274025">
        <time>2026-07-18T23:27:25Z</time>
      </trkpt>
      <trkpt lat="23.081284" lon="113.274049">
        <time>2026-07-18T23:27:30Z</time>
      </trkpt>
      <trkpt lat="23.081407" lon="113.274088">
        <time>2026-07-18T23:27:35Z</time>
      </trkpt>
      <trkpt lat="23.081542" lon="113.274125">
        <time>2026-07-18T23:27:40Z</time>
      </trkpt>
      <trkpt lat="23.081627" lon="113.274151">
        <time>2026-07-18T23:27:45Z</time>
      </trkpt>
      <trkpt lat="23.081711" lon="113.274169">
        <time>2026-07-18T23:27:50Z</time>
      </trkpt>
      <trkpt lat="23.081836" lon="113.274154">
        <time>2026-07-18T23:27:55Z</time>
      </trkpt>
      <trkpt lat="23.081931" lon="113.274076">
        <time>2026-07-18T23:28:00Z</time>
      </trkpt>
      <trkpt lat="23.08199" lon="113.274005">
        <time>2026-07-18T23:28:05Z</time>
      </trkpt>
      <trkpt lat="23.082045" lon="113.27392">
        <time>2026-07-18T23:28:10Z</time>
      </trkpt>
      <trkpt lat="23.082092" lon="113.273776">
        <time>2026-07-18T23:28:15Z</time>
      </trkpt>
      <trkpt lat="23.082094" lon="113.273636">
        <time>2026-07-18T23:28:20Z</time>
      </trkpt>
      <trkpt lat="23.082082" lon="113.273549">
        <time>2026-07-18T23:28:25Z</time>
      </trkpt>
      <trkpt lat="23.082055" lon="113.273468">
        <time>2026-07-18T23:28:30Z</time>
      </trkpt>
      <trkpt lat="23.081963" lon="113.2734">
        <time>2026-07-18T23:28:35Z</time>
      </trkpt>
      <trkpt lat="23.081841" lon="113.273347">
        <time>2026-07-18T23:28:40Z</time>
      </trkpt>
      <trkpt lat="23.081765" lon="113.273299">
        <time>2026-07-18T23:28:45Z</time>
      </trkpt>
      <trkpt lat="23.081684" lon="113.27325">
        <time>2026-07-18T23:28:50Z</time>
      </trkpt>
      <trkpt lat="23.081559" lon="113.27319">
        <time>2026-07-18T23:28:55Z</time>
      </trkpt>
      <trkpt lat="23.081443" lon="113.273144">
        <time>2026-07-18T23:29:00Z</time>
      </trkpt>
      <trkpt lat="23.08135" lon="113.273131">
        <time>2026-07-18T23:29:05Z</time>
      </trkpt>
      <trkpt lat="23.081271" lon="113.27311">
        <time>2026-07-18T23:29:10Z</time>
      </trkpt>
      <trkpt lat="23.081158" lon="113.27306">
        <time>2026-07-18T23:29:15Z</time>
      </trkpt>
      <trkpt lat="23.08103" lon="113.27301">
        <time>2026-07-18T23:29:20Z</time>
      </trkpt>
      <trkpt lat="23.080923" lon="113.272979">
        <time>2026-07-18T23:29:25Z</time>
      </trkpt>
      <trkpt lat="23.080794" lon="113.272979">
        <time>2026-07-18T23:29:30Z</time>
      </trkpt>
      <trkpt lat="23.080623" lon="113.273074">
        <time>2026-07-18T23:29:35Z</time>
      </trkpt>
      <trkpt lat="23.080544" lon="113.273205">
        <time>2026-07-18T23:29:40Z</time>
      </trkpt>
      <trkpt lat="23.080512" lon="113.273288">
        <time>2026-07-18T23:29:45Z</time>
      </trkpt>
      <trkpt lat="23.080486" lon="113.273382">
        <time>2026-07-18T23:29:50Z</time>
      </trkpt>
      <trkpt lat="23.080469" lon="113.273542">
        <time>2026-07-18T23:29:55Z</time>
      </trkpt>
      <trkpt lat="23.080523" lon="113.273698">
        <time>2026-07-18T23:30:00Z</time>
      </trkpt>
      <trkpt lat="23.080574" lon="113.273776">
        <time>2026-07-18T23:30:05Z</time>
      </trkpt>
      <trkpt lat="23.080627" lon="113.273838">
        <time>2026-07-18T23:30:10Z</time>
      </trkpt>
      <trkpt lat="23.080757" lon="113.273887">
        <time>2026-07-18T23:30:15Z</time>
      </trkpt>
      <trkpt lat="23.080895" lon="113.27393">
        <time>2026-07-18T23:30:20Z</time>
      </trkpt>
      <trkpt lat="23.080984" lon="113.273959">
        <time>2026-07-18T23:30:25Z</time>
      </trkpt>
      <trkpt lat="23.081071" lon="113.273982">
        <time>2026-07-18T23:30:30Z</time>
      </trkpt>
      <trkpt lat="23.081188" lon="113.274019">
        <time>2026-07-18T23:30:35Z</time>
      </trkpt>
      <trkpt lat="23.081299" lon="113.27405">
        <time>2026-07-18T23:30:40Z</time>
      </trkpt>
      <trkpt lat="23.081372" lon="113.274077">
        <time>2026-07-18T23:30:45Z</time>
      </trkpt>
      <trkpt lat="23.081451" lon="113.274102">
        <time>2026-07-18T23:30:50Z</time>
      </trkpt>
      <trkpt lat="23.081569" lon="113.274133">
        <time>2026-07-18T23:30:55Z</time>
      </trkpt>
      <trkpt lat="23.08169" lon="113.274165">
        <time>2026-07-18T23:31:00Z</time>
      </trkpt>
      <trkpt lat="23.081777" lon="113.274174">
        <time>2026-07-18T23:31:05Z</time>
      </trkpt>
      <trkpt lat="23.081858" lon="113.274143">
        <time>2026-07-18T23:31:10Z</time>
      </trkpt>
      <trkpt lat="23.081952" lon="113.27405">
        <time>2026-07-18T23:31:15Z</time>
      </trkpt>
      <trkpt lat="23.08204" lon="113.273929">
        <time>2026-07-18T23:31:20Z</time>
      </trkpt>
      <trkpt lat="23.082079" lon="113.273829">
        <time>2026-07-18T23:31:25Z</time>
      </trkpt>
      <trkpt lat="23.082096" lon="113.273728">
        <time>2026-07-18T23:31:30Z</time>
      </trkpt>
      <trkpt lat="23.08209" lon="113.273588">
        <time>2026-07-18T23:31:35Z</time>
      </trkpt>
      <trkpt lat="23.082055" lon="113.273471">
        <time>2026-07-18T23:31:40Z</time>
      </trkpt>
      <trkpt lat="23.082005" lon="113.27342">
        <time>2026-07-18T23:31:45Z</time>
      </trkpt>
      <trkpt lat="23.081929" lon="113.273385">
        <time>2026-07-18T23:31:50Z</time>
      </trkpt>
      <trkpt lat="23.081812" lon="113.273332">
        <time>2026-07-18T23:31:55Z</time>
      </trkpt>
      <trkpt lat="23.081693" lon="113.273261">
        <time>2026-07-18T23:32:00Z</time>
      </trkpt>
      <trkpt lat="23.081616" lon="113.273213">
        <time>2026-07-18T23:32:05Z</time>
      </trkpt>
      <trkpt lat="23.081533" lon="113.273176">
        <time>2026-07-18T23:32:10Z</time>
      </trkpt>
      <trkpt lat="23.081413" lon="113.273137">
        <time>2026-07-18T23:32:15Z</time>
      </trkpt>
      <trkpt lat="23.081295" lon="113.273118">
        <time>2026-07-18T23:32:20Z</time>
      </trkpt>
      <trkpt lat="23.081222" lon="113.273091">
        <time>2026-07-18T23:32:25Z</time>
      </trkpt>
      <trkpt lat="23.081141" lon="113.273057">
        <time>2026-07-18T23:32:30Z</time>
      </trkpt>
      <trkpt lat="23.081002" lon="113.272999">
        <time>2026-07-18T23:32:35Z</time>
      </trkpt>
      <trkpt lat="23.080839" lon="113.272971">
        <time>2026-07-18T23:32:40Z</time>
      </trkpt>
      <trkpt lat="23.08073" lon="113.272997">
        <time>2026-07-18T23:32:45Z</time>
      </trkpt>
      <trkpt lat="23.080626" lon="113.273071">
        <time>2026-07-18T23:32:50Z</time>
      </trkpt>
      <trkpt lat="23.080542" lon="113.273207">
        <time>2026-07-18T23:32:55Z</time>
      </trkpt>
      <trkpt lat="23.080496" lon="113.273351">
        <time>2026-07-18T23:33:00Z</time>
      </trkpt>
      <trkpt lat="23.080473" lon="113.273465">
        <time>2026-07-18T23:33:05Z</time>
      </trkpt>
      <trkpt lat="23.080469" lon="113.273561">
        <time>2026-07-18T23:33:10Z</time>
      </trkpt>
      <trkpt lat="23.080517" lon="113.273664">
        <time>2026-07-18T23:33:15Z</time>
      </trkpt>
      <trkpt lat="23.080583" lon="113.27379">
        <time>2026-07-18T23:33:20Z</time>
      </trkpt>
      <trkpt lat="23.080644" lon="113.273848">
        <time>2026-07-18T23:33:25Z</time>
      </trkpt>
      <trkpt lat="23.080739" lon="113.273881">
        <time>2026-07-18T23:33:30Z</time>
      </trkpt>
      <trkpt lat="23.080895" lon="113.273929">
        <time>2026-07-18T23:33:35Z</time>
      </trkpt>
      <trkpt lat="23.081031" lon="113.273972">
        <time>2026-07-18T23:33:40Z</time>
      </trkpt>
      <trkpt lat="23.081117" lon="113.273995">
        <time>2026-07-18T23:33:45Z</time>
      </trkpt>
      <trkpt lat="23.081201" lon="113.274019">
        <time>2026-07-18T23:33:50Z</time>
      </trkpt>
      <trkpt lat="23.081321" lon="113.274059">
        <time>2026-07-18T23:33:55Z</time>
      </trkpt>
      <trkpt lat="23.081444" lon="113.274101">
        <time>2026-07-18T23:34:00Z</time>
      </trkpt>
      <trkpt lat="23.081532" lon="113.274126">
        <time>2026-07-18T23:34:05Z</time>
      </trkpt>
      <trkpt lat="23.081622" lon="113.274147">
        <time>2026-07-18T23:34:10Z</time>
      </trkpt>
      <trkpt lat="23.081753" lon="113.274171">
        <time>2026-07-18T23:34:15Z</time>
      </trkpt>
      <trkpt lat="23.081864" lon="113.274135">
        <time>2026-07-18T23:34:20Z</time>
      </trkpt>
      <trkpt lat="23.081926" lon="113.274075">
        <time>2026-07-18T23:34:25Z</time>
      </trkpt>
      <trkpt lat="23.081993" lon="113.274009">
        <time>2026-07-18T23:34:30Z</time>
      </trkpt>
      <trkpt lat="23.082065" lon="113.273872">
        <time>2026-07-18T23:34:35Z</time>
      </trkpt>
      <trkpt lat="23.082096" lon="113.273726">
        <time>2026-07-18T23:34:40Z</time>
      </trkpt>
      <trkpt lat="23.082093" lon="113.273631">
        <time>2026-07-18T23:34:45Z</time>
      </trkpt>
      <trkpt lat="23.082079" lon="113.273551">
        <time>2026-07-18T23:34:50Z</time>
      </trkpt>
      <trkpt lat="23.082039" lon="113.27344">
        <time>2026-07-18T23:34:55Z</time>
      </trkpt>
      <trkpt lat="23.081924" lon="113.273382">
        <time>2026-07-18T23:35:00Z</time>
      </trkpt>
      <trkpt lat="23.081848" lon="113.273348">
        <time>2026-07-18T23:35:05Z</time>
      </trkpt>
      <trkpt lat="23.081769" lon="113.273308">
        <time>2026-07-18T23:35:10Z</time>
      </trkpt>
      <trkpt lat="23.081651" lon="113.273235">
        <time>2026-07-18T23:35:15Z</time>
      </trkpt>
      <trkpt lat="23.081527" lon="113.273169">
        <time>2026-07-18T23:35:20Z</time>
      </trkpt>
      <trkpt lat="23.081443" lon="113.273143">
        <time>2026-07-18T23:35:25Z</time>
      </trkpt>
      <trkpt lat="23.081362" lon="113.273135">
        <time>2026-07-18T23:35:30Z</time>
      </trkpt>
      <trkpt lat="23.081251" lon="113.273099">
        <time>2026-07-18T23:35:35Z</time>
      </trkpt>
      <trkpt lat="23.081134" lon="113.273048">
        <time>2026-07-18T23:35:40Z</time>
      </trkpt>
      <trkpt lat="23.08105" lon="113.273021">
        <time>2026-07-18T23:35:45Z</time>
      </trkpt>
      <trkpt lat="23.08096" lon="113.272985">
        <time>2026-07-18T23:35:50Z</time>
      </trkpt>
      <trkpt lat="23.080802" lon="113.272976">
        <time>2026-07-18T23:35:55Z</time>
      </trkpt>
      <trkpt lat="23.080652" lon="113.273038">
        <time>2026-07-18T23:36:00Z</time>
      </trkpt>
      <trkpt lat="23.080596" lon="113.273108">
        <time>2026-07-18T23:36:05Z</time>
      </trkpt>
      <trkpt lat="23.080544" lon="113.27321">
        <time>2026-07-18T23:36:10Z</time>
      </trkpt>
      <trkpt lat="23.080489" lon="113.273381">
        <time>2026-07-18T23:36:15Z</time>
      </trkpt>
      <trkpt lat="23.080465" lon="113.273559">
        <time>2026-07-18T23:36:20Z</time>
      </trkpt>
      <trkpt lat="23.080495" lon="113.273648">
        <time>2026-07-18T23:36:25Z</time>
      </trkpt>
      <trkpt lat="23.080542" lon="113.273731">
        <time>2026-07-18T23:36:30Z</time>
      </trkpt>
      <trkpt lat="23.080648" lon="113.27385">
        <time>2026-07-18T23:36:35Z</time>
      </trkpt>
      <trkpt lat="23.080789" lon="113.273897">
        <time>2026-07-18T23:36:40Z</time>
      </trkpt>
      <trkpt lat="23.080877" lon="113.273922">
        <time>2026-07-18T23:36:45Z</time>
      </trkpt>
      <trkpt lat="23.080958" lon="113.273946">
        <time>2026-07-18T23:36:50Z</time>
      </trkpt>
      <trkpt lat="23.081083" lon="113.273984">
        <time>2026-07-18T23:36:55Z</time>
      </trkpt>
      <trkpt lat="23.081204" lon="113.27402">
        <time>2026-07-18T23:37:00Z</time>
      </trkpt>
      <trkpt lat="23.081278" lon="113.274045">
        <time>2026-07-18T23:37:05Z</time>
      </trkpt>
      <trkpt lat="23.081358" lon="113.274072">
        <time>2026-07-18T23:37:10Z</time>
      </trkpt>
      <trkpt lat="23.081482" lon="113.274111">
        <time>2026-07-18T23:37:15Z</time>
      </trkpt>
      <trkpt lat="23.081602" lon="113.274145">
        <time>2026-07-18T23:37:20Z</time>
      </trkpt>
      <trkpt lat="23.081682" lon="113.274163">
        <time>2026-07-18T23:37:25Z</time>
      </trkpt>
      <trkpt lat="23.081763" lon="113.274173">
        <time>2026-07-18T23:37:30Z</time>
      </trkpt>
      <trkpt lat="23.081875" lon="113.274126">
        <time>2026-07-18T23:37:35Z</time>
      </trkpt>
      <trkpt lat="23.081968" lon="113.274033">
        <time>2026-07-18T23:37:40Z</time>
      </trkpt>
      <trkpt lat="23.082022" lon="113.273958">
        <time>2026-07-18T23:37:45Z</time>
      </trkpt>
      <trkpt lat="23.082068" lon="113.273869">
        <time>2026-07-18T23:37:50Z</time>
      </trkpt>
      <trkpt lat="23.082097" lon="113.273723">
        <time>2026-07-18T23:37:55Z</time>
      </trkpt>
      <trkpt lat="23.082088" lon="113.273594">
        <time>2026-07-18T23:38:00Z</time>
      </trkpt>
      <trkpt lat="23.082072" lon="113.273518">
        <time>2026-07-18T23:38:05Z</time>
      </trkpt>
      <trkpt lat="23.08203" lon="113.273433">
        <time>2026-07-18T23:38:10Z</time>
      </trkpt>
      <trkpt lat="23.081923" lon="113.273383">
        <time>2026-07-18T23:38:15Z</time>
      </trkpt>
      <trkpt lat="23.081809" lon="113.27332">
        <time>2026-07-18T23:38:20Z</time>
      </trkpt>
      <trkpt lat="23.081727" lon="113.273274">
        <time>2026-07-18T23:38:25Z</time>
      </trkpt>
      <trkpt lat="23.081642" lon="113.273228">
        <time>2026-07-18T23:38:30Z</time>
      </trkpt>
      <trkpt lat="23.081517" lon="113.27317">
        <time>2026-07-18T23:38:35Z</time>
      </trkpt>
      <trkpt lat="23.081402" lon="113.273134">
        <time>2026-07-18T23:38:40Z</time>
      </trkpt>
      <trkpt lat="23.081318" lon="113.273121">
        <time>2026-07-18T23:38:45Z</time>
      </trkpt>
      <trkpt lat="23.081233" lon="113.273094">
        <time>2026-07-18T23:38:50Z</time>
      </trkpt>
      <trkpt lat="23.081114" lon="113.27304">
        <time>2026-07-18T23:38:55Z</time>
      </trkpt>
      <trkpt lat="23.080987" lon="113.272996">
        <time>2026-07-18T23:39:00Z</time>
      </trkpt>
      <trkpt lat="23.080899" lon="113.272973">
        <time>2026-07-18T23:39:05Z</time>
      </trkpt>
      <trkpt lat="23.080804" lon="113.272975">
        <time>2026-07-18T23:39:10Z</time>
      </trkpt>
      <trkpt lat="23.080653" lon="113.273047">
        <time>2026-07-18T23:39:15Z</time>
      </trkpt>
      <trkpt lat="23.080552" lon="113.273202">
        <time>2026-07-18T23:39:20Z</time>
      </trkpt>
      <trkpt lat="23.080501" lon="113.273316">
        <time>2026-07-18T23:39:25Z</time>
      </trkpt>
      <trkpt lat="23.08048" lon="113.273429">
        <time>2026-07-18T23:39:30Z</time>
      </trkpt>
      <trkpt lat="23.080476" lon="113.273595">
        <time>2026-07-18T23:39:35Z</time>
      </trkpt>
      <trkpt lat="23.080553" lon="113.273742">
        <time>2026-07-18T23:39:40Z</time>
      </trkpt>
      <trkpt lat="23.080612" lon="113.273823">
        <time>2026-07-18T23:39:45Z</time>
      </trkpt>
      <trkpt lat="23.080695" lon="113.27387">
        <time>2026-07-18T23:39:50Z</time>
      </trkpt>
      <trkpt lat="23.080833" lon="113.273914">
        <time>2026-07-18T23:39:55Z</time>
      </trkpt>
      <trkpt lat="23.080961" lon="113.27395">
        <time>2026-07-18T23:40:00Z</time>
      </trkpt>
      <trkpt lat="23.081043" lon="113.273974">
        <time>2026-07-18T23:40:05Z</time>
      </trkpt>
      <trkpt lat="23.081121" lon="113.273997">
        <time>2026-07-18T23:40:10Z</time>
      </trkpt>
      <trkpt lat="23.081235" lon="113.274032">
        <time>2026-07-18T23:40:15Z</time>
      </trkpt>
      <trkpt lat="23.081349" lon="113.274071">
        <time>2026-07-18T23:40:20Z</time>
      </trkpt>
      <trkpt lat="23.081426" lon="113.274094">
        <time>2026-07-18T23:40:25Z</time>
      </trkpt>
      <trkpt lat="23.081505" lon="113.274117">
        <time>2026-07-18T23:40:30Z</time>
      </trkpt>
      <trkpt lat="23.081622" lon="113.27415">
        <time>2026-07-18T23:40:35Z</time>
      </trkpt>
      <trkpt lat="23.081746" lon="113.27417">
        <time>2026-07-18T23:40:40Z</time>
      </trkpt>
      <trkpt lat="23.081834" lon="113.274154">
        <time>2026-07-18T23:40:45Z</time>
      </trkpt>
      <trkpt lat="23.081904" lon="113.274101">
        <time>2026-07-18T23:40:50Z</time>
      </trkpt>
      <trkpt lat="23.081995" lon="113.273997">
        <time>2026-07-18T23:40:55Z</time>
      </trkpt>
      <trkpt lat="23.082064" lon="113.27388">
        <time>2026-07-18T23:41:00Z</time>
      </trkpt>
      <trkpt lat="23.082086" lon="113.273798">
        <time>2026-07-18T23:41:05Z</time>
      </trkpt>
      <trkpt lat="23.082096" lon="113.273713">
        <time>2026-07-18T23:41:10Z</time>
      </trkpt>
      <trkpt lat="23.082088" lon="113.273579">
        <time>2026-07-18T23:41:15Z</time>
      </trkpt>
      <trkpt lat="23.08205" lon="113.273459">
        <time>2026-07-18T23:41:20Z</time>
      </trkpt>
      <trkpt lat="23.081985" lon="113.273409">
        <time>2026-07-18T23:41:25Z</time>
      </trkpt>
      <trkpt lat="23.081904" lon="113.273378">
        <time>2026-07-18T23:41:30Z</time>
      </trkpt>
      <trkpt lat="23.081783" lon="113.273308">
        <time>2026-07-18T23:41:35Z</time>
      </trkpt>
      <trkpt lat="23.081668" lon="113.273241">
        <time>2026-07-18T23:41:40Z</time>
      </trkpt>
      <trkpt lat="23.081598" lon="113.2732">
        <time>2026-07-18T23:41:45Z</time>
      </trkpt>
      <trkpt lat="23.08152" lon="113.273176">
        <time>2026-07-18T23:41:50Z</time>
      </trkpt>
      <trkpt lat="23.081399" lon="113.273135">
        <time>2026-07-18T23:41:55Z</time>
      </trkpt>
      <trkpt lat="23.081274" lon="113.2731">
        <time>2026-07-18T23:42:00Z</time>
      </trkpt>
      <trkpt lat="23.081195" lon="113.27308">
        <time>2026-07-18T23:42:05Z</time>
      </trkpt>
      <trkpt lat="23.081124" lon="113.273042">
        <time>2026-07-18T23:42:10Z</time>
      </trkpt>
      <trkpt lat="23.081004" lon="113.273">
        <time>2026-07-18T23:42:15Z</time>
      </trkpt>
      <trkpt lat="23.080876" lon="113.272971">
        <time>2026-07-18T23:42:20Z</time>
      </trkpt>
      <trkpt lat="23.080769" lon="113.272983">
        <time>2026-07-18T23:42:25Z</time>
      </trkpt>
      <trkpt lat="23.080663" lon="113.273036">
        <time>2026-07-18T23:42:30Z</time>
      </trkpt>
      <trkpt lat="23.080565" lon="113.273163">
        <time>2026-07-18T23:42:35Z</time>
      </trkpt>
      <trkpt lat="23.080508" lon="113.273311">
        <time>2026-07-18T23:42:40Z</time>
      </trkpt>
      <trkpt lat="23.080479" lon="113.273415">
        <time>2026-07-18T23:42:45Z</time>
      </trkpt>
      <trkpt lat="23.080466" lon="113.273517">
        <time>2026-07-18T23:42:50Z</time>
      </trkpt>
      <trkpt lat="23.080503" lon="113.273664">
        <time>2026-07-18T23:42:55Z</time>
      </trkpt>
      <trkpt lat="23.080602" lon="113.273805">
        <time>2026-07-18T23:43:00Z</time>
      </trkpt>
      <trkpt lat="23.080689" lon="113.273864">
        <time>2026-07-18T23:43:05Z</time>
      </trkpt>
      <trkpt lat="23.080772" lon="113.273893">
        <time>2026-07-18T23:43:10Z</time>
      </trkpt>
      <trkpt lat="23.080896" lon="113.273929">
        <time>2026-07-18T23:43:15Z</time>
      </trkpt>
      <trkpt lat="23.08102" lon="113.273967">
        <time>2026-07-18T23:43:20Z</time>
      </trkpt>
      <trkpt lat="23.081102" lon="113.273992">
        <time>2026-07-18T23:43:25Z</time>
      </trkpt>
      <trkpt lat="23.081179" lon="113.274015">
        <time>2026-07-18T23:43:30Z</time>
      </trkpt>
      <trkpt lat="23.081291" lon="113.27405">
        <time>2026-07-18T23:43:35Z</time>
      </trkpt>
      <trkpt lat="23.081402" lon="113.274085">
        <time>2026-07-18T23:43:40Z</time>
      </trkpt>
      <trkpt lat="23.081475" lon="113.274107">
        <time>2026-07-18T23:43:45Z</time>
      </trkpt>
      <trkpt lat="23.081549" lon="113.27413">
        <time>2026-07-18T23:43:50Z</time>
      </trkpt>
      <trkpt lat="23.081667" lon="113.274159">
        <time>2026-07-18T23:43:55Z</time>
      </trkpt>
      <trkpt lat="23.081791" lon="113.274168">
        <time>2026-07-18T23:44:00Z</time>
      </trkpt>
      <trkpt lat="23.081869" lon="113.274131">
        <time>2026-07-18T23:44:05Z</time>
      </trkpt>
      <trkpt lat="23.081929" lon="113.274072">
        <time>2026-07-18T23:44:10Z</time>
      </trkpt>
      <trkpt lat="23.08202" lon="113.273963">
        <time>2026-07-18T23:44:15Z</time>
      </trkpt>
      <trkpt lat="23.082077" lon="113.273836">
        <time>2026-07-18T23:44:20Z</time>
      </trkpt>
      <trkpt lat="23.082093" lon="113.273751">
        <time>2026-07-18T23:44:25Z</time>
      </trkpt>
      <trkpt lat="23.082097" lon="113.273666">
        <time>2026-07-18T23:44:30Z</time>
      </trkpt>
      <trkpt lat="23.082076" lon="113.273539">
        <time>2026-07-18T23:44:35Z</time>
      </trkpt>
      <trkpt lat="23.082032" lon="113.273436">
        <time>2026-07-18T23:44:40Z</time>
      </trkpt>
      <trkpt lat="23.081972" lon="113.273405">
        <time>2026-07-18T23:44:45Z</time>
      </trkpt>
      <trkpt lat="23.081897" lon="113.273372">
        <time>2026-07-18T23:44:50Z</time>
      </trkpt>
      <trkpt lat="23.081779" lon="113.273307">
        <time>2026-07-18T23:44:55Z</time>
      </trkpt>
      <trkpt lat="23.081666" lon="113.273239">
        <time>2026-07-18T23:45:00Z</time>
      </trkpt>
      <trkpt lat="23.081595" lon="113.273201">
        <time>2026-07-18T23:45:05Z</time>
      </trkpt>
      <trkpt lat="23.081522" lon="113.273173">
        <time>2026-07-18T23:45:10Z</time>
      </trkpt>
      <trkpt lat="23.08141" lon="113.273141">
        <time>2026-07-18T23:45:15Z</time>
      </trkpt>
      <trkpt lat="23.081292" lon="113.273111">
        <time>2026-07-18T23:45:20Z</time>
      </trkpt>
      <trkpt lat="23.081213" lon="113.273085">
        <time>2026-07-18T23:45:25Z</time>
      </trkpt>
      <trkpt lat="23.08114" lon="113.273054">
        <time>2026-07-18T23:45:30Z</time>
      </trkpt>
      <trkpt lat="23.08103" lon="113.273011">
        <time>2026-07-18T23:45:35Z</time>
      </trkpt>
      <trkpt lat="23.080892" lon="113.272972">
        <time>2026-07-18T23:45:40Z</time>
      </trkpt>
      <trkpt lat="23.080782" lon="113.27298">
        <time>2026-07-18T23:45:45Z</time>
      </trkpt>
      <trkpt lat="23.080682" lon="113.273026">
        <time>2026-07-18T23:45:50Z</time>
      </trkpt>
      <trkpt lat="23.080584" lon="113.273135">
        <time>2026-07-18T23:45:55Z</time>
      </trkpt>
      <trkpt lat="23.080517" lon="113.27328">
        <time>2026-07-18T23:46:00Z</time>
      </trkpt>
      <trkpt lat="23.080489" lon="113.273383">
        <time>2026-07-18T23:46:05Z</time>
      </trkpt>
      <trkpt lat="23.080473" lon="113.273482">
        <time>2026-07-18T23:46:10Z</time>
      </trkpt>
      <trkpt lat="23.080494" lon="113.273637">
        <time>2026-07-18T23:46:15Z</time>
      </trkpt>
      <trkpt lat="23.08057" lon="113.273769">
        <time>2026-07-18T23:46:20Z</time>
      </trkpt>
      <trkpt lat="23.080638" lon="113.273844">
        <time>2026-07-18T23:46:25Z</time>
      </trkpt>
      <trkpt lat="23.080723" lon="113.273879">
        <time>2026-07-18T23:46:30Z</time>
      </trkpt>
      <trkpt lat="23.080853" lon="113.273917">
        <time>2026-07-18T23:46:35Z</time>
      </trkpt>
      <trkpt lat="23.08098" lon="113.273954">
        <time>2026-07-18T23:46:40Z</time>
      </trkpt>
      <trkpt lat="23.081063" lon="113.273979">
        <time>2026-07-18T23:46:45Z</time>
      </trkpt>
      <trkpt lat="23.081144" lon="113.274003">
        <time>2026-07-18T23:46:50Z</time>
      </trkpt>
      <trkpt lat="23.081267" lon="113.274044">
        <time>2026-07-18T23:46:55Z</time>
      </trkpt>
      <trkpt lat="23.081385" lon="113.274081">
        <time>2026-07-18T23:47:00Z</time>
      </trkpt>
      <trkpt lat="23.081463" lon="113.274106">
        <time>2026-07-18T23:47:05Z</time>
      </trkpt>
      <trkpt lat="23.081544" lon="113.274129">
        <time>2026-07-18T23:47:10Z</time>
      </trkpt>
      <trkpt lat="23.081665" lon="113.274159">
        <time>2026-07-18T23:47:15Z</time>
      </trkpt>
      <trkpt lat="23.08179" lon="113.274169">
        <time>2026-07-18T23:47:20Z</time>
      </trkpt>
      <trkpt lat="23.081867" lon="113.274132">
        <time>2026-07-18T23:47:25Z</time>
      </trkpt>
      <trkpt lat="23.081934" lon="113.274069">
        <time>2026-07-18T23:47:30Z</time>
      </trkpt>
      <trkpt lat="23.082027" lon="113.27395">
        <time>2026-07-18T23:47:35Z</time>
      </trkpt>
      <trkpt lat="23.082081" lon="113.27382">
        <time>2026-07-18T23:47:40Z</time>
      </trkpt>
      <trkpt lat="23.082096" lon="113.273731">
        <time>2026-07-18T23:47:45Z</time>
      </trkpt>
      <trkpt lat="23.082093" lon="113.273642">
        <time>2026-07-18T23:47:50Z</time>
      </trkpt>
      <trkpt lat="23.082073" lon="113.27352">
        <time>2026-07-18T23:47:55Z</time>
      </trkpt>
      <trkpt lat="23.082005" lon="113.273419">
        <time>2026-07-18T23:48:00Z</time>
      </trkpt>
      <trkpt lat="23.081928" lon="113.273387">
        <time>2026-07-18T23:48:05Z</time>
      </trkpt>
      <trkpt lat="23.081846" lon="113.273343">
        <time>2026-07-18T23:48:10Z</time>
      </trkpt>
      <trkpt lat="23.081722" lon="113.273276">
        <time>2026-07-18T23:48:15Z</time>
      </trkpt>
      <trkpt lat="23.081604" lon="113.273209">
        <time>2026-07-18T23:48:20Z</time>
      </trkpt>
      <trkpt lat="23.081529" lon="113.273174">
        <time>2026-07-18T23:48:25Z</time>
      </trkpt>
      <trkpt lat="23.081456" lon="113.273144">
        <time>2026-07-18T23:48:30Z</time>
      </trkpt>
      <trkpt lat="23.081339" lon="113.273128">
        <time>2026-07-18T23:48:35Z</time>
      </trkpt>
      <trkpt lat="23.081227" lon="113.273084">
        <time>2026-07-18T23:48:40Z</time>
      </trkpt>
      <trkpt lat="23.08115" lon="113.273058">
        <time>2026-07-18T23:48:45Z</time>
      </trkpt>
      <trkpt lat="23.081075" lon="113.273027">
        <time>2026-07-18T23:48:50Z</time>
      </trkpt>
      <trkpt lat="23.080955" lon="113.272984">
        <time>2026-07-18T23:48:55Z</time>
      </trkpt>
      <trkpt lat="23.080806" lon="113.272973">
        <time>2026-07-18T23:49:00Z</time>
      </trkpt>
      <trkpt lat="23.080694" lon="113.273015">
        <time>2026-07-18T23:49:05Z</time>
      </trkpt>
      <trkpt lat="23.080606" lon="113.273098">
        <time>2026-07-18T23:49:10Z</time>
      </trkpt>
      <trkpt lat="23.080531" lon="113.27324">
        <time>2026-07-18T23:49:15Z</time>
      </trkpt>
      <trkpt lat="23.080486" lon="113.273399">
        <time>2026-07-18T23:49:20Z</time>
      </trkpt>
      <trkpt lat="23.080468" lon="113.273507">
        <time>2026-07-18T23:49:25Z</time>
      </trkpt>
      <trkpt lat="23.080473" lon="113.273602">
        <time>2026-07-18T23:49:30Z</time>
      </trkpt>
      <trkpt lat="23.080552" lon="113.273747">
        <time>2026-07-18T23:49:35Z</time>
      </trkpt>
      <trkpt lat="23.080661" lon="113.273858">
        <time>2026-07-18T23:49:40Z</time>
      </trkpt>
      <trkpt lat="23.080754" lon="113.273888">
        <time>2026-07-18T23:49:45Z</time>
      </trkpt>
      <trkpt lat="23.080844" lon="113.273917">
        <time>2026-07-18T23:49:50Z</time>
      </trkpt>
      <trkpt lat="23.080968" lon="113.273952">
        <time>2026-07-18T23:49:55Z</time>
      </trkpt>
      <trkpt lat="23.081089" lon="113.273988">
        <time>2026-07-18T23:50:00Z</time>
      </trkpt>
      <trkpt lat="23.081171" lon="113.274012">
        <time>2026-07-18T23:50:05Z</time>
      </trkpt>
      <trkpt lat="23.081251" lon="113.274037">
        <time>2026-07-18T23:50:10Z</time>
      </trkpt>
      <trkpt lat="23.081366" lon="113.274075">
        <time>2026-07-18T23:50:15Z</time>
      </trkpt>
      <trkpt lat="23.08148" lon="113.274107">
        <time>2026-07-18T23:50:20Z</time>
      </trkpt>
      <trkpt lat="23.081559" lon="113.27413">
        <time>2026-07-18T23:50:25Z</time>
      </trkpt>
      <trkpt lat="23.08164" lon="113.274154">
        <time>2026-07-18T23:50:30Z</time>
      </trkpt>
      <trkpt lat="23.081766" lon="113.274171">
        <time>2026-07-18T23:50:35Z</time>
      </trkpt>
      <trkpt lat="23.081883" lon="113.27412">
        <time>2026-07-18T23:50:40Z</time>
      </trkpt>
      <trkpt lat="23.081942" lon="113.274058">
        <time>2026-07-18T23:50:45Z</time>
      </trkpt>
      <trkpt lat="23.082" lon="113.273988">
        <time>2026-07-18T23:50:50Z</time>
      </trkpt>
      <trkpt lat="23.082067" lon="113.273869">
        <time>2026-07-18T23:50:55Z</time>
      </trkpt>
      <trkpt lat="23.082096" lon="113.273737">
        <time>2026-07-18T23:51:00Z</time>
      </trkpt>
      <trkpt lat="23.082092" lon="113.27365">
        <time>2026-07-18T23:51:05Z</time>
      </trkpt>
      <trkpt lat="23.082085" lon="113.27357">
        <time>2026-07-18T23:51:10Z</time>
      </trkpt>
      <trkpt lat="23.082045" lon="113.273452">
        <time>2026-07-18T23:51:15Z</time>
      </trkpt>
      <trkpt lat="23.081959" lon="113.273399">
        <time>2026-07-18T23:51:20Z</time>
      </trkpt>
      <trkpt lat="23.081877" lon="113.273362">
        <time>2026-07-18T23:51:25Z</time>
      </trkpt>
      <trkpt lat="23.081785" lon="113.273314">
        <time>2026-07-18T23:51:30Z</time>
      </trkpt>
      <trkpt lat="23.081659" lon="113.27324">
        <time>2026-07-18T23:51:35Z</time>
      </trkpt>
      <trkpt lat="23.081549" lon="113.273178">
        <time>2026-07-18T23:51:40Z</time>
      </trkpt>
      <trkpt lat="23.081476" lon="113.273153">
        <time>2026-07-18T23:51:45Z</time>
      </trkpt>
      <trkpt lat="23.081397" lon="113.273139">
        <time>2026-07-18T23:51:50Z</time>
      </trkpt>
      <trkpt lat="23.081284" lon="113.273114">
        <time>2026-07-18T23:51:55Z</time>
      </trkpt>
      <trkpt lat="23.081179" lon="113.273071">
        <time>2026-07-18T23:52:00Z</time>
      </trkpt>
      <trkpt lat="23.081107" lon="113.273042">
        <time>2026-07-18T23:52:05Z</time>
      </trkpt>
      <trkpt lat="23.081033" lon="113.273013">
        <time>2026-07-18T23:52:10Z</time>
      </trkpt>
      <trkpt lat="23.080905" lon="113.272975">
        <time>2026-07-18T23:52:15Z</time>
      </trkpt>
      <trkpt lat="23.080755" lon="113.272988">
        <time>2026-07-18T23:52:20Z</time>
      </trkpt>
      <trkpt lat="23.080658" lon="113.273042">
        <time>2026-07-18T23:52:25Z</time>
      </trkpt>
      <trkpt lat="23.080583" lon="113.273135">
        <time>2026-07-18T23:52:30Z</time>
      </trkpt>
      <trkpt lat="23.080512" lon="113.273301">
        <time>2026-07-18T23:52:35Z</time>
      </trkpt>
      <trkpt lat="23.080477" lon="113.273471">
        <time>2026-07-18T23:52:40Z</time>
      </trkpt>
      <trkpt lat="23.080481" lon="113.273592">
        <time>2026-07-18T23:52:45Z</time>
      </trkpt>
      <trkpt lat="23.080521" lon="113.273694">
        <time>2026-07-18T23:52:50Z</time>
      </trkpt>
      <trkpt lat="23.080613" lon="113.273823">
        <time>2026-07-18T23:52:55Z</time>
      </trkpt>
      <trkpt lat="23.080736" lon="113.273882">
        <time>2026-07-18T23:53:00Z</time>
      </trkpt>
      <trkpt lat="23.080823" lon="113.273908">
        <time>2026-07-18T23:53:05Z</time>
      </trkpt>
      <trkpt lat="23.080907" lon="113.273933">
        <time>2026-07-18T23:53:10Z</time>
      </trkpt>
      <trkpt lat="23.08103" lon="113.273972">
        <time>2026-07-18T23:53:15Z</time>
      </trkpt>
      <trkpt lat="23.081159" lon="113.274009">
        <time>2026-07-18T23:53:20Z</time>
      </trkpt>
      <trkpt lat="23.081235" lon="113.274033">
        <time>2026-07-18T23:53:25Z</time>
      </trkpt>
      <trkpt lat="23.081312" lon="113.274057">
        <time>2026-07-18T23:53:30Z</time>
      </trkpt>
      <trkpt lat="23.081425" lon="113.274094">
        <time>2026-07-18T23:53:35Z</time>
      </trkpt>
      <trkpt lat="23.081539" lon="113.274126">
        <time>2026-07-18T23:53:40Z</time>
      </trkpt>
      <trkpt lat="23.081616" lon="113.274147">
        <time>2026-07-18T23:53:45Z</time>
      </trkpt>
      <trkpt lat="23.081695" lon="113.274165">
        <time>2026-07-18T23:53:50Z</time>
      </trkpt>
      <trkpt lat="23.081819" lon="113.274161">
        <time>2026-07-18T23:53:55Z</time>
      </trkpt>
      <trkpt lat="23.081927" lon="113.274077">
        <time>2026-07-18T23:54:00Z</time>
      </trkpt>
      <trkpt lat="23.081985" lon="113.274006">
        <time>2026-07-18T23:54:05Z</time>
      </trkpt>
      <trkpt lat="23.082039" lon="113.273928">
        <time>2026-07-18T23:54:10Z</time>
      </trkpt>
      <trkpt lat="23.082085" lon="113.273798">
        <time>2026-07-18T23:54:15Z</time>
      </trkpt>
      <trkpt lat="23.082096" lon="113.273665">
        <time>2026-07-18T23:54:20Z</time>
      </trkpt>
      <trkpt lat="23.082084" lon="113.273593">
        <time>2026-07-18T23:54:25Z</time>
      </trkpt>
      <trkpt lat="23.08207" lon="113.27352">
        <time>2026-07-18T23:54:30Z</time>
      </trkpt>
      <trkpt lat="23.082022" lon="113.273429">
        <time>2026-07-18T23:54:35Z</time>
      </trkpt>
      <trkpt lat="23.081918" lon="113.273381">
        <time>2026-07-18T23:54:40Z</time>
      </trkpt>
      <trkpt lat="23.081834" lon="113.273339">
        <time>2026-07-18T23:54:45Z</time>
      </trkpt>
      <trkpt lat="23.081749" lon="113.273294">
        <time>2026-07-18T23:54:50Z</time>
      </trkpt>
      <trkpt lat="23.081624" lon="113.27322">
        <time>2026-07-18T23:54:55Z</time>
      </trkpt>
      <trkpt lat="23.081512" lon="113.273164">
        <time>2026-07-18T23:55:00Z</time>
      </trkpt>
      <trkpt lat="23.081429" lon="113.273144">
        <time>2026-07-18T23:55:05Z</time>
      </trkpt>
      <trkpt lat="23.081341" lon="113.273127">
        <time>2026-07-18T23:55:10Z</time>
      </trkpt>
      <trkpt lat="23.081214" lon="113.273081">
        <time>2026-07-18T23:55:15Z</time>
      </trkpt>
      <trkpt lat="23.081089" lon="113.273034">
        <time>2026-07-18T23:55:20Z</time>
      </trkpt>
      <trkpt lat="23.081012" lon="113.273003">
        <time>2026-07-18T23:55:25Z</time>
      </trkpt>
      <trkpt lat="23.080928" lon="113.27298">
        <time>2026-07-18T23:55:30Z</time>
      </trkpt>
      <trkpt lat="23.080793" lon="113.272978">
        <time>2026-07-18T23:55:35Z</time>
      </trkpt>
      <trkpt lat="23.080652" lon="113.273047">
        <time>2026-07-18T23:55:40Z</time>
      </trkpt>
      <trkpt lat="23.080583" lon="113.273131">
        <time>2026-07-18T23:55:45Z</time>
      </trkpt>
      <trkpt lat="23.080534" lon="113.273235">
        <time>2026-07-18T23:55:50Z</time>
      </trkpt>
      <trkpt lat="23.080485" lon="113.273403">
        <time>2026-07-18T23:55:55Z</time>
      </trkpt>
      <trkpt lat="23.080472" lon="113.27358">
        <time>2026-07-18T23:56:00Z</time>
      </trkpt>
      <trkpt lat="23.080512" lon="113.273674">
        <time>2026-07-18T23:56:05Z</time>
      </trkpt>
      <trkpt lat="23.080561" lon="113.273749">
        <time>2026-07-18T23:56:10Z</time>
      </trkpt>
      <trkpt lat="23.080641" lon="113.273844">
        <time>2026-07-18T23:56:15Z</time>
      </trkpt>
      <trkpt lat="23.080777" lon="113.273894">
        <time>2026-07-18T23:56:20Z</time>
      </trkpt>
      <trkpt lat="23.080872" lon="113.273921">
        <time>2026-07-18T23:56:25Z</time>
      </trkpt>
      <trkpt lat="23.080959" lon="113.273951">
        <time>2026-07-18T23:56:30Z</time>
      </trkpt>
      <trkpt lat="23.08108" lon="113.273985">
        <time>2026-07-18T23:56:35Z</time>
      </trkpt>
      <trkpt lat="23.081194" lon="113.27402">
        <time>2026-07-18T23:56:40Z</time>
      </trkpt>
      <trkpt lat="23.081272" lon="113.274045">
        <time>2026-07-18T23:56:45Z</time>
      </trkpt>
      <trkpt lat="23.081352" lon="113.27407">
        <time>2026-07-18T23:56:50Z</time>
      </trkpt>
      <trkpt lat="23.08147" lon="113.274106">
        <time>2026-07-18T23:56:55Z</time>
      </trkpt>
      <trkpt lat="23.081585" lon="113.27414">
        <time>2026-07-18T23:57:00Z</time>
      </trkpt>
      <trkpt lat="23.081663" lon="113.274159">
        <time>2026-07-18T23:57:05Z</time>
      </trkpt>
      <trkpt lat="23.081743" lon="113.274169">
        <time>2026-07-18T23:57:10Z</time>
      </trkpt>
      <trkpt lat="23.081847" lon="113.274146">
        <time>2026-07-18T23:57:15Z</time>
      </trkpt>
      <trkpt lat="23.081945" lon="113.274058">
        <time>2026-07-18T23:57:20Z</time>
      </trkpt>
      <trkpt lat="23.081998" lon="113.273981">
        <time>2026-07-18T23:57:25Z</time>
      </trkpt>
      <trkpt lat="23.082053" lon="113.273901">
        <time>2026-07-18T23:57:30Z</time>
      </trkpt>
      <trkpt lat="23.082091" lon="113.273764">
        <time>2026-07-18T23:57:35Z</time>
      </trkpt>
      <trkpt lat="23.082091" lon="113.273627">
        <time>2026-07-18T23:57:40Z</time>
      </trkpt>
      <trkpt lat="23.082078" lon="113.273545">
        <time>2026-07-18T23:57:45Z</time>
      </trkpt>
      <trkpt lat="23.082053" lon="113.273468">
        <time>2026-07-18T23:57:50Z</time>
      </trkpt>
      <trkpt lat="23.081963" lon="113.273404">
        <time>2026-07-18T23:57:55Z</time>
      </trkpt>
      <trkpt lat="23.081858" lon="113.273349">
        <time>2026-07-18T23:58:00Z</time>
      </trkpt>
      <trkpt lat="23.081776" lon="113.273304">
        <time>2026-07-18T23:58:05Z</time>
      </trkpt>
      <trkpt lat="23.081693" lon="113.273258">
        <time>2026-07-18T23:58:10Z</time>
      </trkpt>
      <trkpt lat="23.081582" lon="113.273201">
        <time>2026-07-18T23:58:15Z</time>
      </trkpt>
      <trkpt lat="23.081467" lon="113.27315">
        <time>2026-07-18T23:58:20Z</time>
      </trkpt>
      <trkpt lat="23.081385" lon="113.273135">
        <time>2026-07-18T23:58:25Z</time>
      </trkpt>
      <trkpt lat="23.081307" lon="113.273114">
        <time>2026-07-18T23:58:30Z</time>
      </trkpt>
      <trkpt lat="23.081185" lon="113.273071">
        <time>2026-07-18T23:58:35Z</time>
      </trkpt>
      <trkpt lat="23.081069" lon="113.27303">
        <time>2026-07-18T23:58:40Z</time>
      </trkpt>
      <trkpt lat="23.080993" lon="113.273">
        <time>2026-07-18T23:58:45Z</time>
      </trkpt>
      <trkpt lat="23.08091" lon="113.272975">
        <time>2026-07-18T23:58:50Z</time>
      </trkpt>
      <trkpt lat="23.080763" lon="113.272985">
        <time>2026-07-18T23:58:55Z</time>
      </trkpt>
      <trkpt lat="23.080614" lon="113.273087">
        <time>2026-07-18T23:59:00Z</time>
      </trkpt>
      <trkpt lat="23.080551" lon="113.273199">
        <time>2026-07-18T23:59:05Z</time>
      </trkpt>
      <trkpt lat="23.080504" lon="113.27332">
        <time>2026-07-18T23:59:10Z</time>
      </trkpt>
      <trkpt lat="23.080471" lon="113.273486">
        <time>2026-07-18T23:59:15Z</time>
      </trkpt>
      <trkpt lat="23.080491" lon="113.27364">
        <time>2026-07-18T23:59:20Z</time>
      </trkpt>
      <trkpt lat="23.080543" lon="113.273726">
        <time>2026-07-18T23:59:25Z</time>
      </trkpt>
      <trkpt lat="23.080597" lon="113.273799">
        <time>2026-07-18T23:59:30Z</time>
      </trkpt>
      <trkpt lat="23.080695" lon="113.273871">
        <time>2026-07-18T23:59:35Z</time>
      </trkpt>
      <trkpt lat="23.080826" lon="113.273907">
        <time>2026-07-18T23:59:40Z</time>
      </trkpt>
      <trkpt lat="23.08091" lon="113.273932">
        <time>2026-07-18T23:59:45Z</time>
      </trkpt>
      <trkpt lat="23.080988" lon="113.273957">
        <time>2026-07-18T23:59:50Z</time>
      </trkpt>
      <trkpt lat="23.081104" lon="113.273995">
        <time>2026-07-18T23:59:55Z</time>
      </trkpt>
      <trkpt lat="23.081221" lon="113.274027">
        <time>2026-07-19T00:00:00Z</time>
      </trkpt>
      <trkpt lat="23.081298" lon="113.27405">
        <time>2026-07-19T00:00:05Z</time>
      </trkpt>
      <trkpt lat="23.081373" lon="113.274079">
        <time>2026-07-19T00:00:10Z</time>
      </trkpt>
      <trkpt lat="23.081484" lon="113.274113">
        <time>2026-07-19T00:00:15Z</time>
      </trkpt>
      <trkpt lat="23.081601" lon="113.274144">
        <time>2026-07-19T00:00:20Z</time>
      </trkpt>
      <trkpt lat="23.081684" lon="113.274162">
        <time>2026-07-19T00:00:25Z</time>
      </trkpt>
      <trkpt lat="23.081772" lon="113.27417">
        <time>2026-07-19T00:00:30Z</time>
      </trkpt>
      <trkpt lat="23.081888" lon="113.274113">
        <time>2026-07-19T00:00:35Z</time>
      </trkpt>
      <trkpt lat="23.081979" lon="113.274015">
        <time>2026-07-19T00:00:40Z</time>
      </trkpt>
      <trkpt lat="23.082032" lon="113.27394">
        <time>2026-07-19T00:00:45Z</time>
      </trkpt>
      <trkpt lat="23.08207" lon="113.273854">
        <time>2026-07-19T00:00:50Z</time>
      </trkpt>
      <trkpt lat="23.082095" lon="113.273723">
        <time>2026-07-19T00:00:55Z</time>
      </trkpt>
      <trkpt lat="23.082086" lon="113.273593">
        <time>2026-07-19T00:01:00Z</time>
      </trkpt>
      <trkpt lat="23.082071" lon="113.273518">
        <time>2026-07-19T00:01:05Z</time>
      </trkpt>
      <trkpt lat="23.082044" lon="113.273451">
        <time>2026-07-19T00:01:10Z</time>
      </trkpt>
      <trkpt lat="23.081944" lon="113.273388">
        <time>2026-07-19T00:01:15Z</time>
      </trkpt>
      <trkpt lat="23.081821" lon="113.273333">
        <time>2026-07-19T00:01:20Z</time>
      </trkpt>
      <trkpt lat="23.081742" lon="113.27329">
        <time>2026-07-19T00:01:25Z</time>
      </trkpt>
      <trkpt lat="23.081667" lon="113.273248">
        <time>2026-07-19T00:01:30Z</time>
      </trkpt>
      <trkpt lat="23.081561" lon="113.273183">
        <time>2026-07-19T00:01:35Z</time>
      </trkpt>
      <trkpt lat="23.081454" lon="113.273147">
        <time>2026-07-19T00:01:40Z</time>
      </trkpt>
      <trkpt lat="23.081379" lon="113.273134">
        <time>2026-07-19T00:01:45Z</time>
      </trkpt>
      <trkpt lat="23.081291" lon="113.27311">
        <time>2026-07-19T00:01:50Z</time>
      </trkpt>
      <trkpt lat="23.08116" lon="113.273062">
        <time>2026-07-19T00:01:55Z</time>
      </trkpt>
      <trkpt lat="23.081034" lon="113.273013">
        <time>2026-07-19T00:02:00Z</time>
      </trkpt>
      <trkpt lat="23.080951" lon="113.272984">
        <time>2026-07-19T00:02:05Z</time>
      </trkpt>
      <trkpt lat="23.080857" lon="113.272972">
        <time>2026-07-19T00:02:10Z</time>
      </trkpt>
      <trkpt lat="23.080666" lon="113.273048">
        <time>2026-07-19T00:02:15Z</time>
      </trkpt>
      <trkpt lat="23.080556" lon="113.273187">
        <time>2026-07-19T00:02:20Z</time>
      </trkpt>
      <trkpt lat="23.080521" lon="113.273272">
        <time>2026-07-19T00:02:25Z</time>
      </trkpt>
      <trkpt lat="23.080495" lon="113.273373">
        <time>2026-07-19T00:02:30Z</time>
      </trkpt>
      <trkpt lat="23.080455" lon="113.273545">
        <time>2026-07-19T00:02:35Z</time>
      </trkpt>
      <trkpt lat="23.080515" lon="113.273678">
        <time>2026-07-19T00:02:40Z</time>
      </trkpt>
      <trkpt lat="23.08056" lon="113.273754">
        <time>2026-07-19T00:02:45Z</time>
      </trkpt>
      <trkpt lat="23.080612" lon="113.273822">
        <time>2026-07-19T00:02:50Z</time>
      </trkpt>
      <trkpt lat="23.080738" lon="113.273883">
        <time>2026-07-19T00:02:55Z</time>
      </trkpt>
      <trkpt lat="23.080877" lon="113.273922">
        <time>2026-07-19T00:03:00Z</time>
      </trkpt>
      <trkpt lat="23.080962" lon="113.273951">
        <time>2026-07-19T00:03:05Z</time>
      </trkpt>
      <trkpt lat="23.081045" lon="113.273976">
        <time>2026-07-19T00:03:10Z</time>
      </trkpt>
      <trkpt lat="23.081167" lon="113.274014">
        <time>2026-07-19T00:03:15Z</time>
      </trkpt>
      <trkpt lat="23.081285" lon="113.274049">
        <time>2026-07-19T00:03:20Z</time>
      </trkpt>
      <trkpt lat="23.081364" lon="113.274073">
        <time>2026-07-19T00:03:25Z</time>
      </trkpt>
      <trkpt lat="23.08144" lon="113.274098">
        <time>2026-07-19T00:03:30Z</time>
      </trkpt>
      <trkpt lat="23.081561" lon="113.274133">
        <time>2026-07-19T00:03:35Z</time>
      </trkpt>
      <trkpt lat="23.081675" lon="113.274163">
        <time>2026-07-19T00:03:40Z</time>
      </trkpt>
      <trkpt lat="23.081761" lon="113.274169">
        <time>2026-07-19T00:03:45Z</time>
      </trkpt>
      <trkpt lat="23.081847" lon="113.274143">
        <time>2026-07-19T00:03:50Z</time>
      </trkpt>
      <trkpt lat="23.081944" lon="113.274056">
        <time>2026-07-19T00:03:55Z</time>
      </trkpt>
      <trkpt lat="23.082027" lon="113.273948">
        <time>2026-07-19T00:04:00Z</time>
      </trkpt>
      <trkpt lat="23.082065" lon="113.27387">
        <time>2026-07-19T00:04:05Z</time>
      </trkpt>
      <trkpt lat="23.082087" lon="113.273788">
        <time>2026-07-19T00:04:10Z</time>
      </trkpt>
      <trkpt lat="23.082093" lon="113.273662">
        <time>2026-07-19T00:04:15Z</time>
      </trkpt>
      <trkpt lat="23.082076" lon="113.273539">
        <time>2026-07-19T00:04:20Z</time>
      </trkpt>
      <trkpt lat="23.082048" lon="113.273459">
        <time>2026-07-19T00:04:25Z</time>
      </trkpt>
      <trkpt lat="23.081987" lon="113.273409">
        <time>2026-07-19T00:04:30Z</time>
      </trkpt>
      <trkpt lat="23.081872" lon="113.273359">
        <time>2026-07-19T00:04:35Z</time>
      </trkpt>
      <trkpt lat="23.081745" lon="113.273292">
        <time>2026-07-19T00:04:40Z</time>
      </trkpt>
      <trkpt lat="23.081665" lon="113.273243">
        <time>2026-07-19T00:04:45Z</time>
      </trkpt>
      <trkpt lat="23.081593" lon="113.2732">
        <time>2026-07-19T00:04:50Z</time>
      </trkpt>
      <trkpt lat="23.081493" lon="113.273159">
        <time>2026-07-19T00:04:55Z</time>
      </trkpt>
      <trkpt lat="23.081374" lon="113.273136">
        <time>2026-07-19T00:05:00Z</time>
      </trkpt>
      <trkpt lat="23.081297" lon="113.273111">
        <time>2026-07-19T00:05:05Z</time>
      </trkpt>
      <trkpt lat="23.081207" lon="113.27308">
        <time>2026-07-19T00:05:10Z</time>
      </trkpt>
      <trkpt lat="23.08109" lon="113.273033">
        <time>2026-07-19T00:05:15Z</time>
      </trkpt>
      <trkpt lat="23.080972" lon="113.272994">
        <time>2026-07-19T00:05:20Z</time>
      </trkpt>
      <trkpt lat="23.080888" lon="113.272972">
        <time>2026-07-19T00:05:25Z</time>
      </trkpt>
      <trkpt lat="23.080778" lon="113.272992">
        <time>2026-07-19T00:05:30Z</time>
      </trkpt>
      <trkpt lat="23.080611" lon="113.273077">
        <time>2026-07-19T00:05:35Z</time>
      </trkpt>
      <trkpt lat="23.08052" lon="113.27323">
        <time>2026-07-19T00:05:40Z</time>
      </trkpt>
      <trkpt lat="23.080499" lon="113.27334">
        <time>2026-07-19T00:05:45Z</time>
      </trkpt>
      <trkpt lat="23.080489" lon="113.273451">
        <time>2026-07-19T00:05:50Z</time>
      </trkpt>
      <trkpt lat="23.080511" lon="113.273611">
        <time>2026-07-19T00:05:55Z</time>
      </trkpt>
      <trkpt lat="23.080581" lon="113.27375">
        <time>2026-07-19T00:06:00Z</time>
      </trkpt>
      <trkpt lat="23.080639" lon="113.273817">
        <time>2026-07-19T00:06:05Z</time>
      </trkpt>
      <trkpt lat="23.080713" lon="113.273863">
        <time>2026-07-19T00:06:10Z</time>
      </trkpt>
      <trkpt lat="23.080846" lon="113.273906">
        <time>2026-07-19T00:06:15Z</time>
      </trkpt>
      <trkpt lat="23.080969" lon="113.273955">
        <time>2026-07-19T00:06:20Z</time>
      </trkpt>
      <trkpt lat="23.081051" lon="113.273987">
        <time>2026-07-19T00:06:25Z</time>
      </trkpt>
      <trkpt lat="23.081133" lon="113.274016">
        <time>2026-07-19T00:06:30Z</time>
      </trkpt>
      <trkpt lat="23.081248" lon="113.274047">
        <time>2026-07-19T00:06:35Z</time>
      </trkpt>
      <trkpt lat="23.081366" lon="113.274086">
        <time>2026-07-19T00:06:40Z</time>
      </trkpt>
      <trkpt lat="23.081448" lon="113.274115">
        <time>2026-07-19T00:06:45Z</time>
      </trkpt>
      <trkpt lat="23.08153" lon="113.274134">
        <time>2026-07-19T00:06:50Z</time>
      </trkpt>
      <trkpt lat="23.081648" lon="113.274154">
        <time>2026-07-19T00:06:55Z</time>
      </trkpt>
      <trkpt lat="23.081769" lon="113.274149">
        <time>2026-07-19T00:07:00Z</time>
      </trkpt>
      <trkpt lat="23.081849" lon="113.274116">
        <time>2026-07-19T00:07:05Z</time>
      </trkpt>
      <trkpt lat="23.081923" lon="113.274063">
        <time>2026-07-19T00:07:10Z</time>
      </trkpt>
      <trkpt lat="23.082012" lon="113.273958">
        <time>2026-07-19T00:07:15Z</time>
      </trkpt>
      <trkpt lat="23.082076" lon="113.273835">
        <time>2026-07-19T00:07:20Z</time>
      </trkpt>
      <trkpt lat="23.082097" lon="113.273746">
        <time>2026-07-19T00:07:25Z</time>
      </trkpt>
      <trkpt lat="23.082102" lon="113.273655">
        <time>2026-07-19T00:07:30Z</time>
      </trkpt>
      <trkpt lat="23.08207" lon="113.273537">
        <time>2026-07-19T00:07:35Z</time>
      </trkpt>
      <trkpt lat="23.082009" lon="113.27344">
        <time>2026-07-19T00:07:40Z</time>
      </trkpt>
      <trkpt lat="23.081935" lon="113.27341">
        <time>2026-07-19T00:07:45Z</time>
      </trkpt>
      <trkpt lat="23.08185" lon="113.273386">
        <time>2026-07-19T00:07:50Z</time>
      </trkpt>
      <trkpt lat="23.08172" lon="113.273325">
        <time>2026-07-19T00:07:55Z</time>
      </trkpt>
      <trkpt lat="23.081604" lon="113.273264">
        <time>2026-07-19T00:08:00Z</time>
      </trkpt>
      <trkpt lat="23.081533" lon="113.273223">
        <time>2026-07-19T00:08:05Z</time>
      </trkpt>
      <trkpt lat="23.081469" lon="113.27318">
        <time>2026-07-19T00:08:10Z</time>
      </trkpt>
      <trkpt lat="23.081409" lon="113.273098">
        <time>2026-07-19T00:08:15Z</time>
      </trkpt>
      <trkpt lat="23.081437" lon="113.272988">
        <time>2026-07-19T00:08:20Z</time>
      </trkpt>
      <trkpt lat="23.0814" lon="113.272948">
        <time>2026-07-19T00:08:25Z</time>
      </trkpt>
      <trkpt lat="23.081345" lon="113.272925">
        <time>2026-07-19T00:08:30Z</time>
      </trkpt>
      <trkpt lat="23.081288" lon="113.272826">
        <time>2026-07-19T00:08:35Z</time>
      </trkpt>
      <trkpt lat="23.081235" lon="113.272715">
        <time>2026-07-19T00:08:40Z</time>
      </trkpt>
      <trkpt lat="23.081195" lon="113.272651">
        <time>2026-07-19T00:08:45Z</time>
      </trkpt>
      <trkpt lat="23.081138" lon="113.272602">
        <time>2026-07-19T00:08:50Z</time>
      </trkpt>
      <trkpt lat="23.081034" lon="113.272538">
        <time>2026-07-19T00:08:55Z</time>
      </trkpt>
      <trkpt lat="23.080909" lon="113.27249">
        <time>2026-07-19T00:09:00Z</time>
      </trkpt>
      <trkpt lat="23.080838" lon="113.272459">
        <time>2026-07-19T00:09:05Z</time>
      </trkpt>
      <trkpt lat="23.080772" lon="113.272423">
        <time>2026-07-19T00:09:10Z</time>
      </trkpt>
      <trkpt lat="23.080671" lon="113.272383">
        <time>2026-07-19T00:09:15Z</time>
      </trkpt>
      <trkpt lat="23.080563" lon="113.272379">
        <time>2026-07-19T00:09:20Z</time>
      </trkpt>
      <trkpt lat="23.08048" lon="113.272371">
        <time>2026-07-19T00:09:25Z</time>
      </trkpt>
      <trkpt lat="23.080362" lon="113.272395">
        <time>2026-07-19T00:09:30Z</time>
      </trkpt>
      <trkpt lat="23.080215" lon="113.272405">
        <time>2026-07-19T00:09:35Z</time>
      </trkpt>
      <trkpt lat="23.0801" lon="113.272365">
        <time>2026-07-19T00:09:40Z</time>
      </trkpt>
      <trkpt lat="23.080025" lon="113.272342">
        <time>2026-07-19T00:09:45Z</time>
      </trkpt>
      <trkpt lat="23.079941" lon="113.272318">
        <time>2026-07-19T00:09:50Z</time>
      </trkpt>
      <trkpt lat="23.079818" lon="113.272274">
        <time>2026-07-19T00:09:55Z</time>
      </trkpt>
      <trkpt lat="23.079715" lon="113.272264">
        <time>2026-07-19T00:10:00Z</time>
      </trkpt>
      <trkpt lat="23.079645" lon="113.27221">
        <time>2026-07-19T00:10:05Z</time>
      </trkpt>
      <trkpt lat="23.079573" lon="113.272161">
        <time>2026-07-19T00:10:10Z</time>
      </trkpt>
      <trkpt lat="23.079489" lon="113.272109">
        <time>2026-07-19T00:10:15Z</time>
      </trkpt>
      <trkpt lat="23.079425" lon="113.272014">
        <time>2026-07-19T00:10:20Z</time>
      </trkpt>
      <trkpt lat="23.07934" lon="113.272009">
        <time>2026-07-19T00:10:25Z</time>
      </trkpt>
      <trkpt lat="23.079242" lon="113.272042">
        <time>2026-07-19T00:10:30Z</time>
      </trkpt>
      <trkpt lat="23.079111" lon="113.272126">
        <time>2026-07-19T00:10:35Z</time>
      </trkpt>
      <trkpt lat="23.078994" lon="113.27222">
        <time>2026-07-19T00:10:40Z</time>
      </trkpt>
      <trkpt lat="23.078924" lon="113.27228">
        <time>2026-07-19T00:10:45Z</time>
      </trkpt>
      <trkpt lat="23.078855" lon="113.27234">
        <time>2026-07-19T00:10:50Z</time>
      </trkpt>
      <trkpt lat="23.078764" lon="113.272438">
        <time>2026-07-19T00:10:55Z</time>
      </trkpt>
      <trkpt lat="23.078664" lon="113.272527">
        <time>2026-07-19T00:11:00Z</time>
      </trkpt>
      <trkpt lat="23.078595" lon="113.272576">
        <time>2026-07-19T00:11:05Z</time>
      </trkpt>
      <trkpt lat="23.078523" lon="113.272625">
        <time>2026-07-19T00:11:10Z</time>
      </trkpt>
      <trkpt lat="23.078418" lon="113.272702">
        <time>2026-07-19T00:11:15Z</time>
      </trkpt>
      <trkpt lat="23.078315" lon="113.272771">
        <time>2026-07-19T00:11:20Z</time>
      </trkpt>
      <trkpt lat="23.078247" lon="113.272821">
        <time>2026-07-19T00:11:25Z</time>
      </trkpt>
      <trkpt lat="23.078173" lon="113.272873">
        <time>2026-07-19T00:11:30Z</time>
      </trkpt>
      <trkpt lat="23.078073" lon="113.272961">
        <time>2026-07-19T00:11:35Z</time>
      </trkpt>
      <trkpt lat="23.077963" lon="113.273039">
        <time>2026-07-19T00:11:40Z</time>
      </trkpt>
      <trkpt lat="23.077878" lon="113.273076">
        <time>2026-07-19T00:11:45Z</time>
      </trkpt>
      <trkpt lat="23.077812" lon="113.273125">
        <time>2026-07-19T00:11:50Z</time>
      </trkpt>
      <trkpt lat="23.077713" lon="113.273211">
        <time>2026-07-19T00:11:55Z</time>
      </trkpt>
      <trkpt lat="23.077615" lon="113.273304">
        <time>2026-07-19T00:12:00Z</time>
      </trkpt>
      <trkpt lat="23.077552" lon="113.273371">
        <time>2026-07-19T00:12:05Z</time>
      </trkpt>
      <trkpt lat="23.077484" lon="113.273443">
        <time>2026-07-19T00:12:10Z</time>
      </trkpt>
      <trkpt lat="23.077381" lon="113.27353">
        <time>2026-07-19T00:12:15Z</time>
      </trkpt>
      <trkpt lat="23.07728" lon="113.27359">
        <time>2026-07-19T00:12:20Z</time>
      </trkpt>
      <trkpt lat="23.077199" lon="113.27359">
        <time>2026-07-19T00:12:25Z</time>
      </trkpt>
      <trkpt lat="23.077112" lon="113.273554">
        <time>2026-07-19T00:12:30Z</time>
      </trkpt>
      <trkpt lat="23.076997" lon="113.273483">
        <time>2026-07-19T00:12:35Z</time>
      </trkpt>
      <trkpt lat="23.076905" lon="113.273407">
        <time>2026-07-19T00:12:40Z</time>
      </trkpt>
      <trkpt lat="23.076845" lon="113.273348">
        <time>2026-07-19T00:12:45Z</time>
      </trkpt>
      <trkpt lat="23.076792" lon="113.273307">
        <time>2026-07-19T00:12:50Z</time>
      </trkpt>
      <trkpt lat="23.076756" lon="113.27321">
        <time>2026-07-19T00:12:55Z</time>
      </trkpt>
      <trkpt lat="23.076711" lon="113.273081">
        <time>2026-07-19T00:13:00Z</time>
      </trkpt>
      <trkpt lat="23.076659" lon="113.273005">
        <time>2026-07-19T00:13:05Z</time>
      </trkpt>
      <trkpt lat="23.076599" lon="113.272951">
        <time>2026-07-19T00:13:10Z</time>
      </trkpt>
      <trkpt lat="23.076518" lon="113.272857">
        <time>2026-07-19T00:13:15Z</time>
      </trkpt>
      <trkpt lat="23.076433" lon="113.272778">
        <time>2026-07-19T00:13:20Z</time>
      </trkpt>
      <trkpt lat="23.076376" lon="113.272725">
        <time>2026-07-19T00:13:25Z</time>
      </trkpt>
      <trkpt lat="23.076323" lon="113.272664">
        <time>2026-07-19T00:13:30Z</time>
      </trkpt>
      <trkpt lat="23.076243" lon="113.272569">
        <time>2026-07-19T00:13:35Z</time>
      </trkpt>
      <trkpt lat="23.076131" lon="113.272499">
        <time>2026-07-19T00:13:40Z</time>
      </trkpt>
      <trkpt lat="23.076048" lon="113.272456">
        <time>2026-07-19T00:13:45Z</time>
      </trkpt>
      <trkpt lat="23.075983" lon="113.272422">
        <time>2026-07-19T00:13:50Z</time>
      </trkpt>
      <trkpt lat="23.075881" lon="113.272371">
        <time>2026-07-19T00:13:55Z</time>
      </trkpt>
      <trkpt lat="23.075772" lon="113.272293">
        <time>2026-07-19T00:14:00Z</time>
      </trkpt>
      <trkpt lat="23.075654" lon="113.272241">
        <time>2026-07-19T00:14:06Z</time>
      </trkpt>
    </trkseg>
  </trk>
</gpx>