<?xml version="1.0" encoding="UTF-8"?>
<gpx xmlns="http://www.topografix.com/GPX/1/1" xmlns:gpxtpx="http://www.garmin.com/xmlschemas/TrackPointExtension/v1" xmlns:xsi="http://www.w3.org/2001/XMLSchema-instance" xsi:schemaLocation="http://www.topografix.com/GPX/1/1 http://www.topografix.com/GPX/1/1/gpx.xsd" version="1.1" creator="gpx.py -- https://github.com/tkrajina/gpxpy">
  <trk>
    <name>gpx from joyrun</name>
    <trkseg>
      <trkpt lat="23.075785" lon="113.27251">
        <time>2026-07-22T21:54:34Z</time>
      </trkpt>
      <trkpt lat="23.075734" lon="113.272493">
        <time>2026-07-22T21:54:39Z</time>
      </trkpt>
      <trkpt lat="23.075662" lon="113.272471">
        <time>2026-07-22T21:54:44Z</time>
      </trkpt>
      <trkpt lat="23.075585" lon="113.272439">
        <time>2026-07-22T21:54:49Z</time>
      </trkpt>
      <trkpt lat="23.075448" lon="113.272411">
        <time>2026-07-22T21:54:54Z</time>
      </trkpt>
      <trkpt lat="23.075303" lon="113.272371">
        <time>2026-07-22T21:54:59Z</time>
      </trkpt>
      <trkpt lat="23.075211" lon="113.272318">
        <time>2026-07-22T21:55:04Z</time>
      </trkpt>
      <trkpt lat="23.075129" lon="113.272269">
        <time>2026-07-22T21:55:09Z</time>
      </trkpt>
      <trkpt lat="23.075007" lon="113.272207">
        <time>2026-07-22T21:55:14Z</time>
      </trkpt>
      <trkpt lat="23.074885" lon="113.272148">
        <time>2026-07-22T21:55:19Z</time>
      </trkpt>
      <trkpt lat="23.07481" lon="113.272102">
        <time>2026-07-22T21:55:24Z</time>
      </trkpt>
      <trkpt lat="23.074733" lon="113.272059">
        <time>2026-07-22T21:55:29Z</time>
      </trkpt>
      <trkpt lat="23.074604" lon="113.271983">
        <time>2026-07-22T21:55:34Z</time>
      </trkpt>
      <trkpt lat="23.074464" lon="113.271968">
        <time>2026-07-22T21:55:39Z</time>
      </trkpt>
      <trkpt lat="23.074386" lon="113.272021">
        <time>2026-07-22T21:55:44Z</time>
      </trkpt>
      <trkpt lat="23.074337" lon="113.272109">
        <time>2026-07-22T21:55:49Z</time>
      </trkpt>
      <trkpt lat="23.074285" lon="113.272261">
        <time>2026-07-22T21:55:54Z</time>
      </trkpt>
      <trkpt lat="23.074214" lon="113.272387">
        <time>2026-07-22T21:55:59Z</time>
      </trkpt>
      <trkpt lat="23.074176" lon="113.272473">
        <time>2026-07-22T21:56:04Z</time>
      </trkpt>
      <trkpt lat="23.07414" lon="113.272559">
        <time>2026-07-22T21:56:09Z</time>
      </trkpt>
      <trkpt lat="23.074083" lon="113.272689">
        <time>2026-07-22T21:56:14Z</time>
      </trkpt>
      <trkpt lat="23.074021" lon="113.272819">
        <time>2026-07-22T21:56:19Z</time>
      </trkpt>
      <trkpt lat="23.073972" lon="113.272905">
        <time>2026-07-22T21:56:24Z</time>
      </trkpt>
      <trkpt lat="23.073921" lon="113.272953">
        <time>2026-07-22T21:56:29Z</time>
      </trkpt>
      <trkpt lat="23.073821" lon="113.272934">
        <time>2026-07-22T21:56:34Z</time>
      </trkpt>
      <trkpt lat="23.073711" lon="113.272879">
        <time>2026-07-22T21:56:39Z</time>
      </trkpt>
      <trkpt lat="23.073686" lon="113.272832">
        <time>2026-07-22T21:56:44Z</time>
      </trkpt>
      <trkpt lat="23.073718" lon="113.272762">
        <time>2026-07-22T21:56:49Z</time>
      </trkpt>
      <trkpt lat="23.073775" lon="113.272649">
        <time>2026-07-22T21:56:54Z</time>
      </trkpt>
      <trkpt lat="23.07382" lon="113.272527">
        <time>2026-07-22T21:56:59Z</time>
      </trkpt>
      <trkpt lat="23.073855" lon="113.272441">
        <time>2026-07-22T21:57:04Z</time>
      </trkpt>
      <trkpt lat="23.073894" lon="113.272354">
        <time>2026-07-22T21:57:09Z</time>
      </trkpt>
      <trkpt lat="23.07395" lon="113.272228">
        <time>2026-07-22T21:57:14Z</time>
      </trkpt>
      <trkpt lat="23.073999" lon="113.272103">
        <time>2026-07-22T21:57:19Z</time>
      </trkpt>
      <trkpt lat="23.074031" lon="113.272014">
        <time>2026-07-22T21:57:24Z</time>
      </trkpt>
      <trkpt lat="23.074072" lon="113.271931">
        <time>2026-07-22T21:57:29Z</time>
      </trkpt>
      <trkpt lat="23.074127" lon="113.271801">
        <time>2026-07-22T21:57:34Z</time>
      </trkpt>
      <trkpt lat="23.074076" lon="113.271696">
        <time>2026-07-22T21:57:39Z</time>
      </trkpt>
      <trkpt lat="23.073997" lon="113.271664">
        <time>2026-07-22T21:57:44Z</time>
      </trkpt>
      <trkpt lat="23.073928" lon="113.271632">
        <time>2026-07-22T21:57:49Z</time>
      </trkpt>
      <trkpt lat="23.073818" lon="113.271574">
        <time>2026-07-22T21:57:54Z</time>
      </trkpt>
      <trkpt lat="23.073699" lon="113.271527">
        <time>2026-07-22T21:57:59Z</time>
      </trkpt>
      <trkpt lat="23.073619" lon="113.271487">
        <time>2026-07-22T21:58:04Z</time>
      </trkpt>
      <trkpt lat="23.073532" lon="113.271447">
        <time>2026-07-22T21:58:09Z</time>
      </trkpt>
      <trkpt lat="23.0734" lon="113.271389">
        <time>2026-07-22T21:58:14Z</time>
      </trkpt>
      <trkpt lat="23.073276" lon="113.271301">
        <time>2026-07-22T21:58:19Z</time>
      </trkpt>
      <trkpt lat="23.073197" lon="113.271222">
        <time>2026-07-22T21:58:24Z</time>
      </trkpt>
      <trkpt lat="23.073107" lon="113.271177">
        <time>2026-07-22T21:58:29Z</time>
      </trkpt>
      <trkpt lat="23.072976" lon="113.271122">
        <time>2026-07-22T21:58:34Z</time>
      </trkpt>
      <trkpt lat="23.072846" lon="113.271049">
        <time>2026-07-22T21:58:39Z</time>
      </trkpt>
      <trkpt lat="23.072755" lon="113.270993">
        <time>2026-07-22T21:58:44Z</time>
      </trkpt>
      <trkpt lat="23.072665" lon="113.270948">
        <time>2026-07-22T21:58:49Z</time>
      </trkpt>
      <trkpt lat="23.072537" lon="113.270888">
        <time>2026-07-22T21:58:54Z</time>
      </trkpt>
      <trkpt lat="23.072419" lon="113.270841">
        <time>2026-07-22T21:58:59Z</time>
      </trkpt>
      <trkpt lat="23.072337" lon="113.270811">
        <time>2026-07-22T21:59:04Z</time>
      </trkpt>
      <trkpt lat="23.07225" lon="113.270764">
        <time>2026-07-22T21:59:09Z</time>
      </trkpt>
      <trkpt lat="23.072125" lon="113.270676">
        <time>2026-07-22T21:59:14Z</time>
      </trkpt>
      <trkpt lat="23.071994" lon="113.270599">
        <time>2026-07-22T21:59:19Z</time>
      </trkpt>
      <trkpt lat="23.071905" lon="113.270563">
        <time>2026-07-22T21:59:24Z</time>
      </trkpt>
      <trkpt lat="23.071816" lon="113.270525">
        <time>2026-07-22T21:59:29Z</time>
      </trkpt>
      <trkpt lat="23.07168" lon="113.270439">
        <time>2026-07-22T21:59:34Z</time>
      </trkpt>
      <trkpt lat="23.071554" lon="113.270382">
        <time>2026-07-22T21:59:39Z</time>
      </trkpt>
      <trkpt lat="23.071463" lon="113.270353">
        <time>2026-07-22T21:59:44Z</time>
      </trkpt>
      <trkpt lat="23.071372" lon="113.270324">
        <time>2026-07-22T21:59:49Z</time>
      </trkpt>
      <trkpt lat="23.071229" lon="113.270271">
        <time>2026-07-22T21:59:54Z</time>
      </trkpt>
      <trkpt lat="23.07108" lon="113.270209">
        <time>2026-07-22T21:59:59Z</time>
      </trkpt>
      <trkpt lat="23.070985" lon="113.270165">
        <time>2026-07-22T22:00:04Z</time>
      </trkpt>
      <trkpt lat="23.070896" lon="113.270121">
        <time>2026-07-22T22:00:09Z</time>
      </trkpt>
      <trkpt lat="23.070774" lon="113.270043">
        <time>2026-07-22T22:00:14Z</time>
      </trkpt>
      <trkpt lat="23.070647" lon="113.269961">
        <time>2026-07-22T22:00:19Z</time>
      </trkpt>
      <trkpt lat="23.070546" lon="113.269931">
        <time>2026-07-22T22:00:24Z</time>
      </trkpt>
      <trkpt lat="23.070443" lon="113.269901">
        <time>2026-07-22T22:00:29Z</time>
      </trkpt>
      <trkpt lat="23.070293" lon="113.269844">
        <time>2026-07-22T22:00:34Z</time>
      </trkpt>
      <trkpt lat="23.070163" lon="113.269781">
        <time>2026-07-22T22:00:39Z</time>
      </trkpt>
      <trkpt lat="23.070076" lon="113.269723">
        <time>2026-07-22T22:00:44Z</time>
      </trkpt>
      <trkpt lat="23.069989" lon="113.269666">
        <time>2026-07-22T22:00:49Z</time>
      </trkpt>
      <trkpt lat="23.069858" lon="113.269583">
        <time>2026-07-22T22:00:54Z</time>
      </trkpt>
      <trkpt lat="23.069716" lon="113.269537">
        <time>2026-07-22T22:00:59Z</time>
      </trkpt>
      <trkpt lat="23.069625" lon="113.269484">
        <time>2026-07-22T22:01:04Z</time>
      </trkpt>
      <trkpt lat="23.069536" lon="113.269425">
        <time>2026-07-22T22:01:09Z</time>
      </trkpt>
      <trkpt lat="23.0694" lon="113.269363">
        <time>2026-07-22T22:01:14Z</time>
      </trkpt>
      <trkpt lat="23.069264" lon="113.269292">
        <time>2026-07-22T22:01:19Z</time>
      </trkpt>
      <trkpt lat="23.069173" lon="113.269254">
        <time>2026-07-22T22:01:24Z</time>
      </trkpt>
      <trkpt lat="23.069083" lon="113.269229">
        <time>2026-07-22T22:01:29Z</time>
      </trkpt>
      <trkpt lat="23.068948" lon="113.269181">
        <time>2026-07-22T22:01:34Z</time>
      </trkpt>
      <trkpt lat="23.06881" lon="113.269139">
        <time>2026-07-22T22:01:39Z</time>
      </trkpt>
      <trkpt lat="23.068732" lon="113.269092">
        <time>2026-07-22T22:01:44Z</time>
      </trkpt>
      <trkpt lat="23.068653" lon="113.269038">
        <time>2026-07-22T22:01:49Z</time>
      </trkpt>
      <trkpt lat="23.068503" lon="113.268998">
        <time>2026-07-22T22:01:54Z</time>
      </trkpt>
      <trkpt lat="23.068375" lon="113.26895">
        <time>2026-07-22T22:01:59Z</time>
      </trkpt>
      <trkpt lat="23.068299" lon="113.268899">
        <time>2026-07-22T22:02:04Z</time>
      </trkpt>
      <trkpt lat="23.068222" lon="113.26885">
        <time>2026-07-22T22:02:09Z</time>
      </trkpt>
      <trkpt lat="23.068095" lon="113.268785">
        <time>2026-07-22T22:02:14Z</time>
      </trkpt>
      <trkpt lat="23.068011" lon="113.268629">
        <time>2026-07-22T22:02:19Z</time>
      </trkpt>
      <trkpt lat="23.067948" lon="113.268543">
        <time>2026-07-22T22:02:24Z</time>
      </trkpt>
      <trkpt lat="23.067862" lon="113.268502">
        <time>2026-07-22T22:02:29Z</time>
      </trkpt>
      <trkpt lat="23.067736" lon="113.26844">
        <time>2026-07-22T22:02:34Z</time>
      </trkpt>
      <trkpt lat="23.067611" lon="113.268374">
        <time>2026-07-22T22:02:39Z</time>
      </trkpt>
      <trkpt lat="23.067519" lon="113.268328">
        <time>2026-07-22T22:02:44Z</time>
      </trkpt>
      <trkpt lat="23.067429" lon="113.268277">
        <time>2026-07-22T22:02:49Z</time>
      </trkpt>
      <trkpt lat="23.067279" lon="113.268222">
        <time>2026-07-22T22:02:54Z</time>
      </trkpt>
      <trkpt lat="23.067145" lon="113.268175">
        <time>2026-07-22T22:02:59Z</time>
      </trkpt>
      <trkpt lat="23.067063" lon="113.268131">
        <time>2026-07-22T22:03:04Z</time>
      </trkpt>
      <trkpt lat="23.066979" lon="113.268083">
        <time>2026-07-22T22:03:09Z</time>
      </trkpt>
      <trkpt lat="23.066843" lon="113.268043">
        <time>2026-07-22T22:03:14Z</time>
      </trkpt>
      <trkpt lat="23.066693" lon="113.268034">
        <time>2026-07-22T22:03:19Z</time>
      </trkpt>
      <trkpt lat="23.066597" lon="113.26802">
        <time>2026-07-22T22:03:24Z</time>
      </trkpt>
      <trkpt lat="23.066508" lon="113.267983">
        <time>2026-07-22T22:03:29Z</time>
      </trkpt>
      <trkpt lat="23.066375" lon="113.267956">
        <time>2026-07-22T22:03:34Z</time>
      </trkpt>
      <trkpt lat="23.066244" lon="113.267996">
        <time>2026-07-22T22:03:39Z</time>
      </trkpt>
      <trkpt lat="23.066169" lon="113.268052">
        <time>2026-07-22T22:03:44Z</time>
      </trkpt>
      <trkpt lat="23.066099" lon="113.268119">
        <time>2026-07-22T22:03:49Z</time>
      </trkpt>
      <trkpt lat="23.065997" lon="113.268233">
        <time>2026-07-22T22:03:54Z</time>
      </trkpt>
      <trkpt lat="23.065897" lon="113.268345">
        <time>2026-07-22T22:03:59Z</time>
      </trkpt>
      <trkpt lat="23.065836" lon="113.26842">
        <time>2026-07-22T22:04:04Z</time>
      </trkpt>
      <trkpt lat="23.065787" lon="113.268506">
        <time>2026-07-22T22:04:09Z</time>
      </trkpt>
      <trkpt lat="23.06573" lon="113.268643">
        <time>2026-07-22T22:04:14Z</time>
      </trkpt>
      <trkpt lat="23.065677" lon="113.268773">
        <time>2026-07-22T22:04:19Z</time>
      </trkpt>
      <trkpt lat="23.065643" lon="113.268858">
        <time>2026-07-22T22:04:24Z</time>
      </trkpt>
      <trkpt lat="23.065613" lon="113.268947">
        <time>2026-07-22T22:04:29Z</time>
      </trkpt>
      <trkpt lat="23.065565" lon="113.26908">
        <time>2026-07-22T22:04:34Z</time>
      </trkpt>
      <trkpt lat="23.065524" lon="113.269218">
        <time>2026-07-22T22:04:39Z</time>
      </trkpt>
      <trkpt lat="23.0655" lon="113.269308">
        <time>2026-07-22T22:04:44Z</time>
      </trkpt>
      <trkpt lat="23.065482" lon="113.269396">
        <time>2026-07-22T22:04:49Z</time>
      </trkpt>
      <trkpt lat="23.065457" lon="113.269531">
        <time>2026-07-22T22:04:54Z</time>
      </trkpt>
      <trkpt lat="23.06543" lon="113.26967">
        <time>2026-07-22T22:04:59Z</time>
      </trkpt>
      <trkpt lat="23.065402" lon="113.269764">
        <time>2026-07-22T22:05:04Z</time>
      </trkpt>
      <trkpt lat="23.065369" lon="113.26986">
        <time>2026-07-22T22:05:09Z</time>
      </trkpt>
      <trkpt lat="23.065312" lon="113.269997">
        <time>2026-07-22T22:05:14Z</time>
      </trkpt>
      <trkpt lat="23.06526" lon="113.270134">
        <time>2026-07-22T22:05:19Z</time>
      </trkpt>
      <trkpt lat="23.065226" lon="113.270227">
        <time>2026-07-22T22:05:24Z</time>
      </trkpt>
      <trkpt lat="23.065185" lon="113.270317">
        <time>2026-07-22T22:05:29Z</time>
      </trkpt>
      <trkpt lat="23.065125" lon="113.27045">
        <time>2026-07-22T22:05:34Z</time>
      </trkpt>
      <trkpt lat="23.065064" lon="113.270585">
        <time>2026-07-22T22:05:39Z</time>
      </trkpt>
      <trkpt lat="23.065024" lon="113.270678">
        <time>2026-07-22T22:05:44Z</time>
      </trkpt>
      <trkpt lat="23.064984" lon="113.270767">
        <time>2026-07-22T22:05:49Z</time>
      </trkpt>
      <trkpt lat="23.064928" lon="113.27089">
        <time>2026-07-22T22:05:54Z</time>
      </trkpt>
      <trkpt lat="23.064878" lon="113.271022">
        <time>2026-07-22T22:05:59Z</time>
      </trkpt>
      <trkpt lat="23.064839" lon="113.271113">
        <time>2026-07-22T22:06:04Z</time>
      </trkpt>
      <trkpt lat="23.064795" lon="113.271202">
        <time>2026-07-22T22:06:09Z</time>
      </trkpt>
      <trkpt lat="23.064733" lon="113.271334">
        <time>2026-07-22T22:06:14Z</time>
      </trkpt>
      <trkpt lat="23.064673" lon="113.271466">
        <time>2026-07-22T22:06:19Z</time>
      </trkpt>
      <trkpt lat="23.064633" lon="113.271555">
        <time>2026-07-22T22:06:24Z</time>
      </trkpt>
      <trkpt lat="23.064589" lon="113.271645">
        <time>2026-07-22T22:06:29Z</time>
      </trkpt>
      <trkpt lat="23.064522" lon="113.27178">
        <time>2026-07-22T22:06:34Z</time>
      </trkpt>
      <trkpt lat="23.064456" lon="113.271923">
        <time>2026-07-22T22:06:39Z</time>
      </trkpt>
      <trkpt lat="23.064414" lon="113.272017">
        <time>2026-07-22T22:06:44Z</time>
      </trkpt>
      <trkpt lat="23.064368" lon="113.272104">
        <time>2026-07-22T22:06:49Z</time>
      </trkpt>
      <trkpt lat="23.06432" lon="113.272251">
        <time>2026-07-22T22:06:54Z</time>
      </trkpt>
      <trkpt lat="23.064315" lon="113.272413">
        <time>2026-07-22T22:06:59Z</time>
      </trkpt>
      <trkpt lat="23.064309" lon="113.272522">
        <time>2026-07-22T22:07:04Z</time>
      </trkpt>
      <trkpt lat="23.064318" lon="113.272626">
        <time>2026-07-22T22:07:09Z</time>
      </trkpt>
      <trkpt lat="23.064367" lon="113.272792">
        <time>2026-07-22T22:07:14Z</time>
      </trkpt>
      <trkpt lat="23.064418" lon="113.272944">
        <time>2026-07-22T22:07:19Z</time>
      </trkpt>
      <trkpt lat="23.064442" lon="113.273052">
        <time>2026-07-22T22:07:24Z</time>
      </trkpt>
      <trkpt lat="23.06446" lon="113.273152">
        <time>2026-07-22T22:07:29Z</time>
      </trkpt>
      <trkpt lat="23.064426" lon="113.273302">
        <time>2026-07-22T22:07:34Z</time>
      </trkpt>
      <trkpt lat="23.064293" lon="113.273438">
        <time>2026-07-22T22:07:39Z</time>
      </trkpt>
      <trkpt lat="23.064175" lon="113.273515">
        <time>2026-07-22T22:07:44Z</time>
      </trkpt>
      <trkpt lat="23.064057" lon="113.273593">
        <time>2026-07-22T22:07:49Z</time>
      </trkpt>
      <trkpt lat="23.063913" lon="113.273726">
        <time>2026-07-22T22:07:54Z</time>
      </trkpt>
      <trkpt lat="23.063805" lon="113.273893">
        <time>2026-07-22T22:07:59Z</time>
      </trkpt>
      <trkpt lat="23.063734" lon="113.274002">
        <time>2026-07-22T22:08:04Z</time>
      </trkpt>
      <trkpt lat="23.063657" lon="113.274099">
        <time>2026-07-22T22:08:09Z</time>
      </trkpt>
      <trkpt lat="23.06352" lon="113.274222">
        <time>2026-07-22T22:08:14Z</time>
      </trkpt>
      <trkpt lat="23.06345" lon="113.274411">
        <time>2026-07-22T22:08:19Z</time>
      </trkpt>
      <trkpt lat="23.063408" lon="113.274555">
        <time>2026-07-22T22:08:24Z</time>
      </trkpt>
      <trkpt lat="23.06336" lon="113.274693">
        <time>2026-07-22T22:08:29Z</time>
      </trkpt>
      <trkpt lat="23.06329" lon="113.274902">
        <time>2026-07-22T22:08:34Z</time>
      </trkpt>
      <trkpt lat="23.06321" lon="113.275094">
        <time>2026-07-22T22:08:39Z</time>
      </trkpt>
      <trkpt lat="23.063143" lon="113.275208">
        <time>2026-07-22T22:08:44Z</time>
      </trkpt>
      <trkpt lat="23.063074" lon="113.275323">
        <time>2026-07-22T22:08:49Z</time>
      </trkpt>
      <trkpt lat="23.062969" lon="113.275495">
        <time>2026-07-22T22:08:54Z</time>
      </trkpt>
      <trkpt lat="23.062836" lon="113.275647">
        <time>2026-07-22T22:08:59Z</time>
      </trkpt>
      <trkpt lat="23.062734" lon="113.275741">
        <time>2026-07-22T22:09:04Z</time>
      </trkpt>
      <trkpt lat="23.062638" lon="113.275843">
        <time>2026-07-22T22:09:09Z</time>
      </trkpt>
      <trkpt lat="23.062519" lon="113.276009">
        <time>2026-07-22T22:09:14Z</time>
      </trkpt>
      <trkpt lat="23.062423" lon="113.276187">
        <time>2026-07-22T22:09:19Z</time>
      </trkpt>
      <trkpt lat="23.062374" lon="113.276308">
        <time>2026-07-22T22:09:24Z</time>
      </trkpt>
      <trkpt lat="23.062328" lon="113.276435">
        <time>2026-07-22T22:09:29Z</time>
      </trkpt>
      <trkpt lat="23.062254" lon="113.276621">
        <time>2026-07-22T22:09:34Z</time>
      </trkpt>
      <trkpt lat="23.062184" lon="113.276805">
        <time>2026-07-22T22:09:39Z</time>
      </trkpt>
      <trkpt lat="23.062137" lon="113.276932">
        <time>2026-07-22T22:09:44Z</time>
      </trkpt>
      <trkpt lat="23.062085" lon="113.277068">
        <time>2026-07-22T22:09:49Z</time>
      </trkpt>
      <trkpt lat="23.061999" lon="113.277287">
        <time>2026-07-22T22:09:54Z</time>
      </trkpt>
      <trkpt lat="23.061923" lon="113.277497">
        <time>2026-07-22T22:09:59Z</time>
      </trkpt>
      <trkpt lat="23.061875" lon="113.277632">
        <time>2026-07-22T22:10:04Z</time>
      </trkpt>
      <trkpt lat="23.061837" lon="113.277768">
        <time>2026-07-22T22:10:09Z</time>
      </trkpt>
      <trkpt lat="23.061826" lon="113.277973">
        <time>2026-07-22T22:10:14Z</time>
      </trkpt>
      <trkpt lat="23.061841" lon="113.278173">
        <time>2026-07-22T22:10:19Z</time>
      </trkpt>
      <trkpt lat="23.061847" lon="113.278311">
        <time>2026-07-22T22:10:24Z</time>
      </trkpt>
      <trkpt lat="23.061851" lon="113.278453">
        <time>2026-07-22T22:10:29Z</time>
      </trkpt>
      <trkpt lat="23.061857" lon="113.278661">
        <time>2026-07-22T22:10:34Z</time>
      </trkpt>
      <trkpt lat="23.061787" lon="113.278859">
        <time>2026-07-22T22:10:39Z</time>
      </trkpt>
      <trkpt lat="23.061718" lon="113.278984">
        <time>2026-07-22T22:10:44Z</time>
      </trkpt>
      <trkpt lat="23.061648" lon="113.279105">
        <time>2026-07-22T22:10:49Z</time>
      </trkpt>
      <trkpt lat="23.06156" lon="113.279294">
        <time>2026-07-22T22:10:54Z</time>
      </trkpt>
      <trkpt lat="23.061477" lon="113.279487">
        <time>2026-07-22T22:10:59Z</time>
      </trkpt>
      <trkpt lat="23.061424" lon="113.279619">
        <time>2026-07-22T22:11:04Z</time>
      </trkpt>
      <trkpt lat="23.061373" lon="113.279754">
        <time>2026-07-22T22:11:09Z</time>
      </trkpt>
      <trkpt lat="23.061289" lon="113.279954">
        <time>2026-07-22T22:11:14Z</time>
      </trkpt>
      <trkpt lat="23.061207" lon="113.280149">
        <time>2026-07-22T22:11:19Z</time>
      </trkpt>
      <trkpt lat="23.061153" lon="113.280278">
        <time>2026-07-22T22:11:24Z</time>
      </trkpt>
      <trkpt lat="23.061099" lon="113.280405">
        <time>2026-07-22T22:11:29Z</time>
      </trkpt>
      <trkpt lat="23.061003" lon="113.280596">
        <time>2026-07-22T22:11:34Z</time>
      </trkpt>
      <trkpt lat="23.060889" lon="113.28078">
        <time>2026-07-22T22:11:39Z</time>
      </trkpt>
      <trkpt lat="23.060824" lon="113.280911">
        <time>2026-07-22T22:11:44Z</time>
      </trkpt>
      <trkpt lat="23.060768" lon="113.28104">
        <time>2026-07-22T22:11:49Z</time>
      </trkpt>
      <trkpt lat="23.060689" lon="113.281238">
        <time>2026-07-22T22:11:54Z</time>
      </trkpt>
      <trkpt lat="23.060607" lon="113.28144">
        <time>2026-07-22T22:11:59Z</time>
      </trkpt>
      <trkpt lat="23.06055" lon="113.281571">
        <time>2026-07-22T22:12:04Z</time>
      </trkpt>
      <trkpt lat="23.060495" lon="113.281703">
        <time>2026-07-22T22:12:09Z</time>
      </trkpt>
      <trkpt lat="23.060413" lon="113.281904">
        <time>2026-07-22T22:12:14Z</time>
      </trkpt>
      <trkpt lat="23.06033" lon="113.282096">
        <time>2026-07-22T22:12:19Z</time>
      </trkpt>
      <trkpt lat="23.060281" lon="113.282226">
        <time>2026-07-22T22:12:24Z</time>
      </trkpt>
      <trkpt lat="23.060228" lon="113.282362">
        <time>2026-07-22T22:12:29Z</time>
      </trkpt>
      <trkpt lat="23.060142" lon="113.282546">
        <time>2026-07-22T22:12:34Z</time>
      </trkpt>
      <trkpt lat="23.06007" lon="113.282724">
        <time>2026-07-22T22:12:39Z</time>
      </trkpt>
      <trkpt lat="23.06002" lon="113.282851">
        <time>2026-07-22T22:12:44Z</time>
      </trkpt>
      <trkpt lat="23.059961" lon="113.282978">
        <time>2026-07-22T22:12:49Z</time>
      </trkpt>
      <trkpt lat="23.059878" lon="113.283163">
        <time>2026-07-22T22:12:54Z</time>
      </trkpt>
      <trkpt lat="23.059819" lon="113.283344">
        <time>2026-07-22T22:12:59Z</time>
      </trkpt>
      <trkpt lat="23.059888" lon="113.283382">
        <time>2026-07-22T22:13:04Z</time>
      </trkpt>
      <trkpt lat="23.059972" lon="113.283281">
        <time>2026-07-22T22:13:09Z</time>
      </trkpt>
      <trkpt lat="23.060069" lon="113.283072">
        <time>2026-07-22T22:13:14Z</time>
      </trkpt>
      <trkpt lat="23.060166" lon="113.282871">
        <time>2026-07-22T22:13:19Z</time>
      </trkpt>
      <trkpt lat="23.060223" lon="113.282739">
        <time>2026-07-22T22:13:24Z</time>
      </trkpt>
      <trkpt lat="23.060281" lon="113.282604">
        <time>2026-07-22T22:13:29Z</time>
      </trkpt>
      <trkpt lat="23.060363" lon="113.282402">
        <time>2026-07-22T22:13:34Z</time>
      </trkpt>
      <trkpt lat="23.060443" lon="113.282202">
        <time>2026-07-22T22:13:39Z</time>
      </trkpt>
      <trkpt lat="23.060494" lon="113.282073">
        <time>2026-07-22T22:13:44Z</time>
      </trkpt>
      <trkpt lat="23.060544" lon="113.281946">
        <time>2026-07-22T22:13:49Z</time>
      </trkpt>
      <trkpt lat="23.060636" lon="113.281751">
        <time>2026-07-22T22:13:54Z</time>
      </trkpt>
      <trkpt lat="23.06073" lon="113.281558">
        <time>2026-07-22T22:13:59Z</time>
      </trkpt>
      <trkpt lat="23.06079" lon="113.281427">
        <time>2026-07-22T22:14:04Z</time>
      </trkpt>
      <trkpt lat="23.060851" lon="113.281298">
        <time>2026-07-22T22:14:09Z</time>
      </trkpt>
      <trkpt lat="23.06093" lon="113.281109">
        <time>2026-07-22T22:14:14Z</time>
      </trkpt>
      <trkpt lat="23.061007" lon="113.280919">
        <time>2026-07-22T22:14:19Z</time>
      </trkpt>
      <trkpt lat="23.061062" lon="113.280786">
        <time>2026-07-22T22:14:24Z</time>
      </trkpt>
      <trkpt lat="23.06112" lon="113.280648">
        <time>2026-07-22T22:14:29Z</time>
      </trkpt>
      <trkpt lat="23.061206" lon="113.280449">
        <time>2026-07-22T22:14:34Z</time>
      </trkpt>
      <trkpt lat="23.061289" lon="113.280256">
        <time>2026-07-22T22:14:39Z</time>
      </trkpt>
      <trkpt lat="23.061348" lon="113.280128">
        <time>2026-07-22T22:14:44Z</time>
      </trkpt>
      <trkpt lat="23.061408" lon="113.279998">
        <time>2026-07-22T22:14:49Z</time>
      </trkpt>
      <trkpt lat="23.061492" lon="113.279803">
        <time>2026-07-22T22:14:54Z</time>
      </trkpt>
      <trkpt lat="23.061568" lon="113.279605">
        <time>2026-07-22T22:14:59Z</time>
      </trkpt>
      <trkpt lat="23.06162" lon="113.279472">
        <time>2026-07-22T22:15:04Z</time>
      </trkpt>
      <trkpt lat="23.061671" lon="113.279336">
        <time>2026-07-22T22:15:09Z</time>
      </trkpt>
      <trkpt lat="23.061751" lon="113.279131">
        <time>2026-07-22T22:15:14Z</time>
      </trkpt>
      <trkpt lat="23.061869" lon="113.278959">
        <time>2026-07-22T22:15:19Z</time>
      </trkpt>
      <trkpt lat="23.061937" lon="113.278843">
        <time>2026-07-22T22:15:24Z</time>
      </trkpt>
      <trkpt lat="23.061974" lon="113.278704">
        <time>2026-07-22T22:15:29Z</time>
      </trkpt>
      <trkpt lat="23.061969" lon="113.278476">
        <time>2026-07-22T22:15:34Z</time>
      </trkpt>
      <trkpt lat="23.061948" lon="113.278247">
        <time>2026-07-22T22:15:39Z</time>
      </trkpt>
      <trkpt lat="23.061939" lon="113.278092">
        <time>2026-07-22T22:15:44Z</time>
      </trkpt>
      <trkpt lat="23.06193" lon="113.277936">
        <time>2026-07-22T22:15:49Z</time>
      </trkpt>
      <trkpt lat="23.061944" lon="113.277706">
        <time>2026-07-22T22:15:54Z</time>
      </trkpt>
      <trkpt lat="23.062018" lon="113.27749">
        <time>2026-07-22T22:15:59Z</time>
      </trkpt>
      <trkpt lat="23.062074" lon="113.277353">
        <time>2026-07-22T22:16:04Z</time>
      </trkpt>
      <trkpt lat="23.062119" lon="113.277216">
        <time>2026-07-22T22:16:09Z</time>
      </trkpt>
      <trkpt lat="23.062185" lon="113.277014">
        <time>2026-07-22T22:16:14Z</time>
      </trkpt>
      <trkpt lat="23.062261" lon="113.276819">
        <time>2026-07-22T22:16:19Z</time>
      </trkpt>
      <trkpt lat="23.062309" lon="113.276689">
        <time>2026-07-22T22:16:24Z</time>
      </trkpt>
      <trkpt lat="23.062359" lon="113.276559">
        <time>2026-07-22T22:16:29Z</time>
      </trkpt>
      <trkpt lat="23.062437" lon="113.276354">
        <time>2026-07-22T22:16:34Z</time>
      </trkpt>
      <trkpt lat="23.06253" lon="113.276164">
        <time>2026-07-22T22:16:39Z</time>
      </trkpt>
      <trkpt lat="23.062611" lon="113.276048">
        <time>2026-07-22T22:16:44Z</time>
      </trkpt>
      <trkpt lat="23.062691" lon="113.275931">
        <time>2026-07-22T22:16:49Z</time>
      </trkpt>
      <trkpt lat="23.062824" lon="113.27577">
        <time>2026-07-22T22:16:54Z</time>
      </trkpt>
      <trkpt lat="23.062976" lon="113.275617">
        <time>2026-07-22T22:16:59Z</time>
      </trkpt>
      <trkpt lat="23.063063" lon="113.27551">
        <time>2026-07-22T22:17:04Z</time>
      </trkpt>
      <trkpt lat="23.063135" lon="113.275388">
        <time>2026-07-22T22:17:09Z</time>
      </trkpt>
      <trkpt lat="23.063238" lon="113.2752">
        <time>2026-07-22T22:17:14Z</time>
      </trkpt>
      <trkpt lat="23.063336" lon="113.275014">
        <time>2026-07-22T22:17:19Z</time>
      </trkpt>
      <trkpt lat="23.063387" lon="113.274882">
        <time>2026-07-22T22:17:24Z</time>
      </trkpt>
      <trkpt lat="23.063429" lon="113.274751">
        <time>2026-07-22T22:17:29Z</time>
      </trkpt>
      <trkpt lat="23.063489" lon="113.27455">
        <time>2026-07-22T22:17:34Z</time>
      </trkpt>
      <trkpt lat="23.063567" lon="113.274352">
        <time>2026-07-22T22:17:39Z</time>
      </trkpt>
      <trkpt lat="23.063659" lon="113.274245">
        <time>2026-07-22T22:17:44Z</time>
      </trkpt>
      <trkpt lat="23.063765" lon="113.274158">
        <time>2026-07-22T22:17:49Z</time>
      </trkpt>
      <trkpt lat="23.063895" lon="113.273981">
        <time>2026-07-22T22:17:54Z</time>
      </trkpt>
      <trkpt lat="23.063995" lon="113.273785">
        <time>2026-07-22T22:17:59Z</time>
      </trkpt>
      <trkpt lat="23.064084" lon="113.273674">
        <time>2026-07-22T22:18:04Z</time>
      </trkpt>
      <trkpt lat="23.064189" lon="113.273587">
        <time>2026-07-22T22:18:09Z</time>
      </trkpt>
      <trkpt lat="23.064359" lon="113.273458">
        <time>2026-07-22T22:18:14Z</time>
      </trkpt>
      <trkpt lat="23.064515" lon="113.273314">
        <time>2026-07-22T22:18:19Z</time>
      </trkpt>
      <trkpt lat="23.064571" lon="113.273188">
        <time>2026-07-22T22:18:24Z</time>
      </trkpt>
      <trkpt lat="23.064565" lon="113.273041">
        <time>2026-07-22T22:18:29Z</time>
      </trkpt>
      <trkpt lat="23.064498" lon="113.272829">
        <time>2026-07-22T22:18:34Z</time>
      </trkpt>
      <trkpt lat="23.064442" lon="113.272611">
        <time>2026-07-22T22:18:39Z</time>
      </trkpt>
      <trkpt lat="23.064454" lon="113.27246">
        <time>2026-07-22T22:18:44Z</time>
      </trkpt>
      <trkpt lat="23.064507" lon="113.272315">
        <time>2026-07-22T22:18:49Z</time>
      </trkpt>
      <trkpt lat="23.064586" lon="113.272109">
        <time>2026-07-22T22:18:54Z</time>
      </trkpt>
      <trkpt lat="23.064675" lon="113.271918">
        <time>2026-07-22T22:18:59Z</time>
      </trkpt>
      <trkpt lat="23.064734" lon="113.271789">
        <time>2026-07-22T22:19:04Z</time>
      </trkpt>
      <trkpt lat="23.064796" lon="113.271658">
        <time>2026-07-22T22:19:09Z</time>
      </trkpt>
      <trkpt lat="23.064882" lon="113.27146">
        <time>2026-07-22T22:19:14Z</time>
      </trkpt>
      <trkpt lat="23.064975" lon="113.271259">
        <time>2026-07-22T22:19:19Z</time>
      </trkpt>
      <trkpt lat="23.065036" lon="113.271125">
        <time>2026-07-22T22:19:24Z</time>
      </trkpt>
      <trkpt lat="23.065099" lon="113.270991">
        <time>2026-07-22T22:19:29Z</time>
      </trkpt>
      <trkpt lat="23.065194" lon="113.270791">
        <time>2026-07-22T22:19:34Z</time>
      </trkpt>
      <trkpt lat="23.06529" lon="113.270598">
        <time>2026-07-22T22:19:39Z</time>
      </trkpt>
      <trkpt lat="23.065356" lon="113.270472">
        <time>2026-07-22T22:19:44Z</time>
      </trkpt>
      <trkpt lat="23.065415" lon="113.270345">
        <time>2026-07-22T22:19:49Z</time>
      </trkpt>
      <trkpt lat="23.065495" lon="113.27015">
        <time>2026-07-22T22:19:54Z</time>
      </trkpt>
      <trkpt lat="23.065565" lon="113.269954">
        <time>2026-07-22T22:19:59Z</time>
      </trkpt>
      <trkpt lat="23.065605" lon="113.269815">
        <time>2026-07-22T22:20:04Z</time>
      </trkpt>
      <trkpt lat="23.065649" lon="113.26968">
        <time>2026-07-22T22:20:09Z</time>
      </trkpt>
      <trkpt lat="23.065725" lon="113.269479">
        <time>2026-07-22T22:20:14Z</time>
      </trkpt>
      <trkpt lat="23.065786" lon="113.26926">
        <time>2026-07-22T22:20:19Z</time>
      </trkpt>
      <trkpt lat="23.065827" lon="113.269116">
        <time>2026-07-22T22:20:24Z</time>
      </trkpt>
      <trkpt lat="23.065882" lon="113.268983">
        <time>2026-07-22T22:20:29Z</time>
      </trkpt>
      <trkpt lat="23.065967" lon="113.26878">
        <time>2026-07-22T22:20:34Z</time>
      </trkpt>
      <trkpt lat="23.066062" lon="113.268586">
        <time>2026-07-22T22:20:39Z</time>
      </trkpt>
      <trkpt lat="23.066138" lon="113.268467">
        <time>2026-07-22T22:20:44Z</time>
      </trkpt>
      <trkpt lat="23.066213" lon="113.268349">
        <time>2026-07-22T22:20:49Z</time>
      </trkpt>
      <trkpt lat="23.066352" lon="113.26819">
        <time>2026-07-22T22:20:54Z</time>
      </trkpt>
      <trkpt lat="23.066548" lon="113.268131">
        <time>2026-07-22T22:20:59Z</time>
      </trkpt>
      <trkpt lat="23.066665" lon="113.268134">
        <time>2026-07-22T22:21:04Z</time>
      </trkpt>
      <trkpt lat="23.066641" lon="113.268062">
        <time>2026-07-22T22:21:09Z</time>
      </trkpt>
      <trkpt lat="23.066412" lon="113.267981">
        <time>2026-07-22T22:21:14Z</time>
      </trkpt>
      <trkpt lat="23.066199" lon="113.26805">
        <time>2026-07-22T22:21:19Z</time>
      </trkpt>
      <trkpt lat="23.066091" lon="113.268159">
        <time>2026-07-22T22:21:24Z</time>
      </trkpt>
      <trkpt lat="23.065996" lon="113.268281">
        <time>2026-07-22T22:21:29Z</time>
      </trkpt>
      <trkpt lat="23.065857" lon="113.268459">
        <time>2026-07-22T22:21:34Z</time>
      </trkpt>
      <trkpt lat="23.06574" lon="113.268655">
        <time>2026-07-22T22:21:39Z</time>
      </trkpt>
      <trkpt lat="23.065673" lon="113.268795">
        <time>2026-07-22T22:21:44Z</time>
      </trkpt>
      <trkpt lat="23.065621" lon="113.268943">
        <time>2026-07-22T22:21:49Z</time>
      </trkpt>
      <trkpt lat="23.065556" lon="113.269171">
        <time>2026-07-22T22:21:54Z</time>
      </trkpt>
      <trkpt lat="23.065507" lon="113.269391">
        <time>2026-07-22T22:21:59Z</time>
      </trkpt>
      <trkpt lat="23.065477" lon="113.269533">
        <time>2026-07-22T22:22:04Z</time>
      </trkpt>
      <trkpt lat="23.065446" lon="113.269671">
        <time>2026-07-22T22:22:09Z</time>
      </trkpt>
      <trkpt lat="23.065385" lon="113.26988">
        <time>2026-07-22T22:22:14Z</time>
      </trkpt>
      <trkpt lat="23.065319" lon="113.270079">
        <time>2026-07-22T22:22:19Z</time>
      </trkpt>
      <trkpt lat="23.065262" lon="113.270205">
        <time>2026-07-22T22:22:24Z</time>
      </trkpt>
      <trkpt lat="23.065204" lon="113.270333">
        <time>2026-07-22T22:22:29Z</time>
      </trkpt>
      <trkpt lat="23.065117" lon="113.27053">
        <time>2026-07-22T22:22:34Z</time>
      </trkpt>
      <trkpt lat="23.065024" lon="113.270719">
        <time>2026-07-22T22:22:39Z</time>
      </trkpt>
      <trkpt lat="23.064964" lon="113.270844">
        <time>2026-07-22T22:22:44Z</time>
      </trkpt>
      <trkpt lat="23.064907" lon="113.270967">
        <time>2026-07-22T22:22:49Z</time>
      </trkpt>
      <trkpt lat="23.064828" lon="113.27115">
        <time>2026-07-22T22:22:54Z</time>
      </trkpt>
      <trkpt lat="23.06474" lon="113.271331">
        <time>2026-07-22T22:22:59Z</time>
      </trkpt>
      <trkpt lat="23.064681" lon="113.271451">
        <time>2026-07-22T22:23:04Z</time>
      </trkpt>
      <trkpt lat="23.064624" lon="113.271572">
        <time>2026-07-22T22:23:09Z</time>
      </trkpt>
      <trkpt lat="23.064543" lon="113.271753">
        <time>2026-07-22T22:23:14Z</time>
      </trkpt>
      <trkpt lat="23.064464" lon="113.271941">
        <time>2026-07-22T22:23:19Z</time>
      </trkpt>
      <trkpt lat="23.064409" lon="113.272069">
        <time>2026-07-22T22:23:24Z</time>
      </trkpt>
      <trkpt lat="23.064354" lon="113.272189">
        <time>2026-07-22T22:23:29Z</time>
      </trkpt>
      <trkpt lat="23.064319" lon="113.272388">
        <time>2026-07-22T22:23:34Z</time>
      </trkpt>
      <trkpt lat="23.064308" lon="113.272589">
        <time>2026-07-22T22:23:39Z</time>
      </trkpt>
      <trkpt lat="23.064331" lon="113.27272">
        <time>2026-07-22T22:23:44Z</time>
      </trkpt>
      <trkpt lat="23.06437" lon="113.272844">
        <time>2026-07-22T22:23:49Z</time>
      </trkpt>
      <trkpt lat="23.064433" lon="113.273029">
        <time>2026-07-22T22:23:54Z</time>
      </trkpt>
      <trkpt lat="23.064447" lon="113.273225">
        <time>2026-07-22T22:23:59Z</time>
      </trkpt>
      <trkpt lat="23.064381" lon="113.27334">
        <time>2026-07-22T22:24:04Z</time>
      </trkpt>
      <trkpt lat="23.064274" lon="113.273427">
        <time>2026-07-22T22:24:09Z</time>
      </trkpt>
      <trkpt lat="23.064104" lon="113.273549">
        <time>2026-07-22T22:24:14Z</time>
      </trkpt>
      <trkpt lat="23.063941" lon="113.273675">
        <time>2026-07-22T22:24:19Z</time>
      </trkpt>
      <trkpt lat="23.063854" lon="113.273779">
        <time>2026-07-22T22:24:24Z</time>
      </trkpt>
      <trkpt lat="23.063784" lon="113.273895">
        <time>2026-07-22T22:24:29Z</time>
      </trkpt>
      <trkpt lat="23.063679" lon="113.274071">
        <time>2026-07-22T22:24:34Z</time>
      </trkpt>
      <trkpt lat="23.063554" lon="113.274212">
        <time>2026-07-22T22:24:39Z</time>
      </trkpt>
      <trkpt lat="23.063493" lon="113.274326">
        <time>2026-07-22T22:24:44Z</time>
      </trkpt>
      <trkpt lat="23.063439" lon="113.274459">
        <time>2026-07-22T22:24:49Z</time>
      </trkpt>
      <trkpt lat="23.063356" lon="113.274664">
        <time>2026-07-22T22:24:54Z</time>
      </trkpt>
      <trkpt lat="23.063279" lon="113.274862">
        <time>2026-07-22T22:24:59Z</time>
      </trkpt>
      <trkpt lat="23.063224" lon="113.275002">
        <time>2026-07-22T22:25:04Z</time>
      </trkpt>
      <trkpt lat="23.063154" lon="113.275135">
        <time>2026-07-22T22:25:09Z</time>
      </trkpt>
      <trkpt lat="23.063047" lon="113.275323">
        <time>2026-07-22T22:25:14Z</time>
      </trkpt>
      <trkpt lat="23.062941" lon="113.275494">
        <time>2026-07-22T22:25:19Z</time>
      </trkpt>
      <trkpt lat="23.062844" lon="113.275593">
        <time>2026-07-22T22:25:24Z</time>
      </trkpt>
      <trkpt lat="23.062748" lon="113.275694">
        <time>2026-07-22T22:25:29Z</time>
      </trkpt>
      <trkpt lat="23.062614" lon="113.275855">
        <time>2026-07-22T22:25:34Z</time>
      </trkpt>
      <trkpt lat="23.062493" lon="113.276021">
        <time>2026-07-22T22:25:39Z</time>
      </trkpt>
      <trkpt lat="23.062424" lon="113.276143">
        <time>2026-07-22T22:25:44Z</time>
      </trkpt>
      <trkpt lat="23.062367" lon="113.27627">
        <time>2026-07-22T22:25:49Z</time>
      </trkpt>
      <trkpt lat="23.062301" lon="113.276466">
        <time>2026-07-22T22:25:54Z</time>
      </trkpt>
      <trkpt lat="23.062233" lon="113.276661">
        <time>2026-07-22T22:25:59Z</time>
      </trkpt>
      <trkpt lat="23.062183" lon="113.276786">
        <time>2026-07-22T22:26:04Z</time>
      </trkpt>
      <trkpt lat="23.062136" lon="113.276913">
        <time>2026-07-22T22:26:09Z</time>
      </trkpt>
      <trkpt lat="23.062069" lon="113.277104">
        <time>2026-07-22T22:26:14Z</time>
      </trkpt>
      <trkpt lat="23.061993" lon="113.277308">
        <time>2026-07-22T22:26:19Z</time>
      </trkpt>
      <trkpt lat="23.061942" lon="113.277442">
        <time>2026-07-22T22:26:24Z</time>
      </trkpt>
      <trkpt lat="23.061892" lon="113.277578">
        <time>2026-07-22T22:26:29Z</time>
      </trkpt>
      <trkpt lat="23.061831" lon="113.277787">
        <time>2026-07-22T22:26:34Z</time>
      </trkpt>
      <trkpt lat="23.061823" lon="113.277992">
        <time>2026-07-22T22:26:39Z</time>
      </trkpt>
      <trkpt lat="23.061832" lon="113.278124">
        <time>2026-07-22T22:26:44Z</time>
      </trkpt>
      <trkpt lat="23.061835" lon="113.278261">
        <time>2026-07-22T22:26:49Z</time>
      </trkpt>
      <trkpt lat="23.061845" lon="113.278468">
        <time>2026-07-22T22:26:54Z</time>
      </trkpt>
      <trkpt lat="23.061848" lon="113.278669">
        <time>2026-07-22T22:26:59Z</time>
      </trkpt>
      <trkpt lat="23.061818" lon="113.278792">
        <time>2026-07-22T22:27:04Z</time>
      </trkpt>
      <trkpt lat="23.06176" lon="113.278906">
        <time>2026-07-22T22:27:09Z</time>
      </trkpt>
      <trkpt lat="23.061655" lon="113.279072">
        <time>2026-07-22T22:27:14Z</time>
      </trkpt>
      <trkpt lat="23.061563" lon="113.279251">
        <time>2026-07-22T22:27:19Z</time>
      </trkpt>
      <trkpt lat="23.061513" lon="113.279376">
        <time>2026-07-22T22:27:24Z</time>
      </trkpt>
      <trkpt lat="23.061463" lon="113.279507">
        <time>2026-07-22T22:27:29Z</time>
      </trkpt>
      <trkpt lat="23.061395" lon="113.279698">
        <time>2026-07-22T22:27:34Z</time>
      </trkpt>
      <trkpt lat="23.061329" lon="113.279898">
        <time>2026-07-22T22:27:39Z</time>
      </trkpt>
      <trkpt lat="23.061279" lon="113.280034">
        <time>2026-07-22T22:27:44Z</time>
      </trkpt>
      <trkpt lat="23.061216" lon="113.280164">
        <time>2026-07-22T22:27:49Z</time>
      </trkpt>
      <trkpt lat="23.061123" lon="113.280354">
        <time>2026-07-22T22:27:54Z</time>
      </trkpt>
      <trkpt lat="23.061032" lon="113.280552">
        <time>2026-07-22T22:27:59Z</time>
      </trkpt>
      <trkpt lat="23.060972" lon="113.280686">
        <time>2026-07-22T22:28:04Z</time>
      </trkpt>
      <trkpt lat="23.060915" lon="113.280824">
        <time>2026-07-22T22:28:09Z</time>
      </trkpt>
      <trkpt lat="23.060836" lon="113.281019">
        <time>2026-07-22T22:28:14Z</time>
      </trkpt>
      <trkpt lat="23.060756" lon="113.281219">
        <time>2026-07-22T22:28:19Z</time>
      </trkpt>
      <trkpt lat="23.0607" lon="113.281345">
        <time>2026-07-22T22:28:24Z</time>
      </trkpt>
      <trkpt lat="23.060642" lon="113.281469">
        <time>2026-07-22T22:28:29Z</time>
      </trkpt>
      <trkpt lat="23.060563" lon="113.281653">
        <time>2026-07-22T22:28:34Z</time>
      </trkpt>
      <trkpt lat="23.060478" lon="113.281847">
        <time>2026-07-22T22:28:39Z</time>
      </trkpt>
      <trkpt lat="23.060423" lon="113.28198">
        <time>2026-07-22T22:28:44Z</time>
      </trkpt>
      <trkpt lat="23.060368" lon="113.282113">
        <time>2026-07-22T22:28:49Z</time>
      </trkpt>
      <trkpt lat="23.060275" lon="113.282296">
        <time>2026-07-22T22:28:54Z</time>
      </trkpt>
      <trkpt lat="23.060182" lon="113.282479">
        <time>2026-07-22T22:28:59Z</time>
      </trkpt>
      <trkpt lat="23.060126" lon="113.282605">
        <time>2026-07-22T22:29:04Z</time>
      </trkpt>
      <trkpt lat="23.060078" lon="113.282736">
        <time>2026-07-22T22:29:09Z</time>
      </trkpt>
      <trkpt lat="23.060001" lon="113.282935">
        <time>2026-07-22T22:29:14Z</time>
      </trkpt>
      <trkpt lat="23.059914" lon="113.28313">
        <time>2026-07-22T22:29:19Z</time>
      </trkpt>
      <trkpt lat="23.059855" lon="113.283271">
        <time>2026-07-22T22:29:24Z</time>
      </trkpt>
      <trkpt lat="23.059864" lon="113.283394">
        <time>2026-07-22T22:29:29Z</time>
      </trkpt>
      <trkpt lat="23.059984" lon="113.283305">
        <time>2026-07-22T22:29:34Z</time>
      </trkpt>
      <trkpt lat="23.060085" lon="113.283106">
        <time>2026-07-22T22:29:39Z</time>
      </trkpt>
      <trkpt lat="23.060142" lon="113.282969">
        <time>2026-07-22T22:29:44Z</time>
      </trkpt>
      <trkpt lat="23.060209" lon="113.282834">
        <time>2026-07-22T22:29:49Z</time>
      </trkpt>
      <trkpt lat="23.060294" lon="113.282639">
        <time>2026-07-22T22:29:54Z</time>
      </trkpt>
      <trkpt lat="23.060365" lon="113.282442">
        <time>2026-07-22T22:29:59Z</time>
      </trkpt>
      <trkpt lat="23.060417" lon="113.282321">
        <time>2026-07-22T22:30:04Z</time>
      </trkpt>
      <trkpt lat="23.060461" lon="113.282196">
        <time>2026-07-22T22:30:09Z</time>
      </trkpt>
      <trkpt lat="23.060528" lon="113.282012">
        <time>2026-07-22T22:30:14Z</time>
      </trkpt>
      <trkpt lat="23.060622" lon="113.281828">
        <time>2026-07-22T22:30:19Z</time>
      </trkpt>
      <trkpt lat="23.060678" lon="113.281708">
        <time>2026-07-22T22:30:24Z</time>
      </trkpt>
      <trkpt lat="23.06073" lon="113.281583">
        <time>2026-07-22T22:30:29Z</time>
      </trkpt>
      <trkpt lat="23.060812" lon="113.281381">
        <time>2026-07-22T22:30:34Z</time>
      </trkpt>
      <trkpt lat="23.060881" lon="113.281188">
        <time>2026-07-22T22:30:39Z</time>
      </trkpt>
      <trkpt lat="23.060924" lon="113.281071">
        <time>2026-07-22T22:30:44Z</time>
      </trkpt>
      <trkpt lat="23.060968" lon="113.280948">
        <time>2026-07-22T22:30:49Z</time>
      </trkpt>
      <trkpt lat="23.061045" lon="113.280761">
        <time>2026-07-22T22:30:54Z</time>
      </trkpt>
      <trkpt lat="23.061128" lon="113.280573">
        <time>2026-07-22T22:30:59Z</time>
      </trkpt>
      <trkpt lat="23.061187" lon="113.280448">
        <time>2026-07-22T22:31:04Z</time>
      </trkpt>
      <trkpt lat="23.061242" lon="113.280327">
        <time>2026-07-22T22:31:09Z</time>
      </trkpt>
      <trkpt lat="23.061328" lon="113.280153">
        <time>2026-07-22T22:31:14Z</time>
      </trkpt>
      <trkpt lat="23.061415" lon="113.279973">
        <time>2026-07-22T22:31:19Z</time>
      </trkpt>
      <trkpt lat="23.06147" lon="113.279854">
        <time>2026-07-22T22:31:24Z</time>
      </trkpt>
      <trkpt lat="23.061519" lon="113.27973">
        <time>2026-07-22T22:31:29Z</time>
      </trkpt>
      <trkpt lat="23.061591" lon="113.279547">
        <time>2026-07-22T22:31:34Z</time>
      </trkpt>
      <trkpt lat="23.061664" lon="113.279358">
        <time>2026-07-22T22:31:39Z</time>
      </trkpt>
      <trkpt lat="23.06171" lon="113.279235">
        <time>2026-07-22T22:31:44Z</time>
      </trkpt>
      <trkpt lat="23.061759" lon="113.279119">
        <time>2026-07-22T22:31:49Z</time>
      </trkpt>
      <trkpt lat="23.061861" lon="113.278956">
        <time>2026-07-22T22:31:54Z</time>
      </trkpt>
      <trkpt lat="23.061964" lon="113.278784">
        <time>2026-07-22T22:31:59Z</time>
      </trkpt>
      <trkpt lat="23.061994" lon="113.278659">
        <time>2026-07-22T22:32:04Z</time>
      </trkpt>
      <trkpt lat="23.061993" lon="113.278529">
        <time>2026-07-22T22:32:09Z</time>
      </trkpt>
      <trkpt lat="23.061964" lon="113.278315">
        <time>2026-07-22T22:32:14Z</time>
      </trkpt>
      <trkpt lat="23.061945" lon="113.278079">
        <time>2026-07-22T22:32:19Z</time>
      </trkpt>
      <trkpt lat="23.061931" lon="113.277924">
        <time>2026-07-22T22:32:24Z</time>
      </trkpt>
      <trkpt lat="23.06193" lon="113.277768">
        <time>2026-07-22T22:32:29Z</time>
      </trkpt>
      <trkpt lat="23.061993" lon="113.277562">
        <time>2026-07-22T22:32:34Z</time>
      </trkpt>
      <trkpt lat="23.062069" lon="113.277372">
        <time>2026-07-22T22:32:39Z</time>
      </trkpt>
      <trkpt lat="23.06212" lon="113.277243">
        <time>2026-07-22T22:32:44Z</time>
      </trkpt>
      <trkpt lat="23.062161" lon="113.277114">
        <time>2026-07-22T22:32:49Z</time>
      </trkpt>
      <trkpt lat="23.062233" lon="113.276931">
        <time>2026-07-22T22:32:54Z</time>
      </trkpt>
      <trkpt lat="23.062305" lon="113.276734">
        <time>2026-07-22T22:32:59Z</time>
      </trkpt>
      <trkpt lat="23.062352" lon="113.276602">
        <time>2026-07-22T22:33:04Z</time>
      </trkpt>
      <trkpt lat="23.062401" lon="113.276472">
        <time>2026-07-22T22:33:09Z</time>
      </trkpt>
      <trkpt lat="23.062478" lon="113.276282">
        <time>2026-07-22T22:33:14Z</time>
      </trkpt>
      <trkpt lat="23.062574" lon="113.2761">
        <time>2026-07-22T22:33:19Z</time>
      </trkpt>
      <trkpt lat="23.062647" lon="113.27599">
        <time>2026-07-22T22:33:24Z</time>
      </trkpt>
      <trkpt lat="23.06273" lon="113.275885">
        <time>2026-07-22T22:33:29Z</time>
      </trkpt>
      <trkpt lat="23.062869" lon="113.275738">
        <time>2026-07-22T22:33:34Z</time>
      </trkpt>
      <trkpt lat="23.063011" lon="113.275589">
        <time>2026-07-22T22:33:39Z</time>
      </trkpt>
      <trkpt lat="23.063086" lon="113.275479">
        <time>2026-07-22T22:33:44Z</time>
      </trkpt>
      <trkpt lat="23.063159" lon="113.275362">
        <time>2026-07-22T22:33:49Z</time>
      </trkpt>
      <trkpt lat="23.063268" lon="113.275176">
        <time>2026-07-22T22:33:54Z</time>
      </trkpt>
      <trkpt lat="23.063369" lon="113.274981">
        <time>2026-07-22T22:33:59Z</time>
      </trkpt>
      <trkpt lat="23.063417" lon="113.274848">
        <time>2026-07-22T22:34:04Z</time>
      </trkpt>
      <trkpt lat="23.063456" lon="113.274716">
        <time>2026-07-22T22:34:09Z</time>
      </trkpt>
      <trkpt lat="23.06352" lon="113.274524">
        <time>2026-07-22T22:34:14Z</time>
      </trkpt>
      <trkpt lat="23.063599" lon="113.274339">
        <time>2026-07-22T22:34:19Z</time>
      </trkpt>
      <trkpt lat="23.063685" lon="113.274238">
        <time>2026-07-22T22:34:24Z</time>
      </trkpt>
      <trkpt lat="23.063784" lon="113.274148">
        <time>2026-07-22T22:34:29Z</time>
      </trkpt>
      <trkpt lat="23.063894" lon="113.273969">
        <time>2026-07-22T22:34:34Z</time>
      </trkpt>
      <trkpt lat="23.063994" lon="113.27379">
        <time>2026-07-22T22:34:39Z</time>
      </trkpt>
      <trkpt lat="23.064083" lon="113.273689">
        <time>2026-07-22T22:34:44Z</time>
      </trkpt>
      <trkpt lat="23.064184" lon="113.273604">
        <time>2026-07-22T22:34:49Z</time>
      </trkpt>
      <trkpt lat="23.064341" lon="113.27349">
        <time>2026-07-22T22:34:54Z</time>
      </trkpt>
      <trkpt lat="23.064495" lon="113.273359">
        <time>2026-07-22T22:34:59Z</time>
      </trkpt>
      <trkpt lat="23.064565" lon="113.273235">
        <time>2026-07-22T22:35:04Z</time>
      </trkpt>
      <trkpt lat="23.064581" lon="113.273092">
        <time>2026-07-22T22:35:09Z</time>
      </trkpt>
      <trkpt lat="23.064514" lon="113.272878">
        <time>2026-07-22T22:35:14Z</time>
      </trkpt>
      <trkpt lat="23.06444" lon="113.272666">
        <time>2026-07-22T22:35:19Z</time>
      </trkpt>
      <trkpt lat="23.064443" lon="113.272525">
        <time>2026-07-22T22:35:24Z</time>
      </trkpt>
      <trkpt lat="23.064494" lon="113.272385">
        <time>2026-07-22T22:35:29Z</time>
      </trkpt>
      <trkpt lat="23.064581" lon="113.272176">
        <time>2026-07-22T22:35:34Z</time>
      </trkpt>
      <trkpt lat="23.064665" lon="113.271973">
        <time>2026-07-22T22:35:39Z</time>
      </trkpt>
      <trkpt lat="23.064723" lon="113.271839">
        <time>2026-07-22T22:35:44Z</time>
      </trkpt>
      <trkpt lat="23.064782" lon="113.271704">
        <time>2026-07-22T22:35:49Z</time>
      </trkpt>
      <trkpt lat="23.064874" lon="113.271505">
        <time>2026-07-22T22:35:54Z</time>
      </trkpt>
      <trkpt lat="23.064976" lon="113.271306">
        <time>2026-07-22T22:35:59Z</time>
      </trkpt>
      <trkpt lat="23.065044" lon="113.271173">
        <time>2026-07-22T22:36:04Z</time>
      </trkpt>
      <trkpt lat="23.065107" lon="113.271033">
        <time>2026-07-22T22:36:09Z</time>
      </trkpt>
      <trkpt lat="23.065186" lon="113.270821">
        <time>2026-07-22T22:36:14Z</time>
      </trkpt>
      <trkpt lat="23.065271" lon="113.270617">
        <time>2026-07-22T22:36:19Z</time>
      </trkpt>
      <trkpt lat="23.065331" lon="113.270485">
        <time>2026-07-22T22:36:24Z</time>
      </trkpt>
      <trkpt lat="23.065397" lon="113.270361">
        <time>2026-07-22T22:36:29Z</time>
      </trkpt>
      <trkpt lat="23.065491" lon="113.270171">
        <time>2026-07-22T22:36:34Z</time>
      </trkpt>
      <trkpt lat="23.065563" lon="113.269967">
        <time>2026-07-22T22:36:39Z</time>
      </trkpt>
      <trkpt lat="23.065609" lon="113.269834">
        <time>2026-07-22T22:36:44Z</time>
      </trkpt>
      <trkpt lat="23.065645" lon="113.269711">
        <time>2026-07-22T22:36:49Z</time>
      </trkpt>
      <trkpt lat="23.065729" lon="113.269526">
        <time>2026-07-22T22:36:54Z</time>
      </trkpt>
      <trkpt lat="23.065775" lon="113.269312">
        <time>2026-07-22T22:36:59Z</time>
      </trkpt>
      <trkpt lat="23.065808" lon="113.26917">
        <time>2026-07-22T22:37:04Z</time>
      </trkpt>
      <trkpt lat="23.065846" lon="113.269037">
        <time>2026-07-22T22:37:09Z</time>
      </trkpt>
      <trkpt lat="23.065921" lon="113.268847">
        <time>2026-07-22T22:37:14Z</time>
      </trkpt>
      <trkpt lat="23.06601" lon="113.268669">
        <time>2026-07-22T22:37:19Z</time>
      </trkpt>
      <trkpt lat="23.066076" lon="113.268551">
        <time>2026-07-22T22:37:24Z</time>
      </trkpt>
      <trkpt lat="23.066145" lon="113.268446">
        <time>2026-07-22T22:37:29Z</time>
      </trkpt>
      <trkpt lat="23.066252" lon="113.268287">
        <time>2026-07-22T22:37:34Z</time>
      </trkpt>
      <trkpt lat="23.066399" lon="113.268155">
        <time>2026-07-22T22:37:39Z</time>
      </trkpt>
      <trkpt lat="23.066524" lon="113.268128">
        <time>2026-07-22T22:37:44Z</time>
      </trkpt>
      <trkpt lat="23.066635" lon="113.268119">
        <time>2026-07-22T22:37:49Z</time>
      </trkpt>
      <trkpt lat="23.06656" lon="113.268016">
        <time>2026-07-22T22:37:54Z</time>
      </trkpt>
      <trkpt lat="23.066347" lon="113.267982">
        <time>2026-07-22T22:37:59Z</time>
      </trkpt>
      <trkpt lat="23.066223" lon="113.268025">
        <time>2026-07-22T22:38:04Z</time>
      </trkpt>
      <trkpt lat="23.066115" lon="113.268107">
        <time>2026-07-22T22:38:09Z</time>
      </trkpt>
      <trkpt lat="23.065984" lon="113.268265">
        <time>2026-07-22T22:38:14Z</time>
      </trkpt>
      <trkpt lat="23.065862" lon="113.26844">
        <time>2026-07-22T22:38:19Z</time>
      </trkpt>
      <trkpt lat="23.065786" lon="113.268562">
        <time>2026-07-22T22:38:24Z</time>
      </trkpt>
      <trkpt lat="23.065718" lon="113.268688">
        <time>2026-07-22T22:38:29Z</time>
      </trkpt>
      <trkpt lat="23.06563" lon="113.268886">
        <time>2026-07-22T22:38:34Z</time>
      </trkpt>
      <trkpt lat="23.065561" lon="113.269085">
        <time>2026-07-22T22:38:39Z</time>
      </trkpt>
      <trkpt lat="23.065526" lon="113.269222">
        <time>2026-07-22T22:38:44Z</time>
      </trkpt>
      <trkpt lat="23.065495" lon="113.269363">
        <time>2026-07-22T22:38:49Z</time>
      </trkpt>
      <trkpt lat="23.065449" lon="113.269576">
        <time>2026-07-22T22:38:54Z</time>
      </trkpt>
      <trkpt lat="23.065412" lon="113.269789">
        <time>2026-07-22T22:38:59Z</time>
      </trkpt>
      <trkpt lat="23.06538" lon="113.269937">
        <time>2026-07-22T22:39:04Z</time>
      </trkpt>
      <trkpt lat="23.065327" lon="113.270081">
        <time>2026-07-22T22:39:09Z</time>
      </trkpt>
      <trkpt lat="23.065237" lon="113.27028">
        <time>2026-07-22T22:39:14Z</time>
      </trkpt>
      <trkpt lat="23.06513" lon="113.270474">
        <time>2026-07-22T22:39:19Z</time>
      </trkpt>
      <trkpt lat="23.065062" lon="113.270605">
        <time>2026-07-22T22:39:24Z</time>
      </trkpt>
      <trkpt lat="23.065002" lon="113.270738">
        <time>2026-07-22T22:39:29Z</time>
      </trkpt>
      <trkpt lat="23.064942" lon="113.270873">
        <time>2026-07-22T22:39:34Z</time>
      </trkpt>
      <trkpt lat="23.064903" lon="113.270929">
        <time>2026-07-22T22:39:39Z</time>
      </trkpt>
      <trkpt lat="23.064873" lon="113.270965">
        <time>2026-07-22T22:39:44Z</time>
      </trkpt>
      <trkpt lat="23.064848" lon="113.271001">
        <time>2026-07-22T22:39:49Z</time>
      </trkpt>
      <trkpt lat="23.064818" lon="113.271063">
        <time>2026-07-22T22:39:54Z</time>
      </trkpt>
      <trkpt lat="23.064793" lon="113.271127">
        <time>2026-07-22T22:39:59Z</time>
      </trkpt>
      <trkpt lat="23.064776" lon="113.271167">
        <time>2026-07-22T22:40:04Z</time>
      </trkpt>
      <trkpt lat="23.064755" lon="113.271201">
        <time>2026-07-22T22:40:09Z</time>
      </trkpt>
      <trkpt lat="23.06473" lon="113.271252">
        <time>2026-07-22T22:40:14Z</time>
      </trkpt>
      <trkpt lat="23.064707" lon="113.271312">
        <time>2026-07-22T22:40:19Z</time>
      </trkpt>
      <trkpt lat="23.064696" lon="113.271358">
        <time>2026-07-22T22:40:24Z</time>
      </trkpt>
      <trkpt lat="23.064677" lon="113.2714">
        <time>2026-07-22T22:40:29Z</time>
      </trkpt>
      <trkpt lat="23.064646" lon="113.271459">
        <time>2026-07-22T22:40:34Z</time>
      </trkpt>
      <trkpt lat="23.064617" lon="113.271521">
        <time>2026-07-22T22:40:39Z</time>
      </trkpt>
      <trkpt lat="23.064589" lon="113.27156">
        <time>2026-07-22T22:40:44Z</time>
      </trkpt>
      <trkpt lat="23.064566" lon="113.271603">
        <time>2026-07-22T22:40:49Z</time>
      </trkpt>
      <trkpt lat="23.064529" lon="113.271667">
        <time>2026-07-22T22:40:54Z</time>
      </trkpt>
      <trkpt lat="23.064504" lon="113.27173">
        <time>2026-07-22T22:40:59Z</time>
      </trkpt>
      <trkpt lat="23.064489" lon="113.271774">
        <time>2026-07-22T22:41:04Z</time>
      </trkpt>
      <trkpt lat="23.064475" lon="113.271824">
        <time>2026-07-22T22:41:09Z</time>
      </trkpt>
      <trkpt lat="23.064448" lon="113.271887">
        <time>2026-07-22T22:41:14Z</time>
      </trkpt>
      <trkpt lat="23.064425" lon="113.271945">
        <time>2026-07-22T22:41:19Z</time>
      </trkpt>
      <trkpt lat="23.064409" lon="113.271984">
        <time>2026-07-22T22:41:24Z</time>
      </trkpt>
      <trkpt lat="23.064385" lon="113.27202">
        <time>2026-07-22T22:41:29Z</time>
      </trkpt>
      <trkpt lat="23.064344" lon="113.272075">
        <time>2026-07-22T22:41:34Z</time>
      </trkpt>
      <trkpt lat="23.064327" lon="113.272148">
        <time>2026-07-22T22:41:39Z</time>
      </trkpt>
      <trkpt lat="23.064318" lon="113.272196">
        <time>2026-07-22T22:41:44Z</time>
      </trkpt>
      <trkpt lat="23.064312" lon="113.272235">
        <time>2026-07-22T22:41:49Z</time>
      </trkpt>
      <trkpt lat="23.064311" lon="113.272301">
        <time>2026-07-22T22:41:54Z</time>
      </trkpt>
      <trkpt lat="23.064326" lon="113.27237">
        <time>2026-07-22T22:41:59Z</time>
      </trkpt>
      <trkpt lat="23.064371" lon="113.272422">
        <time>2026-07-22T22:42:04Z</time>
      </trkpt>
      <trkpt lat="23.064434" lon="113.272466">
        <time>2026-07-22T22:42:09Z</time>
      </trkpt>
      <trkpt lat="23.064538" lon="113.272497">
        <time>2026-07-22T22:42:14Z</time>
      </trkpt>
      <trkpt lat="23.064638" lon="113.272525">
        <time>2026-07-22T22:42:19Z</time>
      </trkpt>
      <trkpt lat="23.064708" lon="113.272547">
        <time>2026-07-22T22:42:24Z</time>
      </trkpt>
      <trkpt lat="23.064779" lon="113.272576">
        <time>2026-07-22T22:42:29Z</time>
      </trkpt>
      <trkpt lat="23.064889" lon="113.272611">
        <time>2026-07-22T22:42:34Z</time>
      </trkpt>
      <trkpt lat="23.064999" lon="113.272636">
        <time>2026-07-22T22:42:39Z</time>
      </trkpt>
      <trkpt lat="23.06507" lon="113.272656">
        <time>2026-07-22T22:42:44Z</time>
      </trkpt>
      <trkpt lat="23.065144" lon="113.272675">
        <time>2026-07-22T22:42:49Z</time>
      </trkpt>
      <trkpt lat="23.065251" lon="113.272705">
        <time>2026-07-22T22:42:54Z</time>
      </trkpt>
      <trkpt lat="23.06535" lon="113.27273">
        <time>2026-07-22T22:42:59Z</time>
      </trkpt>
      <trkpt lat="23.065414" lon="113.272737">
        <time>2026-07-22T22:43:04Z</time>
      </trkpt>
      <trkpt lat="23.065487" lon="113.272757">
        <time>2026-07-22T22:43:09Z</time>
      </trkpt>
      <trkpt lat="23.065605" lon="113.272803">
        <time>2026-07-22T22:43:14Z</time>
      </trkpt>
      <trkpt lat="23.065726" lon="113.272832">
        <time>2026-07-22T22:43:19Z</time>
      </trkpt>
      <trkpt lat="23.065792" lon="113.272842">
        <time>2026-07-22T22:43:24Z</time>
      </trkpt>
      <trkpt lat="23.065843" lon="113.272853">
        <time>2026-07-22T22:43:29Z</time>
      </trkpt>
      <trkpt lat="23.065905" lon="113.272857">
        <time>2026-07-22T22:43:34Z</time>
      </trkpt>
      <trkpt lat="23.065971" lon="113.272853">
        <time>2026-07-22T22:43:39Z</time>
      </trkpt>
      <trkpt lat="23.066019" lon="113.272849">
        <time>2026-07-22T22:43:44Z</time>
      </trkpt>
      <trkpt lat="23.066067" lon="113.272844">
        <time>2026-07-22T22:43:49Z</time>
      </trkpt>
      <trkpt lat="23.066136" lon="113.272825">
        <time>2026-07-22T22:43:54Z</time>
      </trkpt>
      <trkpt lat="23.06622" lon="113.272789">
        <time>2026-07-22T22:43:59Z</time>
      </trkpt>
      <trkpt lat="23.066278" lon="113.272766">
        <time>2026-07-22T22:44:04Z</time>
      </trkpt>
      <trkpt lat="23.066332" lon="113.272734">
        <time>2026-07-22T22:44:09Z</time>
      </trkpt>
      <trkpt lat="23.066421" lon="113.2727">
        <time>2026-07-22T22:44:14Z</time>
      </trkpt>
      <trkpt lat="23.066508" lon="113.272751">
        <time>2026-07-22T22:44:19Z</time>
      </trkpt>
      <trkpt lat="23.06657" lon="113.272767">
        <time>2026-07-22T22:44:24Z</time>
      </trkpt>
      <trkpt lat="23.066638" lon="113.272757">
        <time>2026-07-22T22:44:29Z</time>
      </trkpt>
      <trkpt lat="23.066756" lon="113.272751">
        <time>2026-07-22T22:44:34Z</time>
      </trkpt>
      <trkpt lat="23.066861" lon="113.272714">
        <time>2026-07-22T22:44:39Z</time>
      </trkpt>
      <trkpt lat="23.066919" lon="113.272667">
        <time>2026-07-22T22:44:44Z</time>
      </trkpt>
      <trkpt lat="23.066969" lon="113.272621">
        <time>2026-07-22T22:44:49Z</time>
      </trkpt>
      <trkpt lat="23.067041" lon="113.272558">
        <time>2026-07-22T22:44:54Z</time>
      </trkpt>
      <trkpt lat="23.06711" lon="113.272492">
        <time>2026-07-22T22:44:59Z</time>
      </trkpt>
      <trkpt lat="23.067157" lon="113.272448">
        <time>2026-07-22T22:45:04Z</time>
      </trkpt>
      <trkpt lat="23.067205" lon="113.272405">
        <time>2026-07-22T22:45:09Z</time>
      </trkpt>
      <trkpt lat="23.067276" lon="113.272341">
        <time>2026-07-22T22:45:14Z</time>
      </trkpt>
      <trkpt lat="23.067351" lon="113.272275">
        <time>2026-07-22T22:45:19Z</time>
      </trkpt>
      <trkpt lat="23.067354" lon="113.272227">
        <time>2026-07-22T22:45:24Z</time>
      </trkpt>
      <trkpt lat="23.067309" lon="113.272231">
        <time>2026-07-22T22:45:29Z</time>
      </trkpt>
      <trkpt lat="23.067221" lon="113.272277">
        <time>2026-07-22T22:45:34Z</time>
      </trkpt>
      <trkpt lat="23.067133" lon="113.272313">
        <time>2026-07-22T22:45:39Z</time>
      </trkpt>
      <trkpt lat="23.067074" lon="113.272333">
        <time>2026-07-22T22:45:44Z</time>
      </trkpt>
      <trkpt lat="23.067018" lon="113.272359">
        <time>2026-07-22T22:45:49Z</time>
      </trkpt>
      <trkpt lat="23.066936" lon="113.272421">
        <time>2026-07-22T22:45:54Z</time>
      </trkpt>
      <trkpt lat="23.066841" lon="113.272474">
        <time>2026-07-22T22:45:59Z</time>
      </trkpt>
      <trkpt lat="23.066784" lon="113.272522">
        <time>2026-07-22T22:46:04Z</time>
      </trkpt>
      <trkpt lat="23.066727" lon="113.272559">
        <time>2026-07-22T22:46:09Z</time>
      </trkpt>
      <trkpt lat="23.066643" lon="113.272587">
        <time>2026-07-22T22:46:14Z</time>
      </trkpt>
      <trkpt lat="23.066551" lon="113.272573">
        <time>2026-07-22T22:46:19Z</time>
      </trkpt>
      <trkpt lat="23.066502" lon="113.272542">
        <time>2026-07-22T22:46:24Z</time>
      </trkpt>
      <trkpt lat="23.066466" lon="113.272507">
        <time>2026-07-22T22:46:29Z</time>
      </trkpt>
      <trkpt lat="23.066461" lon="113.272435">
        <time>2026-07-22T22:46:34Z</time>
      </trkpt>
      <trkpt lat="23.066454" lon="113.272349">
        <time>2026-07-22T22:46:39Z</time>
      </trkpt>
      <trkpt lat="23.066455" lon="113.272291">
        <time>2026-07-22T22:46:44Z</time>
      </trkpt>
      <trkpt lat="23.066456" lon="113.272232">
        <time>2026-07-22T22:46:49Z</time>
      </trkpt>
      <trkpt lat="23.066452" lon="113.272148">
        <time>2026-07-22T22:46:54Z</time>
      </trkpt>
      <trkpt lat="23.066447" lon="113.27206">
        <time>2026-07-22T22:46:59Z</time>
      </trkpt>
      <trkpt lat="23.066442" lon="113.272001">
        <time>2026-07-22T22:47:04Z</time>
      </trkpt>
      <trkpt lat="23.066446" lon="113.271936">
        <time>2026-07-22T22:47:09Z</time>
      </trkpt>
      <trkpt lat="23.066449" lon="113.27186">
        <time>2026-07-22T22:47:14Z</time>
      </trkpt>
      <trkpt lat="23.066448" lon="113.27179">
        <time>2026-07-22T22:47:19Z</time>
      </trkpt>
      <trkpt lat="23.066454" lon="113.271742">
        <time>2026-07-22T22:47:24Z</time>
      </trkpt>
      <trkpt lat="23.066466" lon="113.271693">
        <time>2026-07-22T22:47:29Z</time>
      </trkpt>
      <trkpt lat="23.06646" lon="113.271621">
        <time>2026-07-22T22:47:34Z</time>
      </trkpt>
      <trkpt lat="23.066466" lon="113.27154">
        <time>2026-07-22T22:47:39Z</time>
      </trkpt>
      <trkpt lat="23.066463" lon="113.271485">
        <time>2026-07-22T22:47:44Z</time>
      </trkpt>
      <trkpt lat="23.066444" lon="113.27142">
        <time>2026-07-22T22:47:49Z</time>
      </trkpt>
      <trkpt lat="23.066385" lon="113.271373">
        <time>2026-07-22T22:47:54Z</time>
      </trkpt>
      <trkpt lat="23.066279" lon="113.271355">
        <time>2026-07-22T22:47:59Z</time>
      </trkpt>
      <trkpt lat="23.066196" lon="113.271332">
        <time>2026-07-22T22:48:04Z</time>
      </trkpt>
      <trkpt lat="23.066102" lon="113.271308">
        <time>2026-07-22T22:48:09Z</time>
      </trkpt>
      <trkpt lat="23.065961" lon="113.271257">
        <time>2026-07-22T22:48:14Z</time>
      </trkpt>
      <trkpt lat="23.065832" lon="113.271203">
        <time>2026-07-22T22:48:19Z</time>
      </trkpt>
      <trkpt lat="23.065757" lon="113.271189">
        <time>2026-07-22T22:48:24Z</time>
      </trkpt>
      <trkpt lat="23.065683" lon="113.271178">
        <time>2026-07-22T22:48:29Z</time>
      </trkpt>
      <trkpt lat="23.065576" lon="113.271155">
        <time>2026-07-22T22:48:34Z</time>
      </trkpt>
      <trkpt lat="23.065464" lon="113.271128">
        <time>2026-07-22T22:48:39Z</time>
      </trkpt>
      <trkpt lat="23.065389" lon="113.271106">
        <time>2026-07-22T22:48:44Z</time>
      </trkpt>
      <trkpt lat="23.065316" lon="113.271083">
        <time>2026-07-22T22:48:49Z</time>
      </trkpt>
      <trkpt lat="23.065237" lon="113.271004">
        <time>2026-07-22T22:48:54Z</time>
      </trkpt>
      <trkpt lat="23.065256" lon="113.270886">
        <time>2026-07-22T22:48:59Z</time>
      </trkpt>
      <trkpt lat="23.065284" lon="113.270819">
        <time>2026-07-22T22:49:04Z</time>
      </trkpt>
      <trkpt lat="23.065298" lon="113.270763">
        <time>2026-07-22T22:49:09Z</time>
      </trkpt>
      <trkpt lat="23.065322" lon="113.270694">
        <time>2026-07-22T22:49:14Z</time>
      </trkpt>
      <trkpt lat="23.065348" lon="113.270626">
        <time>2026-07-22T22:49:19Z</time>
      </trkpt>
      <trkpt lat="23.065368" lon="113.270581">
        <time>2026-07-22T22:49:24Z</time>
      </trkpt>
      <trkpt lat="23.06539" lon="113.270536">
        <time>2026-07-22T22:49:29Z</time>
      </trkpt>
      <trkpt lat="23.065415" lon="113.270473">
        <time>2026-07-22T22:49:34Z</time>
      </trkpt>
      <trkpt lat="23.065438" lon="113.270406">
        <time>2026-07-22T22:49:39Z</time>
      </trkpt>
      <trkpt lat="23.065457" lon="113.270362">
        <time>2026-07-22T22:49:44Z</time>
      </trkpt>
      <trkpt lat="23.065482" lon="113.270324">
        <time>2026-07-22T22:49:49Z</time>
      </trkpt>
      <trkpt lat="23.065513" lon="113.270257">
        <time>2026-07-22T22:49:54Z</time>
      </trkpt>
      <trkpt lat="23.065517" lon="113.270152">
        <time>2026-07-22T22:49:59Z</time>
      </trkpt>
      <trkpt lat="23.065536" lon="113.270072">
        <time>2026-07-22T22:50:04Z</time>
      </trkpt>
      <trkpt lat="23.065571" lon="113.269992">
        <time>2026-07-22T22:50:09Z</time>
      </trkpt>
      <trkpt lat="23.065616" lon="113.269873">
        <time>2026-07-22T22:50:14Z</time>
      </trkpt>
      <trkpt lat="23.065639" lon="113.269763">
        <time>2026-07-22T22:50:19Z</time>
      </trkpt>
      <trkpt lat="23.065658" lon="113.269687">
        <time>2026-07-22T22:50:24Z</time>
      </trkpt>
      <trkpt lat="23.065695" lon="113.269612">
        <time>2026-07-22T22:50:29Z</time>
      </trkpt>
      <trkpt lat="23.065737" lon="113.269493">
        <time>2026-07-22T22:50:34Z</time>
      </trkpt>
      <trkpt lat="23.065772" lon="113.269371">
        <time>2026-07-22T22:50:39Z</time>
      </trkpt>
      <trkpt lat="23.065794" lon="113.269285">
        <time>2026-07-22T22:50:44Z</time>
      </trkpt>
      <trkpt lat="23.06582" lon="113.269204">
        <time>2026-07-22T22:50:49Z</time>
      </trkpt>
      <trkpt lat="23.065841" lon="113.269121">
        <time>2026-07-22T22:50:54Z</time>
      </trkpt>
      <trkpt lat="23.065871" lon="113.269009">
        <time>2026-07-22T22:50:59Z</time>
      </trkpt>
      <trkpt lat="23.065908" lon="113.268932">
        <time>2026-07-22T22:51:04Z</time>
      </trkpt>
      <trkpt lat="23.065942" lon="113.268858">
        <time>2026-07-22T22:51:09Z</time>
      </trkpt>
      <trkpt lat="23.065984" lon="113.268742">
        <time>2026-07-22T22:51:14Z</time>
      </trkpt>
      <trkpt lat="23.066029" lon="113.26863">
        <time>2026-07-22T22:51:19Z</time>
      </trkpt>
      <trkpt lat="23.066065" lon="113.268561">
        <time>2026-07-22T22:51:24Z</time>
      </trkpt>
      <trkpt lat="23.066103" lon="113.268509">
        <time>2026-07-22T22:51:29Z</time>
      </trkpt>
      <trkpt lat="23.066148" lon="113.268454">
        <time>2026-07-22T22:51:34Z</time>
      </trkpt>
      <trkpt lat="23.066192" lon="113.268391">
        <time>2026-07-22T22:51:39Z</time>
      </trkpt>
      <trkpt lat="23.066218" lon="113.268348">
        <time>2026-07-22T22:51:44Z</time>
      </trkpt>
      <trkpt lat="23.066244" lon="113.268307">
        <time>2026-07-22T22:51:49Z</time>
      </trkpt>
      <trkpt lat="23.066293" lon="113.268251">
        <time>2026-07-22T22:51:54Z</time>
      </trkpt>
      <trkpt lat="23.06635" lon="113.268198">
        <time>2026-07-22T22:51:59Z</time>
      </trkpt>
      <trkpt lat="23.066396" lon="113.268173">
        <time>2026-07-22T22:52:04Z</time>
      </trkpt>
      <trkpt lat="23.066442" lon="113.268156">
        <time>2026-07-22T22:52:09Z</time>
      </trkpt>
      <trkpt lat="23.06651" lon="113.268146">
        <time>2026-07-22T22:52:14Z</time>
      </trkpt>
      <trkpt lat="23.066577" lon="113.268152">
        <time>2026-07-22T22:52:19Z</time>
      </trkpt>
      <trkpt lat="23.066623" lon="113.268162">
        <time>2026-07-22T22:52:24Z</time>
      </trkpt>
      <trkpt lat="23.066667" lon="113.268169">
        <time>2026-07-22T22:52:29Z</time>
      </trkpt>
      <trkpt lat="23.066761" lon="113.268169">
        <time>2026-07-22T22:52:34Z</time>
      </trkpt>
      <trkpt lat="23.066877" lon="113.268167">
        <time>2026-07-22T22:52:39Z</time>
      </trkpt>
      <trkpt lat="23.06695" lon="113.268181">
        <time>2026-07-22T22:52:44Z</time>
      </trkpt>
      <trkpt lat="23.067022" lon="113.268212">
        <time>2026-07-22T22:52:49Z</time>
      </trkpt>
      <trkpt lat="23.067117" lon="113.268258">
        <time>2026-07-22T22:52:54Z</time>
      </trkpt>
      <trkpt lat="23.067227" lon="113.268336">
        <time>2026-07-22T22:52:59Z</time>
      </trkpt>
      <trkpt lat="23.067296" lon="113.268374">
        <time>2026-07-22T22:53:04Z</time>
      </trkpt>
      <trkpt lat="23.06736" lon="113.268412">
        <time>2026-07-22T22:53:09Z</time>
      </trkpt>
      <trkpt lat="23.067459" lon="113.268464">
        <time>2026-07-22T22:53:14Z</time>
      </trkpt>
      <trkpt lat="23.067581" lon="113.268529">
        <time>2026-07-22T22:53:19Z</time>
      </trkpt>
      <trkpt lat="23.067657" lon="113.26858">
        <time>2026-07-22T22:53:24Z</time>
      </trkpt>
      <trkpt lat="23.067731" lon="113.268618">
        <time>2026-07-22T22:53:29Z</time>
      </trkpt>
      <trkpt lat="23.067848" lon="113.268646">
        <time>2026-07-22T22:53:34Z</time>
      </trkpt>
      <trkpt lat="23.067942" lon="113.268585">
        <time>2026-07-22T22:53:39Z</time>
      </trkpt>
      <trkpt lat="23.067897" lon="113.26852">
        <time>2026-07-22T22:53:44Z</time>
      </trkpt>
      <trkpt lat="23.067809" lon="113.268471">
        <time>2026-07-22T22:53:49Z</time>
      </trkpt>
      <trkpt lat="23.067696" lon="113.2684">
        <time>2026-07-22T22:53:54Z</time>
      </trkpt>
      <trkpt lat="23.067581" lon="113.268345">
        <time>2026-07-22T22:53:59Z</time>
      </trkpt>
      <trkpt lat="23.067504" lon="113.268314">
        <time>2026-07-22T22:54:04Z</time>
      </trkpt>
      <trkpt lat="23.067425" lon="113.268291">
        <time>2026-07-22T22:54:09Z</time>
      </trkpt>
      <trkpt lat="23.067313" lon="113.268246">
        <time>2026-07-22T22:54:14Z</time>
      </trkpt>
      <trkpt lat="23.067208" lon="113.268195">
        <time>2026-07-22T22:54:19Z</time>
      </trkpt>
      <trkpt lat="23.067128" lon="113.268164">
        <time>2026-07-22T22:54:24Z</time>
      </trkpt>
      <trkpt lat="23.067045" lon="113.26812">
        <time>2026-07-22T22:54:29Z</time>
      </trkpt>
      <trkpt lat="23.06693" lon="113.268063">
        <time>2026-07-22T22:54:34Z</time>
      </trkpt>
      <trkpt lat="23.066804" lon="113.268016">
        <time>2026-07-22T22:54:39Z</time>
      </trkpt>
      <trkpt lat="23.066719" lon="113.267999">
        <time>2026-07-22T22:54:44Z</time>
      </trkpt>
      <trkpt lat="23.066652" lon="113.268015">
        <time>2026-07-22T22:54:49Z</time>
      </trkpt>
      <trkpt lat="23.066668" lon="113.268112">
        <time>2026-07-22T22:54:54Z</time>
      </trkpt>
      <trkpt lat="23.066789" lon="113.268152">
        <time>2026-07-22T22:54:59Z</time>
      </trkpt>
      <trkpt lat="23.066865" lon="113.268152">
        <time>2026-07-22T22:55:04Z</time>
      </trkpt>
      <trkpt lat="23.066915" lon="113.268157">
        <time>2026-07-22T22:55:09Z</time>
      </trkpt>
      <trkpt lat="23.066973" lon="113.268182">
        <time>2026-07-22T22:55:14Z</time>
      </trkpt>
      <trkpt lat="23.067034" lon="113.268208">
        <time>2026-07-22T22:55:19Z</time>
      </trkpt>
      <trkpt lat="23.067079" lon="113.268227">
        <time>2026-07-22T22:55:24Z</time>
      </trkpt>
      <trkpt lat="23.067117" lon="113.268255">
        <time>2026-07-22T22:55:29Z</time>
      </trkpt>
      <trkpt lat="23.067174" lon="113.268317">
        <time>2026-07-22T22:55:34Z</time>
      </trkpt>
      <trkpt lat="23.067251" lon="113.268364">
        <time>2026-07-22T22:55:39Z</time>
      </trkpt>
      <trkpt lat="23.0673" lon="113.268384">
        <time>2026-07-22T22:55:44Z</time>
      </trkpt>
      <trkpt lat="23.067345" lon="113.268402">
        <time>2026-07-22T22:55:49Z</time>
      </trkpt>
      <trkpt lat="23.067408" lon="113.268434">
        <time>2026-07-22T22:55:54Z</time>
      </trkpt>
      <trkpt lat="23.067471" lon="113.268459">
        <time>2026-07-22T22:55:59Z</time>
      </trkpt>
      <trkpt lat="23.067518" lon="113.268474">
        <time>2026-07-22T22:56:04Z</time>
      </trkpt>
      <trkpt lat="23.067564" lon="113.268497">
        <time>2026-07-22T22:56:09Z</time>
      </trkpt>
      <trkpt lat="23.067619" lon="113.268542">
        <time>2026-07-22T22:56:14Z</time>
      </trkpt>
      <trkpt lat="23.067619" lon="113.268542">
        <time>2026-07-22T22:56:19Z</time>
      </trkpt>
      <trkpt lat="23.067619" lon="113.268542">
        <time>2026-07-22T22:56:24Z</time>
      </trkpt>
      <trkpt lat="23.067619" lon="113.268542">
        <time>2026-07-22T22:56:29Z</time>
      </trkpt>
      <trkpt lat="23.067643" lon="113.268562">
        <time>2026-07-22T22:56:34Z</time>
      </trkpt>
      <trkpt lat="23.067713" lon="113.268588">
        <time>2026-07-22T22:56:39Z</time>
      </trkpt>
      <trkpt lat="23.067813" lon="113.268634">
        <time>2026-07-22T22:56:44Z</time>
      </trkpt>
      <trkpt lat="23.067899" lon="113.268681">
        <time>2026-07-22T22:56:49Z</time>
      </trkpt>
      <trkpt lat="23.06798" lon="113.268727">
        <time>2026-07-22T22:56:54Z</time>
      </trkpt>
      <trkpt lat="23.068089" lon="113.26878">
        <time>2026-07-22T22:56:59Z</time>
      </trkpt>
      <trkpt lat="23.068192" lon="113.268808">
        <time>2026-07-22T22:57:04Z</time>
      </trkpt>
      <trkpt lat="23.068255" lon="113.268841">
        <time>2026-07-22T22:57:09Z</time>
      </trkpt>
      <trkpt lat="23.068329" lon="113.26889">
        <time>2026-07-22T22:57:14Z</time>
      </trkpt>
      <trkpt lat="23.068442" lon="113.268965">
        <time>2026-07-22T22:57:19Z</time>
      </trkpt>
      <trkpt lat="23.068559" lon="113.26902">
        <time>2026-07-22T22:57:24Z</time>
      </trkpt>
      <trkpt lat="23.068639" lon="113.269051">
        <time>2026-07-22T22:57:29Z</time>
      </trkpt>
      <trkpt lat="23.068717" lon="113.269075">
        <time>2026-07-22T22:57:34Z</time>
      </trkpt>
      <trkpt lat="23.068846" lon="113.269101">
        <time>2026-07-22T22:57:39Z</time>
      </trkpt>
      <trkpt lat="23.068958" lon="113.269123">
        <time>2026-07-22T22:57:44Z</time>
      </trkpt>
      <trkpt lat="23.069035" lon="113.269161">
        <time>2026-07-22T22:57:49Z</time>
      </trkpt>
      <trkpt lat="23.069124" lon="113.269217">
        <time>2026-07-22T22:57:54Z</time>
      </trkpt>
      <trkpt lat="23.069246" lon="113.269291">
        <time>2026-07-22T22:57:59Z</time>
      </trkpt>
      <trkpt lat="23.069361" lon="113.269357">
        <time>2026-07-22T22:58:04Z</time>
      </trkpt>
      <trkpt lat="23.069438" lon="113.269406">
        <time>2026-07-22T22:58:09Z</time>
      </trkpt>
      <trkpt lat="23.069512" lon="113.269456">
        <time>2026-07-22T22:58:14Z</time>
      </trkpt>
      <trkpt lat="23.069615" lon="113.269541">
        <time>2026-07-22T22:58:19Z</time>
      </trkpt>
      <trkpt lat="23.069716" lon="113.269605">
        <time>2026-07-22T22:58:24Z</time>
      </trkpt>
      <trkpt lat="23.069787" lon="113.269643">
        <time>2026-07-22T22:58:29Z</time>
      </trkpt>
      <trkpt lat="23.069857" lon="113.269685">
        <time>2026-07-22T22:58:34Z</time>
      </trkpt>
      <trkpt lat="23.069961" lon="113.269772">
        <time>2026-07-22T22:58:39Z</time>
      </trkpt>
      <trkpt lat="23.070083" lon="113.269834">
        <time>2026-07-22T22:58:44Z</time>
      </trkpt>
      <trkpt lat="23.070165" lon="113.269856">
        <time>2026-07-22T22:58:49Z</time>
      </trkpt>
      <trkpt lat="23.07024" lon="113.269879">
        <time>2026-07-22T22:58:54Z</time>
      </trkpt>
      <trkpt lat="23.070344" lon="113.269936">
        <time>2026-07-22T22:58:59Z</time>
      </trkpt>
      <trkpt lat="23.070429" lon="113.269987">
        <time>2026-07-22T22:59:04Z</time>
      </trkpt>
      <trkpt lat="23.070485" lon="113.270004">
        <time>2026-07-22T22:59:09Z</time>
      </trkpt>
      <trkpt lat="23.070571" lon="113.270031">
        <time>2026-07-22T22:59:14Z</time>
      </trkpt>
      <trkpt lat="23.070691" lon="113.270063">
        <time>2026-07-22T22:59:19Z</time>
      </trkpt>
      <trkpt lat="23.070793" lon="113.270096">
        <time>2026-07-22T22:59:24Z</time>
      </trkpt>
      <trkpt lat="23.070865" lon="113.270118">
        <time>2026-07-22T22:59:29Z</time>
      </trkpt>
      <trkpt lat="23.070941" lon="113.270148">
        <time>2026-07-22T22:59:34Z</time>
      </trkpt>
      <trkpt lat="23.071068" lon="113.27019">
        <time>2026-07-22T22:59:39Z</time>
      </trkpt>
      <trkpt lat="23.071176" lon="113.270253">
        <time>2026-07-22T22:59:44Z</time>
      </trkpt>
      <trkpt lat="23.071248" lon="113.270289">
        <time>2026-07-22T22:59:49Z</time>
      </trkpt>
      <trkpt lat="23.071325" lon="113.270324">
        <time>2026-07-22T22:59:54Z</time>
      </trkpt>
      <trkpt lat="23.071443" lon="113.270378">
        <time>2026-07-22T22:59:59Z</time>
      </trkpt>
      <trkpt lat="23.071547" lon="113.270449">
        <time>2026-07-22T23:00:04Z</time>
      </trkpt>
      <trkpt lat="23.071608" lon="113.270494">
        <time>2026-07-22T23:00:09Z</time>
      </trkpt>
      <trkpt lat="23.071678" lon="113.270525">
        <time>2026-07-22T23:00:14Z</time>
      </trkpt>
      <trkpt lat="23.071794" lon="113.270561">
        <time>2026-07-22T23:00:19Z</time>
      </trkpt>
      <trkpt lat="23.071926" lon="113.270581">
        <time>2026-07-22T23:00:24Z</time>
      </trkpt>
      <trkpt lat="23.072018" lon="113.270591">
        <time>2026-07-22T23:00:29Z</time>
      </trkpt>
      <trkpt lat="23.0721" lon="113.270635">
        <time>2026-07-22T23:00:34Z</time>
      </trkpt>
      <trkpt lat="23.072198" lon="113.270712">
        <time>2026-07-22T23:00:39Z</time>
      </trkpt>
      <trkpt lat="23.072284" lon="113.270791">
        <time>2026-07-22T23:00:44Z</time>
      </trkpt>
      <trkpt lat="23.072341" lon="113.270835">
        <time>2026-07-22T23:00:49Z</time>
      </trkpt>
      <trkpt lat="23.072405" lon="113.270871">
        <time>2026-07-22T23:00:54Z</time>
      </trkpt>
      <trkpt lat="23.072501" lon="113.270939">
        <time>2026-07-22T23:00:59Z</time>
      </trkpt>
      <trkpt lat="23.072606" lon="113.271005">
        <time>2026-07-22T23:01:04Z</time>
      </trkpt>
      <trkpt lat="23.072679" lon="113.271039">
        <time>2026-07-22T23:01:09Z</time>
      </trkpt>
      <trkpt lat="23.072727" lon="113.271057">
        <time>2026-07-22T23:01:14Z</time>
      </trkpt>
      <trkpt lat="23.072794" lon="113.271074">
        <time>2026-07-22T23:01:19Z</time>
      </trkpt>
      <trkpt lat="23.072866" lon="113.271079">
        <time>2026-07-22T23:01:24Z</time>
      </trkpt>
      <trkpt lat="23.072914" lon="113.271097">
        <time>2026-07-22T23:01:29Z</time>
      </trkpt>
      <trkpt lat="23.072957" lon="113.271124">
        <time>2026-07-22T23:01:34Z</time>
      </trkpt>
      <trkpt lat="23.073023" lon="113.271146">
        <time>2026-07-22T23:01:39Z</time>
      </trkpt>
      <trkpt lat="23.073094" lon="113.271177">
        <time>2026-07-22T23:01:44Z</time>
      </trkpt>
      <trkpt lat="23.073163" lon="113.27119">
        <time>2026-07-22T23:01:49Z</time>
      </trkpt>
      <trkpt lat="23.073201" lon="113.271226">
        <time>2026-07-22T23:01:54Z</time>
      </trkpt>
      <trkpt lat="23.073248" lon="113.271276">
        <time>2026-07-22T23:01:59Z</time>
      </trkpt>
      <trkpt lat="23.073352" lon="113.271337">
        <time>2026-07-22T23:02:04Z</time>
      </trkpt>
      <trkpt lat="23.073433" lon="113.271389">
        <time>2026-07-22T23:02:09Z</time>
      </trkpt>
      <trkpt lat="23.07351" lon="113.271434">
        <time>2026-07-22T23:02:14Z</time>
      </trkpt>
      <trkpt lat="23.073613" lon="113.271504">
        <time>2026-07-22T23:02:19Z</time>
      </trkpt>
      <trkpt lat="23.073727" lon="113.271566">
        <time>2026-07-22T23:02:24Z</time>
      </trkpt>
      <trkpt lat="23.073802" lon="113.271601">
        <time>2026-07-22T23:02:29Z</time>
      </trkpt>
      <trkpt lat="23.073869" lon="113.271638">
        <time>2026-07-22T23:02:34Z</time>
      </trkpt>
      <trkpt lat="23.07397" lon="113.271709">
        <time>2026-07-22T23:02:39Z</time>
      </trkpt>
      <trkpt lat="23.074076" lon="113.271769">
        <time>2026-07-22T23:02:44Z</time>
      </trkpt>
      <trkpt lat="23.074093" lon="113.271804">
        <time>2026-07-22T23:02:49Z</time>
      </trkpt>
      <trkpt lat="23.07406" lon="113.271876">
        <time>2026-07-22T23:02:54Z</time>
      </trkpt>
      <trkpt lat="23.074002" lon="113.272001">
        <time>2026-07-22T23:02:59Z</time>
      </trkpt>
      <trkpt lat="23.073954" lon="113.272109">
        <time>2026-07-22T23:03:04Z</time>
      </trkpt>
      <trkpt lat="23.073924" lon="113.272191">
        <time>2026-07-22T23:03:09Z</time>
      </trkpt>
      <trkpt lat="23.073887" lon="113.272274">
        <time>2026-07-22T23:03:14Z</time>
      </trkpt>
      <trkpt lat="23.073828" lon="113.272405">
        <time>2026-07-22T23:03:19Z</time>
      </trkpt>
      <trkpt lat="23.073756" lon="113.272537">
        <time>2026-07-22T23:03:24Z</time>
      </trkpt>
      <trkpt lat="23.073714" lon="113.272621">
        <time>2026-07-22T23:03:29Z</time>
      </trkpt>
      <trkpt lat="23.073679" lon="113.272699">
        <time>2026-07-22T23:03:34Z</time>
      </trkpt>
      <trkpt lat="23.073647" lon="113.272818">
        <time>2026-07-22T23:03:39Z</time>
      </trkpt>
      <trkpt lat="23.07369" lon="113.272886">
        <time>2026-07-22T23:03:44Z</time>
      </trkpt>
      <trkpt lat="23.073741" lon="113.272922">
        <time>2026-07-22T23:03:49Z</time>
      </trkpt>
      <trkpt lat="23.073816" lon="113.272964">
        <time>2026-07-22T23:03:54Z</time>
      </trkpt>
      <trkpt lat="23.073938" lon="113.273011">
        <time>2026-07-22T23:03:59Z</time>
      </trkpt>
      <trkpt lat="23.074032" lon="113.272948">
        <time>2026-07-22T23:04:04Z</time>
      </trkpt>
      <trkpt lat="23.074067" lon="113.272864">
        <time>2026-07-22T23:04:09Z</time>
      </trkpt>
      <trkpt lat="23.074095" lon="113.272764">
        <time>2026-07-22T23:04:14Z</time>
      </trkpt>
      <trkpt lat="23.07413" lon="113.272647">
        <time>2026-07-22T23:04:19Z</time>
      </trkpt>
      <trkpt lat="23.074174" lon="113.272551">
        <time>2026-07-22T23:04:24Z</time>
      </trkpt>
      <trkpt lat="23.074211" lon="113.272468">
        <time>2026-07-22T23:04:29Z</time>
      </trkpt>
      <trkpt lat="23.07425" lon="113.272381">
        <time>2026-07-22T23:04:34Z</time>
      </trkpt>
      <trkpt lat="23.07431" lon="113.272271">
        <time>2026-07-22T23:04:39Z</time>
      </trkpt>
      <trkpt lat="23.074382" lon="113.272168">
        <time>2026-07-22T23:04:44Z</time>
      </trkpt>
      <trkpt lat="23.074437" lon="113.272083">
        <time>2026-07-22T23:04:49Z</time>
      </trkpt>
      <trkpt lat="23.074491" lon="113.272022">
        <time>2026-07-22T23:04:54Z</time>
      </trkpt>
      <trkpt lat="23.074585" lon="113.272028">
        <time>2026-07-22T23:04:59Z</time>
      </trkpt>
      <trkpt lat="23.074687" lon="113.272101">
        <time>2026-07-22T23:05:04Z</time>
      </trkpt>
      <trkpt lat="23.074752" lon="113.272149">
        <time>2026-07-22T23:05:09Z</time>
      </trkpt>
      <trkpt lat="23.074818" lon="113.272179">
        <time>2026-07-22T23:05:14Z</time>
      </trkpt>
      <trkpt lat="23.074916" lon="113.272244">
        <time>2026-07-22T23:05:19Z</time>
      </trkpt>
      <trkpt lat="23.075016" lon="113.27231">
        <time>2026-07-22T23:05:24Z</time>
      </trkpt>
      <trkpt lat="23.075083" lon="113.272355">
        <time>2026-07-22T23:05:29Z</time>
      </trkpt>
      <trkpt lat="23.07515" lon="113.272393">
        <time>2026-07-22T23:05:34Z</time>
      </trkpt>
      <trkpt lat="23.075255" lon="113.272441">
        <time>2026-07-22T23:05:39Z</time>
      </trkpt>
      <trkpt lat="23.075366" lon="113.272488">
        <time>2026-07-22T23:05:44Z</time>
      </trkpt>
      <trkpt lat="23.075438" lon="113.272532">
        <time>2026-07-22T23:05:49Z</time>
      </trkpt>
      <trkpt lat="23.07551" lon="113.272568">
        <time>2026-07-22T23:05:54Z</time>
      </trkpt>
      <trkpt lat="23.075612" lon="113.272568">
        <time>2026-07-22T23:05:59Z</time>
      </trkpt>
      <trkpt lat="23.075718" lon="113.272504">
        <time>2026-07-22T23:06:04Z</time>
      </trkpt>
      <trkpt lat="23.075785" lon="113.272499">
        <time>2026-07-22T23:06:09Z</time>
      </trkpt>
      <trkpt lat="23.075877" lon="113.272563">
        <time>2026-07-22T23:06:14Z</time>
      </trkpt>
      <trkpt lat="23.075984" lon="113.272775">
        <time>2026-07-22T23:06:19Z</time>
      </trkpt>
      <trkpt lat="23.075951" lon="113.272898">
        <time>2026-07-22T23:06:24Z</time>
      </trkpt>
      <trkpt lat="23.075868" lon="113.272963">
        <time>2026-07-22T23:06:29Z</time>
      </trkpt>
      <trkpt lat="23.075785" lon="113.273008">
        <time>2026-07-22T23:06:34Z</time>
      </trkpt>
      <trkpt lat="23.075702" lon="113.273096">
        <time>2026-07-22T23:06:39Z</time>
      </trkpt>
      <trkpt lat="23.075645" lon="113.273204">
        <time>2026-07-22T23:06:44Z</time>
      </trkpt>
      <trkpt lat="23.0756" lon="113.273266">
        <time>2026-07-22T23:06:49Z</time>
      </trkpt>
      <trkpt lat="23.075564" lon="113.273313">
        <time>2026-07-22T23:06:54Z</time>
      </trkpt>
      <trkpt lat="23.075501" lon="113.273305">
        <time>2026-07-22T23:06:59Z</time>
      </trkpt>
      <trkpt lat="23.075447" lon="113.273189">
        <time>2026-07-22T23:07:04Z</time>
      </trkpt>
      <trkpt lat="23.07543" lon="113.273116">
        <time>2026-07-22T23:07:09Z</time>
      </trkpt>
      <trkpt lat="23.075415" lon="113.273051">
        <time>2026-07-22T23:07:14Z</time>
      </trkpt>
      <trkpt lat="23.075354" lon="113.273001">
        <time>2026-07-22T23:07:19Z</time>
      </trkpt>
      <trkpt lat="23.075341" lon="113.272819">
        <time>2026-07-22T23:07:24Z</time>
      </trkpt>
      <trkpt lat="23.075378" lon="113.272679">
        <time>2026-07-22T23:07:27Z</time>
      </trkpt>
    </trkseg>
  </trk>
</gpx>