<?xml version="1.0" encoding="UTF-8"?>
<gpx xmlns="http://www.topografix.com/GPX/1/1" xmlns:gpxtpx="http://www.garmin.com/xmlschemas/TrackPointExtension/v1" xmlns:xsi="http://www.w3.org/2001/XMLSchema-instance" xsi:schemaLocation="http://www.topografix.com/GPX/1/1 http://www.topografix.com/GPX/1/1/gpx.xsd" version="1.1" creator="gpx.py -- https://github.com/tkrajina/gpxpy">
  <trk>
    <name>gpx from joyrun</name>
    <trkseg>
      <trkpt lat="23.076092" lon="113.272784">
        <time>2026-07-27T22:04:51Z</time>
      </trkpt>
      <trkpt lat="23.076096" lon="113.272731">
        <time>2026-07-27T22:04:56Z</time>
      </trkpt>
      <trkpt lat="23.076037" lon="113.272661">
        <time>2026-07-27T22:05:01Z</time>
      </trkpt>
      <trkpt lat="23.075984" lon="113.27258">
        <time>2026-07-27T22:05:06Z</time>
      </trkpt>
      <trkpt lat="23.075847" lon="113.272503">
        <time>2026-07-27T22:05:11Z</time>
      </trkpt>
      <trkpt lat="23.075686" lon="113.272429">
        <time>2026-07-27T22:05:16Z</time>
      </trkpt>
      <trkpt lat="23.075587" lon="113.272382">
        <time>2026-07-27T22:05:21Z</time>
      </trkpt>
      <trkpt lat="23.075445" lon="113.27236">
        <time>2026-07-27T22:05:26Z</time>
      </trkpt>
      <trkpt lat="23.075269" lon="113.272407">
        <time>2026-07-27T22:05:31Z</time>
      </trkpt>
      <trkpt lat="23.075117" lon="113.272384">
        <time>2026-07-27T22:05:36Z</time>
      </trkpt>
      <trkpt lat="23.075022" lon="113.27233">
        <time>2026-07-27T22:05:41Z</time>
      </trkpt>
      <trkpt lat="23.074943" lon="113.272269">
        <time>2026-07-27T22:05:46Z</time>
      </trkpt>
      <trkpt lat="23.074822" lon="113.272133">
        <time>2026-07-27T22:05:51Z</time>
      </trkpt>
      <trkpt lat="23.074684" lon="113.272025">
        <time>2026-07-27T22:05:56Z</time>
      </trkpt>
      <trkpt lat="23.074583" lon="113.27198">
        <time>2026-07-27T22:06:01Z</time>
      </trkpt>
      <trkpt lat="23.074478" lon="113.271989">
        <time>2026-07-27T22:06:06Z</time>
      </trkpt>
      <trkpt lat="23.074347" lon="113.272045">
        <time>2026-07-27T22:06:11Z</time>
      </trkpt>
      <trkpt lat="23.074276" lon="113.272161">
        <time>2026-07-27T22:06:16Z</time>
      </trkpt>
      <trkpt lat="23.07424" lon="113.272247">
        <time>2026-07-27T22:06:21Z</time>
      </trkpt>
      <trkpt lat="23.074202" lon="113.272333">
        <time>2026-07-27T22:06:26Z</time>
      </trkpt>
      <trkpt lat="23.074143" lon="113.272467">
        <time>2026-07-27T22:06:31Z</time>
      </trkpt>
      <trkpt lat="23.074092" lon="113.272622">
        <time>2026-07-27T22:06:36Z</time>
      </trkpt>
      <trkpt lat="23.074062" lon="113.272722">
        <time>2026-07-27T22:06:41Z</time>
      </trkpt>
      <trkpt lat="23.074027" lon="113.272815">
        <time>2026-07-27T22:06:46Z</time>
      </trkpt>
      <trkpt lat="23.073969" lon="113.272946">
        <time>2026-07-27T22:06:51Z</time>
      </trkpt>
      <trkpt lat="23.073917" lon="113.273083">
        <time>2026-07-27T22:06:56Z</time>
      </trkpt>
      <trkpt lat="23.073894" lon="113.273134">
        <time>2026-07-27T22:07:01Z</time>
      </trkpt>
      <trkpt lat="23.0739" lon="113.273124">
        <time>2026-07-27T22:07:06Z</time>
      </trkpt>
      <trkpt lat="23.07392" lon="113.273095">
        <time>2026-07-27T22:07:11Z</time>
      </trkpt>
      <trkpt lat="23.073942" lon="113.273066">
        <time>2026-07-27T22:07:16Z</time>
      </trkpt>
      <trkpt lat="23.073959" lon="113.273017">
        <time>2026-07-27T22:07:21Z</time>
      </trkpt>
      <trkpt lat="23.073889" lon="113.27296">
        <time>2026-07-27T22:07:26Z</time>
      </trkpt>
      <trkpt lat="23.073803" lon="113.272925">
        <time>2026-07-27T22:07:31Z</time>
      </trkpt>
      <trkpt lat="23.073719" lon="113.272876">
        <time>2026-07-27T22:07:36Z</time>
      </trkpt>
      <trkpt lat="23.073698" lon="113.27276">
        <time>2026-07-27T22:07:41Z</time>
      </trkpt>
      <trkpt lat="23.073778" lon="113.27264">
        <time>2026-07-27T22:07:46Z</time>
      </trkpt>
      <trkpt lat="23.073824" lon="113.272557">
        <time>2026-07-27T22:07:51Z</time>
      </trkpt>
      <trkpt lat="23.073861" lon="113.272477">
        <time>2026-07-27T22:07:56Z</time>
      </trkpt>
      <trkpt lat="23.073908" lon="113.272345">
        <time>2026-07-27T22:08:01Z</time>
      </trkpt>
      <trkpt lat="23.073966" lon="113.2722">
        <time>2026-07-27T22:08:06Z</time>
      </trkpt>
      <trkpt lat="23.074014" lon="113.272102">
        <time>2026-07-27T22:08:11Z</time>
      </trkpt>
      <trkpt lat="23.074046" lon="113.272014">
        <time>2026-07-27T22:08:16Z</time>
      </trkpt>
      <trkpt lat="23.074088" lon="113.271884">
        <time>2026-07-27T22:08:21Z</time>
      </trkpt>
      <trkpt lat="23.074129" lon="113.271767">
        <time>2026-07-27T22:08:26Z</time>
      </trkpt>
      <trkpt lat="23.074089" lon="113.271713">
        <time>2026-07-27T22:08:31Z</time>
      </trkpt>
      <trkpt lat="23.074011" lon="113.271675">
        <time>2026-07-27T22:08:36Z</time>
      </trkpt>
      <trkpt lat="23.073888" lon="113.271616">
        <time>2026-07-27T22:08:41Z</time>
      </trkpt>
      <trkpt lat="23.073765" lon="113.271562">
        <time>2026-07-27T22:08:46Z</time>
      </trkpt>
      <trkpt lat="23.073677" lon="113.271525">
        <time>2026-07-27T22:08:51Z</time>
      </trkpt>
      <trkpt lat="23.073581" lon="113.271498">
        <time>2026-07-27T22:08:56Z</time>
      </trkpt>
      <trkpt lat="23.073445" lon="113.271441">
        <time>2026-07-27T22:09:01Z</time>
      </trkpt>
      <trkpt lat="23.073317" lon="113.271361">
        <time>2026-07-27T22:09:06Z</time>
      </trkpt>
      <trkpt lat="23.07325" lon="113.271271">
        <time>2026-07-27T22:09:11Z</time>
      </trkpt>
      <trkpt lat="23.073174" lon="113.2712">
        <time>2026-07-27T22:09:16Z</time>
      </trkpt>
      <trkpt lat="23.073037" lon="113.271106">
        <time>2026-07-27T22:09:21Z</time>
      </trkpt>
      <trkpt lat="23.072919" lon="113.271037">
        <time>2026-07-27T22:09:26Z</time>
      </trkpt>
      <trkpt lat="23.07282" lon="113.270981">
        <time>2026-07-27T22:09:31Z</time>
      </trkpt>
      <trkpt lat="23.072686" lon="113.27093">
        <time>2026-07-27T22:09:36Z</time>
      </trkpt>
      <trkpt lat="23.072514" lon="113.270858">
        <time>2026-07-27T22:09:41Z</time>
      </trkpt>
      <trkpt lat="23.072361" lon="113.270797">
        <time>2026-07-27T22:09:46Z</time>
      </trkpt>
      <trkpt lat="23.072272" lon="113.270756">
        <time>2026-07-27T22:09:51Z</time>
      </trkpt>
      <trkpt lat="23.072192" lon="113.270696">
        <time>2026-07-27T22:09:56Z</time>
      </trkpt>
      <trkpt lat="23.072054" lon="113.270644">
        <time>2026-07-27T22:10:01Z</time>
      </trkpt>
      <trkpt lat="23.071909" lon="113.270599">
        <time>2026-07-27T22:10:06Z</time>
      </trkpt>
      <trkpt lat="23.071825" lon="113.270567">
        <time>2026-07-27T22:10:11Z</time>
      </trkpt>
      <trkpt lat="23.071742" lon="113.270527">
        <time>2026-07-27T22:10:16Z</time>
      </trkpt>
      <trkpt lat="23.071603" lon="113.270455">
        <time>2026-07-27T22:10:21Z</time>
      </trkpt>
      <trkpt lat="23.071482" lon="113.27039">
        <time>2026-07-27T22:10:26Z</time>
      </trkpt>
      <trkpt lat="23.071393" lon="113.270374">
        <time>2026-07-27T22:10:31Z</time>
      </trkpt>
      <trkpt lat="23.071301" lon="113.270346">
        <time>2026-07-27T22:10:36Z</time>
      </trkpt>
      <trkpt lat="23.07116" lon="113.270291">
        <time>2026-07-27T22:10:41Z</time>
      </trkpt>
      <trkpt lat="23.071015" lon="113.270184">
        <time>2026-07-27T22:10:46Z</time>
      </trkpt>
      <trkpt lat="23.070924" lon="113.270145">
        <time>2026-07-27T22:10:51Z</time>
      </trkpt>
      <trkpt lat="23.070841" lon="113.270111">
        <time>2026-07-27T22:10:56Z</time>
      </trkpt>
      <trkpt lat="23.070732" lon="113.270011">
        <time>2026-07-27T22:11:01Z</time>
      </trkpt>
      <trkpt lat="23.07061" lon="113.269941">
        <time>2026-07-27T22:11:06Z</time>
      </trkpt>
      <trkpt lat="23.070506" lon="113.26992">
        <time>2026-07-27T22:11:11Z</time>
      </trkpt>
      <trkpt lat="23.070404" lon="113.269875">
        <time>2026-07-27T22:11:16Z</time>
      </trkpt>
      <trkpt lat="23.070259" lon="113.269784">
        <time>2026-07-27T22:11:21Z</time>
      </trkpt>
      <trkpt lat="23.070098" lon="113.269713">
        <time>2026-07-27T22:11:26Z</time>
      </trkpt>
      <trkpt lat="23.070003" lon="113.269665">
        <time>2026-07-27T22:11:31Z</time>
      </trkpt>
      <trkpt lat="23.069909" lon="113.269615">
        <time>2026-07-27T22:11:36Z</time>
      </trkpt>
      <trkpt lat="23.069763" lon="113.269543">
        <time>2026-07-27T22:11:41Z</time>
      </trkpt>
      <trkpt lat="23.06963" lon="113.269458">
        <time>2026-07-27T22:11:46Z</time>
      </trkpt>
      <trkpt lat="23.069549" lon="113.2694">
        <time>2026-07-27T22:11:51Z</time>
      </trkpt>
      <trkpt lat="23.069468" lon="113.269353">
        <time>2026-07-27T22:11:56Z</time>
      </trkpt>
      <trkpt lat="23.069325" lon="113.269283">
        <time>2026-07-27T22:12:01Z</time>
      </trkpt>
      <trkpt lat="23.069171" lon="113.269217">
        <time>2026-07-27T22:12:06Z</time>
      </trkpt>
      <trkpt lat="23.069073" lon="113.269182">
        <time>2026-07-27T22:12:11Z</time>
      </trkpt>
      <trkpt lat="23.068975" lon="113.269145">
        <time>2026-07-27T22:12:16Z</time>
      </trkpt>
      <trkpt lat="23.068831" lon="113.269085">
        <time>2026-07-27T22:12:21Z</time>
      </trkpt>
      <trkpt lat="23.068704" lon="113.269032">
        <time>2026-07-27T22:12:26Z</time>
      </trkpt>
      <trkpt lat="23.068616" lon="113.269008">
        <time>2026-07-27T22:12:31Z</time>
      </trkpt>
      <trkpt lat="23.06853" lon="113.268985">
        <time>2026-07-27T22:12:36Z</time>
      </trkpt>
      <trkpt lat="23.068407" lon="113.268935">
        <time>2026-07-27T22:12:41Z</time>
      </trkpt>
      <trkpt lat="23.068291" lon="113.268907">
        <time>2026-07-27T22:12:46Z</time>
      </trkpt>
      <trkpt lat="23.068205" lon="113.268882">
        <time>2026-07-27T22:12:51Z</time>
      </trkpt>
      <trkpt lat="23.068127" lon="113.268838">
        <time>2026-07-27T22:12:56Z</time>
      </trkpt>
      <trkpt lat="23.067974" lon="113.268688">
        <time>2026-07-27T22:13:01Z</time>
      </trkpt>
      <trkpt lat="23.067815" lon="113.26857">
        <time>2026-07-27T22:13:06Z</time>
      </trkpt>
      <trkpt lat="23.067724" lon="113.268511">
        <time>2026-07-27T22:13:11Z</time>
      </trkpt>
      <trkpt lat="23.067649" lon="113.268427">
        <time>2026-07-27T22:13:16Z</time>
      </trkpt>
      <trkpt lat="23.06752" lon="113.268297">
        <time>2026-07-27T22:13:21Z</time>
      </trkpt>
      <trkpt lat="23.067371" lon="113.268212">
        <time>2026-07-27T22:13:26Z</time>
      </trkpt>
      <trkpt lat="23.067275" lon="113.268172">
        <time>2026-07-27T22:13:31Z</time>
      </trkpt>
      <trkpt lat="23.067182" lon="113.268139">
        <time>2026-07-27T22:13:36Z</time>
      </trkpt>
      <trkpt lat="23.067046" lon="113.268093">
        <time>2026-07-27T22:13:41Z</time>
      </trkpt>
      <trkpt lat="23.066879" lon="113.268036">
        <time>2026-07-27T22:13:46Z</time>
      </trkpt>
      <trkpt lat="23.066754" lon="113.268001">
        <time>2026-07-27T22:13:51Z</time>
      </trkpt>
      <trkpt lat="23.066642" lon="113.267985">
        <time>2026-07-27T22:13:56Z</time>
      </trkpt>
      <trkpt lat="23.066491" lon="113.267936">
        <time>2026-07-27T22:14:01Z</time>
      </trkpt>
      <trkpt lat="23.066335" lon="113.267903">
        <time>2026-07-27T22:14:06Z</time>
      </trkpt>
      <trkpt lat="23.066231" lon="113.267928">
        <time>2026-07-27T22:14:11Z</time>
      </trkpt>
      <trkpt lat="23.066148" lon="113.268003">
        <time>2026-07-27T22:14:16Z</time>
      </trkpt>
      <trkpt lat="23.066043" lon="113.268148">
        <time>2026-07-27T22:14:21Z</time>
      </trkpt>
      <trkpt lat="23.065943" lon="113.268283">
        <time>2026-07-27T22:14:26Z</time>
      </trkpt>
      <trkpt lat="23.065884" lon="113.268375">
        <time>2026-07-27T22:14:31Z</time>
      </trkpt>
      <trkpt lat="23.06583" lon="113.268472">
        <time>2026-07-27T22:14:36Z</time>
      </trkpt>
      <trkpt lat="23.065752" lon="113.268614">
        <time>2026-07-27T22:14:41Z</time>
      </trkpt>
      <trkpt lat="23.065681" lon="113.268762">
        <time>2026-07-27T22:14:46Z</time>
      </trkpt>
      <trkpt lat="23.065639" lon="113.268864">
        <time>2026-07-27T22:14:51Z</time>
      </trkpt>
      <trkpt lat="23.065602" lon="113.268973">
        <time>2026-07-27T22:14:56Z</time>
      </trkpt>
      <trkpt lat="23.065553" lon="113.269135">
        <time>2026-07-27T22:15:01Z</time>
      </trkpt>
      <trkpt lat="23.065515" lon="113.269285">
        <time>2026-07-27T22:15:06Z</time>
      </trkpt>
      <trkpt lat="23.065493" lon="113.269386">
        <time>2026-07-27T22:15:11Z</time>
      </trkpt>
      <trkpt lat="23.065472" lon="113.269489">
        <time>2026-07-27T22:15:16Z</time>
      </trkpt>
      <trkpt lat="23.065436" lon="113.269644">
        <time>2026-07-27T22:15:21Z</time>
      </trkpt>
      <trkpt lat="23.065401" lon="113.2698">
        <time>2026-07-27T22:15:26Z</time>
      </trkpt>
      <trkpt lat="23.065372" lon="113.269904">
        <time>2026-07-27T22:15:31Z</time>
      </trkpt>
      <trkpt lat="23.065336" lon="113.27001">
        <time>2026-07-27T22:15:36Z</time>
      </trkpt>
      <trkpt lat="23.065273" lon="113.270161">
        <time>2026-07-27T22:15:41Z</time>
      </trkpt>
      <trkpt lat="23.06521" lon="113.270306">
        <time>2026-07-27T22:15:46Z</time>
      </trkpt>
      <trkpt lat="23.065166" lon="113.270406">
        <time>2026-07-27T22:15:51Z</time>
      </trkpt>
      <trkpt lat="23.06512" lon="113.270507">
        <time>2026-07-27T22:15:56Z</time>
      </trkpt>
      <trkpt lat="23.065053" lon="113.270661">
        <time>2026-07-27T22:16:01Z</time>
      </trkpt>
      <trkpt lat="23.064983" lon="113.270808">
        <time>2026-07-27T22:16:06Z</time>
      </trkpt>
      <trkpt lat="23.064935" lon="113.270907">
        <time>2026-07-27T22:16:11Z</time>
      </trkpt>
      <trkpt lat="23.064889" lon="113.271006">
        <time>2026-07-27T22:16:16Z</time>
      </trkpt>
      <trkpt lat="23.064811" lon="113.271147">
        <time>2026-07-27T22:16:21Z</time>
      </trkpt>
      <trkpt lat="23.064743" lon="113.271295">
        <time>2026-07-27T22:16:26Z</time>
      </trkpt>
      <trkpt lat="23.06471" lon="113.271396">
        <time>2026-07-27T22:16:31Z</time>
      </trkpt>
      <trkpt lat="23.06467" lon="113.271498">
        <time>2026-07-27T22:16:36Z</time>
      </trkpt>
      <trkpt lat="23.064606" lon="113.271649">
        <time>2026-07-27T22:16:41Z</time>
      </trkpt>
      <trkpt lat="23.064531" lon="113.271795">
        <time>2026-07-27T22:16:46Z</time>
      </trkpt>
      <trkpt lat="23.064486" lon="113.271895">
        <time>2026-07-27T22:16:51Z</time>
      </trkpt>
      <trkpt lat="23.064445" lon="113.271995">
        <time>2026-07-27T22:16:56Z</time>
      </trkpt>
      <trkpt lat="23.064385" lon="113.272137">
        <time>2026-07-27T22:17:01Z</time>
      </trkpt>
      <trkpt lat="23.064344" lon="113.272293">
        <time>2026-07-27T22:17:06Z</time>
      </trkpt>
      <trkpt lat="23.064338" lon="113.272398">
        <time>2026-07-27T22:17:11Z</time>
      </trkpt>
      <trkpt lat="23.064331" lon="113.272505">
        <time>2026-07-27T22:17:16Z</time>
      </trkpt>
      <trkpt lat="23.064345" lon="113.272669">
        <time>2026-07-27T22:17:21Z</time>
      </trkpt>
      <trkpt lat="23.064392" lon="113.272824">
        <time>2026-07-27T22:17:26Z</time>
      </trkpt>
      <trkpt lat="23.064423" lon="113.272926">
        <time>2026-07-27T22:17:31Z</time>
      </trkpt>
      <trkpt lat="23.064456" lon="113.27303">
        <time>2026-07-27T22:17:36Z</time>
      </trkpt>
      <trkpt lat="23.064472" lon="113.273187">
        <time>2026-07-27T22:17:41Z</time>
      </trkpt>
      <trkpt lat="23.064392" lon="113.273329">
        <time>2026-07-27T22:17:46Z</time>
      </trkpt>
      <trkpt lat="23.064302" lon="113.273399">
        <time>2026-07-27T22:17:51Z</time>
      </trkpt>
      <trkpt lat="23.064209" lon="113.273466">
        <time>2026-07-27T22:17:56Z</time>
      </trkpt>
      <trkpt lat="23.064078" lon="113.273569">
        <time>2026-07-27T22:18:01Z</time>
      </trkpt>
      <trkpt lat="23.063951" lon="113.27367">
        <time>2026-07-27T22:18:06Z</time>
      </trkpt>
      <trkpt lat="23.063882" lon="113.273749">
        <time>2026-07-27T22:18:11Z</time>
      </trkpt>
      <trkpt lat="23.063826" lon="113.273838">
        <time>2026-07-27T22:18:16Z</time>
      </trkpt>
      <trkpt lat="23.063749" lon="113.273975">
        <time>2026-07-27T22:18:21Z</time>
      </trkpt>
      <trkpt lat="23.063655" lon="113.274089">
        <time>2026-07-27T22:18:26Z</time>
      </trkpt>
      <trkpt lat="23.063583" lon="113.274147">
        <time>2026-07-27T22:18:31Z</time>
      </trkpt>
      <trkpt lat="23.063528" lon="113.274243">
        <time>2026-07-27T22:18:36Z</time>
      </trkpt>
      <trkpt lat="23.063453" lon="113.27443">
        <time>2026-07-27T22:18:41Z</time>
      </trkpt>
      <trkpt lat="23.063385" lon="113.274606">
        <time>2026-07-27T22:18:46Z</time>
      </trkpt>
      <trkpt lat="23.063344" lon="113.274721">
        <time>2026-07-27T22:18:51Z</time>
      </trkpt>
      <trkpt lat="23.063308" lon="113.274834">
        <time>2026-07-27T22:18:56Z</time>
      </trkpt>
      <trkpt lat="23.063253" lon="113.275006">
        <time>2026-07-27T22:19:01Z</time>
      </trkpt>
      <trkpt lat="23.063171" lon="113.275161">
        <time>2026-07-27T22:19:06Z</time>
      </trkpt>
      <trkpt lat="23.063111" lon="113.275255">
        <time>2026-07-27T22:19:11Z</time>
      </trkpt>
      <trkpt lat="23.063055" lon="113.27535">
        <time>2026-07-27T22:19:16Z</time>
      </trkpt>
      <trkpt lat="23.062968" lon="113.275492">
        <time>2026-07-27T22:19:21Z</time>
      </trkpt>
      <trkpt lat="23.062865" lon="113.275622">
        <time>2026-07-27T22:19:26Z</time>
      </trkpt>
      <trkpt lat="23.062788" lon="113.2757">
        <time>2026-07-27T22:19:31Z</time>
      </trkpt>
      <trkpt lat="23.062708" lon="113.275772">
        <time>2026-07-27T22:19:36Z</time>
      </trkpt>
      <trkpt lat="23.062603" lon="113.275886">
        <time>2026-07-27T22:19:41Z</time>
      </trkpt>
      <trkpt lat="23.062511" lon="113.276016">
        <time>2026-07-27T22:19:46Z</time>
      </trkpt>
      <trkpt lat="23.062458" lon="113.276113">
        <time>2026-07-27T22:19:51Z</time>
      </trkpt>
      <trkpt lat="23.062416" lon="113.276214">
        <time>2026-07-27T22:19:56Z</time>
      </trkpt>
      <trkpt lat="23.062368" lon="113.276368">
        <time>2026-07-27T22:20:01Z</time>
      </trkpt>
      <trkpt lat="23.062317" lon="113.276519">
        <time>2026-07-27T22:20:06Z</time>
      </trkpt>
      <trkpt lat="23.062285" lon="113.276621">
        <time>2026-07-27T22:20:11Z</time>
      </trkpt>
      <trkpt lat="23.062251" lon="113.276723">
        <time>2026-07-27T22:20:16Z</time>
      </trkpt>
      <trkpt lat="23.062193" lon="113.276876">
        <time>2026-07-27T22:20:21Z</time>
      </trkpt>
      <trkpt lat="23.062129" lon="113.277028">
        <time>2026-07-27T22:20:26Z</time>
      </trkpt>
      <trkpt lat="23.062088" lon="113.277128">
        <time>2026-07-27T22:20:31Z</time>
      </trkpt>
      <trkpt lat="23.062044" lon="113.277234">
        <time>2026-07-27T22:20:36Z</time>
      </trkpt>
      <trkpt lat="23.061985" lon="113.277401">
        <time>2026-07-27T22:20:41Z</time>
      </trkpt>
      <trkpt lat="23.061925" lon="113.277575">
        <time>2026-07-27T22:20:46Z</time>
      </trkpt>
      <trkpt lat="23.061889" lon="113.277683">
        <time>2026-07-27T22:20:51Z</time>
      </trkpt>
      <trkpt lat="23.061866" lon="113.277792">
        <time>2026-07-27T22:20:56Z</time>
      </trkpt>
      <trkpt lat="23.06186" lon="113.277966">
        <time>2026-07-27T22:21:01Z</time>
      </trkpt>
      <trkpt lat="23.061869" lon="113.278136">
        <time>2026-07-27T22:21:06Z</time>
      </trkpt>
      <trkpt lat="23.061874" lon="113.27825">
        <time>2026-07-27T22:21:11Z</time>
      </trkpt>
      <trkpt lat="23.06188" lon="113.278363">
        <time>2026-07-27T22:21:16Z</time>
      </trkpt>
      <trkpt lat="23.061886" lon="113.27853">
        <time>2026-07-27T22:21:21Z</time>
      </trkpt>
      <trkpt lat="23.061877" lon="113.278696">
        <time>2026-07-27T22:21:26Z</time>
      </trkpt>
      <trkpt lat="23.061843" lon="113.2788">
        <time>2026-07-27T22:21:31Z</time>
      </trkpt>
      <trkpt lat="23.06179" lon="113.278901">
        <time>2026-07-27T22:21:36Z</time>
      </trkpt>
      <trkpt lat="23.061691" lon="113.279054">
        <time>2026-07-27T22:21:41Z</time>
      </trkpt>
      <trkpt lat="23.061611" lon="113.279203">
        <time>2026-07-27T22:21:46Z</time>
      </trkpt>
      <trkpt lat="23.061566" lon="113.279304">
        <time>2026-07-27T22:21:51Z</time>
      </trkpt>
      <trkpt lat="23.061522" lon="113.27941">
        <time>2026-07-27T22:21:56Z</time>
      </trkpt>
      <trkpt lat="23.061457" lon="113.279567">
        <time>2026-07-27T22:22:01Z</time>
      </trkpt>
      <trkpt lat="23.061395" lon="113.279732">
        <time>2026-07-27T22:22:06Z</time>
      </trkpt>
      <trkpt lat="23.061358" lon="113.279835">
        <time>2026-07-27T22:22:11Z</time>
      </trkpt>
      <trkpt lat="23.061315" lon="113.279939">
        <time>2026-07-27T22:22:16Z</time>
      </trkpt>
      <trkpt lat="23.061249" lon="113.280101">
        <time>2026-07-27T22:22:21Z</time>
      </trkpt>
      <trkpt lat="23.061188" lon="113.280265">
        <time>2026-07-27T22:22:26Z</time>
      </trkpt>
      <trkpt lat="23.061143" lon="113.280371">
        <time>2026-07-27T22:22:31Z</time>
      </trkpt>
      <trkpt lat="23.061099" lon="113.280479">
        <time>2026-07-27T22:22:36Z</time>
      </trkpt>
      <trkpt lat="23.061033" lon="113.280634">
        <time>2026-07-27T22:22:41Z</time>
      </trkpt>
      <trkpt lat="23.060965" lon="113.280784">
        <time>2026-07-27T22:22:46Z</time>
      </trkpt>
      <trkpt lat="23.060919" lon="113.280884">
        <time>2026-07-27T22:22:51Z</time>
      </trkpt>
      <trkpt lat="23.060874" lon="113.280984">
        <time>2026-07-27T22:22:56Z</time>
      </trkpt>
      <trkpt lat="23.060802" lon="113.281138">
        <time>2026-07-27T22:23:01Z</time>
      </trkpt>
      <trkpt lat="23.06074" lon="113.281287">
        <time>2026-07-27T22:23:06Z</time>
      </trkpt>
      <trkpt lat="23.060699" lon="113.28139">
        <time>2026-07-27T22:23:11Z</time>
      </trkpt>
      <trkpt lat="23.060659" lon="113.281491">
        <time>2026-07-27T22:23:16Z</time>
      </trkpt>
      <trkpt lat="23.060595" lon="113.28164">
        <time>2026-07-27T22:23:21Z</time>
      </trkpt>
      <trkpt lat="23.060534" lon="113.281794">
        <time>2026-07-27T22:23:26Z</time>
      </trkpt>
      <trkpt lat="23.060493" lon="113.281898">
        <time>2026-07-27T22:23:31Z</time>
      </trkpt>
      <trkpt lat="23.060454" lon="113.281999">
        <time>2026-07-27T22:23:36Z</time>
      </trkpt>
      <trkpt lat="23.06039" lon="113.282148">
        <time>2026-07-27T22:23:41Z</time>
      </trkpt>
      <trkpt lat="23.060327" lon="113.282301">
        <time>2026-07-27T22:23:46Z</time>
      </trkpt>
      <trkpt lat="23.060285" lon="113.282403">
        <time>2026-07-27T22:23:51Z</time>
      </trkpt>
      <trkpt lat="23.060245" lon="113.282503">
        <time>2026-07-27T22:23:56Z</time>
      </trkpt>
      <trkpt lat="23.060175" lon="113.282653">
        <time>2026-07-27T22:24:01Z</time>
      </trkpt>
      <trkpt lat="23.060099" lon="113.28281">
        <time>2026-07-27T22:24:06Z</time>
      </trkpt>
      <trkpt lat="23.060053" lon="113.282912">
        <time>2026-07-27T22:24:11Z</time>
      </trkpt>
      <trkpt lat="23.060011" lon="113.283014">
        <time>2026-07-27T22:24:16Z</time>
      </trkpt>
      <trkpt lat="23.059949" lon="113.283155">
        <time>2026-07-27T22:24:21Z</time>
      </trkpt>
      <trkpt lat="23.059882" lon="113.283293">
        <time>2026-07-27T22:24:26Z</time>
      </trkpt>
      <trkpt lat="23.059807" lon="113.283375">
        <time>2026-07-27T22:24:31Z</time>
      </trkpt>
      <trkpt lat="23.059752" lon="113.283478">
        <time>2026-07-27T22:24:36Z</time>
      </trkpt>
      <trkpt lat="23.059688" lon="113.28364">
        <time>2026-07-27T22:24:41Z</time>
      </trkpt>
      <trkpt lat="23.059628" lon="113.283788">
        <time>2026-07-27T22:24:46Z</time>
      </trkpt>
      <trkpt lat="23.05959" lon="113.283889">
        <time>2026-07-27T22:24:51Z</time>
      </trkpt>
      <trkpt lat="23.059555" lon="113.28399">
        <time>2026-07-27T22:24:56Z</time>
      </trkpt>
      <trkpt lat="23.059486" lon="113.284134">
        <time>2026-07-27T22:25:01Z</time>
      </trkpt>
      <trkpt lat="23.059433" lon="113.284296">
        <time>2026-07-27T22:25:06Z</time>
      </trkpt>
      <trkpt lat="23.059389" lon="113.284399">
        <time>2026-07-27T22:25:11Z</time>
      </trkpt>
      <trkpt lat="23.059347" lon="113.2845">
        <time>2026-07-27T22:25:16Z</time>
      </trkpt>
      <trkpt lat="23.059294" lon="113.284647">
        <time>2026-07-27T22:25:21Z</time>
      </trkpt>
      <trkpt lat="23.05924" lon="113.284795">
        <time>2026-07-27T22:25:26Z</time>
      </trkpt>
      <trkpt lat="23.059197" lon="113.284892">
        <time>2026-07-27T22:25:31Z</time>
      </trkpt>
      <trkpt lat="23.059155" lon="113.284986">
        <time>2026-07-27T22:25:36Z</time>
      </trkpt>
      <trkpt lat="23.0591" lon="113.285127">
        <time>2026-07-27T22:25:41Z</time>
      </trkpt>
      <trkpt lat="23.059039" lon="113.285268">
        <time>2026-07-27T22:25:46Z</time>
      </trkpt>
      <trkpt lat="23.058995" lon="113.285367">
        <time>2026-07-27T22:25:51Z</time>
      </trkpt>
      <trkpt lat="23.05895" lon="113.285466">
        <time>2026-07-27T22:25:56Z</time>
      </trkpt>
      <trkpt lat="23.058886" lon="113.285612">
        <time>2026-07-27T22:26:01Z</time>
      </trkpt>
      <trkpt lat="23.058806" lon="113.285759">
        <time>2026-07-27T22:26:06Z</time>
      </trkpt>
      <trkpt lat="23.058752" lon="113.285855">
        <time>2026-07-27T22:26:11Z</time>
      </trkpt>
      <trkpt lat="23.058716" lon="113.285959">
        <time>2026-07-27T22:26:16Z</time>
      </trkpt>
      <trkpt lat="23.058683" lon="113.286134">
        <time>2026-07-27T22:26:21Z</time>
      </trkpt>
      <trkpt lat="23.058718" lon="113.286298">
        <time>2026-07-27T22:26:26Z</time>
      </trkpt>
      <trkpt lat="23.058799" lon="113.286355">
        <time>2026-07-27T22:26:31Z</time>
      </trkpt>
      <trkpt lat="23.058897" lon="113.286389">
        <time>2026-07-27T22:26:36Z</time>
      </trkpt>
      <trkpt lat="23.059039" lon="113.286407">
        <time>2026-07-27T22:26:41Z</time>
      </trkpt>
      <trkpt lat="23.05918" lon="113.286424">
        <time>2026-07-27T22:26:46Z</time>
      </trkpt>
      <trkpt lat="23.059278" lon="113.286434">
        <time>2026-07-27T22:26:51Z</time>
      </trkpt>
      <trkpt lat="23.05938" lon="113.286443">
        <time>2026-07-27T22:26:56Z</time>
      </trkpt>
      <trkpt lat="23.05953" lon="113.286453">
        <time>2026-07-27T22:27:01Z</time>
      </trkpt>
      <trkpt lat="23.059673" lon="113.286447">
        <time>2026-07-27T22:27:06Z</time>
      </trkpt>
      <trkpt lat="23.059769" lon="113.286441">
        <time>2026-07-27T22:27:11Z</time>
      </trkpt>
      <trkpt lat="23.05986" lon="113.286432">
        <time>2026-07-27T22:27:16Z</time>
      </trkpt>
      <trkpt lat="23.06" lon="113.286445">
        <time>2026-07-27T22:27:21Z</time>
      </trkpt>
      <trkpt lat="23.060112" lon="113.286553">
        <time>2026-07-27T22:27:26Z</time>
      </trkpt>
      <trkpt lat="23.060134" lon="113.286687">
        <time>2026-07-27T22:27:31Z</time>
      </trkpt>
      <trkpt lat="23.060153" lon="113.286823">
        <time>2026-07-27T22:27:36Z</time>
      </trkpt>
      <trkpt lat="23.060201" lon="113.287009">
        <time>2026-07-27T22:27:41Z</time>
      </trkpt>
      <trkpt lat="23.060248" lon="113.287195">
        <time>2026-07-27T22:27:46Z</time>
      </trkpt>
      <trkpt lat="23.060269" lon="113.287314">
        <time>2026-07-27T22:27:51Z</time>
      </trkpt>
      <trkpt lat="23.060292" lon="113.287431">
        <time>2026-07-27T22:27:56Z</time>
      </trkpt>
      <trkpt lat="23.060313" lon="113.287604">
        <time>2026-07-27T22:28:01Z</time>
      </trkpt>
      <trkpt lat="23.060307" lon="113.287767">
        <time>2026-07-27T22:28:06Z</time>
      </trkpt>
      <trkpt lat="23.060254" lon="113.287868">
        <time>2026-07-27T22:28:11Z</time>
      </trkpt>
      <trkpt lat="23.060296" lon="113.287891">
        <time>2026-07-27T22:28:16Z</time>
      </trkpt>
      <trkpt lat="23.060317" lon="113.287767">
        <time>2026-07-27T22:28:21Z</time>
      </trkpt>
      <trkpt lat="23.060291" lon="113.287615">
        <time>2026-07-27T22:28:26Z</time>
      </trkpt>
      <trkpt lat="23.060268" lon="113.287538">
        <time>2026-07-27T22:28:31Z</time>
      </trkpt>
      <trkpt lat="23.060242" lon="113.28747">
        <time>2026-07-27T22:28:36Z</time>
      </trkpt>
      <trkpt lat="23.060188" lon="113.287353">
        <time>2026-07-27T22:28:41Z</time>
      </trkpt>
      <trkpt lat="23.060151" lon="113.287226">
        <time>2026-07-27T22:28:46Z</time>
      </trkpt>
      <trkpt lat="23.060144" lon="113.287098">
        <time>2026-07-27T22:28:51Z</time>
      </trkpt>
      <trkpt lat="23.060205" lon="113.28688">
        <time>2026-07-27T22:28:56Z</time>
      </trkpt>
      <trkpt lat="23.060225" lon="113.28673">
        <time>2026-07-27T22:29:01Z</time>
      </trkpt>
      <trkpt lat="23.060239" lon="113.286598">
        <time>2026-07-27T22:29:06Z</time>
      </trkpt>
      <trkpt lat="23.060124" lon="113.2865">
        <time>2026-07-27T22:29:11Z</time>
      </trkpt>
      <trkpt lat="23.060006" lon="113.286474">
        <time>2026-07-27T22:29:16Z</time>
      </trkpt>
      <trkpt lat="23.059897" lon="113.286447">
        <time>2026-07-27T22:29:21Z</time>
      </trkpt>
      <trkpt lat="23.05975" lon="113.286406">
        <time>2026-07-27T22:29:26Z</time>
      </trkpt>
      <trkpt lat="23.05959" lon="113.286352">
        <time>2026-07-27T22:29:31Z</time>
      </trkpt>
      <trkpt lat="23.059484" lon="113.28632">
        <time>2026-07-27T22:29:36Z</time>
      </trkpt>
      <trkpt lat="23.059381" lon="113.28629">
        <time>2026-07-27T22:29:41Z</time>
      </trkpt>
      <trkpt lat="23.059228" lon="113.286258">
        <time>2026-07-27T22:29:46Z</time>
      </trkpt>
      <trkpt lat="23.05908" lon="113.286209">
        <time>2026-07-27T22:29:51Z</time>
      </trkpt>
      <trkpt lat="23.059013" lon="113.286123">
        <time>2026-07-27T22:29:56Z</time>
      </trkpt>
      <trkpt lat="23.058991" lon="113.286009">
        <time>2026-07-27T22:30:01Z</time>
      </trkpt>
      <trkpt lat="23.059023" lon="113.285833">
        <time>2026-07-27T22:30:06Z</time>
      </trkpt>
      <trkpt lat="23.059075" lon="113.285674">
        <time>2026-07-27T22:30:11Z</time>
      </trkpt>
      <trkpt lat="23.059107" lon="113.285572">
        <time>2026-07-27T22:30:16Z</time>
      </trkpt>
      <trkpt lat="23.059151" lon="113.285472">
        <time>2026-07-27T22:30:21Z</time>
      </trkpt>
      <trkpt lat="23.059223" lon="113.285326">
        <time>2026-07-27T22:30:26Z</time>
      </trkpt>
      <trkpt lat="23.059297" lon="113.285188">
        <time>2026-07-27T22:30:31Z</time>
      </trkpt>
      <trkpt lat="23.059335" lon="113.285084">
        <time>2026-07-27T22:30:36Z</time>
      </trkpt>
      <trkpt lat="23.05935" lon="113.284982">
        <time>2026-07-27T22:30:41Z</time>
      </trkpt>
      <trkpt lat="23.059351" lon="113.284829">
        <time>2026-07-27T22:30:46Z</time>
      </trkpt>
      <trkpt lat="23.059407" lon="113.284677">
        <time>2026-07-27T22:30:51Z</time>
      </trkpt>
      <trkpt lat="23.059453" lon="113.284577">
        <time>2026-07-27T22:30:56Z</time>
      </trkpt>
      <trkpt lat="23.059489" lon="113.284474">
        <time>2026-07-27T22:31:01Z</time>
      </trkpt>
      <trkpt lat="23.059542" lon="113.284325">
        <time>2026-07-27T22:31:06Z</time>
      </trkpt>
      <trkpt lat="23.059609" lon="113.284171">
        <time>2026-07-27T22:31:11Z</time>
      </trkpt>
      <trkpt lat="23.059649" lon="113.28407">
        <time>2026-07-27T22:31:16Z</time>
      </trkpt>
      <trkpt lat="23.059686" lon="113.283972">
        <time>2026-07-27T22:31:21Z</time>
      </trkpt>
      <trkpt lat="23.059737" lon="113.283824">
        <time>2026-07-27T22:31:26Z</time>
      </trkpt>
      <trkpt lat="23.059795" lon="113.283665">
        <time>2026-07-27T22:31:31Z</time>
      </trkpt>
      <trkpt lat="23.059842" lon="113.283558">
        <time>2026-07-27T22:31:36Z</time>
      </trkpt>
      <trkpt lat="23.059889" lon="113.283455">
        <time>2026-07-27T22:31:41Z</time>
      </trkpt>
      <trkpt lat="23.059978" lon="113.283315">
        <time>2026-07-27T22:31:46Z</time>
      </trkpt>
      <trkpt lat="23.060074" lon="113.283181">
        <time>2026-07-27T22:31:51Z</time>
      </trkpt>
      <trkpt lat="23.060123" lon="113.283069">
        <time>2026-07-27T22:31:56Z</time>
      </trkpt>
      <trkpt lat="23.06017" lon="113.282958">
        <time>2026-07-27T22:32:01Z</time>
      </trkpt>
      <trkpt lat="23.060231" lon="113.2828">
        <time>2026-07-27T22:32:06Z</time>
      </trkpt>
      <trkpt lat="23.060308" lon="113.28265">
        <time>2026-07-27T22:32:11Z</time>
      </trkpt>
      <trkpt lat="23.06035" lon="113.282547">
        <time>2026-07-27T22:32:16Z</time>
      </trkpt>
      <trkpt lat="23.060386" lon="113.28244">
        <time>2026-07-27T22:32:21Z</time>
      </trkpt>
      <trkpt lat="23.060447" lon="113.282289">
        <time>2026-07-27T22:32:26Z</time>
      </trkpt>
      <trkpt lat="23.060505" lon="113.282134">
        <time>2026-07-27T22:32:31Z</time>
      </trkpt>
      <trkpt lat="23.060549" lon="113.282026">
        <time>2026-07-27T22:32:36Z</time>
      </trkpt>
      <trkpt lat="23.060587" lon="113.281916">
        <time>2026-07-27T22:32:41Z</time>
      </trkpt>
      <trkpt lat="23.060639" lon="113.281743">
        <time>2026-07-27T22:32:46Z</time>
      </trkpt>
      <trkpt lat="23.060706" lon="113.281585">
        <time>2026-07-27T22:32:51Z</time>
      </trkpt>
      <trkpt lat="23.060755" lon="113.281482">
        <time>2026-07-27T22:32:56Z</time>
      </trkpt>
      <trkpt lat="23.060802" lon="113.281374">
        <time>2026-07-27T22:33:01Z</time>
      </trkpt>
      <trkpt lat="23.060875" lon="113.281207">
        <time>2026-07-27T22:33:06Z</time>
      </trkpt>
      <trkpt lat="23.060951" lon="113.281046">
        <time>2026-07-27T22:33:11Z</time>
      </trkpt>
      <trkpt lat="23.060999" lon="113.280941">
        <time>2026-07-27T22:33:16Z</time>
      </trkpt>
      <trkpt lat="23.061043" lon="113.280835">
        <time>2026-07-27T22:33:21Z</time>
      </trkpt>
      <trkpt lat="23.061122" lon="113.280671">
        <time>2026-07-27T22:33:26Z</time>
      </trkpt>
      <trkpt lat="23.061193" lon="113.28049">
        <time>2026-07-27T22:33:31Z</time>
      </trkpt>
      <trkpt lat="23.061232" lon="113.280374">
        <time>2026-07-27T22:33:36Z</time>
      </trkpt>
      <trkpt lat="23.061271" lon="113.280262">
        <time>2026-07-27T22:33:41Z</time>
      </trkpt>
      <trkpt lat="23.061342" lon="113.28011">
        <time>2026-07-27T22:33:46Z</time>
      </trkpt>
      <trkpt lat="23.061414" lon="113.279966">
        <time>2026-07-27T22:33:51Z</time>
      </trkpt>
      <trkpt lat="23.061467" lon="113.279869">
        <time>2026-07-27T22:33:56Z</time>
      </trkpt>
      <trkpt lat="23.061512" lon="113.279773">
        <time>2026-07-27T22:34:01Z</time>
      </trkpt>
      <trkpt lat="23.061567" lon="113.279632">
        <time>2026-07-27T22:34:06Z</time>
      </trkpt>
      <trkpt lat="23.061629" lon="113.279499">
        <time>2026-07-27T22:34:11Z</time>
      </trkpt>
      <trkpt lat="23.061669" lon="113.2794">
        <time>2026-07-27T22:34:16Z</time>
      </trkpt>
      <trkpt lat="23.061709" lon="113.279296">
        <time>2026-07-27T22:34:21Z</time>
      </trkpt>
      <trkpt lat="23.061773" lon="113.27914">
        <time>2026-07-27T22:34:26Z</time>
      </trkpt>
      <trkpt lat="23.061852" lon="113.278991">
        <time>2026-07-27T22:34:31Z</time>
      </trkpt>
      <trkpt lat="23.061908" lon="113.278894">
        <time>2026-07-27T22:34:36Z</time>
      </trkpt>
      <trkpt lat="23.061953" lon="113.278792">
        <time>2026-07-27T22:34:41Z</time>
      </trkpt>
      <trkpt lat="23.061987" lon="113.278634">
        <time>2026-07-27T22:34:46Z</time>
      </trkpt>
      <trkpt lat="23.061985" lon="113.278467">
        <time>2026-07-27T22:34:51Z</time>
      </trkpt>
      <trkpt lat="23.061979" lon="113.278351">
        <time>2026-07-27T22:34:56Z</time>
      </trkpt>
      <trkpt lat="23.061973" lon="113.278234">
        <time>2026-07-27T22:35:01Z</time>
      </trkpt>
      <trkpt lat="23.061958" lon="113.278054">
        <time>2026-07-27T22:35:06Z</time>
      </trkpt>
      <trkpt lat="23.061954" lon="113.277866">
        <time>2026-07-27T22:35:11Z</time>
      </trkpt>
      <trkpt lat="23.061968" lon="113.277737">
        <time>2026-07-27T22:35:16Z</time>
      </trkpt>
      <trkpt lat="23.062001" lon="113.277614">
        <time>2026-07-27T22:35:21Z</time>
      </trkpt>
      <trkpt lat="23.062071" lon="113.277438">
        <time>2026-07-27T22:35:26Z</time>
      </trkpt>
      <trkpt lat="23.062136" lon="113.277271">
        <time>2026-07-27T22:35:31Z</time>
      </trkpt>
      <trkpt lat="23.062176" lon="113.277161">
        <time>2026-07-27T22:35:36Z</time>
      </trkpt>
      <trkpt lat="23.062213" lon="113.277053">
        <time>2026-07-27T22:35:41Z</time>
      </trkpt>
      <trkpt lat="23.062273" lon="113.276884">
        <time>2026-07-27T22:35:46Z</time>
      </trkpt>
      <trkpt lat="23.062343" lon="113.276711">
        <time>2026-07-27T22:35:51Z</time>
      </trkpt>
      <trkpt lat="23.062391" lon="113.276597">
        <time>2026-07-27T22:35:56Z</time>
      </trkpt>
      <trkpt lat="23.062433" lon="113.276484">
        <time>2026-07-27T22:36:01Z</time>
      </trkpt>
      <trkpt lat="23.062498" lon="113.276319">
        <time>2026-07-27T22:36:06Z</time>
      </trkpt>
      <trkpt lat="23.062563" lon="113.276154">
        <time>2026-07-27T22:36:11Z</time>
      </trkpt>
      <trkpt lat="23.062613" lon="113.276051">
        <time>2026-07-27T22:36:16Z</time>
      </trkpt>
      <trkpt lat="23.062671" lon="113.275955">
        <time>2026-07-27T22:36:21Z</time>
      </trkpt>
      <trkpt lat="23.062771" lon="113.275825">
        <time>2026-07-27T22:36:26Z</time>
      </trkpt>
      <trkpt lat="23.062885" lon="113.275699">
        <time>2026-07-27T22:36:31Z</time>
      </trkpt>
      <trkpt lat="23.062964" lon="113.275614">
        <time>2026-07-27T22:36:36Z</time>
      </trkpt>
      <trkpt lat="23.063042" lon="113.275526">
        <time>2026-07-27T22:36:41Z</time>
      </trkpt>
      <trkpt lat="23.063124" lon="113.275389">
        <time>2026-07-27T22:36:46Z</time>
      </trkpt>
      <trkpt lat="23.063208" lon="113.275245">
        <time>2026-07-27T22:36:51Z</time>
      </trkpt>
      <trkpt lat="23.063272" lon="113.275149">
        <time>2026-07-27T22:36:56Z</time>
      </trkpt>
      <trkpt lat="23.063322" lon="113.27505">
        <time>2026-07-27T22:37:01Z</time>
      </trkpt>
      <trkpt lat="23.063379" lon="113.274898">
        <time>2026-07-27T22:37:06Z</time>
      </trkpt>
      <trkpt lat="23.063428" lon="113.274757">
        <time>2026-07-27T22:37:11Z</time>
      </trkpt>
      <trkpt lat="23.063467" lon="113.274665">
        <time>2026-07-27T22:37:16Z</time>
      </trkpt>
      <trkpt lat="23.063509" lon="113.274574">
        <time>2026-07-27T22:37:21Z</time>
      </trkpt>
      <trkpt lat="23.063564" lon="113.274435">
        <time>2026-07-27T22:37:26Z</time>
      </trkpt>
      <trkpt lat="23.063645" lon="113.274309">
        <time>2026-07-27T22:37:31Z</time>
      </trkpt>
      <trkpt lat="23.063709" lon="113.274228">
        <time>2026-07-27T22:37:36Z</time>
      </trkpt>
      <trkpt lat="23.063777" lon="113.274154">
        <time>2026-07-27T22:37:41Z</time>
      </trkpt>
      <trkpt lat="23.063866" lon="113.274036">
        <time>2026-07-27T22:37:46Z</time>
      </trkpt>
      <trkpt lat="23.063957" lon="113.273909">
        <time>2026-07-27T22:37:51Z</time>
      </trkpt>
      <trkpt lat="23.064016" lon="113.273824">
        <time>2026-07-27T22:37:56Z</time>
      </trkpt>
      <trkpt lat="23.064088" lon="113.273737">
        <time>2026-07-27T22:38:01Z</time>
      </trkpt>
      <trkpt lat="23.064209" lon="113.273641">
        <time>2026-07-27T22:38:06Z</time>
      </trkpt>
      <trkpt lat="23.064313" lon="113.273543">
        <time>2026-07-27T22:38:11Z</time>
      </trkpt>
      <trkpt lat="23.064392" lon="113.273467">
        <time>2026-07-27T22:38:16Z</time>
      </trkpt>
      <trkpt lat="23.064466" lon="113.273389">
        <time>2026-07-27T22:38:21Z</time>
      </trkpt>
      <trkpt lat="23.064561" lon="113.273264">
        <time>2026-07-27T22:38:26Z</time>
      </trkpt>
      <trkpt lat="23.064594" lon="113.27311">
        <time>2026-07-27T22:38:31Z</time>
      </trkpt>
      <trkpt lat="23.064571" lon="113.272995">
        <time>2026-07-27T22:38:36Z</time>
      </trkpt>
      <trkpt lat="23.064532" lon="113.272877">
        <time>2026-07-27T22:38:41Z</time>
      </trkpt>
      <trkpt lat="23.06448" lon="113.272704">
        <time>2026-07-27T22:38:46Z</time>
      </trkpt>
      <trkpt lat="23.064487" lon="113.272538">
        <time>2026-07-27T22:38:51Z</time>
      </trkpt>
      <trkpt lat="23.064546" lon="113.272435">
        <time>2026-07-27T22:38:56Z</time>
      </trkpt>
      <trkpt lat="23.064571" lon="113.272319">
        <time>2026-07-27T22:39:01Z</time>
      </trkpt>
      <trkpt lat="23.064591" lon="113.272145">
        <time>2026-07-27T22:39:06Z</time>
      </trkpt>
      <trkpt lat="23.064667" lon="113.271991">
        <time>2026-07-27T22:39:11Z</time>
      </trkpt>
      <trkpt lat="23.064726" lon="113.271891">
        <time>2026-07-27T22:39:16Z</time>
      </trkpt>
      <trkpt lat="23.064777" lon="113.271793">
        <time>2026-07-27T22:39:21Z</time>
      </trkpt>
      <trkpt lat="23.06485" lon="113.271641">
        <time>2026-07-27T22:39:26Z</time>
      </trkpt>
      <trkpt lat="23.064935" lon="113.271487">
        <time>2026-07-27T22:39:31Z</time>
      </trkpt>
      <trkpt lat="23.064982" lon="113.271384">
        <time>2026-07-27T22:39:36Z</time>
      </trkpt>
      <trkpt lat="23.065029" lon="113.271284">
        <time>2026-07-27T22:39:41Z</time>
      </trkpt>
      <trkpt lat="23.065123" lon="113.271154">
        <time>2026-07-27T22:39:46Z</time>
      </trkpt>
      <trkpt lat="23.065188" lon="113.271004">
        <time>2026-07-27T22:39:51Z</time>
      </trkpt>
      <trkpt lat="23.065194" lon="113.270878">
        <time>2026-07-27T22:39:56Z</time>
      </trkpt>
      <trkpt lat="23.065227" lon="113.270763">
        <time>2026-07-27T22:40:01Z</time>
      </trkpt>
      <trkpt lat="23.0653" lon="113.2706">
        <time>2026-07-27T22:40:06Z</time>
      </trkpt>
      <trkpt lat="23.06538" lon="113.270445">
        <time>2026-07-27T22:40:11Z</time>
      </trkpt>
      <trkpt lat="23.065436" lon="113.270349">
        <time>2026-07-27T22:40:16Z</time>
      </trkpt>
      <trkpt lat="23.06549" lon="113.270253">
        <time>2026-07-27T22:40:21Z</time>
      </trkpt>
      <trkpt lat="23.06556" lon="113.2701">
        <time>2026-07-27T22:40:26Z</time>
      </trkpt>
      <trkpt lat="23.065618" lon="113.269941">
        <time>2026-07-27T22:40:31Z</time>
      </trkpt>
      <trkpt lat="23.065652" lon="113.269833">
        <time>2026-07-27T22:40:36Z</time>
      </trkpt>
      <trkpt lat="23.065689" lon="113.269725">
        <time>2026-07-27T22:40:41Z</time>
      </trkpt>
      <trkpt lat="23.065752" lon="113.269562">
        <time>2026-07-27T22:40:46Z</time>
      </trkpt>
      <trkpt lat="23.065783" lon="113.26939">
        <time>2026-07-27T22:40:51Z</time>
      </trkpt>
      <trkpt lat="23.065815" lon="113.269271">
        <time>2026-07-27T22:40:56Z</time>
      </trkpt>
      <trkpt lat="23.065853" lon="113.269154">
        <time>2026-07-27T22:41:01Z</time>
      </trkpt>
      <trkpt lat="23.06591" lon="113.268982">
        <time>2026-07-27T22:41:06Z</time>
      </trkpt>
      <trkpt lat="23.065981" lon="113.268825">
        <time>2026-07-27T22:41:11Z</time>
      </trkpt>
      <trkpt lat="23.066025" lon="113.26872">
        <time>2026-07-27T22:41:16Z</time>
      </trkpt>
      <trkpt lat="23.06607" lon="113.268613">
        <time>2026-07-27T22:41:21Z</time>
      </trkpt>
      <trkpt lat="23.066144" lon="113.268456">
        <time>2026-07-27T22:41:26Z</time>
      </trkpt>
      <trkpt lat="23.066238" lon="113.268308">
        <time>2026-07-27T22:41:31Z</time>
      </trkpt>
      <trkpt lat="23.06632" lon="113.268219">
        <time>2026-07-27T22:41:36Z</time>
      </trkpt>
      <trkpt lat="23.066417" lon="113.268156">
        <time>2026-07-27T22:41:41Z</time>
      </trkpt>
      <trkpt lat="23.066572" lon="113.26813">
        <time>2026-07-27T22:41:46Z</time>
      </trkpt>
      <trkpt lat="23.066718" lon="113.268141">
        <time>2026-07-27T22:41:51Z</time>
      </trkpt>
      <trkpt lat="23.06682" lon="113.268147">
        <time>2026-07-27T22:41:56Z</time>
      </trkpt>
      <trkpt lat="23.066927" lon="113.268159">
        <time>2026-07-27T22:42:01Z</time>
      </trkpt>
      <trkpt lat="23.067067" lon="113.268206">
        <time>2026-07-27T22:42:06Z</time>
      </trkpt>
      <trkpt lat="23.067192" lon="113.268274">
        <time>2026-07-27T22:42:11Z</time>
      </trkpt>
      <trkpt lat="23.067279" lon="113.268325">
        <time>2026-07-27T22:42:16Z</time>
      </trkpt>
      <trkpt lat="23.067362" lon="113.268384">
        <time>2026-07-27T22:42:21Z</time>
      </trkpt>
      <trkpt lat="23.067484" lon="113.26847">
        <time>2026-07-27T22:42:26Z</time>
      </trkpt>
      <trkpt lat="23.067633" lon="113.268543">
        <time>2026-07-27T22:42:31Z</time>
      </trkpt>
      <trkpt lat="23.067733" lon="113.268593">
        <time>2026-07-27T22:42:36Z</time>
      </trkpt>
      <trkpt lat="23.067833" lon="113.268647">
        <time>2026-07-27T22:42:41Z</time>
      </trkpt>
      <trkpt lat="23.067961" lon="113.268624">
        <time>2026-07-27T22:42:46Z</time>
      </trkpt>
      <trkpt lat="23.067873" lon="113.268514">
        <time>2026-07-27T22:42:51Z</time>
      </trkpt>
      <trkpt lat="23.067778" lon="113.268462">
        <time>2026-07-27T22:42:56Z</time>
      </trkpt>
      <trkpt lat="23.067691" lon="113.268411">
        <time>2026-07-27T22:43:01Z</time>
      </trkpt>
      <trkpt lat="23.067558" lon="113.268332">
        <time>2026-07-27T22:43:06Z</time>
      </trkpt>
      <trkpt lat="23.067418" lon="113.268266">
        <time>2026-07-27T22:43:11Z</time>
      </trkpt>
      <trkpt lat="23.067322" lon="113.268233">
        <time>2026-07-27T22:43:16Z</time>
      </trkpt>
      <trkpt lat="23.067223" lon="113.268202">
        <time>2026-07-27T22:43:21Z</time>
      </trkpt>
      <trkpt lat="23.067082" lon="113.268132">
        <time>2026-07-27T22:43:26Z</time>
      </trkpt>
      <trkpt lat="23.066946" lon="113.268071">
        <time>2026-07-27T22:43:31Z</time>
      </trkpt>
      <trkpt lat="23.066844" lon="113.268031">
        <time>2026-07-27T22:43:36Z</time>
      </trkpt>
      <trkpt lat="23.066731" lon="113.268014">
        <time>2026-07-27T22:43:41Z</time>
      </trkpt>
      <trkpt lat="23.066577" lon="113.267995">
        <time>2026-07-27T22:43:46Z</time>
      </trkpt>
      <trkpt lat="23.066433" lon="113.26794">
        <time>2026-07-27T22:43:51Z</time>
      </trkpt>
      <trkpt lat="23.06633" lon="113.267934">
        <time>2026-07-27T22:43:56Z</time>
      </trkpt>
      <trkpt lat="23.06623" lon="113.267962">
        <time>2026-07-27T22:44:01Z</time>
      </trkpt>
      <trkpt lat="23.066115" lon="113.268068">
        <time>2026-07-27T22:44:06Z</time>
      </trkpt>
      <trkpt lat="23.066013" lon="113.268201">
        <time>2026-07-27T22:44:11Z</time>
      </trkpt>
      <trkpt lat="23.065952" lon="113.268292">
        <time>2026-07-27T22:44:16Z</time>
      </trkpt>
      <trkpt lat="23.065893" lon="113.268388">
        <time>2026-07-27T22:44:21Z</time>
      </trkpt>
      <trkpt lat="23.065802" lon="113.268537">
        <time>2026-07-27T22:44:26Z</time>
      </trkpt>
      <trkpt lat="23.065727" lon="113.26869">
        <time>2026-07-27T22:44:31Z</time>
      </trkpt>
      <trkpt lat="23.065684" lon="113.268801">
        <time>2026-07-27T22:44:36Z</time>
      </trkpt>
      <trkpt lat="23.065644" lon="113.268912">
        <time>2026-07-27T22:44:41Z</time>
      </trkpt>
      <trkpt lat="23.065593" lon="113.269074">
        <time>2026-07-27T22:44:46Z</time>
      </trkpt>
      <trkpt lat="23.065551" lon="113.269227">
        <time>2026-07-27T22:44:51Z</time>
      </trkpt>
      <trkpt lat="23.065522" lon="113.269329">
        <time>2026-07-27T22:44:56Z</time>
      </trkpt>
      <trkpt lat="23.065491" lon="113.269438">
        <time>2026-07-27T22:45:01Z</time>
      </trkpt>
      <trkpt lat="23.065451" lon="113.26961">
        <time>2026-07-27T22:45:06Z</time>
      </trkpt>
      <trkpt lat="23.065422" lon="113.269767">
        <time>2026-07-27T22:45:11Z</time>
      </trkpt>
      <trkpt lat="23.065396" lon="113.269864">
        <time>2026-07-27T22:45:16Z</time>
      </trkpt>
      <trkpt lat="23.065366" lon="113.269963">
        <time>2026-07-27T22:45:21Z</time>
      </trkpt>
      <trkpt lat="23.065309" lon="113.270114">
        <time>2026-07-27T22:45:26Z</time>
      </trkpt>
      <trkpt lat="23.065242" lon="113.270268">
        <time>2026-07-27T22:45:31Z</time>
      </trkpt>
      <trkpt lat="23.065196" lon="113.270372">
        <time>2026-07-27T22:45:36Z</time>
      </trkpt>
      <trkpt lat="23.065147" lon="113.270477">
        <time>2026-07-27T22:45:41Z</time>
      </trkpt>
      <trkpt lat="23.065078" lon="113.27063">
        <time>2026-07-27T22:45:46Z</time>
      </trkpt>
      <trkpt lat="23.065004" lon="113.270777">
        <time>2026-07-27T22:45:51Z</time>
      </trkpt>
      <trkpt lat="23.064951" lon="113.270876">
        <time>2026-07-27T22:45:56Z</time>
      </trkpt>
      <trkpt lat="23.064905" lon="113.270978">
        <time>2026-07-27T22:46:01Z</time>
      </trkpt>
      <trkpt lat="23.064839" lon="113.27113">
        <time>2026-07-27T22:46:06Z</time>
      </trkpt>
      <trkpt lat="23.064774" lon="113.271272">
        <time>2026-07-27T22:46:11Z</time>
      </trkpt>
      <trkpt lat="23.064729" lon="113.271365">
        <time>2026-07-27T22:46:16Z</time>
      </trkpt>
      <trkpt lat="23.064682" lon="113.271457">
        <time>2026-07-27T22:46:21Z</time>
      </trkpt>
      <trkpt lat="23.064607" lon="113.271602">
        <time>2026-07-27T22:46:26Z</time>
      </trkpt>
      <trkpt lat="23.064534" lon="113.271749">
        <time>2026-07-27T22:46:31Z</time>
      </trkpt>
      <trkpt lat="23.064485" lon="113.271848">
        <time>2026-07-27T22:46:36Z</time>
      </trkpt>
      <trkpt lat="23.06444" lon="113.271955">
        <time>2026-07-27T22:46:41Z</time>
      </trkpt>
      <trkpt lat="23.064373" lon="113.272123">
        <time>2026-07-27T22:46:46Z</time>
      </trkpt>
      <trkpt lat="23.064339" lon="113.272293">
        <time>2026-07-27T22:46:51Z</time>
      </trkpt>
      <trkpt lat="23.064332" lon="113.272403">
        <time>2026-07-27T22:46:56Z</time>
      </trkpt>
      <trkpt lat="23.064327" lon="113.272513">
        <time>2026-07-27T22:47:01Z</time>
      </trkpt>
      <trkpt lat="23.06435" lon="113.272674">
        <time>2026-07-27T22:47:06Z</time>
      </trkpt>
      <trkpt lat="23.064393" lon="113.272835">
        <time>2026-07-27T22:47:11Z</time>
      </trkpt>
      <trkpt lat="23.064421" lon="113.272941">
        <time>2026-07-27T22:47:16Z</time>
      </trkpt>
      <trkpt lat="23.064449" lon="113.273045">
        <time>2026-07-27T22:47:21Z</time>
      </trkpt>
      <trkpt lat="23.064452" lon="113.273207">
        <time>2026-07-27T22:47:26Z</time>
      </trkpt>
      <trkpt lat="23.064356" lon="113.273335">
        <time>2026-07-27T22:47:31Z</time>
      </trkpt>
      <trkpt lat="23.06426" lon="113.273395">
        <time>2026-07-27T22:47:36Z</time>
      </trkpt>
      <trkpt lat="23.06417" lon="113.273454">
        <time>2026-07-27T22:47:41Z</time>
      </trkpt>
      <trkpt lat="23.064046" lon="113.273554">
        <time>2026-07-27T22:47:46Z</time>
      </trkpt>
      <trkpt lat="23.063924" lon="113.273662">
        <time>2026-07-27T22:47:51Z</time>
      </trkpt>
      <trkpt lat="23.063857" lon="113.27375">
        <time>2026-07-27T22:47:56Z</time>
      </trkpt>
      <trkpt lat="23.063801" lon="113.273848">
        <time>2026-07-27T22:48:01Z</time>
      </trkpt>
      <trkpt lat="23.063722" lon="113.273987">
        <time>2026-07-27T22:48:06Z</time>
      </trkpt>
      <trkpt lat="23.06362" lon="113.274079">
        <time>2026-07-27T22:48:11Z</time>
      </trkpt>
      <trkpt lat="23.063534" lon="113.27408">
        <time>2026-07-27T22:48:16Z</time>
      </trkpt>
      <trkpt lat="23.063443" lon="113.27406">
        <time>2026-07-27T22:48:21Z</time>
      </trkpt>
      <trkpt lat="23.063352" lon="113.274213">
        <time>2026-07-27T22:48:26Z</time>
      </trkpt>
      <trkpt lat="23.063281" lon="113.274379">
        <time>2026-07-27T22:48:31Z</time>
      </trkpt>
      <trkpt lat="23.063254" lon="113.274492">
        <time>2026-07-27T22:48:36Z</time>
      </trkpt>
      <trkpt lat="23.063224" lon="113.2746">
        <time>2026-07-27T22:48:41Z</time>
      </trkpt>
      <trkpt lat="23.063174" lon="113.274747">
        <time>2026-07-27T22:48:46Z</time>
      </trkpt>
      <trkpt lat="23.063114" lon="113.274897">
        <time>2026-07-27T22:48:51Z</time>
      </trkpt>
      <trkpt lat="23.063087" lon="113.275007">
        <time>2026-07-27T22:48:56Z</time>
      </trkpt>
      <trkpt lat="23.063052" lon="113.275111">
        <time>2026-07-27T22:49:01Z</time>
      </trkpt>
      <trkpt lat="23.06294" lon="113.275204">
        <time>2026-07-27T22:49:06Z</time>
      </trkpt>
      <trkpt lat="23.062894" lon="113.275348">
        <time>2026-07-27T22:49:11Z</time>
      </trkpt>
      <trkpt lat="23.062919" lon="113.27546">
        <time>2026-07-27T22:49:16Z</time>
      </trkpt>
      <trkpt lat="23.062895" lon="113.275557">
        <time>2026-07-27T22:49:21Z</time>
      </trkpt>
      <trkpt lat="23.062782" lon="113.275669">
        <time>2026-07-27T22:49:26Z</time>
      </trkpt>
      <trkpt lat="23.062679" lon="113.275793">
        <time>2026-07-27T22:49:31Z</time>
      </trkpt>
      <trkpt lat="23.062609" lon="113.275864">
        <time>2026-07-27T22:49:36Z</time>
      </trkpt>
      <trkpt lat="23.06255" lon="113.275949">
        <time>2026-07-27T22:49:41Z</time>
      </trkpt>
      <trkpt lat="23.062469" lon="113.276086">
        <time>2026-07-27T22:49:46Z</time>
      </trkpt>
      <trkpt lat="23.062398" lon="113.276241">
        <time>2026-07-27T22:49:51Z</time>
      </trkpt>
      <trkpt lat="23.06236" lon="113.276346">
        <time>2026-07-27T22:49:56Z</time>
      </trkpt>
      <trkpt lat="23.062319" lon="113.27645">
        <time>2026-07-27T22:50:01Z</time>
      </trkpt>
      <trkpt lat="23.062263" lon="113.276608">
        <time>2026-07-27T22:50:06Z</time>
      </trkpt>
      <trkpt lat="23.062219" lon="113.276753">
        <time>2026-07-27T22:50:11Z</time>
      </trkpt>
      <trkpt lat="23.062186" lon="113.276851">
        <time>2026-07-27T22:50:16Z</time>
      </trkpt>
      <trkpt lat="23.06215" lon="113.276949">
        <time>2026-07-27T22:50:21Z</time>
      </trkpt>
      <trkpt lat="23.062101" lon="113.277103">
        <time>2026-07-27T22:50:26Z</time>
      </trkpt>
      <trkpt lat="23.062028" lon="113.277266">
        <time>2026-07-27T22:50:31Z</time>
      </trkpt>
      <trkpt lat="23.061986" lon="113.277382">
        <time>2026-07-27T22:50:36Z</time>
      </trkpt>
      <trkpt lat="23.061942" lon="113.277491">
        <time>2026-07-27T22:50:41Z</time>
      </trkpt>
      <trkpt lat="23.061885" lon="113.277648">
        <time>2026-07-27T22:50:46Z</time>
      </trkpt>
      <trkpt lat="23.061851" lon="113.277805">
        <time>2026-07-27T22:50:51Z</time>
      </trkpt>
      <trkpt lat="23.061848" lon="113.277912">
        <time>2026-07-27T22:50:56Z</time>
      </trkpt>
      <trkpt lat="23.061846" lon="113.278019">
        <time>2026-07-27T22:51:01Z</time>
      </trkpt>
      <trkpt lat="23.061854" lon="113.278175">
        <time>2026-07-27T22:51:06Z</time>
      </trkpt>
      <trkpt lat="23.061858" lon="113.278331">
        <time>2026-07-27T22:51:11Z</time>
      </trkpt>
      <trkpt lat="23.061862" lon="113.278434">
        <time>2026-07-27T22:51:16Z</time>
      </trkpt>
      <trkpt lat="23.061869" lon="113.278531">
        <time>2026-07-27T22:51:21Z</time>
      </trkpt>
      <trkpt lat="23.061852" lon="113.278672">
        <time>2026-07-27T22:51:26Z</time>
      </trkpt>
      <trkpt lat="23.061784" lon="113.278747">
        <time>2026-07-27T22:51:31Z</time>
      </trkpt>
      <trkpt lat="23.061727" lon="113.278812">
        <time>2026-07-27T22:51:36Z</time>
      </trkpt>
      <trkpt lat="23.061694" lon="113.278917">
        <time>2026-07-27T22:51:41Z</time>
      </trkpt>
      <trkpt lat="23.06165" lon="113.279077">
        <time>2026-07-27T22:51:46Z</time>
      </trkpt>
      <trkpt lat="23.06158" lon="113.279227">
        <time>2026-07-27T22:51:51Z</time>
      </trkpt>
      <trkpt lat="23.061533" lon="113.279327">
        <time>2026-07-27T22:51:56Z</time>
      </trkpt>
      <trkpt lat="23.061486" lon="113.279424">
        <time>2026-07-27T22:52:01Z</time>
      </trkpt>
      <trkpt lat="23.061418" lon="113.279582">
        <time>2026-07-27T22:52:06Z</time>
      </trkpt>
      <trkpt lat="23.061356" lon="113.279737">
        <time>2026-07-27T22:52:11Z</time>
      </trkpt>
      <trkpt lat="23.061314" lon="113.27984">
        <time>2026-07-27T22:52:16Z</time>
      </trkpt>
      <trkpt lat="23.061271" lon="113.279941">
        <time>2026-07-27T22:52:21Z</time>
      </trkpt>
      <trkpt lat="23.061199" lon="113.280089">
        <time>2026-07-27T22:52:26Z</time>
      </trkpt>
      <trkpt lat="23.061135" lon="113.280244">
        <time>2026-07-27T22:52:31Z</time>
      </trkpt>
      <trkpt lat="23.061091" lon="113.280343">
        <time>2026-07-27T22:52:36Z</time>
      </trkpt>
      <trkpt lat="23.061042" lon="113.280444">
        <time>2026-07-27T22:52:41Z</time>
      </trkpt>
      <trkpt lat="23.060979" lon="113.280599">
        <time>2026-07-27T22:52:46Z</time>
      </trkpt>
      <trkpt lat="23.060916" lon="113.280755">
        <time>2026-07-27T22:52:51Z</time>
      </trkpt>
      <trkpt lat="23.060873" lon="113.280863">
        <time>2026-07-27T22:52:56Z</time>
      </trkpt>
      <trkpt lat="23.060826" lon="113.28097">
        <time>2026-07-27T22:53:01Z</time>
      </trkpt>
      <trkpt lat="23.060759" lon="113.281129">
        <time>2026-07-27T22:53:06Z</time>
      </trkpt>
      <trkpt lat="23.060691" lon="113.281285">
        <time>2026-07-27T22:53:11Z</time>
      </trkpt>
      <trkpt lat="23.060642" lon="113.281386">
        <time>2026-07-27T22:53:16Z</time>
      </trkpt>
      <trkpt lat="23.060597" lon="113.281489">
        <time>2026-07-27T22:53:21Z</time>
      </trkpt>
      <trkpt lat="23.060538" lon="113.281652">
        <time>2026-07-27T22:53:26Z</time>
      </trkpt>
      <trkpt lat="23.060469" lon="113.281803">
        <time>2026-07-27T22:53:31Z</time>
      </trkpt>
      <trkpt lat="23.060422" lon="113.281903">
        <time>2026-07-27T22:53:36Z</time>
      </trkpt>
      <trkpt lat="23.060378" lon="113.282006">
        <time>2026-07-27T22:53:41Z</time>
      </trkpt>
      <trkpt lat="23.060312" lon="113.282159">
        <time>2026-07-27T22:53:46Z</time>
      </trkpt>
      <trkpt lat="23.060247" lon="113.282324">
        <time>2026-07-27T22:53:51Z</time>
      </trkpt>
      <trkpt lat="23.060203" lon="113.282428">
        <time>2026-07-27T22:53:56Z</time>
      </trkpt>
      <trkpt lat="23.060165" lon="113.282526">
        <time>2026-07-27T22:54:01Z</time>
      </trkpt>
      <trkpt lat="23.060105" lon="113.282682">
        <time>2026-07-27T22:54:06Z</time>
      </trkpt>
      <trkpt lat="23.060033" lon="113.282832">
        <time>2026-07-27T22:54:11Z</time>
      </trkpt>
      <trkpt lat="23.059987" lon="113.282924">
        <time>2026-07-27T22:54:16Z</time>
      </trkpt>
      <trkpt lat="23.059941" lon="113.283019">
        <time>2026-07-27T22:54:21Z</time>
      </trkpt>
      <trkpt lat="23.059875" lon="113.283167">
        <time>2026-07-27T22:54:26Z</time>
      </trkpt>
      <trkpt lat="23.059825" lon="113.283329">
        <time>2026-07-27T22:54:31Z</time>
      </trkpt>
      <trkpt lat="23.05988" lon="113.28339">
        <time>2026-07-27T22:54:36Z</time>
      </trkpt>
      <trkpt lat="23.05996" lon="113.28333">
        <time>2026-07-27T22:54:41Z</time>
      </trkpt>
      <trkpt lat="23.060038" lon="113.28317">
        <time>2026-07-27T22:54:46Z</time>
      </trkpt>
      <trkpt lat="23.060117" lon="113.283027">
        <time>2026-07-27T22:54:51Z</time>
      </trkpt>
      <trkpt lat="23.060162" lon="113.282939">
        <time>2026-07-27T22:54:56Z</time>
      </trkpt>
      <trkpt lat="23.060205" lon="113.282851">
        <time>2026-07-27T22:55:01Z</time>
      </trkpt>
      <trkpt lat="23.060275" lon="113.28271">
        <time>2026-07-27T22:55:06Z</time>
      </trkpt>
      <trkpt lat="23.060335" lon="113.282556">
        <time>2026-07-27T22:55:11Z</time>
      </trkpt>
      <trkpt lat="23.060379" lon="113.282456">
        <time>2026-07-27T22:55:16Z</time>
      </trkpt>
      <trkpt lat="23.060427" lon="113.282355">
        <time>2026-07-27T22:55:21Z</time>
      </trkpt>
      <trkpt lat="23.060492" lon="113.282202">
        <time>2026-07-27T22:55:26Z</time>
      </trkpt>
      <trkpt lat="23.06055" lon="113.282047">
        <time>2026-07-27T22:55:31Z</time>
      </trkpt>
      <trkpt lat="23.060589" lon="113.281947">
        <time>2026-07-27T22:55:36Z</time>
      </trkpt>
      <trkpt lat="23.060632" lon="113.281848">
        <time>2026-07-27T22:55:41Z</time>
      </trkpt>
      <trkpt lat="23.060694" lon="113.281706">
        <time>2026-07-27T22:55:46Z</time>
      </trkpt>
      <trkpt lat="23.060759" lon="113.281566">
        <time>2026-07-27T22:55:51Z</time>
      </trkpt>
      <trkpt lat="23.060801" lon="113.281466">
        <time>2026-07-27T22:55:56Z</time>
      </trkpt>
      <trkpt lat="23.06084" lon="113.281362">
        <time>2026-07-27T22:56:01Z</time>
      </trkpt>
      <trkpt lat="23.060902" lon="113.281199">
        <time>2026-07-27T22:56:06Z</time>
      </trkpt>
      <trkpt lat="23.060965" lon="113.281053">
        <time>2026-07-27T22:56:11Z</time>
      </trkpt>
      <trkpt lat="23.061002" lon="113.280958">
        <time>2026-07-27T22:56:16Z</time>
      </trkpt>
      <trkpt lat="23.061043" lon="113.280859">
        <time>2026-07-27T22:56:21Z</time>
      </trkpt>
      <trkpt lat="23.061104" lon="113.280709">
        <time>2026-07-27T22:56:26Z</time>
      </trkpt>
      <trkpt lat="23.061172" lon="113.280557">
        <time>2026-07-27T22:56:31Z</time>
      </trkpt>
      <trkpt lat="23.061219" lon="113.280453">
        <time>2026-07-27T22:56:36Z</time>
      </trkpt>
      <trkpt lat="23.061255" lon="113.280346">
        <time>2026-07-27T22:56:41Z</time>
      </trkpt>
      <trkpt lat="23.06132" lon="113.280201">
        <time>2026-07-27T22:56:46Z</time>
      </trkpt>
      <trkpt lat="23.061386" lon="113.280074">
        <time>2026-07-27T22:56:51Z</time>
      </trkpt>
      <trkpt lat="23.061428" lon="113.279982">
        <time>2026-07-27T22:56:56Z</time>
      </trkpt>
      <trkpt lat="23.061468" lon="113.279889">
        <time>2026-07-27T22:57:01Z</time>
      </trkpt>
      <trkpt lat="23.061517" lon="113.279743">
        <time>2026-07-27T22:57:06Z</time>
      </trkpt>
      <trkpt lat="23.061571" lon="113.279591">
        <time>2026-07-27T22:57:11Z</time>
      </trkpt>
      <trkpt lat="23.061617" lon="113.279482">
        <time>2026-07-27T22:57:16Z</time>
      </trkpt>
      <trkpt lat="23.061659" lon="113.279374">
        <time>2026-07-27T22:57:21Z</time>
      </trkpt>
      <trkpt lat="23.061723" lon="113.279219">
        <time>2026-07-27T22:57:26Z</time>
      </trkpt>
      <trkpt lat="23.061797" lon="113.279082">
        <time>2026-07-27T22:57:31Z</time>
      </trkpt>
      <trkpt lat="23.061865" lon="113.278997">
        <time>2026-07-27T22:57:36Z</time>
      </trkpt>
      <trkpt lat="23.061926" lon="113.278909">
        <time>2026-07-27T22:57:41Z</time>
      </trkpt>
      <trkpt lat="23.061983" lon="113.278755">
        <time>2026-07-27T22:57:46Z</time>
      </trkpt>
      <trkpt lat="23.061977" lon="113.278588">
        <time>2026-07-27T22:57:51Z</time>
      </trkpt>
      <trkpt lat="23.061963" lon="113.278474">
        <time>2026-07-27T22:57:56Z</time>
      </trkpt>
      <trkpt lat="23.061954" lon="113.27836">
        <time>2026-07-27T22:58:01Z</time>
      </trkpt>
      <trkpt lat="23.061949" lon="113.278187">
        <time>2026-07-27T22:58:06Z</time>
      </trkpt>
      <trkpt lat="23.061948" lon="113.278011">
        <time>2026-07-27T22:58:11Z</time>
      </trkpt>
      <trkpt lat="23.061946" lon="113.277894">
        <time>2026-07-27T22:58:16Z</time>
      </trkpt>
      <trkpt lat="23.061955" lon="113.277779">
        <time>2026-07-27T22:58:21Z</time>
      </trkpt>
      <trkpt lat="23.061996" lon="113.277612">
        <time>2026-07-27T22:58:26Z</time>
      </trkpt>
      <trkpt lat="23.062054" lon="113.277448">
        <time>2026-07-27T22:58:31Z</time>
      </trkpt>
      <trkpt lat="23.062096" lon="113.277341">
        <time>2026-07-27T22:58:36Z</time>
      </trkpt>
      <trkpt lat="23.062139" lon="113.277236">
        <time>2026-07-27T22:58:41Z</time>
      </trkpt>
      <trkpt lat="23.062197" lon="113.277078">
        <time>2026-07-27T22:58:46Z</time>
      </trkpt>
      <trkpt lat="23.062255" lon="113.276926">
        <time>2026-07-27T22:58:51Z</time>
      </trkpt>
      <trkpt lat="23.062297" lon="113.276824">
        <time>2026-07-27T22:58:56Z</time>
      </trkpt>
      <trkpt lat="23.062339" lon="113.276723">
        <time>2026-07-27T22:59:01Z</time>
      </trkpt>
      <trkpt lat="23.062396" lon="113.276569">
        <time>2026-07-27T22:59:06Z</time>
      </trkpt>
      <trkpt lat="23.062448" lon="113.276415">
        <time>2026-07-27T22:59:11Z</time>
      </trkpt>
      <trkpt lat="23.062485" lon="113.276317">
        <time>2026-07-27T22:59:16Z</time>
      </trkpt>
      <trkpt lat="23.062527" lon="113.276214">
        <time>2026-07-27T22:59:21Z</time>
      </trkpt>
      <trkpt lat="23.062599" lon="113.276066">
        <time>2026-07-27T22:59:26Z</time>
      </trkpt>
      <trkpt lat="23.06269" lon="113.275931">
        <time>2026-07-27T22:59:31Z</time>
      </trkpt>
      <trkpt lat="23.062758" lon="113.275844">
        <time>2026-07-27T22:59:36Z</time>
      </trkpt>
      <trkpt lat="23.062831" lon="113.275768">
        <time>2026-07-27T22:59:41Z</time>
      </trkpt>
      <trkpt lat="23.06295" lon="113.275657">
        <time>2026-07-27T22:59:46Z</time>
      </trkpt>
      <trkpt lat="23.063054" lon="113.275531">
        <time>2026-07-27T22:59:51Z</time>
      </trkpt>
      <trkpt lat="23.063109" lon="113.275442">
        <time>2026-07-27T22:59:56Z</time>
      </trkpt>
      <trkpt lat="23.06316" lon="113.275351">
        <time>2026-07-27T23:00:01Z</time>
      </trkpt>
      <trkpt lat="23.063243" lon="113.27521">
        <time>2026-07-27T23:00:06Z</time>
      </trkpt>
      <trkpt lat="23.063322" lon="113.275065">
        <time>2026-07-27T23:00:11Z</time>
      </trkpt>
      <trkpt lat="23.063371" lon="113.27497">
        <time>2026-07-27T23:00:16Z</time>
      </trkpt>
      <trkpt lat="23.063422" lon="113.274881">
        <time>2026-07-27T23:00:21Z</time>
      </trkpt>
      <trkpt lat="23.063472" lon="113.274742">
        <time>2026-07-27T23:00:26Z</time>
      </trkpt>
      <trkpt lat="23.063525" lon="113.274602">
        <time>2026-07-27T23:00:31Z</time>
      </trkpt>
      <trkpt lat="23.06356" lon="113.274511">
        <time>2026-07-27T23:00:36Z</time>
      </trkpt>
      <trkpt lat="23.063618" lon="113.274424">
        <time>2026-07-27T23:00:41Z</time>
      </trkpt>
      <trkpt lat="23.063702" lon="113.274306">
        <time>2026-07-27T23:00:46Z</time>
      </trkpt>
      <trkpt lat="23.063803" lon="113.274179">
        <time>2026-07-27T23:00:51Z</time>
      </trkpt>
      <trkpt lat="23.063859" lon="113.274083">
        <time>2026-07-27T23:00:56Z</time>
      </trkpt>
      <trkpt lat="23.063915" lon="113.273972">
        <time>2026-07-27T23:01:01Z</time>
      </trkpt>
      <trkpt lat="23.064009" lon="113.273809">
        <time>2026-07-27T23:01:06Z</time>
      </trkpt>
      <trkpt lat="23.064123" lon="113.273677">
        <time>2026-07-27T23:01:11Z</time>
      </trkpt>
      <trkpt lat="23.064212" lon="113.273617">
        <time>2026-07-27T23:01:16Z</time>
      </trkpt>
      <trkpt lat="23.0643" lon="113.273558">
        <time>2026-07-27T23:01:21Z</time>
      </trkpt>
      <trkpt lat="23.064422" lon="113.273455">
        <time>2026-07-27T23:01:26Z</time>
      </trkpt>
      <trkpt lat="23.064535" lon="113.273326">
        <time>2026-07-27T23:01:31Z</time>
      </trkpt>
      <trkpt lat="23.064589" lon="113.273227">
        <time>2026-07-27T23:01:36Z</time>
      </trkpt>
      <trkpt lat="23.064599" lon="113.273117">
        <time>2026-07-27T23:01:41Z</time>
      </trkpt>
      <trkpt lat="23.064557" lon="113.272945">
        <time>2026-07-27T23:01:46Z</time>
      </trkpt>
      <trkpt lat="23.06449" lon="113.272774">
        <time>2026-07-27T23:01:51Z</time>
      </trkpt>
      <trkpt lat="23.064464" lon="113.272662">
        <time>2026-07-27T23:01:56Z</time>
      </trkpt>
      <trkpt lat="23.064476" lon="113.272561">
        <time>2026-07-27T23:02:01Z</time>
      </trkpt>
      <trkpt lat="23.064594" lon="113.27247">
        <time>2026-07-27T23:02:06Z</time>
      </trkpt>
      <trkpt lat="23.064743" lon="113.272489">
        <time>2026-07-27T23:02:11Z</time>
      </trkpt>
      <trkpt lat="23.064837" lon="113.272523">
        <time>2026-07-27T23:02:16Z</time>
      </trkpt>
      <trkpt lat="23.064932" lon="113.272555">
        <time>2026-07-27T23:02:21Z</time>
      </trkpt>
      <trkpt lat="23.065071" lon="113.272593">
        <time>2026-07-27T23:02:26Z</time>
      </trkpt>
      <trkpt lat="23.065211" lon="113.272629">
        <time>2026-07-27T23:02:31Z</time>
      </trkpt>
      <trkpt lat="23.065306" lon="113.272653">
        <time>2026-07-27T23:02:36Z</time>
      </trkpt>
      <trkpt lat="23.065397" lon="113.272681">
        <time>2026-07-27T23:02:41Z</time>
      </trkpt>
      <trkpt lat="23.065542" lon="113.272719">
        <time>2026-07-27T23:02:46Z</time>
      </trkpt>
      <trkpt lat="23.065686" lon="113.272764">
        <time>2026-07-27T23:02:51Z</time>
      </trkpt>
      <trkpt lat="23.065788" lon="113.272781">
        <time>2026-07-27T23:02:56Z</time>
      </trkpt>
      <trkpt lat="23.065889" lon="113.272792">
        <time>2026-07-27T23:03:01Z</time>
      </trkpt>
      <trkpt lat="23.066046" lon="113.2728">
        <time>2026-07-27T23:03:06Z</time>
      </trkpt>
      <trkpt lat="23.066181" lon="113.272781">
        <time>2026-07-27T23:03:11Z</time>
      </trkpt>
      <trkpt lat="23.066276" lon="113.272755">
        <time>2026-07-27T23:03:16Z</time>
      </trkpt>
      <trkpt lat="23.06636" lon="113.272701">
        <time>2026-07-27T23:03:21Z</time>
      </trkpt>
      <trkpt lat="23.066407" lon="113.272564">
        <time>2026-07-27T23:03:26Z</time>
      </trkpt>
      <trkpt lat="23.066425" lon="113.272421">
        <time>2026-07-27T23:03:31Z</time>
      </trkpt>
      <trkpt lat="23.066431" lon="113.272321">
        <time>2026-07-27T23:03:36Z</time>
      </trkpt>
      <trkpt lat="23.066429" lon="113.272215">
        <time>2026-07-27T23:03:41Z</time>
      </trkpt>
      <trkpt lat="23.066453" lon="113.272065">
        <time>2026-07-27T23:03:46Z</time>
      </trkpt>
      <trkpt lat="23.066477" lon="113.271897">
        <time>2026-07-27T23:03:51Z</time>
      </trkpt>
      <trkpt lat="23.06652" lon="113.271789">
        <time>2026-07-27T23:03:56Z</time>
      </trkpt>
      <trkpt lat="23.066527" lon="113.271678">
        <time>2026-07-27T23:04:01Z</time>
      </trkpt>
      <trkpt lat="23.066457" lon="113.271506">
        <time>2026-07-27T23:04:06Z</time>
      </trkpt>
      <trkpt lat="23.066282" lon="113.271425">
        <time>2026-07-27T23:04:11Z</time>
      </trkpt>
      <trkpt lat="23.066167" lon="113.271398">
        <time>2026-07-27T23:04:16Z</time>
      </trkpt>
      <trkpt lat="23.066057" lon="113.271368">
        <time>2026-07-27T23:04:21Z</time>
      </trkpt>
      <trkpt lat="23.065901" lon="113.271321">
        <time>2026-07-27T23:04:26Z</time>
      </trkpt>
      <trkpt lat="23.065734" lon="113.271297">
        <time>2026-07-27T23:04:31Z</time>
      </trkpt>
      <trkpt lat="23.065643" lon="113.27127">
        <time>2026-07-27T23:04:36Z</time>
      </trkpt>
      <trkpt lat="23.065547" lon="113.271232">
        <time>2026-07-27T23:04:41Z</time>
      </trkpt>
      <trkpt lat="23.065393" lon="113.27118">
        <time>2026-07-27T23:04:46Z</time>
      </trkpt>
      <trkpt lat="23.065243" lon="113.271112">
        <time>2026-07-27T23:04:51Z</time>
      </trkpt>
      <trkpt lat="23.06517" lon="113.271013">
        <time>2026-07-27T23:04:56Z</time>
      </trkpt>
      <trkpt lat="23.065153" lon="113.270895">
        <time>2026-07-27T23:05:01Z</time>
      </trkpt>
      <trkpt lat="23.065226" lon="113.270728">
        <time>2026-07-27T23:05:06Z</time>
      </trkpt>
      <trkpt lat="23.065303" lon="113.27058">
        <time>2026-07-27T23:05:11Z</time>
      </trkpt>
      <trkpt lat="23.065349" lon="113.270478">
        <time>2026-07-27T23:05:16Z</time>
      </trkpt>
      <trkpt lat="23.0654" lon="113.270378">
        <time>2026-07-27T23:05:21Z</time>
      </trkpt>
      <trkpt lat="23.06547" lon="113.270233">
        <time>2026-07-27T23:05:26Z</time>
      </trkpt>
      <trkpt lat="23.065532" lon="113.270078">
        <time>2026-07-27T23:05:31Z</time>
      </trkpt>
      <trkpt lat="23.06557" lon="113.26998">
        <time>2026-07-27T23:05:36Z</time>
      </trkpt>
      <trkpt lat="23.065603" lon="113.269877">
        <time>2026-07-27T23:05:41Z</time>
      </trkpt>
      <trkpt lat="23.065648" lon="113.269723">
        <time>2026-07-27T23:05:46Z</time>
      </trkpt>
      <trkpt lat="23.065708" lon="113.269573">
        <time>2026-07-27T23:05:51Z</time>
      </trkpt>
      <trkpt lat="23.065745" lon="113.269465">
        <time>2026-07-27T23:05:56Z</time>
      </trkpt>
      <trkpt lat="23.065776" lon="113.269352">
        <time>2026-07-27T23:06:01Z</time>
      </trkpt>
      <trkpt lat="23.065837" lon="113.269171">
        <time>2026-07-27T23:06:06Z</time>
      </trkpt>
      <trkpt lat="23.065899" lon="113.269004">
        <time>2026-07-27T23:06:11Z</time>
      </trkpt>
      <trkpt lat="23.065941" lon="113.268906">
        <time>2026-07-27T23:06:16Z</time>
      </trkpt>
      <trkpt lat="23.065983" lon="113.268809">
        <time>2026-07-27T23:06:21Z</time>
      </trkpt>
      <trkpt lat="23.066055" lon="113.268665">
        <time>2026-07-27T23:06:26Z</time>
      </trkpt>
      <trkpt lat="23.066142" lon="113.26852">
        <time>2026-07-27T23:06:31Z</time>
      </trkpt>
      <trkpt lat="23.0662" lon="113.268423">
        <time>2026-07-27T23:06:36Z</time>
      </trkpt>
      <trkpt lat="23.066261" lon="113.268322">
        <time>2026-07-27T23:06:41Z</time>
      </trkpt>
      <trkpt lat="23.066374" lon="113.268196">
        <time>2026-07-27T23:06:46Z</time>
      </trkpt>
      <trkpt lat="23.066527" lon="113.268148">
        <time>2026-07-27T23:06:51Z</time>
      </trkpt>
      <trkpt lat="23.066635" lon="113.268154">
        <time>2026-07-27T23:06:56Z</time>
      </trkpt>
      <trkpt lat="23.066741" lon="113.268156">
        <time>2026-07-27T23:07:01Z</time>
      </trkpt>
      <trkpt lat="23.066899" lon="113.268165">
        <time>2026-07-27T23:07:06Z</time>
      </trkpt>
      <trkpt lat="23.067049" lon="113.268205">
        <time>2026-07-27T23:07:11Z</time>
      </trkpt>
      <trkpt lat="23.067136" lon="113.26826">
        <time>2026-07-27T23:07:16Z</time>
      </trkpt>
      <trkpt lat="23.067224" lon="113.268323">
        <time>2026-07-27T23:07:21Z</time>
      </trkpt>
      <trkpt lat="23.067344" lon="113.268408">
        <time>2026-07-27T23:07:26Z</time>
      </trkpt>
      <trkpt lat="23.067491" lon="113.268482">
        <time>2026-07-27T23:07:31Z</time>
      </trkpt>
      <trkpt lat="23.067591" lon="113.268534">
        <time>2026-07-27T23:07:36Z</time>
      </trkpt>
      <trkpt lat="23.067696" lon="113.268585">
        <time>2026-07-27T23:07:41Z</time>
      </trkpt>
      <trkpt lat="23.067848" lon="113.268668">
        <time>2026-07-27T23:07:46Z</time>
      </trkpt>
      <trkpt lat="23.067992" lon="113.268736">
        <time>2026-07-27T23:07:51Z</time>
      </trkpt>
      <trkpt lat="23.068096" lon="113.268765">
        <time>2026-07-27T23:07:56Z</time>
      </trkpt>
      <trkpt lat="23.068197" lon="113.268811">
        <time>2026-07-27T23:08:01Z</time>
      </trkpt>
      <trkpt lat="23.068341" lon="113.268883">
        <time>2026-07-27T23:08:06Z</time>
      </trkpt>
      <trkpt lat="23.068478" lon="113.26895">
        <time>2026-07-27T23:08:11Z</time>
      </trkpt>
      <trkpt lat="23.068574" lon="113.269009">
        <time>2026-07-27T23:08:16Z</time>
      </trkpt>
      <trkpt lat="23.068669" lon="113.26908">
        <time>2026-07-27T23:08:21Z</time>
      </trkpt>
      <trkpt lat="23.068811" lon="113.269163">
        <time>2026-07-27T23:08:26Z</time>
      </trkpt>
      <trkpt lat="23.068949" lon="113.269244">
        <time>2026-07-27T23:08:31Z</time>
      </trkpt>
      <trkpt lat="23.06905" lon="113.269269">
        <time>2026-07-27T23:08:36Z</time>
      </trkpt>
      <trkpt lat="23.069146" lon="113.269288">
        <time>2026-07-27T23:08:41Z</time>
      </trkpt>
      <trkpt lat="23.06929" lon="113.269356">
        <time>2026-07-27T23:08:46Z</time>
      </trkpt>
      <trkpt lat="23.069442" lon="113.269427">
        <time>2026-07-27T23:08:51Z</time>
      </trkpt>
      <trkpt lat="23.06953" lon="113.269495">
        <time>2026-07-27T23:08:56Z</time>
      </trkpt>
      <trkpt lat="23.069615" lon="113.269577">
        <time>2026-07-27T23:09:01Z</time>
      </trkpt>
      <trkpt lat="23.069752" lon="113.269689">
        <time>2026-07-27T23:09:06Z</time>
      </trkpt>
      <trkpt lat="23.069904" lon="113.26977">
        <time>2026-07-27T23:09:11Z</time>
      </trkpt>
      <trkpt lat="23.070007" lon="113.269793">
        <time>2026-07-27T23:09:16Z</time>
      </trkpt>
      <trkpt lat="23.070103" lon="113.269844">
        <time>2026-07-27T23:09:21Z</time>
      </trkpt>
      <trkpt lat="23.070234" lon="113.269921">
        <time>2026-07-27T23:09:26Z</time>
      </trkpt>
      <trkpt lat="23.070366" lon="113.27">
        <time>2026-07-27T23:09:31Z</time>
      </trkpt>
      <trkpt lat="23.070467" lon="113.270027">
        <time>2026-07-27T23:09:36Z</time>
      </trkpt>
      <trkpt lat="23.070586" lon="113.270034">
        <time>2026-07-27T23:09:41Z</time>
      </trkpt>
      <trkpt lat="23.070727" lon="113.270062">
        <time>2026-07-27T23:09:46Z</time>
      </trkpt>
      <trkpt lat="23.070865" lon="113.270101">
        <time>2026-07-27T23:09:51Z</time>
      </trkpt>
      <trkpt lat="23.070955" lon="113.270156">
        <time>2026-07-27T23:09:56Z</time>
      </trkpt>
      <trkpt lat="23.071048" lon="113.270205">
        <time>2026-07-27T23:10:01Z</time>
      </trkpt>
      <trkpt lat="23.071168" lon="113.27027">
        <time>2026-07-27T23:10:06Z</time>
      </trkpt>
      <trkpt lat="23.071301" lon="113.270339">
        <time>2026-07-27T23:10:11Z</time>
      </trkpt>
      <trkpt lat="23.071388" lon="113.270397">
        <time>2026-07-27T23:10:16Z</time>
      </trkpt>
      <trkpt lat="23.07146" lon="113.270474">
        <time>2026-07-27T23:10:21Z</time>
      </trkpt>
      <trkpt lat="23.071592" lon="113.270531">
        <time>2026-07-27T23:10:26Z</time>
      </trkpt>
      <trkpt lat="23.071743" lon="113.270629">
        <time>2026-07-27T23:10:31Z</time>
      </trkpt>
      <trkpt lat="23.071857" lon="113.270704">
        <time>2026-07-27T23:10:36Z</time>
      </trkpt>
      <trkpt lat="23.071963" lon="113.270724">
        <time>2026-07-27T23:10:41Z</time>
      </trkpt>
      <trkpt lat="23.072095" lon="113.270767">
        <time>2026-07-27T23:10:46Z</time>
      </trkpt>
      <trkpt lat="23.072213" lon="113.270848">
        <time>2026-07-27T23:10:51Z</time>
      </trkpt>
      <trkpt lat="23.07228" lon="113.270887">
        <time>2026-07-27T23:10:56Z</time>
      </trkpt>
      <trkpt lat="23.072348" lon="113.270948">
        <time>2026-07-27T23:11:01Z</time>
      </trkpt>
      <trkpt lat="23.072487" lon="113.271038">
        <time>2026-07-27T23:11:06Z</time>
      </trkpt>
      <trkpt lat="23.072634" lon="113.271118">
        <time>2026-07-27T23:11:11Z</time>
      </trkpt>
      <trkpt lat="23.072718" lon="113.271153">
        <time>2026-07-27T23:11:16Z</time>
      </trkpt>
      <trkpt lat="23.072789" lon="113.271178">
        <time>2026-07-27T23:11:21Z</time>
      </trkpt>
      <trkpt lat="23.072922" lon="113.271222">
        <time>2026-07-27T23:11:26Z</time>
      </trkpt>
      <trkpt lat="23.073093" lon="113.271264">
        <time>2026-07-27T23:11:31Z</time>
      </trkpt>
      <trkpt lat="23.073185" lon="113.271302">
        <time>2026-07-27T23:11:36Z</time>
      </trkpt>
      <trkpt lat="23.073246" lon="113.271338">
        <time>2026-07-27T23:11:41Z</time>
      </trkpt>
      <trkpt lat="23.073355" lon="113.271391">
        <time>2026-07-27T23:11:46Z</time>
      </trkpt>
      <trkpt lat="23.073487" lon="113.271459">
        <time>2026-07-27T23:11:51Z</time>
      </trkpt>
      <trkpt lat="23.073568" lon="113.271519">
        <time>2026-07-27T23:11:56Z</time>
      </trkpt>
      <trkpt lat="23.073649" lon="113.271565">
        <time>2026-07-27T23:12:01Z</time>
      </trkpt>
      <trkpt lat="23.073778" lon="113.271636">
        <time>2026-07-27T23:12:06Z</time>
      </trkpt>
      <trkpt lat="23.073897" lon="113.2717">
        <time>2026-07-27T23:12:11Z</time>
      </trkpt>
      <trkpt lat="23.073982" lon="113.27175">
        <time>2026-07-27T23:12:16Z</time>
      </trkpt>
      <trkpt lat="23.074055" lon="113.271792">
        <time>2026-07-27T23:12:21Z</time>
      </trkpt>
      <trkpt lat="23.074048" lon="113.271888">
        <time>2026-07-27T23:12:26Z</time>
      </trkpt>
      <trkpt lat="23.073997" lon="113.272028">
        <time>2026-07-27T23:12:31Z</time>
      </trkpt>
      <trkpt lat="23.073963" lon="113.272118">
        <time>2026-07-27T23:12:36Z</time>
      </trkpt>
      <trkpt lat="23.073929" lon="113.2722">
        <time>2026-07-27T23:12:41Z</time>
      </trkpt>
      <trkpt lat="23.073857" lon="113.272333">
        <time>2026-07-27T23:12:46Z</time>
      </trkpt>
      <trkpt lat="23.073786" lon="113.272489">
        <time>2026-07-27T23:12:51Z</time>
      </trkpt>
      <trkpt lat="23.073737" lon="113.272591">
        <time>2026-07-27T23:12:56Z</time>
      </trkpt>
      <trkpt lat="23.073699" lon="113.2727">
        <time>2026-07-27T23:13:01Z</time>
      </trkpt>
      <trkpt lat="23.073639" lon="113.272851">
        <time>2026-07-27T23:13:06Z</time>
      </trkpt>
      <trkpt lat="23.07367" lon="113.272967">
        <time>2026-07-27T23:13:11Z</time>
      </trkpt>
      <trkpt lat="23.073777" lon="113.272988">
        <time>2026-07-27T23:13:16Z</time>
      </trkpt>
      <trkpt lat="23.073886" lon="113.273005">
        <time>2026-07-27T23:13:21Z</time>
      </trkpt>
      <trkpt lat="23.074006" lon="113.272963">
        <time>2026-07-27T23:13:26Z</time>
      </trkpt>
      <trkpt lat="23.07407" lon="113.27281">
        <time>2026-07-27T23:13:31Z</time>
      </trkpt>
      <trkpt lat="23.074108" lon="113.272711">
        <time>2026-07-27T23:13:36Z</time>
      </trkpt>
      <trkpt lat="23.07414" lon="113.272623">
        <time>2026-07-27T23:13:41Z</time>
      </trkpt>
      <trkpt lat="23.07419" lon="113.272501">
        <time>2026-07-27T23:13:46Z</time>
      </trkpt>
      <trkpt lat="23.074271" lon="113.272355">
        <time>2026-07-27T23:13:51Z</time>
      </trkpt>
      <trkpt lat="23.074319" lon="113.272265">
        <time>2026-07-27T23:13:56Z</time>
      </trkpt>
      <trkpt lat="23.07436" lon="113.272188">
        <time>2026-07-27T23:14:01Z</time>
      </trkpt>
      <trkpt lat="23.074473" lon="113.272097">
        <time>2026-07-27T23:14:06Z</time>
      </trkpt>
      <trkpt lat="23.074591" lon="113.272074">
        <time>2026-07-27T23:14:11Z</time>
      </trkpt>
      <trkpt lat="23.074682" lon="113.272124">
        <time>2026-07-27T23:14:16Z</time>
      </trkpt>
      <trkpt lat="23.074768" lon="113.272187">
        <time>2026-07-27T23:14:21Z</time>
      </trkpt>
      <trkpt lat="23.074888" lon="113.272262">
        <time>2026-07-27T23:14:26Z</time>
      </trkpt>
      <trkpt lat="23.075018" lon="113.27233">
        <time>2026-07-27T23:14:31Z</time>
      </trkpt>
      <trkpt lat="23.0751" lon="113.272387">
        <time>2026-07-27T23:14:36Z</time>
      </trkpt>
      <trkpt lat="23.075181" lon="113.272436">
        <time>2026-07-27T23:14:41Z</time>
      </trkpt>
      <trkpt lat="23.07526" lon="113.272568">
        <time>2026-07-27T23:14:46Z</time>
      </trkpt>
      <trkpt lat="23.075293" lon="113.27277">
        <time>2026-07-27T23:14:51Z</time>
      </trkpt>
      <trkpt lat="23.075318" lon="113.272871">
        <time>2026-07-27T23:14:56Z</time>
      </trkpt>
      <trkpt lat="23.07535" lon="113.272943">
        <time>2026-07-27T23:15:01Z</time>
      </trkpt>
      <trkpt lat="23.075397" lon="113.273065">
        <time>2026-07-27T23:15:06Z</time>
      </trkpt>
      <trkpt lat="23.075463" lon="113.273217">
        <time>2026-07-27T23:15:11Z</time>
      </trkpt>
      <trkpt lat="23.07551" lon="113.27332">
        <time>2026-07-27T23:15:16Z</time>
      </trkpt>
      <trkpt lat="23.075664" lon="113.273391">
        <time>2026-07-27T23:15:16Z</time>
      </trkpt>
    </trkseg>
  </trk>
</gpx>