<?xml version="1.0" encoding="UTF-8"?>
<gpx xmlns="http://www.topografix.com/GPX/1/1" xmlns:gpxtpx="http://www.garmin.com/xmlschemas/TrackPointExtension/v1" xmlns:xsi="http://www.w3.org/2001/XMLSchema-instance" xsi:schemaLocation="http://www.topografix.com/GPX/1/1 http://www.topografix.com/GPX/1/1/gpx.xsd" version="1.1" creator="gpx.py -- https://github.com/tkrajina/gpxpy">
  <trk>
    <name>gpx from joyrun</name>
    <trkseg>
      <trkpt lat="23.076198" lon="113.273148">
        <time>2026-07-30T22:01:43Z</time>
      </trkpt>
      <trkpt lat="23.076224" lon="113.273114">
        <time>2026-07-30T22:01:48Z</time>
      </trkpt>
      <trkpt lat="23.076211" lon="113.272973">
        <time>2026-07-30T22:01:53Z</time>
      </trkpt>
      <trkpt lat="23.076166" lon="113.272849">
        <time>2026-07-30T22:01:58Z</time>
      </trkpt>
      <trkpt lat="23.076085" lon="113.272767">
        <time>2026-07-30T22:02:03Z</time>
      </trkpt>
      <trkpt lat="23.076009" lon="113.27265">
        <time>2026-07-30T22:02:08Z</time>
      </trkpt>
      <trkpt lat="23.075965" lon="113.272586">
        <time>2026-07-30T22:02:13Z</time>
      </trkpt>
      <trkpt lat="23.075878" lon="113.272559">
        <time>2026-07-30T22:02:18Z</time>
      </trkpt>
      <trkpt lat="23.075727" lon="113.272482">
        <time>2026-07-30T22:02:23Z</time>
      </trkpt>
      <trkpt lat="23.075573" lon="113.272412">
        <time>2026-07-30T22:02:28Z</time>
      </trkpt>
      <trkpt lat="23.075448" lon="113.272383">
        <time>2026-07-30T22:02:33Z</time>
      </trkpt>
      <trkpt lat="23.075319" lon="113.272375">
        <time>2026-07-30T22:02:38Z</time>
      </trkpt>
      <trkpt lat="23.075208" lon="113.272318">
        <time>2026-07-30T22:02:43Z</time>
      </trkpt>
      <trkpt lat="23.075102" lon="113.272253">
        <time>2026-07-30T22:02:48Z</time>
      </trkpt>
      <trkpt lat="23.075026" lon="113.272219">
        <time>2026-07-30T22:02:53Z</time>
      </trkpt>
      <trkpt lat="23.074952" lon="113.272179">
        <time>2026-07-30T22:02:58Z</time>
      </trkpt>
      <trkpt lat="23.074834" lon="113.272106">
        <time>2026-07-30T22:03:03Z</time>
      </trkpt>
      <trkpt lat="23.074718" lon="113.272054">
        <time>2026-07-30T22:03:08Z</time>
      </trkpt>
      <trkpt lat="23.074635" lon="113.272022">
        <time>2026-07-30T22:03:13Z</time>
      </trkpt>
      <trkpt lat="23.074564" lon="113.272028">
        <time>2026-07-30T22:03:18Z</time>
      </trkpt>
      <trkpt lat="23.074496" lon="113.272146">
        <time>2026-07-30T22:03:23Z</time>
      </trkpt>
      <trkpt lat="23.074428" lon="113.272278">
        <time>2026-07-30T22:03:28Z</time>
      </trkpt>
      <trkpt lat="23.07439" lon="113.272351">
        <time>2026-07-30T22:03:33Z</time>
      </trkpt>
      <trkpt lat="23.074349" lon="113.272428">
        <time>2026-07-30T22:03:38Z</time>
      </trkpt>
      <trkpt lat="23.074285" lon="113.27256">
        <time>2026-07-30T22:03:43Z</time>
      </trkpt>
      <trkpt lat="23.074234" lon="113.272698">
        <time>2026-07-30T22:03:48Z</time>
      </trkpt>
      <trkpt lat="23.074206" lon="113.272787">
        <time>2026-07-30T22:03:53Z</time>
      </trkpt>
      <trkpt lat="23.074166" lon="113.272872">
        <time>2026-07-30T22:03:58Z</time>
      </trkpt>
      <trkpt lat="23.074089" lon="113.272988">
        <time>2026-07-30T22:04:03Z</time>
      </trkpt>
      <trkpt lat="23.073973" lon="113.272999">
        <time>2026-07-30T22:04:08Z</time>
      </trkpt>
      <trkpt lat="23.073901" lon="113.27296">
        <time>2026-07-30T22:04:13Z</time>
      </trkpt>
      <trkpt lat="23.073841" lon="113.272919">
        <time>2026-07-30T22:04:18Z</time>
      </trkpt>
      <trkpt lat="23.073857" lon="113.272812">
        <time>2026-07-30T22:04:23Z</time>
      </trkpt>
      <trkpt lat="23.073917" lon="113.272698">
        <time>2026-07-30T22:04:28Z</time>
      </trkpt>
      <trkpt lat="23.07396" lon="113.272622">
        <time>2026-07-30T22:04:33Z</time>
      </trkpt>
      <trkpt lat="23.07399" lon="113.272538">
        <time>2026-07-30T22:04:38Z</time>
      </trkpt>
      <trkpt lat="23.074038" lon="113.272413">
        <time>2026-07-30T22:04:43Z</time>
      </trkpt>
      <trkpt lat="23.074095" lon="113.272289">
        <time>2026-07-30T22:04:48Z</time>
      </trkpt>
      <trkpt lat="23.074135" lon="113.272209">
        <time>2026-07-30T22:04:53Z</time>
      </trkpt>
      <trkpt lat="23.07418" lon="113.272126">
        <time>2026-07-30T22:04:58Z</time>
      </trkpt>
      <trkpt lat="23.07424" lon="113.271995">
        <time>2026-07-30T22:05:03Z</time>
      </trkpt>
      <trkpt lat="23.074292" lon="113.271877">
        <time>2026-07-30T22:05:08Z</time>
      </trkpt>
      <trkpt lat="23.074298" lon="113.271805">
        <time>2026-07-30T22:05:13Z</time>
      </trkpt>
      <trkpt lat="23.074229" lon="113.271764">
        <time>2026-07-30T22:05:18Z</time>
      </trkpt>
      <trkpt lat="23.074108" lon="113.271721">
        <time>2026-07-30T22:05:23Z</time>
      </trkpt>
      <trkpt lat="23.073997" lon="113.271657">
        <time>2026-07-30T22:05:28Z</time>
      </trkpt>
      <trkpt lat="23.073913" lon="113.271619">
        <time>2026-07-30T22:05:33Z</time>
      </trkpt>
      <trkpt lat="23.073828" lon="113.271585">
        <time>2026-07-30T22:05:38Z</time>
      </trkpt>
      <trkpt lat="23.07369" lon="113.271539">
        <time>2026-07-30T22:05:43Z</time>
      </trkpt>
      <trkpt lat="23.073565" lon="113.271509">
        <time>2026-07-30T22:05:48Z</time>
      </trkpt>
      <trkpt lat="23.073487" lon="113.271496">
        <time>2026-07-30T22:05:53Z</time>
      </trkpt>
      <trkpt lat="23.073417" lon="113.271452">
        <time>2026-07-30T22:05:58Z</time>
      </trkpt>
      <trkpt lat="23.073316" lon="113.271361">
        <time>2026-07-30T22:06:03Z</time>
      </trkpt>
      <trkpt lat="23.073195" lon="113.271275">
        <time>2026-07-30T22:06:08Z</time>
      </trkpt>
      <trkpt lat="23.073101" lon="113.27122">
        <time>2026-07-30T22:06:13Z</time>
      </trkpt>
      <trkpt lat="23.073023" lon="113.271168">
        <time>2026-07-30T22:06:18Z</time>
      </trkpt>
      <trkpt lat="23.072892" lon="113.271098">
        <time>2026-07-30T22:06:23Z</time>
      </trkpt>
      <trkpt lat="23.072758" lon="113.271041">
        <time>2026-07-30T22:06:28Z</time>
      </trkpt>
      <trkpt lat="23.072662" lon="113.271008">
        <time>2026-07-30T22:06:33Z</time>
      </trkpt>
      <trkpt lat="23.072568" lon="113.270974">
        <time>2026-07-30T22:06:38Z</time>
      </trkpt>
      <trkpt lat="23.072441" lon="113.270924">
        <time>2026-07-30T22:06:43Z</time>
      </trkpt>
      <trkpt lat="23.072318" lon="113.270865">
        <time>2026-07-30T22:06:48Z</time>
      </trkpt>
      <trkpt lat="23.072244" lon="113.270843">
        <time>2026-07-30T22:06:53Z</time>
      </trkpt>
      <trkpt lat="23.072168" lon="113.270801">
        <time>2026-07-30T22:06:58Z</time>
      </trkpt>
      <trkpt lat="23.072039" lon="113.270658">
        <time>2026-07-30T22:07:03Z</time>
      </trkpt>
      <trkpt lat="23.071925" lon="113.270582">
        <time>2026-07-30T22:07:08Z</time>
      </trkpt>
      <trkpt lat="23.07184" lon="113.270551">
        <time>2026-07-30T22:07:13Z</time>
      </trkpt>
      <trkpt lat="23.071725" lon="113.270522">
        <time>2026-07-30T22:07:18Z</time>
      </trkpt>
      <trkpt lat="23.071558" lon="113.270424">
        <time>2026-07-30T22:07:23Z</time>
      </trkpt>
      <trkpt lat="23.071434" lon="113.27035">
        <time>2026-07-30T22:07:28Z</time>
      </trkpt>
      <trkpt lat="23.071353" lon="113.270322">
        <time>2026-07-30T22:07:33Z</time>
      </trkpt>
      <trkpt lat="23.07127" lon="113.270295">
        <time>2026-07-30T22:07:38Z</time>
      </trkpt>
      <trkpt lat="23.071135" lon="113.270258">
        <time>2026-07-30T22:07:43Z</time>
      </trkpt>
      <trkpt lat="23.071014" lon="113.270196">
        <time>2026-07-30T22:07:48Z</time>
      </trkpt>
      <trkpt lat="23.070931" lon="113.270152">
        <time>2026-07-30T22:07:53Z</time>
      </trkpt>
      <trkpt lat="23.070866" lon="113.270099">
        <time>2026-07-30T22:07:58Z</time>
      </trkpt>
      <trkpt lat="23.070751" lon="113.270032">
        <time>2026-07-30T22:08:03Z</time>
      </trkpt>
      <trkpt lat="23.070615" lon="113.269997">
        <time>2026-07-30T22:08:08Z</time>
      </trkpt>
      <trkpt lat="23.070534" lon="113.269954">
        <time>2026-07-30T22:08:13Z</time>
      </trkpt>
      <trkpt lat="23.070451" lon="113.26991">
        <time>2026-07-30T22:08:18Z</time>
      </trkpt>
      <trkpt lat="23.070317" lon="113.26986">
        <time>2026-07-30T22:08:23Z</time>
      </trkpt>
      <trkpt lat="23.070189" lon="113.269817">
        <time>2026-07-30T22:08:28Z</time>
      </trkpt>
      <trkpt lat="23.070121" lon="113.269784">
        <time>2026-07-30T22:08:33Z</time>
      </trkpt>
      <trkpt lat="23.070042" lon="113.269728">
        <time>2026-07-30T22:08:38Z</time>
      </trkpt>
      <trkpt lat="23.069914" lon="113.269678">
        <time>2026-07-30T22:08:43Z</time>
      </trkpt>
      <trkpt lat="23.069785" lon="113.26961">
        <time>2026-07-30T22:08:48Z</time>
      </trkpt>
      <trkpt lat="23.069701" lon="113.26956">
        <time>2026-07-30T22:08:53Z</time>
      </trkpt>
      <trkpt lat="23.069619" lon="113.269515">
        <time>2026-07-30T22:08:58Z</time>
      </trkpt>
      <trkpt lat="23.069503" lon="113.269455">
        <time>2026-07-30T22:09:03Z</time>
      </trkpt>
      <trkpt lat="23.069406" lon="113.26939">
        <time>2026-07-30T22:09:08Z</time>
      </trkpt>
      <trkpt lat="23.069342" lon="113.269329">
        <time>2026-07-30T22:09:13Z</time>
      </trkpt>
      <trkpt lat="23.069279" lon="113.269247">
        <time>2026-07-30T22:09:18Z</time>
      </trkpt>
      <trkpt lat="23.069164" lon="113.269166">
        <time>2026-07-30T22:09:23Z</time>
      </trkpt>
      <trkpt lat="23.069046" lon="113.269102">
        <time>2026-07-30T22:09:28Z</time>
      </trkpt>
      <trkpt lat="23.06897" lon="113.269066">
        <time>2026-07-30T22:09:33Z</time>
      </trkpt>
      <trkpt lat="23.068888" lon="113.269033">
        <time>2026-07-30T22:09:38Z</time>
      </trkpt>
      <trkpt lat="23.068763" lon="113.26897">
        <time>2026-07-30T22:09:43Z</time>
      </trkpt>
      <trkpt lat="23.068652" lon="113.268925">
        <time>2026-07-30T22:09:48Z</time>
      </trkpt>
      <trkpt lat="23.068578" lon="113.268899">
        <time>2026-07-30T22:09:53Z</time>
      </trkpt>
      <trkpt lat="23.068506" lon="113.268877">
        <time>2026-07-30T22:09:58Z</time>
      </trkpt>
      <trkpt lat="23.068396" lon="113.268849">
        <time>2026-07-30T22:10:03Z</time>
      </trkpt>
      <trkpt lat="23.068253" lon="113.268773">
        <time>2026-07-30T22:10:08Z</time>
      </trkpt>
      <trkpt lat="23.068166" lon="113.268714">
        <time>2026-07-30T22:10:13Z</time>
      </trkpt>
      <trkpt lat="23.068081" lon="113.268674">
        <time>2026-07-30T22:10:18Z</time>
      </trkpt>
      <trkpt lat="23.067952" lon="113.268611">
        <time>2026-07-30T22:10:23Z</time>
      </trkpt>
      <trkpt lat="23.067834" lon="113.268543">
        <time>2026-07-30T22:10:28Z</time>
      </trkpt>
      <trkpt lat="23.067751" lon="113.268495">
        <time>2026-07-30T22:10:33Z</time>
      </trkpt>
      <trkpt lat="23.067665" lon="113.268451">
        <time>2026-07-30T22:10:38Z</time>
      </trkpt>
      <trkpt lat="23.067536" lon="113.268389">
        <time>2026-07-30T22:10:43Z</time>
      </trkpt>
      <trkpt lat="23.067413" lon="113.268334">
        <time>2026-07-30T22:10:48Z</time>
      </trkpt>
      <trkpt lat="23.067331" lon="113.268306">
        <time>2026-07-30T22:10:53Z</time>
      </trkpt>
      <trkpt lat="23.067249" lon="113.268279">
        <time>2026-07-30T22:10:58Z</time>
      </trkpt>
      <trkpt lat="23.067134" lon="113.268229">
        <time>2026-07-30T22:11:03Z</time>
      </trkpt>
      <trkpt lat="23.067003" lon="113.268183">
        <time>2026-07-30T22:11:08Z</time>
      </trkpt>
      <trkpt lat="23.066907" lon="113.268163">
        <time>2026-07-30T22:11:13Z</time>
      </trkpt>
      <trkpt lat="23.066815" lon="113.268154">
        <time>2026-07-30T22:11:18Z</time>
      </trkpt>
      <trkpt lat="23.066675" lon="113.268123">
        <time>2026-07-30T22:11:23Z</time>
      </trkpt>
      <trkpt lat="23.066526" lon="113.268091">
        <time>2026-07-30T22:11:28Z</time>
      </trkpt>
      <trkpt lat="23.066434" lon="113.268099">
        <time>2026-07-30T22:11:33Z</time>
      </trkpt>
      <trkpt lat="23.066356" lon="113.268141">
        <time>2026-07-30T22:11:38Z</time>
      </trkpt>
      <trkpt lat="23.066261" lon="113.268238">
        <time>2026-07-30T22:11:43Z</time>
      </trkpt>
      <trkpt lat="23.066177" lon="113.268345">
        <time>2026-07-30T22:11:48Z</time>
      </trkpt>
      <trkpt lat="23.066127" lon="113.268416">
        <time>2026-07-30T22:11:53Z</time>
      </trkpt>
      <trkpt lat="23.066076" lon="113.268486">
        <time>2026-07-30T22:11:58Z</time>
      </trkpt>
      <trkpt lat="23.066001" lon="113.268594">
        <time>2026-07-30T22:12:03Z</time>
      </trkpt>
      <trkpt lat="23.065931" lon="113.268705">
        <time>2026-07-30T22:12:08Z</time>
      </trkpt>
      <trkpt lat="23.065889" lon="113.268779">
        <time>2026-07-30T22:12:13Z</time>
      </trkpt>
      <trkpt lat="23.065853" lon="113.268859">
        <time>2026-07-30T22:12:18Z</time>
      </trkpt>
      <trkpt lat="23.065804" lon="113.268985">
        <time>2026-07-30T22:12:23Z</time>
      </trkpt>
      <trkpt lat="23.065756" lon="113.269116">
        <time>2026-07-30T22:12:28Z</time>
      </trkpt>
      <trkpt lat="23.065729" lon="113.26921">
        <time>2026-07-30T22:12:33Z</time>
      </trkpt>
      <trkpt lat="23.065708" lon="113.269298">
        <time>2026-07-30T22:12:38Z</time>
      </trkpt>
      <trkpt lat="23.065666" lon="113.269432">
        <time>2026-07-30T22:12:43Z</time>
      </trkpt>
      <trkpt lat="23.065627" lon="113.26958">
        <time>2026-07-30T22:12:48Z</time>
      </trkpt>
      <trkpt lat="23.065608" lon="113.269679">
        <time>2026-07-30T22:12:53Z</time>
      </trkpt>
      <trkpt lat="23.065584" lon="113.269776">
        <time>2026-07-30T22:12:58Z</time>
      </trkpt>
      <trkpt lat="23.06554" lon="113.269905">
        <time>2026-07-30T22:13:03Z</time>
      </trkpt>
      <trkpt lat="23.065494" lon="113.270028">
        <time>2026-07-30T22:13:08Z</time>
      </trkpt>
      <trkpt lat="23.065463" lon="113.270113">
        <time>2026-07-30T22:13:13Z</time>
      </trkpt>
      <trkpt lat="23.065429" lon="113.270195">
        <time>2026-07-30T22:13:18Z</time>
      </trkpt>
      <trkpt lat="23.065371" lon="113.270322">
        <time>2026-07-30T22:13:23Z</time>
      </trkpt>
      <trkpt lat="23.065302" lon="113.270452">
        <time>2026-07-30T22:13:28Z</time>
      </trkpt>
      <trkpt lat="23.065241" lon="113.270534">
        <time>2026-07-30T22:13:33Z</time>
      </trkpt>
      <trkpt lat="23.065197" lon="113.27061">
        <time>2026-07-30T22:13:38Z</time>
      </trkpt>
      <trkpt lat="23.06514" lon="113.270732">
        <time>2026-07-30T22:13:43Z</time>
      </trkpt>
      <trkpt lat="23.065084" lon="113.270862">
        <time>2026-07-30T22:13:48Z</time>
      </trkpt>
      <trkpt lat="23.065042" lon="113.270947">
        <time>2026-07-30T22:13:53Z</time>
      </trkpt>
      <trkpt lat="23.065004" lon="113.271033">
        <time>2026-07-30T22:13:58Z</time>
      </trkpt>
      <trkpt lat="23.064948" lon="113.271163">
        <time>2026-07-30T22:14:03Z</time>
      </trkpt>
      <trkpt lat="23.064883" lon="113.271295">
        <time>2026-07-30T22:14:08Z</time>
      </trkpt>
      <trkpt lat="23.064844" lon="113.271385">
        <time>2026-07-30T22:14:13Z</time>
      </trkpt>
      <trkpt lat="23.064804" lon="113.27147">
        <time>2026-07-30T22:14:18Z</time>
      </trkpt>
      <trkpt lat="23.064741" lon="113.271605">
        <time>2026-07-30T22:14:23Z</time>
      </trkpt>
      <trkpt lat="23.064674" lon="113.271731">
        <time>2026-07-30T22:14:28Z</time>
      </trkpt>
      <trkpt lat="23.064632" lon="113.271816">
        <time>2026-07-30T22:14:33Z</time>
      </trkpt>
      <trkpt lat="23.064598" lon="113.271908">
        <time>2026-07-30T22:14:38Z</time>
      </trkpt>
      <trkpt lat="23.064541" lon="113.272038">
        <time>2026-07-30T22:14:43Z</time>
      </trkpt>
      <trkpt lat="23.064488" lon="113.272165">
        <time>2026-07-30T22:14:48Z</time>
      </trkpt>
      <trkpt lat="23.06445" lon="113.272253">
        <time>2026-07-30T22:14:53Z</time>
      </trkpt>
      <trkpt lat="23.064432" lon="113.272343">
        <time>2026-07-30T22:14:58Z</time>
      </trkpt>
      <trkpt lat="23.064412" lon="113.27245">
        <time>2026-07-30T22:15:03Z</time>
      </trkpt>
      <trkpt lat="23.064394" lon="113.272574">
        <time>2026-07-30T22:15:08Z</time>
      </trkpt>
      <trkpt lat="23.064404" lon="113.272663">
        <time>2026-07-30T22:15:13Z</time>
      </trkpt>
      <trkpt lat="23.064431" lon="113.27275">
        <time>2026-07-30T22:15:18Z</time>
      </trkpt>
      <trkpt lat="23.064472" lon="113.272878">
        <time>2026-07-30T22:15:23Z</time>
      </trkpt>
      <trkpt lat="23.064509" lon="113.273007">
        <time>2026-07-30T22:15:28Z</time>
      </trkpt>
      <trkpt lat="23.06453" lon="113.273086">
        <time>2026-07-30T22:15:33Z</time>
      </trkpt>
      <trkpt lat="23.064523" lon="113.273173">
        <time>2026-07-30T22:15:38Z</time>
      </trkpt>
      <trkpt lat="23.064456" lon="113.273287">
        <time>2026-07-30T22:15:43Z</time>
      </trkpt>
      <trkpt lat="23.064352" lon="113.273375">
        <time>2026-07-30T22:15:48Z</time>
      </trkpt>
      <trkpt lat="23.064265" lon="113.273429">
        <time>2026-07-30T22:15:53Z</time>
      </trkpt>
      <trkpt lat="23.064173" lon="113.273491">
        <time>2026-07-30T22:15:58Z</time>
      </trkpt>
      <trkpt lat="23.064069" lon="113.273584">
        <time>2026-07-30T22:16:03Z</time>
      </trkpt>
      <trkpt lat="23.063976" lon="113.273684">
        <time>2026-07-30T22:16:08Z</time>
      </trkpt>
      <trkpt lat="23.063923" lon="113.27376">
        <time>2026-07-30T22:16:13Z</time>
      </trkpt>
      <trkpt lat="23.063877" lon="113.273844">
        <time>2026-07-30T22:16:18Z</time>
      </trkpt>
      <trkpt lat="23.06381" lon="113.273977">
        <time>2026-07-30T22:16:23Z</time>
      </trkpt>
      <trkpt lat="23.063727" lon="113.274096">
        <time>2026-07-30T22:16:28Z</time>
      </trkpt>
      <trkpt lat="23.063676" lon="113.274143">
        <time>2026-07-30T22:16:33Z</time>
      </trkpt>
      <trkpt lat="23.063612" lon="113.274206">
        <time>2026-07-30T22:16:38Z</time>
      </trkpt>
      <trkpt lat="23.063521" lon="113.274346">
        <time>2026-07-30T22:16:43Z</time>
      </trkpt>
      <trkpt lat="23.063457" lon="113.274492">
        <time>2026-07-30T22:16:48Z</time>
      </trkpt>
      <trkpt lat="23.063425" lon="113.274589">
        <time>2026-07-30T22:16:53Z</time>
      </trkpt>
      <trkpt lat="23.06339" lon="113.274692">
        <time>2026-07-30T22:16:58Z</time>
      </trkpt>
      <trkpt lat="23.063334" lon="113.274849">
        <time>2026-07-30T22:17:03Z</time>
      </trkpt>
      <trkpt lat="23.063278" lon="113.275001">
        <time>2026-07-30T22:17:08Z</time>
      </trkpt>
      <trkpt lat="23.06323" lon="113.275093">
        <time>2026-07-30T22:17:13Z</time>
      </trkpt>
      <trkpt lat="23.063182" lon="113.275179">
        <time>2026-07-30T22:17:18Z</time>
      </trkpt>
      <trkpt lat="23.063113" lon="113.275306">
        <time>2026-07-30T22:17:23Z</time>
      </trkpt>
      <trkpt lat="23.063046" lon="113.275431">
        <time>2026-07-30T22:17:28Z</time>
      </trkpt>
      <trkpt lat="23.062991" lon="113.275511">
        <time>2026-07-30T22:17:33Z</time>
      </trkpt>
      <trkpt lat="23.062929" lon="113.275588">
        <time>2026-07-30T22:17:38Z</time>
      </trkpt>
      <trkpt lat="23.062823" lon="113.275695">
        <time>2026-07-30T22:17:43Z</time>
      </trkpt>
      <trkpt lat="23.062717" lon="113.275798">
        <time>2026-07-30T22:17:48Z</time>
      </trkpt>
      <trkpt lat="23.062653" lon="113.27587">
        <time>2026-07-30T22:17:53Z</time>
      </trkpt>
      <trkpt lat="23.062594" lon="113.275945">
        <time>2026-07-30T22:17:58Z</time>
      </trkpt>
      <trkpt lat="23.062517" lon="113.276068">
        <time>2026-07-30T22:18:03Z</time>
      </trkpt>
      <trkpt lat="23.062456" lon="113.276195">
        <time>2026-07-30T22:18:08Z</time>
      </trkpt>
      <trkpt lat="23.062425" lon="113.276284">
        <time>2026-07-30T22:18:13Z</time>
      </trkpt>
      <trkpt lat="23.062395" lon="113.276375">
        <time>2026-07-30T22:18:18Z</time>
      </trkpt>
      <trkpt lat="23.062341" lon="113.276515">
        <time>2026-07-30T22:18:23Z</time>
      </trkpt>
      <trkpt lat="23.062288" lon="113.276657">
        <time>2026-07-30T22:18:28Z</time>
      </trkpt>
      <trkpt lat="23.062253" lon="113.27675">
        <time>2026-07-30T22:18:33Z</time>
      </trkpt>
      <trkpt lat="23.062221" lon="113.276846">
        <time>2026-07-30T22:18:38Z</time>
      </trkpt>
      <trkpt lat="23.062174" lon="113.27699">
        <time>2026-07-30T22:18:43Z</time>
      </trkpt>
      <trkpt lat="23.062118" lon="113.277131">
        <time>2026-07-30T22:18:48Z</time>
      </trkpt>
      <trkpt lat="23.062077" lon="113.277221">
        <time>2026-07-30T22:18:53Z</time>
      </trkpt>
      <trkpt lat="23.06204" lon="113.27731">
        <time>2026-07-30T22:18:58Z</time>
      </trkpt>
      <trkpt lat="23.061985" lon="113.277456">
        <time>2026-07-30T22:19:03Z</time>
      </trkpt>
      <trkpt lat="23.061933" lon="113.277591">
        <time>2026-07-30T22:19:08Z</time>
      </trkpt>
      <trkpt lat="23.061902" lon="113.277679">
        <time>2026-07-30T22:19:13Z</time>
      </trkpt>
      <trkpt lat="23.061881" lon="113.277774">
        <time>2026-07-30T22:19:18Z</time>
      </trkpt>
      <trkpt lat="23.061869" lon="113.27792">
        <time>2026-07-30T22:19:23Z</time>
      </trkpt>
      <trkpt lat="23.061874" lon="113.278065">
        <time>2026-07-30T22:19:28Z</time>
      </trkpt>
      <trkpt lat="23.06188" lon="113.278166">
        <time>2026-07-30T22:19:33Z</time>
      </trkpt>
      <trkpt lat="23.061884" lon="113.278264">
        <time>2026-07-30T22:19:38Z</time>
      </trkpt>
      <trkpt lat="23.061888" lon="113.278406">
        <time>2026-07-30T22:19:43Z</time>
      </trkpt>
      <trkpt lat="23.061889" lon="113.278551">
        <time>2026-07-30T22:19:48Z</time>
      </trkpt>
      <trkpt lat="23.061881" lon="113.278643">
        <time>2026-07-30T22:19:53Z</time>
      </trkpt>
      <trkpt lat="23.061859" lon="113.278733">
        <time>2026-07-30T22:19:58Z</time>
      </trkpt>
      <trkpt lat="23.061799" lon="113.278857">
        <time>2026-07-30T22:20:03Z</time>
      </trkpt>
      <trkpt lat="23.061733" lon="113.278976">
        <time>2026-07-30T22:20:08Z</time>
      </trkpt>
      <trkpt lat="23.061688" lon="113.279055">
        <time>2026-07-30T22:20:13Z</time>
      </trkpt>
      <trkpt lat="23.061646" lon="113.279138">
        <time>2026-07-30T22:20:18Z</time>
      </trkpt>
      <trkpt lat="23.061592" lon="113.279271">
        <time>2026-07-30T22:20:23Z</time>
      </trkpt>
      <trkpt lat="23.061552" lon="113.279402">
        <time>2026-07-30T22:20:28Z</time>
      </trkpt>
      <trkpt lat="23.061523" lon="113.279487">
        <time>2026-07-30T22:20:33Z</time>
      </trkpt>
      <trkpt lat="23.061488" lon="113.279573">
        <time>2026-07-30T22:20:38Z</time>
      </trkpt>
      <trkpt lat="23.061431" lon="113.2797">
        <time>2026-07-30T22:20:43Z</time>
      </trkpt>
      <trkpt lat="23.061381" lon="113.279822">
        <time>2026-07-30T22:20:48Z</time>
      </trkpt>
      <trkpt lat="23.061349" lon="113.279907">
        <time>2026-07-30T22:20:53Z</time>
      </trkpt>
      <trkpt lat="23.061312" lon="113.279997">
        <time>2026-07-30T22:20:58Z</time>
      </trkpt>
      <trkpt lat="23.061247" lon="113.280138">
        <time>2026-07-30T22:21:03Z</time>
      </trkpt>
      <trkpt lat="23.06117" lon="113.280272">
        <time>2026-07-30T22:21:08Z</time>
      </trkpt>
      <trkpt lat="23.061107" lon="113.280358">
        <time>2026-07-30T22:21:13Z</time>
      </trkpt>
      <trkpt lat="23.061065" lon="113.280455">
        <time>2026-07-30T22:21:18Z</time>
      </trkpt>
      <trkpt lat="23.061007" lon="113.280607">
        <time>2026-07-30T22:21:23Z</time>
      </trkpt>
      <trkpt lat="23.060945" lon="113.280756">
        <time>2026-07-30T22:21:28Z</time>
      </trkpt>
      <trkpt lat="23.060903" lon="113.280848">
        <time>2026-07-30T22:21:33Z</time>
      </trkpt>
      <trkpt lat="23.060861" lon="113.280934">
        <time>2026-07-30T22:21:38Z</time>
      </trkpt>
      <trkpt lat="23.060804" lon="113.281059">
        <time>2026-07-30T22:21:43Z</time>
      </trkpt>
      <trkpt lat="23.060744" lon="113.28119">
        <time>2026-07-30T22:21:48Z</time>
      </trkpt>
      <trkpt lat="23.060706" lon="113.281279">
        <time>2026-07-30T22:21:53Z</time>
      </trkpt>
      <trkpt lat="23.060664" lon="113.281366">
        <time>2026-07-30T22:21:58Z</time>
      </trkpt>
      <trkpt lat="23.060608" lon="113.281495">
        <time>2026-07-30T22:22:03Z</time>
      </trkpt>
      <trkpt lat="23.060562" lon="113.281628">
        <time>2026-07-30T22:22:08Z</time>
      </trkpt>
      <trkpt lat="23.060535" lon="113.28172">
        <time>2026-07-30T22:22:13Z</time>
      </trkpt>
      <trkpt lat="23.060503" lon="113.281807">
        <time>2026-07-30T22:22:18Z</time>
      </trkpt>
      <trkpt lat="23.060436" lon="113.281933">
        <time>2026-07-30T22:22:23Z</time>
      </trkpt>
      <trkpt lat="23.060377" lon="113.282064">
        <time>2026-07-30T22:22:28Z</time>
      </trkpt>
      <trkpt lat="23.060347" lon="113.282149">
        <time>2026-07-30T22:22:33Z</time>
      </trkpt>
      <trkpt lat="23.060321" lon="113.282233">
        <time>2026-07-30T22:22:38Z</time>
      </trkpt>
      <trkpt lat="23.060281" lon="113.282358">
        <time>2026-07-30T22:22:43Z</time>
      </trkpt>
      <trkpt lat="23.060231" lon="113.282492">
        <time>2026-07-30T22:22:48Z</time>
      </trkpt>
      <trkpt lat="23.060192" lon="113.282581">
        <time>2026-07-30T22:22:53Z</time>
      </trkpt>
      <trkpt lat="23.060142" lon="113.282666">
        <time>2026-07-30T22:22:58Z</time>
      </trkpt>
      <trkpt lat="23.060081" lon="113.282798">
        <time>2026-07-30T22:23:03Z</time>
      </trkpt>
      <trkpt lat="23.060029" lon="113.282931">
        <time>2026-07-30T22:23:08Z</time>
      </trkpt>
      <trkpt lat="23.059991" lon="113.283015">
        <time>2026-07-30T22:23:13Z</time>
      </trkpt>
      <trkpt lat="23.059951" lon="113.283097">
        <time>2026-07-30T22:23:18Z</time>
      </trkpt>
      <trkpt lat="23.059889" lon="113.28322">
        <time>2026-07-30T22:23:23Z</time>
      </trkpt>
      <trkpt lat="23.059813" lon="113.283346">
        <time>2026-07-30T22:23:28Z</time>
      </trkpt>
      <trkpt lat="23.059765" lon="113.283431">
        <time>2026-07-30T22:23:33Z</time>
      </trkpt>
      <trkpt lat="23.059731" lon="113.283521">
        <time>2026-07-30T22:23:38Z</time>
      </trkpt>
      <trkpt lat="23.059731" lon="113.283637">
        <time>2026-07-30T22:23:43Z</time>
      </trkpt>
      <trkpt lat="23.05983" lon="113.283645">
        <time>2026-07-30T22:23:48Z</time>
      </trkpt>
      <trkpt lat="23.059908" lon="113.28364">
        <time>2026-07-30T22:23:53Z</time>
      </trkpt>
      <trkpt lat="23.059975" lon="113.283627">
        <time>2026-07-30T22:23:58Z</time>
      </trkpt>
      <trkpt lat="23.059929" lon="113.28353">
        <time>2026-07-30T22:24:03Z</time>
      </trkpt>
      <trkpt lat="23.059872" lon="113.283396">
        <time>2026-07-30T22:24:08Z</time>
      </trkpt>
      <trkpt lat="23.059866" lon="113.283293">
        <time>2026-07-30T22:24:13Z</time>
      </trkpt>
      <trkpt lat="23.059895" lon="113.283207">
        <time>2026-07-30T22:24:18Z</time>
      </trkpt>
      <trkpt lat="23.059955" lon="113.283086">
        <time>2026-07-30T22:24:23Z</time>
      </trkpt>
      <trkpt lat="23.060019" lon="113.282958">
        <time>2026-07-30T22:24:28Z</time>
      </trkpt>
      <trkpt lat="23.060062" lon="113.28287">
        <time>2026-07-30T22:24:33Z</time>
      </trkpt>
      <trkpt lat="23.060111" lon="113.282777">
        <time>2026-07-30T22:24:38Z</time>
      </trkpt>
      <trkpt lat="23.060168" lon="113.282643">
        <time>2026-07-30T22:24:43Z</time>
      </trkpt>
      <trkpt lat="23.060221" lon="113.282511">
        <time>2026-07-30T22:24:48Z</time>
      </trkpt>
      <trkpt lat="23.060258" lon="113.282426">
        <time>2026-07-30T22:24:53Z</time>
      </trkpt>
      <trkpt lat="23.060291" lon="113.282344">
        <time>2026-07-30T22:24:58Z</time>
      </trkpt>
      <trkpt lat="23.060342" lon="113.282222">
        <time>2026-07-30T22:25:03Z</time>
      </trkpt>
      <trkpt lat="23.060405" lon="113.282096">
        <time>2026-07-30T22:25:08Z</time>
      </trkpt>
      <trkpt lat="23.060448" lon="113.282013">
        <time>2026-07-30T22:25:13Z</time>
      </trkpt>
      <trkpt lat="23.060486" lon="113.281929">
        <time>2026-07-30T22:25:18Z</time>
      </trkpt>
      <trkpt lat="23.060543" lon="113.281801">
        <time>2026-07-30T22:25:23Z</time>
      </trkpt>
      <trkpt lat="23.060605" lon="113.281672">
        <time>2026-07-30T22:25:28Z</time>
      </trkpt>
      <trkpt lat="23.060645" lon="113.281587">
        <time>2026-07-30T22:25:33Z</time>
      </trkpt>
      <trkpt lat="23.060683" lon="113.281502">
        <time>2026-07-30T22:25:38Z</time>
      </trkpt>
      <trkpt lat="23.060745" lon="113.281372">
        <time>2026-07-30T22:25:43Z</time>
      </trkpt>
      <trkpt lat="23.0608" lon="113.28123">
        <time>2026-07-30T22:25:48Z</time>
      </trkpt>
      <trkpt lat="23.06084" lon="113.281133">
        <time>2026-07-30T22:25:53Z</time>
      </trkpt>
      <trkpt lat="23.060882" lon="113.281034">
        <time>2026-07-30T22:25:58Z</time>
      </trkpt>
      <trkpt lat="23.060947" lon="113.280883">
        <time>2026-07-30T22:26:03Z</time>
      </trkpt>
      <trkpt lat="23.061009" lon="113.280729">
        <time>2026-07-30T22:26:08Z</time>
      </trkpt>
      <trkpt lat="23.061047" lon="113.280621">
        <time>2026-07-30T22:26:13Z</time>
      </trkpt>
      <trkpt lat="23.061076" lon="113.280517">
        <time>2026-07-30T22:26:18Z</time>
      </trkpt>
      <trkpt lat="23.061126" lon="113.280367">
        <time>2026-07-30T22:26:23Z</time>
      </trkpt>
      <trkpt lat="23.061175" lon="113.280227">
        <time>2026-07-30T22:26:28Z</time>
      </trkpt>
      <trkpt lat="23.061211" lon="113.280134">
        <time>2026-07-30T22:26:33Z</time>
      </trkpt>
      <trkpt lat="23.061247" lon="113.280045">
        <time>2026-07-30T22:26:38Z</time>
      </trkpt>
      <trkpt lat="23.061311" lon="113.27991">
        <time>2026-07-30T22:26:43Z</time>
      </trkpt>
      <trkpt lat="23.061369" lon="113.279769">
        <time>2026-07-30T22:26:48Z</time>
      </trkpt>
      <trkpt lat="23.061412" lon="113.279673">
        <time>2026-07-30T22:26:53Z</time>
      </trkpt>
      <trkpt lat="23.061459" lon="113.279579">
        <time>2026-07-30T22:26:58Z</time>
      </trkpt>
      <trkpt lat="23.061528" lon="113.279444">
        <time>2026-07-30T22:27:03Z</time>
      </trkpt>
      <trkpt lat="23.061593" lon="113.279305">
        <time>2026-07-30T22:27:08Z</time>
      </trkpt>
      <trkpt lat="23.061621" lon="113.27921">
        <time>2026-07-30T22:27:13Z</time>
      </trkpt>
      <trkpt lat="23.061666" lon="113.279116">
        <time>2026-07-30T22:27:18Z</time>
      </trkpt>
      <trkpt lat="23.061746" lon="113.278976">
        <time>2026-07-30T22:27:23Z</time>
      </trkpt>
      <trkpt lat="23.061794" lon="113.278824">
        <time>2026-07-30T22:27:28Z</time>
      </trkpt>
      <trkpt lat="23.061834" lon="113.278745">
        <time>2026-07-30T22:27:33Z</time>
      </trkpt>
      <trkpt lat="23.061894" lon="113.278701">
        <time>2026-07-30T22:27:38Z</time>
      </trkpt>
      <trkpt lat="23.061913" lon="113.278558">
        <time>2026-07-30T22:27:43Z</time>
      </trkpt>
      <trkpt lat="23.061894" lon="113.278393">
        <time>2026-07-30T22:27:48Z</time>
      </trkpt>
      <trkpt lat="23.061884" lon="113.278283">
        <time>2026-07-30T22:27:53Z</time>
      </trkpt>
      <trkpt lat="23.061879" lon="113.278176">
        <time>2026-07-30T22:27:58Z</time>
      </trkpt>
      <trkpt lat="23.061864" lon="113.278015">
        <time>2026-07-30T22:28:03Z</time>
      </trkpt>
      <trkpt lat="23.061862" lon="113.277844">
        <time>2026-07-30T22:28:08Z</time>
      </trkpt>
      <trkpt lat="23.061871" lon="113.27773">
        <time>2026-07-30T22:28:13Z</time>
      </trkpt>
      <trkpt lat="23.0619" lon="113.277623">
        <time>2026-07-30T22:28:18Z</time>
      </trkpt>
      <trkpt lat="23.061957" lon="113.27747">
        <time>2026-07-30T22:28:23Z</time>
      </trkpt>
      <trkpt lat="23.06202" lon="113.277317">
        <time>2026-07-30T22:28:28Z</time>
      </trkpt>
      <trkpt lat="23.062055" lon="113.277216">
        <time>2026-07-30T22:28:33Z</time>
      </trkpt>
      <trkpt lat="23.062095" lon="113.27712">
        <time>2026-07-30T22:28:38Z</time>
      </trkpt>
      <trkpt lat="23.062141" lon="113.276974">
        <time>2026-07-30T22:28:43Z</time>
      </trkpt>
      <trkpt lat="23.062193" lon="113.276834">
        <time>2026-07-30T22:28:48Z</time>
      </trkpt>
      <trkpt lat="23.062233" lon="113.276741">
        <time>2026-07-30T22:28:53Z</time>
      </trkpt>
      <trkpt lat="23.062269" lon="113.276644">
        <time>2026-07-30T22:28:58Z</time>
      </trkpt>
      <trkpt lat="23.062319" lon="113.276512">
        <time>2026-07-30T22:29:03Z</time>
      </trkpt>
      <trkpt lat="23.062378" lon="113.276396">
        <time>2026-07-30T22:29:08Z</time>
      </trkpt>
      <trkpt lat="23.062448" lon="113.276355">
        <time>2026-07-30T22:29:13Z</time>
      </trkpt>
      <trkpt lat="23.062509" lon="113.27629">
        <time>2026-07-30T22:29:18Z</time>
      </trkpt>
      <trkpt lat="23.062567" lon="113.276155">
        <time>2026-07-30T22:29:23Z</time>
      </trkpt>
      <trkpt lat="23.062635" lon="113.276029">
        <time>2026-07-30T22:29:28Z</time>
      </trkpt>
      <trkpt lat="23.062688" lon="113.275952">
        <time>2026-07-30T22:29:33Z</time>
      </trkpt>
      <trkpt lat="23.062747" lon="113.275877">
        <time>2026-07-30T22:29:38Z</time>
      </trkpt>
      <trkpt lat="23.062839" lon="113.275769">
        <time>2026-07-30T22:29:43Z</time>
      </trkpt>
      <trkpt lat="23.062946" lon="113.275666">
        <time>2026-07-30T22:29:48Z</time>
      </trkpt>
      <trkpt lat="23.063014" lon="113.275596">
        <time>2026-07-30T22:29:53Z</time>
      </trkpt>
      <trkpt lat="23.06307" lon="113.275521">
        <time>2026-07-30T22:29:58Z</time>
      </trkpt>
      <trkpt lat="23.06314" lon="113.275401">
        <time>2026-07-30T22:30:03Z</time>
      </trkpt>
      <trkpt lat="23.063218" lon="113.27528">
        <time>2026-07-30T22:30:08Z</time>
      </trkpt>
      <trkpt lat="23.063271" lon="113.275199">
        <time>2026-07-30T22:30:13Z</time>
      </trkpt>
      <trkpt lat="23.063324" lon="113.275116">
        <time>2026-07-30T22:30:18Z</time>
      </trkpt>
      <trkpt lat="23.063372" lon="113.274971">
        <time>2026-07-30T22:30:23Z</time>
      </trkpt>
      <trkpt lat="23.063407" lon="113.274839">
        <time>2026-07-30T22:30:28Z</time>
      </trkpt>
      <trkpt lat="23.06344" lon="113.274754">
        <time>2026-07-30T22:30:33Z</time>
      </trkpt>
      <trkpt lat="23.063473" lon="113.274673">
        <time>2026-07-30T22:30:38Z</time>
      </trkpt>
      <trkpt lat="23.063518" lon="113.274553">
        <time>2026-07-30T22:30:43Z</time>
      </trkpt>
      <trkpt lat="23.063557" lon="113.274437">
        <time>2026-07-30T22:30:48Z</time>
      </trkpt>
      <trkpt lat="23.063588" lon="113.274366">
        <time>2026-07-30T22:30:53Z</time>
      </trkpt>
      <trkpt lat="23.063635" lon="113.274299">
        <time>2026-07-30T22:30:58Z</time>
      </trkpt>
      <trkpt lat="23.063754" lon="113.274207">
        <time>2026-07-30T22:31:03Z</time>
      </trkpt>
      <trkpt lat="23.063853" lon="113.274096">
        <time>2026-07-30T22:31:08Z</time>
      </trkpt>
      <trkpt lat="23.063909" lon="113.274012">
        <time>2026-07-30T22:31:13Z</time>
      </trkpt>
      <trkpt lat="23.063962" lon="113.273926">
        <time>2026-07-30T22:31:18Z</time>
      </trkpt>
      <trkpt lat="23.064028" lon="113.273817">
        <time>2026-07-30T22:31:23Z</time>
      </trkpt>
      <trkpt lat="23.064126" lon="113.273714">
        <time>2026-07-30T22:31:28Z</time>
      </trkpt>
      <trkpt lat="23.064195" lon="113.273659">
        <time>2026-07-30T22:31:33Z</time>
      </trkpt>
      <trkpt lat="23.06426" lon="113.273602">
        <time>2026-07-30T22:31:38Z</time>
      </trkpt>
      <trkpt lat="23.064358" lon="113.273518">
        <time>2026-07-30T22:31:43Z</time>
      </trkpt>
      <trkpt lat="23.06446" lon="113.273425">
        <time>2026-07-30T22:31:48Z</time>
      </trkpt>
      <trkpt lat="23.06452" lon="113.273357">
        <time>2026-07-30T22:31:53Z</time>
      </trkpt>
      <trkpt lat="23.064574" lon="113.273278">
        <time>2026-07-30T22:31:58Z</time>
      </trkpt>
      <trkpt lat="23.064602" lon="113.273139">
        <time>2026-07-30T22:32:03Z</time>
      </trkpt>
      <trkpt lat="23.064568" lon="113.272989">
        <time>2026-07-30T22:32:08Z</time>
      </trkpt>
      <trkpt lat="23.064536" lon="113.272893">
        <time>2026-07-30T22:32:13Z</time>
      </trkpt>
      <trkpt lat="23.064502" lon="113.272799">
        <time>2026-07-30T22:32:18Z</time>
      </trkpt>
      <trkpt lat="23.064468" lon="113.272656">
        <time>2026-07-30T22:32:23Z</time>
      </trkpt>
      <trkpt lat="23.064499" lon="113.272511">
        <time>2026-07-30T22:32:28Z</time>
      </trkpt>
      <trkpt lat="23.064549" lon="113.272425">
        <time>2026-07-30T22:32:33Z</time>
      </trkpt>
      <trkpt lat="23.064568" lon="113.272327">
        <time>2026-07-30T22:32:38Z</time>
      </trkpt>
      <trkpt lat="23.06459" lon="113.272177">
        <time>2026-07-30T22:32:43Z</time>
      </trkpt>
      <trkpt lat="23.06465" lon="113.272049">
        <time>2026-07-30T22:32:48Z</time>
      </trkpt>
      <trkpt lat="23.064694" lon="113.27197">
        <time>2026-07-30T22:32:53Z</time>
      </trkpt>
      <trkpt lat="23.064736" lon="113.271893">
        <time>2026-07-30T22:32:58Z</time>
      </trkpt>
      <trkpt lat="23.064802" lon="113.271777">
        <time>2026-07-30T22:33:03Z</time>
      </trkpt>
      <trkpt lat="23.06487" lon="113.271654">
        <time>2026-07-30T22:33:08Z</time>
      </trkpt>
      <trkpt lat="23.06491" lon="113.271565">
        <time>2026-07-30T22:33:13Z</time>
      </trkpt>
      <trkpt lat="23.06496" lon="113.271479">
        <time>2026-07-30T22:33:18Z</time>
      </trkpt>
      <trkpt lat="23.065028" lon="113.271348">
        <time>2026-07-30T22:33:23Z</time>
      </trkpt>
      <trkpt lat="23.065086" lon="113.271215">
        <time>2026-07-30T22:33:28Z</time>
      </trkpt>
      <trkpt lat="23.065129" lon="113.271133">
        <time>2026-07-30T22:33:33Z</time>
      </trkpt>
      <trkpt lat="23.065177" lon="113.271043">
        <time>2026-07-30T22:33:38Z</time>
      </trkpt>
      <trkpt lat="23.065228" lon="113.270898">
        <time>2026-07-30T22:33:43Z</time>
      </trkpt>
      <trkpt lat="23.065286" lon="113.270762">
        <time>2026-07-30T22:33:48Z</time>
      </trkpt>
      <trkpt lat="23.065324" lon="113.270679">
        <time>2026-07-30T22:33:53Z</time>
      </trkpt>
      <trkpt lat="23.065355" lon="113.270604">
        <time>2026-07-30T22:33:58Z</time>
      </trkpt>
      <trkpt lat="23.065404" lon="113.270481">
        <time>2026-07-30T22:34:03Z</time>
      </trkpt>
      <trkpt lat="23.065454" lon="113.270343">
        <time>2026-07-30T22:34:08Z</time>
      </trkpt>
      <trkpt lat="23.065495" lon="113.270259">
        <time>2026-07-30T22:34:13Z</time>
      </trkpt>
      <trkpt lat="23.065532" lon="113.270178">
        <time>2026-07-30T22:34:18Z</time>
      </trkpt>
      <trkpt lat="23.065574" lon="113.270049">
        <time>2026-07-30T22:34:23Z</time>
      </trkpt>
      <trkpt lat="23.06562" lon="113.269921">
        <time>2026-07-30T22:34:28Z</time>
      </trkpt>
      <trkpt lat="23.065644" lon="113.269836">
        <time>2026-07-30T22:34:33Z</time>
      </trkpt>
      <trkpt lat="23.065669" lon="113.26975">
        <time>2026-07-30T22:34:38Z</time>
      </trkpt>
      <trkpt lat="23.065718" lon="113.269616">
        <time>2026-07-30T22:34:43Z</time>
      </trkpt>
      <trkpt lat="23.065757" lon="113.269469">
        <time>2026-07-30T22:34:48Z</time>
      </trkpt>
      <trkpt lat="23.065773" lon="113.269368">
        <time>2026-07-30T22:34:53Z</time>
      </trkpt>
      <trkpt lat="23.065796" lon="113.269267">
        <time>2026-07-30T22:34:58Z</time>
      </trkpt>
      <trkpt lat="23.065842" lon="113.269129">
        <time>2026-07-30T22:35:03Z</time>
      </trkpt>
      <trkpt lat="23.065902" lon="113.268995">
        <time>2026-07-30T22:35:08Z</time>
      </trkpt>
      <trkpt lat="23.065944" lon="113.268912">
        <time>2026-07-30T22:35:13Z</time>
      </trkpt>
      <trkpt lat="23.065985" lon="113.268828">
        <time>2026-07-30T22:35:18Z</time>
      </trkpt>
      <trkpt lat="23.066042" lon="113.268702">
        <time>2026-07-30T22:35:23Z</time>
      </trkpt>
      <trkpt lat="23.066106" lon="113.268574">
        <time>2026-07-30T22:35:28Z</time>
      </trkpt>
      <trkpt lat="23.066152" lon="113.268486">
        <time>2026-07-30T22:35:33Z</time>
      </trkpt>
      <trkpt lat="23.066197" lon="113.268402">
        <time>2026-07-30T22:35:38Z</time>
      </trkpt>
      <trkpt lat="23.066275" lon="113.268283">
        <time>2026-07-30T22:35:43Z</time>
      </trkpt>
      <trkpt lat="23.066375" lon="113.26818">
        <time>2026-07-30T22:35:48Z</time>
      </trkpt>
      <trkpt lat="23.066461" lon="113.268138">
        <time>2026-07-30T22:35:53Z</time>
      </trkpt>
      <trkpt lat="23.066552" lon="113.268131">
        <time>2026-07-30T22:35:58Z</time>
      </trkpt>
      <trkpt lat="23.06668" lon="113.268159">
        <time>2026-07-30T22:36:03Z</time>
      </trkpt>
      <trkpt lat="23.066809" lon="113.268157">
        <time>2026-07-30T22:36:08Z</time>
      </trkpt>
      <trkpt lat="23.066902" lon="113.268154">
        <time>2026-07-30T22:36:13Z</time>
      </trkpt>
      <trkpt lat="23.066992" lon="113.268171">
        <time>2026-07-30T22:36:18Z</time>
      </trkpt>
      <trkpt lat="23.067104" lon="113.26822">
        <time>2026-07-30T22:36:23Z</time>
      </trkpt>
      <trkpt lat="23.067218" lon="113.268279">
        <time>2026-07-30T22:36:28Z</time>
      </trkpt>
      <trkpt lat="23.06729" lon="113.268321">
        <time>2026-07-30T22:36:33Z</time>
      </trkpt>
      <trkpt lat="23.06736" lon="113.268366">
        <time>2026-07-30T22:36:38Z</time>
      </trkpt>
      <trkpt lat="23.067457" lon="113.26844">
        <time>2026-07-30T22:36:43Z</time>
      </trkpt>
      <trkpt lat="23.067586" lon="113.26852">
        <time>2026-07-30T22:36:48Z</time>
      </trkpt>
      <trkpt lat="23.067672" lon="113.268569">
        <time>2026-07-30T22:36:53Z</time>
      </trkpt>
      <trkpt lat="23.067755" lon="113.26861">
        <time>2026-07-30T22:36:58Z</time>
      </trkpt>
      <trkpt lat="23.067877" lon="113.268682">
        <time>2026-07-30T22:37:03Z</time>
      </trkpt>
      <trkpt lat="23.067974" lon="113.268759">
        <time>2026-07-30T22:37:08Z</time>
      </trkpt>
      <trkpt lat="23.068054" lon="113.268801">
        <time>2026-07-30T22:37:13Z</time>
      </trkpt>
      <trkpt lat="23.068138" lon="113.26883">
        <time>2026-07-30T22:37:18Z</time>
      </trkpt>
      <trkpt lat="23.068267" lon="113.268866">
        <time>2026-07-30T22:37:23Z</time>
      </trkpt>
      <trkpt lat="23.068386" lon="113.26893">
        <time>2026-07-30T22:37:28Z</time>
      </trkpt>
      <trkpt lat="23.068449" lon="113.268987">
        <time>2026-07-30T22:37:33Z</time>
      </trkpt>
      <trkpt lat="23.068503" lon="113.26906">
        <time>2026-07-30T22:37:38Z</time>
      </trkpt>
      <trkpt lat="23.068596" lon="113.269147">
        <time>2026-07-30T22:37:43Z</time>
      </trkpt>
      <trkpt lat="23.068753" lon="113.269177">
        <time>2026-07-30T22:37:48Z</time>
      </trkpt>
      <trkpt lat="23.068862" lon="113.269185">
        <time>2026-07-30T22:37:53Z</time>
      </trkpt>
      <trkpt lat="23.068948" lon="113.26922">
        <time>2026-07-30T22:37:58Z</time>
      </trkpt>
      <trkpt lat="23.069077" lon="113.269261">
        <time>2026-07-30T22:38:03Z</time>
      </trkpt>
      <trkpt lat="23.069205" lon="113.26933">
        <time>2026-07-30T22:38:08Z</time>
      </trkpt>
      <trkpt lat="23.069285" lon="113.269373">
        <time>2026-07-30T22:38:13Z</time>
      </trkpt>
      <trkpt lat="23.069372" lon="113.269408">
        <time>2026-07-30T22:38:18Z</time>
      </trkpt>
      <trkpt lat="23.069513" lon="113.269446">
        <time>2026-07-30T22:38:23Z</time>
      </trkpt>
      <trkpt lat="23.06964" lon="113.26951">
        <time>2026-07-30T22:38:28Z</time>
      </trkpt>
      <trkpt lat="23.069727" lon="113.269554">
        <time>2026-07-30T22:38:33Z</time>
      </trkpt>
      <trkpt lat="23.069807" lon="113.2696">
        <time>2026-07-30T22:38:38Z</time>
      </trkpt>
      <trkpt lat="23.069919" lon="113.269657">
        <time>2026-07-30T22:38:43Z</time>
      </trkpt>
      <trkpt lat="23.070034" lon="113.269731">
        <time>2026-07-30T22:38:48Z</time>
      </trkpt>
      <trkpt lat="23.070119" lon="113.269775">
        <time>2026-07-30T22:38:53Z</time>
      </trkpt>
      <trkpt lat="23.070195" lon="113.269818">
        <time>2026-07-30T22:38:58Z</time>
      </trkpt>
      <trkpt lat="23.070308" lon="113.269898">
        <time>2026-07-30T22:39:03Z</time>
      </trkpt>
      <trkpt lat="23.07043" lon="113.269947">
        <time>2026-07-30T22:39:08Z</time>
      </trkpt>
      <trkpt lat="23.070522" lon="113.269953">
        <time>2026-07-30T22:39:13Z</time>
      </trkpt>
      <trkpt lat="23.070614" lon="113.269962">
        <time>2026-07-30T22:39:18Z</time>
      </trkpt>
      <trkpt lat="23.070738" lon="113.270005">
        <time>2026-07-30T22:39:23Z</time>
      </trkpt>
      <trkpt lat="23.070842" lon="113.270073">
        <time>2026-07-30T22:39:28Z</time>
      </trkpt>
      <trkpt lat="23.07091" lon="113.270128">
        <time>2026-07-30T22:39:33Z</time>
      </trkpt>
      <trkpt lat="23.070973" lon="113.270177">
        <time>2026-07-30T22:39:38Z</time>
      </trkpt>
      <trkpt lat="23.071091" lon="113.27023">
        <time>2026-07-30T22:39:43Z</time>
      </trkpt>
      <trkpt lat="23.071212" lon="113.270297">
        <time>2026-07-30T22:39:48Z</time>
      </trkpt>
      <trkpt lat="23.071297" lon="113.270351">
        <time>2026-07-30T22:39:53Z</time>
      </trkpt>
      <trkpt lat="23.071382" lon="113.270401">
        <time>2026-07-30T22:39:58Z</time>
      </trkpt>
      <trkpt lat="23.071508" lon="113.270422">
        <time>2026-07-30T22:40:03Z</time>
      </trkpt>
      <trkpt lat="23.071613" lon="113.270494">
        <time>2026-07-30T22:40:08Z</time>
      </trkpt>
      <trkpt lat="23.071676" lon="113.270547">
        <time>2026-07-30T22:40:13Z</time>
      </trkpt>
      <trkpt lat="23.071739" lon="113.27059">
        <time>2026-07-30T22:40:18Z</time>
      </trkpt>
      <trkpt lat="23.071878" lon="113.270639">
        <time>2026-07-30T22:40:23Z</time>
      </trkpt>
      <trkpt lat="23.072026" lon="113.270658">
        <time>2026-07-30T22:40:28Z</time>
      </trkpt>
      <trkpt lat="23.072105" lon="113.270701">
        <time>2026-07-30T22:40:33Z</time>
      </trkpt>
      <trkpt lat="23.072175" lon="113.270755">
        <time>2026-07-30T22:40:38Z</time>
      </trkpt>
      <trkpt lat="23.072277" lon="113.270841">
        <time>2026-07-30T22:40:43Z</time>
      </trkpt>
      <trkpt lat="23.072396" lon="113.270894">
        <time>2026-07-30T22:40:48Z</time>
      </trkpt>
      <trkpt lat="23.072471" lon="113.270939">
        <time>2026-07-30T22:40:53Z</time>
      </trkpt>
      <trkpt lat="23.07255" lon="113.270995">
        <time>2026-07-30T22:40:58Z</time>
      </trkpt>
      <trkpt lat="23.072663" lon="113.271074">
        <time>2026-07-30T22:41:03Z</time>
      </trkpt>
      <trkpt lat="23.072767" lon="113.271138">
        <time>2026-07-30T22:41:08Z</time>
      </trkpt>
      <trkpt lat="23.072851" lon="113.271184">
        <time>2026-07-30T22:41:13Z</time>
      </trkpt>
      <trkpt lat="23.072932" lon="113.27122">
        <time>2026-07-30T22:41:18Z</time>
      </trkpt>
      <trkpt lat="23.073041" lon="113.271297">
        <time>2026-07-30T22:41:23Z</time>
      </trkpt>
      <trkpt lat="23.073163" lon="113.27135">
        <time>2026-07-30T22:41:28Z</time>
      </trkpt>
      <trkpt lat="23.073229" lon="113.271372">
        <time>2026-07-30T22:41:33Z</time>
      </trkpt>
      <trkpt lat="23.073279" lon="113.27141">
        <time>2026-07-30T22:41:38Z</time>
      </trkpt>
      <trkpt lat="23.073378" lon="113.271466">
        <time>2026-07-30T22:41:43Z</time>
      </trkpt>
      <trkpt lat="23.073502" lon="113.271531">
        <time>2026-07-30T22:41:48Z</time>
      </trkpt>
      <trkpt lat="23.073574" lon="113.27158">
        <time>2026-07-30T22:41:53Z</time>
      </trkpt>
      <trkpt lat="23.073625" lon="113.271634">
        <time>2026-07-30T22:41:58Z</time>
      </trkpt>
      <trkpt lat="23.073718" lon="113.271705">
        <time>2026-07-30T22:42:03Z</time>
      </trkpt>
      <trkpt lat="23.073823" lon="113.271756">
        <time>2026-07-30T22:42:08Z</time>
      </trkpt>
      <trkpt lat="23.073899" lon="113.271773">
        <time>2026-07-30T22:42:13Z</time>
      </trkpt>
      <trkpt lat="23.073978" lon="113.271789">
        <time>2026-07-30T22:42:18Z</time>
      </trkpt>
      <trkpt lat="23.074076" lon="113.271825">
        <time>2026-07-30T22:42:23Z</time>
      </trkpt>
      <trkpt lat="23.074057" lon="113.271922">
        <time>2026-07-30T22:42:28Z</time>
      </trkpt>
      <trkpt lat="23.074015" lon="113.271995">
        <time>2026-07-30T22:42:33Z</time>
      </trkpt>
      <trkpt lat="23.073985" lon="113.272058">
        <time>2026-07-30T22:42:38Z</time>
      </trkpt>
      <trkpt lat="23.073948" lon="113.272164">
        <time>2026-07-30T22:42:43Z</time>
      </trkpt>
      <trkpt lat="23.073891" lon="113.272275">
        <time>2026-07-30T22:42:48Z</time>
      </trkpt>
      <trkpt lat="23.073842" lon="113.272355">
        <time>2026-07-30T22:42:53Z</time>
      </trkpt>
      <trkpt lat="23.073803" lon="113.272442">
        <time>2026-07-30T22:42:58Z</time>
      </trkpt>
      <trkpt lat="23.073743" lon="113.272583">
        <time>2026-07-30T22:43:03Z</time>
      </trkpt>
      <trkpt lat="23.073701" lon="113.272721">
        <time>2026-07-30T22:43:08Z</time>
      </trkpt>
      <trkpt lat="23.073666" lon="113.272806">
        <time>2026-07-30T22:43:13Z</time>
      </trkpt>
      <trkpt lat="23.073634" lon="113.272896">
        <time>2026-07-30T22:43:18Z</time>
      </trkpt>
      <trkpt lat="23.073586" lon="113.27303">
        <time>2026-07-30T22:43:23Z</time>
      </trkpt>
      <trkpt lat="23.073522" lon="113.273133">
        <time>2026-07-30T22:43:28Z</time>
      </trkpt>
      <trkpt lat="23.073521" lon="113.273151">
        <time>2026-07-30T22:43:33Z</time>
      </trkpt>
      <trkpt lat="23.073554" lon="113.273088">
        <time>2026-07-30T22:43:38Z</time>
      </trkpt>
      <trkpt lat="23.073616" lon="113.272985">
        <time>2026-07-30T22:43:43Z</time>
      </trkpt>
      <trkpt lat="23.073689" lon="113.272902">
        <time>2026-07-30T22:43:48Z</time>
      </trkpt>
      <trkpt lat="23.07377" lon="113.272935">
        <time>2026-07-30T22:43:53Z</time>
      </trkpt>
      <trkpt lat="23.073845" lon="113.27298">
        <time>2026-07-30T22:43:58Z</time>
      </trkpt>
      <trkpt lat="23.073966" lon="113.273021">
        <time>2026-07-30T22:44:03Z</time>
      </trkpt>
      <trkpt lat="23.074039" lon="113.27292">
        <time>2026-07-30T22:44:08Z</time>
      </trkpt>
      <trkpt lat="23.074073" lon="113.272834">
        <time>2026-07-30T22:44:13Z</time>
      </trkpt>
      <trkpt lat="23.074103" lon="113.272751">
        <time>2026-07-30T22:44:18Z</time>
      </trkpt>
      <trkpt lat="23.074152" lon="113.27265">
        <time>2026-07-30T22:44:23Z</time>
      </trkpt>
      <trkpt lat="23.074203" lon="113.272544">
        <time>2026-07-30T22:44:28Z</time>
      </trkpt>
      <trkpt lat="23.074243" lon="113.272461">
        <time>2026-07-30T22:44:33Z</time>
      </trkpt>
      <trkpt lat="23.07428" lon="113.272385">
        <time>2026-07-30T22:44:38Z</time>
      </trkpt>
      <trkpt lat="23.074328" lon="113.272271">
        <time>2026-07-30T22:44:43Z</time>
      </trkpt>
      <trkpt lat="23.074398" lon="113.272167">
        <time>2026-07-30T22:44:48Z</time>
      </trkpt>
      <trkpt lat="23.074462" lon="113.272086">
        <time>2026-07-30T22:44:53Z</time>
      </trkpt>
      <trkpt lat="23.074513" lon="113.272028">
        <time>2026-07-30T22:44:58Z</time>
      </trkpt>
      <trkpt lat="23.074618" lon="113.27205">
        <time>2026-07-30T22:45:03Z</time>
      </trkpt>
      <trkpt lat="23.074743" lon="113.272112">
        <time>2026-07-30T22:45:08Z</time>
      </trkpt>
      <trkpt lat="23.074814" lon="113.272151">
        <time>2026-07-30T22:45:13Z</time>
      </trkpt>
      <trkpt lat="23.074882" lon="113.272191">
        <time>2026-07-30T22:45:18Z</time>
      </trkpt>
      <trkpt lat="23.075003" lon="113.272255">
        <time>2026-07-30T22:45:23Z</time>
      </trkpt>
      <trkpt lat="23.075127" lon="113.272325">
        <time>2026-07-30T22:45:35Z</time>
      </trkpt>
    </trkseg>
  </trk>
</gpx>