<?xml version="1.0" encoding="UTF-8"?>
<gpx xmlns="http://www.topografix.com/GPX/1/1" xmlns:gpxtpx="http://www.garmin.com/xmlschemas/TrackPointExtension/v1" xmlns:xsi="http://www.w3.org/2001/XMLSchema-instance" xsi:schemaLocation="http://www.topografix.com/GPX/1/1 http://www.topografix.com/GPX/1/1/gpx.xsd" version="1.1" creator="gpx.py -- https://github.com/tkrajina/gpxpy">
  <trk>
    <name>gpx from joyrun</name>
    <trkseg>
      <trkpt lat="23.076093" lon="113.272723">
        <time>2026-08-03T21:58:40Z</time>
      </trkpt>
      <trkpt lat="23.076088" lon="113.272709">
        <time>2026-08-03T21:58:45Z</time>
      </trkpt>
      <trkpt lat="23.076" lon="113.27264">
        <time>2026-08-03T21:58:50Z</time>
      </trkpt>
      <trkpt lat="23.075921" lon="113.272584">
        <time>2026-08-03T21:58:55Z</time>
      </trkpt>
      <trkpt lat="23.075843" lon="113.272498">
        <time>2026-08-03T21:59:00Z</time>
      </trkpt>
      <trkpt lat="23.075726" lon="113.272384">
        <time>2026-08-03T21:59:05Z</time>
      </trkpt>
      <trkpt lat="23.075576" lon="113.272313">
        <time>2026-08-03T21:59:10Z</time>
      </trkpt>
      <trkpt lat="23.075446" lon="113.272327">
        <time>2026-08-03T21:59:15Z</time>
      </trkpt>
      <trkpt lat="23.07533" lon="113.272324">
        <time>2026-08-03T21:59:20Z</time>
      </trkpt>
      <trkpt lat="23.075177" lon="113.272308">
        <time>2026-08-03T21:59:25Z</time>
      </trkpt>
      <trkpt lat="23.075046" lon="113.272259">
        <time>2026-08-03T21:59:30Z</time>
      </trkpt>
      <trkpt lat="23.074965" lon="113.272194">
        <time>2026-08-03T21:59:35Z</time>
      </trkpt>
      <trkpt lat="23.074879" lon="113.272141">
        <time>2026-08-03T21:59:40Z</time>
      </trkpt>
      <trkpt lat="23.074752" lon="113.272058">
        <time>2026-08-03T21:59:45Z</time>
      </trkpt>
      <trkpt lat="23.074616" lon="113.271974">
        <time>2026-08-03T21:59:50Z</time>
      </trkpt>
      <trkpt lat="23.074526" lon="113.271956">
        <time>2026-08-03T21:59:55Z</time>
      </trkpt>
      <trkpt lat="23.074451" lon="113.272">
        <time>2026-08-03T22:00:00Z</time>
      </trkpt>
      <trkpt lat="23.074353" lon="113.272106">
        <time>2026-08-03T22:00:05Z</time>
      </trkpt>
      <trkpt lat="23.074292" lon="113.272245">
        <time>2026-08-03T22:00:10Z</time>
      </trkpt>
      <trkpt lat="23.074247" lon="113.27235">
        <time>2026-08-03T22:00:15Z</time>
      </trkpt>
      <trkpt lat="23.074208" lon="113.272453">
        <time>2026-08-03T22:00:20Z</time>
      </trkpt>
      <trkpt lat="23.074147" lon="113.272609">
        <time>2026-08-03T22:00:25Z</time>
      </trkpt>
      <trkpt lat="23.074087" lon="113.272765">
        <time>2026-08-03T22:00:30Z</time>
      </trkpt>
      <trkpt lat="23.074039" lon="113.27286">
        <time>2026-08-03T22:00:35Z</time>
      </trkpt>
      <trkpt lat="23.074002" lon="113.272933">
        <time>2026-08-03T22:00:40Z</time>
      </trkpt>
      <trkpt lat="23.073971" lon="113.272944">
        <time>2026-08-03T22:00:45Z</time>
      </trkpt>
      <trkpt lat="23.073873" lon="113.272925">
        <time>2026-08-03T22:00:50Z</time>
      </trkpt>
      <trkpt lat="23.073769" lon="113.272888">
        <time>2026-08-03T22:00:55Z</time>
      </trkpt>
      <trkpt lat="23.073687" lon="113.272837">
        <time>2026-08-03T22:01:00Z</time>
      </trkpt>
      <trkpt lat="23.073692" lon="113.272732">
        <time>2026-08-03T22:01:05Z</time>
      </trkpt>
      <trkpt lat="23.073753" lon="113.27261">
        <time>2026-08-03T22:01:10Z</time>
      </trkpt>
      <trkpt lat="23.073789" lon="113.272525">
        <time>2026-08-03T22:01:15Z</time>
      </trkpt>
      <trkpt lat="23.07383" lon="113.272443">
        <time>2026-08-03T22:01:20Z</time>
      </trkpt>
      <trkpt lat="23.073898" lon="113.272311">
        <time>2026-08-03T22:01:25Z</time>
      </trkpt>
      <trkpt lat="23.073971" lon="113.272173">
        <time>2026-08-03T22:01:30Z</time>
      </trkpt>
      <trkpt lat="23.074002" lon="113.272092">
        <time>2026-08-03T22:01:35Z</time>
      </trkpt>
      <trkpt lat="23.074024" lon="113.272012">
        <time>2026-08-03T22:01:40Z</time>
      </trkpt>
      <trkpt lat="23.074067" lon="113.271884">
        <time>2026-08-03T22:01:45Z</time>
      </trkpt>
      <trkpt lat="23.074114" lon="113.271756">
        <time>2026-08-03T22:01:50Z</time>
      </trkpt>
      <trkpt lat="23.074087" lon="113.271691">
        <time>2026-08-03T22:01:55Z</time>
      </trkpt>
      <trkpt lat="23.074012" lon="113.271651">
        <time>2026-08-03T22:02:00Z</time>
      </trkpt>
      <trkpt lat="23.073896" lon="113.271594">
        <time>2026-08-03T22:02:05Z</time>
      </trkpt>
      <trkpt lat="23.073776" lon="113.271529">
        <time>2026-08-03T22:02:10Z</time>
      </trkpt>
      <trkpt lat="23.073692" lon="113.271492">
        <time>2026-08-03T22:02:15Z</time>
      </trkpt>
      <trkpt lat="23.073603" lon="113.271463">
        <time>2026-08-03T22:02:20Z</time>
      </trkpt>
      <trkpt lat="23.073471" lon="113.271412">
        <time>2026-08-03T22:02:25Z</time>
      </trkpt>
      <trkpt lat="23.07335" lon="113.271342">
        <time>2026-08-03T22:02:30Z</time>
      </trkpt>
      <trkpt lat="23.07328" lon="113.271265">
        <time>2026-08-03T22:02:35Z</time>
      </trkpt>
      <trkpt lat="23.073221" lon="113.271176">
        <time>2026-08-03T22:02:40Z</time>
      </trkpt>
      <trkpt lat="23.073105" lon="113.271093">
        <time>2026-08-03T22:02:45Z</time>
      </trkpt>
      <trkpt lat="23.072979" lon="113.271011">
        <time>2026-08-03T22:02:50Z</time>
      </trkpt>
      <trkpt lat="23.072893" lon="113.270963">
        <time>2026-08-03T22:02:55Z</time>
      </trkpt>
      <trkpt lat="23.072796" lon="113.270918">
        <time>2026-08-03T22:03:00Z</time>
      </trkpt>
      <trkpt lat="23.072656" lon="113.270847">
        <time>2026-08-03T22:03:05Z</time>
      </trkpt>
      <trkpt lat="23.07252" lon="113.270782">
        <time>2026-08-03T22:03:10Z</time>
      </trkpt>
      <trkpt lat="23.072424" lon="113.270743">
        <time>2026-08-03T22:03:15Z</time>
      </trkpt>
      <trkpt lat="23.072328" lon="113.270706">
        <time>2026-08-03T22:03:20Z</time>
      </trkpt>
      <trkpt lat="23.072201" lon="113.270629">
        <time>2026-08-03T22:03:25Z</time>
      </trkpt>
      <trkpt lat="23.072081" lon="113.270563">
        <time>2026-08-03T22:03:30Z</time>
      </trkpt>
      <trkpt lat="23.072" lon="113.270527">
        <time>2026-08-03T22:03:35Z</time>
      </trkpt>
      <trkpt lat="23.07192" lon="113.270465">
        <time>2026-08-03T22:03:40Z</time>
      </trkpt>
      <trkpt lat="23.071786" lon="113.270378">
        <time>2026-08-03T22:03:45Z</time>
      </trkpt>
      <trkpt lat="23.071645" lon="113.270331">
        <time>2026-08-03T22:03:50Z</time>
      </trkpt>
      <trkpt lat="23.071547" lon="113.270307">
        <time>2026-08-03T22:03:55Z</time>
      </trkpt>
      <trkpt lat="23.071445" lon="113.270298">
        <time>2026-08-03T22:04:00Z</time>
      </trkpt>
      <trkpt lat="23.071299" lon="113.270251">
        <time>2026-08-03T22:04:05Z</time>
      </trkpt>
      <trkpt lat="23.071158" lon="113.270192">
        <time>2026-08-03T22:04:10Z</time>
      </trkpt>
      <trkpt lat="23.07107" lon="113.270142">
        <time>2026-08-03T22:04:15Z</time>
      </trkpt>
      <trkpt lat="23.070984" lon="113.270117">
        <time>2026-08-03T22:04:20Z</time>
      </trkpt>
      <trkpt lat="23.070853" lon="113.270063">
        <time>2026-08-03T22:04:25Z</time>
      </trkpt>
      <trkpt lat="23.070726" lon="113.269943">
        <time>2026-08-03T22:04:30Z</time>
      </trkpt>
      <trkpt lat="23.070625" lon="113.269879">
        <time>2026-08-03T22:04:35Z</time>
      </trkpt>
      <trkpt lat="23.070516" lon="113.269854">
        <time>2026-08-03T22:04:40Z</time>
      </trkpt>
      <trkpt lat="23.070367" lon="113.269798">
        <time>2026-08-03T22:04:45Z</time>
      </trkpt>
      <trkpt lat="23.070231" lon="113.269717">
        <time>2026-08-03T22:04:50Z</time>
      </trkpt>
      <trkpt lat="23.070141" lon="113.26966">
        <time>2026-08-03T22:04:55Z</time>
      </trkpt>
      <trkpt lat="23.070055" lon="113.269596">
        <time>2026-08-03T22:05:00Z</time>
      </trkpt>
      <trkpt lat="23.06992" lon="113.269517">
        <time>2026-08-03T22:05:05Z</time>
      </trkpt>
      <trkpt lat="23.069781" lon="113.269461">
        <time>2026-08-03T22:05:10Z</time>
      </trkpt>
      <trkpt lat="23.069689" lon="113.269419">
        <time>2026-08-03T22:05:15Z</time>
      </trkpt>
      <trkpt lat="23.069598" lon="113.26937">
        <time>2026-08-03T22:05:20Z</time>
      </trkpt>
      <trkpt lat="23.069463" lon="113.269304">
        <time>2026-08-03T22:05:25Z</time>
      </trkpt>
      <trkpt lat="23.069322" lon="113.269231">
        <time>2026-08-03T22:05:30Z</time>
      </trkpt>
      <trkpt lat="23.06923" lon="113.269195">
        <time>2026-08-03T22:05:35Z</time>
      </trkpt>
      <trkpt lat="23.069134" lon="113.269174">
        <time>2026-08-03T22:05:40Z</time>
      </trkpt>
      <trkpt lat="23.068989" lon="113.269138">
        <time>2026-08-03T22:05:45Z</time>
      </trkpt>
      <trkpt lat="23.068855" lon="113.269059">
        <time>2026-08-03T22:05:50Z</time>
      </trkpt>
      <trkpt lat="23.068769" lon="113.269021">
        <time>2026-08-03T22:05:55Z</time>
      </trkpt>
      <trkpt lat="23.068682" lon="113.268989">
        <time>2026-08-03T22:06:00Z</time>
      </trkpt>
      <trkpt lat="23.068547" lon="113.268967">
        <time>2026-08-03T22:06:05Z</time>
      </trkpt>
      <trkpt lat="23.068407" lon="113.268876">
        <time>2026-08-03T22:06:10Z</time>
      </trkpt>
      <trkpt lat="23.068306" lon="113.268816">
        <time>2026-08-03T22:06:15Z</time>
      </trkpt>
      <trkpt lat="23.068207" lon="113.268776">
        <time>2026-08-03T22:06:20Z</time>
      </trkpt>
      <trkpt lat="23.06807" lon="113.268703">
        <time>2026-08-03T22:06:25Z</time>
      </trkpt>
      <trkpt lat="23.067941" lon="113.268588">
        <time>2026-08-03T22:06:30Z</time>
      </trkpt>
      <trkpt lat="23.067853" lon="113.26853">
        <time>2026-08-03T22:06:35Z</time>
      </trkpt>
      <trkpt lat="23.067794" lon="113.268497">
        <time>2026-08-03T22:06:40Z</time>
      </trkpt>
      <trkpt lat="23.067707" lon="113.268452">
        <time>2026-08-03T22:06:45Z</time>
      </trkpt>
      <trkpt lat="23.067567" lon="113.268386">
        <time>2026-08-03T22:06:50Z</time>
      </trkpt>
      <trkpt lat="23.067476" lon="113.268351">
        <time>2026-08-03T22:06:55Z</time>
      </trkpt>
      <trkpt lat="23.067386" lon="113.26832">
        <time>2026-08-03T22:07:00Z</time>
      </trkpt>
      <trkpt lat="23.067246" lon="113.268256">
        <time>2026-08-03T22:07:05Z</time>
      </trkpt>
      <trkpt lat="23.067118" lon="113.268185">
        <time>2026-08-03T22:07:10Z</time>
      </trkpt>
      <trkpt lat="23.067043" lon="113.268115">
        <time>2026-08-03T22:07:15Z</time>
      </trkpt>
      <trkpt lat="23.066957" lon="113.268053">
        <time>2026-08-03T22:07:20Z</time>
      </trkpt>
      <trkpt lat="23.066807" lon="113.268004">
        <time>2026-08-03T22:07:25Z</time>
      </trkpt>
      <trkpt lat="23.066651" lon="113.26798">
        <time>2026-08-03T22:07:30Z</time>
      </trkpt>
      <trkpt lat="23.066544" lon="113.267945">
        <time>2026-08-03T22:07:35Z</time>
      </trkpt>
      <trkpt lat="23.066436" lon="113.267923">
        <time>2026-08-03T22:07:40Z</time>
      </trkpt>
      <trkpt lat="23.066289" lon="113.267942">
        <time>2026-08-03T22:07:45Z</time>
      </trkpt>
      <trkpt lat="23.066168" lon="113.268037">
        <time>2026-08-03T22:07:50Z</time>
      </trkpt>
      <trkpt lat="23.066094" lon="113.268119">
        <time>2026-08-03T22:07:55Z</time>
      </trkpt>
      <trkpt lat="23.066028" lon="113.2682">
        <time>2026-08-03T22:08:00Z</time>
      </trkpt>
      <trkpt lat="23.065936" lon="113.268321">
        <time>2026-08-03T22:08:05Z</time>
      </trkpt>
      <trkpt lat="23.065855" lon="113.268453">
        <time>2026-08-03T22:08:10Z</time>
      </trkpt>
      <trkpt lat="23.065801" lon="113.268542">
        <time>2026-08-03T22:08:15Z</time>
      </trkpt>
      <trkpt lat="23.065752" lon="113.268636">
        <time>2026-08-03T22:08:20Z</time>
      </trkpt>
      <trkpt lat="23.065688" lon="113.268784">
        <time>2026-08-03T22:08:25Z</time>
      </trkpt>
      <trkpt lat="23.06563" lon="113.268928">
        <time>2026-08-03T22:08:30Z</time>
      </trkpt>
      <trkpt lat="23.065601" lon="113.269035">
        <time>2026-08-03T22:08:35Z</time>
      </trkpt>
      <trkpt lat="23.065572" lon="113.26914">
        <time>2026-08-03T22:08:40Z</time>
      </trkpt>
      <trkpt lat="23.065527" lon="113.269295">
        <time>2026-08-03T22:08:45Z</time>
      </trkpt>
      <trkpt lat="23.065484" lon="113.269468">
        <time>2026-08-03T22:08:50Z</time>
      </trkpt>
      <trkpt lat="23.065455" lon="113.269583">
        <time>2026-08-03T22:08:55Z</time>
      </trkpt>
      <trkpt lat="23.065431" lon="113.269691">
        <time>2026-08-03T22:09:00Z</time>
      </trkpt>
      <trkpt lat="23.065385" lon="113.269851">
        <time>2026-08-03T22:09:05Z</time>
      </trkpt>
      <trkpt lat="23.065325" lon="113.270005">
        <time>2026-08-03T22:09:10Z</time>
      </trkpt>
      <trkpt lat="23.065283" lon="113.270103">
        <time>2026-08-03T22:09:15Z</time>
      </trkpt>
      <trkpt lat="23.065237" lon="113.270204">
        <time>2026-08-03T22:09:20Z</time>
      </trkpt>
      <trkpt lat="23.065168" lon="113.270357">
        <time>2026-08-03T22:09:25Z</time>
      </trkpt>
      <trkpt lat="23.065102" lon="113.270504">
        <time>2026-08-03T22:09:30Z</time>
      </trkpt>
      <trkpt lat="23.065058" lon="113.270604">
        <time>2026-08-03T22:09:35Z</time>
      </trkpt>
      <trkpt lat="23.065022" lon="113.270713">
        <time>2026-08-03T22:09:40Z</time>
      </trkpt>
      <trkpt lat="23.064957" lon="113.270856">
        <time>2026-08-03T22:09:45Z</time>
      </trkpt>
      <trkpt lat="23.064896" lon="113.271001">
        <time>2026-08-03T22:09:50Z</time>
      </trkpt>
      <trkpt lat="23.064856" lon="113.271099">
        <time>2026-08-03T22:09:55Z</time>
      </trkpt>
      <trkpt lat="23.064808" lon="113.271192">
        <time>2026-08-03T22:10:00Z</time>
      </trkpt>
      <trkpt lat="23.06474" lon="113.27133">
        <time>2026-08-03T22:10:05Z</time>
      </trkpt>
      <trkpt lat="23.06467" lon="113.271471">
        <time>2026-08-03T22:10:10Z</time>
      </trkpt>
      <trkpt lat="23.064629" lon="113.271564">
        <time>2026-08-03T22:10:15Z</time>
      </trkpt>
      <trkpt lat="23.064586" lon="113.271659">
        <time>2026-08-03T22:10:20Z</time>
      </trkpt>
      <trkpt lat="23.064519" lon="113.271808">
        <time>2026-08-03T22:10:25Z</time>
      </trkpt>
      <trkpt lat="23.06445" lon="113.271957">
        <time>2026-08-03T22:10:30Z</time>
      </trkpt>
      <trkpt lat="23.064405" lon="113.272055">
        <time>2026-08-03T22:10:35Z</time>
      </trkpt>
      <trkpt lat="23.064362" lon="113.272154">
        <time>2026-08-03T22:10:40Z</time>
      </trkpt>
      <trkpt lat="23.064329" lon="113.272318">
        <time>2026-08-03T22:10:45Z</time>
      </trkpt>
      <trkpt lat="23.064316" lon="113.272483">
        <time>2026-08-03T22:10:50Z</time>
      </trkpt>
      <trkpt lat="23.064319" lon="113.27259">
        <time>2026-08-03T22:10:55Z</time>
      </trkpt>
      <trkpt lat="23.064339" lon="113.272697">
        <time>2026-08-03T22:11:00Z</time>
      </trkpt>
      <trkpt lat="23.064393" lon="113.272854">
        <time>2026-08-03T22:11:05Z</time>
      </trkpt>
      <trkpt lat="23.064442" lon="113.273006">
        <time>2026-08-03T22:11:10Z</time>
      </trkpt>
      <trkpt lat="23.064469" lon="113.273109">
        <time>2026-08-03T22:11:15Z</time>
      </trkpt>
      <trkpt lat="23.06446" lon="113.273209">
        <time>2026-08-03T22:11:20Z</time>
      </trkpt>
      <trkpt lat="23.064378" lon="113.273329">
        <time>2026-08-03T22:11:25Z</time>
      </trkpt>
      <trkpt lat="23.064249" lon="113.27342">
        <time>2026-08-03T22:11:30Z</time>
      </trkpt>
      <trkpt lat="23.064158" lon="113.273482">
        <time>2026-08-03T22:11:35Z</time>
      </trkpt>
      <trkpt lat="23.064064" lon="113.273547">
        <time>2026-08-03T22:11:40Z</time>
      </trkpt>
      <trkpt lat="23.063933" lon="113.273664">
        <time>2026-08-03T22:11:45Z</time>
      </trkpt>
      <trkpt lat="23.063831" lon="113.273808">
        <time>2026-08-03T22:11:50Z</time>
      </trkpt>
      <trkpt lat="23.063776" lon="113.273906">
        <time>2026-08-03T22:11:55Z</time>
      </trkpt>
      <trkpt lat="23.063726" lon="113.273996">
        <time>2026-08-03T22:12:00Z</time>
      </trkpt>
      <trkpt lat="23.063622" lon="113.274089">
        <time>2026-08-03T22:12:05Z</time>
      </trkpt>
      <trkpt lat="23.063509" lon="113.274205">
        <time>2026-08-03T22:12:10Z</time>
      </trkpt>
      <trkpt lat="23.063462" lon="113.27432">
        <time>2026-08-03T22:12:15Z</time>
      </trkpt>
      <trkpt lat="23.063418" lon="113.274448">
        <time>2026-08-03T22:12:20Z</time>
      </trkpt>
      <trkpt lat="23.063367" lon="113.274625">
        <time>2026-08-03T22:12:25Z</time>
      </trkpt>
      <trkpt lat="23.063315" lon="113.274782">
        <time>2026-08-03T22:12:30Z</time>
      </trkpt>
      <trkpt lat="23.063281" lon="113.274889">
        <time>2026-08-03T22:12:35Z</time>
      </trkpt>
      <trkpt lat="23.063246" lon="113.274998">
        <time>2026-08-03T22:12:40Z</time>
      </trkpt>
      <trkpt lat="23.063165" lon="113.275152">
        <time>2026-08-03T22:12:45Z</time>
      </trkpt>
      <trkpt lat="23.063067" lon="113.275306">
        <time>2026-08-03T22:12:50Z</time>
      </trkpt>
      <trkpt lat="23.063007" lon="113.275406">
        <time>2026-08-03T22:12:55Z</time>
      </trkpt>
      <trkpt lat="23.062943" lon="113.2755">
        <time>2026-08-03T22:13:00Z</time>
      </trkpt>
      <trkpt lat="23.062837" lon="113.275628">
        <time>2026-08-03T22:13:05Z</time>
      </trkpt>
      <trkpt lat="23.062723" lon="113.27574">
        <time>2026-08-03T22:13:10Z</time>
      </trkpt>
      <trkpt lat="23.062651" lon="113.275822">
        <time>2026-08-03T22:13:15Z</time>
      </trkpt>
      <trkpt lat="23.062581" lon="113.275906">
        <time>2026-08-03T22:13:20Z</time>
      </trkpt>
      <trkpt lat="23.062491" lon="113.276051">
        <time>2026-08-03T22:13:25Z</time>
      </trkpt>
      <trkpt lat="23.06243" lon="113.276195">
        <time>2026-08-03T22:13:30Z</time>
      </trkpt>
      <trkpt lat="23.062399" lon="113.276289">
        <time>2026-08-03T22:13:35Z</time>
      </trkpt>
      <trkpt lat="23.062368" lon="113.276381">
        <time>2026-08-03T22:13:40Z</time>
      </trkpt>
      <trkpt lat="23.062309" lon="113.276522">
        <time>2026-08-03T22:13:45Z</time>
      </trkpt>
      <trkpt lat="23.062258" lon="113.276661">
        <time>2026-08-03T22:13:50Z</time>
      </trkpt>
      <trkpt lat="23.062225" lon="113.276753">
        <time>2026-08-03T22:13:55Z</time>
      </trkpt>
      <trkpt lat="23.062192" lon="113.276852">
        <time>2026-08-03T22:14:00Z</time>
      </trkpt>
      <trkpt lat="23.062144" lon="113.277">
        <time>2026-08-03T22:14:05Z</time>
      </trkpt>
      <trkpt lat="23.062085" lon="113.27715">
        <time>2026-08-03T22:14:10Z</time>
      </trkpt>
      <trkpt lat="23.062042" lon="113.277253">
        <time>2026-08-03T22:14:15Z</time>
      </trkpt>
      <trkpt lat="23.062" lon="113.277357">
        <time>2026-08-03T22:14:20Z</time>
      </trkpt>
      <trkpt lat="23.061942" lon="113.277511">
        <time>2026-08-03T22:14:25Z</time>
      </trkpt>
      <trkpt lat="23.061888" lon="113.277661">
        <time>2026-08-03T22:14:30Z</time>
      </trkpt>
      <trkpt lat="23.061862" lon="113.277761">
        <time>2026-08-03T22:14:35Z</time>
      </trkpt>
      <trkpt lat="23.061845" lon="113.277866">
        <time>2026-08-03T22:14:40Z</time>
      </trkpt>
      <trkpt lat="23.061838" lon="113.278031">
        <time>2026-08-03T22:14:45Z</time>
      </trkpt>
      <trkpt lat="23.061845" lon="113.278191">
        <time>2026-08-03T22:14:50Z</time>
      </trkpt>
      <trkpt lat="23.06185" lon="113.278297">
        <time>2026-08-03T22:14:55Z</time>
      </trkpt>
      <trkpt lat="23.061854" lon="113.278402">
        <time>2026-08-03T22:15:00Z</time>
      </trkpt>
      <trkpt lat="23.061865" lon="113.278559">
        <time>2026-08-03T22:15:05Z</time>
      </trkpt>
      <trkpt lat="23.061852" lon="113.27871">
        <time>2026-08-03T22:15:10Z</time>
      </trkpt>
      <trkpt lat="23.06182" lon="113.278806">
        <time>2026-08-03T22:15:15Z</time>
      </trkpt>
      <trkpt lat="23.061776" lon="113.278899">
        <time>2026-08-03T22:15:20Z</time>
      </trkpt>
      <trkpt lat="23.061696" lon="113.279029">
        <time>2026-08-03T22:15:25Z</time>
      </trkpt>
      <trkpt lat="23.061622" lon="113.279163">
        <time>2026-08-03T22:15:30Z</time>
      </trkpt>
      <trkpt lat="23.061582" lon="113.279259">
        <time>2026-08-03T22:15:35Z</time>
      </trkpt>
      <trkpt lat="23.061543" lon="113.279358">
        <time>2026-08-03T22:15:40Z</time>
      </trkpt>
      <trkpt lat="23.061484" lon="113.279512">
        <time>2026-08-03T22:15:45Z</time>
      </trkpt>
      <trkpt lat="23.061425" lon="113.279662">
        <time>2026-08-03T22:15:50Z</time>
      </trkpt>
      <trkpt lat="23.061384" lon="113.279767">
        <time>2026-08-03T22:15:55Z</time>
      </trkpt>
      <trkpt lat="23.06134" lon="113.279875">
        <time>2026-08-03T22:16:00Z</time>
      </trkpt>
      <trkpt lat="23.061271" lon="113.280037">
        <time>2026-08-03T22:16:05Z</time>
      </trkpt>
      <trkpt lat="23.061202" lon="113.280196">
        <time>2026-08-03T22:16:10Z</time>
      </trkpt>
      <trkpt lat="23.061157" lon="113.280302">
        <time>2026-08-03T22:16:15Z</time>
      </trkpt>
      <trkpt lat="23.061104" lon="113.280403">
        <time>2026-08-03T22:16:20Z</time>
      </trkpt>
      <trkpt lat="23.061027" lon="113.280561">
        <time>2026-08-03T22:16:25Z</time>
      </trkpt>
      <trkpt lat="23.060961" lon="113.280721">
        <time>2026-08-03T22:16:30Z</time>
      </trkpt>
      <trkpt lat="23.060917" lon="113.280822">
        <time>2026-08-03T22:16:35Z</time>
      </trkpt>
      <trkpt lat="23.060875" lon="113.280922">
        <time>2026-08-03T22:16:40Z</time>
      </trkpt>
      <trkpt lat="23.060808" lon="113.281077">
        <time>2026-08-03T22:16:45Z</time>
      </trkpt>
      <trkpt lat="23.060744" lon="113.281232">
        <time>2026-08-03T22:16:50Z</time>
      </trkpt>
      <trkpt lat="23.060706" lon="113.281329">
        <time>2026-08-03T22:16:55Z</time>
      </trkpt>
      <trkpt lat="23.06067" lon="113.281423">
        <time>2026-08-03T22:17:00Z</time>
      </trkpt>
      <trkpt lat="23.060612" lon="113.281573">
        <time>2026-08-03T22:17:05Z</time>
      </trkpt>
      <trkpt lat="23.060552" lon="113.281718">
        <time>2026-08-03T22:17:10Z</time>
      </trkpt>
      <trkpt lat="23.060506" lon="113.281819">
        <time>2026-08-03T22:17:15Z</time>
      </trkpt>
      <trkpt lat="23.060461" lon="113.281921">
        <time>2026-08-03T22:17:20Z</time>
      </trkpt>
      <trkpt lat="23.060397" lon="113.282077">
        <time>2026-08-03T22:17:25Z</time>
      </trkpt>
      <trkpt lat="23.060328" lon="113.282229">
        <time>2026-08-03T22:17:30Z</time>
      </trkpt>
      <trkpt lat="23.060284" lon="113.282327">
        <time>2026-08-03T22:17:35Z</time>
      </trkpt>
      <trkpt lat="23.060245" lon="113.282423">
        <time>2026-08-03T22:17:40Z</time>
      </trkpt>
      <trkpt lat="23.060186" lon="113.282567">
        <time>2026-08-03T22:17:45Z</time>
      </trkpt>
      <trkpt lat="23.060115" lon="113.282713">
        <time>2026-08-03T22:17:50Z</time>
      </trkpt>
      <trkpt lat="23.060074" lon="113.282809">
        <time>2026-08-03T22:17:55Z</time>
      </trkpt>
      <trkpt lat="23.060038" lon="113.282907">
        <time>2026-08-03T22:18:00Z</time>
      </trkpt>
      <trkpt lat="23.059971" lon="113.283052">
        <time>2026-08-03T22:18:05Z</time>
      </trkpt>
      <trkpt lat="23.059903" lon="113.283198">
        <time>2026-08-03T22:18:10Z</time>
      </trkpt>
      <trkpt lat="23.059886" lon="113.2833">
        <time>2026-08-03T22:18:15Z</time>
      </trkpt>
      <trkpt lat="23.059937" lon="113.283317">
        <time>2026-08-03T22:18:20Z</time>
      </trkpt>
      <trkpt lat="23.060024" lon="113.283186">
        <time>2026-08-03T22:18:25Z</time>
      </trkpt>
      <trkpt lat="23.06009" lon="113.28303">
        <time>2026-08-03T22:18:30Z</time>
      </trkpt>
      <trkpt lat="23.060133" lon="113.282927">
        <time>2026-08-03T22:18:35Z</time>
      </trkpt>
      <trkpt lat="23.06017" lon="113.282811">
        <time>2026-08-03T22:18:40Z</time>
      </trkpt>
      <trkpt lat="23.060243" lon="113.282661">
        <time>2026-08-03T22:18:45Z</time>
      </trkpt>
      <trkpt lat="23.060316" lon="113.282517">
        <time>2026-08-03T22:18:50Z</time>
      </trkpt>
      <trkpt lat="23.060359" lon="113.282418">
        <time>2026-08-03T22:18:55Z</time>
      </trkpt>
      <trkpt lat="23.060406" lon="113.282319">
        <time>2026-08-03T22:19:00Z</time>
      </trkpt>
      <trkpt lat="23.060486" lon="113.28217">
        <time>2026-08-03T22:19:05Z</time>
      </trkpt>
      <trkpt lat="23.060547" lon="113.282014">
        <time>2026-08-03T22:19:10Z</time>
      </trkpt>
      <trkpt lat="23.060584" lon="113.281914">
        <time>2026-08-03T22:19:15Z</time>
      </trkpt>
      <trkpt lat="23.06062" lon="113.281815">
        <time>2026-08-03T22:19:20Z</time>
      </trkpt>
      <trkpt lat="23.060685" lon="113.281673">
        <time>2026-08-03T22:19:25Z</time>
      </trkpt>
      <trkpt lat="23.060757" lon="113.281528">
        <time>2026-08-03T22:19:30Z</time>
      </trkpt>
      <trkpt lat="23.060795" lon="113.281429">
        <time>2026-08-03T22:19:35Z</time>
      </trkpt>
      <trkpt lat="23.060829" lon="113.281331">
        <time>2026-08-03T22:19:40Z</time>
      </trkpt>
      <trkpt lat="23.060883" lon="113.281188">
        <time>2026-08-03T22:19:45Z</time>
      </trkpt>
      <trkpt lat="23.060943" lon="113.281042">
        <time>2026-08-03T22:19:50Z</time>
      </trkpt>
      <trkpt lat="23.060985" lon="113.280943">
        <time>2026-08-03T22:19:55Z</time>
      </trkpt>
      <trkpt lat="23.061023" lon="113.280849">
        <time>2026-08-03T22:20:00Z</time>
      </trkpt>
      <trkpt lat="23.061082" lon="113.280696">
        <time>2026-08-03T22:20:05Z</time>
      </trkpt>
      <trkpt lat="23.061158" lon="113.280535">
        <time>2026-08-03T22:20:10Z</time>
      </trkpt>
      <trkpt lat="23.061209" lon="113.280431">
        <time>2026-08-03T22:20:15Z</time>
      </trkpt>
      <trkpt lat="23.061247" lon="113.280327">
        <time>2026-08-03T22:20:20Z</time>
      </trkpt>
      <trkpt lat="23.061322" lon="113.280169">
        <time>2026-08-03T22:20:25Z</time>
      </trkpt>
      <trkpt lat="23.061399" lon="113.280021">
        <time>2026-08-03T22:20:30Z</time>
      </trkpt>
      <trkpt lat="23.06144" lon="113.279923">
        <time>2026-08-03T22:20:35Z</time>
      </trkpt>
      <trkpt lat="23.061485" lon="113.279826">
        <time>2026-08-03T22:20:40Z</time>
      </trkpt>
      <trkpt lat="23.06155" lon="113.27968">
        <time>2026-08-03T22:20:45Z</time>
      </trkpt>
      <trkpt lat="23.061615" lon="113.279532">
        <time>2026-08-03T22:20:50Z</time>
      </trkpt>
      <trkpt lat="23.061661" lon="113.279423">
        <time>2026-08-03T22:20:55Z</time>
      </trkpt>
      <trkpt lat="23.061698" lon="113.279314">
        <time>2026-08-03T22:21:00Z</time>
      </trkpt>
      <trkpt lat="23.061749" lon="113.279166">
        <time>2026-08-03T22:21:05Z</time>
      </trkpt>
      <trkpt lat="23.061818" lon="113.27903">
        <time>2026-08-03T22:21:10Z</time>
      </trkpt>
      <trkpt lat="23.061877" lon="113.278947">
        <time>2026-08-03T22:21:15Z</time>
      </trkpt>
      <trkpt lat="23.061939" lon="113.278854">
        <time>2026-08-03T22:21:20Z</time>
      </trkpt>
      <trkpt lat="23.061986" lon="113.27869">
        <time>2026-08-03T22:21:25Z</time>
      </trkpt>
      <trkpt lat="23.061985" lon="113.278525">
        <time>2026-08-03T22:21:30Z</time>
      </trkpt>
      <trkpt lat="23.06198" lon="113.278409">
        <time>2026-08-03T22:21:35Z</time>
      </trkpt>
      <trkpt lat="23.061977" lon="113.278291">
        <time>2026-08-03T22:21:40Z</time>
      </trkpt>
      <trkpt lat="23.061969" lon="113.278118">
        <time>2026-08-03T22:21:45Z</time>
      </trkpt>
      <trkpt lat="23.061959" lon="113.277945">
        <time>2026-08-03T22:21:50Z</time>
      </trkpt>
      <trkpt lat="23.061956" lon="113.277828">
        <time>2026-08-03T22:21:55Z</time>
      </trkpt>
      <trkpt lat="23.06197" lon="113.27771">
        <time>2026-08-03T22:22:00Z</time>
      </trkpt>
      <trkpt lat="23.062018" lon="113.277548">
        <time>2026-08-03T22:22:05Z</time>
      </trkpt>
      <trkpt lat="23.062082" lon="113.277385">
        <time>2026-08-03T22:22:10Z</time>
      </trkpt>
      <trkpt lat="23.062123" lon="113.277276">
        <time>2026-08-03T22:22:15Z</time>
      </trkpt>
      <trkpt lat="23.062162" lon="113.27717">
        <time>2026-08-03T22:22:20Z</time>
      </trkpt>
      <trkpt lat="23.062221" lon="113.277011">
        <time>2026-08-03T22:22:25Z</time>
      </trkpt>
      <trkpt lat="23.062278" lon="113.27685">
        <time>2026-08-03T22:22:30Z</time>
      </trkpt>
      <trkpt lat="23.062323" lon="113.276741">
        <time>2026-08-03T22:22:35Z</time>
      </trkpt>
      <trkpt lat="23.062379" lon="113.276633">
        <time>2026-08-03T22:22:40Z</time>
      </trkpt>
      <trkpt lat="23.062453" lon="113.276466">
        <time>2026-08-03T22:22:45Z</time>
      </trkpt>
      <trkpt lat="23.062507" lon="113.27631">
        <time>2026-08-03T22:22:50Z</time>
      </trkpt>
      <trkpt lat="23.062542" lon="113.276205">
        <time>2026-08-03T22:22:55Z</time>
      </trkpt>
      <trkpt lat="23.06259" lon="113.27611">
        <time>2026-08-03T22:23:00Z</time>
      </trkpt>
      <trkpt lat="23.062673" lon="113.275971">
        <time>2026-08-03T22:23:05Z</time>
      </trkpt>
      <trkpt lat="23.06277" lon="113.27584">
        <time>2026-08-03T22:23:10Z</time>
      </trkpt>
      <trkpt lat="23.062838" lon="113.275752">
        <time>2026-08-03T22:23:15Z</time>
      </trkpt>
      <trkpt lat="23.062919" lon="113.275665">
        <time>2026-08-03T22:23:20Z</time>
      </trkpt>
      <trkpt lat="23.063038" lon="113.275532">
        <time>2026-08-03T22:23:25Z</time>
      </trkpt>
      <trkpt lat="23.063121" lon="113.27539">
        <time>2026-08-03T22:23:30Z</time>
      </trkpt>
      <trkpt lat="23.06318" lon="113.275293">
        <time>2026-08-03T22:23:35Z</time>
      </trkpt>
      <trkpt lat="23.063239" lon="113.275199">
        <time>2026-08-03T22:23:40Z</time>
      </trkpt>
      <trkpt lat="23.063334" lon="113.275068">
        <time>2026-08-03T22:23:45Z</time>
      </trkpt>
      <trkpt lat="23.063409" lon="113.274928">
        <time>2026-08-03T22:23:50Z</time>
      </trkpt>
      <trkpt lat="23.063436" lon="113.274829">
        <time>2026-08-03T22:23:55Z</time>
      </trkpt>
      <trkpt lat="23.063466" lon="113.274733">
        <time>2026-08-03T22:24:00Z</time>
      </trkpt>
      <trkpt lat="23.063517" lon="113.274583">
        <time>2026-08-03T22:24:05Z</time>
      </trkpt>
      <trkpt lat="23.063569" lon="113.274436">
        <time>2026-08-03T22:24:10Z</time>
      </trkpt>
      <trkpt lat="23.063623" lon="113.274342">
        <time>2026-08-03T22:24:15Z</time>
      </trkpt>
      <trkpt lat="23.063685" lon="113.274252">
        <time>2026-08-03T22:24:20Z</time>
      </trkpt>
      <trkpt lat="23.063801" lon="113.274135">
        <time>2026-08-03T22:24:25Z</time>
      </trkpt>
      <trkpt lat="23.063892" lon="113.273982">
        <time>2026-08-03T22:24:30Z</time>
      </trkpt>
      <trkpt lat="23.06395" lon="113.273877">
        <time>2026-08-03T22:24:35Z</time>
      </trkpt>
      <trkpt lat="23.064007" lon="113.273784">
        <time>2026-08-03T22:24:40Z</time>
      </trkpt>
      <trkpt lat="23.064116" lon="113.273645">
        <time>2026-08-03T22:24:45Z</time>
      </trkpt>
      <trkpt lat="23.064242" lon="113.273538">
        <time>2026-08-03T22:24:50Z</time>
      </trkpt>
      <trkpt lat="23.064326" lon="113.273478">
        <time>2026-08-03T22:24:55Z</time>
      </trkpt>
      <trkpt lat="23.064411" lon="113.273413">
        <time>2026-08-03T22:25:00Z</time>
      </trkpt>
      <trkpt lat="23.064533" lon="113.273303">
        <time>2026-08-03T22:25:05Z</time>
      </trkpt>
      <trkpt lat="23.064593" lon="113.273147">
        <time>2026-08-03T22:25:10Z</time>
      </trkpt>
      <trkpt lat="23.064584" lon="113.273028">
        <time>2026-08-03T22:25:15Z</time>
      </trkpt>
      <trkpt lat="23.064548" lon="113.272913">
        <time>2026-08-03T22:25:20Z</time>
      </trkpt>
      <trkpt lat="23.064487" lon="113.272742">
        <time>2026-08-03T22:25:25Z</time>
      </trkpt>
      <trkpt lat="23.064458" lon="113.272566">
        <time>2026-08-03T22:25:30Z</time>
      </trkpt>
      <trkpt lat="23.064493" lon="113.272455">
        <time>2026-08-03T22:25:35Z</time>
      </trkpt>
      <trkpt lat="23.06454" lon="113.272339">
        <time>2026-08-03T22:25:40Z</time>
      </trkpt>
      <trkpt lat="23.064591" lon="113.27217">
        <time>2026-08-03T22:25:45Z</time>
      </trkpt>
      <trkpt lat="23.064664" lon="113.272016">
        <time>2026-08-03T22:25:50Z</time>
      </trkpt>
      <trkpt lat="23.06471" lon="113.271917">
        <time>2026-08-03T22:25:55Z</time>
      </trkpt>
      <trkpt lat="23.064753" lon="113.271822">
        <time>2026-08-03T22:26:00Z</time>
      </trkpt>
      <trkpt lat="23.064809" lon="113.271677">
        <time>2026-08-03T22:26:05Z</time>
      </trkpt>
      <trkpt lat="23.064882" lon="113.271512">
        <time>2026-08-03T22:26:10Z</time>
      </trkpt>
      <trkpt lat="23.06494" lon="113.27141">
        <time>2026-08-03T22:26:15Z</time>
      </trkpt>
      <trkpt lat="23.064989" lon="113.271315">
        <time>2026-08-03T22:26:20Z</time>
      </trkpt>
      <trkpt lat="23.065065" lon="113.271165">
        <time>2026-08-03T22:26:25Z</time>
      </trkpt>
      <trkpt lat="23.065142" lon="113.271001">
        <time>2026-08-03T22:26:30Z</time>
      </trkpt>
      <trkpt lat="23.065192" lon="113.270892">
        <time>2026-08-03T22:26:35Z</time>
      </trkpt>
      <trkpt lat="23.065236" lon="113.270784">
        <time>2026-08-03T22:26:40Z</time>
      </trkpt>
      <trkpt lat="23.065308" lon="113.270625">
        <time>2026-08-03T22:26:45Z</time>
      </trkpt>
      <trkpt lat="23.06538" lon="113.270471">
        <time>2026-08-03T22:26:50Z</time>
      </trkpt>
      <trkpt lat="23.065426" lon="113.270367">
        <time>2026-08-03T22:26:55Z</time>
      </trkpt>
      <trkpt lat="23.065471" lon="113.270263">
        <time>2026-08-03T22:27:00Z</time>
      </trkpt>
      <trkpt lat="23.065534" lon="113.270112">
        <time>2026-08-03T22:27:05Z</time>
      </trkpt>
      <trkpt lat="23.065584" lon="113.269965">
        <time>2026-08-03T22:27:10Z</time>
      </trkpt>
      <trkpt lat="23.065611" lon="113.269864">
        <time>2026-08-03T22:27:15Z</time>
      </trkpt>
      <trkpt lat="23.06564" lon="113.269763">
        <time>2026-08-03T22:27:20Z</time>
      </trkpt>
      <trkpt lat="23.065688" lon="113.269608">
        <time>2026-08-03T22:27:25Z</time>
      </trkpt>
      <trkpt lat="23.065727" lon="113.269442">
        <time>2026-08-03T22:27:30Z</time>
      </trkpt>
      <trkpt lat="23.065754" lon="113.269328">
        <time>2026-08-03T22:27:35Z</time>
      </trkpt>
      <trkpt lat="23.06579" lon="113.26921">
        <time>2026-08-03T22:27:40Z</time>
      </trkpt>
      <trkpt lat="23.065858" lon="113.269046">
        <time>2026-08-03T22:27:45Z</time>
      </trkpt>
      <trkpt lat="23.065931" lon="113.268887">
        <time>2026-08-03T22:27:50Z</time>
      </trkpt>
      <trkpt lat="23.065971" lon="113.268778">
        <time>2026-08-03T22:27:55Z</time>
      </trkpt>
      <trkpt lat="23.066013" lon="113.268678">
        <time>2026-08-03T22:28:00Z</time>
      </trkpt>
      <trkpt lat="23.06609" lon="113.268538">
        <time>2026-08-03T22:28:05Z</time>
      </trkpt>
      <trkpt lat="23.066166" lon="113.268402">
        <time>2026-08-03T22:28:10Z</time>
      </trkpt>
      <trkpt lat="23.066226" lon="113.268316">
        <time>2026-08-03T22:28:15Z</time>
      </trkpt>
      <trkpt lat="23.066293" lon="113.26823">
        <time>2026-08-03T22:28:20Z</time>
      </trkpt>
      <trkpt lat="23.066421" lon="113.268133">
        <time>2026-08-03T22:28:25Z</time>
      </trkpt>
      <trkpt lat="23.066573" lon="113.268119">
        <time>2026-08-03T22:28:30Z</time>
      </trkpt>
      <trkpt lat="23.066659" lon="113.268113">
        <time>2026-08-03T22:28:35Z</time>
      </trkpt>
      <trkpt lat="23.06667" lon="113.268029">
        <time>2026-08-03T22:28:40Z</time>
      </trkpt>
      <trkpt lat="23.066524" lon="113.26794">
        <time>2026-08-03T22:28:45Z</time>
      </trkpt>
      <trkpt lat="23.066363" lon="113.26793">
        <time>2026-08-03T22:28:50Z</time>
      </trkpt>
      <trkpt lat="23.066265" lon="113.267958">
        <time>2026-08-03T22:28:55Z</time>
      </trkpt>
      <trkpt lat="23.06618" lon="113.268018">
        <time>2026-08-03T22:29:00Z</time>
      </trkpt>
      <trkpt lat="23.066075" lon="113.268141">
        <time>2026-08-03T22:29:05Z</time>
      </trkpt>
      <trkpt lat="23.065981" lon="113.268273">
        <time>2026-08-03T22:29:10Z</time>
      </trkpt>
      <trkpt lat="23.065921" lon="113.26836">
        <time>2026-08-03T22:29:15Z</time>
      </trkpt>
      <trkpt lat="23.065862" lon="113.268449">
        <time>2026-08-03T22:29:20Z</time>
      </trkpt>
      <trkpt lat="23.065783" lon="113.268593">
        <time>2026-08-03T22:29:25Z</time>
      </trkpt>
      <trkpt lat="23.065718" lon="113.268741">
        <time>2026-08-03T22:29:30Z</time>
      </trkpt>
      <trkpt lat="23.06568" lon="113.268839">
        <time>2026-08-03T22:29:35Z</time>
      </trkpt>
      <trkpt lat="23.065641" lon="113.268936">
        <time>2026-08-03T22:29:40Z</time>
      </trkpt>
      <trkpt lat="23.065595" lon="113.269085">
        <time>2026-08-03T22:29:45Z</time>
      </trkpt>
      <trkpt lat="23.065554" lon="113.269234">
        <time>2026-08-03T22:29:50Z</time>
      </trkpt>
      <trkpt lat="23.065528" lon="113.269335">
        <time>2026-08-03T22:29:55Z</time>
      </trkpt>
      <trkpt lat="23.0655" lon="113.269442">
        <time>2026-08-03T22:30:00Z</time>
      </trkpt>
      <trkpt lat="23.065453" lon="113.269606">
        <time>2026-08-03T22:30:05Z</time>
      </trkpt>
      <trkpt lat="23.065416" lon="113.269762">
        <time>2026-08-03T22:30:10Z</time>
      </trkpt>
      <trkpt lat="23.06539" lon="113.269865">
        <time>2026-08-03T22:30:15Z</time>
      </trkpt>
      <trkpt lat="23.065349" lon="113.269965">
        <time>2026-08-03T22:30:20Z</time>
      </trkpt>
      <trkpt lat="23.065297" lon="113.270117">
        <time>2026-08-03T22:30:25Z</time>
      </trkpt>
      <trkpt lat="23.065231" lon="113.270266">
        <time>2026-08-03T22:30:30Z</time>
      </trkpt>
      <trkpt lat="23.065182" lon="113.270366">
        <time>2026-08-03T22:30:35Z</time>
      </trkpt>
      <trkpt lat="23.065137" lon="113.270464">
        <time>2026-08-03T22:30:40Z</time>
      </trkpt>
      <trkpt lat="23.06507" lon="113.270607">
        <time>2026-08-03T22:30:45Z</time>
      </trkpt>
      <trkpt lat="23.065007" lon="113.270752">
        <time>2026-08-03T22:30:50Z</time>
      </trkpt>
      <trkpt lat="23.064963" lon="113.270846">
        <time>2026-08-03T22:30:55Z</time>
      </trkpt>
      <trkpt lat="23.064916" lon="113.27094">
        <time>2026-08-03T22:31:00Z</time>
      </trkpt>
      <trkpt lat="23.064853" lon="113.271082">
        <time>2026-08-03T22:31:05Z</time>
      </trkpt>
      <trkpt lat="23.064786" lon="113.271223">
        <time>2026-08-03T22:31:10Z</time>
      </trkpt>
      <trkpt lat="23.06474" lon="113.271319">
        <time>2026-08-03T22:31:15Z</time>
      </trkpt>
      <trkpt lat="23.064693" lon="113.271411">
        <time>2026-08-03T22:31:20Z</time>
      </trkpt>
      <trkpt lat="23.064628" lon="113.271548">
        <time>2026-08-03T22:31:25Z</time>
      </trkpt>
      <trkpt lat="23.064564" lon="113.271692">
        <time>2026-08-03T22:31:30Z</time>
      </trkpt>
      <trkpt lat="23.064522" lon="113.271789">
        <time>2026-08-03T22:31:35Z</time>
      </trkpt>
      <trkpt lat="23.06448" lon="113.271885">
        <time>2026-08-03T22:31:40Z</time>
      </trkpt>
      <trkpt lat="23.064415" lon="113.272028">
        <time>2026-08-03T22:31:45Z</time>
      </trkpt>
      <trkpt lat="23.064353" lon="113.272171">
        <time>2026-08-03T22:31:50Z</time>
      </trkpt>
      <trkpt lat="23.064337" lon="113.272278">
        <time>2026-08-03T22:31:55Z</time>
      </trkpt>
      <trkpt lat="23.064332" lon="113.272388">
        <time>2026-08-03T22:32:00Z</time>
      </trkpt>
      <trkpt lat="23.064323" lon="113.272548">
        <time>2026-08-03T22:32:05Z</time>
      </trkpt>
      <trkpt lat="23.064344" lon="113.272704">
        <time>2026-08-03T22:32:10Z</time>
      </trkpt>
      <trkpt lat="23.064375" lon="113.272806">
        <time>2026-08-03T22:32:15Z</time>
      </trkpt>
      <trkpt lat="23.064407" lon="113.27291">
        <time>2026-08-03T22:32:20Z</time>
      </trkpt>
      <trkpt lat="23.064456" lon="113.273065">
        <time>2026-08-03T22:32:25Z</time>
      </trkpt>
      <trkpt lat="23.06445" lon="113.273222">
        <time>2026-08-03T22:32:30Z</time>
      </trkpt>
      <trkpt lat="23.064391" lon="113.273304">
        <time>2026-08-03T22:32:35Z</time>
      </trkpt>
      <trkpt lat="23.064303" lon="113.273365">
        <time>2026-08-03T22:32:40Z</time>
      </trkpt>
      <trkpt lat="23.064166" lon="113.273455">
        <time>2026-08-03T22:32:45Z</time>
      </trkpt>
      <trkpt lat="23.064036" lon="113.273549">
        <time>2026-08-03T22:32:50Z</time>
      </trkpt>
      <trkpt lat="23.063961" lon="113.273622">
        <time>2026-08-03T22:32:55Z</time>
      </trkpt>
      <trkpt lat="23.063901" lon="113.2737">
        <time>2026-08-03T22:33:00Z</time>
      </trkpt>
      <trkpt lat="23.063824" lon="113.273828">
        <time>2026-08-03T22:33:05Z</time>
      </trkpt>
      <trkpt lat="23.063755" lon="113.273962">
        <time>2026-08-03T22:33:10Z</time>
      </trkpt>
      <trkpt lat="23.0637" lon="113.274037">
        <time>2026-08-03T22:33:15Z</time>
      </trkpt>
      <trkpt lat="23.063621" lon="113.274099">
        <time>2026-08-03T22:33:20Z</time>
      </trkpt>
      <trkpt lat="23.063527" lon="113.274235">
        <time>2026-08-03T22:33:25Z</time>
      </trkpt>
      <trkpt lat="23.063465" lon="113.2744">
        <time>2026-08-03T22:33:30Z</time>
      </trkpt>
      <trkpt lat="23.063424" lon="113.274515">
        <time>2026-08-03T22:33:35Z</time>
      </trkpt>
      <trkpt lat="23.063387" lon="113.274626">
        <time>2026-08-03T22:33:40Z</time>
      </trkpt>
      <trkpt lat="23.063336" lon="113.274793">
        <time>2026-08-03T22:33:45Z</time>
      </trkpt>
      <trkpt lat="23.063281" lon="113.274962">
        <time>2026-08-03T22:33:50Z</time>
      </trkpt>
      <trkpt lat="23.063227" lon="113.275074">
        <time>2026-08-03T22:33:55Z</time>
      </trkpt>
      <trkpt lat="23.063165" lon="113.27518">
        <time>2026-08-03T22:34:00Z</time>
      </trkpt>
      <trkpt lat="23.063086" lon="113.275326">
        <time>2026-08-03T22:34:05Z</time>
      </trkpt>
      <trkpt lat="23.063" lon="113.275461">
        <time>2026-08-03T22:34:10Z</time>
      </trkpt>
      <trkpt lat="23.062927" lon="113.275552">
        <time>2026-08-03T22:34:15Z</time>
      </trkpt>
      <trkpt lat="23.06285" lon="113.275641">
        <time>2026-08-03T22:34:20Z</time>
      </trkpt>
      <trkpt lat="23.062728" lon="113.275756">
        <time>2026-08-03T22:34:25Z</time>
      </trkpt>
      <trkpt lat="23.062618" lon="113.275874">
        <time>2026-08-03T22:34:30Z</time>
      </trkpt>
      <trkpt lat="23.06255" lon="113.275962">
        <time>2026-08-03T22:34:35Z</time>
      </trkpt>
      <trkpt lat="23.06249" lon="113.276056">
        <time>2026-08-03T22:34:40Z</time>
      </trkpt>
      <trkpt lat="23.06242" lon="113.276203">
        <time>2026-08-03T22:34:45Z</time>
      </trkpt>
      <trkpt lat="23.062366" lon="113.276357">
        <time>2026-08-03T22:34:50Z</time>
      </trkpt>
      <trkpt lat="23.062335" lon="113.276456">
        <time>2026-08-03T22:34:55Z</time>
      </trkpt>
      <trkpt lat="23.062302" lon="113.276554">
        <time>2026-08-03T22:35:00Z</time>
      </trkpt>
      <trkpt lat="23.062248" lon="113.276706">
        <time>2026-08-03T22:35:05Z</time>
      </trkpt>
      <trkpt lat="23.062193" lon="113.276853">
        <time>2026-08-03T22:35:10Z</time>
      </trkpt>
      <trkpt lat="23.062156" lon="113.276952">
        <time>2026-08-03T22:35:15Z</time>
      </trkpt>
      <trkpt lat="23.062119" lon="113.277052">
        <time>2026-08-03T22:35:20Z</time>
      </trkpt>
      <trkpt lat="23.06206" lon="113.277214">
        <time>2026-08-03T22:35:25Z</time>
      </trkpt>
      <trkpt lat="23.061997" lon="113.277369">
        <time>2026-08-03T22:35:30Z</time>
      </trkpt>
      <trkpt lat="23.061954" lon="113.277471">
        <time>2026-08-03T22:35:35Z</time>
      </trkpt>
      <trkpt lat="23.06191" lon="113.277574">
        <time>2026-08-03T22:35:40Z</time>
      </trkpt>
      <trkpt lat="23.06185" lon="113.277726">
        <time>2026-08-03T22:35:45Z</time>
      </trkpt>
      <trkpt lat="23.061839" lon="113.277886">
        <time>2026-08-03T22:35:50Z</time>
      </trkpt>
      <trkpt lat="23.061839" lon="113.277994">
        <time>2026-08-03T22:35:55Z</time>
      </trkpt>
      <trkpt lat="23.061845" lon="113.278099">
        <time>2026-08-03T22:36:00Z</time>
      </trkpt>
      <trkpt lat="23.061849" lon="113.278258">
        <time>2026-08-03T22:36:05Z</time>
      </trkpt>
      <trkpt lat="23.061856" lon="113.278422">
        <time>2026-08-03T22:36:10Z</time>
      </trkpt>
      <trkpt lat="23.061861" lon="113.278528">
        <time>2026-08-03T22:36:15Z</time>
      </trkpt>
      <trkpt lat="23.061859" lon="113.278627">
        <time>2026-08-03T22:36:20Z</time>
      </trkpt>
      <trkpt lat="23.061804" lon="113.27873">
        <time>2026-08-03T22:36:25Z</time>
      </trkpt>
      <trkpt lat="23.061714" lon="113.278804">
        <time>2026-08-03T22:36:30Z</time>
      </trkpt>
      <trkpt lat="23.061682" lon="113.278904">
        <time>2026-08-03T22:36:35Z</time>
      </trkpt>
      <trkpt lat="23.061649" lon="113.279007">
        <time>2026-08-03T22:36:40Z</time>
      </trkpt>
      <trkpt lat="23.061584" lon="113.279149">
        <time>2026-08-03T22:36:45Z</time>
      </trkpt>
      <trkpt lat="23.061522" lon="113.279286">
        <time>2026-08-03T22:36:50Z</time>
      </trkpt>
      <trkpt lat="23.061483" lon="113.279381">
        <time>2026-08-03T22:36:55Z</time>
      </trkpt>
      <trkpt lat="23.061439" lon="113.279481">
        <time>2026-08-03T22:37:00Z</time>
      </trkpt>
      <trkpt lat="23.061376" lon="113.279638">
        <time>2026-08-03T22:37:05Z</time>
      </trkpt>
      <trkpt lat="23.061308" lon="113.279793">
        <time>2026-08-03T22:37:10Z</time>
      </trkpt>
      <trkpt lat="23.06126" lon="113.279896">
        <time>2026-08-03T22:37:15Z</time>
      </trkpt>
      <trkpt lat="23.061215" lon="113.28">
        <time>2026-08-03T22:37:20Z</time>
      </trkpt>
      <trkpt lat="23.061151" lon="113.280154">
        <time>2026-08-03T22:37:25Z</time>
      </trkpt>
      <trkpt lat="23.061094" lon="113.280307">
        <time>2026-08-03T22:37:30Z</time>
      </trkpt>
      <trkpt lat="23.06105" lon="113.28041">
        <time>2026-08-03T22:37:35Z</time>
      </trkpt>
      <trkpt lat="23.061008" lon="113.280511">
        <time>2026-08-03T22:37:40Z</time>
      </trkpt>
      <trkpt lat="23.060939" lon="113.280665">
        <time>2026-08-03T22:37:45Z</time>
      </trkpt>
      <trkpt lat="23.060861" lon="113.280819">
        <time>2026-08-03T22:37:50Z</time>
      </trkpt>
      <trkpt lat="23.060817" lon="113.280925">
        <time>2026-08-03T22:37:55Z</time>
      </trkpt>
      <trkpt lat="23.060781" lon="113.281032">
        <time>2026-08-03T22:38:00Z</time>
      </trkpt>
      <trkpt lat="23.060721" lon="113.281181">
        <time>2026-08-03T22:38:05Z</time>
      </trkpt>
      <trkpt lat="23.060662" lon="113.281324">
        <time>2026-08-03T22:38:10Z</time>
      </trkpt>
      <trkpt lat="23.060626" lon="113.281423">
        <time>2026-08-03T22:38:15Z</time>
      </trkpt>
      <trkpt lat="23.060584" lon="113.281523">
        <time>2026-08-03T22:38:20Z</time>
      </trkpt>
      <trkpt lat="23.060519" lon="113.281676">
        <time>2026-08-03T22:38:25Z</time>
      </trkpt>
      <trkpt lat="23.060452" lon="113.281831">
        <time>2026-08-03T22:38:30Z</time>
      </trkpt>
      <trkpt lat="23.060406" lon="113.281933">
        <time>2026-08-03T22:38:35Z</time>
      </trkpt>
      <trkpt lat="23.060365" lon="113.282038">
        <time>2026-08-03T22:38:40Z</time>
      </trkpt>
      <trkpt lat="23.060306" lon="113.28219">
        <time>2026-08-03T22:38:45Z</time>
      </trkpt>
      <trkpt lat="23.060249" lon="113.282341">
        <time>2026-08-03T22:38:50Z</time>
      </trkpt>
      <trkpt lat="23.060211" lon="113.282442">
        <time>2026-08-03T22:38:55Z</time>
      </trkpt>
      <trkpt lat="23.060162" lon="113.282542">
        <time>2026-08-03T22:39:00Z</time>
      </trkpt>
      <trkpt lat="23.06009" lon="113.282694">
        <time>2026-08-03T22:39:05Z</time>
      </trkpt>
      <trkpt lat="23.060023" lon="113.282842">
        <time>2026-08-03T22:39:10Z</time>
      </trkpt>
      <trkpt lat="23.059979" lon="113.282939">
        <time>2026-08-03T22:39:15Z</time>
      </trkpt>
      <trkpt lat="23.059934" lon="113.283031">
        <time>2026-08-03T22:39:20Z</time>
      </trkpt>
      <trkpt lat="23.05987" lon="113.283171">
        <time>2026-08-03T22:39:25Z</time>
      </trkpt>
      <trkpt lat="23.059829" lon="113.283321">
        <time>2026-08-03T22:39:30Z</time>
      </trkpt>
      <trkpt lat="23.059866" lon="113.283403">
        <time>2026-08-03T22:39:35Z</time>
      </trkpt>
      <trkpt lat="23.05993" lon="113.283373">
        <time>2026-08-03T22:39:40Z</time>
      </trkpt>
      <trkpt lat="23.060006" lon="113.283228">
        <time>2026-08-03T22:39:45Z</time>
      </trkpt>
      <trkpt lat="23.060093" lon="113.283094">
        <time>2026-08-03T22:39:50Z</time>
      </trkpt>
      <trkpt lat="23.060145" lon="113.283002">
        <time>2026-08-03T22:39:55Z</time>
      </trkpt>
      <trkpt lat="23.060194" lon="113.282911">
        <time>2026-08-03T22:40:00Z</time>
      </trkpt>
      <trkpt lat="23.060253" lon="113.282764">
        <time>2026-08-03T22:40:05Z</time>
      </trkpt>
      <trkpt lat="23.060308" lon="113.282609">
        <time>2026-08-03T22:40:10Z</time>
      </trkpt>
      <trkpt lat="23.060345" lon="113.282498">
        <time>2026-08-03T22:40:15Z</time>
      </trkpt>
      <trkpt lat="23.060381" lon="113.28239">
        <time>2026-08-03T22:40:20Z</time>
      </trkpt>
      <trkpt lat="23.060442" lon="113.282243">
        <time>2026-08-03T22:40:25Z</time>
      </trkpt>
      <trkpt lat="23.060501" lon="113.282094">
        <time>2026-08-03T22:40:30Z</time>
      </trkpt>
      <trkpt lat="23.060543" lon="113.281995">
        <time>2026-08-03T22:40:35Z</time>
      </trkpt>
      <trkpt lat="23.060586" lon="113.281896">
        <time>2026-08-03T22:40:40Z</time>
      </trkpt>
      <trkpt lat="23.060642" lon="113.281749">
        <time>2026-08-03T22:40:45Z</time>
      </trkpt>
      <trkpt lat="23.060696" lon="113.281599">
        <time>2026-08-03T22:40:50Z</time>
      </trkpt>
      <trkpt lat="23.06074" lon="113.281497">
        <time>2026-08-03T22:40:55Z</time>
      </trkpt>
      <trkpt lat="23.060788" lon="113.28139">
        <time>2026-08-03T22:41:00Z</time>
      </trkpt>
      <trkpt lat="23.060863" lon="113.281238">
        <time>2026-08-03T22:41:05Z</time>
      </trkpt>
      <trkpt lat="23.060921" lon="113.281084">
        <time>2026-08-03T22:41:10Z</time>
      </trkpt>
      <trkpt lat="23.060962" lon="113.280983">
        <time>2026-08-03T22:41:15Z</time>
      </trkpt>
      <trkpt lat="23.061002" lon="113.280884">
        <time>2026-08-03T22:41:20Z</time>
      </trkpt>
      <trkpt lat="23.061063" lon="113.280729">
        <time>2026-08-03T22:41:25Z</time>
      </trkpt>
      <trkpt lat="23.061128" lon="113.280565">
        <time>2026-08-03T22:41:30Z</time>
      </trkpt>
      <trkpt lat="23.061171" lon="113.280456">
        <time>2026-08-03T22:41:35Z</time>
      </trkpt>
      <trkpt lat="23.061222" lon="113.280356">
        <time>2026-08-03T22:41:40Z</time>
      </trkpt>
      <trkpt lat="23.061297" lon="113.280206">
        <time>2026-08-03T22:41:45Z</time>
      </trkpt>
      <trkpt lat="23.061367" lon="113.280062">
        <time>2026-08-03T22:41:50Z</time>
      </trkpt>
      <trkpt lat="23.061414" lon="113.279964">
        <time>2026-08-03T22:41:55Z</time>
      </trkpt>
      <trkpt lat="23.061463" lon="113.279866">
        <time>2026-08-03T22:42:00Z</time>
      </trkpt>
      <trkpt lat="23.061526" lon="113.279723">
        <time>2026-08-03T22:42:05Z</time>
      </trkpt>
      <trkpt lat="23.061576" lon="113.279585">
        <time>2026-08-03T22:42:10Z</time>
      </trkpt>
      <trkpt lat="23.061605" lon="113.279491">
        <time>2026-08-03T22:42:15Z</time>
      </trkpt>
      <trkpt lat="23.061637" lon="113.279388">
        <time>2026-08-03T22:42:20Z</time>
      </trkpt>
      <trkpt lat="23.061703" lon="113.27923">
        <time>2026-08-03T22:42:25Z</time>
      </trkpt>
      <trkpt lat="23.061779" lon="113.279084">
        <time>2026-08-03T22:42:30Z</time>
      </trkpt>
      <trkpt lat="23.061836" lon="113.278992">
        <time>2026-08-03T22:42:35Z</time>
      </trkpt>
      <trkpt lat="23.061896" lon="113.278904">
        <time>2026-08-03T22:42:40Z</time>
      </trkpt>
      <trkpt lat="23.061968" lon="113.278758">
        <time>2026-08-03T22:42:45Z</time>
      </trkpt>
      <trkpt lat="23.061974" lon="113.278588">
        <time>2026-08-03T22:42:50Z</time>
      </trkpt>
      <trkpt lat="23.061961" lon="113.27847">
        <time>2026-08-03T22:42:55Z</time>
      </trkpt>
      <trkpt lat="23.06195" lon="113.278355">
        <time>2026-08-03T22:43:00Z</time>
      </trkpt>
      <trkpt lat="23.061939" lon="113.278183">
        <time>2026-08-03T22:43:05Z</time>
      </trkpt>
      <trkpt lat="23.061936" lon="113.278013">
        <time>2026-08-03T22:43:10Z</time>
      </trkpt>
      <trkpt lat="23.061932" lon="113.277903">
        <time>2026-08-03T22:43:15Z</time>
      </trkpt>
      <trkpt lat="23.061933" lon="113.277793">
        <time>2026-08-03T22:43:20Z</time>
      </trkpt>
      <trkpt lat="23.061969" lon="113.277629">
        <time>2026-08-03T22:43:25Z</time>
      </trkpt>
      <trkpt lat="23.062033" lon="113.277466">
        <time>2026-08-03T22:43:30Z</time>
      </trkpt>
      <trkpt lat="23.062077" lon="113.277361">
        <time>2026-08-03T22:43:35Z</time>
      </trkpt>
      <trkpt lat="23.062117" lon="113.277261">
        <time>2026-08-03T22:43:40Z</time>
      </trkpt>
      <trkpt lat="23.062178" lon="113.277108">
        <time>2026-08-03T22:43:45Z</time>
      </trkpt>
      <trkpt lat="23.062239" lon="113.276962">
        <time>2026-08-03T22:43:50Z</time>
      </trkpt>
      <trkpt lat="23.062279" lon="113.276861">
        <time>2026-08-03T22:43:55Z</time>
      </trkpt>
      <trkpt lat="23.062316" lon="113.276758">
        <time>2026-08-03T22:44:00Z</time>
      </trkpt>
      <trkpt lat="23.06237" lon="113.27661">
        <time>2026-08-03T22:44:05Z</time>
      </trkpt>
      <trkpt lat="23.062423" lon="113.276465">
        <time>2026-08-03T22:44:10Z</time>
      </trkpt>
      <trkpt lat="23.062457" lon="113.276366">
        <time>2026-08-03T22:44:15Z</time>
      </trkpt>
      <trkpt lat="23.062495" lon="113.276265">
        <time>2026-08-03T22:44:20Z</time>
      </trkpt>
      <trkpt lat="23.062566" lon="113.276115">
        <time>2026-08-03T22:44:25Z</time>
      </trkpt>
      <trkpt lat="23.062643" lon="113.275975">
        <time>2026-08-03T22:44:30Z</time>
      </trkpt>
      <trkpt lat="23.062702" lon="113.275888">
        <time>2026-08-03T22:44:35Z</time>
      </trkpt>
      <trkpt lat="23.062767" lon="113.275805">
        <time>2026-08-03T22:44:40Z</time>
      </trkpt>
      <trkpt lat="23.062878" lon="113.275692">
        <time>2026-08-03T22:44:45Z</time>
      </trkpt>
      <trkpt lat="23.062992" lon="113.275576">
        <time>2026-08-03T22:44:50Z</time>
      </trkpt>
      <trkpt lat="23.063058" lon="113.275496">
        <time>2026-08-03T22:44:55Z</time>
      </trkpt>
      <trkpt lat="23.06311" lon="113.275409">
        <time>2026-08-03T22:45:00Z</time>
      </trkpt>
      <trkpt lat="23.06319" lon="113.275268">
        <time>2026-08-03T22:45:05Z</time>
      </trkpt>
      <trkpt lat="23.063271" lon="113.275123">
        <time>2026-08-03T22:45:10Z</time>
      </trkpt>
      <trkpt lat="23.063331" lon="113.275031">
        <time>2026-08-03T22:45:15Z</time>
      </trkpt>
      <trkpt lat="23.063375" lon="113.274935">
        <time>2026-08-03T22:45:20Z</time>
      </trkpt>
      <trkpt lat="23.063424" lon="113.274787">
        <time>2026-08-03T22:45:25Z</time>
      </trkpt>
      <trkpt lat="23.06346" lon="113.274651">
        <time>2026-08-03T22:45:30Z</time>
      </trkpt>
      <trkpt lat="23.063491" lon="113.274557">
        <time>2026-08-03T22:45:35Z</time>
      </trkpt>
      <trkpt lat="23.063542" lon="113.274452">
        <time>2026-08-03T22:45:40Z</time>
      </trkpt>
      <trkpt lat="23.063618" lon="113.274304">
        <time>2026-08-03T22:45:45Z</time>
      </trkpt>
      <trkpt lat="23.06372" lon="113.274192">
        <time>2026-08-03T22:45:50Z</time>
      </trkpt>
      <trkpt lat="23.06379" lon="113.274113">
        <time>2026-08-03T22:45:55Z</time>
      </trkpt>
      <trkpt lat="23.063854" lon="113.274011">
        <time>2026-08-03T22:46:00Z</time>
      </trkpt>
      <trkpt lat="23.063938" lon="113.273836">
        <time>2026-08-03T22:46:05Z</time>
      </trkpt>
      <trkpt lat="23.064032" lon="113.273697">
        <time>2026-08-03T22:46:10Z</time>
      </trkpt>
      <trkpt lat="23.064105" lon="113.273628">
        <time>2026-08-03T22:46:15Z</time>
      </trkpt>
      <trkpt lat="23.064196" lon="113.273571">
        <time>2026-08-03T22:46:20Z</time>
      </trkpt>
      <trkpt lat="23.064326" lon="113.273477">
        <time>2026-08-03T22:46:25Z</time>
      </trkpt>
      <trkpt lat="23.064454" lon="113.273375">
        <time>2026-08-03T22:46:30Z</time>
      </trkpt>
      <trkpt lat="23.064525" lon="113.273296">
        <time>2026-08-03T22:46:35Z</time>
      </trkpt>
      <trkpt lat="23.064569" lon="113.273195">
        <time>2026-08-03T22:46:40Z</time>
      </trkpt>
      <trkpt lat="23.06456" lon="113.273024">
        <time>2026-08-03T22:46:45Z</time>
      </trkpt>
      <trkpt lat="23.064499" lon="113.272854">
        <time>2026-08-03T22:46:50Z</time>
      </trkpt>
      <trkpt lat="23.064458" lon="113.272741">
        <time>2026-08-03T22:46:55Z</time>
      </trkpt>
      <trkpt lat="23.064434" lon="113.272626">
        <time>2026-08-03T22:47:00Z</time>
      </trkpt>
      <trkpt lat="23.064457" lon="113.272459">
        <time>2026-08-03T22:47:05Z</time>
      </trkpt>
      <trkpt lat="23.064515" lon="113.272283">
        <time>2026-08-03T22:47:10Z</time>
      </trkpt>
      <trkpt lat="23.064559" lon="113.272167">
        <time>2026-08-03T22:47:15Z</time>
      </trkpt>
      <trkpt lat="23.064611" lon="113.272056">
        <time>2026-08-03T22:47:20Z</time>
      </trkpt>
      <trkpt lat="23.064694" lon="113.271906">
        <time>2026-08-03T22:47:25Z</time>
      </trkpt>
      <trkpt lat="23.064761" lon="113.271762">
        <time>2026-08-03T22:47:30Z</time>
      </trkpt>
      <trkpt lat="23.064802" lon="113.271653">
        <time>2026-08-03T22:47:35Z</time>
      </trkpt>
      <trkpt lat="23.064851" lon="113.271534">
        <time>2026-08-03T22:47:40Z</time>
      </trkpt>
      <trkpt lat="23.064932" lon="113.271372">
        <time>2026-08-03T22:47:45Z</time>
      </trkpt>
      <trkpt lat="23.065011" lon="113.271236">
        <time>2026-08-03T22:47:50Z</time>
      </trkpt>
      <trkpt lat="23.065067" lon="113.271136">
        <time>2026-08-03T22:47:55Z</time>
      </trkpt>
      <trkpt lat="23.065122" lon="113.271025">
        <time>2026-08-03T22:48:00Z</time>
      </trkpt>
      <trkpt lat="23.065187" lon="113.270865">
        <time>2026-08-03T22:48:05Z</time>
      </trkpt>
      <trkpt lat="23.065257" lon="113.270713">
        <time>2026-08-03T22:48:10Z</time>
      </trkpt>
      <trkpt lat="23.065303" lon="113.270611">
        <time>2026-08-03T22:48:15Z</time>
      </trkpt>
      <trkpt lat="23.065348" lon="113.270509">
        <time>2026-08-03T22:48:20Z</time>
      </trkpt>
      <trkpt lat="23.065412" lon="113.270367">
        <time>2026-08-03T22:48:25Z</time>
      </trkpt>
      <trkpt lat="23.065474" lon="113.270219">
        <time>2026-08-03T22:48:30Z</time>
      </trkpt>
      <trkpt lat="23.065514" lon="113.270116">
        <time>2026-08-03T22:48:35Z</time>
      </trkpt>
      <trkpt lat="23.065552" lon="113.270015">
        <time>2026-08-03T22:48:40Z</time>
      </trkpt>
      <trkpt lat="23.065602" lon="113.269867">
        <time>2026-08-03T22:48:45Z</time>
      </trkpt>
      <trkpt lat="23.065647" lon="113.269709">
        <time>2026-08-03T22:48:50Z</time>
      </trkpt>
      <trkpt lat="23.065682" lon="113.269603">
        <time>2026-08-03T22:48:55Z</time>
      </trkpt>
      <trkpt lat="23.065713" lon="113.269492">
        <time>2026-08-03T22:49:00Z</time>
      </trkpt>
      <trkpt lat="23.065752" lon="113.269323">
        <time>2026-08-03T22:49:05Z</time>
      </trkpt>
      <trkpt lat="23.065794" lon="113.269154">
        <time>2026-08-03T22:49:10Z</time>
      </trkpt>
      <trkpt lat="23.065832" lon="113.269047">
        <time>2026-08-03T22:49:15Z</time>
      </trkpt>
      <trkpt lat="23.065882" lon="113.268947">
        <time>2026-08-03T22:49:20Z</time>
      </trkpt>
      <trkpt lat="23.065954" lon="113.268796">
        <time>2026-08-03T22:49:25Z</time>
      </trkpt>
      <trkpt lat="23.066022" lon="113.268651">
        <time>2026-08-03T22:49:30Z</time>
      </trkpt>
      <trkpt lat="23.066073" lon="113.268561">
        <time>2026-08-03T22:49:35Z</time>
      </trkpt>
      <trkpt lat="23.066129" lon="113.26847">
        <time>2026-08-03T22:49:40Z</time>
      </trkpt>
      <trkpt lat="23.06622" lon="113.268328">
        <time>2026-08-03T22:49:45Z</time>
      </trkpt>
      <trkpt lat="23.066324" lon="113.268202">
        <time>2026-08-03T22:49:50Z</time>
      </trkpt>
      <trkpt lat="23.066412" lon="113.268143">
        <time>2026-08-03T22:49:55Z</time>
      </trkpt>
      <trkpt lat="23.066512" lon="113.268122">
        <time>2026-08-03T22:50:00Z</time>
      </trkpt>
      <trkpt lat="23.066658" lon="113.268133">
        <time>2026-08-03T22:50:05Z</time>
      </trkpt>
      <trkpt lat="23.066675" lon="113.268036">
        <time>2026-08-03T22:50:10Z</time>
      </trkpt>
      <trkpt lat="23.066574" lon="113.267977">
        <time>2026-08-03T22:50:15Z</time>
      </trkpt>
      <trkpt lat="23.066458" lon="113.267941">
        <time>2026-08-03T22:50:20Z</time>
      </trkpt>
      <trkpt lat="23.066287" lon="113.267947">
        <time>2026-08-03T22:50:25Z</time>
      </trkpt>
      <trkpt lat="23.066139" lon="113.268037">
        <time>2026-08-03T22:50:30Z</time>
      </trkpt>
      <trkpt lat="23.066063" lon="113.268129">
        <time>2026-08-03T22:50:35Z</time>
      </trkpt>
      <trkpt lat="23.065997" lon="113.268224">
        <time>2026-08-03T22:50:40Z</time>
      </trkpt>
      <trkpt lat="23.065902" lon="113.268366">
        <time>2026-08-03T22:50:45Z</time>
      </trkpt>
      <trkpt lat="23.065818" lon="113.268511">
        <time>2026-08-03T22:50:50Z</time>
      </trkpt>
      <trkpt lat="23.065772" lon="113.268609">
        <time>2026-08-03T22:50:55Z</time>
      </trkpt>
      <trkpt lat="23.065729" lon="113.268707">
        <time>2026-08-03T22:51:00Z</time>
      </trkpt>
      <trkpt lat="23.065667" lon="113.268864">
        <time>2026-08-03T22:51:05Z</time>
      </trkpt>
      <trkpt lat="23.065615" lon="113.269024">
        <time>2026-08-03T22:51:10Z</time>
      </trkpt>
      <trkpt lat="23.065581" lon="113.269131">
        <time>2026-08-03T22:51:15Z</time>
      </trkpt>
      <trkpt lat="23.065553" lon="113.269232">
        <time>2026-08-03T22:51:20Z</time>
      </trkpt>
      <trkpt lat="23.065518" lon="113.269385">
        <time>2026-08-03T22:51:25Z</time>
      </trkpt>
      <trkpt lat="23.065479" lon="113.269546">
        <time>2026-08-03T22:51:30Z</time>
      </trkpt>
      <trkpt lat="23.065454" lon="113.269657">
        <time>2026-08-03T22:51:35Z</time>
      </trkpt>
      <trkpt lat="23.065427" lon="113.269767">
        <time>2026-08-03T22:51:40Z</time>
      </trkpt>
      <trkpt lat="23.065376" lon="113.269925">
        <time>2026-08-03T22:51:45Z</time>
      </trkpt>
      <trkpt lat="23.065314" lon="113.270092">
        <time>2026-08-03T22:51:50Z</time>
      </trkpt>
      <trkpt lat="23.065264" lon="113.270198">
        <time>2026-08-03T22:51:55Z</time>
      </trkpt>
      <trkpt lat="23.065212" lon="113.270298">
        <time>2026-08-03T22:52:00Z</time>
      </trkpt>
      <trkpt lat="23.065138" lon="113.270457">
        <time>2026-08-03T22:52:05Z</time>
      </trkpt>
      <trkpt lat="23.06506" lon="113.270619">
        <time>2026-08-03T22:52:10Z</time>
      </trkpt>
      <trkpt lat="23.065014" lon="113.270726">
        <time>2026-08-03T22:52:15Z</time>
      </trkpt>
      <trkpt lat="23.064967" lon="113.270826">
        <time>2026-08-03T22:52:20Z</time>
      </trkpt>
      <trkpt lat="23.064896" lon="113.270976">
        <time>2026-08-03T22:52:25Z</time>
      </trkpt>
      <trkpt lat="23.064835" lon="113.271132">
        <time>2026-08-03T22:52:30Z</time>
      </trkpt>
      <trkpt lat="23.064789" lon="113.271227">
        <time>2026-08-03T22:52:35Z</time>
      </trkpt>
      <trkpt lat="23.064747" lon="113.271323">
        <time>2026-08-03T22:52:40Z</time>
      </trkpt>
      <trkpt lat="23.064681" lon="113.271468">
        <time>2026-08-03T22:52:45Z</time>
      </trkpt>
      <trkpt lat="23.064607" lon="113.271614">
        <time>2026-08-03T22:52:50Z</time>
      </trkpt>
      <trkpt lat="23.064562" lon="113.271716">
        <time>2026-08-03T22:52:55Z</time>
      </trkpt>
      <trkpt lat="23.064517" lon="113.271816">
        <time>2026-08-03T22:53:00Z</time>
      </trkpt>
      <trkpt lat="23.064443" lon="113.271968">
        <time>2026-08-03T22:53:05Z</time>
      </trkpt>
      <trkpt lat="23.064376" lon="113.272115">
        <time>2026-08-03T22:53:10Z</time>
      </trkpt>
      <trkpt lat="23.06435" lon="113.27222">
        <time>2026-08-03T22:53:15Z</time>
      </trkpt>
      <trkpt lat="23.064341" lon="113.272331">
        <time>2026-08-03T22:53:20Z</time>
      </trkpt>
      <trkpt lat="23.064327" lon="113.272497">
        <time>2026-08-03T22:53:25Z</time>
      </trkpt>
      <trkpt lat="23.064345" lon="113.272666">
        <time>2026-08-03T22:53:30Z</time>
      </trkpt>
      <trkpt lat="23.064377" lon="113.272774">
        <time>2026-08-03T22:53:35Z</time>
      </trkpt>
      <trkpt lat="23.064409" lon="113.272876">
        <time>2026-08-03T22:53:40Z</time>
      </trkpt>
      <trkpt lat="23.064451" lon="113.273033">
        <time>2026-08-03T22:53:45Z</time>
      </trkpt>
      <trkpt lat="23.064473" lon="113.273182">
        <time>2026-08-03T22:53:50Z</time>
      </trkpt>
      <trkpt lat="23.064441" lon="113.273277">
        <time>2026-08-03T22:53:55Z</time>
      </trkpt>
      <trkpt lat="23.064374" lon="113.273354">
        <time>2026-08-03T22:54:00Z</time>
      </trkpt>
      <trkpt lat="23.064244" lon="113.273441">
        <time>2026-08-03T22:54:05Z</time>
      </trkpt>
      <trkpt lat="23.064108" lon="113.273537">
        <time>2026-08-03T22:54:10Z</time>
      </trkpt>
      <trkpt lat="23.064019" lon="113.273605">
        <time>2026-08-03T22:54:15Z</time>
      </trkpt>
      <trkpt lat="23.063939" lon="113.273681">
        <time>2026-08-03T22:54:20Z</time>
      </trkpt>
      <trkpt lat="23.063839" lon="113.273817">
        <time>2026-08-03T22:54:25Z</time>
      </trkpt>
      <trkpt lat="23.063763" lon="113.273962">
        <time>2026-08-03T22:54:30Z</time>
      </trkpt>
      <trkpt lat="23.063713" lon="113.274042">
        <time>2026-08-03T22:54:35Z</time>
      </trkpt>
      <trkpt lat="23.063644" lon="113.274106">
        <time>2026-08-03T22:54:40Z</time>
      </trkpt>
      <trkpt lat="23.063534" lon="113.274206">
        <time>2026-08-03T22:54:45Z</time>
      </trkpt>
      <trkpt lat="23.06346" lon="113.27436">
        <time>2026-08-03T22:54:50Z</time>
      </trkpt>
      <trkpt lat="23.063421" lon="113.274469">
        <time>2026-08-03T22:54:55Z</time>
      </trkpt>
      <trkpt lat="23.063388" lon="113.274578">
        <time>2026-08-03T22:55:00Z</time>
      </trkpt>
      <trkpt lat="23.063334" lon="113.274734">
        <time>2026-08-03T22:55:05Z</time>
      </trkpt>
      <trkpt lat="23.063279" lon="113.274897">
        <time>2026-08-03T22:55:10Z</time>
      </trkpt>
      <trkpt lat="23.06324" lon="113.27501">
        <time>2026-08-03T22:55:15Z</time>
      </trkpt>
      <trkpt lat="23.063189" lon="113.275115">
        <time>2026-08-03T22:55:20Z</time>
      </trkpt>
      <trkpt lat="23.0631" lon="113.275262">
        <time>2026-08-03T22:55:25Z</time>
      </trkpt>
      <trkpt lat="23.063012" lon="113.275408">
        <time>2026-08-03T22:55:30Z</time>
      </trkpt>
      <trkpt lat="23.062946" lon="113.2755">
        <time>2026-08-03T22:55:35Z</time>
      </trkpt>
      <trkpt lat="23.062874" lon="113.275585">
        <time>2026-08-03T22:55:40Z</time>
      </trkpt>
      <trkpt lat="23.062778" lon="113.275701">
        <time>2026-08-03T22:55:45Z</time>
      </trkpt>
      <trkpt lat="23.062854" lon="113.275727">
        <time>2026-08-03T22:55:50Z</time>
      </trkpt>
      <trkpt lat="23.06294" lon="113.275645">
        <time>2026-08-03T22:55:55Z</time>
      </trkpt>
      <trkpt lat="23.063015" lon="113.275555">
        <time>2026-08-03T22:56:00Z</time>
      </trkpt>
      <trkpt lat="23.063105" lon="113.275412">
        <time>2026-08-03T22:56:05Z</time>
      </trkpt>
      <trkpt lat="23.06319" lon="113.275268">
        <time>2026-08-03T22:56:10Z</time>
      </trkpt>
      <trkpt lat="23.063246" lon="113.275174">
        <time>2026-08-03T22:56:15Z</time>
      </trkpt>
      <trkpt lat="23.063303" lon="113.275076">
        <time>2026-08-03T22:56:20Z</time>
      </trkpt>
      <trkpt lat="23.063377" lon="113.27492">
        <time>2026-08-03T22:56:25Z</time>
      </trkpt>
      <trkpt lat="23.063423" lon="113.274777">
        <time>2026-08-03T22:56:30Z</time>
      </trkpt>
      <trkpt lat="23.063456" lon="113.274684">
        <time>2026-08-03T22:56:35Z</time>
      </trkpt>
      <trkpt lat="23.063494" lon="113.274586">
        <time>2026-08-03T22:56:40Z</time>
      </trkpt>
      <trkpt lat="23.063558" lon="113.274446">
        <time>2026-08-03T22:56:45Z</time>
      </trkpt>
      <trkpt lat="23.063636" lon="113.2743">
        <time>2026-08-03T22:56:50Z</time>
      </trkpt>
      <trkpt lat="23.063699" lon="113.274211">
        <time>2026-08-03T22:56:55Z</time>
      </trkpt>
      <trkpt lat="23.063774" lon="113.274132">
        <time>2026-08-03T22:57:00Z</time>
      </trkpt>
      <trkpt lat="23.063873" lon="113.273993">
        <time>2026-08-03T22:57:05Z</time>
      </trkpt>
      <trkpt lat="23.063961" lon="113.27384">
        <time>2026-08-03T22:57:10Z</time>
      </trkpt>
      <trkpt lat="23.064022" lon="113.273749">
        <time>2026-08-03T22:57:15Z</time>
      </trkpt>
      <trkpt lat="23.064096" lon="113.27367">
        <time>2026-08-03T22:57:20Z</time>
      </trkpt>
      <trkpt lat="23.064222" lon="113.273567">
        <time>2026-08-03T22:57:25Z</time>
      </trkpt>
      <trkpt lat="23.064343" lon="113.273464">
        <time>2026-08-03T22:57:30Z</time>
      </trkpt>
      <trkpt lat="23.064423" lon="113.273398">
        <time>2026-08-03T22:57:35Z</time>
      </trkpt>
      <trkpt lat="23.064498" lon="113.273325">
        <time>2026-08-03T22:57:40Z</time>
      </trkpt>
      <trkpt lat="23.064578" lon="113.273186">
        <time>2026-08-03T22:57:45Z</time>
      </trkpt>
      <trkpt lat="23.064565" lon="113.273018">
        <time>2026-08-03T22:57:50Z</time>
      </trkpt>
      <trkpt lat="23.064522" lon="113.272907">
        <time>2026-08-03T22:57:55Z</time>
      </trkpt>
      <trkpt lat="23.064475" lon="113.27279">
        <time>2026-08-03T22:58:00Z</time>
      </trkpt>
      <trkpt lat="23.064427" lon="113.272616">
        <time>2026-08-03T22:58:05Z</time>
      </trkpt>
      <trkpt lat="23.064461" lon="113.272453">
        <time>2026-08-03T22:58:10Z</time>
      </trkpt>
      <trkpt lat="23.064504" lon="113.272344">
        <time>2026-08-03T22:58:15Z</time>
      </trkpt>
      <trkpt lat="23.064533" lon="113.272236">
        <time>2026-08-03T22:58:20Z</time>
      </trkpt>
      <trkpt lat="23.064605" lon="113.27208">
        <time>2026-08-03T22:58:25Z</time>
      </trkpt>
      <trkpt lat="23.064684" lon="113.271944">
        <time>2026-08-03T22:58:30Z</time>
      </trkpt>
      <trkpt lat="23.064735" lon="113.271858">
        <time>2026-08-03T22:58:35Z</time>
      </trkpt>
      <trkpt lat="23.064779" lon="113.271767">
        <time>2026-08-03T22:58:40Z</time>
      </trkpt>
      <trkpt lat="23.064837" lon="113.271611">
        <time>2026-08-03T22:58:45Z</time>
      </trkpt>
      <trkpt lat="23.064902" lon="113.271451">
        <time>2026-08-03T22:58:50Z</time>
      </trkpt>
      <trkpt lat="23.064956" lon="113.271356">
        <time>2026-08-03T22:58:55Z</time>
      </trkpt>
      <trkpt lat="23.065013" lon="113.271257">
        <time>2026-08-03T22:59:00Z</time>
      </trkpt>
      <trkpt lat="23.065075" lon="113.271085">
        <time>2026-08-03T22:59:05Z</time>
      </trkpt>
      <trkpt lat="23.065145" lon="113.270925">
        <time>2026-08-03T22:59:10Z</time>
      </trkpt>
      <trkpt lat="23.065191" lon="113.270825">
        <time>2026-08-03T22:59:15Z</time>
      </trkpt>
      <trkpt lat="23.065238" lon="113.270725">
        <time>2026-08-03T22:59:20Z</time>
      </trkpt>
      <trkpt lat="23.065313" lon="113.270582">
        <time>2026-08-03T22:59:25Z</time>
      </trkpt>
      <trkpt lat="23.065383" lon="113.270436">
        <time>2026-08-03T22:59:30Z</time>
      </trkpt>
      <trkpt lat="23.065428" lon="113.270336">
        <time>2026-08-03T22:59:35Z</time>
      </trkpt>
      <trkpt lat="23.065469" lon="113.270239">
        <time>2026-08-03T22:59:40Z</time>
      </trkpt>
      <trkpt lat="23.065527" lon="113.270089">
        <time>2026-08-03T22:59:45Z</time>
      </trkpt>
      <trkpt lat="23.065578" lon="113.269941">
        <time>2026-08-03T22:59:50Z</time>
      </trkpt>
      <trkpt lat="23.065607" lon="113.26985">
        <time>2026-08-03T22:59:55Z</time>
      </trkpt>
      <trkpt lat="23.065636" lon="113.269763">
        <time>2026-08-03T23:00:00Z</time>
      </trkpt>
      <trkpt lat="23.065688" lon="113.269606">
        <time>2026-08-03T23:00:05Z</time>
      </trkpt>
      <trkpt lat="23.06574" lon="113.269425">
        <time>2026-08-03T23:00:10Z</time>
      </trkpt>
      <trkpt lat="23.065768" lon="113.269312">
        <time>2026-08-03T23:00:15Z</time>
      </trkpt>
      <trkpt lat="23.065799" lon="113.269203">
        <time>2026-08-03T23:00:20Z</time>
      </trkpt>
      <trkpt lat="23.065853" lon="113.26905">
        <time>2026-08-03T23:00:25Z</time>
      </trkpt>
      <trkpt lat="23.065917" lon="113.268911">
        <time>2026-08-03T23:00:30Z</time>
      </trkpt>
      <trkpt lat="23.065965" lon="113.268813">
        <time>2026-08-03T23:00:35Z</time>
      </trkpt>
      <trkpt lat="23.066014" lon="113.268713">
        <time>2026-08-03T23:00:40Z</time>
      </trkpt>
      <trkpt lat="23.066085" lon="113.268567">
        <time>2026-08-03T23:00:45Z</time>
      </trkpt>
      <trkpt lat="23.066159" lon="113.268428">
        <time>2026-08-03T23:00:50Z</time>
      </trkpt>
      <trkpt lat="23.066213" lon="113.268346">
        <time>2026-08-03T23:00:55Z</time>
      </trkpt>
      <trkpt lat="23.066275" lon="113.26827">
        <time>2026-08-03T23:01:00Z</time>
      </trkpt>
      <trkpt lat="23.066391" lon="113.268164">
        <time>2026-08-03T23:01:05Z</time>
      </trkpt>
      <trkpt lat="23.066534" lon="113.268127">
        <time>2026-08-03T23:01:10Z</time>
      </trkpt>
      <trkpt lat="23.066638" lon="113.268146">
        <time>2026-08-03T23:01:15Z</time>
      </trkpt>
      <trkpt lat="23.066743" lon="113.268147">
        <time>2026-08-03T23:01:20Z</time>
      </trkpt>
      <trkpt lat="23.066896" lon="113.268138">
        <time>2026-08-03T23:01:25Z</time>
      </trkpt>
      <trkpt lat="23.067047" lon="113.268176">
        <time>2026-08-03T23:01:30Z</time>
      </trkpt>
      <trkpt lat="23.067143" lon="113.268225">
        <time>2026-08-03T23:01:35Z</time>
      </trkpt>
      <trkpt lat="23.06724" lon="113.268277">
        <time>2026-08-03T23:01:40Z</time>
      </trkpt>
      <trkpt lat="23.067361" lon="113.268362">
        <time>2026-08-03T23:01:45Z</time>
      </trkpt>
      <trkpt lat="23.06748" lon="113.268435">
        <time>2026-08-03T23:01:50Z</time>
      </trkpt>
      <trkpt lat="23.067573" lon="113.268479">
        <time>2026-08-03T23:01:55Z</time>
      </trkpt>
      <trkpt lat="23.067677" lon="113.26853">
        <time>2026-08-03T23:02:00Z</time>
      </trkpt>
      <trkpt lat="23.067831" lon="113.268597">
        <time>2026-08-03T23:02:05Z</time>
      </trkpt>
      <trkpt lat="23.067956" lon="113.268688">
        <time>2026-08-03T23:02:10Z</time>
      </trkpt>
      <trkpt lat="23.068027" lon="113.268738">
        <time>2026-08-03T23:02:15Z</time>
      </trkpt>
      <trkpt lat="23.068098" lon="113.268774">
        <time>2026-08-03T23:02:20Z</time>
      </trkpt>
      <trkpt lat="23.06823" lon="113.268811">
        <time>2026-08-03T23:02:25Z</time>
      </trkpt>
      <trkpt lat="23.068383" lon="113.268892">
        <time>2026-08-03T23:02:30Z</time>
      </trkpt>
      <trkpt lat="23.068482" lon="113.269001">
        <time>2026-08-03T23:02:35Z</time>
      </trkpt>
      <trkpt lat="23.068553" lon="113.269108">
        <time>2026-08-03T23:02:40Z</time>
      </trkpt>
      <trkpt lat="23.068689" lon="113.269194">
        <time>2026-08-03T23:02:45Z</time>
      </trkpt>
      <trkpt lat="23.06884" lon="113.269249">
        <time>2026-08-03T23:02:50Z</time>
      </trkpt>
      <trkpt lat="23.068924" lon="113.269288">
        <time>2026-08-03T23:02:55Z</time>
      </trkpt>
      <trkpt lat="23.069007" lon="113.269309">
        <time>2026-08-03T23:03:00Z</time>
      </trkpt>
      <trkpt lat="23.069176" lon="113.269317">
        <time>2026-08-03T23:03:05Z</time>
      </trkpt>
      <trkpt lat="23.069325" lon="113.269377">
        <time>2026-08-03T23:03:10Z</time>
      </trkpt>
      <trkpt lat="23.069424" lon="113.269423">
        <time>2026-08-03T23:03:15Z</time>
      </trkpt>
      <trkpt lat="23.069521" lon="113.269463">
        <time>2026-08-03T23:03:20Z</time>
      </trkpt>
      <trkpt lat="23.06967" lon="113.269524">
        <time>2026-08-03T23:03:25Z</time>
      </trkpt>
      <trkpt lat="23.069818" lon="113.269603">
        <time>2026-08-03T23:03:30Z</time>
      </trkpt>
      <trkpt lat="23.06992" lon="113.269647">
        <time>2026-08-03T23:03:35Z</time>
      </trkpt>
      <trkpt lat="23.070025" lon="113.269685">
        <time>2026-08-03T23:03:40Z</time>
      </trkpt>
      <trkpt lat="23.07016" lon="113.269767">
        <time>2026-08-03T23:03:45Z</time>
      </trkpt>
      <trkpt lat="23.070293" lon="113.269842">
        <time>2026-08-03T23:03:50Z</time>
      </trkpt>
      <trkpt lat="23.070384" lon="113.269882">
        <time>2026-08-03T23:03:55Z</time>
      </trkpt>
      <trkpt lat="23.070474" lon="113.269911">
        <time>2026-08-03T23:04:00Z</time>
      </trkpt>
      <trkpt lat="23.070621" lon="113.269955">
        <time>2026-08-03T23:04:05Z</time>
      </trkpt>
      <trkpt lat="23.070731" lon="113.270038">
        <time>2026-08-03T23:04:10Z</time>
      </trkpt>
      <trkpt lat="23.070807" lon="113.270096">
        <time>2026-08-03T23:04:15Z</time>
      </trkpt>
      <trkpt lat="23.070901" lon="113.270144">
        <time>2026-08-03T23:04:20Z</time>
      </trkpt>
      <trkpt lat="23.071042" lon="113.270216">
        <time>2026-08-03T23:04:25Z</time>
      </trkpt>
      <trkpt lat="23.071164" lon="113.270311">
        <time>2026-08-03T23:04:30Z</time>
      </trkpt>
      <trkpt lat="23.071253" lon="113.270363">
        <time>2026-08-03T23:04:35Z</time>
      </trkpt>
      <trkpt lat="23.071347" lon="113.27039">
        <time>2026-08-03T23:04:40Z</time>
      </trkpt>
      <trkpt lat="23.071482" lon="113.270454">
        <time>2026-08-03T23:04:45Z</time>
      </trkpt>
      <trkpt lat="23.071598" lon="113.270532">
        <time>2026-08-03T23:04:50Z</time>
      </trkpt>
      <trkpt lat="23.071676" lon="113.270582">
        <time>2026-08-03T23:04:55Z</time>
      </trkpt>
      <trkpt lat="23.071763" lon="113.270643">
        <time>2026-08-03T23:05:00Z</time>
      </trkpt>
      <trkpt lat="23.071909" lon="113.270714">
        <time>2026-08-03T23:05:05Z</time>
      </trkpt>
      <trkpt lat="23.072048" lon="113.270774">
        <time>2026-08-03T23:05:10Z</time>
      </trkpt>
      <trkpt lat="23.072137" lon="113.270812">
        <time>2026-08-03T23:05:15Z</time>
      </trkpt>
      <trkpt lat="23.072227" lon="113.270853">
        <time>2026-08-03T23:05:20Z</time>
      </trkpt>
      <trkpt lat="23.072354" lon="113.270913">
        <time>2026-08-03T23:05:25Z</time>
      </trkpt>
      <trkpt lat="23.07248" lon="113.270996">
        <time>2026-08-03T23:05:30Z</time>
      </trkpt>
      <trkpt lat="23.072572" lon="113.271054">
        <time>2026-08-03T23:05:35Z</time>
      </trkpt>
      <trkpt lat="23.072667" lon="113.271097">
        <time>2026-08-03T23:05:40Z</time>
      </trkpt>
      <trkpt lat="23.072823" lon="113.271135">
        <time>2026-08-03T23:05:45Z</time>
      </trkpt>
      <trkpt lat="23.072964" lon="113.271185">
        <time>2026-08-03T23:05:50Z</time>
      </trkpt>
      <trkpt lat="23.073051" lon="113.27122">
        <time>2026-08-03T23:05:55Z</time>
      </trkpt>
      <trkpt lat="23.073158" lon="113.271211">
        <time>2026-08-03T23:06:00Z</time>
      </trkpt>
      <trkpt lat="23.073243" lon="113.271269">
        <time>2026-08-03T23:06:05Z</time>
      </trkpt>
      <trkpt lat="23.073303" lon="113.271357">
        <time>2026-08-03T23:06:10Z</time>
      </trkpt>
      <trkpt lat="23.073384" lon="113.271398">
        <time>2026-08-03T23:06:15Z</time>
      </trkpt>
      <trkpt lat="23.073469" lon="113.271446">
        <time>2026-08-03T23:06:20Z</time>
      </trkpt>
      <trkpt lat="23.073583" lon="113.271537">
        <time>2026-08-03T23:06:25Z</time>
      </trkpt>
      <trkpt lat="23.073709" lon="113.271627">
        <time>2026-08-03T23:06:30Z</time>
      </trkpt>
      <trkpt lat="23.073799" lon="113.271662">
        <time>2026-08-03T23:06:35Z</time>
      </trkpt>
      <trkpt lat="23.073883" lon="113.271689">
        <time>2026-08-03T23:06:40Z</time>
      </trkpt>
      <trkpt lat="23.073995" lon="113.271748">
        <time>2026-08-03T23:06:45Z</time>
      </trkpt>
      <trkpt lat="23.074065" lon="113.271804">
        <time>2026-08-03T23:06:50Z</time>
      </trkpt>
      <trkpt lat="23.074038" lon="113.271874">
        <time>2026-08-03T23:06:55Z</time>
      </trkpt>
      <trkpt lat="23.074003" lon="113.271956">
        <time>2026-08-03T23:07:00Z</time>
      </trkpt>
      <trkpt lat="23.073968" lon="113.27209">
        <time>2026-08-03T23:07:05Z</time>
      </trkpt>
      <trkpt lat="23.073915" lon="113.27222">
        <time>2026-08-03T23:07:10Z</time>
      </trkpt>
      <trkpt lat="23.073857" lon="113.272311">
        <time>2026-08-03T23:07:15Z</time>
      </trkpt>
      <trkpt lat="23.073807" lon="113.27241">
        <time>2026-08-03T23:07:20Z</time>
      </trkpt>
      <trkpt lat="23.073739" lon="113.272557">
        <time>2026-08-03T23:07:25Z</time>
      </trkpt>
      <trkpt lat="23.073691" lon="113.272702">
        <time>2026-08-03T23:07:30Z</time>
      </trkpt>
      <trkpt lat="23.073657" lon="113.272807">
        <time>2026-08-03T23:07:35Z</time>
      </trkpt>
      <trkpt lat="23.073624" lon="113.272903">
        <time>2026-08-03T23:07:40Z</time>
      </trkpt>
      <trkpt lat="23.073565" lon="113.273017">
        <time>2026-08-03T23:07:45Z</time>
      </trkpt>
      <trkpt lat="23.073495" lon="113.273154">
        <time>2026-08-03T23:07:50Z</time>
      </trkpt>
      <trkpt lat="23.073464" lon="113.273218">
        <time>2026-08-03T23:07:55Z</time>
      </trkpt>
      <trkpt lat="23.073507" lon="113.273176">
        <time>2026-08-03T23:08:00Z</time>
      </trkpt>
      <trkpt lat="23.073577" lon="113.273044">
        <time>2026-08-03T23:08:05Z</time>
      </trkpt>
      <trkpt lat="23.073647" lon="113.272916">
        <time>2026-08-03T23:08:10Z</time>
      </trkpt>
      <trkpt lat="23.07369" lon="113.272844">
        <time>2026-08-03T23:08:15Z</time>
      </trkpt>
      <trkpt lat="23.073718" lon="113.272827">
        <time>2026-08-03T23:08:20Z</time>
      </trkpt>
      <trkpt lat="23.073731" lon="113.272874">
        <time>2026-08-03T23:08:25Z</time>
      </trkpt>
      <trkpt lat="23.073818" lon="113.272966">
        <time>2026-08-03T23:08:30Z</time>
      </trkpt>
      <trkpt lat="23.073915" lon="113.273">
        <time>2026-08-03T23:08:35Z</time>
      </trkpt>
      <trkpt lat="23.073992" lon="113.272979">
        <time>2026-08-03T23:08:40Z</time>
      </trkpt>
      <trkpt lat="23.07406" lon="113.272832">
        <time>2026-08-03T23:08:45Z</time>
      </trkpt>
      <trkpt lat="23.074114" lon="113.272683">
        <time>2026-08-03T23:08:50Z</time>
      </trkpt>
      <trkpt lat="23.074154" lon="113.272601">
        <time>2026-08-03T23:08:55Z</time>
      </trkpt>
      <trkpt lat="23.074205" lon="113.272511">
        <time>2026-08-03T23:09:00Z</time>
      </trkpt>
      <trkpt lat="23.074273" lon="113.272355">
        <time>2026-08-03T23:09:05Z</time>
      </trkpt>
      <trkpt lat="23.074341" lon="113.272237">
        <time>2026-08-03T23:09:10Z</time>
      </trkpt>
      <trkpt lat="23.074401" lon="113.272166">
        <time>2026-08-03T23:09:15Z</time>
      </trkpt>
      <trkpt lat="23.074467" lon="113.272091">
        <time>2026-08-03T23:09:20Z</time>
      </trkpt>
      <trkpt lat="23.074565" lon="113.272026">
        <time>2026-08-03T23:09:25Z</time>
      </trkpt>
      <trkpt lat="23.074684" lon="113.272096">
        <time>2026-08-03T23:09:30Z</time>
      </trkpt>
      <trkpt lat="23.074765" lon="113.272157">
        <time>2026-08-03T23:09:35Z</time>
      </trkpt>
      <trkpt lat="23.074843" lon="113.27221">
        <time>2026-08-03T23:09:40Z</time>
      </trkpt>
      <trkpt lat="23.074953" lon="113.272296">
        <time>2026-08-03T23:09:45Z</time>
      </trkpt>
      <trkpt lat="23.075072" lon="113.272397">
        <time>2026-08-03T23:09:50Z</time>
      </trkpt>
      <trkpt lat="23.075167" lon="113.272437">
        <time>2026-08-03T23:09:55Z</time>
      </trkpt>
      <trkpt lat="23.075266" lon="113.272451">
        <time>2026-08-03T23:10:01Z</time>
      </trkpt>
    </trkseg>
  </trk>
</gpx>