<?xml version="1.0" encoding="UTF-8"?>
<gpx xmlns="http://www.topografix.com/GPX/1/1" xmlns:gpxtpx="http://www.garmin.com/xmlschemas/TrackPointExtension/v1" xmlns:xsi="http://www.w3.org/2001/XMLSchema-instance" xsi:schemaLocation="http://www.topografix.com/GPX/1/1 http://www.topografix.com/GPX/1/1/gpx.xsd" version="1.1" creator="gpx.py -- https://github.com/tkrajina/gpxpy">
  <trk>
    <name>gpx from joyrun</name>
    <trkseg>
      <trkpt lat="23.075979" lon="113.272997">
        <time>2026-08-01T23:50:39Z</time>
      </trkpt>
      <trkpt lat="23.076004" lon="113.272961">
        <time>2026-08-01T23:50:44Z</time>
      </trkpt>
      <trkpt lat="23.07606" lon="113.272884">
        <time>2026-08-01T23:50:49Z</time>
      </trkpt>
      <trkpt lat="23.076064" lon="113.272818">
        <time>2026-08-01T23:50:54Z</time>
      </trkpt>
      <trkpt lat="23.075981" lon="113.272729">
        <time>2026-08-01T23:50:59Z</time>
      </trkpt>
      <trkpt lat="23.075867" lon="113.272638">
        <time>2026-08-01T23:51:04Z</time>
      </trkpt>
      <trkpt lat="23.07579" lon="113.272578">
        <time>2026-08-01T23:51:09Z</time>
      </trkpt>
      <trkpt lat="23.075678" lon="113.272567">
        <time>2026-08-01T23:51:14Z</time>
      </trkpt>
      <trkpt lat="23.07552" lon="113.272532">
        <time>2026-08-01T23:51:19Z</time>
      </trkpt>
      <trkpt lat="23.075401" lon="113.272479">
        <time>2026-08-01T23:51:24Z</time>
      </trkpt>
      <trkpt lat="23.075361" lon="113.272416">
        <time>2026-08-01T23:51:29Z</time>
      </trkpt>
      <trkpt lat="23.075366" lon="113.272314">
        <time>2026-08-01T23:51:34Z</time>
      </trkpt>
      <trkpt lat="23.075386" lon="113.272178">
        <time>2026-08-01T23:51:39Z</time>
      </trkpt>
      <trkpt lat="23.075389" lon="113.272167">
        <time>2026-08-01T23:51:44Z</time>
      </trkpt>
      <trkpt lat="23.075471" lon="113.272143">
        <time>2026-08-01T23:51:49Z</time>
      </trkpt>
      <trkpt lat="23.075584" lon="113.272234">
        <time>2026-08-01T23:51:54Z</time>
      </trkpt>
      <trkpt lat="23.075646" lon="113.272297">
        <time>2026-08-01T23:51:59Z</time>
      </trkpt>
      <trkpt lat="23.075709" lon="113.272366">
        <time>2026-08-01T23:52:04Z</time>
      </trkpt>
      <trkpt lat="23.075801" lon="113.272458">
        <time>2026-08-01T23:52:09Z</time>
      </trkpt>
      <trkpt lat="23.075913" lon="113.272514">
        <time>2026-08-01T23:52:14Z</time>
      </trkpt>
      <trkpt lat="23.075983" lon="113.272564">
        <time>2026-08-01T23:52:19Z</time>
      </trkpt>
      <trkpt lat="23.076036" lon="113.272642">
        <time>2026-08-01T23:52:24Z</time>
      </trkpt>
      <trkpt lat="23.076118" lon="113.27271">
        <time>2026-08-01T23:52:29Z</time>
      </trkpt>
      <trkpt lat="23.076197" lon="113.272758">
        <time>2026-08-01T23:52:34Z</time>
      </trkpt>
      <trkpt lat="23.076257" lon="113.272777">
        <time>2026-08-01T23:52:39Z</time>
      </trkpt>
      <trkpt lat="23.076324" lon="113.272814">
        <time>2026-08-01T23:52:44Z</time>
      </trkpt>
      <trkpt lat="23.076428" lon="113.27286">
        <time>2026-08-01T23:52:49Z</time>
      </trkpt>
      <trkpt lat="23.076538" lon="113.272928">
        <time>2026-08-01T23:52:54Z</time>
      </trkpt>
      <trkpt lat="23.076567" lon="113.273024">
        <time>2026-08-01T23:52:59Z</time>
      </trkpt>
      <trkpt lat="23.076589" lon="113.273113">
        <time>2026-08-01T23:53:04Z</time>
      </trkpt>
      <trkpt lat="23.076673" lon="113.27321">
        <time>2026-08-01T23:53:09Z</time>
      </trkpt>
      <trkpt lat="23.076769" lon="113.273296">
        <time>2026-08-01T23:53:14Z</time>
      </trkpt>
      <trkpt lat="23.076816" lon="113.273376">
        <time>2026-08-01T23:53:19Z</time>
      </trkpt>
      <trkpt lat="23.076883" lon="113.273446">
        <time>2026-08-01T23:53:24Z</time>
      </trkpt>
      <trkpt lat="23.076987" lon="113.273537">
        <time>2026-08-01T23:53:29Z</time>
      </trkpt>
      <trkpt lat="23.077092" lon="113.273605">
        <time>2026-08-01T23:53:34Z</time>
      </trkpt>
      <trkpt lat="23.077154" lon="113.273634">
        <time>2026-08-01T23:53:39Z</time>
      </trkpt>
      <trkpt lat="23.077218" lon="113.273662">
        <time>2026-08-01T23:53:44Z</time>
      </trkpt>
      <trkpt lat="23.077338" lon="113.273661">
        <time>2026-08-01T23:53:49Z</time>
      </trkpt>
      <trkpt lat="23.077447" lon="113.273589">
        <time>2026-08-01T23:53:54Z</time>
      </trkpt>
      <trkpt lat="23.077511" lon="113.273522">
        <time>2026-08-01T23:53:59Z</time>
      </trkpt>
      <trkpt lat="23.077573" lon="113.273458">
        <time>2026-08-01T23:54:04Z</time>
      </trkpt>
      <trkpt lat="23.077676" lon="113.273373">
        <time>2026-08-01T23:54:09Z</time>
      </trkpt>
      <trkpt lat="23.077791" lon="113.273312">
        <time>2026-08-01T23:54:14Z</time>
      </trkpt>
      <trkpt lat="23.077852" lon="113.273274">
        <time>2026-08-01T23:54:19Z</time>
      </trkpt>
      <trkpt lat="23.07792" lon="113.273215">
        <time>2026-08-01T23:54:24Z</time>
      </trkpt>
      <trkpt lat="23.078033" lon="113.273127">
        <time>2026-08-01T23:54:29Z</time>
      </trkpt>
      <trkpt lat="23.078141" lon="113.273046">
        <time>2026-08-01T23:54:34Z</time>
      </trkpt>
      <trkpt lat="23.078212" lon="113.273001">
        <time>2026-08-01T23:54:39Z</time>
      </trkpt>
      <trkpt lat="23.078279" lon="113.272953">
        <time>2026-08-01T23:54:44Z</time>
      </trkpt>
      <trkpt lat="23.07838" lon="113.272871">
        <time>2026-08-01T23:54:49Z</time>
      </trkpt>
      <trkpt lat="23.078472" lon="113.272789">
        <time>2026-08-01T23:54:54Z</time>
      </trkpt>
      <trkpt lat="23.078527" lon="113.272729">
        <time>2026-08-01T23:54:59Z</time>
      </trkpt>
      <trkpt lat="23.078589" lon="113.272678">
        <time>2026-08-01T23:55:04Z</time>
      </trkpt>
      <trkpt lat="23.0787" lon="113.272589">
        <time>2026-08-01T23:55:09Z</time>
      </trkpt>
      <trkpt lat="23.078816" lon="113.27251">
        <time>2026-08-01T23:55:14Z</time>
      </trkpt>
      <trkpt lat="23.078883" lon="113.272454">
        <time>2026-08-01T23:55:19Z</time>
      </trkpt>
      <trkpt lat="23.078949" lon="113.272406">
        <time>2026-08-01T23:55:24Z</time>
      </trkpt>
      <trkpt lat="23.079048" lon="113.272331">
        <time>2026-08-01T23:55:29Z</time>
      </trkpt>
      <trkpt lat="23.079151" lon="113.272249">
        <time>2026-08-01T23:55:34Z</time>
      </trkpt>
      <trkpt lat="23.079216" lon="113.272193">
        <time>2026-08-01T23:55:39Z</time>
      </trkpt>
      <trkpt lat="23.079273" lon="113.272131">
        <time>2026-08-01T23:55:44Z</time>
      </trkpt>
      <trkpt lat="23.079357" lon="113.272055">
        <time>2026-08-01T23:55:49Z</time>
      </trkpt>
      <trkpt lat="23.079452" lon="113.272083">
        <time>2026-08-01T23:55:54Z</time>
      </trkpt>
      <trkpt lat="23.079525" lon="113.272131">
        <time>2026-08-01T23:55:59Z</time>
      </trkpt>
      <trkpt lat="23.079599" lon="113.272159">
        <time>2026-08-01T23:56:04Z</time>
      </trkpt>
      <trkpt lat="23.079709" lon="113.272217">
        <time>2026-08-01T23:56:09Z</time>
      </trkpt>
      <trkpt lat="23.079822" lon="113.272284">
        <time>2026-08-01T23:56:14Z</time>
      </trkpt>
      <trkpt lat="23.079896" lon="113.272322">
        <time>2026-08-01T23:56:19Z</time>
      </trkpt>
      <trkpt lat="23.079964" lon="113.272366">
        <time>2026-08-01T23:56:24Z</time>
      </trkpt>
      <trkpt lat="23.080059" lon="113.27243">
        <time>2026-08-01T23:56:29Z</time>
      </trkpt>
      <trkpt lat="23.080199" lon="113.272453">
        <time>2026-08-01T23:56:34Z</time>
      </trkpt>
      <trkpt lat="23.080293" lon="113.27249">
        <time>2026-08-01T23:56:39Z</time>
      </trkpt>
      <trkpt lat="23.080376" lon="113.272537">
        <time>2026-08-01T23:56:44Z</time>
      </trkpt>
      <trkpt lat="23.080481" lon="113.272609">
        <time>2026-08-01T23:56:49Z</time>
      </trkpt>
      <trkpt lat="23.080578" lon="113.272667">
        <time>2026-08-01T23:56:54Z</time>
      </trkpt>
      <trkpt lat="23.080654" lon="113.27268">
        <time>2026-08-01T23:56:59Z</time>
      </trkpt>
      <trkpt lat="23.080746" lon="113.272691">
        <time>2026-08-01T23:57:04Z</time>
      </trkpt>
      <trkpt lat="23.080885" lon="113.272745">
        <time>2026-08-01T23:57:09Z</time>
      </trkpt>
      <trkpt lat="23.081017" lon="113.272809">
        <time>2026-08-01T23:57:14Z</time>
      </trkpt>
      <trkpt lat="23.081107" lon="113.272854">
        <time>2026-08-01T23:57:19Z</time>
      </trkpt>
      <trkpt lat="23.081203" lon="113.272896">
        <time>2026-08-01T23:57:24Z</time>
      </trkpt>
      <trkpt lat="23.081388" lon="113.272906">
        <time>2026-08-01T23:57:29Z</time>
      </trkpt>
      <trkpt lat="23.081522" lon="113.2729">
        <time>2026-08-01T23:57:34Z</time>
      </trkpt>
      <trkpt lat="23.081492" lon="113.273014">
        <time>2026-08-01T23:57:39Z</time>
      </trkpt>
      <trkpt lat="23.081407" lon="113.273113">
        <time>2026-08-01T23:57:44Z</time>
      </trkpt>
      <trkpt lat="23.08124" lon="113.273084">
        <time>2026-08-01T23:57:49Z</time>
      </trkpt>
      <trkpt lat="23.081109" lon="113.27302">
        <time>2026-08-01T23:57:54Z</time>
      </trkpt>
      <trkpt lat="23.081038" lon="113.272986">
        <time>2026-08-01T23:57:59Z</time>
      </trkpt>
      <trkpt lat="23.080968" lon="113.272946">
        <time>2026-08-01T23:58:04Z</time>
      </trkpt>
      <trkpt lat="23.080862" lon="113.272988">
        <time>2026-08-01T23:58:09Z</time>
      </trkpt>
      <trkpt lat="23.080738" lon="113.273131">
        <time>2026-08-01T23:58:14Z</time>
      </trkpt>
      <trkpt lat="23.080662" lon="113.273216">
        <time>2026-08-01T23:58:19Z</time>
      </trkpt>
      <trkpt lat="23.080605" lon="113.273297">
        <time>2026-08-01T23:58:24Z</time>
      </trkpt>
      <trkpt lat="23.080559" lon="113.273444">
        <time>2026-08-01T23:58:29Z</time>
      </trkpt>
      <trkpt lat="23.080575" lon="113.273606">
        <time>2026-08-01T23:58:34Z</time>
      </trkpt>
      <trkpt lat="23.080617" lon="113.273704">
        <time>2026-08-01T23:58:39Z</time>
      </trkpt>
      <trkpt lat="23.080671" lon="113.273785">
        <time>2026-08-01T23:58:44Z</time>
      </trkpt>
      <trkpt lat="23.080779" lon="113.27387">
        <time>2026-08-01T23:58:49Z</time>
      </trkpt>
      <trkpt lat="23.080915" lon="113.273923">
        <time>2026-08-01T23:58:54Z</time>
      </trkpt>
      <trkpt lat="23.080999" lon="113.273958">
        <time>2026-08-01T23:58:59Z</time>
      </trkpt>
      <trkpt lat="23.081083" lon="113.273988">
        <time>2026-08-01T23:59:04Z</time>
      </trkpt>
      <trkpt lat="23.081205" lon="113.274031">
        <time>2026-08-01T23:59:09Z</time>
      </trkpt>
      <trkpt lat="23.081327" lon="113.274072">
        <time>2026-08-01T23:59:14Z</time>
      </trkpt>
      <trkpt lat="23.08141" lon="113.274101">
        <time>2026-08-01T23:59:19Z</time>
      </trkpt>
      <trkpt lat="23.081495" lon="113.274128">
        <time>2026-08-01T23:59:24Z</time>
      </trkpt>
      <trkpt lat="23.081624" lon="113.274167">
        <time>2026-08-01T23:59:29Z</time>
      </trkpt>
      <trkpt lat="23.081753" lon="113.274176">
        <time>2026-08-01T23:59:34Z</time>
      </trkpt>
      <trkpt lat="23.081835" lon="113.274156">
        <time>2026-08-01T23:59:39Z</time>
      </trkpt>
      <trkpt lat="23.081908" lon="113.274121">
        <time>2026-08-01T23:59:44Z</time>
      </trkpt>
      <trkpt lat="23.081994" lon="113.274025">
        <time>2026-08-01T23:59:49Z</time>
      </trkpt>
      <trkpt lat="23.082062" lon="113.273893">
        <time>2026-08-01T23:59:54Z</time>
      </trkpt>
      <trkpt lat="23.082089" lon="113.273794">
        <time>2026-08-01T23:59:59Z</time>
      </trkpt>
      <trkpt lat="23.082099" lon="113.273696">
        <time>2026-08-02T00:00:04Z</time>
      </trkpt>
      <trkpt lat="23.082094" lon="113.273559">
        <time>2026-08-02T00:00:09Z</time>
      </trkpt>
      <trkpt lat="23.082036" lon="113.273435">
        <time>2026-08-02T00:00:14Z</time>
      </trkpt>
      <trkpt lat="23.081964" lon="113.273391">
        <time>2026-08-02T00:00:19Z</time>
      </trkpt>
      <trkpt lat="23.081887" lon="113.273356">
        <time>2026-08-02T00:00:24Z</time>
      </trkpt>
      <trkpt lat="23.08177" lon="113.273307">
        <time>2026-08-02T00:00:29Z</time>
      </trkpt>
      <trkpt lat="23.081652" lon="113.273262">
        <time>2026-08-02T00:00:34Z</time>
      </trkpt>
      <trkpt lat="23.081572" lon="113.273217">
        <time>2026-08-02T00:00:39Z</time>
      </trkpt>
      <trkpt lat="23.081491" lon="113.273179">
        <time>2026-08-02T00:00:44Z</time>
      </trkpt>
      <trkpt lat="23.081372" lon="113.273138">
        <time>2026-08-02T00:00:49Z</time>
      </trkpt>
      <trkpt lat="23.08125" lon="113.273096">
        <time>2026-08-02T00:00:54Z</time>
      </trkpt>
      <trkpt lat="23.081175" lon="113.273056">
        <time>2026-08-02T00:00:59Z</time>
      </trkpt>
      <trkpt lat="23.081097" lon="113.273015">
        <time>2026-08-02T00:01:04Z</time>
      </trkpt>
      <trkpt lat="23.080979" lon="113.272956">
        <time>2026-08-02T00:01:09Z</time>
      </trkpt>
      <trkpt lat="23.080835" lon="113.273026">
        <time>2026-08-02T00:01:14Z</time>
      </trkpt>
      <trkpt lat="23.080748" lon="113.273121">
        <time>2026-08-02T00:01:19Z</time>
      </trkpt>
      <trkpt lat="23.080668" lon="113.273205">
        <time>2026-08-02T00:01:24Z</time>
      </trkpt>
      <trkpt lat="23.080588" lon="113.273337">
        <time>2026-08-02T00:01:29Z</time>
      </trkpt>
      <trkpt lat="23.080547" lon="113.273495">
        <time>2026-08-02T00:01:34Z</time>
      </trkpt>
      <trkpt lat="23.080564" lon="113.273592">
        <time>2026-08-02T00:01:39Z</time>
      </trkpt>
      <trkpt lat="23.080605" lon="113.273684">
        <time>2026-08-02T00:01:44Z</time>
      </trkpt>
      <trkpt lat="23.080686" lon="113.273802">
        <time>2026-08-02T00:01:49Z</time>
      </trkpt>
      <trkpt lat="23.080793" lon="113.273877">
        <time>2026-08-02T00:01:54Z</time>
      </trkpt>
      <trkpt lat="23.080881" lon="113.273913">
        <time>2026-08-02T00:01:59Z</time>
      </trkpt>
      <trkpt lat="23.08097" lon="113.273946">
        <time>2026-08-02T00:02:04Z</time>
      </trkpt>
      <trkpt lat="23.081098" lon="113.27399">
        <time>2026-08-02T00:02:09Z</time>
      </trkpt>
      <trkpt lat="23.081228" lon="113.274034">
        <time>2026-08-02T00:02:14Z</time>
      </trkpt>
      <trkpt lat="23.08131" lon="113.274063">
        <time>2026-08-02T00:02:19Z</time>
      </trkpt>
      <trkpt lat="23.081389" lon="113.274094">
        <time>2026-08-02T00:02:24Z</time>
      </trkpt>
      <trkpt lat="23.081509" lon="113.274139">
        <time>2026-08-02T00:02:29Z</time>
      </trkpt>
      <trkpt lat="23.08164" lon="113.274168">
        <time>2026-08-02T00:02:34Z</time>
      </trkpt>
      <trkpt lat="23.081723" lon="113.274175">
        <time>2026-08-02T00:02:39Z</time>
      </trkpt>
      <trkpt lat="23.081807" lon="113.274166">
        <time>2026-08-02T00:02:44Z</time>
      </trkpt>
      <trkpt lat="23.08192" lon="113.274112">
        <time>2026-08-02T00:02:49Z</time>
      </trkpt>
      <trkpt lat="23.082005" lon="113.27401">
        <time>2026-08-02T00:02:54Z</time>
      </trkpt>
      <trkpt lat="23.082052" lon="113.273919">
        <time>2026-08-02T00:02:59Z</time>
      </trkpt>
      <trkpt lat="23.082082" lon="113.273821">
        <time>2026-08-02T00:03:04Z</time>
      </trkpt>
      <trkpt lat="23.082101" lon="113.273678">
        <time>2026-08-02T00:03:09Z</time>
      </trkpt>
      <trkpt lat="23.082089" lon="113.273547">
        <time>2026-08-02T00:03:14Z</time>
      </trkpt>
      <trkpt lat="23.082062" lon="113.273472">
        <time>2026-08-02T00:03:19Z</time>
      </trkpt>
      <trkpt lat="23.082001" lon="113.27341">
        <time>2026-08-02T00:03:24Z</time>
      </trkpt>
      <trkpt lat="23.081884" lon="113.273357">
        <time>2026-08-02T00:03:29Z</time>
      </trkpt>
      <trkpt lat="23.081759" lon="113.273308">
        <time>2026-08-02T00:03:34Z</time>
      </trkpt>
      <trkpt lat="23.081678" lon="113.273266">
        <time>2026-08-02T00:03:39Z</time>
      </trkpt>
      <trkpt lat="23.081603" lon="113.273229">
        <time>2026-08-02T00:03:44Z</time>
      </trkpt>
      <trkpt lat="23.081484" lon="113.273181">
        <time>2026-08-02T00:03:49Z</time>
      </trkpt>
      <trkpt lat="23.081364" lon="113.27313">
        <time>2026-08-02T00:03:54Z</time>
      </trkpt>
      <trkpt lat="23.081285" lon="113.273096">
        <time>2026-08-02T00:03:59Z</time>
      </trkpt>
      <trkpt lat="23.081195" lon="113.273087">
        <time>2026-08-02T00:04:04Z</time>
      </trkpt>
      <trkpt lat="23.081057" lon="113.273077">
        <time>2026-08-02T00:04:09Z</time>
      </trkpt>
      <trkpt lat="23.080909" lon="113.273093">
        <time>2026-08-02T00:04:14Z</time>
      </trkpt>
      <trkpt lat="23.080799" lon="113.273105">
        <time>2026-08-02T00:04:19Z</time>
      </trkpt>
      <trkpt lat="23.080711" lon="113.273153">
        <time>2026-08-02T00:04:24Z</time>
      </trkpt>
      <trkpt lat="23.080628" lon="113.273262">
        <time>2026-08-02T00:04:29Z</time>
      </trkpt>
      <trkpt lat="23.080568" lon="113.273394">
        <time>2026-08-02T00:04:34Z</time>
      </trkpt>
      <trkpt lat="23.08055" lon="113.273489">
        <time>2026-08-02T00:04:39Z</time>
      </trkpt>
      <trkpt lat="23.080568" lon="113.27359">
        <time>2026-08-02T00:04:44Z</time>
      </trkpt>
      <trkpt lat="23.080642" lon="113.273745">
        <time>2026-08-02T00:04:49Z</time>
      </trkpt>
      <trkpt lat="23.080756" lon="113.273856">
        <time>2026-08-02T00:04:54Z</time>
      </trkpt>
      <trkpt lat="23.080849" lon="113.273899">
        <time>2026-08-02T00:04:59Z</time>
      </trkpt>
      <trkpt lat="23.080941" lon="113.273936">
        <time>2026-08-02T00:05:04Z</time>
      </trkpt>
      <trkpt lat="23.08108" lon="113.273985">
        <time>2026-08-02T00:05:09Z</time>
      </trkpt>
      <trkpt lat="23.081207" lon="113.274029">
        <time>2026-08-02T00:05:14Z</time>
      </trkpt>
      <trkpt lat="23.081293" lon="113.274056">
        <time>2026-08-02T00:05:19Z</time>
      </trkpt>
      <trkpt lat="23.08139" lon="113.27409">
        <time>2026-08-02T00:05:24Z</time>
      </trkpt>
      <trkpt lat="23.081509" lon="113.274139">
        <time>2026-08-02T00:05:29Z</time>
      </trkpt>
      <trkpt lat="23.081632" lon="113.274166">
        <time>2026-08-02T00:05:34Z</time>
      </trkpt>
      <trkpt lat="23.081718" lon="113.274175">
        <time>2026-08-02T00:05:39Z</time>
      </trkpt>
      <trkpt lat="23.081808" lon="113.274164">
        <time>2026-08-02T00:05:44Z</time>
      </trkpt>
      <trkpt lat="23.081914" lon="113.274113">
        <time>2026-08-02T00:05:49Z</time>
      </trkpt>
      <trkpt lat="23.082001" lon="113.274018">
        <time>2026-08-02T00:05:54Z</time>
      </trkpt>
      <trkpt lat="23.08205" lon="113.273922">
        <time>2026-08-02T00:05:59Z</time>
      </trkpt>
      <trkpt lat="23.082082" lon="113.27382">
        <time>2026-08-02T00:06:04Z</time>
      </trkpt>
      <trkpt lat="23.082099" lon="113.273663">
        <time>2026-08-02T00:06:09Z</time>
      </trkpt>
      <trkpt lat="23.082083" lon="113.273522">
        <time>2026-08-02T00:06:14Z</time>
      </trkpt>
      <trkpt lat="23.082044" lon="113.273444">
        <time>2026-08-02T00:06:19Z</time>
      </trkpt>
      <trkpt lat="23.081977" lon="113.273397">
        <time>2026-08-02T00:06:24Z</time>
      </trkpt>
      <trkpt lat="23.081868" lon="113.273353">
        <time>2026-08-02T00:06:29Z</time>
      </trkpt>
      <trkpt lat="23.081755" lon="113.273308">
        <time>2026-08-02T00:06:34Z</time>
      </trkpt>
      <trkpt lat="23.08168" lon="113.273274">
        <time>2026-08-02T00:06:39Z</time>
      </trkpt>
      <trkpt lat="23.081607" lon="113.273239">
        <time>2026-08-02T00:06:44Z</time>
      </trkpt>
      <trkpt lat="23.081497" lon="113.273181">
        <time>2026-08-02T00:06:49Z</time>
      </trkpt>
      <trkpt lat="23.08137" lon="113.273143">
        <time>2026-08-02T00:06:54Z</time>
      </trkpt>
      <trkpt lat="23.081297" lon="113.273113">
        <time>2026-08-02T00:06:59Z</time>
      </trkpt>
      <trkpt lat="23.081225" lon="113.273081">
        <time>2026-08-02T00:07:04Z</time>
      </trkpt>
      <trkpt lat="23.081108" lon="113.273033">
        <time>2026-08-02T00:07:09Z</time>
      </trkpt>
      <trkpt lat="23.080916" lon="113.272996">
        <time>2026-08-02T00:07:14Z</time>
      </trkpt>
      <trkpt lat="23.080797" lon="113.273053">
        <time>2026-08-02T00:07:19Z</time>
      </trkpt>
      <trkpt lat="23.080736" lon="113.273133">
        <time>2026-08-02T00:07:24Z</time>
      </trkpt>
      <trkpt lat="23.080636" lon="113.273246">
        <time>2026-08-02T00:07:29Z</time>
      </trkpt>
      <trkpt lat="23.080566" lon="113.273387">
        <time>2026-08-02T00:07:34Z</time>
      </trkpt>
      <trkpt lat="23.080563" lon="113.273497">
        <time>2026-08-02T00:07:39Z</time>
      </trkpt>
      <trkpt lat="23.080571" lon="113.273599">
        <time>2026-08-02T00:07:44Z</time>
      </trkpt>
      <trkpt lat="23.080643" lon="113.273749">
        <time>2026-08-02T00:07:49Z</time>
      </trkpt>
      <trkpt lat="23.080752" lon="113.273854">
        <time>2026-08-02T00:07:54Z</time>
      </trkpt>
      <trkpt lat="23.080832" lon="113.273893">
        <time>2026-08-02T00:07:59Z</time>
      </trkpt>
      <trkpt lat="23.080917" lon="113.273923">
        <time>2026-08-02T00:08:04Z</time>
      </trkpt>
      <trkpt lat="23.081042" lon="113.273971">
        <time>2026-08-02T00:08:09Z</time>
      </trkpt>
      <trkpt lat="23.081172" lon="113.274018">
        <time>2026-08-02T00:08:14Z</time>
      </trkpt>
      <trkpt lat="23.081257" lon="113.274047">
        <time>2026-08-02T00:08:19Z</time>
      </trkpt>
      <trkpt lat="23.08134" lon="113.274078">
        <time>2026-08-02T00:08:24Z</time>
      </trkpt>
      <trkpt lat="23.081467" lon="113.274121">
        <time>2026-08-02T00:08:29Z</time>
      </trkpt>
      <trkpt lat="23.081591" lon="113.274159">
        <time>2026-08-02T00:08:34Z</time>
      </trkpt>
      <trkpt lat="23.081675" lon="113.27417">
        <time>2026-08-02T00:08:39Z</time>
      </trkpt>
      <trkpt lat="23.081763" lon="113.274172">
        <time>2026-08-02T00:08:44Z</time>
      </trkpt>
      <trkpt lat="23.081883" lon="113.274134">
        <time>2026-08-02T00:08:49Z</time>
      </trkpt>
      <trkpt lat="23.081976" lon="113.27405">
        <time>2026-08-02T00:08:54Z</time>
      </trkpt>
      <trkpt lat="23.082029" lon="113.273968">
        <time>2026-08-02T00:08:59Z</time>
      </trkpt>
      <trkpt lat="23.082068" lon="113.273871">
        <time>2026-08-02T00:09:04Z</time>
      </trkpt>
      <trkpt lat="23.082099" lon="113.273722">
        <time>2026-08-02T00:09:09Z</time>
      </trkpt>
      <trkpt lat="23.082093" lon="113.273582">
        <time>2026-08-02T00:09:14Z</time>
      </trkpt>
      <trkpt lat="23.082081" lon="113.273498">
        <time>2026-08-02T00:09:19Z</time>
      </trkpt>
      <trkpt lat="23.082031" lon="113.273428">
        <time>2026-08-02T00:09:24Z</time>
      </trkpt>
      <trkpt lat="23.081916" lon="113.273373">
        <time>2026-08-02T00:09:29Z</time>
      </trkpt>
      <trkpt lat="23.081798" lon="113.273322">
        <time>2026-08-02T00:09:34Z</time>
      </trkpt>
      <trkpt lat="23.08172" lon="113.273291">
        <time>2026-08-02T00:09:39Z</time>
      </trkpt>
      <trkpt lat="23.081642" lon="113.273255">
        <time>2026-08-02T00:09:44Z</time>
      </trkpt>
      <trkpt lat="23.081524" lon="113.273194">
        <time>2026-08-02T00:09:49Z</time>
      </trkpt>
      <trkpt lat="23.081402" lon="113.273142">
        <time>2026-08-02T00:09:54Z</time>
      </trkpt>
      <trkpt lat="23.081318" lon="113.273118">
        <time>2026-08-02T00:09:59Z</time>
      </trkpt>
      <trkpt lat="23.081241" lon="113.273083">
        <time>2026-08-02T00:10:04Z</time>
      </trkpt>
      <trkpt lat="23.081122" lon="113.273027">
        <time>2026-08-02T00:10:09Z</time>
      </trkpt>
      <trkpt lat="23.080988" lon="113.272962">
        <time>2026-08-02T00:10:14Z</time>
      </trkpt>
      <trkpt lat="23.080855" lon="113.273012">
        <time>2026-08-02T00:10:19Z</time>
      </trkpt>
      <trkpt lat="23.080761" lon="113.27311">
        <time>2026-08-02T00:10:24Z</time>
      </trkpt>
      <trkpt lat="23.080645" lon="113.273239">
        <time>2026-08-02T00:10:29Z</time>
      </trkpt>
      <trkpt lat="23.080574" lon="113.273372">
        <time>2026-08-02T00:10:34Z</time>
      </trkpt>
      <trkpt lat="23.080553" lon="113.273477">
        <time>2026-08-02T00:10:39Z</time>
      </trkpt>
      <trkpt lat="23.08057" lon="113.273597">
        <time>2026-08-02T00:10:44Z</time>
      </trkpt>
      <trkpt lat="23.080635" lon="113.273735">
        <time>2026-08-02T00:10:49Z</time>
      </trkpt>
      <trkpt lat="23.080731" lon="113.273838">
        <time>2026-08-02T00:10:54Z</time>
      </trkpt>
      <trkpt lat="23.080819" lon="113.273888">
        <time>2026-08-02T00:10:59Z</time>
      </trkpt>
      <trkpt lat="23.080917" lon="113.273926">
        <time>2026-08-02T00:11:04Z</time>
      </trkpt>
      <trkpt lat="23.081058" lon="113.273976">
        <time>2026-08-02T00:11:09Z</time>
      </trkpt>
      <trkpt lat="23.081191" lon="113.274025">
        <time>2026-08-02T00:11:14Z</time>
      </trkpt>
      <trkpt lat="23.08128" lon="113.274057">
        <time>2026-08-02T00:11:19Z</time>
      </trkpt>
      <trkpt lat="23.081366" lon="113.274085">
        <time>2026-08-02T00:11:24Z</time>
      </trkpt>
      <trkpt lat="23.081493" lon="113.274127">
        <time>2026-08-02T00:11:29Z</time>
      </trkpt>
      <trkpt lat="23.081619" lon="113.274165">
        <time>2026-08-02T00:11:34Z</time>
      </trkpt>
      <trkpt lat="23.081711" lon="113.274173">
        <time>2026-08-02T00:11:39Z</time>
      </trkpt>
      <trkpt lat="23.081804" lon="113.274166">
        <time>2026-08-02T00:11:44Z</time>
      </trkpt>
      <trkpt lat="23.081934" lon="113.274099">
        <time>2026-08-02T00:11:49Z</time>
      </trkpt>
      <trkpt lat="23.08203" lon="113.273964">
        <time>2026-08-02T00:11:54Z</time>
      </trkpt>
      <trkpt lat="23.082074" lon="113.273857">
        <time>2026-08-02T00:11:59Z</time>
      </trkpt>
      <trkpt lat="23.082094" lon="113.273753">
        <time>2026-08-02T00:12:04Z</time>
      </trkpt>
      <trkpt lat="23.082097" lon="113.273601">
        <time>2026-08-02T00:12:09Z</time>
      </trkpt>
      <trkpt lat="23.082067" lon="113.273477">
        <time>2026-08-02T00:12:14Z</time>
      </trkpt>
      <trkpt lat="23.082007" lon="113.273413">
        <time>2026-08-02T00:12:19Z</time>
      </trkpt>
      <trkpt lat="23.081928" lon="113.273381">
        <time>2026-08-02T00:12:24Z</time>
      </trkpt>
      <trkpt lat="23.081809" lon="113.273324">
        <time>2026-08-02T00:12:29Z</time>
      </trkpt>
      <trkpt lat="23.08168" lon="113.273271">
        <time>2026-08-02T00:12:34Z</time>
      </trkpt>
      <trkpt lat="23.08159" lon="113.273231">
        <time>2026-08-02T00:12:39Z</time>
      </trkpt>
      <trkpt lat="23.081504" lon="113.273187">
        <time>2026-08-02T00:12:44Z</time>
      </trkpt>
      <trkpt lat="23.081366" lon="113.273135">
        <time>2026-08-02T00:12:49Z</time>
      </trkpt>
      <trkpt lat="23.081234" lon="113.273078">
        <time>2026-08-02T00:12:54Z</time>
      </trkpt>
      <trkpt lat="23.081151" lon="113.273042">
        <time>2026-08-02T00:12:59Z</time>
      </trkpt>
      <trkpt lat="23.081064" lon="113.272999">
        <time>2026-08-02T00:13:04Z</time>
      </trkpt>
      <trkpt lat="23.080938" lon="113.272941">
        <time>2026-08-02T00:13:09Z</time>
      </trkpt>
      <trkpt lat="23.080773" lon="113.2731">
        <time>2026-08-02T00:13:14Z</time>
      </trkpt>
      <trkpt lat="23.080687" lon="113.273189">
        <time>2026-08-02T00:13:19Z</time>
      </trkpt>
      <trkpt lat="23.080623" lon="113.273269">
        <time>2026-08-02T00:13:24Z</time>
      </trkpt>
      <trkpt lat="23.080567" lon="113.273394">
        <time>2026-08-02T00:13:29Z</time>
      </trkpt>
      <trkpt lat="23.080559" lon="113.273557">
        <time>2026-08-02T00:13:34Z</time>
      </trkpt>
      <trkpt lat="23.080598" lon="113.273664">
        <time>2026-08-02T00:13:39Z</time>
      </trkpt>
      <trkpt lat="23.080649" lon="113.273756">
        <time>2026-08-02T00:13:44Z</time>
      </trkpt>
      <trkpt lat="23.080749" lon="113.273849">
        <time>2026-08-02T00:13:49Z</time>
      </trkpt>
      <trkpt lat="23.080879" lon="113.27391">
        <time>2026-08-02T00:13:54Z</time>
      </trkpt>
      <trkpt lat="23.080976" lon="113.273949">
        <time>2026-08-02T00:13:59Z</time>
      </trkpt>
      <trkpt lat="23.081076" lon="113.273985">
        <time>2026-08-02T00:14:04Z</time>
      </trkpt>
      <trkpt lat="23.081218" lon="113.274031">
        <time>2026-08-02T00:14:09Z</time>
      </trkpt>
      <trkpt lat="23.08134" lon="113.274076">
        <time>2026-08-02T00:14:14Z</time>
      </trkpt>
      <trkpt lat="23.081418" lon="113.274106">
        <time>2026-08-02T00:14:19Z</time>
      </trkpt>
      <trkpt lat="23.081501" lon="113.274132">
        <time>2026-08-02T00:14:24Z</time>
      </trkpt>
      <trkpt lat="23.081631" lon="113.274165">
        <time>2026-08-02T00:14:29Z</time>
      </trkpt>
      <trkpt lat="23.081766" lon="113.274171">
        <time>2026-08-02T00:14:34Z</time>
      </trkpt>
      <trkpt lat="23.081853" lon="113.274149">
        <time>2026-08-02T00:14:39Z</time>
      </trkpt>
      <trkpt lat="23.081929" lon="113.274101">
        <time>2026-08-02T00:14:44Z</time>
      </trkpt>
      <trkpt lat="23.08202" lon="113.273982">
        <time>2026-08-02T00:14:49Z</time>
      </trkpt>
      <trkpt lat="23.082079" lon="113.273832">
        <time>2026-08-02T00:14:54Z</time>
      </trkpt>
      <trkpt lat="23.082095" lon="113.273729">
        <time>2026-08-02T00:14:59Z</time>
      </trkpt>
      <trkpt lat="23.0821" lon="113.273628">
        <time>2026-08-02T00:15:04Z</time>
      </trkpt>
      <trkpt lat="23.082073" lon="113.273491">
        <time>2026-08-02T00:15:09Z</time>
      </trkpt>
      <trkpt lat="23.08198" lon="113.273398">
        <time>2026-08-02T00:15:14Z</time>
      </trkpt>
      <trkpt lat="23.081898" lon="113.273369">
        <time>2026-08-02T00:15:19Z</time>
      </trkpt>
      <trkpt lat="23.081818" lon="113.273332">
        <time>2026-08-02T00:15:24Z</time>
      </trkpt>
      <trkpt lat="23.081688" lon="113.273273">
        <time>2026-08-02T00:15:29Z</time>
      </trkpt>
      <trkpt lat="23.081562" lon="113.273212">
        <time>2026-08-02T00:15:34Z</time>
      </trkpt>
      <trkpt lat="23.081476" lon="113.27317">
        <time>2026-08-02T00:15:39Z</time>
      </trkpt>
      <trkpt lat="23.081392" lon="113.273144">
        <time>2026-08-02T00:15:44Z</time>
      </trkpt>
      <trkpt lat="23.081268" lon="113.273098">
        <time>2026-08-02T00:15:49Z</time>
      </trkpt>
      <trkpt lat="23.081137" lon="113.273039">
        <time>2026-08-02T00:15:54Z</time>
      </trkpt>
      <trkpt lat="23.081048" lon="113.272991">
        <time>2026-08-02T00:15:59Z</time>
      </trkpt>
      <trkpt lat="23.080916" lon="113.272947">
        <time>2026-08-02T00:16:04Z</time>
      </trkpt>
      <trkpt lat="23.080775" lon="113.273094">
        <time>2026-08-02T00:16:09Z</time>
      </trkpt>
      <trkpt lat="23.080661" lon="113.273216">
        <time>2026-08-02T00:16:14Z</time>
      </trkpt>
      <trkpt lat="23.080606" lon="113.273294">
        <time>2026-08-02T00:16:19Z</time>
      </trkpt>
      <trkpt lat="23.080572" lon="113.273382">
        <time>2026-08-02T00:16:24Z</time>
      </trkpt>
      <trkpt lat="23.080563" lon="113.273563">
        <time>2026-08-02T00:16:29Z</time>
      </trkpt>
      <trkpt lat="23.080623" lon="113.273711">
        <time>2026-08-02T00:16:34Z</time>
      </trkpt>
      <trkpt lat="23.080676" lon="113.273788">
        <time>2026-08-02T00:16:39Z</time>
      </trkpt>
      <trkpt lat="23.08075" lon="113.27385">
        <time>2026-08-02T00:16:44Z</time>
      </trkpt>
      <trkpt lat="23.080884" lon="113.273914">
        <time>2026-08-02T00:16:49Z</time>
      </trkpt>
      <trkpt lat="23.081026" lon="113.273967">
        <time>2026-08-02T00:16:54Z</time>
      </trkpt>
      <trkpt lat="23.08112" lon="113.274">
        <time>2026-08-02T00:16:59Z</time>
      </trkpt>
      <trkpt lat="23.081212" lon="113.27403">
        <time>2026-08-02T00:17:04Z</time>
      </trkpt>
      <trkpt lat="23.081337" lon="113.274072">
        <time>2026-08-02T00:17:09Z</time>
      </trkpt>
      <trkpt lat="23.081456" lon="113.274118">
        <time>2026-08-02T00:17:14Z</time>
      </trkpt>
      <trkpt lat="23.081538" lon="113.274145">
        <time>2026-08-02T00:17:19Z</time>
      </trkpt>
      <trkpt lat="23.081624" lon="113.274164">
        <time>2026-08-02T00:17:24Z</time>
      </trkpt>
      <trkpt lat="23.081759" lon="113.274171">
        <time>2026-08-02T00:17:29Z</time>
      </trkpt>
      <trkpt lat="23.081881" lon="113.274135">
        <time>2026-08-02T00:17:34Z</time>
      </trkpt>
      <trkpt lat="23.081945" lon="113.274087">
        <time>2026-08-02T00:17:39Z</time>
      </trkpt>
      <trkpt lat="23.081999" lon="113.274017">
        <time>2026-08-02T00:17:44Z</time>
      </trkpt>
      <trkpt lat="23.082067" lon="113.273873">
        <time>2026-08-02T00:17:49Z</time>
      </trkpt>
      <trkpt lat="23.082097" lon="113.273718">
        <time>2026-08-02T00:17:54Z</time>
      </trkpt>
      <trkpt lat="23.082099" lon="113.273622">
        <time>2026-08-02T00:17:59Z</time>
      </trkpt>
      <trkpt lat="23.082087" lon="113.273535">
        <time>2026-08-02T00:18:04Z</time>
      </trkpt>
      <trkpt lat="23.082025" lon="113.273425">
        <time>2026-08-02T00:18:09Z</time>
      </trkpt>
      <trkpt lat="23.081912" lon="113.27337">
        <time>2026-08-02T00:18:14Z</time>
      </trkpt>
      <trkpt lat="23.081832" lon="113.273335">
        <time>2026-08-02T00:18:19Z</time>
      </trkpt>
      <trkpt lat="23.08175" lon="113.2733">
        <time>2026-08-02T00:18:24Z</time>
      </trkpt>
      <trkpt lat="23.081624" lon="113.273243">
        <time>2026-08-02T00:18:29Z</time>
      </trkpt>
      <trkpt lat="23.081498" lon="113.27318">
        <time>2026-08-02T00:18:34Z</time>
      </trkpt>
      <trkpt lat="23.08141" lon="113.273148">
        <time>2026-08-02T00:18:39Z</time>
      </trkpt>
      <trkpt lat="23.081321" lon="113.273121">
        <time>2026-08-02T00:18:44Z</time>
      </trkpt>
      <trkpt lat="23.081192" lon="113.273061">
        <time>2026-08-02T00:18:49Z</time>
      </trkpt>
      <trkpt lat="23.081071" lon="113.273">
        <time>2026-08-02T00:18:54Z</time>
      </trkpt>
      <trkpt lat="23.080996" lon="113.272963">
        <time>2026-08-02T00:18:59Z</time>
      </trkpt>
      <trkpt lat="23.08092" lon="113.272942">
        <time>2026-08-02T00:19:04Z</time>
      </trkpt>
      <trkpt lat="23.080783" lon="113.273088">
        <time>2026-08-02T00:19:09Z</time>
      </trkpt>
      <trkpt lat="23.080657" lon="113.27322">
        <time>2026-08-02T00:19:14Z</time>
      </trkpt>
      <trkpt lat="23.080604" lon="113.273303">
        <time>2026-08-02T00:19:19Z</time>
      </trkpt>
      <trkpt lat="23.080568" lon="113.273395">
        <time>2026-08-02T00:19:24Z</time>
      </trkpt>
      <trkpt lat="23.080561" lon="113.273557">
        <time>2026-08-02T00:19:29Z</time>
      </trkpt>
      <trkpt lat="23.080614" lon="113.273698">
        <time>2026-08-02T00:19:34Z</time>
      </trkpt>
      <trkpt lat="23.080673" lon="113.273783">
        <time>2026-08-02T00:19:39Z</time>
      </trkpt>
      <trkpt lat="23.080753" lon="113.273852">
        <time>2026-08-02T00:19:44Z</time>
      </trkpt>
      <trkpt lat="23.080895" lon="113.273917">
        <time>2026-08-02T00:19:49Z</time>
      </trkpt>
      <trkpt lat="23.08104" lon="113.273971">
        <time>2026-08-02T00:19:54Z</time>
      </trkpt>
      <trkpt lat="23.081129" lon="113.274002">
        <time>2026-08-02T00:19:59Z</time>
      </trkpt>
      <trkpt lat="23.081212" lon="113.274031">
        <time>2026-08-02T00:20:04Z</time>
      </trkpt>
      <trkpt lat="23.081335" lon="113.274071">
        <time>2026-08-02T00:20:09Z</time>
      </trkpt>
      <trkpt lat="23.081462" lon="113.274121">
        <time>2026-08-02T00:20:14Z</time>
      </trkpt>
      <trkpt lat="23.081548" lon="113.274146">
        <time>2026-08-02T00:20:19Z</time>
      </trkpt>
      <trkpt lat="23.081635" lon="113.274166">
        <time>2026-08-02T00:20:24Z</time>
      </trkpt>
      <trkpt lat="23.081772" lon="113.274168">
        <time>2026-08-02T00:20:29Z</time>
      </trkpt>
      <trkpt lat="23.081899" lon="113.274124">
        <time>2026-08-02T00:20:34Z</time>
      </trkpt>
      <trkpt lat="23.081967" lon="113.274062">
        <time>2026-08-02T00:20:39Z</time>
      </trkpt>
      <trkpt lat="23.082027" lon="113.273968">
        <time>2026-08-02T00:20:44Z</time>
      </trkpt>
      <trkpt lat="23.082086" lon="113.273795">
        <time>2026-08-02T00:20:49Z</time>
      </trkpt>
      <trkpt lat="23.082098" lon="113.273628">
        <time>2026-08-02T00:20:54Z</time>
      </trkpt>
      <trkpt lat="23.082085" lon="113.273526">
        <time>2026-08-02T00:20:59Z</time>
      </trkpt>
      <trkpt lat="23.082044" lon="113.273443">
        <time>2026-08-02T00:21:04Z</time>
      </trkpt>
      <trkpt lat="23.081932" lon="113.273374">
        <time>2026-08-02T00:21:09Z</time>
      </trkpt>
      <trkpt lat="23.081788" lon="113.273321">
        <time>2026-08-02T00:21:14Z</time>
      </trkpt>
      <trkpt lat="23.081694" lon="113.27328">
        <time>2026-08-02T00:21:19Z</time>
      </trkpt>
      <trkpt lat="23.081605" lon="113.273231">
        <time>2026-08-02T00:21:24Z</time>
      </trkpt>
      <trkpt lat="23.081473" lon="113.273166">
        <time>2026-08-02T00:21:29Z</time>
      </trkpt>
      <trkpt lat="23.081388" lon="113.273142">
        <time>2026-08-02T00:21:34Z</time>
      </trkpt>
      <trkpt lat="23.081291" lon="113.273106">
        <time>2026-08-02T00:21:39Z</time>
      </trkpt>
      <trkpt lat="23.081204" lon="113.273063">
        <time>2026-08-02T00:21:44Z</time>
      </trkpt>
      <trkpt lat="23.081082" lon="113.27301">
        <time>2026-08-02T00:21:49Z</time>
      </trkpt>
      <trkpt lat="23.080965" lon="113.272955">
        <time>2026-08-02T00:21:54Z</time>
      </trkpt>
      <trkpt lat="23.080898" lon="113.27296">
        <time>2026-08-02T00:21:59Z</time>
      </trkpt>
      <trkpt lat="23.08079" lon="113.273077">
        <time>2026-08-02T00:22:04Z</time>
      </trkpt>
      <trkpt lat="23.080655" lon="113.273226">
        <time>2026-08-02T00:22:09Z</time>
      </trkpt>
      <trkpt lat="23.080581" lon="113.273354">
        <time>2026-08-02T00:22:14Z</time>
      </trkpt>
      <trkpt lat="23.080556" lon="113.273456">
        <time>2026-08-02T00:22:19Z</time>
      </trkpt>
      <trkpt lat="23.080564" lon="113.273568">
        <time>2026-08-02T00:22:24Z</time>
      </trkpt>
      <trkpt lat="23.080624" lon="113.273712">
        <time>2026-08-02T00:22:29Z</time>
      </trkpt>
      <trkpt lat="23.08072" lon="113.273828">
        <time>2026-08-02T00:22:34Z</time>
      </trkpt>
      <trkpt lat="23.080807" lon="113.273882">
        <time>2026-08-02T00:22:39Z</time>
      </trkpt>
      <trkpt lat="23.080903" lon="113.273919">
        <time>2026-08-02T00:22:44Z</time>
      </trkpt>
      <trkpt lat="23.081036" lon="113.273965">
        <time>2026-08-02T00:22:49Z</time>
      </trkpt>
      <trkpt lat="23.081165" lon="113.274012">
        <time>2026-08-02T00:22:54Z</time>
      </trkpt>
      <trkpt lat="23.081249" lon="113.274041">
        <time>2026-08-02T00:22:59Z</time>
      </trkpt>
      <trkpt lat="23.081335" lon="113.274073">
        <time>2026-08-02T00:23:04Z</time>
      </trkpt>
      <trkpt lat="23.081466" lon="113.27412">
        <time>2026-08-02T00:23:09Z</time>
      </trkpt>
      <trkpt lat="23.081605" lon="113.274159">
        <time>2026-08-02T00:23:14Z</time>
      </trkpt>
      <trkpt lat="23.081703" lon="113.274172">
        <time>2026-08-02T00:23:19Z</time>
      </trkpt>
      <trkpt lat="23.081811" lon="113.27416">
        <time>2026-08-02T00:23:24Z</time>
      </trkpt>
      <trkpt lat="23.081938" lon="113.274092">
        <time>2026-08-02T00:23:29Z</time>
      </trkpt>
      <trkpt lat="23.082025" lon="113.273973">
        <time>2026-08-02T00:23:34Z</time>
      </trkpt>
      <trkpt lat="23.082067" lon="113.273867">
        <time>2026-08-02T00:23:39Z</time>
      </trkpt>
      <trkpt lat="23.082092" lon="113.273757">
        <time>2026-08-02T00:23:44Z</time>
      </trkpt>
      <trkpt lat="23.082097" lon="113.273602">
        <time>2026-08-02T00:23:49Z</time>
      </trkpt>
      <trkpt lat="23.082055" lon="113.27346">
        <time>2026-08-02T00:23:54Z</time>
      </trkpt>
      <trkpt lat="23.081982" lon="113.2734">
        <time>2026-08-02T00:23:59Z</time>
      </trkpt>
      <trkpt lat="23.081889" lon="113.273365">
        <time>2026-08-02T00:24:04Z</time>
      </trkpt>
      <trkpt lat="23.081755" lon="113.273304">
        <time>2026-08-02T00:24:09Z</time>
      </trkpt>
      <trkpt lat="23.081626" lon="113.273241">
        <time>2026-08-02T00:24:14Z</time>
      </trkpt>
      <trkpt lat="23.081546" lon="113.273206">
        <time>2026-08-02T00:24:19Z</time>
      </trkpt>
      <trkpt lat="23.081466" lon="113.273171">
        <time>2026-08-02T00:24:24Z</time>
      </trkpt>
      <trkpt lat="23.081336" lon="113.273118">
        <time>2026-08-02T00:24:29Z</time>
      </trkpt>
      <trkpt lat="23.081211" lon="113.273065">
        <time>2026-08-02T00:24:34Z</time>
      </trkpt>
      <trkpt lat="23.08113" lon="113.273033">
        <time>2026-08-02T00:24:39Z</time>
      </trkpt>
      <trkpt lat="23.081047" lon="113.272993">
        <time>2026-08-02T00:24:44Z</time>
      </trkpt>
      <trkpt lat="23.080941" lon="113.272945">
        <time>2026-08-02T00:24:49Z</time>
      </trkpt>
      <trkpt lat="23.080782" lon="113.273082">
        <time>2026-08-02T00:24:54Z</time>
      </trkpt>
      <trkpt lat="23.080687" lon="113.27319">
        <time>2026-08-02T00:24:59Z</time>
      </trkpt>
      <trkpt lat="23.080623" lon="113.273273">
        <time>2026-08-02T00:25:04Z</time>
      </trkpt>
      <trkpt lat="23.08056" lon="113.273428">
        <time>2026-08-02T00:25:09Z</time>
      </trkpt>
      <trkpt lat="23.080578" lon="113.273603">
        <time>2026-08-02T00:25:14Z</time>
      </trkpt>
      <trkpt lat="23.080621" lon="113.273709">
        <time>2026-08-02T00:25:19Z</time>
      </trkpt>
      <trkpt lat="23.08069" lon="113.2738">
        <time>2026-08-02T00:25:24Z</time>
      </trkpt>
      <trkpt lat="23.080821" lon="113.273886">
        <time>2026-08-02T00:25:29Z</time>
      </trkpt>
      <trkpt lat="23.080962" lon="113.273942">
        <time>2026-08-02T00:25:34Z</time>
      </trkpt>
      <trkpt lat="23.081052" lon="113.273973">
        <time>2026-08-02T00:25:39Z</time>
      </trkpt>
      <trkpt lat="23.081143" lon="113.274004">
        <time>2026-08-02T00:25:44Z</time>
      </trkpt>
      <trkpt lat="23.081274" lon="113.274045">
        <time>2026-08-02T00:25:49Z</time>
      </trkpt>
      <trkpt lat="23.081393" lon="113.274093">
        <time>2026-08-02T00:25:54Z</time>
      </trkpt>
      <trkpt lat="23.081475" lon="113.274124">
        <time>2026-08-02T00:25:59Z</time>
      </trkpt>
      <trkpt lat="23.081566" lon="113.274148">
        <time>2026-08-02T00:26:04Z</time>
      </trkpt>
      <trkpt lat="23.081705" lon="113.274173">
        <time>2026-08-02T00:26:09Z</time>
      </trkpt>
      <trkpt lat="23.08185" lon="113.274149">
        <time>2026-08-02T00:26:14Z</time>
      </trkpt>
      <trkpt lat="23.081932" lon="113.274097">
        <time>2026-08-02T00:26:19Z</time>
      </trkpt>
      <trkpt lat="23.081994" lon="113.274026">
        <time>2026-08-02T00:26:24Z</time>
      </trkpt>
      <trkpt lat="23.082066" lon="113.273872">
        <time>2026-08-02T00:26:29Z</time>
      </trkpt>
      <trkpt lat="23.082097" lon="113.273719">
        <time>2026-08-02T00:26:34Z</time>
      </trkpt>
      <trkpt lat="23.082098" lon="113.273614">
        <time>2026-08-02T00:26:39Z</time>
      </trkpt>
      <trkpt lat="23.082081" lon="113.273517">
        <time>2026-08-02T00:26:44Z</time>
      </trkpt>
      <trkpt lat="23.081996" lon="113.273407">
        <time>2026-08-02T00:26:49Z</time>
      </trkpt>
      <trkpt lat="23.081856" lon="113.273349">
        <time>2026-08-02T00:26:54Z</time>
      </trkpt>
      <trkpt lat="23.081765" lon="113.273308">
        <time>2026-08-02T00:26:59Z</time>
      </trkpt>
      <trkpt lat="23.081677" lon="113.273265">
        <time>2026-08-02T00:27:04Z</time>
      </trkpt>
      <trkpt lat="23.081548" lon="113.273206">
        <time>2026-08-02T00:27:09Z</time>
      </trkpt>
      <trkpt lat="23.081418" lon="113.273152">
        <time>2026-08-02T00:27:14Z</time>
      </trkpt>
      <trkpt lat="23.081329" lon="113.273122">
        <time>2026-08-02T00:27:19Z</time>
      </trkpt>
      <trkpt lat="23.081243" lon="113.273083">
        <time>2026-08-02T00:27:24Z</time>
      </trkpt>
      <trkpt lat="23.081119" lon="113.273025">
        <time>2026-08-02T00:27:29Z</time>
      </trkpt>
      <trkpt lat="23.080992" lon="113.272966">
        <time>2026-08-02T00:27:34Z</time>
      </trkpt>
      <trkpt lat="23.080914" lon="113.272946">
        <time>2026-08-02T00:27:39Z</time>
      </trkpt>
      <trkpt lat="23.080807" lon="113.273062">
        <time>2026-08-02T00:27:44Z</time>
      </trkpt>
      <trkpt lat="23.080669" lon="113.273203">
        <time>2026-08-02T00:27:49Z</time>
      </trkpt>
      <trkpt lat="23.080592" lon="113.273328">
        <time>2026-08-02T00:27:54Z</time>
      </trkpt>
      <trkpt lat="23.080565" lon="113.273423">
        <time>2026-08-02T00:27:59Z</time>
      </trkpt>
      <trkpt lat="23.080563" lon="113.273538">
        <time>2026-08-02T00:28:04Z</time>
      </trkpt>
      <trkpt lat="23.080616" lon="113.273699">
        <time>2026-08-02T00:28:09Z</time>
      </trkpt>
      <trkpt lat="23.08072" lon="113.273825">
        <time>2026-08-02T00:28:14Z</time>
      </trkpt>
      <trkpt lat="23.080809" lon="113.27388">
        <time>2026-08-02T00:28:19Z</time>
      </trkpt>
      <trkpt lat="23.080906" lon="113.273918">
        <time>2026-08-02T00:28:24Z</time>
      </trkpt>
      <trkpt lat="23.081054" lon="113.273972">
        <time>2026-08-02T00:28:29Z</time>
      </trkpt>
      <trkpt lat="23.08119" lon="113.274023">
        <time>2026-08-02T00:28:34Z</time>
      </trkpt>
      <trkpt lat="23.081276" lon="113.274053">
        <time>2026-08-02T00:28:39Z</time>
      </trkpt>
      <trkpt lat="23.081361" lon="113.274082">
        <time>2026-08-02T00:28:44Z</time>
      </trkpt>
      <trkpt lat="23.081486" lon="113.274126">
        <time>2026-08-02T00:28:49Z</time>
      </trkpt>
      <trkpt lat="23.081623" lon="113.274163">
        <time>2026-08-02T00:28:54Z</time>
      </trkpt>
      <trkpt lat="23.081719" lon="113.274173">
        <time>2026-08-02T00:28:59Z</time>
      </trkpt>
      <trkpt lat="23.081814" lon="113.27416">
        <time>2026-08-02T00:29:04Z</time>
      </trkpt>
      <trkpt lat="23.081941" lon="113.274088">
        <time>2026-08-02T00:29:09Z</time>
      </trkpt>
      <trkpt lat="23.082036" lon="113.273948">
        <time>2026-08-02T00:29:14Z</time>
      </trkpt>
      <trkpt lat="23.082076" lon="113.273839">
        <time>2026-08-02T00:29:19Z</time>
      </trkpt>
      <trkpt lat="23.082095" lon="113.273728">
        <time>2026-08-02T00:29:24Z</time>
      </trkpt>
      <trkpt lat="23.082093" lon="113.273568">
        <time>2026-08-02T00:29:29Z</time>
      </trkpt>
      <trkpt lat="23.082037" lon="113.273438">
        <time>2026-08-02T00:29:34Z</time>
      </trkpt>
      <trkpt lat="23.081968" lon="113.273393">
        <time>2026-08-02T00:29:39Z</time>
      </trkpt>
      <trkpt lat="23.081881" lon="113.273357">
        <time>2026-08-02T00:29:44Z</time>
      </trkpt>
      <trkpt lat="23.08174" lon="113.273292">
        <time>2026-08-02T00:29:49Z</time>
      </trkpt>
      <trkpt lat="23.081612" lon="113.273233">
        <time>2026-08-02T00:29:54Z</time>
      </trkpt>
      <trkpt lat="23.081529" lon="113.273194">
        <time>2026-08-02T00:29:59Z</time>
      </trkpt>
      <trkpt lat="23.081445" lon="113.273159">
        <time>2026-08-02T00:30:04Z</time>
      </trkpt>
      <trkpt lat="23.081319" lon="113.273117">
        <time>2026-08-02T00:30:09Z</time>
      </trkpt>
      <trkpt lat="23.081185" lon="113.273058">
        <time>2026-08-02T00:30:14Z</time>
      </trkpt>
      <trkpt lat="23.081099" lon="113.273017">
        <time>2026-08-02T00:30:19Z</time>
      </trkpt>
      <trkpt lat="23.081012" lon="113.272971">
        <time>2026-08-02T00:30:24Z</time>
      </trkpt>
      <trkpt lat="23.08087" lon="113.272993">
        <time>2026-08-02T00:30:29Z</time>
      </trkpt>
      <trkpt lat="23.080712" lon="113.273159">
        <time>2026-08-02T00:30:34Z</time>
      </trkpt>
      <trkpt lat="23.08064" lon="113.273243">
        <time>2026-08-02T00:30:39Z</time>
      </trkpt>
      <trkpt lat="23.080591" lon="113.273331">
        <time>2026-08-02T00:30:44Z</time>
      </trkpt>
      <trkpt lat="23.080566" lon="113.273471">
        <time>2026-08-02T00:30:49Z</time>
      </trkpt>
      <trkpt lat="23.080587" lon="113.273631">
        <time>2026-08-02T00:30:54Z</time>
      </trkpt>
      <trkpt lat="23.080638" lon="113.273736">
        <time>2026-08-02T00:30:59Z</time>
      </trkpt>
      <trkpt lat="23.080716" lon="113.273821">
        <time>2026-08-02T00:31:04Z</time>
      </trkpt>
      <trkpt lat="23.080854" lon="113.273897">
        <time>2026-08-02T00:31:09Z</time>
      </trkpt>
      <trkpt lat="23.080993" lon="113.27395">
        <time>2026-08-02T00:31:14Z</time>
      </trkpt>
      <trkpt lat="23.081084" lon="113.273986">
        <time>2026-08-02T00:31:19Z</time>
      </trkpt>
      <trkpt lat="23.081173" lon="113.274018">
        <time>2026-08-02T00:31:24Z</time>
      </trkpt>
      <trkpt lat="23.081302" lon="113.274061">
        <time>2026-08-02T00:31:29Z</time>
      </trkpt>
      <trkpt lat="23.081429" lon="113.274107">
        <time>2026-08-02T00:31:34Z</time>
      </trkpt>
      <trkpt lat="23.081518" lon="113.274137">
        <time>2026-08-02T00:31:39Z</time>
      </trkpt>
      <trkpt lat="23.081603" lon="113.274158">
        <time>2026-08-02T00:31:44Z</time>
      </trkpt>
      <trkpt lat="23.081733" lon="113.274172">
        <time>2026-08-02T00:31:49Z</time>
      </trkpt>
      <trkpt lat="23.081868" lon="113.274139">
        <time>2026-08-02T00:31:54Z</time>
      </trkpt>
      <trkpt lat="23.08194" lon="113.274089">
        <time>2026-08-02T00:31:59Z</time>
      </trkpt>
      <trkpt lat="23.082002" lon="113.274011">
        <time>2026-08-02T00:32:04Z</time>
      </trkpt>
      <trkpt lat="23.08207" lon="113.273857">
        <time>2026-08-02T00:32:09Z</time>
      </trkpt>
      <trkpt lat="23.082097" lon="113.273704">
        <time>2026-08-02T00:32:14Z</time>
      </trkpt>
      <trkpt lat="23.082096" lon="113.273602">
        <time>2026-08-02T00:32:19Z</time>
      </trkpt>
      <trkpt lat="23.082082" lon="113.273515">
        <time>2026-08-02T00:32:24Z</time>
      </trkpt>
      <trkpt lat="23.082004" lon="113.273415">
        <time>2026-08-02T00:32:29Z</time>
      </trkpt>
      <trkpt lat="23.081883" lon="113.273357">
        <time>2026-08-02T00:32:34Z</time>
      </trkpt>
      <trkpt lat="23.081793" lon="113.273318">
        <time>2026-08-02T00:32:39Z</time>
      </trkpt>
      <trkpt lat="23.081701" lon="113.27328">
        <time>2026-08-02T00:32:44Z</time>
      </trkpt>
      <trkpt lat="23.081573" lon="113.273216">
        <time>2026-08-02T00:32:49Z</time>
      </trkpt>
      <trkpt lat="23.081455" lon="113.273159">
        <time>2026-08-02T00:32:54Z</time>
      </trkpt>
      <trkpt lat="23.08137" lon="113.273135">
        <time>2026-08-02T00:32:59Z</time>
      </trkpt>
      <trkpt lat="23.081285" lon="113.273105">
        <time>2026-08-02T00:33:04Z</time>
      </trkpt>
      <trkpt lat="23.081164" lon="113.273049">
        <time>2026-08-02T00:33:09Z</time>
      </trkpt>
      <trkpt lat="23.081046" lon="113.272993">
        <time>2026-08-02T00:33:14Z</time>
      </trkpt>
      <trkpt lat="23.08095" lon="113.272961">
        <time>2026-08-02T00:33:19Z</time>
      </trkpt>
      <trkpt lat="23.080821" lon="113.273041">
        <time>2026-08-02T00:33:24Z</time>
      </trkpt>
      <trkpt lat="23.080677" lon="113.273151">
        <time>2026-08-02T00:33:29Z</time>
      </trkpt>
      <trkpt lat="23.080619" lon="113.273239">
        <time>2026-08-02T00:33:34Z</time>
      </trkpt>
      <trkpt lat="23.080582" lon="113.273337">
        <time>2026-08-02T00:33:39Z</time>
      </trkpt>
      <trkpt lat="23.080563" lon="113.27349">
        <time>2026-08-02T00:33:44Z</time>
      </trkpt>
      <trkpt lat="23.080601" lon="113.273635">
        <time>2026-08-02T00:33:49Z</time>
      </trkpt>
      <trkpt lat="23.080657" lon="113.273715">
        <time>2026-08-02T00:33:54Z</time>
      </trkpt>
      <trkpt lat="23.080731" lon="113.273791">
        <time>2026-08-02T00:33:59Z</time>
      </trkpt>
      <trkpt lat="23.080851" lon="113.273871">
        <time>2026-08-02T00:34:04Z</time>
      </trkpt>
      <trkpt lat="23.080981" lon="113.273919">
        <time>2026-08-02T00:34:09Z</time>
      </trkpt>
      <trkpt lat="23.081068" lon="113.273947">
        <time>2026-08-02T00:34:14Z</time>
      </trkpt>
      <trkpt lat="23.081154" lon="113.273975">
        <time>2026-08-02T00:34:19Z</time>
      </trkpt>
      <trkpt lat="23.081279" lon="113.274019">
        <time>2026-08-02T00:34:24Z</time>
      </trkpt>
      <trkpt lat="23.081407" lon="113.274059">
        <time>2026-08-02T00:34:29Z</time>
      </trkpt>
      <trkpt lat="23.081493" lon="113.274083">
        <time>2026-08-02T00:34:34Z</time>
      </trkpt>
      <trkpt lat="23.081583" lon="113.274105">
        <time>2026-08-02T00:34:39Z</time>
      </trkpt>
      <trkpt lat="23.081722" lon="113.27413">
        <time>2026-08-02T00:34:44Z</time>
      </trkpt>
      <trkpt lat="23.08186" lon="113.274113">
        <time>2026-08-02T00:34:49Z</time>
      </trkpt>
      <trkpt lat="23.081939" lon="113.274084">
        <time>2026-08-02T00:34:54Z</time>
      </trkpt>
      <trkpt lat="23.081995" lon="113.274019">
        <time>2026-08-02T00:34:59Z</time>
      </trkpt>
      <trkpt lat="23.082057" lon="113.273866">
        <time>2026-08-02T00:35:04Z</time>
      </trkpt>
      <trkpt lat="23.082085" lon="113.273704">
        <time>2026-08-02T00:35:09Z</time>
      </trkpt>
      <trkpt lat="23.082085" lon="113.273599">
        <time>2026-08-02T00:35:14Z</time>
      </trkpt>
      <trkpt lat="23.082058" lon="113.273507">
        <time>2026-08-02T00:35:19Z</time>
      </trkpt>
      <trkpt lat="23.081958" lon="113.273411">
        <time>2026-08-02T00:35:24Z</time>
      </trkpt>
      <trkpt lat="23.08183" lon="113.273357">
        <time>2026-08-02T00:35:29Z</time>
      </trkpt>
      <trkpt lat="23.081748" lon="113.273304">
        <time>2026-08-02T00:35:34Z</time>
      </trkpt>
      <trkpt lat="23.081669" lon="113.273249">
        <time>2026-08-02T00:35:39Z</time>
      </trkpt>
      <trkpt lat="23.081549" lon="113.273174">
        <time>2026-08-02T00:35:44Z</time>
      </trkpt>
      <trkpt lat="23.081455" lon="113.27308">
        <time>2026-08-02T00:35:49Z</time>
      </trkpt>
      <trkpt lat="23.081434" lon="113.273011">
        <time>2026-08-02T00:35:54Z</time>
      </trkpt>
      <trkpt lat="23.081445" lon="113.272956">
        <time>2026-08-02T00:35:59Z</time>
      </trkpt>
      <trkpt lat="23.081382" lon="113.272853">
        <time>2026-08-02T00:36:04Z</time>
      </trkpt>
      <trkpt lat="23.081281" lon="113.272799">
        <time>2026-08-02T00:36:09Z</time>
      </trkpt>
      <trkpt lat="23.081205" lon="113.272787">
        <time>2026-08-02T00:36:14Z</time>
      </trkpt>
      <trkpt lat="23.081127" lon="113.272762">
        <time>2026-08-02T00:36:19Z</time>
      </trkpt>
      <trkpt lat="23.081019" lon="113.272731">
        <time>2026-08-02T00:36:24Z</time>
      </trkpt>
      <trkpt lat="23.080913" lon="113.27269">
        <time>2026-08-02T00:36:29Z</time>
      </trkpt>
      <trkpt lat="23.080849" lon="113.272647">
        <time>2026-08-02T00:36:34Z</time>
      </trkpt>
      <trkpt lat="23.080787" lon="113.272607">
        <time>2026-08-02T00:36:39Z</time>
      </trkpt>
      <trkpt lat="23.080683" lon="113.272548">
        <time>2026-08-02T00:36:44Z</time>
      </trkpt>
      <trkpt lat="23.080573" lon="113.27248">
        <time>2026-08-02T00:36:49Z</time>
      </trkpt>
      <trkpt lat="23.080495" lon="113.272439">
        <time>2026-08-02T00:36:54Z</time>
      </trkpt>
      <trkpt lat="23.080377" lon="113.272432">
        <time>2026-08-02T00:36:59Z</time>
      </trkpt>
      <trkpt lat="23.080227" lon="113.272416">
        <time>2026-08-02T00:37:04Z</time>
      </trkpt>
      <trkpt lat="23.080099" lon="113.272347">
        <time>2026-08-02T00:37:09Z</time>
      </trkpt>
      <trkpt lat="23.080013" lon="113.272304">
        <time>2026-08-02T00:37:14Z</time>
      </trkpt>
      <trkpt lat="23.079926" lon="113.272255">
        <time>2026-08-02T00:37:19Z</time>
      </trkpt>
      <trkpt lat="23.079808" lon="113.272221">
        <time>2026-08-02T00:37:24Z</time>
      </trkpt>
      <trkpt lat="23.079695" lon="113.272196">
        <time>2026-08-02T00:37:29Z</time>
      </trkpt>
      <trkpt lat="23.079608" lon="113.272178">
        <time>2026-08-02T00:37:34Z</time>
      </trkpt>
      <trkpt lat="23.07952" lon="113.272188">
        <time>2026-08-02T00:37:39Z</time>
      </trkpt>
      <trkpt lat="23.07944" lon="113.272092">
        <time>2026-08-02T00:37:44Z</time>
      </trkpt>
      <trkpt lat="23.079357" lon="113.272034">
        <time>2026-08-02T00:37:49Z</time>
      </trkpt>
      <trkpt lat="23.07928" lon="113.27205">
        <time>2026-08-02T00:37:54Z</time>
      </trkpt>
      <trkpt lat="23.079196" lon="113.272097">
        <time>2026-08-02T00:37:59Z</time>
      </trkpt>
      <trkpt lat="23.079078" lon="113.272186">
        <time>2026-08-02T00:38:04Z</time>
      </trkpt>
      <trkpt lat="23.078979" lon="113.272316">
        <time>2026-08-02T00:38:09Z</time>
      </trkpt>
      <trkpt lat="23.078906" lon="113.272374">
        <time>2026-08-02T00:38:14Z</time>
      </trkpt>
      <trkpt lat="23.07883" lon="113.272431">
        <time>2026-08-02T00:38:19Z</time>
      </trkpt>
      <trkpt lat="23.078724" lon="113.27254">
        <time>2026-08-02T00:38:24Z</time>
      </trkpt>
      <trkpt lat="23.078635" lon="113.272654">
        <time>2026-08-02T00:38:29Z</time>
      </trkpt>
      <trkpt lat="23.078558" lon="113.272711">
        <time>2026-08-02T00:38:34Z</time>
      </trkpt>
      <trkpt lat="23.078479" lon="113.272758">
        <time>2026-08-02T00:38:39Z</time>
      </trkpt>
      <trkpt lat="23.078346" lon="113.272836">
        <time>2026-08-02T00:38:44Z</time>
      </trkpt>
      <trkpt lat="23.078219" lon="113.272915">
        <time>2026-08-02T00:38:49Z</time>
      </trkpt>
      <trkpt lat="23.078141" lon="113.272967">
        <time>2026-08-02T00:38:54Z</time>
      </trkpt>
      <trkpt lat="23.07807" lon="113.273025">
        <time>2026-08-02T00:38:59Z</time>
      </trkpt>
      <trkpt lat="23.07798" lon="113.273114">
        <time>2026-08-02T00:39:04Z</time>
      </trkpt>
      <trkpt lat="23.077927" lon="113.273232">
        <time>2026-08-02T00:39:09Z</time>
      </trkpt>
      <trkpt lat="23.077851" lon="113.273313">
        <time>2026-08-02T00:39:14Z</time>
      </trkpt>
      <trkpt lat="23.07775" lon="113.273376">
        <time>2026-08-02T00:39:19Z</time>
      </trkpt>
      <trkpt lat="23.077598" lon="113.273442">
        <time>2026-08-02T00:39:24Z</time>
      </trkpt>
      <trkpt lat="23.077473" lon="113.273516">
        <time>2026-08-02T00:39:29Z</time>
      </trkpt>
      <trkpt lat="23.077402" lon="113.273568">
        <time>2026-08-02T00:39:34Z</time>
      </trkpt>
      <trkpt lat="23.077313" lon="113.273594">
        <time>2026-08-02T00:39:39Z</time>
      </trkpt>
      <trkpt lat="23.077171" lon="113.273599">
        <time>2026-08-02T00:39:44Z</time>
      </trkpt>
      <trkpt lat="23.077041" lon="113.273521">
        <time>2026-08-02T00:39:49Z</time>
      </trkpt>
      <trkpt lat="23.076966" lon="113.273454">
        <time>2026-08-02T00:39:54Z</time>
      </trkpt>
      <trkpt lat="23.0769" lon="113.273382">
        <time>2026-08-02T00:39:59Z</time>
      </trkpt>
      <trkpt lat="23.076839" lon="113.273287">
        <time>2026-08-02T00:40:04Z</time>
      </trkpt>
      <trkpt lat="23.076852" lon="113.273174">
        <time>2026-08-02T00:40:09Z</time>
      </trkpt>
      <trkpt lat="23.076815" lon="113.273082">
        <time>2026-08-02T00:40:14Z</time>
      </trkpt>
      <trkpt lat="23.076746" lon="113.273007">
        <time>2026-08-02T00:40:19Z</time>
      </trkpt>
      <trkpt lat="23.076669" lon="113.272907">
        <time>2026-08-02T00:40:24Z</time>
      </trkpt>
      <trkpt lat="23.076591" lon="113.272816">
        <time>2026-08-02T00:40:29Z</time>
      </trkpt>
      <trkpt lat="23.07654" lon="113.272758">
        <time>2026-08-02T00:40:34Z</time>
      </trkpt>
      <trkpt lat="23.076489" lon="113.272691">
        <time>2026-08-02T00:40:39Z</time>
      </trkpt>
      <trkpt lat="23.076378" lon="113.272608">
        <time>2026-08-02T00:40:44Z</time>
      </trkpt>
      <trkpt lat="23.07628" lon="113.272533">
        <time>2026-08-02T00:40:49Z</time>
      </trkpt>
      <trkpt lat="23.076177" lon="113.2725">
        <time>2026-08-02T00:40:54Z</time>
      </trkpt>
      <trkpt lat="23.076071" lon="113.272471">
        <time>2026-08-02T00:40:59Z</time>
      </trkpt>
      <trkpt lat="23.075951" lon="113.272391">
        <time>2026-08-02T00:41:04Z</time>
      </trkpt>
      <trkpt lat="23.075858" lon="113.272273">
        <time>2026-08-02T00:41:09Z</time>
      </trkpt>
      <trkpt lat="23.075803" lon="113.272206">
        <time>2026-08-02T00:41:14Z</time>
      </trkpt>
      <trkpt lat="23.075741" lon="113.272135">
        <time>2026-08-02T00:41:19Z</time>
      </trkpt>
      <trkpt lat="23.07563" lon="113.27204">
        <time>2026-08-02T00:41:24Z</time>
      </trkpt>
      <trkpt lat="23.075503" lon="113.27197">
        <time>2026-08-02T00:41:29Z</time>
      </trkpt>
      <trkpt lat="23.075446" lon="113.271962">
        <time>2026-08-02T00:41:34Z</time>
      </trkpt>
      <trkpt lat="23.075381" lon="113.272037">
        <time>2026-08-02T00:41:39Z</time>
      </trkpt>
      <trkpt lat="23.075337" lon="113.272187">
        <time>2026-08-02T00:41:44Z</time>
      </trkpt>
      <trkpt lat="23.075255" lon="113.272379">
        <time>2026-08-02T00:41:49Z</time>
      </trkpt>
      <trkpt lat="23.075232" lon="113.272482">
        <time>2026-08-02T00:41:54Z</time>
      </trkpt>
      <trkpt lat="23.075251" lon="113.272586">
        <time>2026-08-02T00:41:59Z</time>
      </trkpt>
      <trkpt lat="23.075293" lon="113.272727">
        <time>2026-08-02T00:42:04Z</time>
      </trkpt>
      <trkpt lat="23.075342" lon="113.272869">
        <time>2026-08-02T00:42:09Z</time>
      </trkpt>
      <trkpt lat="23.075384" lon="113.272948">
        <time>2026-08-02T00:42:14Z</time>
      </trkpt>
      <trkpt lat="23.075441" lon="113.273025">
        <time>2026-08-02T00:42:19Z</time>
      </trkpt>
      <trkpt lat="23.0755" lon="113.273147">
        <time>2026-08-02T00:42:24Z</time>
      </trkpt>
      <trkpt lat="23.075554" lon="113.273266">
        <time>2026-08-02T00:42:29Z</time>
      </trkpt>
      <trkpt lat="23.075599" lon="113.273334">
        <time>2026-08-02T00:42:34Z</time>
      </trkpt>
      <trkpt lat="23.075668" lon="113.273351">
        <time>2026-08-02T00:42:39Z</time>
      </trkpt>
      <trkpt lat="23.075767" lon="113.2733">
        <time>2026-08-02T00:42:44Z</time>
      </trkpt>
      <trkpt lat="23.075823" lon="113.273157">
        <time>2026-08-02T00:42:47Z</time>
      </trkpt>
    </trkseg>
  </trk>
</gpx>