<?xml version="1.0" encoding="UTF-8"?>
<gpx xmlns="http://www.topografix.com/GPX/1/1" xmlns:gpxtpx="http://www.garmin.com/xmlschemas/TrackPointExtension/v1" xmlns:xsi="http://www.w3.org/2001/XMLSchema-instance" xsi:schemaLocation="http://www.topografix.com/GPX/1/1 http://www.topografix.com/GPX/1/1/gpx.xsd" version="1.1" creator="gpx.py -- https://github.com/tkrajina/gpxpy">
  <trk>
    <name>gpx from joyrun</name>
    <trkseg>
      <trkpt lat="23.076195" lon="113.272884">
        <time>2026-08-05T21:58:18Z</time>
      </trkpt>
      <trkpt lat="23.076165" lon="113.272819">
        <time>2026-08-05T21:58:23Z</time>
      </trkpt>
      <trkpt lat="23.076113" lon="113.272729">
        <time>2026-08-05T21:58:28Z</time>
      </trkpt>
      <trkpt lat="23.075981" lon="113.272618">
        <time>2026-08-05T21:58:33Z</time>
      </trkpt>
      <trkpt lat="23.075843" lon="113.272515">
        <time>2026-08-05T21:58:38Z</time>
      </trkpt>
      <trkpt lat="23.075765" lon="113.272467">
        <time>2026-08-05T21:58:43Z</time>
      </trkpt>
      <trkpt lat="23.075608" lon="113.272375">
        <time>2026-08-05T21:58:48Z</time>
      </trkpt>
      <trkpt lat="23.075428" lon="113.272351">
        <time>2026-08-05T21:58:53Z</time>
      </trkpt>
      <trkpt lat="23.075317" lon="113.272334">
        <time>2026-08-05T21:58:58Z</time>
      </trkpt>
      <trkpt lat="23.075224" lon="113.272302">
        <time>2026-08-05T21:59:03Z</time>
      </trkpt>
      <trkpt lat="23.0751" lon="113.272231">
        <time>2026-08-05T21:59:08Z</time>
      </trkpt>
      <trkpt lat="23.074964" lon="113.27216">
        <time>2026-08-05T21:59:13Z</time>
      </trkpt>
      <trkpt lat="23.07487" lon="113.272114">
        <time>2026-08-05T21:59:18Z</time>
      </trkpt>
      <trkpt lat="23.074784" lon="113.272055">
        <time>2026-08-05T21:59:23Z</time>
      </trkpt>
      <trkpt lat="23.07464" lon="113.271975">
        <time>2026-08-05T21:59:28Z</time>
      </trkpt>
      <trkpt lat="23.07449" lon="113.271955">
        <time>2026-08-05T21:59:33Z</time>
      </trkpt>
      <trkpt lat="23.074409" lon="113.272007">
        <time>2026-08-05T21:59:38Z</time>
      </trkpt>
      <trkpt lat="23.074349" lon="113.272105">
        <time>2026-08-05T21:59:43Z</time>
      </trkpt>
      <trkpt lat="23.074265" lon="113.272263">
        <time>2026-08-05T21:59:48Z</time>
      </trkpt>
      <trkpt lat="23.07419" lon="113.272431">
        <time>2026-08-05T21:59:53Z</time>
      </trkpt>
      <trkpt lat="23.074144" lon="113.272539">
        <time>2026-08-05T21:59:58Z</time>
      </trkpt>
      <trkpt lat="23.074103" lon="113.272641">
        <time>2026-08-05T22:00:03Z</time>
      </trkpt>
      <trkpt lat="23.074056" lon="113.272784">
        <time>2026-08-05T22:00:08Z</time>
      </trkpt>
      <trkpt lat="23.074002" lon="113.272932">
        <time>2026-08-05T22:00:13Z</time>
      </trkpt>
      <trkpt lat="23.073966" lon="113.273028">
        <time>2026-08-05T22:00:18Z</time>
      </trkpt>
      <trkpt lat="23.07393" lon="113.273129">
        <time>2026-08-05T22:00:23Z</time>
      </trkpt>
      <trkpt lat="23.073934" lon="113.273129">
        <time>2026-08-05T22:00:28Z</time>
      </trkpt>
      <trkpt lat="23.073946" lon="113.273007">
        <time>2026-08-05T22:00:33Z</time>
      </trkpt>
      <trkpt lat="23.07387" lon="113.272956">
        <time>2026-08-05T22:00:38Z</time>
      </trkpt>
      <trkpt lat="23.07377" lon="113.272911">
        <time>2026-08-05T22:00:43Z</time>
      </trkpt>
      <trkpt lat="23.073708" lon="113.272795">
        <time>2026-08-05T22:00:48Z</time>
      </trkpt>
      <trkpt lat="23.073764" lon="113.272663">
        <time>2026-08-05T22:00:53Z</time>
      </trkpt>
      <trkpt lat="23.073797" lon="113.272579">
        <time>2026-08-05T22:00:58Z</time>
      </trkpt>
      <trkpt lat="23.073824" lon="113.272497">
        <time>2026-08-05T22:01:03Z</time>
      </trkpt>
      <trkpt lat="23.07388" lon="113.272365">
        <time>2026-08-05T22:01:08Z</time>
      </trkpt>
      <trkpt lat="23.073945" lon="113.272231">
        <time>2026-08-05T22:01:13Z</time>
      </trkpt>
      <trkpt lat="23.073985" lon="113.272143">
        <time>2026-08-05T22:01:18Z</time>
      </trkpt>
      <trkpt lat="23.07402" lon="113.272055">
        <time>2026-08-05T22:01:23Z</time>
      </trkpt>
      <trkpt lat="23.074084" lon="113.27192">
        <time>2026-08-05T22:01:28Z</time>
      </trkpt>
      <trkpt lat="23.074117" lon="113.271781">
        <time>2026-08-05T22:01:33Z</time>
      </trkpt>
      <trkpt lat="23.074056" lon="113.271721">
        <time>2026-08-05T22:01:38Z</time>
      </trkpt>
      <trkpt lat="23.073973" lon="113.271678">
        <time>2026-08-05T22:01:43Z</time>
      </trkpt>
      <trkpt lat="23.073855" lon="113.271612">
        <time>2026-08-05T22:01:48Z</time>
      </trkpt>
      <trkpt lat="23.07373" lon="113.271531">
        <time>2026-08-05T22:01:53Z</time>
      </trkpt>
      <trkpt lat="23.073642" lon="113.271483">
        <time>2026-08-05T22:01:58Z</time>
      </trkpt>
      <trkpt lat="23.073546" lon="113.271444">
        <time>2026-08-05T22:02:03Z</time>
      </trkpt>
      <trkpt lat="23.073401" lon="113.271393">
        <time>2026-08-05T22:02:08Z</time>
      </trkpt>
      <trkpt lat="23.073275" lon="113.271301">
        <time>2026-08-05T22:02:13Z</time>
      </trkpt>
      <trkpt lat="23.073212" lon="113.271214">
        <time>2026-08-05T22:02:18Z</time>
      </trkpt>
      <trkpt lat="23.073129" lon="113.27116">
        <time>2026-08-05T22:02:23Z</time>
      </trkpt>
      <trkpt lat="23.072988" lon="113.271085">
        <time>2026-08-05T22:02:28Z</time>
      </trkpt>
      <trkpt lat="23.072856" lon="113.270991">
        <time>2026-08-05T22:02:33Z</time>
      </trkpt>
      <trkpt lat="23.072756" lon="113.270939">
        <time>2026-08-05T22:02:38Z</time>
      </trkpt>
      <trkpt lat="23.072648" lon="113.270902">
        <time>2026-08-05T22:02:43Z</time>
      </trkpt>
      <trkpt lat="23.072488" lon="113.270847">
        <time>2026-08-05T22:02:48Z</time>
      </trkpt>
      <trkpt lat="23.072344" lon="113.270777">
        <time>2026-08-05T22:02:53Z</time>
      </trkpt>
      <trkpt lat="23.072242" lon="113.270739">
        <time>2026-08-05T22:02:58Z</time>
      </trkpt>
      <trkpt lat="23.072149" lon="113.270699">
        <time>2026-08-05T22:03:03Z</time>
      </trkpt>
      <trkpt lat="23.072018" lon="113.270624">
        <time>2026-08-05T22:03:08Z</time>
      </trkpt>
      <trkpt lat="23.071876" lon="113.270553">
        <time>2026-08-05T22:03:13Z</time>
      </trkpt>
      <trkpt lat="23.071782" lon="113.270503">
        <time>2026-08-05T22:03:18Z</time>
      </trkpt>
      <trkpt lat="23.071687" lon="113.270462">
        <time>2026-08-05T22:03:23Z</time>
      </trkpt>
      <trkpt lat="23.071544" lon="113.270403">
        <time>2026-08-05T22:03:28Z</time>
      </trkpt>
      <trkpt lat="23.071391" lon="113.270335">
        <time>2026-08-05T22:03:33Z</time>
      </trkpt>
      <trkpt lat="23.071286" lon="113.270275">
        <time>2026-08-05T22:03:38Z</time>
      </trkpt>
      <trkpt lat="23.071194" lon="113.2702">
        <time>2026-08-05T22:03:43Z</time>
      </trkpt>
      <trkpt lat="23.071053" lon="113.270107">
        <time>2026-08-05T22:03:48Z</time>
      </trkpt>
      <trkpt lat="23.070904" lon="113.270065">
        <time>2026-08-05T22:03:53Z</time>
      </trkpt>
      <trkpt lat="23.070803" lon="113.270041">
        <time>2026-08-05T22:03:58Z</time>
      </trkpt>
      <trkpt lat="23.070701" lon="113.270001">
        <time>2026-08-05T22:04:03Z</time>
      </trkpt>
      <trkpt lat="23.070564" lon="113.269894">
        <time>2026-08-05T22:04:08Z</time>
      </trkpt>
      <trkpt lat="23.070411" lon="113.269837">
        <time>2026-08-05T22:04:13Z</time>
      </trkpt>
      <trkpt lat="23.070304" lon="113.269787">
        <time>2026-08-05T22:04:18Z</time>
      </trkpt>
      <trkpt lat="23.070194" lon="113.269754">
        <time>2026-08-05T22:04:23Z</time>
      </trkpt>
      <trkpt lat="23.070039" lon="113.269685">
        <time>2026-08-05T22:04:28Z</time>
      </trkpt>
      <trkpt lat="23.069896" lon="113.269603">
        <time>2026-08-05T22:04:33Z</time>
      </trkpt>
      <trkpt lat="23.0698" lon="113.269562">
        <time>2026-08-05T22:04:38Z</time>
      </trkpt>
      <trkpt lat="23.0697" lon="113.269517">
        <time>2026-08-05T22:04:43Z</time>
      </trkpt>
      <trkpt lat="23.069563" lon="113.269432">
        <time>2026-08-05T22:04:48Z</time>
      </trkpt>
      <trkpt lat="23.06943" lon="113.269364">
        <time>2026-08-05T22:04:53Z</time>
      </trkpt>
      <trkpt lat="23.069336" lon="113.269299">
        <time>2026-08-05T22:04:58Z</time>
      </trkpt>
      <trkpt lat="23.069239" lon="113.269242">
        <time>2026-08-05T22:05:03Z</time>
      </trkpt>
      <trkpt lat="23.069088" lon="113.269199">
        <time>2026-08-05T22:05:08Z</time>
      </trkpt>
      <trkpt lat="23.068949" lon="113.269159">
        <time>2026-08-05T22:05:13Z</time>
      </trkpt>
      <trkpt lat="23.068851" lon="113.269127">
        <time>2026-08-05T22:05:18Z</time>
      </trkpt>
      <trkpt lat="23.068753" lon="113.269087">
        <time>2026-08-05T22:05:23Z</time>
      </trkpt>
      <trkpt lat="23.068607" lon="113.269028">
        <time>2026-08-05T22:05:28Z</time>
      </trkpt>
      <trkpt lat="23.068474" lon="113.268981">
        <time>2026-08-05T22:05:33Z</time>
      </trkpt>
      <trkpt lat="23.068393" lon="113.268938">
        <time>2026-08-05T22:05:38Z</time>
      </trkpt>
      <trkpt lat="23.068302" lon="113.268903">
        <time>2026-08-05T22:05:43Z</time>
      </trkpt>
      <trkpt lat="23.068169" lon="113.26883">
        <time>2026-08-05T22:05:48Z</time>
      </trkpt>
      <trkpt lat="23.068033" lon="113.26872">
        <time>2026-08-05T22:05:53Z</time>
      </trkpt>
      <trkpt lat="23.067936" lon="113.268617">
        <time>2026-08-05T22:05:58Z</time>
      </trkpt>
      <trkpt lat="23.067829" lon="113.26856">
        <time>2026-08-05T22:06:03Z</time>
      </trkpt>
      <trkpt lat="23.067671" lon="113.268492">
        <time>2026-08-05T22:06:08Z</time>
      </trkpt>
      <trkpt lat="23.067522" lon="113.268429">
        <time>2026-08-05T22:06:13Z</time>
      </trkpt>
      <trkpt lat="23.067429" lon="113.268388">
        <time>2026-08-05T22:06:18Z</time>
      </trkpt>
      <trkpt lat="23.067335" lon="113.268336">
        <time>2026-08-05T22:06:23Z</time>
      </trkpt>
      <trkpt lat="23.067196" lon="113.268266">
        <time>2026-08-05T22:06:28Z</time>
      </trkpt>
      <trkpt lat="23.067068" lon="113.268189">
        <time>2026-08-05T22:06:33Z</time>
      </trkpt>
      <trkpt lat="23.066996" lon="113.268124">
        <time>2026-08-05T22:06:38Z</time>
      </trkpt>
      <trkpt lat="23.066908" lon="113.268062">
        <time>2026-08-05T22:06:43Z</time>
      </trkpt>
      <trkpt lat="23.066749" lon="113.26802">
        <time>2026-08-05T22:06:48Z</time>
      </trkpt>
      <trkpt lat="23.0666" lon="113.267995">
        <time>2026-08-05T22:06:53Z</time>
      </trkpt>
      <trkpt lat="23.066496" lon="113.267963">
        <time>2026-08-05T22:06:58Z</time>
      </trkpt>
      <trkpt lat="23.066387" lon="113.267948">
        <time>2026-08-05T22:07:03Z</time>
      </trkpt>
      <trkpt lat="23.066236" lon="113.267994">
        <time>2026-08-05T22:07:08Z</time>
      </trkpt>
      <trkpt lat="23.066113" lon="113.268097">
        <time>2026-08-05T22:07:13Z</time>
      </trkpt>
      <trkpt lat="23.066042" lon="113.268179">
        <time>2026-08-05T22:07:18Z</time>
      </trkpt>
      <trkpt lat="23.065973" lon="113.268261">
        <time>2026-08-05T22:07:23Z</time>
      </trkpt>
      <trkpt lat="23.065872" lon="113.268391">
        <time>2026-08-05T22:07:28Z</time>
      </trkpt>
      <trkpt lat="23.06578" lon="113.268535">
        <time>2026-08-05T22:07:33Z</time>
      </trkpt>
      <trkpt lat="23.065731" lon="113.268635">
        <time>2026-08-05T22:07:38Z</time>
      </trkpt>
      <trkpt lat="23.065689" lon="113.268741">
        <time>2026-08-05T22:07:43Z</time>
      </trkpt>
      <trkpt lat="23.065629" lon="113.268901">
        <time>2026-08-05T22:07:48Z</time>
      </trkpt>
      <trkpt lat="23.065579" lon="113.269064">
        <time>2026-08-05T22:07:53Z</time>
      </trkpt>
      <trkpt lat="23.065547" lon="113.269177">
        <time>2026-08-05T22:07:58Z</time>
      </trkpt>
      <trkpt lat="23.06552" lon="113.26929">
        <time>2026-08-05T22:08:03Z</time>
      </trkpt>
      <trkpt lat="23.065483" lon="113.26946">
        <time>2026-08-05T22:08:08Z</time>
      </trkpt>
      <trkpt lat="23.065446" lon="113.269632">
        <time>2026-08-05T22:08:13Z</time>
      </trkpt>
      <trkpt lat="23.065426" lon="113.269745">
        <time>2026-08-05T22:08:18Z</time>
      </trkpt>
      <trkpt lat="23.0654" lon="113.269857">
        <time>2026-08-05T22:08:23Z</time>
      </trkpt>
      <trkpt lat="23.065347" lon="113.270024">
        <time>2026-08-05T22:08:28Z</time>
      </trkpt>
      <trkpt lat="23.065278" lon="113.270184">
        <time>2026-08-05T22:08:33Z</time>
      </trkpt>
      <trkpt lat="23.065227" lon="113.270285">
        <time>2026-08-05T22:08:38Z</time>
      </trkpt>
      <trkpt lat="23.06518" lon="113.270388">
        <time>2026-08-05T22:08:43Z</time>
      </trkpt>
      <trkpt lat="23.065107" lon="113.27054">
        <time>2026-08-05T22:08:48Z</time>
      </trkpt>
      <trkpt lat="23.065033" lon="113.270688">
        <time>2026-08-05T22:08:53Z</time>
      </trkpt>
      <trkpt lat="23.064983" lon="113.270791">
        <time>2026-08-05T22:08:58Z</time>
      </trkpt>
      <trkpt lat="23.064935" lon="113.270887">
        <time>2026-08-05T22:09:03Z</time>
      </trkpt>
      <trkpt lat="23.064875" lon="113.271034">
        <time>2026-08-05T22:09:08Z</time>
      </trkpt>
      <trkpt lat="23.064812" lon="113.271179">
        <time>2026-08-05T22:09:13Z</time>
      </trkpt>
      <trkpt lat="23.064766" lon="113.271274">
        <time>2026-08-05T22:09:18Z</time>
      </trkpt>
      <trkpt lat="23.064722" lon="113.271372">
        <time>2026-08-05T22:09:23Z</time>
      </trkpt>
      <trkpt lat="23.064649" lon="113.271519">
        <time>2026-08-05T22:09:28Z</time>
      </trkpt>
      <trkpt lat="23.064576" lon="113.271668">
        <time>2026-08-05T22:09:33Z</time>
      </trkpt>
      <trkpt lat="23.064526" lon="113.271771">
        <time>2026-08-05T22:09:38Z</time>
      </trkpt>
      <trkpt lat="23.064481" lon="113.271875">
        <time>2026-08-05T22:09:43Z</time>
      </trkpt>
      <trkpt lat="23.064413" lon="113.272033">
        <time>2026-08-05T22:09:48Z</time>
      </trkpt>
      <trkpt lat="23.064348" lon="113.272195">
        <time>2026-08-05T22:09:53Z</time>
      </trkpt>
      <trkpt lat="23.064334" lon="113.272317">
        <time>2026-08-05T22:09:58Z</time>
      </trkpt>
      <trkpt lat="23.064329" lon="113.272446">
        <time>2026-08-05T22:10:03Z</time>
      </trkpt>
      <trkpt lat="23.06434" lon="113.272644">
        <time>2026-08-05T22:10:08Z</time>
      </trkpt>
      <trkpt lat="23.064404" lon="113.272842">
        <time>2026-08-05T22:10:13Z</time>
      </trkpt>
      <trkpt lat="23.064447" lon="113.272971">
        <time>2026-08-05T22:10:18Z</time>
      </trkpt>
      <trkpt lat="23.064482" lon="113.273101">
        <time>2026-08-05T22:10:23Z</time>
      </trkpt>
      <trkpt lat="23.06445" lon="113.27329">
        <time>2026-08-05T22:10:28Z</time>
      </trkpt>
      <trkpt lat="23.06429" lon="113.273424">
        <time>2026-08-05T22:10:33Z</time>
      </trkpt>
      <trkpt lat="23.064171" lon="113.273505">
        <time>2026-08-05T22:10:38Z</time>
      </trkpt>
      <trkpt lat="23.064056" lon="113.27359">
        <time>2026-08-05T22:10:43Z</time>
      </trkpt>
      <trkpt lat="23.063904" lon="113.273729">
        <time>2026-08-05T22:10:48Z</time>
      </trkpt>
      <trkpt lat="23.063799" lon="113.273901">
        <time>2026-08-05T22:10:53Z</time>
      </trkpt>
      <trkpt lat="23.063736" lon="113.274025">
        <time>2026-08-05T22:10:58Z</time>
      </trkpt>
      <trkpt lat="23.06365" lon="113.274123">
        <time>2026-08-05T22:11:03Z</time>
      </trkpt>
      <trkpt lat="23.063507" lon="113.274268">
        <time>2026-08-05T22:11:08Z</time>
      </trkpt>
      <trkpt lat="23.063416" lon="113.27447">
        <time>2026-08-05T22:11:13Z</time>
      </trkpt>
      <trkpt lat="23.063373" lon="113.274612">
        <time>2026-08-05T22:11:18Z</time>
      </trkpt>
      <trkpt lat="23.063325" lon="113.274754">
        <time>2026-08-05T22:11:23Z</time>
      </trkpt>
      <trkpt lat="23.063248" lon="113.274976">
        <time>2026-08-05T22:11:28Z</time>
      </trkpt>
      <trkpt lat="23.063151" lon="113.275175">
        <time>2026-08-05T22:11:33Z</time>
      </trkpt>
      <trkpt lat="23.063078" lon="113.2753">
        <time>2026-08-05T22:11:38Z</time>
      </trkpt>
      <trkpt lat="23.063007" lon="113.27542">
        <time>2026-08-05T22:11:43Z</time>
      </trkpt>
      <trkpt lat="23.062884" lon="113.275588">
        <time>2026-08-05T22:11:48Z</time>
      </trkpt>
      <trkpt lat="23.062745" lon="113.275735">
        <time>2026-08-05T22:11:53Z</time>
      </trkpt>
      <trkpt lat="23.062652" lon="113.275832">
        <time>2026-08-05T22:11:58Z</time>
      </trkpt>
      <trkpt lat="23.062568" lon="113.275936">
        <time>2026-08-05T22:12:03Z</time>
      </trkpt>
      <trkpt lat="23.062464" lon="113.27611">
        <time>2026-08-05T22:12:08Z</time>
      </trkpt>
      <trkpt lat="23.062384" lon="113.2763">
        <time>2026-08-05T22:12:13Z</time>
      </trkpt>
      <trkpt lat="23.062336" lon="113.276424">
        <time>2026-08-05T22:12:18Z</time>
      </trkpt>
      <trkpt lat="23.062294" lon="113.276551">
        <time>2026-08-05T22:12:23Z</time>
      </trkpt>
      <trkpt lat="23.062239" lon="113.276744">
        <time>2026-08-05T22:12:28Z</time>
      </trkpt>
      <trkpt lat="23.062169" lon="113.276937">
        <time>2026-08-05T22:12:33Z</time>
      </trkpt>
      <trkpt lat="23.062121" lon="113.277062">
        <time>2026-08-05T22:12:38Z</time>
      </trkpt>
      <trkpt lat="23.062065" lon="113.277189">
        <time>2026-08-05T22:12:43Z</time>
      </trkpt>
      <trkpt lat="23.061983" lon="113.277382">
        <time>2026-08-05T22:12:48Z</time>
      </trkpt>
      <trkpt lat="23.061915" lon="113.277563">
        <time>2026-08-05T22:12:53Z</time>
      </trkpt>
      <trkpt lat="23.061872" lon="113.27769">
        <time>2026-08-05T22:12:58Z</time>
      </trkpt>
      <trkpt lat="23.061845" lon="113.277822">
        <time>2026-08-05T22:13:03Z</time>
      </trkpt>
      <trkpt lat="23.061844" lon="113.278028">
        <time>2026-08-05T22:13:08Z</time>
      </trkpt>
      <trkpt lat="23.061857" lon="113.278229">
        <time>2026-08-05T22:13:13Z</time>
      </trkpt>
      <trkpt lat="23.061865" lon="113.278362">
        <time>2026-08-05T22:13:18Z</time>
      </trkpt>
      <trkpt lat="23.061874" lon="113.278498">
        <time>2026-08-05T22:13:23Z</time>
      </trkpt>
      <trkpt lat="23.061868" lon="113.278703">
        <time>2026-08-05T22:13:28Z</time>
      </trkpt>
      <trkpt lat="23.061788" lon="113.278892">
        <time>2026-08-05T22:13:33Z</time>
      </trkpt>
      <trkpt lat="23.061714" lon="113.279012">
        <time>2026-08-05T22:13:38Z</time>
      </trkpt>
      <trkpt lat="23.061649" lon="113.279132">
        <time>2026-08-05T22:13:43Z</time>
      </trkpt>
      <trkpt lat="23.061567" lon="113.279317">
        <time>2026-08-05T22:13:48Z</time>
      </trkpt>
      <trkpt lat="23.061494" lon="113.279504">
        <time>2026-08-05T22:13:53Z</time>
      </trkpt>
      <trkpt lat="23.061443" lon="113.279635">
        <time>2026-08-05T22:13:58Z</time>
      </trkpt>
      <trkpt lat="23.06139" lon="113.279767">
        <time>2026-08-05T22:14:03Z</time>
      </trkpt>
      <trkpt lat="23.061308" lon="113.279958">
        <time>2026-08-05T22:14:08Z</time>
      </trkpt>
      <trkpt lat="23.061222" lon="113.280155">
        <time>2026-08-05T22:14:13Z</time>
      </trkpt>
      <trkpt lat="23.061165" lon="113.280285">
        <time>2026-08-05T22:14:18Z</time>
      </trkpt>
      <trkpt lat="23.061102" lon="113.280414">
        <time>2026-08-05T22:14:23Z</time>
      </trkpt>
      <trkpt lat="23.060995" lon="113.280591">
        <time>2026-08-05T22:14:28Z</time>
      </trkpt>
      <trkpt lat="23.06091" lon="113.280783">
        <time>2026-08-05T22:14:33Z</time>
      </trkpt>
      <trkpt lat="23.06086" lon="113.280916">
        <time>2026-08-05T22:14:38Z</time>
      </trkpt>
      <trkpt lat="23.060811" lon="113.281048">
        <time>2026-08-05T22:14:43Z</time>
      </trkpt>
      <trkpt lat="23.060733" lon="113.281236">
        <time>2026-08-05T22:14:48Z</time>
      </trkpt>
      <trkpt lat="23.060659" lon="113.281429">
        <time>2026-08-05T22:14:53Z</time>
      </trkpt>
      <trkpt lat="23.060607" lon="113.281556">
        <time>2026-08-05T22:14:58Z</time>
      </trkpt>
      <trkpt lat="23.060549" lon="113.281683">
        <time>2026-08-05T22:15:03Z</time>
      </trkpt>
      <trkpt lat="23.060463" lon="113.281875">
        <time>2026-08-05T22:15:08Z</time>
      </trkpt>
      <trkpt lat="23.060374" lon="113.282069">
        <time>2026-08-05T22:15:13Z</time>
      </trkpt>
      <trkpt lat="23.060317" lon="113.282197">
        <time>2026-08-05T22:15:18Z</time>
      </trkpt>
      <trkpt lat="23.06026" lon="113.282328">
        <time>2026-08-05T22:15:23Z</time>
      </trkpt>
      <trkpt lat="23.060181" lon="113.282518">
        <time>2026-08-05T22:15:28Z</time>
      </trkpt>
      <trkpt lat="23.060101" lon="113.282706">
        <time>2026-08-05T22:15:33Z</time>
      </trkpt>
      <trkpt lat="23.060047" lon="113.282835">
        <time>2026-08-05T22:15:38Z</time>
      </trkpt>
      <trkpt lat="23.059989" lon="113.282961">
        <time>2026-08-05T22:15:43Z</time>
      </trkpt>
      <trkpt lat="23.059902" lon="113.28316">
        <time>2026-08-05T22:15:48Z</time>
      </trkpt>
      <trkpt lat="23.059862" lon="113.28335">
        <time>2026-08-05T22:15:53Z</time>
      </trkpt>
      <trkpt lat="23.05995" lon="113.283363">
        <time>2026-08-05T22:15:58Z</time>
      </trkpt>
      <trkpt lat="23.060036" lon="113.283254">
        <time>2026-08-05T22:16:03Z</time>
      </trkpt>
      <trkpt lat="23.060145" lon="113.283065">
        <time>2026-08-05T22:16:08Z</time>
      </trkpt>
      <trkpt lat="23.060256" lon="113.282876">
        <time>2026-08-05T22:16:13Z</time>
      </trkpt>
      <trkpt lat="23.06032" lon="113.282741">
        <time>2026-08-05T22:16:18Z</time>
      </trkpt>
      <trkpt lat="23.060365" lon="113.282589">
        <time>2026-08-05T22:16:23Z</time>
      </trkpt>
      <trkpt lat="23.060433" lon="113.282362">
        <time>2026-08-05T22:16:28Z</time>
      </trkpt>
      <trkpt lat="23.060526" lon="113.282161">
        <time>2026-08-05T22:16:33Z</time>
      </trkpt>
      <trkpt lat="23.060578" lon="113.282023">
        <time>2026-08-05T22:16:38Z</time>
      </trkpt>
      <trkpt lat="23.060626" lon="113.281884">
        <time>2026-08-05T22:16:43Z</time>
      </trkpt>
      <trkpt lat="23.060712" lon="113.28169">
        <time>2026-08-05T22:16:48Z</time>
      </trkpt>
      <trkpt lat="23.060789" lon="113.28149">
        <time>2026-08-05T22:16:53Z</time>
      </trkpt>
      <trkpt lat="23.06084" lon="113.281348">
        <time>2026-08-05T22:16:58Z</time>
      </trkpt>
      <trkpt lat="23.060895" lon="113.281209">
        <time>2026-08-05T22:17:03Z</time>
      </trkpt>
      <trkpt lat="23.060975" lon="113.281006">
        <time>2026-08-05T22:17:08Z</time>
      </trkpt>
      <trkpt lat="23.061053" lon="113.28081">
        <time>2026-08-05T22:17:13Z</time>
      </trkpt>
      <trkpt lat="23.061112" lon="113.280676">
        <time>2026-08-05T22:17:18Z</time>
      </trkpt>
      <trkpt lat="23.061171" lon="113.280542">
        <time>2026-08-05T22:17:23Z</time>
      </trkpt>
      <trkpt lat="23.061254" lon="113.280345">
        <time>2026-08-05T22:17:28Z</time>
      </trkpt>
      <trkpt lat="23.061347" lon="113.280155">
        <time>2026-08-05T22:17:33Z</time>
      </trkpt>
      <trkpt lat="23.061408" lon="113.280028">
        <time>2026-08-05T22:17:38Z</time>
      </trkpt>
      <trkpt lat="23.061469" lon="113.279901">
        <time>2026-08-05T22:17:43Z</time>
      </trkpt>
      <trkpt lat="23.061548" lon="113.279715">
        <time>2026-08-05T22:17:48Z</time>
      </trkpt>
      <trkpt lat="23.061624" lon="113.27952">
        <time>2026-08-05T22:17:53Z</time>
      </trkpt>
      <trkpt lat="23.061675" lon="113.279382">
        <time>2026-08-05T22:17:58Z</time>
      </trkpt>
      <trkpt lat="23.061722" lon="113.279247">
        <time>2026-08-05T22:18:03Z</time>
      </trkpt>
      <trkpt lat="23.061806" lon="113.279054">
        <time>2026-08-05T22:18:08Z</time>
      </trkpt>
      <trkpt lat="23.061921" lon="113.278877">
        <time>2026-08-05T22:18:13Z</time>
      </trkpt>
      <trkpt lat="23.061977" lon="113.278746">
        <time>2026-08-05T22:18:18Z</time>
      </trkpt>
      <trkpt lat="23.061998" lon="113.278604">
        <time>2026-08-05T22:18:23Z</time>
      </trkpt>
      <trkpt lat="23.061986" lon="113.27838">
        <time>2026-08-05T22:18:28Z</time>
      </trkpt>
      <trkpt lat="23.061972" lon="113.278158">
        <time>2026-08-05T22:18:33Z</time>
      </trkpt>
      <trkpt lat="23.061966" lon="113.278003">
        <time>2026-08-05T22:18:38Z</time>
      </trkpt>
      <trkpt lat="23.061962" lon="113.277849">
        <time>2026-08-05T22:18:43Z</time>
      </trkpt>
      <trkpt lat="23.061997" lon="113.277627">
        <time>2026-08-05T22:18:48Z</time>
      </trkpt>
      <trkpt lat="23.06207" lon="113.277412">
        <time>2026-08-05T22:18:53Z</time>
      </trkpt>
      <trkpt lat="23.062124" lon="113.277273">
        <time>2026-08-05T22:18:58Z</time>
      </trkpt>
      <trkpt lat="23.062169" lon="113.277132">
        <time>2026-08-05T22:19:03Z</time>
      </trkpt>
      <trkpt lat="23.062239" lon="113.276932">
        <time>2026-08-05T22:19:08Z</time>
      </trkpt>
      <trkpt lat="23.062311" lon="113.276737">
        <time>2026-08-05T22:19:13Z</time>
      </trkpt>
      <trkpt lat="23.062366" lon="113.276605">
        <time>2026-08-05T22:19:18Z</time>
      </trkpt>
      <trkpt lat="23.062419" lon="113.276469">
        <time>2026-08-05T22:19:23Z</time>
      </trkpt>
      <trkpt lat="23.062502" lon="113.276267">
        <time>2026-08-05T22:19:28Z</time>
      </trkpt>
      <trkpt lat="23.062603" lon="113.27607">
        <time>2026-08-05T22:19:33Z</time>
      </trkpt>
      <trkpt lat="23.062682" lon="113.275947">
        <time>2026-08-05T22:19:38Z</time>
      </trkpt>
      <trkpt lat="23.062773" lon="113.275835">
        <time>2026-08-05T22:19:43Z</time>
      </trkpt>
      <trkpt lat="23.062927" lon="113.275684">
        <time>2026-08-05T22:19:48Z</time>
      </trkpt>
      <trkpt lat="23.063063" lon="113.275518">
        <time>2026-08-05T22:19:53Z</time>
      </trkpt>
      <trkpt lat="23.063135" lon="113.275396">
        <time>2026-08-05T22:19:58Z</time>
      </trkpt>
      <trkpt lat="23.063203" lon="113.275274">
        <time>2026-08-05T22:20:03Z</time>
      </trkpt>
      <trkpt lat="23.063315" lon="113.275097">
        <time>2026-08-05T22:20:08Z</time>
      </trkpt>
      <trkpt lat="23.063391" lon="113.274901">
        <time>2026-08-05T22:20:13Z</time>
      </trkpt>
      <trkpt lat="23.063433" lon="113.274769">
        <time>2026-08-05T22:20:18Z</time>
      </trkpt>
      <trkpt lat="23.063482" lon="113.274649">
        <time>2026-08-05T22:20:23Z</time>
      </trkpt>
      <trkpt lat="23.063557" lon="113.274459">
        <time>2026-08-05T22:20:28Z</time>
      </trkpt>
      <trkpt lat="23.063646" lon="113.274282">
        <time>2026-08-05T22:20:33Z</time>
      </trkpt>
      <trkpt lat="23.063741" lon="113.274182">
        <time>2026-08-05T22:20:38Z</time>
      </trkpt>
      <trkpt lat="23.063843" lon="113.274074">
        <time>2026-08-05T22:20:43Z</time>
      </trkpt>
      <trkpt lat="23.063947" lon="113.273891">
        <time>2026-08-05T22:20:48Z</time>
      </trkpt>
      <trkpt lat="23.06407" lon="113.273716">
        <time>2026-08-05T22:20:53Z</time>
      </trkpt>
      <trkpt lat="23.064179" lon="113.273625">
        <time>2026-08-05T22:20:58Z</time>
      </trkpt>
      <trkpt lat="23.064292" lon="113.273542">
        <time>2026-08-05T22:21:03Z</time>
      </trkpt>
      <trkpt lat="23.06445" lon="113.273416">
        <time>2026-08-05T22:21:08Z</time>
      </trkpt>
      <trkpt lat="23.064569" lon="113.273253">
        <time>2026-08-05T22:21:13Z</time>
      </trkpt>
      <trkpt lat="23.064589" lon="113.273105">
        <time>2026-08-05T22:21:18Z</time>
      </trkpt>
      <trkpt lat="23.064555" lon="113.272954">
        <time>2026-08-05T22:21:23Z</time>
      </trkpt>
      <trkpt lat="23.064481" lon="113.272738">
        <time>2026-08-05T22:21:28Z</time>
      </trkpt>
      <trkpt lat="23.064461" lon="113.272524">
        <time>2026-08-05T22:21:33Z</time>
      </trkpt>
      <trkpt lat="23.064511" lon="113.272386">
        <time>2026-08-05T22:21:38Z</time>
      </trkpt>
      <trkpt lat="23.06456" lon="113.272251">
        <time>2026-08-05T22:21:43Z</time>
      </trkpt>
      <trkpt lat="23.064641" lon="113.272051">
        <time>2026-08-05T22:21:48Z</time>
      </trkpt>
      <trkpt lat="23.064731" lon="113.271865">
        <time>2026-08-05T22:21:53Z</time>
      </trkpt>
      <trkpt lat="23.064793" lon="113.271742">
        <time>2026-08-05T22:21:58Z</time>
      </trkpt>
      <trkpt lat="23.064856" lon="113.271613">
        <time>2026-08-05T22:22:03Z</time>
      </trkpt>
      <trkpt lat="23.064956" lon="113.271424">
        <time>2026-08-05T22:22:08Z</time>
      </trkpt>
      <trkpt lat="23.065052" lon="113.271237">
        <time>2026-08-05T22:22:13Z</time>
      </trkpt>
      <trkpt lat="23.065112" lon="113.27111">
        <time>2026-08-05T22:22:18Z</time>
      </trkpt>
      <trkpt lat="23.065168" lon="113.270971">
        <time>2026-08-05T22:22:23Z</time>
      </trkpt>
      <trkpt lat="23.065247" lon="113.270759">
        <time>2026-08-05T22:22:28Z</time>
      </trkpt>
      <trkpt lat="23.065332" lon="113.27056">
        <time>2026-08-05T22:22:33Z</time>
      </trkpt>
      <trkpt lat="23.065394" lon="113.270431">
        <time>2026-08-05T22:22:38Z</time>
      </trkpt>
      <trkpt lat="23.065453" lon="113.270307">
        <time>2026-08-05T22:22:43Z</time>
      </trkpt>
      <trkpt lat="23.065538" lon="113.270111">
        <time>2026-08-05T22:22:48Z</time>
      </trkpt>
      <trkpt lat="23.06561" lon="113.269907">
        <time>2026-08-05T22:22:53Z</time>
      </trkpt>
      <trkpt lat="23.065653" lon="113.269771">
        <time>2026-08-05T22:22:58Z</time>
      </trkpt>
      <trkpt lat="23.065699" lon="113.269637">
        <time>2026-08-05T22:23:03Z</time>
      </trkpt>
      <trkpt lat="23.065752" lon="113.269419">
        <time>2026-08-05T22:23:08Z</time>
      </trkpt>
      <trkpt lat="23.065807" lon="113.269194">
        <time>2026-08-05T22:23:13Z</time>
      </trkpt>
      <trkpt lat="23.065855" lon="113.269056">
        <time>2026-08-05T22:23:18Z</time>
      </trkpt>
      <trkpt lat="23.065914" lon="113.268924">
        <time>2026-08-05T22:23:23Z</time>
      </trkpt>
      <trkpt lat="23.066002" lon="113.268723">
        <time>2026-08-05T22:23:28Z</time>
      </trkpt>
      <trkpt lat="23.066109" lon="113.268536">
        <time>2026-08-05T22:23:33Z</time>
      </trkpt>
      <trkpt lat="23.066187" lon="113.268414">
        <time>2026-08-05T22:23:38Z</time>
      </trkpt>
      <trkpt lat="23.066268" lon="113.268297">
        <time>2026-08-05T22:23:43Z</time>
      </trkpt>
      <trkpt lat="23.066421" lon="113.268159">
        <time>2026-08-05T22:23:48Z</time>
      </trkpt>
      <trkpt lat="23.06662" lon="113.268131">
        <time>2026-08-05T22:23:53Z</time>
      </trkpt>
      <trkpt lat="23.066672" lon="113.268063">
        <time>2026-08-05T22:23:58Z</time>
      </trkpt>
      <trkpt lat="23.066569" lon="113.26798">
        <time>2026-08-05T22:24:03Z</time>
      </trkpt>
      <trkpt lat="23.066343" lon="113.267968">
        <time>2026-08-05T22:24:08Z</time>
      </trkpt>
      <trkpt lat="23.066157" lon="113.268078">
        <time>2026-08-05T22:24:13Z</time>
      </trkpt>
      <trkpt lat="23.066061" lon="113.268187">
        <time>2026-08-05T22:24:18Z</time>
      </trkpt>
      <trkpt lat="23.065972" lon="113.26829">
        <time>2026-08-05T22:24:23Z</time>
      </trkpt>
      <trkpt lat="23.065852" lon="113.268456">
        <time>2026-08-05T22:24:28Z</time>
      </trkpt>
      <trkpt lat="23.065747" lon="113.268643">
        <time>2026-08-05T22:24:33Z</time>
      </trkpt>
      <trkpt lat="23.065692" lon="113.268778">
        <time>2026-08-05T22:24:38Z</time>
      </trkpt>
      <trkpt lat="23.065642" lon="113.268916">
        <time>2026-08-05T22:24:43Z</time>
      </trkpt>
      <trkpt lat="23.065574" lon="113.269124">
        <time>2026-08-05T22:24:48Z</time>
      </trkpt>
      <trkpt lat="23.065523" lon="113.269331">
        <time>2026-08-05T22:24:53Z</time>
      </trkpt>
      <trkpt lat="23.065493" lon="113.269469">
        <time>2026-08-05T22:24:58Z</time>
      </trkpt>
      <trkpt lat="23.065459" lon="113.269607">
        <time>2026-08-05T22:25:03Z</time>
      </trkpt>
      <trkpt lat="23.065413" lon="113.269815">
        <time>2026-08-05T22:25:08Z</time>
      </trkpt>
      <trkpt lat="23.065349" lon="113.270018">
        <time>2026-08-05T22:25:13Z</time>
      </trkpt>
      <trkpt lat="23.065295" lon="113.270146">
        <time>2026-08-05T22:25:18Z</time>
      </trkpt>
      <trkpt lat="23.065237" lon="113.270275">
        <time>2026-08-05T22:25:23Z</time>
      </trkpt>
      <trkpt lat="23.065144" lon="113.270479">
        <time>2026-08-05T22:25:28Z</time>
      </trkpt>
      <trkpt lat="23.065043" lon="113.270683">
        <time>2026-08-05T22:25:33Z</time>
      </trkpt>
      <trkpt lat="23.064984" lon="113.27082">
        <time>2026-08-05T22:25:38Z</time>
      </trkpt>
      <trkpt lat="23.064924" lon="113.270956">
        <time>2026-08-05T22:25:43Z</time>
      </trkpt>
      <trkpt lat="23.06483" lon="113.271146">
        <time>2026-08-05T22:25:48Z</time>
      </trkpt>
      <trkpt lat="23.064749" lon="113.271338">
        <time>2026-08-05T22:25:53Z</time>
      </trkpt>
      <trkpt lat="23.064691" lon="113.271471">
        <time>2026-08-05T22:25:58Z</time>
      </trkpt>
      <trkpt lat="23.06463" lon="113.271605">
        <time>2026-08-05T22:26:03Z</time>
      </trkpt>
      <trkpt lat="23.064536" lon="113.271804">
        <time>2026-08-05T22:26:08Z</time>
      </trkpt>
      <trkpt lat="23.064441" lon="113.272006">
        <time>2026-08-05T22:26:13Z</time>
      </trkpt>
      <trkpt lat="23.064377" lon="113.272141">
        <time>2026-08-05T22:26:18Z</time>
      </trkpt>
      <trkpt lat="23.06433" lon="113.272281">
        <time>2026-08-05T22:26:23Z</time>
      </trkpt>
      <trkpt lat="23.064306" lon="113.272492">
        <time>2026-08-05T22:26:28Z</time>
      </trkpt>
      <trkpt lat="23.064336" lon="113.272702">
        <time>2026-08-05T22:26:33Z</time>
      </trkpt>
      <trkpt lat="23.064381" lon="113.272835">
        <time>2026-08-05T22:26:38Z</time>
      </trkpt>
      <trkpt lat="23.064428" lon="113.272969">
        <time>2026-08-05T22:26:43Z</time>
      </trkpt>
      <trkpt lat="23.064474" lon="113.273168">
        <time>2026-08-05T22:26:48Z</time>
      </trkpt>
      <trkpt lat="23.064394" lon="113.273355">
        <time>2026-08-05T22:26:53Z</time>
      </trkpt>
      <trkpt lat="23.064279" lon="113.273451">
        <time>2026-08-05T22:26:58Z</time>
      </trkpt>
      <trkpt lat="23.064164" lon="113.273544">
        <time>2026-08-05T22:27:03Z</time>
      </trkpt>
      <trkpt lat="23.064" lon="113.273679">
        <time>2026-08-05T22:27:08Z</time>
      </trkpt>
      <trkpt lat="23.063869" lon="113.273841">
        <time>2026-08-05T22:27:13Z</time>
      </trkpt>
      <trkpt lat="23.063796" lon="113.27396">
        <time>2026-08-05T22:27:18Z</time>
      </trkpt>
      <trkpt lat="23.063718" lon="113.274075">
        <time>2026-08-05T22:27:23Z</time>
      </trkpt>
      <trkpt lat="23.063562" lon="113.274208">
        <time>2026-08-05T22:27:28Z</time>
      </trkpt>
      <trkpt lat="23.063469" lon="113.274399">
        <time>2026-08-05T22:27:33Z</time>
      </trkpt>
      <trkpt lat="23.063424" lon="113.274546">
        <time>2026-08-05T22:27:38Z</time>
      </trkpt>
      <trkpt lat="23.063379" lon="113.274686">
        <time>2026-08-05T22:27:43Z</time>
      </trkpt>
      <trkpt lat="23.063309" lon="113.274904">
        <time>2026-08-05T22:27:48Z</time>
      </trkpt>
      <trkpt lat="23.063219" lon="113.27511">
        <time>2026-08-05T22:27:53Z</time>
      </trkpt>
      <trkpt lat="23.063143" lon="113.275234">
        <time>2026-08-05T22:27:58Z</time>
      </trkpt>
      <trkpt lat="23.063068" lon="113.275353">
        <time>2026-08-05T22:28:03Z</time>
      </trkpt>
      <trkpt lat="23.06296" lon="113.275528">
        <time>2026-08-05T22:28:08Z</time>
      </trkpt>
      <trkpt lat="23.062824" lon="113.275689">
        <time>2026-08-05T22:28:13Z</time>
      </trkpt>
      <trkpt lat="23.062727" lon="113.275797">
        <time>2026-08-05T22:28:18Z</time>
      </trkpt>
      <trkpt lat="23.062627" lon="113.275903">
        <time>2026-08-05T22:28:23Z</time>
      </trkpt>
      <trkpt lat="23.062503" lon="113.276075">
        <time>2026-08-05T22:28:28Z</time>
      </trkpt>
      <trkpt lat="23.062411" lon="113.276268">
        <time>2026-08-05T22:28:33Z</time>
      </trkpt>
      <trkpt lat="23.062361" lon="113.276397">
        <time>2026-08-05T22:28:38Z</time>
      </trkpt>
      <trkpt lat="23.062314" lon="113.276532">
        <time>2026-08-05T22:28:43Z</time>
      </trkpt>
      <trkpt lat="23.062239" lon="113.276731">
        <time>2026-08-05T22:28:48Z</time>
      </trkpt>
      <trkpt lat="23.062168" lon="113.276931">
        <time>2026-08-05T22:28:53Z</time>
      </trkpt>
      <trkpt lat="23.062126" lon="113.277064">
        <time>2026-08-05T22:28:58Z</time>
      </trkpt>
      <trkpt lat="23.062072" lon="113.277204">
        <time>2026-08-05T22:29:03Z</time>
      </trkpt>
      <trkpt lat="23.061981" lon="113.277413">
        <time>2026-08-05T22:29:08Z</time>
      </trkpt>
      <trkpt lat="23.061901" lon="113.277621">
        <time>2026-08-05T22:29:13Z</time>
      </trkpt>
      <trkpt lat="23.061861" lon="113.277764">
        <time>2026-08-05T22:29:18Z</time>
      </trkpt>
      <trkpt lat="23.061843" lon="113.277911">
        <time>2026-08-05T22:29:23Z</time>
      </trkpt>
      <trkpt lat="23.061855" lon="113.27813">
        <time>2026-08-05T22:29:28Z</time>
      </trkpt>
      <trkpt lat="23.061871" lon="113.278346">
        <time>2026-08-05T22:29:33Z</time>
      </trkpt>
      <trkpt lat="23.061878" lon="113.278488">
        <time>2026-08-05T22:29:38Z</time>
      </trkpt>
      <trkpt lat="23.06188" lon="113.278633">
        <time>2026-08-05T22:29:43Z</time>
      </trkpt>
      <trkpt lat="23.061824" lon="113.278841">
        <time>2026-08-05T22:29:48Z</time>
      </trkpt>
      <trkpt lat="23.061718" lon="113.279029">
        <time>2026-08-05T22:29:53Z</time>
      </trkpt>
      <trkpt lat="23.061647" lon="113.27915">
        <time>2026-08-05T22:29:58Z</time>
      </trkpt>
      <trkpt lat="23.061591" lon="113.279276">
        <time>2026-08-05T22:30:03Z</time>
      </trkpt>
      <trkpt lat="23.061512" lon="113.279465">
        <time>2026-08-05T22:30:08Z</time>
      </trkpt>
      <trkpt lat="23.061421" lon="113.279659">
        <time>2026-08-05T22:30:13Z</time>
      </trkpt>
      <trkpt lat="23.061363" lon="113.279793">
        <time>2026-08-05T22:30:18Z</time>
      </trkpt>
      <trkpt lat="23.061306" lon="113.279927">
        <time>2026-08-05T22:30:23Z</time>
      </trkpt>
      <trkpt lat="23.061219" lon="113.280124">
        <time>2026-08-05T22:30:28Z</time>
      </trkpt>
      <trkpt lat="23.061139" lon="113.280318">
        <time>2026-08-05T22:30:33Z</time>
      </trkpt>
      <trkpt lat="23.061085" lon="113.280448">
        <time>2026-08-05T22:30:38Z</time>
      </trkpt>
      <trkpt lat="23.061033" lon="113.280576">
        <time>2026-08-05T22:30:43Z</time>
      </trkpt>
      <trkpt lat="23.060945" lon="113.280773">
        <time>2026-08-05T22:30:48Z</time>
      </trkpt>
      <trkpt lat="23.060858" lon="113.280973">
        <time>2026-08-05T22:30:53Z</time>
      </trkpt>
      <trkpt lat="23.0608" lon="113.281106">
        <time>2026-08-05T22:30:58Z</time>
      </trkpt>
      <trkpt lat="23.060741" lon="113.281231">
        <time>2026-08-05T22:31:03Z</time>
      </trkpt>
      <trkpt lat="23.060659" lon="113.281419">
        <time>2026-08-05T22:31:08Z</time>
      </trkpt>
      <trkpt lat="23.060579" lon="113.281608">
        <time>2026-08-05T22:31:13Z</time>
      </trkpt>
      <trkpt lat="23.060522" lon="113.281735">
        <time>2026-08-05T22:31:18Z</time>
      </trkpt>
      <trkpt lat="23.060464" lon="113.281864">
        <time>2026-08-05T22:31:23Z</time>
      </trkpt>
      <trkpt lat="23.060387" lon="113.282068">
        <time>2026-08-05T22:31:28Z</time>
      </trkpt>
      <trkpt lat="23.060309" lon="113.282271">
        <time>2026-08-05T22:31:33Z</time>
      </trkpt>
      <trkpt lat="23.060258" lon="113.282404">
        <time>2026-08-05T22:31:38Z</time>
      </trkpt>
      <trkpt lat="23.060203" lon="113.282533">
        <time>2026-08-05T22:31:43Z</time>
      </trkpt>
      <trkpt lat="23.060118" lon="113.282725">
        <time>2026-08-05T22:31:48Z</time>
      </trkpt>
      <trkpt lat="23.060034" lon="113.282914">
        <time>2026-08-05T22:31:53Z</time>
      </trkpt>
      <trkpt lat="23.059972" lon="113.283043">
        <time>2026-08-05T22:31:58Z</time>
      </trkpt>
      <trkpt lat="23.059913" lon="113.283171">
        <time>2026-08-05T22:32:03Z</time>
      </trkpt>
      <trkpt lat="23.059862" lon="113.283344">
        <time>2026-08-05T22:32:08Z</time>
      </trkpt>
      <trkpt lat="23.05998" lon="113.283284">
        <time>2026-08-05T22:32:13Z</time>
      </trkpt>
      <trkpt lat="23.060058" lon="113.283137">
        <time>2026-08-05T22:32:18Z</time>
      </trkpt>
      <trkpt lat="23.060135" lon="113.282993">
        <time>2026-08-05T22:32:23Z</time>
      </trkpt>
      <trkpt lat="23.06024" lon="113.282788">
        <time>2026-08-05T22:32:28Z</time>
      </trkpt>
      <trkpt lat="23.060324" lon="113.282589">
        <time>2026-08-05T22:32:33Z</time>
      </trkpt>
      <trkpt lat="23.060365" lon="113.282457">
        <time>2026-08-05T22:32:38Z</time>
      </trkpt>
      <trkpt lat="23.060405" lon="113.28233">
        <time>2026-08-05T22:32:43Z</time>
      </trkpt>
      <trkpt lat="23.060478" lon="113.282143">
        <time>2026-08-05T22:32:48Z</time>
      </trkpt>
      <trkpt lat="23.060562" lon="113.281968">
        <time>2026-08-05T22:32:53Z</time>
      </trkpt>
      <trkpt lat="23.060612" lon="113.281851">
        <time>2026-08-05T22:32:58Z</time>
      </trkpt>
      <trkpt lat="23.060665" lon="113.281727">
        <time>2026-08-05T22:33:03Z</time>
      </trkpt>
      <trkpt lat="23.06074" lon="113.281535">
        <time>2026-08-05T22:33:08Z</time>
      </trkpt>
      <trkpt lat="23.060817" lon="113.281343">
        <time>2026-08-05T22:33:13Z</time>
      </trkpt>
      <trkpt lat="23.060873" lon="113.281216">
        <time>2026-08-05T22:33:18Z</time>
      </trkpt>
      <trkpt lat="23.060932" lon="113.28109">
        <time>2026-08-05T22:33:23Z</time>
      </trkpt>
      <trkpt lat="23.061018" lon="113.280896">
        <time>2026-08-05T22:33:28Z</time>
      </trkpt>
      <trkpt lat="23.061105" lon="113.280704">
        <time>2026-08-05T22:33:33Z</time>
      </trkpt>
      <trkpt lat="23.061165" lon="113.280577">
        <time>2026-08-05T22:33:38Z</time>
      </trkpt>
      <trkpt lat="23.061222" lon="113.280451">
        <time>2026-08-05T22:33:43Z</time>
      </trkpt>
      <trkpt lat="23.061297" lon="113.280267">
        <time>2026-08-05T22:33:48Z</time>
      </trkpt>
      <trkpt lat="23.061387" lon="113.280092">
        <time>2026-08-05T22:33:53Z</time>
      </trkpt>
      <trkpt lat="23.061445" lon="113.279978">
        <time>2026-08-05T22:33:58Z</time>
      </trkpt>
      <trkpt lat="23.061496" lon="113.279856">
        <time>2026-08-05T22:34:03Z</time>
      </trkpt>
      <trkpt lat="23.061573" lon="113.279676">
        <time>2026-08-05T22:34:08Z</time>
      </trkpt>
      <trkpt lat="23.061661" lon="113.279497">
        <time>2026-08-05T22:34:13Z</time>
      </trkpt>
      <trkpt lat="23.06171" lon="113.279376">
        <time>2026-08-05T22:34:18Z</time>
      </trkpt>
      <trkpt lat="23.061748" lon="113.279248">
        <time>2026-08-05T22:34:23Z</time>
      </trkpt>
      <trkpt lat="23.061823" lon="113.279065">
        <time>2026-08-05T22:34:28Z</time>
      </trkpt>
      <trkpt lat="23.061926" lon="113.278893">
        <time>2026-08-05T22:34:33Z</time>
      </trkpt>
      <trkpt lat="23.061975" lon="113.278767">
        <time>2026-08-05T22:34:38Z</time>
      </trkpt>
      <trkpt lat="23.061985" lon="113.27863">
        <time>2026-08-05T22:34:43Z</time>
      </trkpt>
      <trkpt lat="23.061969" lon="113.278419">
        <time>2026-08-05T22:34:48Z</time>
      </trkpt>
      <trkpt lat="23.061955" lon="113.278205">
        <time>2026-08-05T22:34:53Z</time>
      </trkpt>
      <trkpt lat="23.06195" lon="113.278062">
        <time>2026-08-05T22:34:58Z</time>
      </trkpt>
      <trkpt lat="23.061946" lon="113.277922">
        <time>2026-08-05T22:35:03Z</time>
      </trkpt>
      <trkpt lat="23.061966" lon="113.277713">
        <time>2026-08-05T22:35:08Z</time>
      </trkpt>
      <trkpt lat="23.062034" lon="113.277512">
        <time>2026-08-05T22:35:13Z</time>
      </trkpt>
      <trkpt lat="23.062086" lon="113.277383">
        <time>2026-08-05T22:35:18Z</time>
      </trkpt>
      <trkpt lat="23.062134" lon="113.277255">
        <time>2026-08-05T22:35:23Z</time>
      </trkpt>
      <trkpt lat="23.062205" lon="113.277063">
        <time>2026-08-05T22:35:28Z</time>
      </trkpt>
      <trkpt lat="23.062277" lon="113.276872">
        <time>2026-08-05T22:35:33Z</time>
      </trkpt>
      <trkpt lat="23.062325" lon="113.27674">
        <time>2026-08-05T22:35:38Z</time>
      </trkpt>
      <trkpt lat="23.062374" lon="113.276608">
        <time>2026-08-05T22:35:43Z</time>
      </trkpt>
      <trkpt lat="23.062449" lon="113.276408">
        <time>2026-08-05T22:35:48Z</time>
      </trkpt>
      <trkpt lat="23.062529" lon="113.276213">
        <time>2026-08-05T22:35:53Z</time>
      </trkpt>
      <trkpt lat="23.062595" lon="113.276091">
        <time>2026-08-05T22:35:58Z</time>
      </trkpt>
      <trkpt lat="23.06267" lon="113.275977">
        <time>2026-08-05T22:36:03Z</time>
      </trkpt>
      <trkpt lat="23.062797" lon="113.275821">
        <time>2026-08-05T22:36:08Z</time>
      </trkpt>
      <trkpt lat="23.06294" lon="113.275679">
        <time>2026-08-05T22:36:13Z</time>
      </trkpt>
      <trkpt lat="23.063025" lon="113.275571">
        <time>2026-08-05T22:36:18Z</time>
      </trkpt>
      <trkpt lat="23.063105" lon="113.275461">
        <time>2026-08-05T22:36:23Z</time>
      </trkpt>
      <trkpt lat="23.063218" lon="113.275289">
        <time>2026-08-05T22:36:28Z</time>
      </trkpt>
      <trkpt lat="23.063313" lon="113.275109">
        <time>2026-08-05T22:36:33Z</time>
      </trkpt>
      <trkpt lat="23.063368" lon="113.274987">
        <time>2026-08-05T22:36:38Z</time>
      </trkpt>
      <trkpt lat="23.063414" lon="113.274863">
        <time>2026-08-05T22:36:43Z</time>
      </trkpt>
      <trkpt lat="23.063476" lon="113.274688">
        <time>2026-08-05T22:36:48Z</time>
      </trkpt>
      <trkpt lat="23.063538" lon="113.274532">
        <time>2026-08-05T22:36:53Z</time>
      </trkpt>
      <trkpt lat="23.063602" lon="113.274409">
        <time>2026-08-05T22:36:58Z</time>
      </trkpt>
      <trkpt lat="23.063689" lon="113.274283">
        <time>2026-08-05T22:37:03Z</time>
      </trkpt>
      <trkpt lat="23.06384" lon="113.274125">
        <time>2026-08-05T22:37:08Z</time>
      </trkpt>
      <trkpt lat="23.063947" lon="113.273937">
        <time>2026-08-05T22:37:13Z</time>
      </trkpt>
      <trkpt lat="23.06402" lon="113.273817">
        <time>2026-08-05T22:37:18Z</time>
      </trkpt>
      <trkpt lat="23.064109" lon="113.273709">
        <time>2026-08-05T22:37:23Z</time>
      </trkpt>
      <trkpt lat="23.064264" lon="113.273579">
        <time>2026-08-05T22:37:28Z</time>
      </trkpt>
      <trkpt lat="23.064423" lon="113.27344">
        <time>2026-08-05T22:37:33Z</time>
      </trkpt>
      <trkpt lat="23.064517" lon="113.27334">
        <time>2026-08-05T22:37:38Z</time>
      </trkpt>
      <trkpt lat="23.06458" lon="113.273215">
        <time>2026-08-05T22:37:43Z</time>
      </trkpt>
      <trkpt lat="23.064566" lon="113.272994">
        <time>2026-08-05T22:37:48Z</time>
      </trkpt>
      <trkpt lat="23.064494" lon="113.272784">
        <time>2026-08-05T22:37:53Z</time>
      </trkpt>
      <trkpt lat="23.064452" lon="113.272646">
        <time>2026-08-05T22:37:58Z</time>
      </trkpt>
      <trkpt lat="23.064461" lon="113.272513">
        <time>2026-08-05T22:38:03Z</time>
      </trkpt>
      <trkpt lat="23.064529" lon="113.272303">
        <time>2026-08-05T22:38:08Z</time>
      </trkpt>
      <trkpt lat="23.0646" lon="113.272105">
        <time>2026-08-05T22:38:13Z</time>
      </trkpt>
      <trkpt lat="23.064659" lon="113.271981">
        <time>2026-08-05T22:38:18Z</time>
      </trkpt>
      <trkpt lat="23.06472" lon="113.271861">
        <time>2026-08-05T22:38:23Z</time>
      </trkpt>
      <trkpt lat="23.064812" lon="113.271677">
        <time>2026-08-05T22:38:28Z</time>
      </trkpt>
      <trkpt lat="23.064902" lon="113.271487">
        <time>2026-08-05T22:38:33Z</time>
      </trkpt>
      <trkpt lat="23.064968" lon="113.271369">
        <time>2026-08-05T22:38:38Z</time>
      </trkpt>
      <trkpt lat="23.065033" lon="113.271251">
        <time>2026-08-05T22:38:43Z</time>
      </trkpt>
      <trkpt lat="23.065116" lon="113.271054">
        <time>2026-08-05T22:38:48Z</time>
      </trkpt>
      <trkpt lat="23.065201" lon="113.270851">
        <time>2026-08-05T22:38:53Z</time>
      </trkpt>
      <trkpt lat="23.065257" lon="113.27072">
        <time>2026-08-05T22:38:58Z</time>
      </trkpt>
      <trkpt lat="23.065317" lon="113.270594">
        <time>2026-08-05T22:39:03Z</time>
      </trkpt>
      <trkpt lat="23.065405" lon="113.270404">
        <time>2026-08-05T22:39:08Z</time>
      </trkpt>
      <trkpt lat="23.065493" lon="113.270212">
        <time>2026-08-05T22:39:13Z</time>
      </trkpt>
      <trkpt lat="23.065543" lon="113.270084">
        <time>2026-08-05T22:39:18Z</time>
      </trkpt>
      <trkpt lat="23.065593" lon="113.269955">
        <time>2026-08-05T22:39:23Z</time>
      </trkpt>
      <trkpt lat="23.065664" lon="113.269764">
        <time>2026-08-05T22:39:28Z</time>
      </trkpt>
      <trkpt lat="23.065729" lon="113.269572">
        <time>2026-08-05T22:39:33Z</time>
      </trkpt>
      <trkpt lat="23.065763" lon="113.269436">
        <time>2026-08-05T22:39:38Z</time>
      </trkpt>
      <trkpt lat="23.065788" lon="113.269299">
        <time>2026-08-05T22:39:43Z</time>
      </trkpt>
      <trkpt lat="23.065844" lon="113.269103">
        <time>2026-08-05T22:39:48Z</time>
      </trkpt>
      <trkpt lat="23.065918" lon="113.268914">
        <time>2026-08-05T22:39:53Z</time>
      </trkpt>
      <trkpt lat="23.065976" lon="113.268793">
        <time>2026-08-05T22:39:58Z</time>
      </trkpt>
      <trkpt lat="23.066042" lon="113.268671">
        <time>2026-08-05T22:40:03Z</time>
      </trkpt>
      <trkpt lat="23.066141" lon="113.268495">
        <time>2026-08-05T22:40:08Z</time>
      </trkpt>
      <trkpt lat="23.066247" lon="113.268325">
        <time>2026-08-05T22:40:13Z</time>
      </trkpt>
      <trkpt lat="23.066334" lon="113.268213">
        <time>2026-08-05T22:40:18Z</time>
      </trkpt>
      <trkpt lat="23.06644" lon="113.268143">
        <time>2026-08-05T22:40:23Z</time>
      </trkpt>
      <trkpt lat="23.066624" lon="113.268134">
        <time>2026-08-05T22:40:28Z</time>
      </trkpt>
      <trkpt lat="23.066595" lon="113.268019">
        <time>2026-08-05T22:40:33Z</time>
      </trkpt>
      <trkpt lat="23.066447" lon="113.267985">
        <time>2026-08-05T22:40:38Z</time>
      </trkpt>
      <trkpt lat="23.066301" lon="113.267995">
        <time>2026-08-05T22:40:43Z</time>
      </trkpt>
      <trkpt lat="23.066125" lon="113.268092">
        <time>2026-08-05T22:40:48Z</time>
      </trkpt>
      <trkpt lat="23.065997" lon="113.268254">
        <time>2026-08-05T22:40:53Z</time>
      </trkpt>
      <trkpt lat="23.065915" lon="113.268366">
        <time>2026-08-05T22:40:58Z</time>
      </trkpt>
      <trkpt lat="23.065837" lon="113.268482">
        <time>2026-08-05T22:41:03Z</time>
      </trkpt>
      <trkpt lat="23.06574" lon="113.268659">
        <time>2026-08-05T22:41:08Z</time>
      </trkpt>
      <trkpt lat="23.065669" lon="113.268856">
        <time>2026-08-05T22:41:13Z</time>
      </trkpt>
      <trkpt lat="23.065624" lon="113.268988">
        <time>2026-08-05T22:41:18Z</time>
      </trkpt>
      <trkpt lat="23.065585" lon="113.269123">
        <time>2026-08-05T22:41:23Z</time>
      </trkpt>
      <trkpt lat="23.065533" lon="113.269324">
        <time>2026-08-05T22:41:28Z</time>
      </trkpt>
      <trkpt lat="23.065483" lon="113.269529">
        <time>2026-08-05T22:41:33Z</time>
      </trkpt>
      <trkpt lat="23.065454" lon="113.269665">
        <time>2026-08-05T22:41:38Z</time>
      </trkpt>
      <trkpt lat="23.065418" lon="113.269797">
        <time>2026-08-05T22:41:43Z</time>
      </trkpt>
      <trkpt lat="23.065345" lon="113.269992">
        <time>2026-08-05T22:41:48Z</time>
      </trkpt>
      <trkpt lat="23.065263" lon="113.27019">
        <time>2026-08-05T22:41:53Z</time>
      </trkpt>
      <trkpt lat="23.0652" lon="113.270319">
        <time>2026-08-05T22:41:58Z</time>
      </trkpt>
      <trkpt lat="23.065139" lon="113.27045">
        <time>2026-08-05T22:42:03Z</time>
      </trkpt>
      <trkpt lat="23.065053" lon="113.270646">
        <time>2026-08-05T22:42:08Z</time>
      </trkpt>
      <trkpt lat="23.064964" lon="113.270842">
        <time>2026-08-05T22:42:13Z</time>
      </trkpt>
      <trkpt lat="23.064911" lon="113.27097">
        <time>2026-08-05T22:42:18Z</time>
      </trkpt>
      <trkpt lat="23.064854" lon="113.271093">
        <time>2026-08-05T22:42:23Z</time>
      </trkpt>
      <trkpt lat="23.064774" lon="113.271285">
        <time>2026-08-05T22:42:28Z</time>
      </trkpt>
      <trkpt lat="23.064687" lon="113.27148">
        <time>2026-08-05T22:42:33Z</time>
      </trkpt>
      <trkpt lat="23.064626" lon="113.271609">
        <time>2026-08-05T22:42:38Z</time>
      </trkpt>
      <trkpt lat="23.064566" lon="113.271739">
        <time>2026-08-05T22:42:43Z</time>
      </trkpt>
      <trkpt lat="23.064482" lon="113.271939">
        <time>2026-08-05T22:42:48Z</time>
      </trkpt>
      <trkpt lat="23.064389" lon="113.27213">
        <time>2026-08-05T22:42:53Z</time>
      </trkpt>
      <trkpt lat="23.064347" lon="113.272263">
        <time>2026-08-05T22:42:58Z</time>
      </trkpt>
      <trkpt lat="23.064332" lon="113.272403">
        <time>2026-08-05T22:43:03Z</time>
      </trkpt>
      <trkpt lat="23.064328" lon="113.272617">
        <time>2026-08-05T22:43:08Z</time>
      </trkpt>
      <trkpt lat="23.064388" lon="113.272812">
        <time>2026-08-05T22:43:13Z</time>
      </trkpt>
      <trkpt lat="23.064433" lon="113.27294">
        <time>2026-08-05T22:43:18Z</time>
      </trkpt>
      <trkpt lat="23.064468" lon="113.273067">
        <time>2026-08-05T22:43:23Z</time>
      </trkpt>
      <trkpt lat="23.064457" lon="113.273258">
        <time>2026-08-05T22:43:28Z</time>
      </trkpt>
      <trkpt lat="23.064318" lon="113.273415">
        <time>2026-08-05T22:43:33Z</time>
      </trkpt>
      <trkpt lat="23.064194" lon="113.273501">
        <time>2026-08-05T22:43:38Z</time>
      </trkpt>
      <trkpt lat="23.064078" lon="113.273581">
        <time>2026-08-05T22:43:43Z</time>
      </trkpt>
      <trkpt lat="23.06393" lon="113.273714">
        <time>2026-08-05T22:43:48Z</time>
      </trkpt>
      <trkpt lat="23.063823" lon="113.273878">
        <time>2026-08-05T22:43:53Z</time>
      </trkpt>
      <trkpt lat="23.06376" lon="113.273996">
        <time>2026-08-05T22:43:58Z</time>
      </trkpt>
      <trkpt lat="23.063673" lon="113.274099">
        <time>2026-08-05T22:44:03Z</time>
      </trkpt>
      <trkpt lat="23.063534" lon="113.274237">
        <time>2026-08-05T22:44:08Z</time>
      </trkpt>
      <trkpt lat="23.06345" lon="113.274437">
        <time>2026-08-05T22:44:13Z</time>
      </trkpt>
      <trkpt lat="23.063396" lon="113.274576">
        <time>2026-08-05T22:44:18Z</time>
      </trkpt>
      <trkpt lat="23.063337" lon="113.274723">
        <time>2026-08-05T22:44:23Z</time>
      </trkpt>
      <trkpt lat="23.063266" lon="113.274941">
        <time>2026-08-05T22:44:28Z</time>
      </trkpt>
      <trkpt lat="23.063186" lon="113.275136">
        <time>2026-08-05T22:44:33Z</time>
      </trkpt>
      <trkpt lat="23.063119" lon="113.275255">
        <time>2026-08-05T22:44:38Z</time>
      </trkpt>
      <trkpt lat="23.063053" lon="113.275373">
        <time>2026-08-05T22:44:43Z</time>
      </trkpt>
      <trkpt lat="23.062939" lon="113.275544">
        <time>2026-08-05T22:44:48Z</time>
      </trkpt>
      <trkpt lat="23.062802" lon="113.275705">
        <time>2026-08-05T22:44:53Z</time>
      </trkpt>
      <trkpt lat="23.062696" lon="113.275806">
        <time>2026-08-05T22:44:58Z</time>
      </trkpt>
      <trkpt lat="23.062599" lon="113.275914">
        <time>2026-08-05T22:45:03Z</time>
      </trkpt>
      <trkpt lat="23.062483" lon="113.276088">
        <time>2026-08-05T22:45:08Z</time>
      </trkpt>
      <trkpt lat="23.062393" lon="113.276277">
        <time>2026-08-05T22:45:13Z</time>
      </trkpt>
      <trkpt lat="23.062343" lon="113.276415">
        <time>2026-08-05T22:45:18Z</time>
      </trkpt>
      <trkpt lat="23.062294" lon="113.276557">
        <time>2026-08-05T22:45:23Z</time>
      </trkpt>
      <trkpt lat="23.062219" lon="113.276764">
        <time>2026-08-05T22:45:28Z</time>
      </trkpt>
      <trkpt lat="23.062147" lon="113.276961">
        <time>2026-08-05T22:45:33Z</time>
      </trkpt>
      <trkpt lat="23.062097" lon="113.277095">
        <time>2026-08-05T22:45:38Z</time>
      </trkpt>
      <trkpt lat="23.062043" lon="113.277239">
        <time>2026-08-05T22:45:43Z</time>
      </trkpt>
      <trkpt lat="23.06196" lon="113.277458">
        <time>2026-08-05T22:45:48Z</time>
      </trkpt>
      <trkpt lat="23.061883" lon="113.277674">
        <time>2026-08-05T22:45:53Z</time>
      </trkpt>
      <trkpt lat="23.061851" lon="113.277829">
        <time>2026-08-05T22:45:58Z</time>
      </trkpt>
      <trkpt lat="23.061846" lon="113.277976">
        <time>2026-08-05T22:46:03Z</time>
      </trkpt>
      <trkpt lat="23.06186" lon="113.27818">
        <time>2026-08-05T22:46:08Z</time>
      </trkpt>
      <trkpt lat="23.061871" lon="113.278385">
        <time>2026-08-05T22:46:13Z</time>
      </trkpt>
      <trkpt lat="23.061876" lon="113.278519">
        <time>2026-08-05T22:46:18Z</time>
      </trkpt>
      <trkpt lat="23.061876" lon="113.278632">
        <time>2026-08-05T22:46:23Z</time>
      </trkpt>
      <trkpt lat="23.061905" lon="113.278689">
        <time>2026-08-05T22:46:28Z</time>
      </trkpt>
      <trkpt lat="23.061968" lon="113.278634">
        <time>2026-08-05T22:46:33Z</time>
      </trkpt>
      <trkpt lat="23.061981" lon="113.278579">
        <time>2026-08-05T22:46:38Z</time>
      </trkpt>
      <trkpt lat="23.061983" lon="113.278522">
        <time>2026-08-05T22:46:43Z</time>
      </trkpt>
      <trkpt lat="23.061982" lon="113.278443">
        <time>2026-08-05T22:46:48Z</time>
      </trkpt>
      <trkpt lat="23.061987" lon="113.278364">
        <time>2026-08-05T22:46:53Z</time>
      </trkpt>
      <trkpt lat="23.061987" lon="113.278309">
        <time>2026-08-05T22:46:58Z</time>
      </trkpt>
      <trkpt lat="23.061984" lon="113.278252">
        <time>2026-08-05T22:47:03Z</time>
      </trkpt>
      <trkpt lat="23.061978" lon="113.278175">
        <time>2026-08-05T22:47:08Z</time>
      </trkpt>
      <trkpt lat="23.061982" lon="113.278098">
        <time>2026-08-05T22:47:13Z</time>
      </trkpt>
      <trkpt lat="23.061978" lon="113.278045">
        <time>2026-08-05T22:47:18Z</time>
      </trkpt>
      <trkpt lat="23.061974" lon="113.277993">
        <time>2026-08-05T22:47:23Z</time>
      </trkpt>
      <trkpt lat="23.061966" lon="113.277912">
        <time>2026-08-05T22:47:28Z</time>
      </trkpt>
      <trkpt lat="23.06197" lon="113.277839">
        <time>2026-08-05T22:47:33Z</time>
      </trkpt>
      <trkpt lat="23.061976" lon="113.277793">
        <time>2026-08-05T22:47:38Z</time>
      </trkpt>
      <trkpt lat="23.061987" lon="113.277746">
        <time>2026-08-05T22:47:43Z</time>
      </trkpt>
      <trkpt lat="23.062001" lon="113.27767">
        <time>2026-08-05T22:47:48Z</time>
      </trkpt>
      <trkpt lat="23.062025" lon="113.277599">
        <time>2026-08-05T22:47:53Z</time>
      </trkpt>
      <trkpt lat="23.062037" lon="113.277553">
        <time>2026-08-05T22:47:58Z</time>
      </trkpt>
      <trkpt lat="23.062052" lon="113.277509">
        <time>2026-08-05T22:48:03Z</time>
      </trkpt>
      <trkpt lat="23.062077" lon="113.277443">
        <time>2026-08-05T22:48:08Z</time>
      </trkpt>
      <trkpt lat="23.062099" lon="113.277373">
        <time>2026-08-05T22:48:13Z</time>
      </trkpt>
      <trkpt lat="23.062114" lon="113.277328">
        <time>2026-08-05T22:48:18Z</time>
      </trkpt>
      <trkpt lat="23.062132" lon="113.277281">
        <time>2026-08-05T22:48:23Z</time>
      </trkpt>
      <trkpt lat="23.062158" lon="113.277212">
        <time>2026-08-05T22:48:28Z</time>
      </trkpt>
      <trkpt lat="23.062174" lon="113.277145">
        <time>2026-08-05T22:48:33Z</time>
      </trkpt>
      <trkpt lat="23.06219" lon="113.277102">
        <time>2026-08-05T22:48:38Z</time>
      </trkpt>
      <trkpt lat="23.062217" lon="113.27706">
        <time>2026-08-05T22:48:43Z</time>
      </trkpt>
      <trkpt lat="23.062242" lon="113.276989">
        <time>2026-08-05T22:48:48Z</time>
      </trkpt>
      <trkpt lat="23.062268" lon="113.276922">
        <time>2026-08-05T22:48:53Z</time>
      </trkpt>
      <trkpt lat="23.062283" lon="113.276878">
        <time>2026-08-05T22:48:58Z</time>
      </trkpt>
      <trkpt lat="23.062299" lon="113.276833">
        <time>2026-08-05T22:49:03Z</time>
      </trkpt>
      <trkpt lat="23.062325" lon="113.276769">
        <time>2026-08-05T22:49:08Z</time>
      </trkpt>
      <trkpt lat="23.06235" lon="113.276685">
        <time>2026-08-05T22:49:13Z</time>
      </trkpt>
      <trkpt lat="23.062382" lon="113.276605">
        <time>2026-08-05T22:49:18Z</time>
      </trkpt>
      <trkpt lat="23.062418" lon="113.27652">
        <time>2026-08-05T22:49:23Z</time>
      </trkpt>
      <trkpt lat="23.062456" lon="113.276402">
        <time>2026-08-05T22:49:28Z</time>
      </trkpt>
      <trkpt lat="23.062494" lon="113.276282">
        <time>2026-08-05T22:49:33Z</time>
      </trkpt>
      <trkpt lat="23.062527" lon="113.276203">
        <time>2026-08-05T22:49:38Z</time>
      </trkpt>
      <trkpt lat="23.06257" lon="113.27613">
        <time>2026-08-05T22:49:43Z</time>
      </trkpt>
      <trkpt lat="23.062643" lon="113.276025">
        <time>2026-08-05T22:49:48Z</time>
      </trkpt>
      <trkpt lat="23.062717" lon="113.275927">
        <time>2026-08-05T22:49:53Z</time>
      </trkpt>
      <trkpt lat="23.062768" lon="113.275866">
        <time>2026-08-05T22:49:58Z</time>
      </trkpt>
      <trkpt lat="23.06282" lon="113.27581">
        <time>2026-08-05T22:50:03Z</time>
      </trkpt>
      <trkpt lat="23.062901" lon="113.275723">
        <time>2026-08-05T22:50:08Z</time>
      </trkpt>
      <trkpt lat="23.062981" lon="113.275645">
        <time>2026-08-05T22:50:13Z</time>
      </trkpt>
      <trkpt lat="23.06303" lon="113.275589">
        <time>2026-08-05T22:50:18Z</time>
      </trkpt>
      <trkpt lat="23.063071" lon="113.275528">
        <time>2026-08-05T22:50:23Z</time>
      </trkpt>
      <trkpt lat="23.063128" lon="113.275424">
        <time>2026-08-05T22:50:28Z</time>
      </trkpt>
      <trkpt lat="23.063193" lon="113.275315">
        <time>2026-08-05T22:50:33Z</time>
      </trkpt>
      <trkpt lat="23.063238" lon="113.275243">
        <time>2026-08-05T22:50:38Z</time>
      </trkpt>
      <trkpt lat="23.063285" lon="113.275172">
        <time>2026-08-05T22:50:43Z</time>
      </trkpt>
      <trkpt lat="23.063353" lon="113.275057">
        <time>2026-08-05T22:50:48Z</time>
      </trkpt>
      <trkpt lat="23.063392" lon="113.274931">
        <time>2026-08-05T22:50:53Z</time>
      </trkpt>
      <trkpt lat="23.063411" lon="113.274853">
        <time>2026-08-05T22:50:58Z</time>
      </trkpt>
      <trkpt lat="23.063441" lon="113.27477">
        <time>2026-08-05T22:51:03Z</time>
      </trkpt>
      <trkpt lat="23.063492" lon="113.274646">
        <time>2026-08-05T22:51:08Z</time>
      </trkpt>
      <trkpt lat="23.063533" lon="113.274519">
        <time>2026-08-05T22:51:13Z</time>
      </trkpt>
      <trkpt lat="23.063556" lon="113.274438">
        <time>2026-08-05T22:51:18Z</time>
      </trkpt>
      <trkpt lat="23.063588" lon="113.274357">
        <time>2026-08-05T22:51:23Z</time>
      </trkpt>
      <trkpt lat="23.063659" lon="113.274258">
        <time>2026-08-05T22:51:28Z</time>
      </trkpt>
      <trkpt lat="23.063763" lon="113.274181">
        <time>2026-08-05T22:51:33Z</time>
      </trkpt>
      <trkpt lat="23.063819" lon="113.274121">
        <time>2026-08-05T22:51:38Z</time>
      </trkpt>
      <trkpt lat="23.063869" lon="113.274053">
        <time>2026-08-05T22:51:43Z</time>
      </trkpt>
      <trkpt lat="23.063938" lon="113.273935">
        <time>2026-08-05T22:51:48Z</time>
      </trkpt>
      <trkpt lat="23.064003" lon="113.27382">
        <time>2026-08-05T22:51:53Z</time>
      </trkpt>
      <trkpt lat="23.064059" lon="113.273753">
        <time>2026-08-05T22:51:58Z</time>
      </trkpt>
      <trkpt lat="23.064121" lon="113.273694">
        <time>2026-08-05T22:52:03Z</time>
      </trkpt>
      <trkpt lat="23.064219" lon="113.273623">
        <time>2026-08-05T22:52:08Z</time>
      </trkpt>
      <trkpt lat="23.064316" lon="113.273542">
        <time>2026-08-05T22:52:13Z</time>
      </trkpt>
      <trkpt lat="23.064383" lon="113.273489">
        <time>2026-08-05T22:52:18Z</time>
      </trkpt>
      <trkpt lat="23.064445" lon="113.273433">
        <time>2026-08-05T22:52:23Z</time>
      </trkpt>
      <trkpt lat="23.064531" lon="113.273342">
        <time>2026-08-05T22:52:28Z</time>
      </trkpt>
      <trkpt lat="23.064589" lon="113.273223">
        <time>2026-08-05T22:52:33Z</time>
      </trkpt>
      <trkpt lat="23.064596" lon="113.273133">
        <time>2026-08-05T22:52:38Z</time>
      </trkpt>
      <trkpt lat="23.06458" lon="113.273042">
        <time>2026-08-05T22:52:43Z</time>
      </trkpt>
      <trkpt lat="23.064536" lon="113.272906">
        <time>2026-08-05T22:52:48Z</time>
      </trkpt>
      <trkpt lat="23.064487" lon="113.272779">
        <time>2026-08-05T22:52:53Z</time>
      </trkpt>
      <trkpt lat="23.064469" lon="113.272685">
        <time>2026-08-05T22:52:58Z</time>
      </trkpt>
      <trkpt lat="23.064465" lon="113.272593">
        <time>2026-08-05T22:53:03Z</time>
      </trkpt>
      <trkpt lat="23.064518" lon="113.272472">
        <time>2026-08-05T22:53:08Z</time>
      </trkpt>
      <trkpt lat="23.064558" lon="113.272338">
        <time>2026-08-05T22:53:13Z</time>
      </trkpt>
      <trkpt lat="23.064572" lon="113.272244">
        <time>2026-08-05T22:53:18Z</time>
      </trkpt>
      <trkpt lat="23.064591" lon="113.272151">
        <time>2026-08-05T22:53:23Z</time>
      </trkpt>
      <trkpt lat="23.064646" lon="113.272036">
        <time>2026-08-05T22:53:28Z</time>
      </trkpt>
      <trkpt lat="23.0647" lon="113.271925">
        <time>2026-08-05T22:53:33Z</time>
      </trkpt>
      <trkpt lat="23.064734" lon="113.271851">
        <time>2026-08-05T22:53:38Z</time>
      </trkpt>
      <trkpt lat="23.06477" lon="113.271781">
        <time>2026-08-05T22:53:43Z</time>
      </trkpt>
      <trkpt lat="23.064831" lon="113.271668">
        <time>2026-08-05T22:53:48Z</time>
      </trkpt>
      <trkpt lat="23.064887" lon="113.271543">
        <time>2026-08-05T22:53:53Z</time>
      </trkpt>
      <trkpt lat="23.064915" lon="113.271459">
        <time>2026-08-05T22:53:58Z</time>
      </trkpt>
      <trkpt lat="23.064951" lon="113.271381">
        <time>2026-08-05T22:54:03Z</time>
      </trkpt>
      <trkpt lat="23.065008" lon="113.271273">
        <time>2026-08-05T22:54:08Z</time>
      </trkpt>
      <trkpt lat="23.065054" lon="113.271163">
        <time>2026-08-05T22:54:13Z</time>
      </trkpt>
      <trkpt lat="23.065099" lon="113.271081">
        <time>2026-08-05T22:54:18Z</time>
      </trkpt>
      <trkpt lat="23.065144" lon="113.271003">
        <time>2026-08-05T22:54:23Z</time>
      </trkpt>
      <trkpt lat="23.065195" lon="113.270884">
        <time>2026-08-05T22:54:28Z</time>
      </trkpt>
      <trkpt lat="23.065246" lon="113.270772">
        <time>2026-08-05T22:54:33Z</time>
      </trkpt>
      <trkpt lat="23.065282" lon="113.270701">
        <time>2026-08-05T22:54:38Z</time>
      </trkpt>
      <trkpt lat="23.065315" lon="113.270633">
        <time>2026-08-05T22:54:43Z</time>
      </trkpt>
      <trkpt lat="23.065365" lon="113.270554">
        <time>2026-08-05T22:54:48Z</time>
      </trkpt>
      <trkpt lat="23.065413" lon="113.270451">
        <time>2026-08-05T22:54:53Z</time>
      </trkpt>
      <trkpt lat="23.065442" lon="113.270373">
        <time>2026-08-05T22:54:58Z</time>
      </trkpt>
      <trkpt lat="23.065474" lon="113.270296">
        <time>2026-08-05T22:55:03Z</time>
      </trkpt>
      <trkpt lat="23.065523" lon="113.270176">
        <time>2026-08-05T22:55:08Z</time>
      </trkpt>
      <trkpt lat="23.065562" lon="113.27006">
        <time>2026-08-05T22:55:13Z</time>
      </trkpt>
      <trkpt lat="23.065586" lon="113.269979">
        <time>2026-08-05T22:55:18Z</time>
      </trkpt>
      <trkpt lat="23.065607" lon="113.269898">
        <time>2026-08-05T22:55:23Z</time>
      </trkpt>
      <trkpt lat="23.065641" lon="113.269776">
        <time>2026-08-05T22:55:28Z</time>
      </trkpt>
      <trkpt lat="23.065694" lon="113.269656">
        <time>2026-08-05T22:55:33Z</time>
      </trkpt>
      <trkpt lat="23.065729" lon="113.269567">
        <time>2026-08-05T22:55:38Z</time>
      </trkpt>
      <trkpt lat="23.06575" lon="113.269474">
        <time>2026-08-05T22:55:43Z</time>
      </trkpt>
      <trkpt lat="23.065781" lon="113.26933">
        <time>2026-08-05T22:55:48Z</time>
      </trkpt>
      <trkpt lat="23.065812" lon="113.269198">
        <time>2026-08-05T22:55:53Z</time>
      </trkpt>
      <trkpt lat="23.06584" lon="113.269115">
        <time>2026-08-05T22:55:58Z</time>
      </trkpt>
      <trkpt lat="23.065881" lon="113.269032">
        <time>2026-08-05T22:56:03Z</time>
      </trkpt>
      <trkpt lat="23.065935" lon="113.268911">
        <time>2026-08-05T22:56:08Z</time>
      </trkpt>
      <trkpt lat="23.065982" lon="113.2688">
        <time>2026-08-05T22:56:13Z</time>
      </trkpt>
      <trkpt lat="23.066019" lon="113.268727">
        <time>2026-08-05T22:56:18Z</time>
      </trkpt>
      <trkpt lat="23.066058" lon="113.268654">
        <time>2026-08-05T22:56:23Z</time>
      </trkpt>
      <trkpt lat="23.066109" lon="113.268546">
        <time>2026-08-05T22:56:28Z</time>
      </trkpt>
      <trkpt lat="23.066169" lon="113.268451">
        <time>2026-08-05T22:56:33Z</time>
      </trkpt>
      <trkpt lat="23.066214" lon="113.268387">
        <time>2026-08-05T22:56:38Z</time>
      </trkpt>
      <trkpt lat="23.066261" lon="113.268321">
        <time>2026-08-05T22:56:43Z</time>
      </trkpt>
      <trkpt lat="23.066342" lon="113.268225">
        <time>2026-08-05T22:56:48Z</time>
      </trkpt>
      <trkpt lat="23.066448" lon="113.26816">
        <time>2026-08-05T22:56:53Z</time>
      </trkpt>
      <trkpt lat="23.066528" lon="113.268147">
        <time>2026-08-05T22:56:58Z</time>
      </trkpt>
      <trkpt lat="23.066605" lon="113.268154">
        <time>2026-08-05T22:57:03Z</time>
      </trkpt>
      <trkpt lat="23.066715" lon="113.268172">
        <time>2026-08-05T22:57:08Z</time>
      </trkpt>
      <trkpt lat="23.066837" lon="113.268178">
        <time>2026-08-05T22:57:13Z</time>
      </trkpt>
      <trkpt lat="23.066915" lon="113.268179">
        <time>2026-08-05T22:57:18Z</time>
      </trkpt>
      <trkpt lat="23.066987" lon="113.268189">
        <time>2026-08-05T22:57:23Z</time>
      </trkpt>
      <trkpt lat="23.06708" lon="113.268231">
        <time>2026-08-05T22:57:28Z</time>
      </trkpt>
      <trkpt lat="23.067177" lon="113.268282">
        <time>2026-08-05T22:57:33Z</time>
      </trkpt>
      <trkpt lat="23.067254" lon="113.268319">
        <time>2026-08-05T22:57:38Z</time>
      </trkpt>
      <trkpt lat="23.067329" lon="113.268356">
        <time>2026-08-05T22:57:43Z</time>
      </trkpt>
      <trkpt lat="23.067429" lon="113.268406">
        <time>2026-08-05T22:57:48Z</time>
      </trkpt>
      <trkpt lat="23.067539" lon="113.268472">
        <time>2026-08-05T22:57:53Z</time>
      </trkpt>
      <trkpt lat="23.067624" lon="113.268517">
        <time>2026-08-05T22:57:58Z</time>
      </trkpt>
      <trkpt lat="23.067712" lon="113.26856">
        <time>2026-08-05T22:58:03Z</time>
      </trkpt>
      <trkpt lat="23.06784" lon="113.268625">
        <time>2026-08-05T22:58:08Z</time>
      </trkpt>
      <trkpt lat="23.067951" lon="113.268693">
        <time>2026-08-05T22:58:13Z</time>
      </trkpt>
      <trkpt lat="23.06802" lon="113.268729">
        <time>2026-08-05T22:58:18Z</time>
      </trkpt>
      <trkpt lat="23.068093" lon="113.268759">
        <time>2026-08-05T22:58:23Z</time>
      </trkpt>
      <trkpt lat="23.068194" lon="113.268797">
        <time>2026-08-05T22:58:28Z</time>
      </trkpt>
      <trkpt lat="23.068288" lon="113.268829">
        <time>2026-08-05T22:58:33Z</time>
      </trkpt>
      <trkpt lat="23.068357" lon="113.268861">
        <time>2026-08-05T22:58:38Z</time>
      </trkpt>
      <trkpt lat="23.068426" lon="113.268909">
        <time>2026-08-05T22:58:43Z</time>
      </trkpt>
      <trkpt lat="23.068553" lon="113.268975">
        <time>2026-08-05T22:58:48Z</time>
      </trkpt>
      <trkpt lat="23.06867" lon="113.269048">
        <time>2026-08-05T22:58:53Z</time>
      </trkpt>
      <trkpt lat="23.068724" lon="113.269095">
        <time>2026-08-05T22:58:58Z</time>
      </trkpt>
      <trkpt lat="23.068796" lon="113.269125">
        <time>2026-08-05T22:59:03Z</time>
      </trkpt>
      <trkpt lat="23.068927" lon="113.269143">
        <time>2026-08-05T22:59:08Z</time>
      </trkpt>
      <trkpt lat="23.069055" lon="113.269177">
        <time>2026-08-05T22:59:13Z</time>
      </trkpt>
      <trkpt lat="23.069126" lon="113.26922">
        <time>2026-08-05T22:59:18Z</time>
      </trkpt>
      <trkpt lat="23.069186" lon="113.269272">
        <time>2026-08-05T22:59:23Z</time>
      </trkpt>
      <trkpt lat="23.069292" lon="113.269323">
        <time>2026-08-05T22:59:28Z</time>
      </trkpt>
      <trkpt lat="23.069396" lon="113.269381">
        <time>2026-08-05T22:59:33Z</time>
      </trkpt>
      <trkpt lat="23.069469" lon="113.26942">
        <time>2026-08-05T22:59:38Z</time>
      </trkpt>
      <trkpt lat="23.069536" lon="113.269467">
        <time>2026-08-05T22:59:43Z</time>
      </trkpt>
      <trkpt lat="23.069641" lon="113.269528">
        <time>2026-08-05T22:59:48Z</time>
      </trkpt>
      <trkpt lat="23.069752" lon="113.269583">
        <time>2026-08-05T22:59:53Z</time>
      </trkpt>
      <trkpt lat="23.069822" lon="113.269617">
        <time>2026-08-05T22:59:58Z</time>
      </trkpt>
      <trkpt lat="23.069896" lon="113.269649">
        <time>2026-08-05T23:00:03Z</time>
      </trkpt>
      <trkpt lat="23.070013" lon="113.269706">
        <time>2026-08-05T23:00:08Z</time>
      </trkpt>
      <trkpt lat="23.070119" lon="113.269775">
        <time>2026-08-05T23:00:13Z</time>
      </trkpt>
      <trkpt lat="23.070194" lon="113.26982">
        <time>2026-08-05T23:00:18Z</time>
      </trkpt>
      <trkpt lat="23.070264" lon="113.269857">
        <time>2026-08-05T23:00:23Z</time>
      </trkpt>
      <trkpt lat="23.070371" lon="113.269895">
        <time>2026-08-05T23:00:28Z</time>
      </trkpt>
      <trkpt lat="23.070497" lon="113.269936">
        <time>2026-08-05T23:00:33Z</time>
      </trkpt>
      <trkpt lat="23.070588" lon="113.269951">
        <time>2026-08-05T23:00:38Z</time>
      </trkpt>
      <trkpt lat="23.070652" lon="113.269987">
        <time>2026-08-05T23:00:43Z</time>
      </trkpt>
      <trkpt lat="23.070746" lon="113.270055">
        <time>2026-08-05T23:00:48Z</time>
      </trkpt>
      <trkpt lat="23.07086" lon="113.270109">
        <time>2026-08-05T23:00:53Z</time>
      </trkpt>
      <trkpt lat="23.070926" lon="113.270151">
        <time>2026-08-05T23:00:58Z</time>
      </trkpt>
      <trkpt lat="23.070994" lon="113.270193">
        <time>2026-08-05T23:01:03Z</time>
      </trkpt>
      <trkpt lat="23.071098" lon="113.270241">
        <time>2026-08-05T23:01:08Z</time>
      </trkpt>
      <trkpt lat="23.07119" lon="113.270313">
        <time>2026-08-05T23:01:13Z</time>
      </trkpt>
      <trkpt lat="23.071268" lon="113.270351">
        <time>2026-08-05T23:01:18Z</time>
      </trkpt>
      <trkpt lat="23.071349" lon="113.270377">
        <time>2026-08-05T23:01:23Z</time>
      </trkpt>
      <trkpt lat="23.071482" lon="113.270406">
        <time>2026-08-05T23:01:28Z</time>
      </trkpt>
      <trkpt lat="23.071595" lon="113.270481">
        <time>2026-08-05T23:01:33Z</time>
      </trkpt>
      <trkpt lat="23.07166" lon="113.270519">
        <time>2026-08-05T23:01:38Z</time>
      </trkpt>
      <trkpt lat="23.07173" lon="113.270548">
        <time>2026-08-05T23:01:43Z</time>
      </trkpt>
      <trkpt lat="23.071852" lon="113.270598">
        <time>2026-08-05T23:01:48Z</time>
      </trkpt>
      <trkpt lat="23.071927" lon="113.270686">
        <time>2026-08-05T23:01:53Z</time>
      </trkpt>
      <trkpt lat="23.071985" lon="113.270712">
        <time>2026-08-05T23:01:58Z</time>
      </trkpt>
      <trkpt lat="23.072046" lon="113.270735">
        <time>2026-08-05T23:02:03Z</time>
      </trkpt>
      <trkpt lat="23.072159" lon="113.270794">
        <time>2026-08-05T23:02:08Z</time>
      </trkpt>
      <trkpt lat="23.072279" lon="113.270829">
        <time>2026-08-05T23:02:13Z</time>
      </trkpt>
      <trkpt lat="23.072351" lon="113.270862">
        <time>2026-08-05T23:02:18Z</time>
      </trkpt>
      <trkpt lat="23.07242" lon="113.270907">
        <time>2026-08-05T23:02:23Z</time>
      </trkpt>
      <trkpt lat="23.072538" lon="113.270977">
        <time>2026-08-05T23:02:28Z</time>
      </trkpt>
      <trkpt lat="23.072667" lon="113.271028">
        <time>2026-08-05T23:02:33Z</time>
      </trkpt>
      <trkpt lat="23.07275" lon="113.27106">
        <time>2026-08-05T23:02:38Z</time>
      </trkpt>
      <trkpt lat="23.072833" lon="113.271067">
        <time>2026-08-05T23:02:43Z</time>
      </trkpt>
      <trkpt lat="23.072941" lon="113.271096">
        <time>2026-08-05T23:02:48Z</time>
      </trkpt>
      <trkpt lat="23.073069" lon="113.271143">
        <time>2026-08-05T23:02:53Z</time>
      </trkpt>
      <trkpt lat="23.073149" lon="113.271172">
        <time>2026-08-05T23:02:58Z</time>
      </trkpt>
      <trkpt lat="23.073223" lon="113.271203">
        <time>2026-08-05T23:03:03Z</time>
      </trkpt>
      <trkpt lat="23.073267" lon="113.271284">
        <time>2026-08-05T23:03:08Z</time>
      </trkpt>
      <trkpt lat="23.07337" lon="113.271354">
        <time>2026-08-05T23:03:13Z</time>
      </trkpt>
      <trkpt lat="23.073441" lon="113.271402">
        <time>2026-08-05T23:03:18Z</time>
      </trkpt>
      <trkpt lat="23.073512" lon="113.271441">
        <time>2026-08-05T23:03:23Z</time>
      </trkpt>
      <trkpt lat="23.073613" lon="113.271513">
        <time>2026-08-05T23:03:28Z</time>
      </trkpt>
      <trkpt lat="23.073732" lon="113.271583">
        <time>2026-08-05T23:03:33Z</time>
      </trkpt>
      <trkpt lat="23.073808" lon="113.27162">
        <time>2026-08-05T23:03:38Z</time>
      </trkpt>
      <trkpt lat="23.073879" lon="113.271656">
        <time>2026-08-05T23:03:43Z</time>
      </trkpt>
      <trkpt lat="23.073978" lon="113.271709">
        <time>2026-08-05T23:03:48Z</time>
      </trkpt>
      <trkpt lat="23.074082" lon="113.271773">
        <time>2026-08-05T23:03:53Z</time>
      </trkpt>
      <trkpt lat="23.074089" lon="113.271835">
        <time>2026-08-05T23:03:58Z</time>
      </trkpt>
      <trkpt lat="23.074058" lon="113.271907">
        <time>2026-08-05T23:04:03Z</time>
      </trkpt>
      <trkpt lat="23.074009" lon="113.272012">
        <time>2026-08-05T23:04:08Z</time>
      </trkpt>
      <trkpt lat="23.073974" lon="113.272128">
        <time>2026-08-05T23:04:13Z</time>
      </trkpt>
      <trkpt lat="23.07391" lon="113.27225">
        <time>2026-08-05T23:04:19Z</time>
      </trkpt>
    </trkseg>
  </trk>
</gpx>