<?xml version="1.0" encoding="UTF-8"?>
<gpx xmlns="http://www.topografix.com/GPX/1/1" xmlns:gpxtpx="http://www.garmin.com/xmlschemas/TrackPointExtension/v1" xmlns:xsi="http://www.w3.org/2001/XMLSchema-instance" xsi:schemaLocation="http://www.topografix.com/GPX/1/1 http://www.topografix.com/GPX/1/1/gpx.xsd" version="1.1" creator="gpx.py -- https://github.com/tkrajina/gpxpy">
  <trk>
    <name>gpx from joyrun</name>
    <trkseg>
      <trkpt lat="23.076088" lon="113.272692">
        <time>2026-08-10T22:10:16Z</time>
      </trkpt>
      <trkpt lat="23.076068" lon="113.272695">
        <time>2026-08-10T22:10:21Z</time>
      </trkpt>
      <trkpt lat="23.076019" lon="113.272697">
        <time>2026-08-10T22:10:26Z</time>
      </trkpt>
      <trkpt lat="23.075863" lon="113.272675">
        <time>2026-08-10T22:10:31Z</time>
      </trkpt>
      <trkpt lat="23.075724" lon="113.272602">
        <time>2026-08-10T22:10:36Z</time>
      </trkpt>
      <trkpt lat="23.075629" lon="113.272551">
        <time>2026-08-10T22:10:41Z</time>
      </trkpt>
      <trkpt lat="23.075529" lon="113.272514">
        <time>2026-08-10T22:10:46Z</time>
      </trkpt>
      <trkpt lat="23.075353" lon="113.272503">
        <time>2026-08-10T22:10:51Z</time>
      </trkpt>
      <trkpt lat="23.075203" lon="113.272439">
        <time>2026-08-10T22:10:56Z</time>
      </trkpt>
      <trkpt lat="23.075121" lon="113.272374">
        <time>2026-08-10T22:11:01Z</time>
      </trkpt>
      <trkpt lat="23.07504" lon="113.272305">
        <time>2026-08-10T22:11:06Z</time>
      </trkpt>
      <trkpt lat="23.07491" lon="113.272215">
        <time>2026-08-10T22:11:11Z</time>
      </trkpt>
      <trkpt lat="23.074772" lon="113.272116">
        <time>2026-08-10T22:11:16Z</time>
      </trkpt>
      <trkpt lat="23.074678" lon="113.27205">
        <time>2026-08-10T22:11:21Z</time>
      </trkpt>
      <trkpt lat="23.074577" lon="113.272006">
        <time>2026-08-10T22:11:26Z</time>
      </trkpt>
      <trkpt lat="23.074446" lon="113.27203">
        <time>2026-08-10T22:11:31Z</time>
      </trkpt>
      <trkpt lat="23.074331" lon="113.272149">
        <time>2026-08-10T22:11:36Z</time>
      </trkpt>
      <trkpt lat="23.074284" lon="113.272246">
        <time>2026-08-10T22:11:41Z</time>
      </trkpt>
      <trkpt lat="23.074238" lon="113.272344">
        <time>2026-08-10T22:11:46Z</time>
      </trkpt>
      <trkpt lat="23.074173" lon="113.272495">
        <time>2026-08-10T22:11:51Z</time>
      </trkpt>
      <trkpt lat="23.074107" lon="113.272658">
        <time>2026-08-10T22:11:56Z</time>
      </trkpt>
      <trkpt lat="23.074077" lon="113.272763">
        <time>2026-08-10T22:12:01Z</time>
      </trkpt>
      <trkpt lat="23.074045" lon="113.272864">
        <time>2026-08-10T22:12:06Z</time>
      </trkpt>
      <trkpt lat="23.073979" lon="113.273012">
        <time>2026-08-10T22:12:11Z</time>
      </trkpt>
      <trkpt lat="23.073924" lon="113.273139">
        <time>2026-08-10T22:12:16Z</time>
      </trkpt>
      <trkpt lat="23.073934" lon="113.273093">
        <time>2026-08-10T22:12:21Z</time>
      </trkpt>
      <trkpt lat="23.073939" lon="113.27301">
        <time>2026-08-10T22:12:26Z</time>
      </trkpt>
      <trkpt lat="23.073815" lon="113.272951">
        <time>2026-08-10T22:12:31Z</time>
      </trkpt>
      <trkpt lat="23.07371" lon="113.27287">
        <time>2026-08-10T22:12:36Z</time>
      </trkpt>
      <trkpt lat="23.073706" lon="113.272789">
        <time>2026-08-10T22:12:41Z</time>
      </trkpt>
      <trkpt lat="23.073744" lon="113.272699">
        <time>2026-08-10T22:12:46Z</time>
      </trkpt>
      <trkpt lat="23.073798" lon="113.272564">
        <time>2026-08-10T22:12:51Z</time>
      </trkpt>
      <trkpt lat="23.073839" lon="113.272434">
        <time>2026-08-10T22:12:56Z</time>
      </trkpt>
      <trkpt lat="23.073886" lon="113.272347">
        <time>2026-08-10T22:13:01Z</time>
      </trkpt>
      <trkpt lat="23.073932" lon="113.272255">
        <time>2026-08-10T22:13:06Z</time>
      </trkpt>
      <trkpt lat="23.074003" lon="113.27212">
        <time>2026-08-10T22:13:11Z</time>
      </trkpt>
      <trkpt lat="23.074063" lon="113.271994">
        <time>2026-08-10T22:13:16Z</time>
      </trkpt>
      <trkpt lat="23.074096" lon="113.27191">
        <time>2026-08-10T22:13:21Z</time>
      </trkpt>
      <trkpt lat="23.074126" lon="113.271817">
        <time>2026-08-10T22:13:26Z</time>
      </trkpt>
      <trkpt lat="23.074061" lon="113.271713">
        <time>2026-08-10T22:13:31Z</time>
      </trkpt>
      <trkpt lat="23.073946" lon="113.271636">
        <time>2026-08-10T22:13:36Z</time>
      </trkpt>
      <trkpt lat="23.07386" lon="113.271601">
        <time>2026-08-10T22:13:41Z</time>
      </trkpt>
      <trkpt lat="23.073769" lon="113.271558">
        <time>2026-08-10T22:13:46Z</time>
      </trkpt>
      <trkpt lat="23.073623" lon="113.271495">
        <time>2026-08-10T22:13:51Z</time>
      </trkpt>
      <trkpt lat="23.073483" lon="113.271443">
        <time>2026-08-10T22:13:56Z</time>
      </trkpt>
      <trkpt lat="23.073391" lon="113.271397">
        <time>2026-08-10T22:14:01Z</time>
      </trkpt>
      <trkpt lat="23.073304" lon="113.271332">
        <time>2026-08-10T22:14:06Z</time>
      </trkpt>
      <trkpt lat="23.073196" lon="113.271203">
        <time>2026-08-10T22:14:11Z</time>
      </trkpt>
      <trkpt lat="23.073057" lon="113.271135">
        <time>2026-08-10T22:14:16Z</time>
      </trkpt>
      <trkpt lat="23.072967" lon="113.271083">
        <time>2026-08-10T22:14:21Z</time>
      </trkpt>
      <trkpt lat="23.072879" lon="113.271036">
        <time>2026-08-10T22:14:26Z</time>
      </trkpt>
      <trkpt lat="23.072733" lon="113.270961">
        <time>2026-08-10T22:14:31Z</time>
      </trkpt>
      <trkpt lat="23.072584" lon="113.270899">
        <time>2026-08-10T22:14:36Z</time>
      </trkpt>
      <trkpt lat="23.072475" lon="113.270845">
        <time>2026-08-10T22:14:41Z</time>
      </trkpt>
      <trkpt lat="23.072375" lon="113.270789">
        <time>2026-08-10T22:14:46Z</time>
      </trkpt>
      <trkpt lat="23.072223" lon="113.270704">
        <time>2026-08-10T22:14:51Z</time>
      </trkpt>
      <trkpt lat="23.07207" lon="113.270625">
        <time>2026-08-10T22:14:56Z</time>
      </trkpt>
      <trkpt lat="23.071964" lon="113.270569">
        <time>2026-08-10T22:15:01Z</time>
      </trkpt>
      <trkpt lat="23.071861" lon="113.27051">
        <time>2026-08-10T22:15:06Z</time>
      </trkpt>
      <trkpt lat="23.071704" lon="113.270444">
        <time>2026-08-10T22:15:11Z</time>
      </trkpt>
      <trkpt lat="23.07156" lon="113.270394">
        <time>2026-08-10T22:15:16Z</time>
      </trkpt>
      <trkpt lat="23.071469" lon="113.270343">
        <time>2026-08-10T22:15:21Z</time>
      </trkpt>
      <trkpt lat="23.071372" lon="113.270309">
        <time>2026-08-10T22:15:26Z</time>
      </trkpt>
      <trkpt lat="23.071224" lon="113.270253">
        <time>2026-08-10T22:15:31Z</time>
      </trkpt>
      <trkpt lat="23.071092" lon="113.270206">
        <time>2026-08-10T22:15:36Z</time>
      </trkpt>
      <trkpt lat="23.071007" lon="113.270173">
        <time>2026-08-10T22:15:41Z</time>
      </trkpt>
      <trkpt lat="23.070914" lon="113.270121">
        <time>2026-08-10T22:15:46Z</time>
      </trkpt>
      <trkpt lat="23.070769" lon="113.27006">
        <time>2026-08-10T22:15:51Z</time>
      </trkpt>
      <trkpt lat="23.070623" lon="113.26997">
        <time>2026-08-10T22:15:56Z</time>
      </trkpt>
      <trkpt lat="23.070515" lon="113.269917">
        <time>2026-08-10T22:16:01Z</time>
      </trkpt>
      <trkpt lat="23.070406" lon="113.269887">
        <time>2026-08-10T22:16:06Z</time>
      </trkpt>
      <trkpt lat="23.070252" lon="113.269827">
        <time>2026-08-10T22:16:11Z</time>
      </trkpt>
      <trkpt lat="23.070109" lon="113.269731">
        <time>2026-08-10T22:16:16Z</time>
      </trkpt>
      <trkpt lat="23.070012" lon="113.269668">
        <time>2026-08-10T22:16:21Z</time>
      </trkpt>
      <trkpt lat="23.06992" lon="113.269611">
        <time>2026-08-10T22:16:26Z</time>
      </trkpt>
      <trkpt lat="23.069782" lon="113.269533">
        <time>2026-08-10T22:16:31Z</time>
      </trkpt>
      <trkpt lat="23.06963" lon="113.269467">
        <time>2026-08-10T22:16:36Z</time>
      </trkpt>
      <trkpt lat="23.06953" lon="113.269417">
        <time>2026-08-10T22:16:41Z</time>
      </trkpt>
      <trkpt lat="23.069433" lon="113.269376">
        <time>2026-08-10T22:16:46Z</time>
      </trkpt>
      <trkpt lat="23.069289" lon="113.269292">
        <time>2026-08-10T22:16:51Z</time>
      </trkpt>
      <trkpt lat="23.069153" lon="113.26921">
        <time>2026-08-10T22:16:56Z</time>
      </trkpt>
      <trkpt lat="23.06906" lon="113.26917">
        <time>2026-08-10T22:17:01Z</time>
      </trkpt>
      <trkpt lat="23.068962" lon="113.269138">
        <time>2026-08-10T22:17:06Z</time>
      </trkpt>
      <trkpt lat="23.068814" lon="113.269076">
        <time>2026-08-10T22:17:11Z</time>
      </trkpt>
      <trkpt lat="23.068663" lon="113.269017">
        <time>2026-08-10T22:17:16Z</time>
      </trkpt>
      <trkpt lat="23.06856" lon="113.268987">
        <time>2026-08-10T22:17:21Z</time>
      </trkpt>
      <trkpt lat="23.068457" lon="113.268959">
        <time>2026-08-10T22:17:26Z</time>
      </trkpt>
      <trkpt lat="23.068303" lon="113.268918">
        <time>2026-08-10T22:17:31Z</time>
      </trkpt>
      <trkpt lat="23.068159" lon="113.268854">
        <time>2026-08-10T22:17:36Z</time>
      </trkpt>
      <trkpt lat="23.068073" lon="113.268792">
        <time>2026-08-10T22:17:41Z</time>
      </trkpt>
      <trkpt lat="23.067976" lon="113.268706">
        <time>2026-08-10T22:17:46Z</time>
      </trkpt>
      <trkpt lat="23.067815" lon="113.268599">
        <time>2026-08-10T22:17:51Z</time>
      </trkpt>
      <trkpt lat="23.067662" lon="113.268515">
        <time>2026-08-10T22:17:56Z</time>
      </trkpt>
      <trkpt lat="23.067559" lon="113.268465">
        <time>2026-08-10T22:18:01Z</time>
      </trkpt>
      <trkpt lat="23.067461" lon="113.268423">
        <time>2026-08-10T22:18:06Z</time>
      </trkpt>
      <trkpt lat="23.067314" lon="113.268355">
        <time>2026-08-10T22:18:11Z</time>
      </trkpt>
      <trkpt lat="23.067176" lon="113.26826">
        <time>2026-08-10T22:18:16Z</time>
      </trkpt>
      <trkpt lat="23.067108" lon="113.268165">
        <time>2026-08-10T22:18:21Z</time>
      </trkpt>
      <trkpt lat="23.067029" lon="113.2681">
        <time>2026-08-10T22:18:26Z</time>
      </trkpt>
      <trkpt lat="23.066878" lon="113.268047">
        <time>2026-08-10T22:18:31Z</time>
      </trkpt>
      <trkpt lat="23.066711" lon="113.268029">
        <time>2026-08-10T22:18:36Z</time>
      </trkpt>
      <trkpt lat="23.066599" lon="113.267995">
        <time>2026-08-10T22:18:41Z</time>
      </trkpt>
      <trkpt lat="23.066485" lon="113.267947">
        <time>2026-08-10T22:18:46Z</time>
      </trkpt>
      <trkpt lat="23.066323" lon="113.26793">
        <time>2026-08-10T22:18:51Z</time>
      </trkpt>
      <trkpt lat="23.066186" lon="113.268006">
        <time>2026-08-10T22:18:56Z</time>
      </trkpt>
      <trkpt lat="23.06611" lon="113.268096">
        <time>2026-08-10T22:19:01Z</time>
      </trkpt>
      <trkpt lat="23.066037" lon="113.268182">
        <time>2026-08-10T22:19:06Z</time>
      </trkpt>
      <trkpt lat="23.065941" lon="113.268319">
        <time>2026-08-10T22:19:11Z</time>
      </trkpt>
      <trkpt lat="23.065842" lon="113.268456">
        <time>2026-08-10T22:19:16Z</time>
      </trkpt>
      <trkpt lat="23.065782" lon="113.268551">
        <time>2026-08-10T22:19:21Z</time>
      </trkpt>
      <trkpt lat="23.06573" lon="113.268653">
        <time>2026-08-10T22:19:26Z</time>
      </trkpt>
      <trkpt lat="23.065668" lon="113.268809">
        <time>2026-08-10T22:19:31Z</time>
      </trkpt>
      <trkpt lat="23.065616" lon="113.268974">
        <time>2026-08-10T22:19:36Z</time>
      </trkpt>
      <trkpt lat="23.065587" lon="113.26909">
        <time>2026-08-10T22:19:41Z</time>
      </trkpt>
      <trkpt lat="23.065564" lon="113.26921">
        <time>2026-08-10T22:19:46Z</time>
      </trkpt>
      <trkpt lat="23.065515" lon="113.269385">
        <time>2026-08-10T22:19:51Z</time>
      </trkpt>
      <trkpt lat="23.065474" lon="113.269557">
        <time>2026-08-10T22:19:56Z</time>
      </trkpt>
      <trkpt lat="23.065447" lon="113.269675">
        <time>2026-08-10T22:20:01Z</time>
      </trkpt>
      <trkpt lat="23.065416" lon="113.269792">
        <time>2026-08-10T22:20:06Z</time>
      </trkpt>
      <trkpt lat="23.065357" lon="113.269964">
        <time>2026-08-10T22:20:11Z</time>
      </trkpt>
      <trkpt lat="23.065292" lon="113.270134">
        <time>2026-08-10T22:20:16Z</time>
      </trkpt>
      <trkpt lat="23.065243" lon="113.270246">
        <time>2026-08-10T22:20:21Z</time>
      </trkpt>
      <trkpt lat="23.06519" lon="113.270356">
        <time>2026-08-10T22:20:26Z</time>
      </trkpt>
      <trkpt lat="23.065117" lon="113.270522">
        <time>2026-08-10T22:20:31Z</time>
      </trkpt>
      <trkpt lat="23.065046" lon="113.270687">
        <time>2026-08-10T22:20:36Z</time>
      </trkpt>
      <trkpt lat="23.064996" lon="113.270798">
        <time>2026-08-10T22:20:41Z</time>
      </trkpt>
      <trkpt lat="23.064949" lon="113.270908">
        <time>2026-08-10T22:20:46Z</time>
      </trkpt>
      <trkpt lat="23.064877" lon="113.271072">
        <time>2026-08-10T22:20:51Z</time>
      </trkpt>
      <trkpt lat="23.064795" lon="113.271236">
        <time>2026-08-10T22:20:56Z</time>
      </trkpt>
      <trkpt lat="23.06474" lon="113.271345">
        <time>2026-08-10T22:21:01Z</time>
      </trkpt>
      <trkpt lat="23.064686" lon="113.271456">
        <time>2026-08-10T22:21:06Z</time>
      </trkpt>
      <trkpt lat="23.064605" lon="113.271622">
        <time>2026-08-10T22:21:11Z</time>
      </trkpt>
      <trkpt lat="23.064528" lon="113.271786">
        <time>2026-08-10T22:21:16Z</time>
      </trkpt>
      <trkpt lat="23.064476" lon="113.271897">
        <time>2026-08-10T22:21:21Z</time>
      </trkpt>
      <trkpt lat="23.064425" lon="113.272013">
        <time>2026-08-10T22:21:26Z</time>
      </trkpt>
      <trkpt lat="23.064351" lon="113.272183">
        <time>2026-08-10T22:21:31Z</time>
      </trkpt>
      <trkpt lat="23.064324" lon="113.272361">
        <time>2026-08-10T22:21:36Z</time>
      </trkpt>
      <trkpt lat="23.064322" lon="113.272478">
        <time>2026-08-10T22:21:41Z</time>
      </trkpt>
      <trkpt lat="23.064333" lon="113.272599">
        <time>2026-08-10T22:21:46Z</time>
      </trkpt>
      <trkpt lat="23.064382" lon="113.272775">
        <time>2026-08-10T22:21:51Z</time>
      </trkpt>
      <trkpt lat="23.064433" lon="113.272938">
        <time>2026-08-10T22:21:56Z</time>
      </trkpt>
      <trkpt lat="23.064465" lon="113.273044">
        <time>2026-08-10T22:22:01Z</time>
      </trkpt>
      <trkpt lat="23.064482" lon="113.27315">
        <time>2026-08-10T22:22:06Z</time>
      </trkpt>
      <trkpt lat="23.064433" lon="113.273299">
        <time>2026-08-10T22:22:11Z</time>
      </trkpt>
      <trkpt lat="23.06431" lon="113.273406">
        <time>2026-08-10T22:22:16Z</time>
      </trkpt>
      <trkpt lat="23.06422" lon="113.273469">
        <time>2026-08-10T22:22:21Z</time>
      </trkpt>
      <trkpt lat="23.064134" lon="113.27354">
        <time>2026-08-10T22:22:26Z</time>
      </trkpt>
      <trkpt lat="23.064002" lon="113.273637">
        <time>2026-08-10T22:22:31Z</time>
      </trkpt>
      <trkpt lat="23.063891" lon="113.273754">
        <time>2026-08-10T22:22:36Z</time>
      </trkpt>
      <trkpt lat="23.063833" lon="113.273842">
        <time>2026-08-10T22:22:41Z</time>
      </trkpt>
      <trkpt lat="23.063787" lon="113.273936">
        <time>2026-08-10T22:22:46Z</time>
      </trkpt>
      <trkpt lat="23.063696" lon="113.274075">
        <time>2026-08-10T22:22:51Z</time>
      </trkpt>
      <trkpt lat="23.063575" lon="113.274176">
        <time>2026-08-10T22:22:56Z</time>
      </trkpt>
      <trkpt lat="23.063511" lon="113.274254">
        <time>2026-08-10T22:23:01Z</time>
      </trkpt>
      <trkpt lat="23.063464" lon="113.274357">
        <time>2026-08-10T22:23:06Z</time>
      </trkpt>
      <trkpt lat="23.063403" lon="113.274536">
        <time>2026-08-10T22:23:11Z</time>
      </trkpt>
      <trkpt lat="23.063339" lon="113.274713">
        <time>2026-08-10T22:23:16Z</time>
      </trkpt>
      <trkpt lat="23.063301" lon="113.274831">
        <time>2026-08-10T22:23:21Z</time>
      </trkpt>
      <trkpt lat="23.063267" lon="113.274944">
        <time>2026-08-10T22:23:26Z</time>
      </trkpt>
      <trkpt lat="23.063196" lon="113.27511">
        <time>2026-08-10T22:23:31Z</time>
      </trkpt>
      <trkpt lat="23.063109" lon="113.275269">
        <time>2026-08-10T22:23:36Z</time>
      </trkpt>
      <trkpt lat="23.063053" lon="113.275367">
        <time>2026-08-10T22:23:41Z</time>
      </trkpt>
      <trkpt lat="23.062991" lon="113.275462">
        <time>2026-08-10T22:23:46Z</time>
      </trkpt>
      <trkpt lat="23.062877" lon="113.2756">
        <time>2026-08-10T22:23:51Z</time>
      </trkpt>
      <trkpt lat="23.062751" lon="113.275722">
        <time>2026-08-10T22:23:56Z</time>
      </trkpt>
      <trkpt lat="23.062671" lon="113.275804">
        <time>2026-08-10T22:24:01Z</time>
      </trkpt>
      <trkpt lat="23.062595" lon="113.275894">
        <time>2026-08-10T22:24:06Z</time>
      </trkpt>
      <trkpt lat="23.062495" lon="113.276047">
        <time>2026-08-10T22:24:11Z</time>
      </trkpt>
      <trkpt lat="23.062413" lon="113.276213">
        <time>2026-08-10T22:24:16Z</time>
      </trkpt>
      <trkpt lat="23.062369" lon="113.276326">
        <time>2026-08-10T22:24:21Z</time>
      </trkpt>
      <trkpt lat="23.062329" lon="113.276438">
        <time>2026-08-10T22:24:26Z</time>
      </trkpt>
      <trkpt lat="23.062268" lon="113.276609">
        <time>2026-08-10T22:24:31Z</time>
      </trkpt>
      <trkpt lat="23.062213" lon="113.276777">
        <time>2026-08-10T22:24:36Z</time>
      </trkpt>
      <trkpt lat="23.062176" lon="113.276884">
        <time>2026-08-10T22:24:41Z</time>
      </trkpt>
      <trkpt lat="23.062137" lon="113.27699">
        <time>2026-08-10T22:24:46Z</time>
      </trkpt>
      <trkpt lat="23.06208" lon="113.277148">
        <time>2026-08-10T22:24:51Z</time>
      </trkpt>
      <trkpt lat="23.062015" lon="113.277305">
        <time>2026-08-10T22:24:56Z</time>
      </trkpt>
      <trkpt lat="23.061971" lon="113.277413">
        <time>2026-08-10T22:25:01Z</time>
      </trkpt>
      <trkpt lat="23.061929" lon="113.277521">
        <time>2026-08-10T22:25:06Z</time>
      </trkpt>
      <trkpt lat="23.061862" lon="113.277679">
        <time>2026-08-10T22:25:11Z</time>
      </trkpt>
      <trkpt lat="23.061835" lon="113.277845">
        <time>2026-08-10T22:25:16Z</time>
      </trkpt>
      <trkpt lat="23.061831" lon="113.277964">
        <time>2026-08-10T22:25:21Z</time>
      </trkpt>
      <trkpt lat="23.061833" lon="113.278081">
        <time>2026-08-10T22:25:26Z</time>
      </trkpt>
      <trkpt lat="23.061844" lon="113.278252">
        <time>2026-08-10T22:25:31Z</time>
      </trkpt>
      <trkpt lat="23.061856" lon="113.278408">
        <time>2026-08-10T22:25:36Z</time>
      </trkpt>
      <trkpt lat="23.061871" lon="113.278508">
        <time>2026-08-10T22:25:41Z</time>
      </trkpt>
      <trkpt lat="23.061879" lon="113.278604">
        <time>2026-08-10T22:25:46Z</time>
      </trkpt>
      <trkpt lat="23.061825" lon="113.278723">
        <time>2026-08-10T22:25:51Z</time>
      </trkpt>
      <trkpt lat="23.061726" lon="113.278807">
        <time>2026-08-10T22:25:56Z</time>
      </trkpt>
      <trkpt lat="23.061686" lon="113.278914">
        <time>2026-08-10T22:26:01Z</time>
      </trkpt>
      <trkpt lat="23.061645" lon="113.279021">
        <time>2026-08-10T22:26:06Z</time>
      </trkpt>
      <trkpt lat="23.061589" lon="113.279176">
        <time>2026-08-10T22:26:11Z</time>
      </trkpt>
      <trkpt lat="23.061523" lon="113.279333">
        <time>2026-08-10T22:26:16Z</time>
      </trkpt>
      <trkpt lat="23.061474" lon="113.279443">
        <time>2026-08-10T22:26:21Z</time>
      </trkpt>
      <trkpt lat="23.061427" lon="113.279552">
        <time>2026-08-10T22:26:26Z</time>
      </trkpt>
      <trkpt lat="23.061359" lon="113.279718">
        <time>2026-08-10T22:26:31Z</time>
      </trkpt>
      <trkpt lat="23.061298" lon="113.279871">
        <time>2026-08-10T22:26:36Z</time>
      </trkpt>
      <trkpt lat="23.061252" lon="113.279975">
        <time>2026-08-10T22:26:41Z</time>
      </trkpt>
      <trkpt lat="23.061204" lon="113.280082">
        <time>2026-08-10T22:26:46Z</time>
      </trkpt>
      <trkpt lat="23.061137" lon="113.280244">
        <time>2026-08-10T22:26:51Z</time>
      </trkpt>
      <trkpt lat="23.061075" lon="113.280404">
        <time>2026-08-10T22:26:56Z</time>
      </trkpt>
      <trkpt lat="23.061026" lon="113.280507">
        <time>2026-08-10T22:27:01Z</time>
      </trkpt>
      <trkpt lat="23.060976" lon="113.28061">
        <time>2026-08-10T22:27:06Z</time>
      </trkpt>
      <trkpt lat="23.060914" lon="113.28078">
        <time>2026-08-10T22:27:11Z</time>
      </trkpt>
      <trkpt lat="23.060849" lon="113.280936">
        <time>2026-08-10T22:27:16Z</time>
      </trkpt>
      <trkpt lat="23.060807" lon="113.281036">
        <time>2026-08-10T22:27:21Z</time>
      </trkpt>
      <trkpt lat="23.060764" lon="113.281137">
        <time>2026-08-10T22:27:26Z</time>
      </trkpt>
      <trkpt lat="23.060695" lon="113.281287">
        <time>2026-08-10T22:27:31Z</time>
      </trkpt>
      <trkpt lat="23.060633" lon="113.281435">
        <time>2026-08-10T22:27:36Z</time>
      </trkpt>
      <trkpt lat="23.06059" lon="113.281535">
        <time>2026-08-10T22:27:41Z</time>
      </trkpt>
      <trkpt lat="23.060546" lon="113.281637">
        <time>2026-08-10T22:27:46Z</time>
      </trkpt>
      <trkpt lat="23.060479" lon="113.281792">
        <time>2026-08-10T22:27:51Z</time>
      </trkpt>
      <trkpt lat="23.060415" lon="113.281947">
        <time>2026-08-10T22:27:56Z</time>
      </trkpt>
      <trkpt lat="23.060369" lon="113.282049">
        <time>2026-08-10T22:28:01Z</time>
      </trkpt>
      <trkpt lat="23.060323" lon="113.282151">
        <time>2026-08-10T22:28:06Z</time>
      </trkpt>
      <trkpt lat="23.06026" lon="113.2823">
        <time>2026-08-10T22:28:11Z</time>
      </trkpt>
      <trkpt lat="23.06019" lon="113.282448">
        <time>2026-08-10T22:28:16Z</time>
      </trkpt>
      <trkpt lat="23.06014" lon="113.282544">
        <time>2026-08-10T22:28:21Z</time>
      </trkpt>
      <trkpt lat="23.060106" lon="113.282649">
        <time>2026-08-10T22:28:26Z</time>
      </trkpt>
      <trkpt lat="23.060061" lon="113.282796">
        <time>2026-08-10T22:28:31Z</time>
      </trkpt>
      <trkpt lat="23.059993" lon="113.282947">
        <time>2026-08-10T22:28:36Z</time>
      </trkpt>
      <trkpt lat="23.05995" lon="113.283051">
        <time>2026-08-10T22:28:41Z</time>
      </trkpt>
      <trkpt lat="23.059909" lon="113.283153">
        <time>2026-08-10T22:28:46Z</time>
      </trkpt>
      <trkpt lat="23.059851" lon="113.283296">
        <time>2026-08-10T22:28:51Z</time>
      </trkpt>
      <trkpt lat="23.059928" lon="113.283348">
        <time>2026-08-10T22:28:56Z</time>
      </trkpt>
      <trkpt lat="23.059996" lon="113.283272">
        <time>2026-08-10T22:29:01Z</time>
      </trkpt>
      <trkpt lat="23.060051" lon="113.283177">
        <time>2026-08-10T22:29:06Z</time>
      </trkpt>
      <trkpt lat="23.06012" lon="113.283029">
        <time>2026-08-10T22:29:11Z</time>
      </trkpt>
      <trkpt lat="23.060182" lon="113.282882">
        <time>2026-08-10T22:29:16Z</time>
      </trkpt>
      <trkpt lat="23.060219" lon="113.282776">
        <time>2026-08-10T22:29:21Z</time>
      </trkpt>
      <trkpt lat="23.060264" lon="113.282681">
        <time>2026-08-10T22:29:26Z</time>
      </trkpt>
      <trkpt lat="23.060328" lon="113.282543">
        <time>2026-08-10T22:29:31Z</time>
      </trkpt>
      <trkpt lat="23.060384" lon="113.282401">
        <time>2026-08-10T22:29:36Z</time>
      </trkpt>
      <trkpt lat="23.060422" lon="113.282302">
        <time>2026-08-10T22:29:41Z</time>
      </trkpt>
      <trkpt lat="23.060467" lon="113.2822">
        <time>2026-08-10T22:29:46Z</time>
      </trkpt>
      <trkpt lat="23.060538" lon="113.282056">
        <time>2026-08-10T22:29:51Z</time>
      </trkpt>
      <trkpt lat="23.060597" lon="113.281915">
        <time>2026-08-10T22:29:56Z</time>
      </trkpt>
      <trkpt lat="23.060634" lon="113.281817">
        <time>2026-08-10T22:30:01Z</time>
      </trkpt>
      <trkpt lat="23.060669" lon="113.281718">
        <time>2026-08-10T22:30:06Z</time>
      </trkpt>
      <trkpt lat="23.06073" lon="113.281574">
        <time>2026-08-10T22:30:11Z</time>
      </trkpt>
      <trkpt lat="23.060784" lon="113.281433">
        <time>2026-08-10T22:30:16Z</time>
      </trkpt>
      <trkpt lat="23.060823" lon="113.28133">
        <time>2026-08-10T22:30:21Z</time>
      </trkpt>
      <trkpt lat="23.060864" lon="113.281227">
        <time>2026-08-10T22:30:26Z</time>
      </trkpt>
      <trkpt lat="23.060926" lon="113.28108">
        <time>2026-08-10T22:30:31Z</time>
      </trkpt>
      <trkpt lat="23.060991" lon="113.280937">
        <time>2026-08-10T22:30:36Z</time>
      </trkpt>
      <trkpt lat="23.061035" lon="113.280842">
        <time>2026-08-10T22:30:41Z</time>
      </trkpt>
      <trkpt lat="23.061076" lon="113.280746">
        <time>2026-08-10T22:30:46Z</time>
      </trkpt>
      <trkpt lat="23.061137" lon="113.280599">
        <time>2026-08-10T22:30:51Z</time>
      </trkpt>
      <trkpt lat="23.061197" lon="113.280462">
        <time>2026-08-10T22:30:56Z</time>
      </trkpt>
      <trkpt lat="23.061236" lon="113.280363">
        <time>2026-08-10T22:31:01Z</time>
      </trkpt>
      <trkpt lat="23.061277" lon="113.280258">
        <time>2026-08-10T22:31:06Z</time>
      </trkpt>
      <trkpt lat="23.061356" lon="113.280113">
        <time>2026-08-10T22:31:11Z</time>
      </trkpt>
      <trkpt lat="23.06142" lon="113.279967">
        <time>2026-08-10T22:31:16Z</time>
      </trkpt>
      <trkpt lat="23.061457" lon="113.279869">
        <time>2026-08-10T22:31:21Z</time>
      </trkpt>
      <trkpt lat="23.061492" lon="113.279771">
        <time>2026-08-10T22:31:26Z</time>
      </trkpt>
      <trkpt lat="23.061551" lon="113.279626">
        <time>2026-08-10T22:31:31Z</time>
      </trkpt>
      <trkpt lat="23.061613" lon="113.279477">
        <time>2026-08-10T22:31:36Z</time>
      </trkpt>
      <trkpt lat="23.061655" lon="113.279378">
        <time>2026-08-10T22:31:41Z</time>
      </trkpt>
      <trkpt lat="23.061702" lon="113.279276">
        <time>2026-08-10T22:31:46Z</time>
      </trkpt>
      <trkpt lat="23.06177" lon="113.279128">
        <time>2026-08-10T22:31:51Z</time>
      </trkpt>
      <trkpt lat="23.061853" lon="113.278991">
        <time>2026-08-10T22:31:56Z</time>
      </trkpt>
      <trkpt lat="23.061921" lon="113.278905">
        <time>2026-08-10T22:32:01Z</time>
      </trkpt>
      <trkpt lat="23.061974" lon="113.278811">
        <time>2026-08-10T22:32:06Z</time>
      </trkpt>
      <trkpt lat="23.062007" lon="113.278645">
        <time>2026-08-10T22:32:11Z</time>
      </trkpt>
      <trkpt lat="23.061997" lon="113.278469">
        <time>2026-08-10T22:32:16Z</time>
      </trkpt>
      <trkpt lat="23.061984" lon="113.27835">
        <time>2026-08-10T22:32:21Z</time>
      </trkpt>
      <trkpt lat="23.061979" lon="113.278232">
        <time>2026-08-10T22:32:26Z</time>
      </trkpt>
      <trkpt lat="23.061973" lon="113.278057">
        <time>2026-08-10T22:32:31Z</time>
      </trkpt>
      <trkpt lat="23.061968" lon="113.277882">
        <time>2026-08-10T22:32:36Z</time>
      </trkpt>
      <trkpt lat="23.061972" lon="113.277767">
        <time>2026-08-10T22:32:41Z</time>
      </trkpt>
      <trkpt lat="23.061992" lon="113.277653">
        <time>2026-08-10T22:32:46Z</time>
      </trkpt>
      <trkpt lat="23.062044" lon="113.27748">
        <time>2026-08-10T22:32:51Z</time>
      </trkpt>
      <trkpt lat="23.062105" lon="113.277321">
        <time>2026-08-10T22:32:56Z</time>
      </trkpt>
      <trkpt lat="23.062144" lon="113.277216">
        <time>2026-08-10T22:33:01Z</time>
      </trkpt>
      <trkpt lat="23.06218" lon="113.277115">
        <time>2026-08-10T22:33:06Z</time>
      </trkpt>
      <trkpt lat="23.062234" lon="113.276968">
        <time>2026-08-10T22:33:11Z</time>
      </trkpt>
      <trkpt lat="23.062283" lon="113.276821">
        <time>2026-08-10T22:33:16Z</time>
      </trkpt>
      <trkpt lat="23.062316" lon="113.276719">
        <time>2026-08-10T22:33:21Z</time>
      </trkpt>
      <trkpt lat="23.06235" lon="113.276618">
        <time>2026-08-10T22:33:26Z</time>
      </trkpt>
      <trkpt lat="23.062404" lon="113.276472">
        <time>2026-08-10T22:33:31Z</time>
      </trkpt>
      <trkpt lat="23.06246" lon="113.276324">
        <time>2026-08-10T22:33:36Z</time>
      </trkpt>
      <trkpt lat="23.062503" lon="113.276222">
        <time>2026-08-10T22:33:41Z</time>
      </trkpt>
      <trkpt lat="23.062553" lon="113.276128">
        <time>2026-08-10T22:33:46Z</time>
      </trkpt>
      <trkpt lat="23.062638" lon="113.275989">
        <time>2026-08-10T22:33:51Z</time>
      </trkpt>
      <trkpt lat="23.062737" lon="113.275856">
        <time>2026-08-10T22:33:56Z</time>
      </trkpt>
      <trkpt lat="23.062813" lon="113.275777">
        <time>2026-08-10T22:34:01Z</time>
      </trkpt>
      <trkpt lat="23.062898" lon="113.275703">
        <time>2026-08-10T22:34:06Z</time>
      </trkpt>
      <trkpt lat="23.063009" lon="113.275579">
        <time>2026-08-10T22:34:11Z</time>
      </trkpt>
      <trkpt lat="23.063101" lon="113.27545">
        <time>2026-08-10T22:34:16Z</time>
      </trkpt>
      <trkpt lat="23.063157" lon="113.275359">
        <time>2026-08-10T22:34:21Z</time>
      </trkpt>
      <trkpt lat="23.063216" lon="113.275258">
        <time>2026-08-10T22:34:26Z</time>
      </trkpt>
      <trkpt lat="23.063315" lon="113.275106">
        <time>2026-08-10T22:34:31Z</time>
      </trkpt>
      <trkpt lat="23.063382" lon="113.274944">
        <time>2026-08-10T22:34:36Z</time>
      </trkpt>
      <trkpt lat="23.063417" lon="113.274842">
        <time>2026-08-10T22:34:41Z</time>
      </trkpt>
      <trkpt lat="23.063457" lon="113.274742">
        <time>2026-08-10T22:34:46Z</time>
      </trkpt>
      <trkpt lat="23.063508" lon="113.274603">
        <time>2026-08-10T22:34:51Z</time>
      </trkpt>
      <trkpt lat="23.063548" lon="113.274465">
        <time>2026-08-10T22:34:56Z</time>
      </trkpt>
      <trkpt lat="23.063587" lon="113.274365">
        <time>2026-08-10T22:35:01Z</time>
      </trkpt>
      <trkpt lat="23.063642" lon="113.274266">
        <time>2026-08-10T22:35:06Z</time>
      </trkpt>
      <trkpt lat="23.063758" lon="113.274148">
        <time>2026-08-10T22:35:11Z</time>
      </trkpt>
      <trkpt lat="23.063862" lon="113.274006">
        <time>2026-08-10T22:35:16Z</time>
      </trkpt>
      <trkpt lat="23.063925" lon="113.273905">
        <time>2026-08-10T22:35:21Z</time>
      </trkpt>
      <trkpt lat="23.063984" lon="113.273805">
        <time>2026-08-10T22:35:26Z</time>
      </trkpt>
      <trkpt lat="23.064084" lon="113.27368">
        <time>2026-08-10T22:35:31Z</time>
      </trkpt>
      <trkpt lat="23.064209" lon="113.273583">
        <time>2026-08-10T22:35:36Z</time>
      </trkpt>
      <trkpt lat="23.064294" lon="113.273518">
        <time>2026-08-10T22:35:41Z</time>
      </trkpt>
      <trkpt lat="23.064379" lon="113.273451">
        <time>2026-08-10T22:35:46Z</time>
      </trkpt>
      <trkpt lat="23.064498" lon="113.273344">
        <time>2026-08-10T22:35:51Z</time>
      </trkpt>
      <trkpt lat="23.064577" lon="113.273202">
        <time>2026-08-10T22:35:56Z</time>
      </trkpt>
      <trkpt lat="23.064587" lon="113.273088">
        <time>2026-08-10T22:36:01Z</time>
      </trkpt>
      <trkpt lat="23.064557" lon="113.272972">
        <time>2026-08-10T22:36:06Z</time>
      </trkpt>
      <trkpt lat="23.064493" lon="113.272806">
        <time>2026-08-10T22:36:11Z</time>
      </trkpt>
      <trkpt lat="23.064443" lon="113.272636">
        <time>2026-08-10T22:36:16Z</time>
      </trkpt>
      <trkpt lat="23.064452" lon="113.272519">
        <time>2026-08-10T22:36:21Z</time>
      </trkpt>
      <trkpt lat="23.064503" lon="113.272408">
        <time>2026-08-10T22:36:26Z</time>
      </trkpt>
      <trkpt lat="23.06456" lon="113.272243">
        <time>2026-08-10T22:36:31Z</time>
      </trkpt>
      <trkpt lat="23.064618" lon="113.272085">
        <time>2026-08-10T22:36:36Z</time>
      </trkpt>
      <trkpt lat="23.064666" lon="113.271989">
        <time>2026-08-10T22:36:41Z</time>
      </trkpt>
      <trkpt lat="23.064706" lon="113.271896">
        <time>2026-08-10T22:36:46Z</time>
      </trkpt>
      <trkpt lat="23.064772" lon="113.271756">
        <time>2026-08-10T22:36:51Z</time>
      </trkpt>
      <trkpt lat="23.064841" lon="113.271613">
        <time>2026-08-10T22:36:56Z</time>
      </trkpt>
      <trkpt lat="23.064895" lon="113.271513">
        <time>2026-08-10T22:37:01Z</time>
      </trkpt>
      <trkpt lat="23.064949" lon="113.271415">
        <time>2026-08-10T22:37:06Z</time>
      </trkpt>
      <trkpt lat="23.065025" lon="113.271276">
        <time>2026-08-10T22:37:11Z</time>
      </trkpt>
      <trkpt lat="23.06509" lon="113.271132">
        <time>2026-08-10T22:37:16Z</time>
      </trkpt>
      <trkpt lat="23.065134" lon="113.27103">
        <time>2026-08-10T22:37:21Z</time>
      </trkpt>
      <trkpt lat="23.065178" lon="113.270929">
        <time>2026-08-10T22:37:26Z</time>
      </trkpt>
      <trkpt lat="23.065234" lon="113.270782">
        <time>2026-08-10T22:37:31Z</time>
      </trkpt>
      <trkpt lat="23.065302" lon="113.270637">
        <time>2026-08-10T22:37:36Z</time>
      </trkpt>
      <trkpt lat="23.065346" lon="113.270533">
        <time>2026-08-10T22:37:41Z</time>
      </trkpt>
      <trkpt lat="23.065384" lon="113.270429">
        <time>2026-08-10T22:37:46Z</time>
      </trkpt>
      <trkpt lat="23.065446" lon="113.270282">
        <time>2026-08-10T22:37:51Z</time>
      </trkpt>
      <trkpt lat="23.065508" lon="113.27013">
        <time>2026-08-10T22:37:56Z</time>
      </trkpt>
      <trkpt lat="23.065548" lon="113.270028">
        <time>2026-08-10T22:38:01Z</time>
      </trkpt>
      <trkpt lat="23.065585" lon="113.269925">
        <time>2026-08-10T22:38:06Z</time>
      </trkpt>
      <trkpt lat="23.065633" lon="113.269768">
        <time>2026-08-10T22:38:11Z</time>
      </trkpt>
      <trkpt lat="23.065691" lon="113.269623">
        <time>2026-08-10T22:38:16Z</time>
      </trkpt>
      <trkpt lat="23.065733" lon="113.269518">
        <time>2026-08-10T22:38:21Z</time>
      </trkpt>
      <trkpt lat="23.065759" lon="113.269408">
        <time>2026-08-10T22:38:26Z</time>
      </trkpt>
      <trkpt lat="23.065796" lon="113.269241">
        <time>2026-08-10T22:38:31Z</time>
      </trkpt>
      <trkpt lat="23.065852" lon="113.269086">
        <time>2026-08-10T22:38:36Z</time>
      </trkpt>
      <trkpt lat="23.065885" lon="113.268989">
        <time>2026-08-10T22:38:41Z</time>
      </trkpt>
      <trkpt lat="23.065928" lon="113.268889">
        <time>2026-08-10T22:38:46Z</time>
      </trkpt>
      <trkpt lat="23.065999" lon="113.268744">
        <time>2026-08-10T22:38:51Z</time>
      </trkpt>
      <trkpt lat="23.066068" lon="113.268594">
        <time>2026-08-10T22:38:56Z</time>
      </trkpt>
      <trkpt lat="23.066121" lon="113.268497">
        <time>2026-08-10T22:39:01Z</time>
      </trkpt>
      <trkpt lat="23.06618" lon="113.268406">
        <time>2026-08-10T22:39:06Z</time>
      </trkpt>
      <trkpt lat="23.066268" lon="113.26828">
        <time>2026-08-10T22:39:11Z</time>
      </trkpt>
      <trkpt lat="23.066382" lon="113.268165">
        <time>2026-08-10T22:39:16Z</time>
      </trkpt>
      <trkpt lat="23.06648" lon="113.268131">
        <time>2026-08-10T22:39:21Z</time>
      </trkpt>
      <trkpt lat="23.066587" lon="113.268134">
        <time>2026-08-10T22:39:26Z</time>
      </trkpt>
      <trkpt lat="23.066678" lon="113.268069">
        <time>2026-08-10T22:39:31Z</time>
      </trkpt>
      <trkpt lat="23.066548" lon="113.267964">
        <time>2026-08-10T22:39:36Z</time>
      </trkpt>
      <trkpt lat="23.066435" lon="113.267942">
        <time>2026-08-10T22:39:41Z</time>
      </trkpt>
      <trkpt lat="23.066329" lon="113.267955">
        <time>2026-08-10T22:39:46Z</time>
      </trkpt>
      <trkpt lat="23.066195" lon="113.268035">
        <time>2026-08-10T22:39:51Z</time>
      </trkpt>
      <trkpt lat="23.066082" lon="113.268155">
        <time>2026-08-10T22:39:56Z</time>
      </trkpt>
      <trkpt lat="23.066012" lon="113.26824">
        <time>2026-08-10T22:40:01Z</time>
      </trkpt>
      <trkpt lat="23.065945" lon="113.268328">
        <time>2026-08-10T22:40:06Z</time>
      </trkpt>
      <trkpt lat="23.065847" lon="113.268455">
        <time>2026-08-10T22:40:11Z</time>
      </trkpt>
      <trkpt lat="23.065766" lon="113.268594">
        <time>2026-08-10T22:40:16Z</time>
      </trkpt>
      <trkpt lat="23.065724" lon="113.268688">
        <time>2026-08-10T22:40:21Z</time>
      </trkpt>
      <trkpt lat="23.065683" lon="113.268783">
        <time>2026-08-10T22:40:26Z</time>
      </trkpt>
      <trkpt lat="23.065626" lon="113.268931">
        <time>2026-08-10T22:40:31Z</time>
      </trkpt>
      <trkpt lat="23.065579" lon="113.269085">
        <time>2026-08-10T22:40:36Z</time>
      </trkpt>
      <trkpt lat="23.065552" lon="113.269188">
        <time>2026-08-10T22:40:41Z</time>
      </trkpt>
      <trkpt lat="23.065529" lon="113.269291">
        <time>2026-08-10T22:40:46Z</time>
      </trkpt>
      <trkpt lat="23.065489" lon="113.269451">
        <time>2026-08-10T22:40:51Z</time>
      </trkpt>
      <trkpt lat="23.065449" lon="113.269619">
        <time>2026-08-10T22:40:56Z</time>
      </trkpt>
      <trkpt lat="23.065428" lon="113.269728">
        <time>2026-08-10T22:41:01Z</time>
      </trkpt>
      <trkpt lat="23.065399" lon="113.269836">
        <time>2026-08-10T22:41:06Z</time>
      </trkpt>
      <trkpt lat="23.065343" lon="113.269998">
        <time>2026-08-10T22:41:11Z</time>
      </trkpt>
      <trkpt lat="23.065283" lon="113.270145">
        <time>2026-08-10T22:41:16Z</time>
      </trkpt>
      <trkpt lat="23.065236" lon="113.27024">
        <time>2026-08-10T22:41:21Z</time>
      </trkpt>
      <trkpt lat="23.065192" lon="113.270337">
        <time>2026-08-10T22:41:26Z</time>
      </trkpt>
      <trkpt lat="23.065129" lon="113.270485">
        <time>2026-08-10T22:41:31Z</time>
      </trkpt>
      <trkpt lat="23.065062" lon="113.270636">
        <time>2026-08-10T22:41:36Z</time>
      </trkpt>
      <trkpt lat="23.065013" lon="113.270735">
        <time>2026-08-10T22:41:41Z</time>
      </trkpt>
      <trkpt lat="23.064963" lon="113.270831">
        <time>2026-08-10T22:41:46Z</time>
      </trkpt>
      <trkpt lat="23.064902" lon="113.270975">
        <time>2026-08-10T22:41:51Z</time>
      </trkpt>
      <trkpt lat="23.064835" lon="113.271119">
        <time>2026-08-10T22:41:56Z</time>
      </trkpt>
      <trkpt lat="23.064785" lon="113.271219">
        <time>2026-08-10T22:42:01Z</time>
      </trkpt>
      <trkpt lat="23.064733" lon="113.271321">
        <time>2026-08-10T22:42:06Z</time>
      </trkpt>
      <trkpt lat="23.064663" lon="113.271476">
        <time>2026-08-10T22:42:11Z</time>
      </trkpt>
      <trkpt lat="23.06459" lon="113.271629">
        <time>2026-08-10T22:42:16Z</time>
      </trkpt>
      <trkpt lat="23.064543" lon="113.271731">
        <time>2026-08-10T22:42:21Z</time>
      </trkpt>
      <trkpt lat="23.064492" lon="113.271832">
        <time>2026-08-10T22:42:26Z</time>
      </trkpt>
      <trkpt lat="23.064423" lon="113.271994">
        <time>2026-08-10T22:42:31Z</time>
      </trkpt>
      <trkpt lat="23.064355" lon="113.272158">
        <time>2026-08-10T22:42:36Z</time>
      </trkpt>
      <trkpt lat="23.064326" lon="113.272271">
        <time>2026-08-10T22:42:41Z</time>
      </trkpt>
      <trkpt lat="23.064315" lon="113.272389">
        <time>2026-08-10T22:42:46Z</time>
      </trkpt>
      <trkpt lat="23.064313" lon="113.27256">
        <time>2026-08-10T22:42:51Z</time>
      </trkpt>
      <trkpt lat="23.064351" lon="113.272729">
        <time>2026-08-10T22:42:56Z</time>
      </trkpt>
      <trkpt lat="23.064389" lon="113.272837">
        <time>2026-08-10T22:43:01Z</time>
      </trkpt>
      <trkpt lat="23.064425" lon="113.272943">
        <time>2026-08-10T22:43:06Z</time>
      </trkpt>
      <trkpt lat="23.064466" lon="113.273103">
        <time>2026-08-10T22:43:11Z</time>
      </trkpt>
      <trkpt lat="23.064446" lon="113.273263">
        <time>2026-08-10T22:43:16Z</time>
      </trkpt>
      <trkpt lat="23.064373" lon="113.273349">
        <time>2026-08-10T22:43:21Z</time>
      </trkpt>
      <trkpt lat="23.064277" lon="113.27342">
        <time>2026-08-10T22:43:26Z</time>
      </trkpt>
      <trkpt lat="23.064139" lon="113.273513">
        <time>2026-08-10T22:43:31Z</time>
      </trkpt>
      <trkpt lat="23.06401" lon="113.273611">
        <time>2026-08-10T22:43:36Z</time>
      </trkpt>
      <trkpt lat="23.063934" lon="113.273688">
        <time>2026-08-10T22:43:41Z</time>
      </trkpt>
      <trkpt lat="23.063869" lon="113.273773">
        <time>2026-08-10T22:43:46Z</time>
      </trkpt>
      <trkpt lat="23.063794" lon="113.273906">
        <time>2026-08-10T22:43:51Z</time>
      </trkpt>
      <trkpt lat="23.063719" lon="113.274037">
        <time>2026-08-10T22:43:56Z</time>
      </trkpt>
      <trkpt lat="23.063643" lon="113.274102">
        <time>2026-08-10T22:44:01Z</time>
      </trkpt>
      <trkpt lat="23.063561" lon="113.274162">
        <time>2026-08-10T22:44:06Z</time>
      </trkpt>
      <trkpt lat="23.063473" lon="113.274312">
        <time>2026-08-10T22:44:11Z</time>
      </trkpt>
      <trkpt lat="23.063417" lon="113.274487">
        <time>2026-08-10T22:44:16Z</time>
      </trkpt>
      <trkpt lat="23.063379" lon="113.274607">
        <time>2026-08-10T22:44:21Z</time>
      </trkpt>
      <trkpt lat="23.063337" lon="113.274723">
        <time>2026-08-10T22:44:26Z</time>
      </trkpt>
      <trkpt lat="23.063277" lon="113.274901">
        <time>2026-08-10T22:44:31Z</time>
      </trkpt>
      <trkpt lat="23.06321" lon="113.275066">
        <time>2026-08-10T22:44:36Z</time>
      </trkpt>
      <trkpt lat="23.063157" lon="113.275161">
        <time>2026-08-10T22:44:41Z</time>
      </trkpt>
      <trkpt lat="23.063106" lon="113.27525">
        <time>2026-08-10T22:44:46Z</time>
      </trkpt>
      <trkpt lat="23.063032" lon="113.275383">
        <time>2026-08-10T22:44:51Z</time>
      </trkpt>
      <trkpt lat="23.062945" lon="113.275514">
        <time>2026-08-10T22:44:56Z</time>
      </trkpt>
      <trkpt lat="23.062876" lon="113.275598">
        <time>2026-08-10T22:45:01Z</time>
      </trkpt>
      <trkpt lat="23.0628" lon="113.275673">
        <time>2026-08-10T22:45:06Z</time>
      </trkpt>
      <trkpt lat="23.062679" lon="113.275785">
        <time>2026-08-10T22:45:11Z</time>
      </trkpt>
      <trkpt lat="23.062576" lon="113.275908">
        <time>2026-08-10T22:45:16Z</time>
      </trkpt>
      <trkpt lat="23.062519" lon="113.275995">
        <time>2026-08-10T22:45:21Z</time>
      </trkpt>
      <trkpt lat="23.062469" lon="113.276087">
        <time>2026-08-10T22:45:26Z</time>
      </trkpt>
      <trkpt lat="23.062408" lon="113.276229">
        <time>2026-08-10T22:45:31Z</time>
      </trkpt>
      <trkpt lat="23.062353" lon="113.27638">
        <time>2026-08-10T22:45:36Z</time>
      </trkpt>
      <trkpt lat="23.062314" lon="113.276483">
        <time>2026-08-10T22:45:41Z</time>
      </trkpt>
      <trkpt lat="23.062276" lon="113.276586">
        <time>2026-08-10T22:45:46Z</time>
      </trkpt>
      <trkpt lat="23.062217" lon="113.276742">
        <time>2026-08-10T22:45:51Z</time>
      </trkpt>
      <trkpt lat="23.062162" lon="113.2769">
        <time>2026-08-10T22:45:56Z</time>
      </trkpt>
      <trkpt lat="23.062127" lon="113.277">
        <time>2026-08-10T22:46:01Z</time>
      </trkpt>
      <trkpt lat="23.062092" lon="113.277105">
        <time>2026-08-10T22:46:06Z</time>
      </trkpt>
      <trkpt lat="23.062026" lon="113.27727">
        <time>2026-08-10T22:46:11Z</time>
      </trkpt>
      <trkpt lat="23.061963" lon="113.277436">
        <time>2026-08-10T22:46:16Z</time>
      </trkpt>
      <trkpt lat="23.061922" lon="113.277543">
        <time>2026-08-10T22:46:21Z</time>
      </trkpt>
      <trkpt lat="23.06188" lon="113.27765">
        <time>2026-08-10T22:46:26Z</time>
      </trkpt>
      <trkpt lat="23.061842" lon="113.277814">
        <time>2026-08-10T22:46:31Z</time>
      </trkpt>
      <trkpt lat="23.061835" lon="113.27798">
        <time>2026-08-10T22:46:36Z</time>
      </trkpt>
      <trkpt lat="23.06184" lon="113.278088">
        <time>2026-08-10T22:46:41Z</time>
      </trkpt>
      <trkpt lat="23.061842" lon="113.278195">
        <time>2026-08-10T22:46:46Z</time>
      </trkpt>
      <trkpt lat="23.06185" lon="113.278358">
        <time>2026-08-10T22:46:51Z</time>
      </trkpt>
      <trkpt lat="23.061854" lon="113.278541">
        <time>2026-08-10T22:46:56Z</time>
      </trkpt>
      <trkpt lat="23.061855" lon="113.278661">
        <time>2026-08-10T22:47:01Z</time>
      </trkpt>
      <trkpt lat="23.061829" lon="113.278775">
        <time>2026-08-10T22:47:06Z</time>
      </trkpt>
      <trkpt lat="23.061751" lon="113.278933">
        <time>2026-08-10T22:47:11Z</time>
      </trkpt>
      <trkpt lat="23.061664" lon="113.279085">
        <time>2026-08-10T22:47:16Z</time>
      </trkpt>
      <trkpt lat="23.061612" lon="113.279195">
        <time>2026-08-10T22:47:21Z</time>
      </trkpt>
      <trkpt lat="23.061565" lon="113.279307">
        <time>2026-08-10T22:47:26Z</time>
      </trkpt>
      <trkpt lat="23.0615" lon="113.279472">
        <time>2026-08-10T22:47:31Z</time>
      </trkpt>
      <trkpt lat="23.061438" lon="113.27963">
        <time>2026-08-10T22:47:36Z</time>
      </trkpt>
      <trkpt lat="23.061391" lon="113.279733">
        <time>2026-08-10T22:47:41Z</time>
      </trkpt>
      <trkpt lat="23.061343" lon="113.279835">
        <time>2026-08-10T22:47:46Z</time>
      </trkpt>
      <trkpt lat="23.06128" lon="113.279994">
        <time>2026-08-10T22:47:51Z</time>
      </trkpt>
      <trkpt lat="23.061216" lon="113.280154">
        <time>2026-08-10T22:47:56Z</time>
      </trkpt>
      <trkpt lat="23.061173" lon="113.280266">
        <time>2026-08-10T22:48:01Z</time>
      </trkpt>
      <trkpt lat="23.061127" lon="113.280379">
        <time>2026-08-10T22:48:06Z</time>
      </trkpt>
      <trkpt lat="23.061044" lon="113.280548">
        <time>2026-08-10T22:48:11Z</time>
      </trkpt>
      <trkpt lat="23.060965" lon="113.280712">
        <time>2026-08-10T22:48:16Z</time>
      </trkpt>
      <trkpt lat="23.060917" lon="113.28082">
        <time>2026-08-10T22:48:21Z</time>
      </trkpt>
      <trkpt lat="23.060874" lon="113.280926">
        <time>2026-08-10T22:48:26Z</time>
      </trkpt>
      <trkpt lat="23.060808" lon="113.281079">
        <time>2026-08-10T22:48:31Z</time>
      </trkpt>
      <trkpt lat="23.060745" lon="113.28123">
        <time>2026-08-10T22:48:36Z</time>
      </trkpt>
      <trkpt lat="23.060708" lon="113.281322">
        <time>2026-08-10T22:48:41Z</time>
      </trkpt>
      <trkpt lat="23.060672" lon="113.281419">
        <time>2026-08-10T22:48:46Z</time>
      </trkpt>
      <trkpt lat="23.060615" lon="113.281561">
        <time>2026-08-10T22:48:51Z</time>
      </trkpt>
      <trkpt lat="23.060557" lon="113.281704">
        <time>2026-08-10T22:48:56Z</time>
      </trkpt>
      <trkpt lat="23.060517" lon="113.281799">
        <time>2026-08-10T22:49:01Z</time>
      </trkpt>
      <trkpt lat="23.060476" lon="113.281895">
        <time>2026-08-10T22:49:06Z</time>
      </trkpt>
      <trkpt lat="23.060416" lon="113.282044">
        <time>2026-08-10T22:49:11Z</time>
      </trkpt>
      <trkpt lat="23.060353" lon="113.282193">
        <time>2026-08-10T22:49:16Z</time>
      </trkpt>
      <trkpt lat="23.060305" lon="113.282295">
        <time>2026-08-10T22:49:21Z</time>
      </trkpt>
      <trkpt lat="23.06026" lon="113.282392">
        <time>2026-08-10T22:49:26Z</time>
      </trkpt>
      <trkpt lat="23.060201" lon="113.282543">
        <time>2026-08-10T22:49:31Z</time>
      </trkpt>
      <trkpt lat="23.060134" lon="113.282695">
        <time>2026-08-10T22:49:36Z</time>
      </trkpt>
      <trkpt lat="23.060096" lon="113.282787">
        <time>2026-08-10T22:49:41Z</time>
      </trkpt>
      <trkpt lat="23.060064" lon="113.282878">
        <time>2026-08-10T22:49:46Z</time>
      </trkpt>
      <trkpt lat="23.059995" lon="113.283022">
        <time>2026-08-10T22:49:51Z</time>
      </trkpt>
      <trkpt lat="23.059921" lon="113.283169">
        <time>2026-08-10T22:49:56Z</time>
      </trkpt>
      <trkpt lat="23.059876" lon="113.28326">
        <time>2026-08-10T22:50:01Z</time>
      </trkpt>
      <trkpt lat="23.059838" lon="113.283349">
        <time>2026-08-10T22:50:06Z</time>
      </trkpt>
      <trkpt lat="23.059914" lon="113.283356">
        <time>2026-08-10T22:50:11Z</time>
      </trkpt>
      <trkpt lat="23.059998" lon="113.283209">
        <time>2026-08-10T22:50:16Z</time>
      </trkpt>
      <trkpt lat="23.060052" lon="113.283112">
        <time>2026-08-10T22:50:21Z</time>
      </trkpt>
      <trkpt lat="23.060098" lon="113.283017">
        <time>2026-08-10T22:50:26Z</time>
      </trkpt>
      <trkpt lat="23.060158" lon="113.282872">
        <time>2026-08-10T22:50:31Z</time>
      </trkpt>
      <trkpt lat="23.060227" lon="113.282727">
        <time>2026-08-10T22:50:36Z</time>
      </trkpt>
      <trkpt lat="23.060265" lon="113.282629">
        <time>2026-08-10T22:50:41Z</time>
      </trkpt>
      <trkpt lat="23.060304" lon="113.28253">
        <time>2026-08-10T22:50:46Z</time>
      </trkpt>
      <trkpt lat="23.060365" lon="113.282383">
        <time>2026-08-10T22:50:51Z</time>
      </trkpt>
      <trkpt lat="23.060426" lon="113.282238">
        <time>2026-08-10T22:50:56Z</time>
      </trkpt>
      <trkpt lat="23.060475" lon="113.282143">
        <time>2026-08-10T22:51:01Z</time>
      </trkpt>
      <trkpt lat="23.06052" lon="113.282047">
        <time>2026-08-10T22:51:06Z</time>
      </trkpt>
      <trkpt lat="23.060582" lon="113.281904">
        <time>2026-08-10T22:51:11Z</time>
      </trkpt>
      <trkpt lat="23.06064" lon="113.281762">
        <time>2026-08-10T22:51:16Z</time>
      </trkpt>
      <trkpt lat="23.06068" lon="113.281668">
        <time>2026-08-10T22:51:21Z</time>
      </trkpt>
      <trkpt lat="23.060718" lon="113.281577">
        <time>2026-08-10T22:51:26Z</time>
      </trkpt>
      <trkpt lat="23.060772" lon="113.281437">
        <time>2026-08-10T22:51:31Z</time>
      </trkpt>
      <trkpt lat="23.060836" lon="113.281288">
        <time>2026-08-10T22:51:36Z</time>
      </trkpt>
      <trkpt lat="23.060879" lon="113.281187">
        <time>2026-08-10T22:51:41Z</time>
      </trkpt>
      <trkpt lat="23.060921" lon="113.281083">
        <time>2026-08-10T22:51:46Z</time>
      </trkpt>
      <trkpt lat="23.060983" lon="113.280933">
        <time>2026-08-10T22:51:51Z</time>
      </trkpt>
      <trkpt lat="23.061041" lon="113.280786">
        <time>2026-08-10T22:51:56Z</time>
      </trkpt>
      <trkpt lat="23.061086" lon="113.280687">
        <time>2026-08-10T22:52:01Z</time>
      </trkpt>
      <trkpt lat="23.061131" lon="113.280588">
        <time>2026-08-10T22:52:06Z</time>
      </trkpt>
      <trkpt lat="23.06119" lon="113.280448">
        <time>2026-08-10T22:52:11Z</time>
      </trkpt>
      <trkpt lat="23.061245" lon="113.280312">
        <time>2026-08-10T22:52:16Z</time>
      </trkpt>
      <trkpt lat="23.061287" lon="113.280216">
        <time>2026-08-10T22:52:21Z</time>
      </trkpt>
      <trkpt lat="23.06134" lon="113.280123">
        <time>2026-08-10T22:52:26Z</time>
      </trkpt>
      <trkpt lat="23.061403" lon="113.279984">
        <time>2026-08-10T22:52:31Z</time>
      </trkpt>
      <trkpt lat="23.061467" lon="113.279847">
        <time>2026-08-10T22:52:36Z</time>
      </trkpt>
      <trkpt lat="23.061517" lon="113.279753">
        <time>2026-08-10T22:52:41Z</time>
      </trkpt>
      <trkpt lat="23.061565" lon="113.279657">
        <time>2026-08-10T22:52:46Z</time>
      </trkpt>
      <trkpt lat="23.061621" lon="113.279505">
        <time>2026-08-10T22:52:51Z</time>
      </trkpt>
      <trkpt lat="23.061672" lon="113.279352">
        <time>2026-08-10T22:52:56Z</time>
      </trkpt>
      <trkpt lat="23.06171" lon="113.279255">
        <time>2026-08-10T22:53:01Z</time>
      </trkpt>
      <trkpt lat="23.061753" lon="113.279157">
        <time>2026-08-10T22:53:06Z</time>
      </trkpt>
      <trkpt lat="23.061828" lon="113.279015">
        <time>2026-08-10T22:53:11Z</time>
      </trkpt>
      <trkpt lat="23.061918" lon="113.27887">
        <time>2026-08-10T22:53:16Z</time>
      </trkpt>
      <trkpt lat="23.061959" lon="113.278763">
        <time>2026-08-10T22:53:21Z</time>
      </trkpt>
      <trkpt lat="23.061973" lon="113.278656">
        <time>2026-08-10T22:53:26Z</time>
      </trkpt>
      <trkpt lat="23.061974" lon="113.278494">
        <time>2026-08-10T22:53:31Z</time>
      </trkpt>
      <trkpt lat="23.061969" lon="113.278333">
        <time>2026-08-10T22:53:36Z</time>
      </trkpt>
      <trkpt lat="23.061962" lon="113.278229">
        <time>2026-08-10T22:53:41Z</time>
      </trkpt>
      <trkpt lat="23.061952" lon="113.278129">
        <time>2026-08-10T22:53:46Z</time>
      </trkpt>
      <trkpt lat="23.061934" lon="113.277978">
        <time>2026-08-10T22:53:51Z</time>
      </trkpt>
      <trkpt lat="23.061927" lon="113.277819">
        <time>2026-08-10T22:53:56Z</time>
      </trkpt>
      <trkpt lat="23.061944" lon="113.277712">
        <time>2026-08-10T22:54:01Z</time>
      </trkpt>
      <trkpt lat="23.061976" lon="113.277608">
        <time>2026-08-10T22:54:06Z</time>
      </trkpt>
      <trkpt lat="23.062036" lon="113.277458">
        <time>2026-08-10T22:54:11Z</time>
      </trkpt>
      <trkpt lat="23.062098" lon="113.277309">
        <time>2026-08-10T22:54:16Z</time>
      </trkpt>
      <trkpt lat="23.062138" lon="113.277207">
        <time>2026-08-10T22:54:21Z</time>
      </trkpt>
      <trkpt lat="23.062171" lon="113.277103">
        <time>2026-08-10T22:54:26Z</time>
      </trkpt>
      <trkpt lat="23.062226" lon="113.276956">
        <time>2026-08-10T22:54:31Z</time>
      </trkpt>
      <trkpt lat="23.062277" lon="113.276808">
        <time>2026-08-10T22:54:36Z</time>
      </trkpt>
      <trkpt lat="23.062306" lon="113.276705">
        <time>2026-08-10T22:54:41Z</time>
      </trkpt>
      <trkpt lat="23.062344" lon="113.276604">
        <time>2026-08-10T22:54:46Z</time>
      </trkpt>
      <trkpt lat="23.062402" lon="113.276451">
        <time>2026-08-10T22:54:51Z</time>
      </trkpt>
      <trkpt lat="23.062457" lon="113.276304">
        <time>2026-08-10T22:54:56Z</time>
      </trkpt>
      <trkpt lat="23.062503" lon="113.276205">
        <time>2026-08-10T22:55:01Z</time>
      </trkpt>
      <trkpt lat="23.062557" lon="113.276111">
        <time>2026-08-10T22:55:06Z</time>
      </trkpt>
      <trkpt lat="23.062642" lon="113.27598">
        <time>2026-08-10T22:55:11Z</time>
      </trkpt>
      <trkpt lat="23.062734" lon="113.275857">
        <time>2026-08-10T22:55:16Z</time>
      </trkpt>
      <trkpt lat="23.062801" lon="113.275778">
        <time>2026-08-10T22:55:21Z</time>
      </trkpt>
      <trkpt lat="23.062873" lon="113.275704">
        <time>2026-08-10T22:55:26Z</time>
      </trkpt>
      <trkpt lat="23.062986" lon="113.275594">
        <time>2026-08-10T22:55:31Z</time>
      </trkpt>
      <trkpt lat="23.063078" lon="113.275469">
        <time>2026-08-10T22:55:36Z</time>
      </trkpt>
      <trkpt lat="23.063137" lon="113.275382">
        <time>2026-08-10T22:55:41Z</time>
      </trkpt>
      <trkpt lat="23.063191" lon="113.275294">
        <time>2026-08-10T22:55:46Z</time>
      </trkpt>
      <trkpt lat="23.063269" lon="113.275159">
        <time>2026-08-10T22:55:51Z</time>
      </trkpt>
      <trkpt lat="23.063361" lon="113.275027">
        <time>2026-08-10T22:55:56Z</time>
      </trkpt>
      <trkpt lat="23.06341" lon="113.274933">
        <time>2026-08-10T22:56:01Z</time>
      </trkpt>
      <trkpt lat="23.063444" lon="113.274829">
        <time>2026-08-10T22:56:06Z</time>
      </trkpt>
      <trkpt lat="23.063492" lon="113.274689">
        <time>2026-08-10T22:56:11Z</time>
      </trkpt>
      <trkpt lat="23.063522" lon="113.274549">
        <time>2026-08-10T22:56:16Z</time>
      </trkpt>
      <trkpt lat="23.063538" lon="113.274448">
        <time>2026-08-10T22:56:21Z</time>
      </trkpt>
      <trkpt lat="23.063579" lon="113.274364">
        <time>2026-08-10T22:56:26Z</time>
      </trkpt>
      <trkpt lat="23.063675" lon="113.274231">
        <time>2026-08-10T22:56:31Z</time>
      </trkpt>
      <trkpt lat="23.06379" lon="113.274099">
        <time>2026-08-10T22:56:36Z</time>
      </trkpt>
      <trkpt lat="23.063857" lon="113.274012">
        <time>2026-08-10T22:56:41Z</time>
      </trkpt>
      <trkpt lat="23.063914" lon="113.273918">
        <time>2026-08-10T22:56:46Z</time>
      </trkpt>
      <trkpt lat="23.063993" lon="113.273787">
        <time>2026-08-10T22:56:51Z</time>
      </trkpt>
      <trkpt lat="23.064099" lon="113.273672">
        <time>2026-08-10T22:56:56Z</time>
      </trkpt>
      <trkpt lat="23.06418" lon="113.27361">
        <time>2026-08-10T22:57:01Z</time>
      </trkpt>
      <trkpt lat="23.064259" lon="113.273549">
        <time>2026-08-10T22:57:06Z</time>
      </trkpt>
      <trkpt lat="23.064393" lon="113.273449">
        <time>2026-08-10T22:57:11Z</time>
      </trkpt>
      <trkpt lat="23.064514" lon="113.273336">
        <time>2026-08-10T22:57:16Z</time>
      </trkpt>
      <trkpt lat="23.064571" lon="113.273237">
        <time>2026-08-10T22:57:21Z</time>
      </trkpt>
      <trkpt lat="23.064591" lon="113.273122">
        <time>2026-08-10T22:57:26Z</time>
      </trkpt>
      <trkpt lat="23.064557" lon="113.272951">
        <time>2026-08-10T22:57:31Z</time>
      </trkpt>
      <trkpt lat="23.064491" lon="113.272787">
        <time>2026-08-10T22:57:36Z</time>
      </trkpt>
      <trkpt lat="23.064458" lon="113.272678">
        <time>2026-08-10T22:57:41Z</time>
      </trkpt>
      <trkpt lat="23.064456" lon="113.272563">
        <time>2026-08-10T22:57:46Z</time>
      </trkpt>
      <trkpt lat="23.064527" lon="113.272404">
        <time>2026-08-10T22:57:51Z</time>
      </trkpt>
      <trkpt lat="23.064553" lon="113.272238">
        <time>2026-08-10T22:57:56Z</time>
      </trkpt>
      <trkpt lat="23.064576" lon="113.272134">
        <time>2026-08-10T22:58:01Z</time>
      </trkpt>
      <trkpt lat="23.064617" lon="113.272042">
        <time>2026-08-10T22:58:06Z</time>
      </trkpt>
      <trkpt lat="23.064683" lon="113.271907">
        <time>2026-08-10T22:58:11Z</time>
      </trkpt>
      <trkpt lat="23.064752" lon="113.27177">
        <time>2026-08-10T22:58:16Z</time>
      </trkpt>
      <trkpt lat="23.064797" lon="113.271679">
        <time>2026-08-10T22:58:21Z</time>
      </trkpt>
      <trkpt lat="23.064845" lon="113.271587">
        <time>2026-08-10T22:58:26Z</time>
      </trkpt>
      <trkpt lat="23.064921" lon="113.271449">
        <time>2026-08-10T22:58:31Z</time>
      </trkpt>
      <trkpt lat="23.064989" lon="113.271311">
        <time>2026-08-10T22:58:36Z</time>
      </trkpt>
      <trkpt lat="23.065036" lon="113.271216">
        <time>2026-08-10T22:58:41Z</time>
      </trkpt>
      <trkpt lat="23.065093" lon="113.271118">
        <time>2026-08-10T22:58:46Z</time>
      </trkpt>
      <trkpt lat="23.065167" lon="113.270961">
        <time>2026-08-10T22:58:51Z</time>
      </trkpt>
      <trkpt lat="23.065216" lon="113.270802">
        <time>2026-08-10T22:58:56Z</time>
      </trkpt>
      <trkpt lat="23.065259" lon="113.270705">
        <time>2026-08-10T22:59:01Z</time>
      </trkpt>
      <trkpt lat="23.065301" lon="113.270612">
        <time>2026-08-10T22:59:06Z</time>
      </trkpt>
      <trkpt lat="23.06536" lon="113.270465">
        <time>2026-08-10T22:59:11Z</time>
      </trkpt>
      <trkpt lat="23.065418" lon="113.270328">
        <time>2026-08-10T22:59:16Z</time>
      </trkpt>
      <trkpt lat="23.06546" lon="113.270234">
        <time>2026-08-10T22:59:21Z</time>
      </trkpt>
      <trkpt lat="23.065499" lon="113.27014">
        <time>2026-08-10T22:59:26Z</time>
      </trkpt>
      <trkpt lat="23.065561" lon="113.269995">
        <time>2026-08-10T22:59:31Z</time>
      </trkpt>
      <trkpt lat="23.065607" lon="113.269845">
        <time>2026-08-10T22:59:36Z</time>
      </trkpt>
      <trkpt lat="23.065632" lon="113.269747">
        <time>2026-08-10T22:59:41Z</time>
      </trkpt>
      <trkpt lat="23.06567" lon="113.269653">
        <time>2026-08-10T22:59:46Z</time>
      </trkpt>
      <trkpt lat="23.06572" lon="113.2695">
        <time>2026-08-10T22:59:51Z</time>
      </trkpt>
      <trkpt lat="23.065748" lon="113.269345">
        <time>2026-08-10T22:59:56Z</time>
      </trkpt>
      <trkpt lat="23.065765" lon="113.269242">
        <time>2026-08-10T23:00:01Z</time>
      </trkpt>
      <trkpt lat="23.065795" lon="113.26914">
        <time>2026-08-10T23:00:06Z</time>
      </trkpt>
      <trkpt lat="23.065851" lon="113.268993">
        <time>2026-08-10T23:00:11Z</time>
      </trkpt>
      <trkpt lat="23.065925" lon="113.268843">
        <time>2026-08-10T23:00:16Z</time>
      </trkpt>
      <trkpt lat="23.065969" lon="113.268742">
        <time>2026-08-10T23:00:21Z</time>
      </trkpt>
      <trkpt lat="23.066011" lon="113.268641">
        <time>2026-08-10T23:00:26Z</time>
      </trkpt>
      <trkpt lat="23.066088" lon="113.268495">
        <time>2026-08-10T23:00:31Z</time>
      </trkpt>
      <trkpt lat="23.066176" lon="113.268358">
        <time>2026-08-10T23:00:36Z</time>
      </trkpt>
      <trkpt lat="23.066236" lon="113.268276">
        <time>2026-08-10T23:00:41Z</time>
      </trkpt>
      <trkpt lat="23.066308" lon="113.268201">
        <time>2026-08-10T23:00:46Z</time>
      </trkpt>
      <trkpt lat="23.066444" lon="113.268128">
        <time>2026-08-10T23:00:51Z</time>
      </trkpt>
      <trkpt lat="23.066602" lon="113.268138">
        <time>2026-08-10T23:00:56Z</time>
      </trkpt>
      <trkpt lat="23.066702" lon="113.268146">
        <time>2026-08-10T23:01:01Z</time>
      </trkpt>
      <trkpt lat="23.066802" lon="113.268145">
        <time>2026-08-10T23:01:06Z</time>
      </trkpt>
      <trkpt lat="23.066955" lon="113.268165">
        <time>2026-08-10T23:01:11Z</time>
      </trkpt>
      <trkpt lat="23.067086" lon="113.26822">
        <time>2026-08-10T23:01:16Z</time>
      </trkpt>
      <trkpt lat="23.067165" lon="113.268266">
        <time>2026-08-10T23:01:21Z</time>
      </trkpt>
      <trkpt lat="23.067251" lon="113.268308">
        <time>2026-08-10T23:01:26Z</time>
      </trkpt>
      <trkpt lat="23.067378" lon="113.268378">
        <time>2026-08-10T23:01:31Z</time>
      </trkpt>
      <trkpt lat="23.067508" lon="113.26845">
        <time>2026-08-10T23:01:36Z</time>
      </trkpt>
      <trkpt lat="23.067609" lon="113.2685">
        <time>2026-08-10T23:01:41Z</time>
      </trkpt>
      <trkpt lat="23.067713" lon="113.268546">
        <time>2026-08-10T23:01:46Z</time>
      </trkpt>
      <trkpt lat="23.067857" lon="113.268609">
        <time>2026-08-10T23:01:51Z</time>
      </trkpt>
      <trkpt lat="23.067989" lon="113.268691">
        <time>2026-08-10T23:01:56Z</time>
      </trkpt>
      <trkpt lat="23.068082" lon="113.268733">
        <time>2026-08-10T23:02:01Z</time>
      </trkpt>
      <trkpt lat="23.068175" lon="113.26877">
        <time>2026-08-10T23:02:06Z</time>
      </trkpt>
      <trkpt lat="23.068309" lon="113.268821">
        <time>2026-08-10T23:02:11Z</time>
      </trkpt>
      <trkpt lat="23.068444" lon="113.268875">
        <time>2026-08-10T23:02:16Z</time>
      </trkpt>
      <trkpt lat="23.068541" lon="113.268911">
        <time>2026-08-10T23:02:21Z</time>
      </trkpt>
      <trkpt lat="23.068641" lon="113.26895">
        <time>2026-08-10T23:02:26Z</time>
      </trkpt>
      <trkpt lat="23.068773" lon="113.269022">
        <time>2026-08-10T23:02:31Z</time>
      </trkpt>
      <trkpt lat="23.068885" lon="113.269131">
        <time>2026-08-10T23:02:36Z</time>
      </trkpt>
      <trkpt lat="23.068961" lon="113.269197">
        <time>2026-08-10T23:02:41Z</time>
      </trkpt>
      <trkpt lat="23.069043" lon="113.269234">
        <time>2026-08-10T23:02:46Z</time>
      </trkpt>
      <trkpt lat="23.069193" lon="113.269262">
        <time>2026-08-10T23:02:51Z</time>
      </trkpt>
      <trkpt lat="23.069332" lon="113.269343">
        <time>2026-08-10T23:02:56Z</time>
      </trkpt>
      <trkpt lat="23.069421" lon="113.269387">
        <time>2026-08-10T23:03:01Z</time>
      </trkpt>
      <trkpt lat="23.069509" lon="113.269429">
        <time>2026-08-10T23:03:06Z</time>
      </trkpt>
      <trkpt lat="23.069642" lon="113.269486">
        <time>2026-08-10T23:03:11Z</time>
      </trkpt>
      <trkpt lat="23.069778" lon="113.26956">
        <time>2026-08-10T23:03:16Z</time>
      </trkpt>
      <trkpt lat="23.069866" lon="113.269613">
        <time>2026-08-10T23:03:21Z</time>
      </trkpt>
      <trkpt lat="23.069951" lon="113.269666">
        <time>2026-08-10T23:03:26Z</time>
      </trkpt>
      <trkpt lat="23.070072" lon="113.269762">
        <time>2026-08-10T23:03:31Z</time>
      </trkpt>
      <trkpt lat="23.070202" lon="113.26984">
        <time>2026-08-10T23:03:36Z</time>
      </trkpt>
      <trkpt lat="23.070292" lon="113.269879">
        <time>2026-08-10T23:03:41Z</time>
      </trkpt>
      <trkpt lat="23.070381" lon="113.269909">
        <time>2026-08-10T23:03:46Z</time>
      </trkpt>
      <trkpt lat="23.07052" lon="113.269961">
        <time>2026-08-10T23:03:51Z</time>
      </trkpt>
      <trkpt lat="23.070683" lon="113.269995">
        <time>2026-08-10T23:03:56Z</time>
      </trkpt>
      <trkpt lat="23.070775" lon="113.270024">
        <time>2026-08-10T23:04:01Z</time>
      </trkpt>
      <trkpt lat="23.070856" lon="113.270091">
        <time>2026-08-10T23:04:06Z</time>
      </trkpt>
      <trkpt lat="23.070973" lon="113.270195">
        <time>2026-08-10T23:04:11Z</time>
      </trkpt>
      <trkpt lat="23.071111" lon="113.270261">
        <time>2026-08-10T23:04:16Z</time>
      </trkpt>
      <trkpt lat="23.071204" lon="113.2703">
        <time>2026-08-10T23:04:21Z</time>
      </trkpt>
      <trkpt lat="23.071277" lon="113.270324">
        <time>2026-08-10T23:04:26Z</time>
      </trkpt>
      <trkpt lat="23.071382" lon="113.270356">
        <time>2026-08-10T23:04:31Z</time>
      </trkpt>
      <trkpt lat="23.071527" lon="113.2704">
        <time>2026-08-10T23:04:36Z</time>
      </trkpt>
      <trkpt lat="23.07162" lon="113.270436">
        <time>2026-08-10T23:04:41Z</time>
      </trkpt>
      <trkpt lat="23.071704" lon="113.270473">
        <time>2026-08-10T23:04:46Z</time>
      </trkpt>
      <trkpt lat="23.071833" lon="113.270538">
        <time>2026-08-10T23:04:51Z</time>
      </trkpt>
      <trkpt lat="23.071953" lon="113.27062">
        <time>2026-08-10T23:04:56Z</time>
      </trkpt>
      <trkpt lat="23.072053" lon="113.270652">
        <time>2026-08-10T23:05:01Z</time>
      </trkpt>
      <trkpt lat="23.072147" lon="113.270678">
        <time>2026-08-10T23:05:06Z</time>
      </trkpt>
      <trkpt lat="23.072279" lon="113.270724">
        <time>2026-08-10T23:05:11Z</time>
      </trkpt>
      <trkpt lat="23.072406" lon="113.270822">
        <time>2026-08-10T23:05:16Z</time>
      </trkpt>
      <trkpt lat="23.072501" lon="113.270866">
        <time>2026-08-10T23:05:21Z</time>
      </trkpt>
      <trkpt lat="23.072592" lon="113.270916">
        <time>2026-08-10T23:05:26Z</time>
      </trkpt>
      <trkpt lat="23.072726" lon="113.270964">
        <time>2026-08-10T23:05:31Z</time>
      </trkpt>
      <trkpt lat="23.072845" lon="113.270987">
        <time>2026-08-10T23:05:36Z</time>
      </trkpt>
      <trkpt lat="23.072919" lon="113.271024">
        <time>2026-08-10T23:05:41Z</time>
      </trkpt>
      <trkpt lat="23.073004" lon="113.271075">
        <time>2026-08-10T23:05:46Z</time>
      </trkpt>
      <trkpt lat="23.073137" lon="113.271146">
        <time>2026-08-10T23:05:51Z</time>
      </trkpt>
      <trkpt lat="23.073274" lon="113.271225">
        <time>2026-08-10T23:05:56Z</time>
      </trkpt>
      <trkpt lat="23.073365" lon="113.271275">
        <time>2026-08-10T23:06:01Z</time>
      </trkpt>
      <trkpt lat="23.07344" lon="113.271329">
        <time>2026-08-10T23:06:06Z</time>
      </trkpt>
      <trkpt lat="23.073551" lon="113.271422">
        <time>2026-08-10T23:06:11Z</time>
      </trkpt>
      <trkpt lat="23.073678" lon="113.271512">
        <time>2026-08-10T23:06:16Z</time>
      </trkpt>
      <trkpt lat="23.073767" lon="113.271553">
        <time>2026-08-10T23:06:21Z</time>
      </trkpt>
      <trkpt lat="23.07386" lon="113.271574">
        <time>2026-08-10T23:06:26Z</time>
      </trkpt>
      <trkpt lat="23.073998" lon="113.271618">
        <time>2026-08-10T23:06:31Z</time>
      </trkpt>
      <trkpt lat="23.074087" lon="113.271703">
        <time>2026-08-10T23:06:36Z</time>
      </trkpt>
      <trkpt lat="23.074107" lon="113.271777">
        <time>2026-08-10T23:06:41Z</time>
      </trkpt>
      <trkpt lat="23.074069" lon="113.271863">
        <time>2026-08-10T23:06:46Z</time>
      </trkpt>
      <trkpt lat="23.074" lon="113.271998">
        <time>2026-08-10T23:06:51Z</time>
      </trkpt>
      <trkpt lat="23.073944" lon="113.272129">
        <time>2026-08-10T23:06:56Z</time>
      </trkpt>
      <trkpt lat="23.073903" lon="113.272214">
        <time>2026-08-10T23:07:01Z</time>
      </trkpt>
      <trkpt lat="23.073859" lon="113.272303">
        <time>2026-08-10T23:07:06Z</time>
      </trkpt>
      <trkpt lat="23.073805" lon="113.27243">
        <time>2026-08-10T23:07:11Z</time>
      </trkpt>
      <trkpt lat="23.073754" lon="113.272573">
        <time>2026-08-10T23:07:16Z</time>
      </trkpt>
      <trkpt lat="23.073722" lon="113.272669">
        <time>2026-08-10T23:07:21Z</time>
      </trkpt>
      <trkpt lat="23.073681" lon="113.272765">
        <time>2026-08-10T23:07:26Z</time>
      </trkpt>
      <trkpt lat="23.073616" lon="113.272902">
        <time>2026-08-10T23:07:31Z</time>
      </trkpt>
      <trkpt lat="23.073572" lon="113.273024">
        <time>2026-08-10T23:07:36Z</time>
      </trkpt>
      <trkpt lat="23.073551" lon="113.273111">
        <time>2026-08-10T23:07:41Z</time>
      </trkpt>
      <trkpt lat="23.073528" lon="113.27318">
        <time>2026-08-10T23:07:46Z</time>
      </trkpt>
      <trkpt lat="23.073587" lon="113.273117">
        <time>2026-08-10T23:07:51Z</time>
      </trkpt>
      <trkpt lat="23.073645" lon="113.272992">
        <time>2026-08-10T23:07:56Z</time>
      </trkpt>
      <trkpt lat="23.073705" lon="113.272926">
        <time>2026-08-10T23:08:01Z</time>
      </trkpt>
      <trkpt lat="23.073773" lon="113.27292">
        <time>2026-08-10T23:08:06Z</time>
      </trkpt>
      <trkpt lat="23.073899" lon="113.272973">
        <time>2026-08-10T23:08:11Z</time>
      </trkpt>
      <trkpt lat="23.074013" lon="113.272964">
        <time>2026-08-10T23:08:16Z</time>
      </trkpt>
      <trkpt lat="23.074044" lon="113.272867">
        <time>2026-08-10T23:08:21Z</time>
      </trkpt>
      <trkpt lat="23.074073" lon="113.272767">
        <time>2026-08-10T23:08:26Z</time>
      </trkpt>
      <trkpt lat="23.074133" lon="113.272638">
        <time>2026-08-10T23:08:31Z</time>
      </trkpt>
      <trkpt lat="23.074183" lon="113.272514">
        <time>2026-08-10T23:08:36Z</time>
      </trkpt>
      <trkpt lat="23.074224" lon="113.272417">
        <time>2026-08-10T23:08:41Z</time>
      </trkpt>
      <trkpt lat="23.074266" lon="113.272329">
        <time>2026-08-10T23:08:46Z</time>
      </trkpt>
      <trkpt lat="23.074311" lon="113.272198">
        <time>2026-08-10T23:08:51Z</time>
      </trkpt>
      <trkpt lat="23.074432" lon="113.27208">
        <time>2026-08-10T23:08:56Z</time>
      </trkpt>
      <trkpt lat="23.074501" lon="113.272018">
        <time>2026-08-10T23:09:01Z</time>
      </trkpt>
      <trkpt lat="23.074562" lon="113.27202">
        <time>2026-08-10T23:09:06Z</time>
      </trkpt>
      <trkpt lat="23.074678" lon="113.272095">
        <time>2026-08-10T23:09:14Z</time>
      </trkpt>
    </trkseg>
  </trk>
</gpx>