<?xml version="1.0" encoding="UTF-8"?>
<gpx xmlns="http://www.topografix.com/GPX/1/1" xmlns:gpxtpx="http://www.garmin.com/xmlschemas/TrackPointExtension/v1" xmlns:xsi="http://www.w3.org/2001/XMLSchema-instance" xsi:schemaLocation="http://www.topografix.com/GPX/1/1 http://www.topografix.com/GPX/1/1/gpx.xsd" version="1.1" creator="gpx.py -- https://github.com/tkrajina/gpxpy">
  <trk>
    <name>gpx from joyrun</name>
    <trkseg>
      <trkpt lat="23.075918" lon="113.272718">
        <time>2026-08-15T23:57:57Z</time>
      </trkpt>
      <trkpt lat="23.075857" lon="113.272694">
        <time>2026-08-15T23:58:02Z</time>
      </trkpt>
      <trkpt lat="23.075725" lon="113.272606">
        <time>2026-08-15T23:58:07Z</time>
      </trkpt>
      <trkpt lat="23.075599" lon="113.272496">
        <time>2026-08-15T23:58:12Z</time>
      </trkpt>
      <trkpt lat="23.075522" lon="113.272455">
        <time>2026-08-15T23:58:17Z</time>
      </trkpt>
      <trkpt lat="23.075466" lon="113.272412">
        <time>2026-08-15T23:58:22Z</time>
      </trkpt>
      <trkpt lat="23.075344" lon="113.272383">
        <time>2026-08-15T23:58:27Z</time>
      </trkpt>
      <trkpt lat="23.075227" lon="113.272415">
        <time>2026-08-15T23:58:32Z</time>
      </trkpt>
      <trkpt lat="23.075162" lon="113.2724">
        <time>2026-08-15T23:58:37Z</time>
      </trkpt>
      <trkpt lat="23.075079" lon="113.272372">
        <time>2026-08-15T23:58:42Z</time>
      </trkpt>
      <trkpt lat="23.074975" lon="113.272276">
        <time>2026-08-15T23:58:47Z</time>
      </trkpt>
      <trkpt lat="23.074845" lon="113.272209">
        <time>2026-08-15T23:58:52Z</time>
      </trkpt>
      <trkpt lat="23.07477" lon="113.272166">
        <time>2026-08-15T23:58:57Z</time>
      </trkpt>
      <trkpt lat="23.074687" lon="113.27213">
        <time>2026-08-15T23:59:02Z</time>
      </trkpt>
      <trkpt lat="23.074556" lon="113.272089">
        <time>2026-08-15T23:59:07Z</time>
      </trkpt>
      <trkpt lat="23.074425" lon="113.272088">
        <time>2026-08-15T23:59:12Z</time>
      </trkpt>
      <trkpt lat="23.074366" lon="113.272126">
        <time>2026-08-15T23:59:17Z</time>
      </trkpt>
      <trkpt lat="23.074321" lon="113.272194">
        <time>2026-08-15T23:59:22Z</time>
      </trkpt>
      <trkpt lat="23.074262" lon="113.272296">
        <time>2026-08-15T23:59:27Z</time>
      </trkpt>
      <trkpt lat="23.074207" lon="113.272411">
        <time>2026-08-15T23:59:32Z</time>
      </trkpt>
      <trkpt lat="23.074171" lon="113.272499">
        <time>2026-08-15T23:59:37Z</time>
      </trkpt>
      <trkpt lat="23.074132" lon="113.272592">
        <time>2026-08-15T23:59:42Z</time>
      </trkpt>
      <trkpt lat="23.074078" lon="113.272723">
        <time>2026-08-15T23:59:47Z</time>
      </trkpt>
      <trkpt lat="23.074038" lon="113.272842">
        <time>2026-08-15T23:59:52Z</time>
      </trkpt>
      <trkpt lat="23.074006" lon="113.272925">
        <time>2026-08-15T23:59:57Z</time>
      </trkpt>
      <trkpt lat="23.073974" lon="113.273003">
        <time>2026-08-16T00:00:02Z</time>
      </trkpt>
      <trkpt lat="23.073929" lon="113.273118">
        <time>2026-08-16T00:00:07Z</time>
      </trkpt>
      <trkpt lat="23.073878" lon="113.273233">
        <time>2026-08-16T00:00:12Z</time>
      </trkpt>
      <trkpt lat="23.07387" lon="113.27326">
        <time>2026-08-16T00:00:17Z</time>
      </trkpt>
      <trkpt lat="23.073895" lon="113.273218">
        <time>2026-08-16T00:00:22Z</time>
      </trkpt>
      <trkpt lat="23.073946" lon="113.273127">
        <time>2026-08-16T00:00:27Z</time>
      </trkpt>
      <trkpt lat="23.073984" lon="113.273027">
        <time>2026-08-16T00:00:32Z</time>
      </trkpt>
      <trkpt lat="23.074011" lon="113.272953">
        <time>2026-08-16T00:00:37Z</time>
      </trkpt>
      <trkpt lat="23.074012" lon="113.272911">
        <time>2026-08-16T00:00:42Z</time>
      </trkpt>
      <trkpt lat="23.073952" lon="113.27299">
        <time>2026-08-16T00:00:47Z</time>
      </trkpt>
      <trkpt lat="23.073838" lon="113.273002">
        <time>2026-08-16T00:00:52Z</time>
      </trkpt>
      <trkpt lat="23.07376" lon="113.272968">
        <time>2026-08-16T00:00:57Z</time>
      </trkpt>
      <trkpt lat="23.073696" lon="113.27291">
        <time>2026-08-16T00:01:02Z</time>
      </trkpt>
      <trkpt lat="23.073703" lon="113.272804">
        <time>2026-08-16T00:01:07Z</time>
      </trkpt>
      <trkpt lat="23.073773" lon="113.272699">
        <time>2026-08-16T00:01:12Z</time>
      </trkpt>
      <trkpt lat="23.073813" lon="113.27263">
        <time>2026-08-16T00:01:17Z</time>
      </trkpt>
      <trkpt lat="23.073846" lon="113.272561">
        <time>2026-08-16T00:01:22Z</time>
      </trkpt>
      <trkpt lat="23.073917" lon="113.272443">
        <time>2026-08-16T00:01:27Z</time>
      </trkpt>
      <trkpt lat="23.073981" lon="113.272333">
        <time>2026-08-16T00:01:32Z</time>
      </trkpt>
      <trkpt lat="23.074015" lon="113.272258">
        <time>2026-08-16T00:01:37Z</time>
      </trkpt>
      <trkpt lat="23.07405" lon="113.272181">
        <time>2026-08-16T00:01:42Z</time>
      </trkpt>
      <trkpt lat="23.074089" lon="113.272067">
        <time>2026-08-16T00:01:47Z</time>
      </trkpt>
      <trkpt lat="23.074122" lon="113.271964">
        <time>2026-08-16T00:01:52Z</time>
      </trkpt>
      <trkpt lat="23.074142" lon="113.271908">
        <time>2026-08-16T00:01:57Z</time>
      </trkpt>
      <trkpt lat="23.074165" lon="113.271849">
        <time>2026-08-16T00:02:02Z</time>
      </trkpt>
      <trkpt lat="23.074161" lon="113.271767">
        <time>2026-08-16T00:02:07Z</time>
      </trkpt>
      <trkpt lat="23.074154" lon="113.271758">
        <time>2026-08-16T00:02:12Z</time>
      </trkpt>
      <trkpt lat="23.074114" lon="113.271717">
        <time>2026-08-16T00:02:17Z</time>
      </trkpt>
      <trkpt lat="23.074009" lon="113.271671">
        <time>2026-08-16T00:02:22Z</time>
      </trkpt>
      <trkpt lat="23.073936" lon="113.271647">
        <time>2026-08-16T00:02:27Z</time>
      </trkpt>
      <trkpt lat="23.073872" lon="113.27161">
        <time>2026-08-16T00:02:32Z</time>
      </trkpt>
      <trkpt lat="23.073762" lon="113.271561">
        <time>2026-08-16T00:02:37Z</time>
      </trkpt>
      <trkpt lat="23.073647" lon="113.271526">
        <time>2026-08-16T00:02:42Z</time>
      </trkpt>
      <trkpt lat="23.073569" lon="113.271501">
        <time>2026-08-16T00:02:47Z</time>
      </trkpt>
      <trkpt lat="23.073483" lon="113.271477">
        <time>2026-08-16T00:02:52Z</time>
      </trkpt>
      <trkpt lat="23.073376" lon="113.27142">
        <time>2026-08-16T00:02:57Z</time>
      </trkpt>
      <trkpt lat="23.073288" lon="113.271313">
        <time>2026-08-16T00:03:02Z</time>
      </trkpt>
      <trkpt lat="23.073241" lon="113.271231">
        <time>2026-08-16T00:03:07Z</time>
      </trkpt>
      <trkpt lat="23.073174" lon="113.271188">
        <time>2026-08-16T00:03:12Z</time>
      </trkpt>
      <trkpt lat="23.073042" lon="113.271128">
        <time>2026-08-16T00:03:17Z</time>
      </trkpt>
      <trkpt lat="23.072913" lon="113.271066">
        <time>2026-08-16T00:03:22Z</time>
      </trkpt>
      <trkpt lat="23.07283" lon="113.271017">
        <time>2026-08-16T00:03:27Z</time>
      </trkpt>
      <trkpt lat="23.072744" lon="113.270976">
        <time>2026-08-16T00:03:32Z</time>
      </trkpt>
      <trkpt lat="23.072617" lon="113.270931">
        <time>2026-08-16T00:03:37Z</time>
      </trkpt>
      <trkpt lat="23.072504" lon="113.270872">
        <time>2026-08-16T00:03:42Z</time>
      </trkpt>
      <trkpt lat="23.072432" lon="113.270831">
        <time>2026-08-16T00:03:47Z</time>
      </trkpt>
      <trkpt lat="23.072362" lon="113.2708">
        <time>2026-08-16T00:03:52Z</time>
      </trkpt>
      <trkpt lat="23.072256" lon="113.270771">
        <time>2026-08-16T00:03:57Z</time>
      </trkpt>
      <trkpt lat="23.072156" lon="113.270718">
        <time>2026-08-16T00:04:02Z</time>
      </trkpt>
      <trkpt lat="23.072088" lon="113.270676">
        <time>2026-08-16T00:04:07Z</time>
      </trkpt>
      <trkpt lat="23.072013" lon="113.270643">
        <time>2026-08-16T00:04:12Z</time>
      </trkpt>
      <trkpt lat="23.071901" lon="113.270598">
        <time>2026-08-16T00:04:17Z</time>
      </trkpt>
      <trkpt lat="23.071788" lon="113.270545">
        <time>2026-08-16T00:04:22Z</time>
      </trkpt>
      <trkpt lat="23.071717" lon="113.270511">
        <time>2026-08-16T00:04:27Z</time>
      </trkpt>
      <trkpt lat="23.071646" lon="113.270476">
        <time>2026-08-16T00:04:32Z</time>
      </trkpt>
      <trkpt lat="23.071537" lon="113.27041">
        <time>2026-08-16T00:04:37Z</time>
      </trkpt>
      <trkpt lat="23.071411" lon="113.270362">
        <time>2026-08-16T00:04:42Z</time>
      </trkpt>
      <trkpt lat="23.071331" lon="113.270334">
        <time>2026-08-16T00:04:47Z</time>
      </trkpt>
      <trkpt lat="23.071255" lon="113.270295">
        <time>2026-08-16T00:04:52Z</time>
      </trkpt>
      <trkpt lat="23.071155" lon="113.27023">
        <time>2026-08-16T00:04:57Z</time>
      </trkpt>
      <trkpt lat="23.07105" lon="113.270187">
        <time>2026-08-16T00:05:02Z</time>
      </trkpt>
      <trkpt lat="23.070977" lon="113.270153">
        <time>2026-08-16T00:05:07Z</time>
      </trkpt>
      <trkpt lat="23.070907" lon="113.270112">
        <time>2026-08-16T00:05:12Z</time>
      </trkpt>
      <trkpt lat="23.070787" lon="113.270042">
        <time>2026-08-16T00:05:17Z</time>
      </trkpt>
      <trkpt lat="23.070661" lon="113.269978">
        <time>2026-08-16T00:05:22Z</time>
      </trkpt>
      <trkpt lat="23.070573" lon="113.269945">
        <time>2026-08-16T00:05:27Z</time>
      </trkpt>
      <trkpt lat="23.070487" lon="113.269909">
        <time>2026-08-16T00:05:32Z</time>
      </trkpt>
      <trkpt lat="23.070357" lon="113.269869">
        <time>2026-08-16T00:05:37Z</time>
      </trkpt>
      <trkpt lat="23.070233" lon="113.269832">
        <time>2026-08-16T00:05:42Z</time>
      </trkpt>
      <trkpt lat="23.070163" lon="113.269786">
        <time>2026-08-16T00:05:47Z</time>
      </trkpt>
      <trkpt lat="23.070097" lon="113.269737">
        <time>2026-08-16T00:05:52Z</time>
      </trkpt>
      <trkpt lat="23.069993" lon="113.269679">
        <time>2026-08-16T00:05:57Z</time>
      </trkpt>
      <trkpt lat="23.069883" lon="113.269609">
        <time>2026-08-16T00:06:02Z</time>
      </trkpt>
      <trkpt lat="23.069809" lon="113.269569">
        <time>2026-08-16T00:06:07Z</time>
      </trkpt>
      <trkpt lat="23.069732" lon="113.269532">
        <time>2026-08-16T00:06:12Z</time>
      </trkpt>
      <trkpt lat="23.069621" lon="113.269469">
        <time>2026-08-16T00:06:17Z</time>
      </trkpt>
      <trkpt lat="23.069508" lon="113.269407">
        <time>2026-08-16T00:06:22Z</time>
      </trkpt>
      <trkpt lat="23.069432" lon="113.269369">
        <time>2026-08-16T00:06:27Z</time>
      </trkpt>
      <trkpt lat="23.069352" lon="113.269341">
        <time>2026-08-16T00:06:32Z</time>
      </trkpt>
      <trkpt lat="23.069253" lon="113.269268">
        <time>2026-08-16T00:06:37Z</time>
      </trkpt>
      <trkpt lat="23.069192" lon="113.269148">
        <time>2026-08-16T00:06:42Z</time>
      </trkpt>
      <trkpt lat="23.069128" lon="113.269101">
        <time>2026-08-16T00:06:47Z</time>
      </trkpt>
      <trkpt lat="23.069059" lon="113.269064">
        <time>2026-08-16T00:06:52Z</time>
      </trkpt>
      <trkpt lat="23.068965" lon="113.268995">
        <time>2026-08-16T00:06:57Z</time>
      </trkpt>
      <trkpt lat="23.06888" lon="113.268942">
        <time>2026-08-16T00:07:02Z</time>
      </trkpt>
      <trkpt lat="23.068805" lon="113.268909">
        <time>2026-08-16T00:07:07Z</time>
      </trkpt>
      <trkpt lat="23.068722" lon="113.268877">
        <time>2026-08-16T00:07:12Z</time>
      </trkpt>
      <trkpt lat="23.068609" lon="113.268831">
        <time>2026-08-16T00:07:17Z</time>
      </trkpt>
      <trkpt lat="23.068499" lon="113.268788">
        <time>2026-08-16T00:07:22Z</time>
      </trkpt>
      <trkpt lat="23.068425" lon="113.268756">
        <time>2026-08-16T00:07:27Z</time>
      </trkpt>
      <trkpt lat="23.068357" lon="113.268716">
        <time>2026-08-16T00:07:32Z</time>
      </trkpt>
      <trkpt lat="23.068249" lon="113.268652">
        <time>2026-08-16T00:07:37Z</time>
      </trkpt>
      <trkpt lat="23.068125" lon="113.268593">
        <time>2026-08-16T00:07:42Z</time>
      </trkpt>
      <trkpt lat="23.068036" lon="113.268562">
        <time>2026-08-16T00:07:47Z</time>
      </trkpt>
      <trkpt lat="23.067937" lon="113.268528">
        <time>2026-08-16T00:07:52Z</time>
      </trkpt>
      <trkpt lat="23.067801" lon="113.268482">
        <time>2026-08-16T00:07:57Z</time>
      </trkpt>
      <trkpt lat="23.067683" lon="113.268422">
        <time>2026-08-16T00:08:02Z</time>
      </trkpt>
      <trkpt lat="23.067602" lon="113.268386">
        <time>2026-08-16T00:08:07Z</time>
      </trkpt>
      <trkpt lat="23.067521" lon="113.268353">
        <time>2026-08-16T00:08:12Z</time>
      </trkpt>
      <trkpt lat="23.067402" lon="113.268306">
        <time>2026-08-16T00:08:17Z</time>
      </trkpt>
      <trkpt lat="23.0673" lon="113.268255">
        <time>2026-08-16T00:08:22Z</time>
      </trkpt>
      <trkpt lat="23.067234" lon="113.268224">
        <time>2026-08-16T00:08:27Z</time>
      </trkpt>
      <trkpt lat="23.067168" lon="113.268195">
        <time>2026-08-16T00:08:32Z</time>
      </trkpt>
      <trkpt lat="23.067065" lon="113.268182">
        <time>2026-08-16T00:08:37Z</time>
      </trkpt>
      <trkpt lat="23.066943" lon="113.268184">
        <time>2026-08-16T00:08:42Z</time>
      </trkpt>
      <trkpt lat="23.06686" lon="113.268174">
        <time>2026-08-16T00:08:47Z</time>
      </trkpt>
      <trkpt lat="23.06678" lon="113.268179">
        <time>2026-08-16T00:08:52Z</time>
      </trkpt>
      <trkpt lat="23.066662" lon="113.268183">
        <time>2026-08-16T00:08:57Z</time>
      </trkpt>
      <trkpt lat="23.066539" lon="113.268167">
        <time>2026-08-16T00:09:02Z</time>
      </trkpt>
      <trkpt lat="23.066456" lon="113.268164">
        <time>2026-08-16T00:09:07Z</time>
      </trkpt>
      <trkpt lat="23.066381" lon="113.268187">
        <time>2026-08-16T00:09:12Z</time>
      </trkpt>
      <trkpt lat="23.066287" lon="113.268262">
        <time>2026-08-16T00:09:17Z</time>
      </trkpt>
      <trkpt lat="23.066212" lon="113.268359">
        <time>2026-08-16T00:09:22Z</time>
      </trkpt>
      <trkpt lat="23.066163" lon="113.268429">
        <time>2026-08-16T00:09:27Z</time>
      </trkpt>
      <trkpt lat="23.066114" lon="113.268502">
        <time>2026-08-16T00:09:32Z</time>
      </trkpt>
      <trkpt lat="23.066046" lon="113.268612">
        <time>2026-08-16T00:09:37Z</time>
      </trkpt>
      <trkpt lat="23.065988" lon="113.268728">
        <time>2026-08-16T00:09:42Z</time>
      </trkpt>
      <trkpt lat="23.065948" lon="113.2688">
        <time>2026-08-16T00:09:47Z</time>
      </trkpt>
      <trkpt lat="23.06591" lon="113.268869">
        <time>2026-08-16T00:09:52Z</time>
      </trkpt>
      <trkpt lat="23.065851" lon="113.26899">
        <time>2026-08-16T00:09:57Z</time>
      </trkpt>
      <trkpt lat="23.065797" lon="113.269114">
        <time>2026-08-16T00:10:02Z</time>
      </trkpt>
      <trkpt lat="23.065775" lon="113.269189">
        <time>2026-08-16T00:10:07Z</time>
      </trkpt>
      <trkpt lat="23.06576" lon="113.269274">
        <time>2026-08-16T00:10:12Z</time>
      </trkpt>
      <trkpt lat="23.065741" lon="113.269402">
        <time>2026-08-16T00:10:17Z</time>
      </trkpt>
      <trkpt lat="23.065719" lon="113.269529">
        <time>2026-08-16T00:10:22Z</time>
      </trkpt>
      <trkpt lat="23.065698" lon="113.269613">
        <time>2026-08-16T00:10:27Z</time>
      </trkpt>
      <trkpt lat="23.065671" lon="113.269691">
        <time>2026-08-16T00:10:32Z</time>
      </trkpt>
      <trkpt lat="23.06563" lon="113.269812">
        <time>2026-08-16T00:10:37Z</time>
      </trkpt>
      <trkpt lat="23.065594" lon="113.26993">
        <time>2026-08-16T00:10:42Z</time>
      </trkpt>
      <trkpt lat="23.065569" lon="113.270012">
        <time>2026-08-16T00:10:47Z</time>
      </trkpt>
      <trkpt lat="23.065543" lon="113.270092">
        <time>2026-08-16T00:10:52Z</time>
      </trkpt>
      <trkpt lat="23.065506" lon="113.270209">
        <time>2026-08-16T00:10:57Z</time>
      </trkpt>
      <trkpt lat="23.065497" lon="113.270335">
        <time>2026-08-16T00:11:02Z</time>
      </trkpt>
      <trkpt lat="23.065461" lon="113.270409">
        <time>2026-08-16T00:11:07Z</time>
      </trkpt>
      <trkpt lat="23.065423" lon="113.270484">
        <time>2026-08-16T00:11:12Z</time>
      </trkpt>
      <trkpt lat="23.065369" lon="113.270598">
        <time>2026-08-16T00:11:17Z</time>
      </trkpt>
      <trkpt lat="23.065318" lon="113.270709">
        <time>2026-08-16T00:11:22Z</time>
      </trkpt>
      <trkpt lat="23.065279" lon="113.270781">
        <time>2026-08-16T00:11:27Z</time>
      </trkpt>
      <trkpt lat="23.065247" lon="113.270855">
        <time>2026-08-16T00:11:32Z</time>
      </trkpt>
      <trkpt lat="23.065219" lon="113.270969">
        <time>2026-08-16T00:11:37Z</time>
      </trkpt>
      <trkpt lat="23.065264" lon="113.271071">
        <time>2026-08-16T00:11:42Z</time>
      </trkpt>
      <trkpt lat="23.06533" lon="113.271101">
        <time>2026-08-16T00:11:47Z</time>
      </trkpt>
      <trkpt lat="23.065394" lon="113.271127">
        <time>2026-08-16T00:11:52Z</time>
      </trkpt>
      <trkpt lat="23.065506" lon="113.271174">
        <time>2026-08-16T00:11:57Z</time>
      </trkpt>
      <trkpt lat="23.065611" lon="113.271209">
        <time>2026-08-16T00:12:02Z</time>
      </trkpt>
      <trkpt lat="23.065679" lon="113.271265">
        <time>2026-08-16T00:12:07Z</time>
      </trkpt>
      <trkpt lat="23.065736" lon="113.27133">
        <time>2026-08-16T00:12:12Z</time>
      </trkpt>
      <trkpt lat="23.065833" lon="113.271418">
        <time>2026-08-16T00:12:17Z</time>
      </trkpt>
      <trkpt lat="23.06594" lon="113.271459">
        <time>2026-08-16T00:12:22Z</time>
      </trkpt>
      <trkpt lat="23.06601" lon="113.271498">
        <time>2026-08-16T00:12:27Z</time>
      </trkpt>
      <trkpt lat="23.066072" lon="113.271557">
        <time>2026-08-16T00:12:32Z</time>
      </trkpt>
      <trkpt lat="23.066181" lon="113.271593">
        <time>2026-08-16T00:12:37Z</time>
      </trkpt>
      <trkpt lat="23.066284" lon="113.271565">
        <time>2026-08-16T00:12:42Z</time>
      </trkpt>
      <trkpt lat="23.066248" lon="113.271518">
        <time>2026-08-16T00:12:47Z</time>
      </trkpt>
      <trkpt lat="23.066159" lon="113.27148">
        <time>2026-08-16T00:12:52Z</time>
      </trkpt>
      <trkpt lat="23.066019" lon="113.271434">
        <time>2026-08-16T00:12:57Z</time>
      </trkpt>
      <trkpt lat="23.065909" lon="113.271402">
        <time>2026-08-16T00:13:02Z</time>
      </trkpt>
      <trkpt lat="23.065839" lon="113.271381">
        <time>2026-08-16T00:13:07Z</time>
      </trkpt>
      <trkpt lat="23.065763" lon="113.271349">
        <time>2026-08-16T00:13:12Z</time>
      </trkpt>
      <trkpt lat="23.065639" lon="113.271298">
        <time>2026-08-16T00:13:17Z</time>
      </trkpt>
      <trkpt lat="23.065512" lon="113.27125">
        <time>2026-08-16T00:13:22Z</time>
      </trkpt>
      <trkpt lat="23.06543" lon="113.271231">
        <time>2026-08-16T00:13:27Z</time>
      </trkpt>
      <trkpt lat="23.065349" lon="113.271233">
        <time>2026-08-16T00:13:32Z</time>
      </trkpt>
      <trkpt lat="23.06523" lon="113.271209">
        <time>2026-08-16T00:13:37Z</time>
      </trkpt>
      <trkpt lat="23.065144" lon="113.271139">
        <time>2026-08-16T00:13:42Z</time>
      </trkpt>
      <trkpt lat="23.065177" lon="113.271057">
        <time>2026-08-16T00:13:47Z</time>
      </trkpt>
      <trkpt lat="23.065225" lon="113.270959">
        <time>2026-08-16T00:13:52Z</time>
      </trkpt>
      <trkpt lat="23.065266" lon="113.270822">
        <time>2026-08-16T00:13:57Z</time>
      </trkpt>
      <trkpt lat="23.065335" lon="113.270742">
        <time>2026-08-16T00:14:02Z</time>
      </trkpt>
      <trkpt lat="23.06541" lon="113.270741">
        <time>2026-08-16T00:14:07Z</time>
      </trkpt>
      <trkpt lat="23.065475" lon="113.270705">
        <time>2026-08-16T00:14:12Z</time>
      </trkpt>
      <trkpt lat="23.065562" lon="113.270612">
        <time>2026-08-16T00:14:17Z</time>
      </trkpt>
      <trkpt lat="23.065679" lon="113.270569">
        <time>2026-08-16T00:14:22Z</time>
      </trkpt>
      <trkpt lat="23.065765" lon="113.270582">
        <time>2026-08-16T00:14:27Z</time>
      </trkpt>
      <trkpt lat="23.065843" lon="113.270638">
        <time>2026-08-16T00:14:32Z</time>
      </trkpt>
      <trkpt lat="23.065917" lon="113.270771">
        <time>2026-08-16T00:14:37Z</time>
      </trkpt>
      <trkpt lat="23.065933" lon="113.270913">
        <time>2026-08-16T00:14:42Z</time>
      </trkpt>
      <trkpt lat="23.06591" lon="113.270993">
        <time>2026-08-16T00:14:47Z</time>
      </trkpt>
      <trkpt lat="23.065866" lon="113.271066">
        <time>2026-08-16T00:14:52Z</time>
      </trkpt>
      <trkpt lat="23.065831" lon="113.271194">
        <time>2026-08-16T00:14:57Z</time>
      </trkpt>
      <trkpt lat="23.065887" lon="113.271277">
        <time>2026-08-16T00:15:02Z</time>
      </trkpt>
      <trkpt lat="23.065959" lon="113.271304">
        <time>2026-08-16T00:15:07Z</time>
      </trkpt>
      <trkpt lat="23.066035" lon="113.271333">
        <time>2026-08-16T00:15:12Z</time>
      </trkpt>
      <trkpt lat="23.066148" lon="113.271394">
        <time>2026-08-16T00:15:17Z</time>
      </trkpt>
      <trkpt lat="23.066271" lon="113.27141">
        <time>2026-08-16T00:15:22Z</time>
      </trkpt>
      <trkpt lat="23.066354" lon="113.271425">
        <time>2026-08-16T00:15:27Z</time>
      </trkpt>
      <trkpt lat="23.066394" lon="113.271483">
        <time>2026-08-16T00:15:32Z</time>
      </trkpt>
      <trkpt lat="23.066331" lon="113.27156">
        <time>2026-08-16T00:15:37Z</time>
      </trkpt>
      <trkpt lat="23.066222" lon="113.271524">
        <time>2026-08-16T00:15:42Z</time>
      </trkpt>
      <trkpt lat="23.066142" lon="113.271497">
        <time>2026-08-16T00:15:47Z</time>
      </trkpt>
      <trkpt lat="23.066055" lon="113.271465">
        <time>2026-08-16T00:15:52Z</time>
      </trkpt>
      <trkpt lat="23.065923" lon="113.271415">
        <time>2026-08-16T00:15:57Z</time>
      </trkpt>
      <trkpt lat="23.065776" lon="113.271383">
        <time>2026-08-16T00:16:02Z</time>
      </trkpt>
      <trkpt lat="23.065681" lon="113.271347">
        <time>2026-08-16T00:16:07Z</time>
      </trkpt>
      <trkpt lat="23.06559" lon="113.271312">
        <time>2026-08-16T00:16:12Z</time>
      </trkpt>
      <trkpt lat="23.065459" lon="113.271283">
        <time>2026-08-16T00:16:17Z</time>
      </trkpt>
      <trkpt lat="23.065338" lon="113.271252">
        <time>2026-08-16T00:16:22Z</time>
      </trkpt>
      <trkpt lat="23.065255" lon="113.271225">
        <time>2026-08-16T00:16:27Z</time>
      </trkpt>
      <trkpt lat="23.065172" lon="113.2712">
        <time>2026-08-16T00:16:32Z</time>
      </trkpt>
      <trkpt lat="23.065061" lon="113.271219">
        <time>2026-08-16T00:16:37Z</time>
      </trkpt>
      <trkpt lat="23.065007" lon="113.271328">
        <time>2026-08-16T00:16:42Z</time>
      </trkpt>
      <trkpt lat="23.064978" lon="113.271407">
        <time>2026-08-16T00:16:47Z</time>
      </trkpt>
      <trkpt lat="23.064946" lon="113.271483">
        <time>2026-08-16T00:16:52Z</time>
      </trkpt>
      <trkpt lat="23.064892" lon="113.27161">
        <time>2026-08-16T00:16:57Z</time>
      </trkpt>
      <trkpt lat="23.064836" lon="113.271734">
        <time>2026-08-16T00:17:02Z</time>
      </trkpt>
      <trkpt lat="23.0648" lon="113.271807">
        <time>2026-08-16T00:17:07Z</time>
      </trkpt>
      <trkpt lat="23.064773" lon="113.27188">
        <time>2026-08-16T00:17:12Z</time>
      </trkpt>
      <trkpt lat="23.064733" lon="113.271996">
        <time>2026-08-16T00:17:17Z</time>
      </trkpt>
      <trkpt lat="23.064684" lon="113.272114">
        <time>2026-08-16T00:17:22Z</time>
      </trkpt>
      <trkpt lat="23.064644" lon="113.272194">
        <time>2026-08-16T00:17:27Z</time>
      </trkpt>
      <trkpt lat="23.064609" lon="113.272282">
        <time>2026-08-16T00:17:32Z</time>
      </trkpt>
      <trkpt lat="23.064566" lon="113.272416">
        <time>2026-08-16T00:17:37Z</time>
      </trkpt>
      <trkpt lat="23.064491" lon="113.272534">
        <time>2026-08-16T00:17:42Z</time>
      </trkpt>
      <trkpt lat="23.064456" lon="113.272615">
        <time>2026-08-16T00:17:47Z</time>
      </trkpt>
      <trkpt lat="23.064458" lon="113.272699">
        <time>2026-08-16T00:17:52Z</time>
      </trkpt>
      <trkpt lat="23.064493" lon="113.272826">
        <time>2026-08-16T00:17:57Z</time>
      </trkpt>
      <trkpt lat="23.064533" lon="113.272953">
        <time>2026-08-16T00:18:02Z</time>
      </trkpt>
      <trkpt lat="23.064555" lon="113.273033">
        <time>2026-08-16T00:18:07Z</time>
      </trkpt>
      <trkpt lat="23.064576" lon="113.27311">
        <time>2026-08-16T00:18:12Z</time>
      </trkpt>
      <trkpt lat="23.064574" lon="113.273235">
        <time>2026-08-16T00:18:17Z</time>
      </trkpt>
      <trkpt lat="23.064519" lon="113.273352">
        <time>2026-08-16T00:18:22Z</time>
      </trkpt>
      <trkpt lat="23.064459" lon="113.273419">
        <time>2026-08-16T00:18:27Z</time>
      </trkpt>
      <trkpt lat="23.064391" lon="113.273474">
        <time>2026-08-16T00:18:32Z</time>
      </trkpt>
      <trkpt lat="23.064284" lon="113.273549">
        <time>2026-08-16T00:18:37Z</time>
      </trkpt>
      <trkpt lat="23.064184" lon="113.273619">
        <time>2026-08-16T00:18:42Z</time>
      </trkpt>
      <trkpt lat="23.064119" lon="113.273672">
        <time>2026-08-16T00:18:47Z</time>
      </trkpt>
      <trkpt lat="23.06405" lon="113.273721">
        <time>2026-08-16T00:18:52Z</time>
      </trkpt>
      <trkpt lat="23.063965" lon="113.273817">
        <time>2026-08-16T00:18:57Z</time>
      </trkpt>
      <trkpt lat="23.063904" lon="113.273932">
        <time>2026-08-16T00:19:02Z</time>
      </trkpt>
      <trkpt lat="23.063866" lon="113.274012">
        <time>2026-08-16T00:19:07Z</time>
      </trkpt>
      <trkpt lat="23.063827" lon="113.274079">
        <time>2026-08-16T00:19:12Z</time>
      </trkpt>
      <trkpt lat="23.063754" lon="113.274173">
        <time>2026-08-16T00:19:17Z</time>
      </trkpt>
      <trkpt lat="23.063664" lon="113.274258">
        <time>2026-08-16T00:19:22Z</time>
      </trkpt>
      <trkpt lat="23.06362" lon="113.274338">
        <time>2026-08-16T00:19:27Z</time>
      </trkpt>
      <trkpt lat="23.063582" lon="113.274417">
        <time>2026-08-16T00:19:32Z</time>
      </trkpt>
      <trkpt lat="23.063535" lon="113.274541">
        <time>2026-08-16T00:19:37Z</time>
      </trkpt>
      <trkpt lat="23.063504" lon="113.27468">
        <time>2026-08-16T00:19:42Z</time>
      </trkpt>
      <trkpt lat="23.063467" lon="113.274764">
        <time>2026-08-16T00:19:47Z</time>
      </trkpt>
      <trkpt lat="23.063432" lon="113.274844">
        <time>2026-08-16T00:19:52Z</time>
      </trkpt>
      <trkpt lat="23.06339" lon="113.274981">
        <time>2026-08-16T00:19:57Z</time>
      </trkpt>
      <trkpt lat="23.063322" lon="113.275118">
        <time>2026-08-16T00:20:02Z</time>
      </trkpt>
      <trkpt lat="23.063267" lon="113.275194">
        <time>2026-08-16T00:20:07Z</time>
      </trkpt>
      <trkpt lat="23.063216" lon="113.275261">
        <time>2026-08-16T00:20:12Z</time>
      </trkpt>
      <trkpt lat="23.06315" lon="113.275368">
        <time>2026-08-16T00:20:17Z</time>
      </trkpt>
      <trkpt lat="23.063078" lon="113.27547">
        <time>2026-08-16T00:20:22Z</time>
      </trkpt>
      <trkpt lat="23.063028" lon="113.275538">
        <time>2026-08-16T00:20:27Z</time>
      </trkpt>
      <trkpt lat="23.062971" lon="113.275604">
        <time>2026-08-16T00:20:32Z</time>
      </trkpt>
      <trkpt lat="23.062883" lon="113.275698">
        <time>2026-08-16T00:20:37Z</time>
      </trkpt>
      <trkpt lat="23.062798" lon="113.275794">
        <time>2026-08-16T00:20:42Z</time>
      </trkpt>
      <trkpt lat="23.062741" lon="113.275859">
        <time>2026-08-16T00:20:47Z</time>
      </trkpt>
      <trkpt lat="23.062686" lon="113.27593">
        <time>2026-08-16T00:20:52Z</time>
      </trkpt>
      <trkpt lat="23.062614" lon="113.27604">
        <time>2026-08-16T00:20:57Z</time>
      </trkpt>
      <trkpt lat="23.062549" lon="113.276159">
        <time>2026-08-16T00:21:02Z</time>
      </trkpt>
      <trkpt lat="23.062514" lon="113.276243">
        <time>2026-08-16T00:21:07Z</time>
      </trkpt>
      <trkpt lat="23.062493" lon="113.276331">
        <time>2026-08-16T00:21:12Z</time>
      </trkpt>
      <trkpt lat="23.062452" lon="113.27646">
        <time>2026-08-16T00:21:17Z</time>
      </trkpt>
      <trkpt lat="23.062407" lon="113.27659">
        <time>2026-08-16T00:21:22Z</time>
      </trkpt>
      <trkpt lat="23.062373" lon="113.276678">
        <time>2026-08-16T00:21:27Z</time>
      </trkpt>
      <trkpt lat="23.062333" lon="113.276765">
        <time>2026-08-16T00:21:32Z</time>
      </trkpt>
      <trkpt lat="23.06228" lon="113.276882">
        <time>2026-08-16T00:21:37Z</time>
      </trkpt>
      <trkpt lat="23.062239" lon="113.277005">
        <time>2026-08-16T00:21:42Z</time>
      </trkpt>
      <trkpt lat="23.062191" lon="113.277086">
        <time>2026-08-16T00:21:47Z</time>
      </trkpt>
      <trkpt lat="23.062156" lon="113.277179">
        <time>2026-08-16T00:21:52Z</time>
      </trkpt>
      <trkpt lat="23.062122" lon="113.277313">
        <time>2026-08-16T00:21:57Z</time>
      </trkpt>
      <trkpt lat="23.062078" lon="113.277439">
        <time>2026-08-16T00:22:02Z</time>
      </trkpt>
      <trkpt lat="23.062048" lon="113.277521">
        <time>2026-08-16T00:22:07Z</time>
      </trkpt>
      <trkpt lat="23.062017" lon="113.277607">
        <time>2026-08-16T00:22:12Z</time>
      </trkpt>
      <trkpt lat="23.061971" lon="113.277742">
        <time>2026-08-16T00:22:17Z</time>
      </trkpt>
      <trkpt lat="23.061951" lon="113.277877">
        <time>2026-08-16T00:22:22Z</time>
      </trkpt>
      <trkpt lat="23.061961" lon="113.277965">
        <time>2026-08-16T00:22:27Z</time>
      </trkpt>
      <trkpt lat="23.061968" lon="113.278051">
        <time>2026-08-16T00:22:32Z</time>
      </trkpt>
      <trkpt lat="23.061972" lon="113.278183">
        <time>2026-08-16T00:22:37Z</time>
      </trkpt>
      <trkpt lat="23.061976" lon="113.278311">
        <time>2026-08-16T00:22:42Z</time>
      </trkpt>
      <trkpt lat="23.061976" lon="113.278399">
        <time>2026-08-16T00:22:47Z</time>
      </trkpt>
      <trkpt lat="23.06198" lon="113.278488">
        <time>2026-08-16T00:22:52Z</time>
      </trkpt>
      <trkpt lat="23.061982" lon="113.278621">
        <time>2026-08-16T00:22:57Z</time>
      </trkpt>
      <trkpt lat="23.06197" lon="113.278759">
        <time>2026-08-16T00:23:02Z</time>
      </trkpt>
      <trkpt lat="23.061933" lon="113.278847">
        <time>2026-08-16T00:23:07Z</time>
      </trkpt>
      <trkpt lat="23.061886" lon="113.278926">
        <time>2026-08-16T00:23:12Z</time>
      </trkpt>
      <trkpt lat="23.061815" lon="113.279037">
        <time>2026-08-16T00:23:17Z</time>
      </trkpt>
      <trkpt lat="23.06174" lon="113.279144">
        <time>2026-08-16T00:23:22Z</time>
      </trkpt>
      <trkpt lat="23.061702" lon="113.279223">
        <time>2026-08-16T00:23:27Z</time>
      </trkpt>
      <trkpt lat="23.061666" lon="113.279309">
        <time>2026-08-16T00:23:32Z</time>
      </trkpt>
      <trkpt lat="23.061613" lon="113.279434">
        <time>2026-08-16T00:23:37Z</time>
      </trkpt>
      <trkpt lat="23.061561" lon="113.27956">
        <time>2026-08-16T00:23:42Z</time>
      </trkpt>
      <trkpt lat="23.061523" lon="113.279643">
        <time>2026-08-16T00:23:47Z</time>
      </trkpt>
      <trkpt lat="23.061483" lon="113.279723">
        <time>2026-08-16T00:23:52Z</time>
      </trkpt>
      <trkpt lat="23.061433" lon="113.279839">
        <time>2026-08-16T00:23:57Z</time>
      </trkpt>
      <trkpt lat="23.061386" lon="113.279962">
        <time>2026-08-16T00:24:02Z</time>
      </trkpt>
      <trkpt lat="23.061359" lon="113.280051">
        <time>2026-08-16T00:24:07Z</time>
      </trkpt>
      <trkpt lat="23.061326" lon="113.280142">
        <time>2026-08-16T00:24:12Z</time>
      </trkpt>
      <trkpt lat="23.061267" lon="113.280277">
        <time>2026-08-16T00:24:17Z</time>
      </trkpt>
      <trkpt lat="23.061223" lon="113.280412">
        <time>2026-08-16T00:24:22Z</time>
      </trkpt>
      <trkpt lat="23.06118" lon="113.280496">
        <time>2026-08-16T00:24:27Z</time>
      </trkpt>
      <trkpt lat="23.061128" lon="113.280578">
        <time>2026-08-16T00:24:32Z</time>
      </trkpt>
      <trkpt lat="23.061068" lon="113.280699">
        <time>2026-08-16T00:24:37Z</time>
      </trkpt>
      <trkpt lat="23.061025" lon="113.280819">
        <time>2026-08-16T00:24:42Z</time>
      </trkpt>
      <trkpt lat="23.060989" lon="113.280897">
        <time>2026-08-16T00:24:47Z</time>
      </trkpt>
      <trkpt lat="23.060953" lon="113.280975">
        <time>2026-08-16T00:24:52Z</time>
      </trkpt>
      <trkpt lat="23.0609" lon="113.281093">
        <time>2026-08-16T00:24:57Z</time>
      </trkpt>
      <trkpt lat="23.060847" lon="113.281209">
        <time>2026-08-16T00:25:02Z</time>
      </trkpt>
      <trkpt lat="23.060813" lon="113.28129">
        <time>2026-08-16T00:25:07Z</time>
      </trkpt>
      <trkpt lat="23.060781" lon="113.281372">
        <time>2026-08-16T00:25:12Z</time>
      </trkpt>
      <trkpt lat="23.060734" lon="113.281489">
        <time>2026-08-16T00:25:17Z</time>
      </trkpt>
      <trkpt lat="23.060678" lon="113.281605">
        <time>2026-08-16T00:25:22Z</time>
      </trkpt>
      <trkpt lat="23.060641" lon="113.281678">
        <time>2026-08-16T00:25:27Z</time>
      </trkpt>
      <trkpt lat="23.06061" lon="113.281755">
        <time>2026-08-16T00:25:32Z</time>
      </trkpt>
      <trkpt lat="23.060566" lon="113.281876">
        <time>2026-08-16T00:25:37Z</time>
      </trkpt>
      <trkpt lat="23.060517" lon="113.281995">
        <time>2026-08-16T00:25:42Z</time>
      </trkpt>
      <trkpt lat="23.060482" lon="113.282073">
        <time>2026-08-16T00:25:47Z</time>
      </trkpt>
      <trkpt lat="23.060449" lon="113.282152">
        <time>2026-08-16T00:25:52Z</time>
      </trkpt>
      <trkpt lat="23.060401" lon="113.282275">
        <time>2026-08-16T00:25:57Z</time>
      </trkpt>
      <trkpt lat="23.060346" lon="113.282389">
        <time>2026-08-16T00:26:02Z</time>
      </trkpt>
      <trkpt lat="23.060312" lon="113.282467">
        <time>2026-08-16T00:26:07Z</time>
      </trkpt>
      <trkpt lat="23.060281" lon="113.282543">
        <time>2026-08-16T00:26:12Z</time>
      </trkpt>
      <trkpt lat="23.060229" lon="113.282652">
        <time>2026-08-16T00:26:17Z</time>
      </trkpt>
      <trkpt lat="23.060168" lon="113.282763">
        <time>2026-08-16T00:26:22Z</time>
      </trkpt>
      <trkpt lat="23.060133" lon="113.282846">
        <time>2026-08-16T00:26:27Z</time>
      </trkpt>
      <trkpt lat="23.060099" lon="113.282933">
        <time>2026-08-16T00:26:32Z</time>
      </trkpt>
      <trkpt lat="23.060053" lon="113.283066">
        <time>2026-08-16T00:26:37Z</time>
      </trkpt>
      <trkpt lat="23.060007" lon="113.283195">
        <time>2026-08-16T00:26:42Z</time>
      </trkpt>
      <trkpt lat="23.05997" lon="113.283275">
        <time>2026-08-16T00:26:47Z</time>
      </trkpt>
      <trkpt lat="23.059932" lon="113.283353">
        <time>2026-08-16T00:26:52Z</time>
      </trkpt>
      <trkpt lat="23.059909" lon="113.28347">
        <time>2026-08-16T00:26:57Z</time>
      </trkpt>
      <trkpt lat="23.060011" lon="113.283464">
        <time>2026-08-16T00:27:02Z</time>
      </trkpt>
      <trkpt lat="23.060097" lon="113.283485">
        <time>2026-08-16T00:27:07Z</time>
      </trkpt>
      <trkpt lat="23.060166" lon="113.28354">
        <time>2026-08-16T00:27:12Z</time>
      </trkpt>
      <trkpt lat="23.060262" lon="113.283606">
        <time>2026-08-16T00:27:17Z</time>
      </trkpt>
      <trkpt lat="23.060378" lon="113.283626">
        <time>2026-08-16T00:27:22Z</time>
      </trkpt>
      <trkpt lat="23.060454" lon="113.283645">
        <time>2026-08-16T00:27:27Z</time>
      </trkpt>
      <trkpt lat="23.060521" lon="113.28365">
        <time>2026-08-16T00:27:32Z</time>
      </trkpt>
      <trkpt lat="23.060622" lon="113.283656">
        <time>2026-08-16T00:27:37Z</time>
      </trkpt>
      <trkpt lat="23.060752" lon="113.283664">
        <time>2026-08-16T00:27:42Z</time>
      </trkpt>
      <trkpt lat="23.060807" lon="113.283595">
        <time>2026-08-16T00:27:47Z</time>
      </trkpt>
      <trkpt lat="23.060847" lon="113.2835">
        <time>2026-08-16T00:27:52Z</time>
      </trkpt>
      <trkpt lat="23.060887" lon="113.283381">
        <time>2026-08-16T00:27:57Z</time>
      </trkpt>
      <trkpt lat="23.060949" lon="113.283271">
        <time>2026-08-16T00:28:02Z</time>
      </trkpt>
      <trkpt lat="23.060993" lon="113.283203">
        <time>2026-08-16T00:28:07Z</time>
      </trkpt>
      <trkpt lat="23.061042" lon="113.28316">
        <time>2026-08-16T00:28:12Z</time>
      </trkpt>
      <trkpt lat="23.061085" lon="113.28309">
        <time>2026-08-16T00:28:17Z</time>
      </trkpt>
      <trkpt lat="23.06119" lon="113.282948">
        <time>2026-08-16T00:28:22Z</time>
      </trkpt>
      <trkpt lat="23.061289" lon="113.282846">
        <time>2026-08-16T00:28:27Z</time>
      </trkpt>
      <trkpt lat="23.061371" lon="113.282777">
        <time>2026-08-16T00:28:32Z</time>
      </trkpt>
      <trkpt lat="23.061421" lon="113.282699">
        <time>2026-08-16T00:28:37Z</time>
      </trkpt>
      <trkpt lat="23.061397" lon="113.282557">
        <time>2026-08-16T00:28:42Z</time>
      </trkpt>
      <trkpt lat="23.061358" lon="113.282457">
        <time>2026-08-16T00:28:47Z</time>
      </trkpt>
      <trkpt lat="23.06133" lon="113.282375">
        <time>2026-08-16T00:28:52Z</time>
      </trkpt>
      <trkpt lat="23.061391" lon="113.282293">
        <time>2026-08-16T00:28:57Z</time>
      </trkpt>
      <trkpt lat="23.061495" lon="113.282256">
        <time>2026-08-16T00:29:02Z</time>
      </trkpt>
      <trkpt lat="23.061561" lon="113.282235">
        <time>2026-08-16T00:29:07Z</time>
      </trkpt>
      <trkpt lat="23.061632" lon="113.282207">
        <time>2026-08-16T00:29:12Z</time>
      </trkpt>
      <trkpt lat="23.061746" lon="113.282223">
        <time>2026-08-16T00:29:17Z</time>
      </trkpt>
      <trkpt lat="23.061838" lon="113.282323">
        <time>2026-08-16T00:29:22Z</time>
      </trkpt>
      <trkpt lat="23.061899" lon="113.282311">
        <time>2026-08-16T00:29:27Z</time>
      </trkpt>
      <trkpt lat="23.061906" lon="113.282282">
        <time>2026-08-16T00:29:32Z</time>
      </trkpt>
      <trkpt lat="23.061787" lon="113.282288">
        <time>2026-08-16T00:29:37Z</time>
      </trkpt>
      <trkpt lat="23.06167" lon="113.28235">
        <time>2026-08-16T00:29:42Z</time>
      </trkpt>
      <trkpt lat="23.06159" lon="113.282432">
        <time>2026-08-16T00:29:47Z</time>
      </trkpt>
      <trkpt lat="23.061508" lon="113.282506">
        <time>2026-08-16T00:29:52Z</time>
      </trkpt>
      <trkpt lat="23.06141" lon="113.282546">
        <time>2026-08-16T00:29:57Z</time>
      </trkpt>
      <trkpt lat="23.061314" lon="113.282526">
        <time>2026-08-16T00:30:02Z</time>
      </trkpt>
      <trkpt lat="23.061252" lon="113.282522">
        <time>2026-08-16T00:30:07Z</time>
      </trkpt>
      <trkpt lat="23.06122" lon="113.282547">
        <time>2026-08-16T00:30:12Z</time>
      </trkpt>
      <trkpt lat="23.061196" lon="113.282587">
        <time>2026-08-16T00:30:17Z</time>
      </trkpt>
      <trkpt lat="23.061144" lon="113.282609">
        <time>2026-08-16T00:30:22Z</time>
      </trkpt>
      <trkpt lat="23.061108" lon="113.282656">
        <time>2026-08-16T00:30:27Z</time>
      </trkpt>
      <trkpt lat="23.061074" lon="113.282722">
        <time>2026-08-16T00:30:32Z</time>
      </trkpt>
      <trkpt lat="23.061" lon="113.282815">
        <time>2026-08-16T00:30:37Z</time>
      </trkpt>
      <trkpt lat="23.06097" lon="113.282937">
        <time>2026-08-16T00:30:42Z</time>
      </trkpt>
      <trkpt lat="23.060952" lon="113.28301">
        <time>2026-08-16T00:30:47Z</time>
      </trkpt>
      <trkpt lat="23.060921" lon="113.283082">
        <time>2026-08-16T00:30:52Z</time>
      </trkpt>
      <trkpt lat="23.060866" lon="113.28318">
        <time>2026-08-16T00:30:57Z</time>
      </trkpt>
      <trkpt lat="23.060815" lon="113.28316">
        <time>2026-08-16T00:31:02Z</time>
      </trkpt>
      <trkpt lat="23.060858" lon="113.28308">
        <time>2026-08-16T00:31:07Z</time>
      </trkpt>
      <trkpt lat="23.060929" lon="113.283007">
        <time>2026-08-16T00:31:12Z</time>
      </trkpt>
      <trkpt lat="23.061072" lon="113.282915">
        <time>2026-08-16T00:31:17Z</time>
      </trkpt>
      <trkpt lat="23.061197" lon="113.282831">
        <time>2026-08-16T00:31:22Z</time>
      </trkpt>
      <trkpt lat="23.061301" lon="113.28277">
        <time>2026-08-16T00:31:27Z</time>
      </trkpt>
      <trkpt lat="23.061381" lon="113.282683">
        <time>2026-08-16T00:31:32Z</time>
      </trkpt>
      <trkpt lat="23.061391" lon="113.282543">
        <time>2026-08-16T00:31:37Z</time>
      </trkpt>
      <trkpt lat="23.061395" lon="113.282419">
        <time>2026-08-16T00:31:42Z</time>
      </trkpt>
      <trkpt lat="23.061356" lon="113.282345">
        <time>2026-08-16T00:31:47Z</time>
      </trkpt>
      <trkpt lat="23.061262" lon="113.282314">
        <time>2026-08-16T00:31:52Z</time>
      </trkpt>
      <trkpt lat="23.061075" lon="113.28235">
        <time>2026-08-16T00:31:57Z</time>
      </trkpt>
      <trkpt lat="23.060908" lon="113.282349">
        <time>2026-08-16T00:32:02Z</time>
      </trkpt>
      <trkpt lat="23.060808" lon="113.28236">
        <time>2026-08-16T00:32:07Z</time>
      </trkpt>
      <trkpt lat="23.060692" lon="113.28235">
        <time>2026-08-16T00:32:12Z</time>
      </trkpt>
      <trkpt lat="23.060554" lon="113.282383">
        <time>2026-08-16T00:32:17Z</time>
      </trkpt>
      <trkpt lat="23.060469" lon="113.282457">
        <time>2026-08-16T00:32:22Z</time>
      </trkpt>
      <trkpt lat="23.060439" lon="113.282526">
        <time>2026-08-16T00:32:27Z</time>
      </trkpt>
      <trkpt lat="23.060416" lon="113.282601">
        <time>2026-08-16T00:32:32Z</time>
      </trkpt>
      <trkpt lat="23.06037" lon="113.282706">
        <time>2026-08-16T00:32:37Z</time>
      </trkpt>
      <trkpt lat="23.06031" lon="113.282804">
        <time>2026-08-16T00:32:42Z</time>
      </trkpt>
      <trkpt lat="23.060272" lon="113.282882">
        <time>2026-08-16T00:32:47Z</time>
      </trkpt>
      <trkpt lat="23.060242" lon="113.282967">
        <time>2026-08-16T00:32:52Z</time>
      </trkpt>
      <trkpt lat="23.0602" lon="113.283107">
        <time>2026-08-16T00:32:57Z</time>
      </trkpt>
      <trkpt lat="23.060142" lon="113.283249">
        <time>2026-08-16T00:33:02Z</time>
      </trkpt>
      <trkpt lat="23.060096" lon="113.283338">
        <time>2026-08-16T00:33:07Z</time>
      </trkpt>
      <trkpt lat="23.060036" lon="113.283409">
        <time>2026-08-16T00:33:12Z</time>
      </trkpt>
      <trkpt lat="23.059932" lon="113.2834">
        <time>2026-08-16T00:33:17Z</time>
      </trkpt>
      <trkpt lat="23.059977" lon="113.283301">
        <time>2026-08-16T00:33:22Z</time>
      </trkpt>
      <trkpt lat="23.060022" lon="113.283225">
        <time>2026-08-16T00:33:27Z</time>
      </trkpt>
      <trkpt lat="23.060065" lon="113.283143">
        <time>2026-08-16T00:33:32Z</time>
      </trkpt>
      <trkpt lat="23.060128" lon="113.283015">
        <time>2026-08-16T00:33:37Z</time>
      </trkpt>
      <trkpt lat="23.060192" lon="113.282897">
        <time>2026-08-16T00:33:42Z</time>
      </trkpt>
      <trkpt lat="23.060234" lon="113.282826">
        <time>2026-08-16T00:33:47Z</time>
      </trkpt>
      <trkpt lat="23.060278" lon="113.282758">
        <time>2026-08-16T00:33:52Z</time>
      </trkpt>
      <trkpt lat="23.060334" lon="113.28264">
        <time>2026-08-16T00:33:57Z</time>
      </trkpt>
      <trkpt lat="23.060389" lon="113.282509">
        <time>2026-08-16T00:34:02Z</time>
      </trkpt>
      <trkpt lat="23.060427" lon="113.282424">
        <time>2026-08-16T00:34:07Z</time>
      </trkpt>
      <trkpt lat="23.060461" lon="113.282343">
        <time>2026-08-16T00:34:12Z</time>
      </trkpt>
      <trkpt lat="23.060517" lon="113.28222">
        <time>2026-08-16T00:34:17Z</time>
      </trkpt>
      <trkpt lat="23.060574" lon="113.282089">
        <time>2026-08-16T00:34:22Z</time>
      </trkpt>
      <trkpt lat="23.060608" lon="113.282009">
        <time>2026-08-16T00:34:27Z</time>
      </trkpt>
      <trkpt lat="23.060636" lon="113.281936">
        <time>2026-08-16T00:34:32Z</time>
      </trkpt>
      <trkpt lat="23.060675" lon="113.28182">
        <time>2026-08-16T00:34:37Z</time>
      </trkpt>
      <trkpt lat="23.060711" lon="113.281703">
        <time>2026-08-16T00:34:42Z</time>
      </trkpt>
      <trkpt lat="23.060738" lon="113.281636">
        <time>2026-08-16T00:34:47Z</time>
      </trkpt>
      <trkpt lat="23.060763" lon="113.281567">
        <time>2026-08-16T00:34:52Z</time>
      </trkpt>
      <trkpt lat="23.060802" lon="113.281458">
        <time>2026-08-16T00:34:57Z</time>
      </trkpt>
      <trkpt lat="23.060849" lon="113.281338">
        <time>2026-08-16T00:35:02Z</time>
      </trkpt>
      <trkpt lat="23.06088" lon="113.281254">
        <time>2026-08-16T00:35:07Z</time>
      </trkpt>
      <trkpt lat="23.060911" lon="113.281174">
        <time>2026-08-16T00:35:12Z</time>
      </trkpt>
      <trkpt lat="23.060958" lon="113.281054">
        <time>2026-08-16T00:35:17Z</time>
      </trkpt>
      <trkpt lat="23.061002" lon="113.280935">
        <time>2026-08-16T00:35:22Z</time>
      </trkpt>
      <trkpt lat="23.061035" lon="113.280853">
        <time>2026-08-16T00:35:27Z</time>
      </trkpt>
      <trkpt lat="23.061067" lon="113.280776">
        <time>2026-08-16T00:35:32Z</time>
      </trkpt>
      <trkpt lat="23.061117" lon="113.280655">
        <time>2026-08-16T00:35:37Z</time>
      </trkpt>
      <trkpt lat="23.061174" lon="113.280532">
        <time>2026-08-16T00:35:42Z</time>
      </trkpt>
      <trkpt lat="23.061218" lon="113.280457">
        <time>2026-08-16T00:35:47Z</time>
      </trkpt>
      <trkpt lat="23.061259" lon="113.280382">
        <time>2026-08-16T00:35:52Z</time>
      </trkpt>
      <trkpt lat="23.061313" lon="113.28026">
        <time>2026-08-16T00:35:57Z</time>
      </trkpt>
      <trkpt lat="23.061364" lon="113.280153">
        <time>2026-08-16T00:36:02Z</time>
      </trkpt>
      <trkpt lat="23.061396" lon="113.280079">
        <time>2026-08-16T00:36:07Z</time>
      </trkpt>
      <trkpt lat="23.061433" lon="113.280003">
        <time>2026-08-16T00:36:12Z</time>
      </trkpt>
      <trkpt lat="23.061487" lon="113.279885">
        <time>2026-08-16T00:36:17Z</time>
      </trkpt>
      <trkpt lat="23.06154" lon="113.279757">
        <time>2026-08-16T00:36:22Z</time>
      </trkpt>
      <trkpt lat="23.061572" lon="113.279671">
        <time>2026-08-16T00:36:27Z</time>
      </trkpt>
      <trkpt lat="23.061605" lon="113.279585">
        <time>2026-08-16T00:36:32Z</time>
      </trkpt>
      <trkpt lat="23.061645" lon="113.279454">
        <time>2026-08-16T00:36:37Z</time>
      </trkpt>
      <trkpt lat="23.061699" lon="113.279323">
        <time>2026-08-16T00:36:42Z</time>
      </trkpt>
      <trkpt lat="23.061747" lon="113.279233">
        <time>2026-08-16T00:36:47Z</time>
      </trkpt>
      <trkpt lat="23.061789" lon="113.279145">
        <time>2026-08-16T00:36:52Z</time>
      </trkpt>
      <trkpt lat="23.061845" lon="113.279032">
        <time>2026-08-16T00:36:57Z</time>
      </trkpt>
      <trkpt lat="23.061912" lon="113.278927">
        <time>2026-08-16T00:37:02Z</time>
      </trkpt>
      <trkpt lat="23.061957" lon="113.278853">
        <time>2026-08-16T00:37:07Z</time>
      </trkpt>
      <trkpt lat="23.061994" lon="113.278774">
        <time>2026-08-16T00:37:12Z</time>
      </trkpt>
      <trkpt lat="23.062008" lon="113.278642">
        <time>2026-08-16T00:37:17Z</time>
      </trkpt>
      <trkpt lat="23.061995" lon="113.278503">
        <time>2026-08-16T00:37:22Z</time>
      </trkpt>
      <trkpt lat="23.061989" lon="113.27841">
        <time>2026-08-16T00:37:27Z</time>
      </trkpt>
      <trkpt lat="23.061983" lon="113.278314">
        <time>2026-08-16T00:37:32Z</time>
      </trkpt>
      <trkpt lat="23.061969" lon="113.278171">
        <time>2026-08-16T00:37:37Z</time>
      </trkpt>
      <trkpt lat="23.061966" lon="113.278029">
        <time>2026-08-16T00:37:42Z</time>
      </trkpt>
      <trkpt lat="23.061965" lon="113.277932">
        <time>2026-08-16T00:37:47Z</time>
      </trkpt>
      <trkpt lat="23.061967" lon="113.277839">
        <time>2026-08-16T00:37:52Z</time>
      </trkpt>
      <trkpt lat="23.061987" lon="113.277701">
        <time>2026-08-16T00:37:57Z</time>
      </trkpt>
      <trkpt lat="23.062029" lon="113.277566">
        <time>2026-08-16T00:38:02Z</time>
      </trkpt>
      <trkpt lat="23.062061" lon="113.277483">
        <time>2026-08-16T00:38:07Z</time>
      </trkpt>
      <trkpt lat="23.062089" lon="113.277395">
        <time>2026-08-16T00:38:12Z</time>
      </trkpt>
      <trkpt lat="23.062138" lon="113.277259">
        <time>2026-08-16T00:38:17Z</time>
      </trkpt>
      <trkpt lat="23.062185" lon="113.277129">
        <time>2026-08-16T00:38:22Z</time>
      </trkpt>
      <trkpt lat="23.062214" lon="113.277045">
        <time>2026-08-16T00:38:27Z</time>
      </trkpt>
      <trkpt lat="23.062254" lon="113.276967">
        <time>2026-08-16T00:38:32Z</time>
      </trkpt>
      <trkpt lat="23.062307" lon="113.276841">
        <time>2026-08-16T00:38:37Z</time>
      </trkpt>
      <trkpt lat="23.062356" lon="113.276708">
        <time>2026-08-16T00:38:42Z</time>
      </trkpt>
      <trkpt lat="23.062386" lon="113.27662">
        <time>2026-08-16T00:38:47Z</time>
      </trkpt>
      <trkpt lat="23.062418" lon="113.27654">
        <time>2026-08-16T00:38:52Z</time>
      </trkpt>
      <trkpt lat="23.062461" lon="113.276418">
        <time>2026-08-16T00:38:57Z</time>
      </trkpt>
      <trkpt lat="23.06251" lon="113.276292">
        <time>2026-08-16T00:39:02Z</time>
      </trkpt>
      <trkpt lat="23.06254" lon="113.276213">
        <time>2026-08-16T00:39:07Z</time>
      </trkpt>
      <trkpt lat="23.062585" lon="113.276143">
        <time>2026-08-16T00:39:12Z</time>
      </trkpt>
      <trkpt lat="23.062659" lon="113.276033">
        <time>2026-08-16T00:39:17Z</time>
      </trkpt>
      <trkpt lat="23.062736" lon="113.275927">
        <time>2026-08-16T00:39:22Z</time>
      </trkpt>
      <trkpt lat="23.062789" lon="113.27586">
        <time>2026-08-16T00:39:27Z</time>
      </trkpt>
      <trkpt lat="23.062841" lon="113.275786">
        <time>2026-08-16T00:39:32Z</time>
      </trkpt>
      <trkpt lat="23.062931" lon="113.275687">
        <time>2026-08-16T00:39:37Z</time>
      </trkpt>
      <trkpt lat="23.063021" lon="113.27558">
        <time>2026-08-16T00:39:42Z</time>
      </trkpt>
      <trkpt lat="23.063069" lon="113.275508">
        <time>2026-08-16T00:39:47Z</time>
      </trkpt>
      <trkpt lat="23.06311" lon="113.275433">
        <time>2026-08-16T00:39:52Z</time>
      </trkpt>
      <trkpt lat="23.063176" lon="113.275321">
        <time>2026-08-16T00:39:57Z</time>
      </trkpt>
      <trkpt lat="23.063248" lon="113.275213">
        <time>2026-08-16T00:40:02Z</time>
      </trkpt>
      <trkpt lat="23.063302" lon="113.27514">
        <time>2026-08-16T00:40:07Z</time>
      </trkpt>
      <trkpt lat="23.06336" lon="113.275065">
        <time>2026-08-16T00:40:12Z</time>
      </trkpt>
      <trkpt lat="23.063426" lon="113.274952">
        <time>2026-08-16T00:40:17Z</time>
      </trkpt>
      <trkpt lat="23.063466" lon="113.274838">
        <time>2026-08-16T00:40:22Z</time>
      </trkpt>
      <trkpt lat="23.063493" lon="113.274759">
        <time>2026-08-16T00:40:27Z</time>
      </trkpt>
      <trkpt lat="23.063519" lon="113.274681">
        <time>2026-08-16T00:40:32Z</time>
      </trkpt>
      <trkpt lat="23.06354" lon="113.274559">
        <time>2026-08-16T00:40:37Z</time>
      </trkpt>
      <trkpt lat="23.063595" lon="113.274428">
        <time>2026-08-16T00:40:42Z</time>
      </trkpt>
      <trkpt lat="23.063646" lon="113.274353">
        <time>2026-08-16T00:40:47Z</time>
      </trkpt>
      <trkpt lat="23.063696" lon="113.274282">
        <time>2026-08-16T00:40:52Z</time>
      </trkpt>
      <trkpt lat="23.063776" lon="113.274187">
        <time>2026-08-16T00:40:57Z</time>
      </trkpt>
      <trkpt lat="23.063857" lon="113.27409">
        <time>2026-08-16T00:41:02Z</time>
      </trkpt>
      <trkpt lat="23.063904" lon="113.274015">
        <time>2026-08-16T00:41:07Z</time>
      </trkpt>
      <trkpt lat="23.063947" lon="113.273932">
        <time>2026-08-16T00:41:12Z</time>
      </trkpt>
      <trkpt lat="23.064022" lon="113.273813">
        <time>2026-08-16T00:41:17Z</time>
      </trkpt>
      <trkpt lat="23.064112" lon="113.273716">
        <time>2026-08-16T00:41:22Z</time>
      </trkpt>
      <trkpt lat="23.064176" lon="113.273666">
        <time>2026-08-16T00:41:27Z</time>
      </trkpt>
      <trkpt lat="23.06424" lon="113.273613">
        <time>2026-08-16T00:41:32Z</time>
      </trkpt>
      <trkpt lat="23.064327" lon="113.273539">
        <time>2026-08-16T00:41:37Z</time>
      </trkpt>
      <trkpt lat="23.064411" lon="113.273454">
        <time>2026-08-16T00:41:42Z</time>
      </trkpt>
      <trkpt lat="23.064475" lon="113.273396">
        <time>2026-08-16T00:41:47Z</time>
      </trkpt>
      <trkpt lat="23.064531" lon="113.273328">
        <time>2026-08-16T00:41:52Z</time>
      </trkpt>
      <trkpt lat="23.06459" lon="113.273201">
        <time>2026-08-16T00:41:57Z</time>
      </trkpt>
      <trkpt lat="23.064583" lon="113.273056">
        <time>2026-08-16T00:42:02Z</time>
      </trkpt>
      <trkpt lat="23.064552" lon="113.272964">
        <time>2026-08-16T00:42:07Z</time>
      </trkpt>
      <trkpt lat="23.064524" lon="113.272868">
        <time>2026-08-16T00:42:12Z</time>
      </trkpt>
      <trkpt lat="23.064477" lon="113.272721">
        <time>2026-08-16T00:42:17Z</time>
      </trkpt>
      <trkpt lat="23.064468" lon="113.272578">
        <time>2026-08-16T00:42:22Z</time>
      </trkpt>
      <trkpt lat="23.064509" lon="113.272496">
        <time>2026-08-16T00:42:27Z</time>
      </trkpt>
      <trkpt lat="23.064563" lon="113.272416">
        <time>2026-08-16T00:42:32Z</time>
      </trkpt>
      <trkpt lat="23.064586" lon="113.272278">
        <time>2026-08-16T00:42:37Z</time>
      </trkpt>
      <trkpt lat="23.064602" lon="113.272147">
        <time>2026-08-16T00:42:42Z</time>
      </trkpt>
      <trkpt lat="23.064635" lon="113.272074">
        <time>2026-08-16T00:42:47Z</time>
      </trkpt>
      <trkpt lat="23.064673" lon="113.271998">
        <time>2026-08-16T00:42:52Z</time>
      </trkpt>
      <trkpt lat="23.064733" lon="113.271891">
        <time>2026-08-16T00:42:57Z</time>
      </trkpt>
      <trkpt lat="23.064801" lon="113.271771">
        <time>2026-08-16T00:43:02Z</time>
      </trkpt>
      <trkpt lat="23.064841" lon="113.271688">
        <time>2026-08-16T00:43:07Z</time>
      </trkpt>
      <trkpt lat="23.064882" lon="113.271608">
        <time>2026-08-16T00:43:12Z</time>
      </trkpt>
      <trkpt lat="23.064939" lon="113.271491">
        <time>2026-08-16T00:43:17Z</time>
      </trkpt>
      <trkpt lat="23.064995" lon="113.271373">
        <time>2026-08-16T00:43:22Z</time>
      </trkpt>
      <trkpt lat="23.06503" lon="113.271294">
        <time>2026-08-16T00:43:27Z</time>
      </trkpt>
      <trkpt lat="23.065071" lon="113.27121">
        <time>2026-08-16T00:43:32Z</time>
      </trkpt>
      <trkpt lat="23.065154" lon="113.271108">
        <time>2026-08-16T00:43:37Z</time>
      </trkpt>
      <trkpt lat="23.065234" lon="113.271003">
        <time>2026-08-16T00:43:42Z</time>
      </trkpt>
      <trkpt lat="23.065282" lon="113.270927">
        <time>2026-08-16T00:43:47Z</time>
      </trkpt>
      <trkpt lat="23.065319" lon="113.27084">
        <time>2026-08-16T00:43:52Z</time>
      </trkpt>
      <trkpt lat="23.065352" lon="113.270704">
        <time>2026-08-16T00:43:57Z</time>
      </trkpt>
      <trkpt lat="23.065401" lon="113.27058">
        <time>2026-08-16T00:44:02Z</time>
      </trkpt>
      <trkpt lat="23.065433" lon="113.270502">
        <time>2026-08-16T00:44:07Z</time>
      </trkpt>
      <trkpt lat="23.065465" lon="113.270423">
        <time>2026-08-16T00:44:12Z</time>
      </trkpt>
      <trkpt lat="23.065514" lon="113.270298">
        <time>2026-08-16T00:44:17Z</time>
      </trkpt>
      <trkpt lat="23.065537" lon="113.270174">
        <time>2026-08-16T00:44:22Z</time>
      </trkpt>
      <trkpt lat="23.065546" lon="113.270095">
        <time>2026-08-16T00:44:27Z</time>
      </trkpt>
      <trkpt lat="23.065563" lon="113.270016">
        <time>2026-08-16T00:44:32Z</time>
      </trkpt>
      <trkpt lat="23.065601" lon="113.269891">
        <time>2026-08-16T00:44:37Z</time>
      </trkpt>
      <trkpt lat="23.065642" lon="113.269768">
        <time>2026-08-16T00:44:42Z</time>
      </trkpt>
      <trkpt lat="23.065678" lon="113.269685">
        <time>2026-08-16T00:44:47Z</time>
      </trkpt>
      <trkpt lat="23.065711" lon="113.269594">
        <time>2026-08-16T00:44:52Z</time>
      </trkpt>
      <trkpt lat="23.065747" lon="113.269455">
        <time>2026-08-16T00:44:57Z</time>
      </trkpt>
      <trkpt lat="23.06578" lon="113.269318">
        <time>2026-08-16T00:45:02Z</time>
      </trkpt>
      <trkpt lat="23.065804" lon="113.26923">
        <time>2026-08-16T00:45:07Z</time>
      </trkpt>
      <trkpt lat="23.065831" lon="113.269147">
        <time>2026-08-16T00:45:12Z</time>
      </trkpt>
      <trkpt lat="23.06587" lon="113.269024">
        <time>2026-08-16T00:45:17Z</time>
      </trkpt>
      <trkpt lat="23.065916" lon="113.268903">
        <time>2026-08-16T00:45:22Z</time>
      </trkpt>
      <trkpt lat="23.065951" lon="113.268822">
        <time>2026-08-16T00:45:27Z</time>
      </trkpt>
      <trkpt lat="23.065994" lon="113.268743">
        <time>2026-08-16T00:45:32Z</time>
      </trkpt>
      <trkpt lat="23.066062" lon="113.268628">
        <time>2026-08-16T00:45:37Z</time>
      </trkpt>
      <trkpt lat="23.066128" lon="113.268509">
        <time>2026-08-16T00:45:42Z</time>
      </trkpt>
      <trkpt lat="23.066177" lon="113.268436">
        <time>2026-08-16T00:45:47Z</time>
      </trkpt>
      <trkpt lat="23.066229" lon="113.268366">
        <time>2026-08-16T00:45:52Z</time>
      </trkpt>
      <trkpt lat="23.06631" lon="113.268256">
        <time>2026-08-16T00:45:57Z</time>
      </trkpt>
      <trkpt lat="23.066413" lon="113.268169">
        <time>2026-08-16T00:46:02Z</time>
      </trkpt>
      <trkpt lat="23.066494" lon="113.268143">
        <time>2026-08-16T00:46:07Z</time>
      </trkpt>
      <trkpt lat="23.066578" lon="113.268146">
        <time>2026-08-16T00:46:12Z</time>
      </trkpt>
      <trkpt lat="23.066708" lon="113.268152">
        <time>2026-08-16T00:46:17Z</time>
      </trkpt>
      <trkpt lat="23.066837" lon="113.268156">
        <time>2026-08-16T00:46:22Z</time>
      </trkpt>
      <trkpt lat="23.066923" lon="113.268161">
        <time>2026-08-16T00:46:27Z</time>
      </trkpt>
      <trkpt lat="23.067005" lon="113.268186">
        <time>2026-08-16T00:46:32Z</time>
      </trkpt>
      <trkpt lat="23.067118" lon="113.268248">
        <time>2026-08-16T00:46:37Z</time>
      </trkpt>
      <trkpt lat="23.067226" lon="113.268303">
        <time>2026-08-16T00:46:42Z</time>
      </trkpt>
      <trkpt lat="23.067299" lon="113.268344">
        <time>2026-08-16T00:46:47Z</time>
      </trkpt>
      <trkpt lat="23.067371" lon="113.268383">
        <time>2026-08-16T00:46:52Z</time>
      </trkpt>
      <trkpt lat="23.067484" lon="113.268445">
        <time>2026-08-16T00:46:57Z</time>
      </trkpt>
      <trkpt lat="23.067614" lon="113.26851">
        <time>2026-08-16T00:47:02Z</time>
      </trkpt>
      <trkpt lat="23.067699" lon="113.268553">
        <time>2026-08-16T00:47:07Z</time>
      </trkpt>
      <trkpt lat="23.067781" lon="113.268592">
        <time>2026-08-16T00:47:12Z</time>
      </trkpt>
      <trkpt lat="23.067906" lon="113.268642">
        <time>2026-08-16T00:47:17Z</time>
      </trkpt>
      <trkpt lat="23.068023" lon="113.268698">
        <time>2026-08-16T00:47:22Z</time>
      </trkpt>
      <trkpt lat="23.068094" lon="113.26874">
        <time>2026-08-16T00:47:27Z</time>
      </trkpt>
      <trkpt lat="23.068171" lon="113.268776">
        <time>2026-08-16T00:47:32Z</time>
      </trkpt>
      <trkpt lat="23.068283" lon="113.268828">
        <time>2026-08-16T00:47:37Z</time>
      </trkpt>
      <trkpt lat="23.068394" lon="113.268882">
        <time>2026-08-16T00:47:42Z</time>
      </trkpt>
      <trkpt lat="23.068462" lon="113.268919">
        <time>2026-08-16T00:47:47Z</time>
      </trkpt>
      <trkpt lat="23.068531" lon="113.268944">
        <time>2026-08-16T00:47:52Z</time>
      </trkpt>
      <trkpt lat="23.068643" lon="113.268998">
        <time>2026-08-16T00:47:57Z</time>
      </trkpt>
      <trkpt lat="23.068756" lon="113.269056">
        <time>2026-08-16T00:48:02Z</time>
      </trkpt>
      <trkpt lat="23.06884" lon="113.269089">
        <time>2026-08-16T00:48:07Z</time>
      </trkpt>
      <trkpt lat="23.068926" lon="113.269124">
        <time>2026-08-16T00:48:12Z</time>
      </trkpt>
      <trkpt lat="23.069056" lon="113.26919">
        <time>2026-08-16T00:48:17Z</time>
      </trkpt>
      <trkpt lat="23.06917" lon="113.269257">
        <time>2026-08-16T00:48:22Z</time>
      </trkpt>
      <trkpt lat="23.069239" lon="113.269308">
        <time>2026-08-16T00:48:27Z</time>
      </trkpt>
      <trkpt lat="23.069311" lon="113.269362">
        <time>2026-08-16T00:48:32Z</time>
      </trkpt>
      <trkpt lat="23.069433" lon="113.269418">
        <time>2026-08-16T00:48:37Z</time>
      </trkpt>
      <trkpt lat="23.06955" lon="113.269477">
        <time>2026-08-16T00:48:42Z</time>
      </trkpt>
      <trkpt lat="23.069621" lon="113.269519">
        <time>2026-08-16T00:48:47Z</time>
      </trkpt>
      <trkpt lat="23.069696" lon="113.269555">
        <time>2026-08-16T00:48:52Z</time>
      </trkpt>
      <trkpt lat="23.069813" lon="113.269614">
        <time>2026-08-16T00:48:57Z</time>
      </trkpt>
      <trkpt lat="23.069928" lon="113.269686">
        <time>2026-08-16T00:49:02Z</time>
      </trkpt>
      <trkpt lat="23.070003" lon="113.269737">
        <time>2026-08-16T00:49:07Z</time>
      </trkpt>
      <trkpt lat="23.070078" lon="113.269783">
        <time>2026-08-16T00:49:12Z</time>
      </trkpt>
      <trkpt lat="23.070191" lon="113.269849">
        <time>2026-08-16T00:49:17Z</time>
      </trkpt>
      <trkpt lat="23.0703" lon="113.269887">
        <time>2026-08-16T00:49:22Z</time>
      </trkpt>
      <trkpt lat="23.070376" lon="113.269898">
        <time>2026-08-16T00:49:27Z</time>
      </trkpt>
      <trkpt lat="23.070459" lon="113.26991">
        <time>2026-08-16T00:49:32Z</time>
      </trkpt>
      <trkpt lat="23.070591" lon="113.269936">
        <time>2026-08-16T00:49:37Z</time>
      </trkpt>
      <trkpt lat="23.070714" lon="113.269992">
        <time>2026-08-16T00:49:42Z</time>
      </trkpt>
      <trkpt lat="23.070786" lon="113.270043">
        <time>2026-08-16T00:49:47Z</time>
      </trkpt>
      <trkpt lat="23.07086" lon="113.270087">
        <time>2026-08-16T00:49:52Z</time>
      </trkpt>
      <trkpt lat="23.07097" lon="113.270148">
        <time>2026-08-16T00:49:57Z</time>
      </trkpt>
      <trkpt lat="23.071078" lon="113.270213">
        <time>2026-08-16T00:50:02Z</time>
      </trkpt>
      <trkpt lat="23.071148" lon="113.270242">
        <time>2026-08-16T00:50:07Z</time>
      </trkpt>
      <trkpt lat="23.071218" lon="113.27027">
        <time>2026-08-16T00:50:12Z</time>
      </trkpt>
      <trkpt lat="23.071331" lon="113.270316">
        <time>2026-08-16T00:50:17Z</time>
      </trkpt>
      <trkpt lat="23.071441" lon="113.270374">
        <time>2026-08-16T00:50:22Z</time>
      </trkpt>
      <trkpt lat="23.071511" lon="113.270423">
        <time>2026-08-16T00:50:27Z</time>
      </trkpt>
      <trkpt lat="23.071582" lon="113.270466">
        <time>2026-08-16T00:50:32Z</time>
      </trkpt>
      <trkpt lat="23.07169" lon="113.270516">
        <time>2026-08-16T00:50:37Z</time>
      </trkpt>
      <trkpt lat="23.071806" lon="113.270586">
        <time>2026-08-16T00:50:42Z</time>
      </trkpt>
      <trkpt lat="23.071887" lon="113.270628">
        <time>2026-08-16T00:50:47Z</time>
      </trkpt>
      <trkpt lat="23.071968" lon="113.270648">
        <time>2026-08-16T00:50:52Z</time>
      </trkpt>
      <trkpt lat="23.072086" lon="113.270677">
        <time>2026-08-16T00:50:57Z</time>
      </trkpt>
      <trkpt lat="23.072187" lon="113.27076">
        <time>2026-08-16T00:51:02Z</time>
      </trkpt>
      <trkpt lat="23.072248" lon="113.270813">
        <time>2026-08-16T00:51:07Z</time>
      </trkpt>
      <trkpt lat="23.072313" lon="113.270844">
        <time>2026-08-16T00:51:12Z</time>
      </trkpt>
      <trkpt lat="23.072419" lon="113.270893">
        <time>2026-08-16T00:51:17Z</time>
      </trkpt>
      <trkpt lat="23.072546" lon="113.270968">
        <time>2026-08-16T00:51:22Z</time>
      </trkpt>
      <trkpt lat="23.072618" lon="113.271015">
        <time>2026-08-16T00:51:27Z</time>
      </trkpt>
      <trkpt lat="23.072689" lon="113.271056">
        <time>2026-08-16T00:51:32Z</time>
      </trkpt>
      <trkpt lat="23.072808" lon="113.271106">
        <time>2026-08-16T00:51:37Z</time>
      </trkpt>
      <trkpt lat="23.072915" lon="113.271146">
        <time>2026-08-16T00:51:42Z</time>
      </trkpt>
      <trkpt lat="23.072985" lon="113.271183">
        <time>2026-08-16T00:51:47Z</time>
      </trkpt>
      <trkpt lat="23.073051" lon="113.271225">
        <time>2026-08-16T00:51:52Z</time>
      </trkpt>
      <trkpt lat="23.073156" lon="113.271264">
        <time>2026-08-16T00:51:57Z</time>
      </trkpt>
      <trkpt lat="23.073234" lon="113.271326">
        <time>2026-08-16T00:52:02Z</time>
      </trkpt>
      <trkpt lat="23.073302" lon="113.271363">
        <time>2026-08-16T00:52:07Z</time>
      </trkpt>
      <trkpt lat="23.073384" lon="113.271403">
        <time>2026-08-16T00:52:12Z</time>
      </trkpt>
      <trkpt lat="23.073493" lon="113.271467">
        <time>2026-08-16T00:52:17Z</time>
      </trkpt>
      <trkpt lat="23.073596" lon="113.271546">
        <time>2026-08-16T00:52:22Z</time>
      </trkpt>
      <trkpt lat="23.073674" lon="113.27159">
        <time>2026-08-16T00:52:27Z</time>
      </trkpt>
      <trkpt lat="23.073748" lon="113.271624">
        <time>2026-08-16T00:52:32Z</time>
      </trkpt>
      <trkpt lat="23.073851" lon="113.271681">
        <time>2026-08-16T00:52:37Z</time>
      </trkpt>
      <trkpt lat="23.073948" lon="113.27175">
        <time>2026-08-16T00:52:42Z</time>
      </trkpt>
      <trkpt lat="23.074018" lon="113.271784">
        <time>2026-08-16T00:52:47Z</time>
      </trkpt>
      <trkpt lat="23.074081" lon="113.271817">
        <time>2026-08-16T00:52:52Z</time>
      </trkpt>
      <trkpt lat="23.074051" lon="113.271912">
        <time>2026-08-16T00:52:57Z</time>
      </trkpt>
      <trkpt lat="23.073991" lon="113.272037">
        <time>2026-08-16T00:53:02Z</time>
      </trkpt>
      <trkpt lat="23.07395" lon="113.272119">
        <time>2026-08-16T00:53:07Z</time>
      </trkpt>
      <trkpt lat="23.07391" lon="113.272206">
        <time>2026-08-16T00:53:12Z</time>
      </trkpt>
      <trkpt lat="23.073855" lon="113.272334">
        <time>2026-08-16T00:53:17Z</time>
      </trkpt>
      <trkpt lat="23.0738" lon="113.272466">
        <time>2026-08-16T00:53:22Z</time>
      </trkpt>
      <trkpt lat="23.073759" lon="113.272553">
        <time>2026-08-16T00:53:27Z</time>
      </trkpt>
      <trkpt lat="23.073723" lon="113.272643">
        <time>2026-08-16T00:53:32Z</time>
      </trkpt>
      <trkpt lat="23.073686" lon="113.272782">
        <time>2026-08-16T00:53:37Z</time>
      </trkpt>
      <trkpt lat="23.073721" lon="113.272904">
        <time>2026-08-16T00:53:42Z</time>
      </trkpt>
      <trkpt lat="23.073811" lon="113.272964">
        <time>2026-08-16T00:53:47Z</time>
      </trkpt>
      <trkpt lat="23.073907" lon="113.272985">
        <time>2026-08-16T00:53:52Z</time>
      </trkpt>
      <trkpt lat="23.074011" lon="113.272898">
        <time>2026-08-16T00:53:57Z</time>
      </trkpt>
      <trkpt lat="23.074076" lon="113.272777">
        <time>2026-08-16T00:54:02Z</time>
      </trkpt>
      <trkpt lat="23.07411" lon="113.272699">
        <time>2026-08-16T00:54:07Z</time>
      </trkpt>
      <trkpt lat="23.074139" lon="113.272624">
        <time>2026-08-16T00:54:12Z</time>
      </trkpt>
      <trkpt lat="23.074178" lon="113.272522">
        <time>2026-08-16T00:54:17Z</time>
      </trkpt>
      <trkpt lat="23.074236" lon="113.272403">
        <time>2026-08-16T00:54:22Z</time>
      </trkpt>
      <trkpt lat="23.074281" lon="113.272319">
        <time>2026-08-16T00:54:27Z</time>
      </trkpt>
      <trkpt lat="23.07433" lon="113.272236">
        <time>2026-08-16T00:54:32Z</time>
      </trkpt>
      <trkpt lat="23.074389" lon="113.272124">
        <time>2026-08-16T00:54:37Z</time>
      </trkpt>
      <trkpt lat="23.074483" lon="113.272035">
        <time>2026-08-16T00:54:42Z</time>
      </trkpt>
      <trkpt lat="23.074554" lon="113.272015">
        <time>2026-08-16T00:54:47Z</time>
      </trkpt>
      <trkpt lat="23.074622" lon="113.272047">
        <time>2026-08-16T00:54:52Z</time>
      </trkpt>
      <trkpt lat="23.074721" lon="113.272108">
        <time>2026-08-16T00:54:57Z</time>
      </trkpt>
      <trkpt lat="23.074824" lon="113.27216">
        <time>2026-08-16T00:55:02Z</time>
      </trkpt>
      <trkpt lat="23.07489" lon="113.272201">
        <time>2026-08-16T00:55:07Z</time>
      </trkpt>
      <trkpt lat="23.074953" lon="113.27225">
        <time>2026-08-16T00:55:12Z</time>
      </trkpt>
      <trkpt lat="23.075052" lon="113.27233">
        <time>2026-08-16T00:55:17Z</time>
      </trkpt>
      <trkpt lat="23.075162" lon="113.272391">
        <time>2026-08-16T00:55:22Z</time>
      </trkpt>
      <trkpt lat="23.075237" lon="113.272436">
        <time>2026-08-16T00:55:27Z</time>
      </trkpt>
      <trkpt lat="23.075326" lon="113.272463">
        <time>2026-08-16T00:55:32Z</time>
      </trkpt>
      <trkpt lat="23.075445" lon="113.27251">
        <time>2026-08-16T00:55:37Z</time>
      </trkpt>
      <trkpt lat="23.075545" lon="113.272577">
        <time>2026-08-16T00:55:42Z</time>
      </trkpt>
      <trkpt lat="23.07561" lon="113.272627">
        <time>2026-08-16T00:55:47Z</time>
      </trkpt>
      <trkpt lat="23.075678" lon="113.272674">
        <time>2026-08-16T00:55:52Z</time>
      </trkpt>
      <trkpt lat="23.075778" lon="113.272732">
        <time>2026-08-16T00:55:57Z</time>
      </trkpt>
      <trkpt lat="23.075874" lon="113.272785">
        <time>2026-08-16T00:56:02Z</time>
      </trkpt>
      <trkpt lat="23.075954" lon="113.272798">
        <time>2026-08-16T00:56:07Z</time>
      </trkpt>
      <trkpt lat="23.075992" lon="113.272828">
        <time>2026-08-16T00:56:12Z</time>
      </trkpt>
      <trkpt lat="23.075934" lon="113.272922">
        <time>2026-08-16T00:56:17Z</time>
      </trkpt>
      <trkpt lat="23.075851" lon="113.273027">
        <time>2026-08-16T00:56:22Z</time>
      </trkpt>
      <trkpt lat="23.075806" lon="113.273092">
        <time>2026-08-16T00:56:27Z</time>
      </trkpt>
      <trkpt lat="23.075809" lon="113.273108">
        <time>2026-08-16T00:56:32Z</time>
      </trkpt>
      <trkpt lat="23.075872" lon="113.272962">
        <time>2026-08-16T00:56:38Z</time>
      </trkpt>
    </trkseg>
  </trk>
</gpx>