<?xml version="1.0" encoding="UTF-8"?>
<gpx xmlns="http://www.topografix.com/GPX/1/1" xmlns:gpxtpx="http://www.garmin.com/xmlschemas/TrackPointExtension/v1" xmlns:xsi="http://www.w3.org/2001/XMLSchema-instance" xsi:schemaLocation="http://www.topografix.com/GPX/1/1 http://www.topografix.com/GPX/1/1/gpx.xsd" version="1.1" creator="gpx.py -- https://github.com/tkrajina/gpxpy">
  <trk>
    <name>gpx from joyrun</name>
    <trkseg>
      <trkpt lat="23.075939" lon="113.272738">
        <time>2026-08-17T22:05:47Z</time>
      </trkpt>
      <trkpt lat="23.075904" lon="113.272672">
        <time>2026-08-17T22:05:52Z</time>
      </trkpt>
      <trkpt lat="23.075841" lon="113.272595">
        <time>2026-08-17T22:05:57Z</time>
      </trkpt>
      <trkpt lat="23.075772" lon="113.272515">
        <time>2026-08-17T22:06:02Z</time>
      </trkpt>
      <trkpt lat="23.075668" lon="113.272436">
        <time>2026-08-17T22:06:07Z</time>
      </trkpt>
      <trkpt lat="23.075534" lon="113.272393">
        <time>2026-08-17T22:06:12Z</time>
      </trkpt>
      <trkpt lat="23.075416" lon="113.272398">
        <time>2026-08-17T22:06:17Z</time>
      </trkpt>
      <trkpt lat="23.075306" lon="113.27239">
        <time>2026-08-17T22:06:22Z</time>
      </trkpt>
      <trkpt lat="23.075163" lon="113.272345">
        <time>2026-08-17T22:06:27Z</time>
      </trkpt>
      <trkpt lat="23.07504" lon="113.27228">
        <time>2026-08-17T22:06:32Z</time>
      </trkpt>
      <trkpt lat="23.074952" lon="113.272235">
        <time>2026-08-17T22:06:37Z</time>
      </trkpt>
      <trkpt lat="23.074854" lon="113.272191">
        <time>2026-08-17T22:06:42Z</time>
      </trkpt>
      <trkpt lat="23.074728" lon="113.272105">
        <time>2026-08-17T22:06:47Z</time>
      </trkpt>
      <trkpt lat="23.074594" lon="113.272004">
        <time>2026-08-17T22:06:52Z</time>
      </trkpt>
      <trkpt lat="23.074499" lon="113.271952">
        <time>2026-08-17T22:06:57Z</time>
      </trkpt>
      <trkpt lat="23.074399" lon="113.271952">
        <time>2026-08-17T22:07:02Z</time>
      </trkpt>
      <trkpt lat="23.074318" lon="113.272089">
        <time>2026-08-17T22:07:07Z</time>
      </trkpt>
      <trkpt lat="23.07426" lon="113.27227">
        <time>2026-08-17T22:07:12Z</time>
      </trkpt>
      <trkpt lat="23.074221" lon="113.272381">
        <time>2026-08-17T22:07:17Z</time>
      </trkpt>
      <trkpt lat="23.074175" lon="113.2725">
        <time>2026-08-17T22:07:22Z</time>
      </trkpt>
      <trkpt lat="23.074095" lon="113.2727">
        <time>2026-08-17T22:07:27Z</time>
      </trkpt>
      <trkpt lat="23.073978" lon="113.272847">
        <time>2026-08-17T22:07:32Z</time>
      </trkpt>
      <trkpt lat="23.073863" lon="113.272898">
        <time>2026-08-17T22:07:37Z</time>
      </trkpt>
      <trkpt lat="23.073754" lon="113.272892">
        <time>2026-08-17T22:07:42Z</time>
      </trkpt>
      <trkpt lat="23.073686" lon="113.272784">
        <time>2026-08-17T22:07:47Z</time>
      </trkpt>
      <trkpt lat="23.073746" lon="113.272646">
        <time>2026-08-17T22:07:52Z</time>
      </trkpt>
      <trkpt lat="23.073793" lon="113.272554">
        <time>2026-08-17T22:07:57Z</time>
      </trkpt>
      <trkpt lat="23.073837" lon="113.272468">
        <time>2026-08-17T22:08:02Z</time>
      </trkpt>
      <trkpt lat="23.073891" lon="113.27233">
        <time>2026-08-17T22:08:07Z</time>
      </trkpt>
      <trkpt lat="23.07395" lon="113.27219">
        <time>2026-08-17T22:08:12Z</time>
      </trkpt>
      <trkpt lat="23.073992" lon="113.272092">
        <time>2026-08-17T22:08:17Z</time>
      </trkpt>
      <trkpt lat="23.07404" lon="113.271996">
        <time>2026-08-17T22:08:22Z</time>
      </trkpt>
      <trkpt lat="23.074103" lon="113.271865">
        <time>2026-08-17T22:08:27Z</time>
      </trkpt>
      <trkpt lat="23.074098" lon="113.271736">
        <time>2026-08-17T22:08:32Z</time>
      </trkpt>
      <trkpt lat="23.074022" lon="113.271674">
        <time>2026-08-17T22:08:37Z</time>
      </trkpt>
      <trkpt lat="23.073942" lon="113.271618">
        <time>2026-08-17T22:08:42Z</time>
      </trkpt>
      <trkpt lat="23.073816" lon="113.271539">
        <time>2026-08-17T22:08:47Z</time>
      </trkpt>
      <trkpt lat="23.073691" lon="113.271469">
        <time>2026-08-17T22:08:52Z</time>
      </trkpt>
      <trkpt lat="23.073584" lon="113.271434">
        <time>2026-08-17T22:08:57Z</time>
      </trkpt>
      <trkpt lat="23.073477" lon="113.271403">
        <time>2026-08-17T22:09:02Z</time>
      </trkpt>
      <trkpt lat="23.073329" lon="113.271335">
        <time>2026-08-17T22:09:07Z</time>
      </trkpt>
      <trkpt lat="23.073219" lon="113.271206">
        <time>2026-08-17T22:09:12Z</time>
      </trkpt>
      <trkpt lat="23.073138" lon="113.271145">
        <time>2026-08-17T22:09:17Z</time>
      </trkpt>
      <trkpt lat="23.073053" lon="113.271089">
        <time>2026-08-17T22:09:22Z</time>
      </trkpt>
      <trkpt lat="23.072926" lon="113.271002">
        <time>2026-08-17T22:09:27Z</time>
      </trkpt>
      <trkpt lat="23.072788" lon="113.270913">
        <time>2026-08-17T22:09:32Z</time>
      </trkpt>
      <trkpt lat="23.072691" lon="113.270862">
        <time>2026-08-17T22:09:37Z</time>
      </trkpt>
      <trkpt lat="23.0726" lon="113.27081">
        <time>2026-08-17T22:09:42Z</time>
      </trkpt>
      <trkpt lat="23.072454" lon="113.270746">
        <time>2026-08-17T22:09:47Z</time>
      </trkpt>
      <trkpt lat="23.072305" lon="113.270662">
        <time>2026-08-17T22:09:52Z</time>
      </trkpt>
      <trkpt lat="23.072213" lon="113.270602">
        <time>2026-08-17T22:09:57Z</time>
      </trkpt>
      <trkpt lat="23.072121" lon="113.270542">
        <time>2026-08-17T22:10:02Z</time>
      </trkpt>
      <trkpt lat="23.07196" lon="113.270462">
        <time>2026-08-17T22:10:07Z</time>
      </trkpt>
      <trkpt lat="23.071782" lon="113.270407">
        <time>2026-08-17T22:10:12Z</time>
      </trkpt>
      <trkpt lat="23.07167" lon="113.270381">
        <time>2026-08-17T22:10:17Z</time>
      </trkpt>
      <trkpt lat="23.071563" lon="113.27036">
        <time>2026-08-17T22:10:22Z</time>
      </trkpt>
      <trkpt lat="23.0714" lon="113.270323">
        <time>2026-08-17T22:10:27Z</time>
      </trkpt>
      <trkpt lat="23.07125" lon="113.270253">
        <time>2026-08-17T22:10:32Z</time>
      </trkpt>
      <trkpt lat="23.071159" lon="113.270194">
        <time>2026-08-17T22:10:37Z</time>
      </trkpt>
      <trkpt lat="23.071056" lon="113.270147">
        <time>2026-08-17T22:10:42Z</time>
      </trkpt>
      <trkpt lat="23.070916" lon="113.270059">
        <time>2026-08-17T22:10:47Z</time>
      </trkpt>
      <trkpt lat="23.070776" lon="113.269987">
        <time>2026-08-17T22:10:52Z</time>
      </trkpt>
      <trkpt lat="23.070679" lon="113.269938">
        <time>2026-08-17T22:10:57Z</time>
      </trkpt>
      <trkpt lat="23.070577" lon="113.269886">
        <time>2026-08-17T22:11:02Z</time>
      </trkpt>
      <trkpt lat="23.070424" lon="113.269796">
        <time>2026-08-17T22:11:07Z</time>
      </trkpt>
      <trkpt lat="23.07025" lon="113.269734">
        <time>2026-08-17T22:11:12Z</time>
      </trkpt>
      <trkpt lat="23.070136" lon="113.269709">
        <time>2026-08-17T22:11:17Z</time>
      </trkpt>
      <trkpt lat="23.070031" lon="113.269667">
        <time>2026-08-17T22:11:22Z</time>
      </trkpt>
      <trkpt lat="23.069885" lon="113.269598">
        <time>2026-08-17T22:11:27Z</time>
      </trkpt>
      <trkpt lat="23.069733" lon="113.269529">
        <time>2026-08-17T22:11:32Z</time>
      </trkpt>
      <trkpt lat="23.069632" lon="113.269472">
        <time>2026-08-17T22:11:37Z</time>
      </trkpt>
      <trkpt lat="23.069536" lon="113.269415">
        <time>2026-08-17T22:11:42Z</time>
      </trkpt>
      <trkpt lat="23.069393" lon="113.26933">
        <time>2026-08-17T22:11:47Z</time>
      </trkpt>
      <trkpt lat="23.069247" lon="113.269223">
        <time>2026-08-17T22:11:52Z</time>
      </trkpt>
      <trkpt lat="23.069167" lon="113.269131">
        <time>2026-08-17T22:11:57Z</time>
      </trkpt>
      <trkpt lat="23.069096" lon="113.269033">
        <time>2026-08-17T22:12:02Z</time>
      </trkpt>
      <trkpt lat="23.068972" lon="113.268953">
        <time>2026-08-17T22:12:07Z</time>
      </trkpt>
      <trkpt lat="23.068839" lon="113.268893">
        <time>2026-08-17T22:12:12Z</time>
      </trkpt>
      <trkpt lat="23.068742" lon="113.268841">
        <time>2026-08-17T22:12:17Z</time>
      </trkpt>
      <trkpt lat="23.068645" lon="113.268792">
        <time>2026-08-17T22:12:22Z</time>
      </trkpt>
      <trkpt lat="23.068495" lon="113.268749">
        <time>2026-08-17T22:12:27Z</time>
      </trkpt>
      <trkpt lat="23.068347" lon="113.268694">
        <time>2026-08-17T22:12:32Z</time>
      </trkpt>
      <trkpt lat="23.068245" lon="113.268656">
        <time>2026-08-17T22:12:37Z</time>
      </trkpt>
      <trkpt lat="23.068131" lon="113.2686">
        <time>2026-08-17T22:12:42Z</time>
      </trkpt>
      <trkpt lat="23.06796" lon="113.268518">
        <time>2026-08-17T22:12:47Z</time>
      </trkpt>
      <trkpt lat="23.067798" lon="113.268451">
        <time>2026-08-17T22:12:52Z</time>
      </trkpt>
      <trkpt lat="23.067694" lon="113.268393">
        <time>2026-08-17T22:12:57Z</time>
      </trkpt>
      <trkpt lat="23.06759" lon="113.268337">
        <time>2026-08-17T22:13:02Z</time>
      </trkpt>
      <trkpt lat="23.067432" lon="113.268265">
        <time>2026-08-17T22:13:07Z</time>
      </trkpt>
      <trkpt lat="23.067274" lon="113.268196">
        <time>2026-08-17T22:13:12Z</time>
      </trkpt>
      <trkpt lat="23.067175" lon="113.268143">
        <time>2026-08-17T22:13:17Z</time>
      </trkpt>
      <trkpt lat="23.067081" lon="113.26809">
        <time>2026-08-17T22:13:22Z</time>
      </trkpt>
      <trkpt lat="23.06693" lon="113.268036">
        <time>2026-08-17T22:13:27Z</time>
      </trkpt>
      <trkpt lat="23.066763" lon="113.267996">
        <time>2026-08-17T22:13:32Z</time>
      </trkpt>
      <trkpt lat="23.066654" lon="113.267996">
        <time>2026-08-17T22:13:37Z</time>
      </trkpt>
      <trkpt lat="23.06655" lon="113.26797">
        <time>2026-08-17T22:13:42Z</time>
      </trkpt>
      <trkpt lat="23.066391" lon="113.267935">
        <time>2026-08-17T22:13:47Z</time>
      </trkpt>
      <trkpt lat="23.066238" lon="113.26797">
        <time>2026-08-17T22:13:52Z</time>
      </trkpt>
      <trkpt lat="23.066153" lon="113.268042">
        <time>2026-08-17T22:13:57Z</time>
      </trkpt>
      <trkpt lat="23.066077" lon="113.268128">
        <time>2026-08-17T22:14:02Z</time>
      </trkpt>
      <trkpt lat="23.065976" lon="113.268267">
        <time>2026-08-17T22:14:07Z</time>
      </trkpt>
      <trkpt lat="23.065874" lon="113.268408">
        <time>2026-08-17T22:14:12Z</time>
      </trkpt>
      <trkpt lat="23.065812" lon="113.268508">
        <time>2026-08-17T22:14:17Z</time>
      </trkpt>
      <trkpt lat="23.065756" lon="113.26861">
        <time>2026-08-17T22:14:22Z</time>
      </trkpt>
      <trkpt lat="23.065684" lon="113.268767">
        <time>2026-08-17T22:14:27Z</time>
      </trkpt>
      <trkpt lat="23.065626" lon="113.268927">
        <time>2026-08-17T22:14:32Z</time>
      </trkpt>
      <trkpt lat="23.065592" lon="113.269036">
        <time>2026-08-17T22:14:37Z</time>
      </trkpt>
      <trkpt lat="23.065564" lon="113.269145">
        <time>2026-08-17T22:14:42Z</time>
      </trkpt>
      <trkpt lat="23.065525" lon="113.269315">
        <time>2026-08-17T22:14:47Z</time>
      </trkpt>
      <trkpt lat="23.065492" lon="113.269496">
        <time>2026-08-17T22:14:52Z</time>
      </trkpt>
      <trkpt lat="23.065471" lon="113.269615">
        <time>2026-08-17T22:14:57Z</time>
      </trkpt>
      <trkpt lat="23.065444" lon="113.269732">
        <time>2026-08-17T22:15:02Z</time>
      </trkpt>
      <trkpt lat="23.065394" lon="113.269912">
        <time>2026-08-17T22:15:07Z</time>
      </trkpt>
      <trkpt lat="23.065322" lon="113.270095">
        <time>2026-08-17T22:15:12Z</time>
      </trkpt>
      <trkpt lat="23.06527" lon="113.270209">
        <time>2026-08-17T22:15:17Z</time>
      </trkpt>
      <trkpt lat="23.06522" lon="113.270319">
        <time>2026-08-17T22:15:22Z</time>
      </trkpt>
      <trkpt lat="23.065143" lon="113.270485">
        <time>2026-08-17T22:15:27Z</time>
      </trkpt>
      <trkpt lat="23.065069" lon="113.270656">
        <time>2026-08-17T22:15:32Z</time>
      </trkpt>
      <trkpt lat="23.065024" lon="113.270762">
        <time>2026-08-17T22:15:37Z</time>
      </trkpt>
      <trkpt lat="23.064975" lon="113.270864">
        <time>2026-08-17T22:15:42Z</time>
      </trkpt>
      <trkpt lat="23.064898" lon="113.271025">
        <time>2026-08-17T22:15:47Z</time>
      </trkpt>
      <trkpt lat="23.064819" lon="113.271183">
        <time>2026-08-17T22:15:52Z</time>
      </trkpt>
      <trkpt lat="23.064769" lon="113.271286">
        <time>2026-08-17T22:15:57Z</time>
      </trkpt>
      <trkpt lat="23.06472" lon="113.27139">
        <time>2026-08-17T22:16:02Z</time>
      </trkpt>
      <trkpt lat="23.064648" lon="113.271553">
        <time>2026-08-17T22:16:07Z</time>
      </trkpt>
      <trkpt lat="23.064574" lon="113.271718">
        <time>2026-08-17T22:16:12Z</time>
      </trkpt>
      <trkpt lat="23.064527" lon="113.271829">
        <time>2026-08-17T22:16:17Z</time>
      </trkpt>
      <trkpt lat="23.06448" lon="113.271941">
        <time>2026-08-17T22:16:22Z</time>
      </trkpt>
      <trkpt lat="23.064399" lon="113.27211">
        <time>2026-08-17T22:16:27Z</time>
      </trkpt>
      <trkpt lat="23.064348" lon="113.27229">
        <time>2026-08-17T22:16:32Z</time>
      </trkpt>
      <trkpt lat="23.064338" lon="113.272414">
        <time>2026-08-17T22:16:37Z</time>
      </trkpt>
      <trkpt lat="23.064334" lon="113.272543">
        <time>2026-08-17T22:16:42Z</time>
      </trkpt>
      <trkpt lat="23.06437" lon="113.27274">
        <time>2026-08-17T22:16:47Z</time>
      </trkpt>
      <trkpt lat="23.064425" lon="113.272909">
        <time>2026-08-17T22:16:52Z</time>
      </trkpt>
      <trkpt lat="23.064461" lon="113.273019">
        <time>2026-08-17T22:16:57Z</time>
      </trkpt>
      <trkpt lat="23.064486" lon="113.273129">
        <time>2026-08-17T22:17:02Z</time>
      </trkpt>
      <trkpt lat="23.064445" lon="113.27329">
        <time>2026-08-17T22:17:07Z</time>
      </trkpt>
      <trkpt lat="23.064314" lon="113.273406">
        <time>2026-08-17T22:17:12Z</time>
      </trkpt>
      <trkpt lat="23.064215" lon="113.273472">
        <time>2026-08-17T22:17:17Z</time>
      </trkpt>
      <trkpt lat="23.064121" lon="113.273538">
        <time>2026-08-17T22:17:22Z</time>
      </trkpt>
      <trkpt lat="23.063988" lon="113.273645">
        <time>2026-08-17T22:17:27Z</time>
      </trkpt>
      <trkpt lat="23.063875" lon="113.273777">
        <time>2026-08-17T22:17:32Z</time>
      </trkpt>
      <trkpt lat="23.063815" lon="113.273874">
        <time>2026-08-17T22:17:37Z</time>
      </trkpt>
      <trkpt lat="23.063758" lon="113.273974">
        <time>2026-08-17T22:17:42Z</time>
      </trkpt>
      <trkpt lat="23.063666" lon="113.274097">
        <time>2026-08-17T22:17:47Z</time>
      </trkpt>
      <trkpt lat="23.063554" lon="113.274201">
        <time>2026-08-17T22:17:52Z</time>
      </trkpt>
      <trkpt lat="23.063507" lon="113.274302">
        <time>2026-08-17T22:17:57Z</time>
      </trkpt>
      <trkpt lat="23.063466" lon="113.274414">
        <time>2026-08-17T22:18:02Z</time>
      </trkpt>
      <trkpt lat="23.063409" lon="113.274585">
        <time>2026-08-17T22:18:07Z</time>
      </trkpt>
      <trkpt lat="23.063346" lon="113.274763">
        <time>2026-08-17T22:18:12Z</time>
      </trkpt>
      <trkpt lat="23.063308" lon="113.27488">
        <time>2026-08-17T22:18:17Z</time>
      </trkpt>
      <trkpt lat="23.063263" lon="113.274998">
        <time>2026-08-17T22:18:22Z</time>
      </trkpt>
      <trkpt lat="23.063181" lon="113.275151">
        <time>2026-08-17T22:18:27Z</time>
      </trkpt>
      <trkpt lat="23.063099" lon="113.275284">
        <time>2026-08-17T22:18:32Z</time>
      </trkpt>
      <trkpt lat="23.063042" lon="113.275386">
        <time>2026-08-17T22:18:37Z</time>
      </trkpt>
      <trkpt lat="23.062976" lon="113.275488">
        <time>2026-08-17T22:18:42Z</time>
      </trkpt>
      <trkpt lat="23.062867" lon="113.275622">
        <time>2026-08-17T22:18:47Z</time>
      </trkpt>
      <trkpt lat="23.06274" lon="113.275748">
        <time>2026-08-17T22:18:52Z</time>
      </trkpt>
      <trkpt lat="23.062659" lon="113.275837">
        <time>2026-08-17T22:18:57Z</time>
      </trkpt>
      <trkpt lat="23.062592" lon="113.27593">
        <time>2026-08-17T22:19:02Z</time>
      </trkpt>
      <trkpt lat="23.062507" lon="113.276075">
        <time>2026-08-17T22:19:07Z</time>
      </trkpt>
      <trkpt lat="23.062439" lon="113.27623">
        <time>2026-08-17T22:19:12Z</time>
      </trkpt>
      <trkpt lat="23.062398" lon="113.276337">
        <time>2026-08-17T22:19:17Z</time>
      </trkpt>
      <trkpt lat="23.062357" lon="113.276442">
        <time>2026-08-17T22:19:22Z</time>
      </trkpt>
      <trkpt lat="23.062302" lon="113.276601">
        <time>2026-08-17T22:19:27Z</time>
      </trkpt>
      <trkpt lat="23.062247" lon="113.276754">
        <time>2026-08-17T22:19:32Z</time>
      </trkpt>
      <trkpt lat="23.062209" lon="113.276859">
        <time>2026-08-17T22:19:37Z</time>
      </trkpt>
      <trkpt lat="23.06217" lon="113.276966">
        <time>2026-08-17T22:19:42Z</time>
      </trkpt>
      <trkpt lat="23.062109" lon="113.277136">
        <time>2026-08-17T22:19:47Z</time>
      </trkpt>
      <trkpt lat="23.062035" lon="113.277321">
        <time>2026-08-17T22:19:52Z</time>
      </trkpt>
      <trkpt lat="23.061989" lon="113.27744">
        <time>2026-08-17T22:19:57Z</time>
      </trkpt>
      <trkpt lat="23.06194" lon="113.277553">
        <time>2026-08-17T22:20:02Z</time>
      </trkpt>
      <trkpt lat="23.061874" lon="113.277721">
        <time>2026-08-17T22:20:07Z</time>
      </trkpt>
      <trkpt lat="23.061857" lon="113.277891">
        <time>2026-08-17T22:20:12Z</time>
      </trkpt>
      <trkpt lat="23.061859" lon="113.278003">
        <time>2026-08-17T22:20:17Z</time>
      </trkpt>
      <trkpt lat="23.061865" lon="113.278114">
        <time>2026-08-17T22:20:22Z</time>
      </trkpt>
      <trkpt lat="23.06187" lon="113.27828">
        <time>2026-08-17T22:20:27Z</time>
      </trkpt>
      <trkpt lat="23.061879" lon="113.278453">
        <time>2026-08-17T22:20:32Z</time>
      </trkpt>
      <trkpt lat="23.061885" lon="113.278571">
        <time>2026-08-17T22:20:37Z</time>
      </trkpt>
      <trkpt lat="23.061874" lon="113.278677">
        <time>2026-08-17T22:20:42Z</time>
      </trkpt>
      <trkpt lat="23.06179" lon="113.278744">
        <time>2026-08-17T22:20:47Z</time>
      </trkpt>
      <trkpt lat="23.061724" lon="113.278865">
        <time>2026-08-17T22:20:52Z</time>
      </trkpt>
      <trkpt lat="23.061688" lon="113.278971">
        <time>2026-08-17T22:20:57Z</time>
      </trkpt>
      <trkpt lat="23.061646" lon="113.279077">
        <time>2026-08-17T22:21:02Z</time>
      </trkpt>
      <trkpt lat="23.061582" lon="113.279226">
        <time>2026-08-17T22:21:07Z</time>
      </trkpt>
      <trkpt lat="23.06151" lon="113.27938">
        <time>2026-08-17T22:21:12Z</time>
      </trkpt>
      <trkpt lat="23.061461" lon="113.279486">
        <time>2026-08-17T22:21:17Z</time>
      </trkpt>
      <trkpt lat="23.061414" lon="113.279594">
        <time>2026-08-17T22:21:22Z</time>
      </trkpt>
      <trkpt lat="23.061344" lon="113.279754">
        <time>2026-08-17T22:21:27Z</time>
      </trkpt>
      <trkpt lat="23.061279" lon="113.279908">
        <time>2026-08-17T22:21:32Z</time>
      </trkpt>
      <trkpt lat="23.061235" lon="113.280012">
        <time>2026-08-17T22:21:37Z</time>
      </trkpt>
      <trkpt lat="23.061191" lon="113.280117">
        <time>2026-08-17T22:21:42Z</time>
      </trkpt>
      <trkpt lat="23.061126" lon="113.28028">
        <time>2026-08-17T22:21:47Z</time>
      </trkpt>
      <trkpt lat="23.061055" lon="113.280444">
        <time>2026-08-17T22:21:52Z</time>
      </trkpt>
      <trkpt lat="23.061008" lon="113.280552">
        <time>2026-08-17T22:21:57Z</time>
      </trkpt>
      <trkpt lat="23.060958" lon="113.280659">
        <time>2026-08-17T22:22:02Z</time>
      </trkpt>
      <trkpt lat="23.060888" lon="113.280816">
        <time>2026-08-17T22:22:07Z</time>
      </trkpt>
      <trkpt lat="23.060817" lon="113.280976">
        <time>2026-08-17T22:22:12Z</time>
      </trkpt>
      <trkpt lat="23.060771" lon="113.28108">
        <time>2026-08-17T22:22:17Z</time>
      </trkpt>
      <trkpt lat="23.060725" lon="113.28118">
        <time>2026-08-17T22:22:22Z</time>
      </trkpt>
      <trkpt lat="23.060659" lon="113.281332">
        <time>2026-08-17T22:22:27Z</time>
      </trkpt>
      <trkpt lat="23.060591" lon="113.28149">
        <time>2026-08-17T22:22:32Z</time>
      </trkpt>
      <trkpt lat="23.060548" lon="113.281598">
        <time>2026-08-17T22:22:37Z</time>
      </trkpt>
      <trkpt lat="23.060509" lon="113.281706">
        <time>2026-08-17T22:22:42Z</time>
      </trkpt>
      <trkpt lat="23.06044" lon="113.281865">
        <time>2026-08-17T22:22:47Z</time>
      </trkpt>
      <trkpt lat="23.060371" lon="113.282022">
        <time>2026-08-17T22:22:52Z</time>
      </trkpt>
      <trkpt lat="23.060326" lon="113.282124">
        <time>2026-08-17T22:22:57Z</time>
      </trkpt>
      <trkpt lat="23.060284" lon="113.282226">
        <time>2026-08-17T22:23:02Z</time>
      </trkpt>
      <trkpt lat="23.060227" lon="113.282381">
        <time>2026-08-17T22:23:07Z</time>
      </trkpt>
      <trkpt lat="23.060168" lon="113.282536">
        <time>2026-08-17T22:23:12Z</time>
      </trkpt>
      <trkpt lat="23.060129" lon="113.282642">
        <time>2026-08-17T22:23:17Z</time>
      </trkpt>
      <trkpt lat="23.060088" lon="113.282745">
        <time>2026-08-17T22:23:22Z</time>
      </trkpt>
      <trkpt lat="23.060025" lon="113.282895">
        <time>2026-08-17T22:23:27Z</time>
      </trkpt>
      <trkpt lat="23.05995" lon="113.283044">
        <time>2026-08-17T22:23:32Z</time>
      </trkpt>
      <trkpt lat="23.059901" lon="113.283146">
        <time>2026-08-17T22:23:37Z</time>
      </trkpt>
      <trkpt lat="23.059853" lon="113.28325">
        <time>2026-08-17T22:23:42Z</time>
      </trkpt>
      <trkpt lat="23.059871" lon="113.283369">
        <time>2026-08-17T22:23:47Z</time>
      </trkpt>
      <trkpt lat="23.059978" lon="113.283268">
        <time>2026-08-17T22:23:52Z</time>
      </trkpt>
      <trkpt lat="23.060036" lon="113.283158">
        <time>2026-08-17T22:23:57Z</time>
      </trkpt>
      <trkpt lat="23.060097" lon="113.283049">
        <time>2026-08-17T22:24:02Z</time>
      </trkpt>
      <trkpt lat="23.060175" lon="113.282896">
        <time>2026-08-17T22:24:07Z</time>
      </trkpt>
      <trkpt lat="23.060258" lon="113.282748">
        <time>2026-08-17T22:24:12Z</time>
      </trkpt>
      <trkpt lat="23.060308" lon="113.282644">
        <time>2026-08-17T22:24:17Z</time>
      </trkpt>
      <trkpt lat="23.060353" lon="113.282536">
        <time>2026-08-17T22:24:22Z</time>
      </trkpt>
      <trkpt lat="23.060411" lon="113.282373">
        <time>2026-08-17T22:24:27Z</time>
      </trkpt>
      <trkpt lat="23.060471" lon="113.282217">
        <time>2026-08-17T22:24:32Z</time>
      </trkpt>
      <trkpt lat="23.060518" lon="113.282112">
        <time>2026-08-17T22:24:37Z</time>
      </trkpt>
      <trkpt lat="23.060569" lon="113.282009">
        <time>2026-08-17T22:24:42Z</time>
      </trkpt>
      <trkpt lat="23.06064" lon="113.281851">
        <time>2026-08-17T22:24:47Z</time>
      </trkpt>
      <trkpt lat="23.0607" lon="113.281686">
        <time>2026-08-17T22:24:52Z</time>
      </trkpt>
      <trkpt lat="23.060742" lon="113.281577">
        <time>2026-08-17T22:24:57Z</time>
      </trkpt>
      <trkpt lat="23.060791" lon="113.28147">
        <time>2026-08-17T22:25:02Z</time>
      </trkpt>
      <trkpt lat="23.060856" lon="113.281299">
        <time>2026-08-17T22:25:07Z</time>
      </trkpt>
      <trkpt lat="23.060921" lon="113.281125">
        <time>2026-08-17T22:25:12Z</time>
      </trkpt>
      <trkpt lat="23.060968" lon="113.281016">
        <time>2026-08-17T22:25:17Z</time>
      </trkpt>
      <trkpt lat="23.061016" lon="113.28091">
        <time>2026-08-17T22:25:22Z</time>
      </trkpt>
      <trkpt lat="23.061095" lon="113.280743">
        <time>2026-08-17T22:25:27Z</time>
      </trkpt>
      <trkpt lat="23.061173" lon="113.280572">
        <time>2026-08-17T22:25:32Z</time>
      </trkpt>
      <trkpt lat="23.061219" lon="113.280459">
        <time>2026-08-17T22:25:37Z</time>
      </trkpt>
      <trkpt lat="23.061268" lon="113.28035">
        <time>2026-08-17T22:25:42Z</time>
      </trkpt>
      <trkpt lat="23.061341" lon="113.280193">
        <time>2026-08-17T22:25:47Z</time>
      </trkpt>
      <trkpt lat="23.06142" lon="113.280045">
        <time>2026-08-17T22:25:52Z</time>
      </trkpt>
      <trkpt lat="23.061466" lon="113.279946">
        <time>2026-08-17T22:25:57Z</time>
      </trkpt>
      <trkpt lat="23.061511" lon="113.279851">
        <time>2026-08-17T22:26:02Z</time>
      </trkpt>
      <trkpt lat="23.061572" lon="113.279706">
        <time>2026-08-17T22:26:07Z</time>
      </trkpt>
      <trkpt lat="23.061631" lon="113.279551">
        <time>2026-08-17T22:26:12Z</time>
      </trkpt>
      <trkpt lat="23.061674" lon="113.279447">
        <time>2026-08-17T22:26:17Z</time>
      </trkpt>
      <trkpt lat="23.061717" lon="113.27934">
        <time>2026-08-17T22:26:22Z</time>
      </trkpt>
      <trkpt lat="23.061779" lon="113.279183">
        <time>2026-08-17T22:26:27Z</time>
      </trkpt>
      <trkpt lat="23.061842" lon="113.279038">
        <time>2026-08-17T22:26:32Z</time>
      </trkpt>
      <trkpt lat="23.061898" lon="113.278943">
        <time>2026-08-17T22:26:37Z</time>
      </trkpt>
      <trkpt lat="23.061954" lon="113.278846">
        <time>2026-08-17T22:26:42Z</time>
      </trkpt>
      <trkpt lat="23.062004" lon="113.278685">
        <time>2026-08-17T22:26:47Z</time>
      </trkpt>
      <trkpt lat="23.061998" lon="113.278516">
        <time>2026-08-17T22:26:52Z</time>
      </trkpt>
      <trkpt lat="23.06199" lon="113.278404">
        <time>2026-08-17T22:26:57Z</time>
      </trkpt>
      <trkpt lat="23.061985" lon="113.27829">
        <time>2026-08-17T22:27:02Z</time>
      </trkpt>
      <trkpt lat="23.061976" lon="113.278114">
        <time>2026-08-17T22:27:07Z</time>
      </trkpt>
      <trkpt lat="23.061965" lon="113.27794">
        <time>2026-08-17T22:27:12Z</time>
      </trkpt>
      <trkpt lat="23.061961" lon="113.277826">
        <time>2026-08-17T22:27:17Z</time>
      </trkpt>
      <trkpt lat="23.06197" lon="113.277713">
        <time>2026-08-17T22:27:22Z</time>
      </trkpt>
      <trkpt lat="23.062019" lon="113.277548">
        <time>2026-08-17T22:27:27Z</time>
      </trkpt>
      <trkpt lat="23.062086" lon="113.277388">
        <time>2026-08-17T22:27:32Z</time>
      </trkpt>
      <trkpt lat="23.062125" lon="113.277281">
        <time>2026-08-17T22:27:37Z</time>
      </trkpt>
      <trkpt lat="23.062165" lon="113.277168">
        <time>2026-08-17T22:27:42Z</time>
      </trkpt>
      <trkpt lat="23.06222" lon="113.277007">
        <time>2026-08-17T22:27:47Z</time>
      </trkpt>
      <trkpt lat="23.062275" lon="113.276857">
        <time>2026-08-17T22:27:52Z</time>
      </trkpt>
      <trkpt lat="23.062314" lon="113.276756">
        <time>2026-08-17T22:27:57Z</time>
      </trkpt>
      <trkpt lat="23.062354" lon="113.276649">
        <time>2026-08-17T22:28:02Z</time>
      </trkpt>
      <trkpt lat="23.062416" lon="113.27649">
        <time>2026-08-17T22:28:07Z</time>
      </trkpt>
      <trkpt lat="23.062475" lon="113.276331">
        <time>2026-08-17T22:28:12Z</time>
      </trkpt>
      <trkpt lat="23.062516" lon="113.276224">
        <time>2026-08-17T22:28:17Z</time>
      </trkpt>
      <trkpt lat="23.062567" lon="113.27612">
        <time>2026-08-17T22:28:22Z</time>
      </trkpt>
      <trkpt lat="23.062653" lon="113.275971">
        <time>2026-08-17T22:28:27Z</time>
      </trkpt>
      <trkpt lat="23.062759" lon="113.275838">
        <time>2026-08-17T22:28:32Z</time>
      </trkpt>
      <trkpt lat="23.06283" lon="113.275761">
        <time>2026-08-17T22:28:37Z</time>
      </trkpt>
      <trkpt lat="23.062907" lon="113.275688">
        <time>2026-08-17T22:28:42Z</time>
      </trkpt>
      <trkpt lat="23.063023" lon="113.275571">
        <time>2026-08-17T22:28:47Z</time>
      </trkpt>
      <trkpt lat="23.063125" lon="113.275439">
        <time>2026-08-17T22:28:52Z</time>
      </trkpt>
      <trkpt lat="23.063183" lon="113.275343">
        <time>2026-08-17T22:28:57Z</time>
      </trkpt>
      <trkpt lat="23.063242" lon="113.275245">
        <time>2026-08-17T22:29:02Z</time>
      </trkpt>
      <trkpt lat="23.063331" lon="113.275106">
        <time>2026-08-17T22:29:07Z</time>
      </trkpt>
      <trkpt lat="23.063402" lon="113.274956">
        <time>2026-08-17T22:29:12Z</time>
      </trkpt>
      <trkpt lat="23.063428" lon="113.274849">
        <time>2026-08-17T22:29:17Z</time>
      </trkpt>
      <trkpt lat="23.063456" lon="113.274742">
        <time>2026-08-17T22:29:22Z</time>
      </trkpt>
      <trkpt lat="23.063503" lon="113.274587">
        <time>2026-08-17T22:29:27Z</time>
      </trkpt>
      <trkpt lat="23.063568" lon="113.274415">
        <time>2026-08-17T22:29:32Z</time>
      </trkpt>
      <trkpt lat="23.063623" lon="113.274315">
        <time>2026-08-17T22:29:37Z</time>
      </trkpt>
      <trkpt lat="23.063692" lon="113.274224">
        <time>2026-08-17T22:29:42Z</time>
      </trkpt>
      <trkpt lat="23.063822" lon="113.27411">
        <time>2026-08-17T22:29:47Z</time>
      </trkpt>
      <trkpt lat="23.06392" lon="113.273962">
        <time>2026-08-17T22:29:52Z</time>
      </trkpt>
      <trkpt lat="23.063973" lon="113.273857">
        <time>2026-08-17T22:29:57Z</time>
      </trkpt>
      <trkpt lat="23.064031" lon="113.273754">
        <time>2026-08-17T22:30:02Z</time>
      </trkpt>
      <trkpt lat="23.064136" lon="113.273638">
        <time>2026-08-17T22:30:07Z</time>
      </trkpt>
      <trkpt lat="23.06426" lon="113.273544">
        <time>2026-08-17T22:30:12Z</time>
      </trkpt>
      <trkpt lat="23.064344" lon="113.273479">
        <time>2026-08-17T22:30:17Z</time>
      </trkpt>
      <trkpt lat="23.064431" lon="113.273406">
        <time>2026-08-17T22:30:22Z</time>
      </trkpt>
      <trkpt lat="23.064549" lon="113.273272">
        <time>2026-08-17T22:30:27Z</time>
      </trkpt>
      <trkpt lat="23.064589" lon="113.27309">
        <time>2026-08-17T22:30:32Z</time>
      </trkpt>
      <trkpt lat="23.064557" lon="113.272963">
        <time>2026-08-17T22:30:37Z</time>
      </trkpt>
      <trkpt lat="23.06451" lon="113.272841">
        <time>2026-08-17T22:30:42Z</time>
      </trkpt>
      <trkpt lat="23.064449" lon="113.272662">
        <time>2026-08-17T22:30:47Z</time>
      </trkpt>
      <trkpt lat="23.064465" lon="113.272485">
        <time>2026-08-17T22:30:52Z</time>
      </trkpt>
      <trkpt lat="23.064519" lon="113.272366">
        <time>2026-08-17T22:30:57Z</time>
      </trkpt>
      <trkpt lat="23.064563" lon="113.272242">
        <time>2026-08-17T22:31:02Z</time>
      </trkpt>
      <trkpt lat="23.064625" lon="113.272066">
        <time>2026-08-17T22:31:07Z</time>
      </trkpt>
      <trkpt lat="23.064695" lon="113.271911">
        <time>2026-08-17T22:31:12Z</time>
      </trkpt>
      <trkpt lat="23.064746" lon="113.271807">
        <time>2026-08-17T22:31:17Z</time>
      </trkpt>
      <trkpt lat="23.064806" lon="113.271704">
        <time>2026-08-17T22:31:22Z</time>
      </trkpt>
      <trkpt lat="23.064902" lon="113.271552">
        <time>2026-08-17T22:31:27Z</time>
      </trkpt>
      <trkpt lat="23.064975" lon="113.271395">
        <time>2026-08-17T22:31:32Z</time>
      </trkpt>
      <trkpt lat="23.06502" lon="113.27129">
        <time>2026-08-17T22:31:37Z</time>
      </trkpt>
      <trkpt lat="23.06507" lon="113.271186">
        <time>2026-08-17T22:31:42Z</time>
      </trkpt>
      <trkpt lat="23.065151" lon="113.271021">
        <time>2026-08-17T22:31:47Z</time>
      </trkpt>
      <trkpt lat="23.065223" lon="113.270856">
        <time>2026-08-17T22:31:52Z</time>
      </trkpt>
      <trkpt lat="23.065265" lon="113.270748">
        <time>2026-08-17T22:31:57Z</time>
      </trkpt>
      <trkpt lat="23.065307" lon="113.270644">
        <time>2026-08-17T22:32:02Z</time>
      </trkpt>
      <trkpt lat="23.065374" lon="113.270487">
        <time>2026-08-17T22:32:07Z</time>
      </trkpt>
      <trkpt lat="23.065442" lon="113.270328">
        <time>2026-08-17T22:32:12Z</time>
      </trkpt>
      <trkpt lat="23.065482" lon="113.270218">
        <time>2026-08-17T22:32:17Z</time>
      </trkpt>
      <trkpt lat="23.065519" lon="113.270106">
        <time>2026-08-17T22:32:22Z</time>
      </trkpt>
      <trkpt lat="23.06558" lon="113.269938">
        <time>2026-08-17T22:32:27Z</time>
      </trkpt>
      <trkpt lat="23.065631" lon="113.269771">
        <time>2026-08-17T22:32:32Z</time>
      </trkpt>
      <trkpt lat="23.065664" lon="113.269658">
        <time>2026-08-17T22:32:37Z</time>
      </trkpt>
      <trkpt lat="23.065705" lon="113.26955">
        <time>2026-08-17T22:32:42Z</time>
      </trkpt>
      <trkpt lat="23.06576" lon="113.269383">
        <time>2026-08-17T22:32:47Z</time>
      </trkpt>
      <trkpt lat="23.065784" lon="113.269204">
        <time>2026-08-17T22:32:52Z</time>
      </trkpt>
      <trkpt lat="23.065815" lon="113.269091">
        <time>2026-08-17T22:32:57Z</time>
      </trkpt>
      <trkpt lat="23.065863" lon="113.268982">
        <time>2026-08-17T22:33:02Z</time>
      </trkpt>
      <trkpt lat="23.065939" lon="113.268822">
        <time>2026-08-17T22:33:07Z</time>
      </trkpt>
      <trkpt lat="23.066019" lon="113.268668">
        <time>2026-08-17T22:33:12Z</time>
      </trkpt>
      <trkpt lat="23.06608" lon="113.268568">
        <time>2026-08-17T22:33:17Z</time>
      </trkpt>
      <trkpt lat="23.066142" lon="113.268468">
        <time>2026-08-17T22:33:22Z</time>
      </trkpt>
      <trkpt lat="23.066232" lon="113.268329">
        <time>2026-08-17T22:33:27Z</time>
      </trkpt>
      <trkpt lat="23.066331" lon="113.268197">
        <time>2026-08-17T22:33:32Z</time>
      </trkpt>
      <trkpt lat="23.066421" lon="113.268136">
        <time>2026-08-17T22:33:37Z</time>
      </trkpt>
      <trkpt lat="23.066524" lon="113.268117">
        <time>2026-08-17T22:33:42Z</time>
      </trkpt>
      <trkpt lat="23.066677" lon="113.26814">
        <time>2026-08-17T22:33:47Z</time>
      </trkpt>
      <trkpt lat="23.06683" lon="113.268157">
        <time>2026-08-17T22:33:52Z</time>
      </trkpt>
      <trkpt lat="23.066932" lon="113.268152">
        <time>2026-08-17T22:33:57Z</time>
      </trkpt>
      <trkpt lat="23.067029" lon="113.268177">
        <time>2026-08-17T22:34:02Z</time>
      </trkpt>
      <trkpt lat="23.067138" lon="113.268194">
        <time>2026-08-17T22:34:07Z</time>
      </trkpt>
      <trkpt lat="23.067043" lon="113.268106">
        <time>2026-08-17T22:34:12Z</time>
      </trkpt>
      <trkpt lat="23.066924" lon="113.268067">
        <time>2026-08-17T22:34:17Z</time>
      </trkpt>
      <trkpt lat="23.066811" lon="113.268039">
        <time>2026-08-17T22:34:22Z</time>
      </trkpt>
      <trkpt lat="23.066663" lon="113.268">
        <time>2026-08-17T22:34:27Z</time>
      </trkpt>
      <trkpt lat="23.066517" lon="113.267958">
        <time>2026-08-17T22:34:32Z</time>
      </trkpt>
      <trkpt lat="23.066422" lon="113.267937">
        <time>2026-08-17T22:34:37Z</time>
      </trkpt>
      <trkpt lat="23.066324" lon="113.267945">
        <time>2026-08-17T22:34:42Z</time>
      </trkpt>
      <trkpt lat="23.066196" lon="113.268027">
        <time>2026-08-17T22:34:47Z</time>
      </trkpt>
      <trkpt lat="23.066088" lon="113.268152">
        <time>2026-08-17T22:34:52Z</time>
      </trkpt>
      <trkpt lat="23.066017" lon="113.268239">
        <time>2026-08-17T22:34:57Z</time>
      </trkpt>
      <trkpt lat="23.065943" lon="113.268325">
        <time>2026-08-17T22:35:02Z</time>
      </trkpt>
      <trkpt lat="23.065841" lon="113.26846">
        <time>2026-08-17T22:35:07Z</time>
      </trkpt>
      <trkpt lat="23.065759" lon="113.268595">
        <time>2026-08-17T22:35:12Z</time>
      </trkpt>
      <trkpt lat="23.065715" lon="113.268695">
        <time>2026-08-17T22:35:17Z</time>
      </trkpt>
      <trkpt lat="23.065677" lon="113.268799">
        <time>2026-08-17T22:35:22Z</time>
      </trkpt>
      <trkpt lat="23.065623" lon="113.268953">
        <time>2026-08-17T22:35:27Z</time>
      </trkpt>
      <trkpt lat="23.065577" lon="113.269108">
        <time>2026-08-17T22:35:32Z</time>
      </trkpt>
      <trkpt lat="23.065553" lon="113.269214">
        <time>2026-08-17T22:35:37Z</time>
      </trkpt>
      <trkpt lat="23.06553" lon="113.26932">
        <time>2026-08-17T22:35:42Z</time>
      </trkpt>
      <trkpt lat="23.065494" lon="113.269489">
        <time>2026-08-17T22:35:47Z</time>
      </trkpt>
      <trkpt lat="23.06545" lon="113.269651">
        <time>2026-08-17T22:35:52Z</time>
      </trkpt>
      <trkpt lat="23.065415" lon="113.269759">
        <time>2026-08-17T22:35:57Z</time>
      </trkpt>
      <trkpt lat="23.065385" lon="113.269867">
        <time>2026-08-17T22:36:02Z</time>
      </trkpt>
      <trkpt lat="23.065334" lon="113.270028">
        <time>2026-08-17T22:36:07Z</time>
      </trkpt>
      <trkpt lat="23.065267" lon="113.270187">
        <time>2026-08-17T22:36:12Z</time>
      </trkpt>
      <trkpt lat="23.065223" lon="113.270294">
        <time>2026-08-17T22:36:17Z</time>
      </trkpt>
      <trkpt lat="23.06518" lon="113.270397">
        <time>2026-08-17T22:36:22Z</time>
      </trkpt>
      <trkpt lat="23.065111" lon="113.270547">
        <time>2026-08-17T22:36:27Z</time>
      </trkpt>
      <trkpt lat="23.065038" lon="113.270697">
        <time>2026-08-17T22:36:32Z</time>
      </trkpt>
      <trkpt lat="23.064986" lon="113.270797">
        <time>2026-08-17T22:36:37Z</time>
      </trkpt>
      <trkpt lat="23.064937" lon="113.270897">
        <time>2026-08-17T22:36:42Z</time>
      </trkpt>
      <trkpt lat="23.064872" lon="113.271051">
        <time>2026-08-17T22:36:47Z</time>
      </trkpt>
      <trkpt lat="23.064798" lon="113.271207">
        <time>2026-08-17T22:36:52Z</time>
      </trkpt>
      <trkpt lat="23.06475" lon="113.271308">
        <time>2026-08-17T22:36:57Z</time>
      </trkpt>
      <trkpt lat="23.064704" lon="113.271409">
        <time>2026-08-17T22:37:02Z</time>
      </trkpt>
      <trkpt lat="23.06463" lon="113.271563">
        <time>2026-08-17T22:37:07Z</time>
      </trkpt>
      <trkpt lat="23.064564" lon="113.271723">
        <time>2026-08-17T22:37:12Z</time>
      </trkpt>
      <trkpt lat="23.064517" lon="113.271825">
        <time>2026-08-17T22:37:17Z</time>
      </trkpt>
      <trkpt lat="23.064468" lon="113.271928">
        <time>2026-08-17T22:37:22Z</time>
      </trkpt>
      <trkpt lat="23.064395" lon="113.272096">
        <time>2026-08-17T22:37:27Z</time>
      </trkpt>
      <trkpt lat="23.064345" lon="113.272265">
        <time>2026-08-17T22:37:32Z</time>
      </trkpt>
      <trkpt lat="23.064334" lon="113.272378">
        <time>2026-08-17T22:37:37Z</time>
      </trkpt>
      <trkpt lat="23.064327" lon="113.272488">
        <time>2026-08-17T22:37:42Z</time>
      </trkpt>
      <trkpt lat="23.064344" lon="113.272658">
        <time>2026-08-17T22:37:47Z</time>
      </trkpt>
      <trkpt lat="23.064387" lon="113.272827">
        <time>2026-08-17T22:37:52Z</time>
      </trkpt>
      <trkpt lat="23.064413" lon="113.272943">
        <time>2026-08-17T22:37:57Z</time>
      </trkpt>
      <trkpt lat="23.064444" lon="113.273052">
        <time>2026-08-17T22:38:02Z</time>
      </trkpt>
      <trkpt lat="23.064453" lon="113.273215">
        <time>2026-08-17T22:38:07Z</time>
      </trkpt>
      <trkpt lat="23.064354" lon="113.273352">
        <time>2026-08-17T22:38:12Z</time>
      </trkpt>
      <trkpt lat="23.06425" lon="113.273427">
        <time>2026-08-17T22:38:17Z</time>
      </trkpt>
      <trkpt lat="23.064148" lon="113.273499">
        <time>2026-08-17T22:38:22Z</time>
      </trkpt>
      <trkpt lat="23.064018" lon="113.273596">
        <time>2026-08-17T22:38:27Z</time>
      </trkpt>
      <trkpt lat="23.063912" lon="113.273709">
        <time>2026-08-17T22:38:32Z</time>
      </trkpt>
      <trkpt lat="23.063852" lon="113.273796">
        <time>2026-08-17T22:38:37Z</time>
      </trkpt>
      <trkpt lat="23.063803" lon="113.273888">
        <time>2026-08-17T22:38:42Z</time>
      </trkpt>
      <trkpt lat="23.063728" lon="113.274018">
        <time>2026-08-17T22:38:47Z</time>
      </trkpt>
      <trkpt lat="23.06363" lon="113.274103">
        <time>2026-08-17T22:38:52Z</time>
      </trkpt>
      <trkpt lat="23.063555" lon="113.274087">
        <time>2026-08-17T22:38:57Z</time>
      </trkpt>
      <trkpt lat="23.063468" lon="113.274081">
        <time>2026-08-17T22:39:02Z</time>
      </trkpt>
      <trkpt lat="23.063374" lon="113.274224">
        <time>2026-08-17T22:39:07Z</time>
      </trkpt>
      <trkpt lat="23.063302" lon="113.274391">
        <time>2026-08-17T22:39:12Z</time>
      </trkpt>
      <trkpt lat="23.063252" lon="113.274506">
        <time>2026-08-17T22:39:17Z</time>
      </trkpt>
      <trkpt lat="23.063203" lon="113.274619">
        <time>2026-08-17T22:39:22Z</time>
      </trkpt>
      <trkpt lat="23.06314" lon="113.274784">
        <time>2026-08-17T22:39:27Z</time>
      </trkpt>
      <trkpt lat="23.063089" lon="113.274946">
        <time>2026-08-17T22:39:32Z</time>
      </trkpt>
      <trkpt lat="23.063063" lon="113.275057">
        <time>2026-08-17T22:39:37Z</time>
      </trkpt>
      <trkpt lat="23.063004" lon="113.27515">
        <time>2026-08-17T22:39:42Z</time>
      </trkpt>
      <trkpt lat="23.062899" lon="113.275265">
        <time>2026-08-17T22:39:47Z</time>
      </trkpt>
      <trkpt lat="23.062934" lon="113.275418">
        <time>2026-08-17T22:39:52Z</time>
      </trkpt>
      <trkpt lat="23.062919" lon="113.275519">
        <time>2026-08-17T22:39:57Z</time>
      </trkpt>
      <trkpt lat="23.062854" lon="113.275609">
        <time>2026-08-17T22:40:02Z</time>
      </trkpt>
      <trkpt lat="23.06274" lon="113.275731">
        <time>2026-08-17T22:40:07Z</time>
      </trkpt>
      <trkpt lat="23.062633" lon="113.275864">
        <time>2026-08-17T22:40:12Z</time>
      </trkpt>
      <trkpt lat="23.062566" lon="113.275954">
        <time>2026-08-17T22:40:17Z</time>
      </trkpt>
      <trkpt lat="23.062507" lon="113.276048">
        <time>2026-08-17T22:40:22Z</time>
      </trkpt>
      <trkpt lat="23.062435" lon="113.276202">
        <time>2026-08-17T22:40:27Z</time>
      </trkpt>
      <trkpt lat="23.062375" lon="113.276351">
        <time>2026-08-17T22:40:32Z</time>
      </trkpt>
      <trkpt lat="23.062338" lon="113.276453">
        <time>2026-08-17T22:40:37Z</time>
      </trkpt>
      <trkpt lat="23.062299" lon="113.276563">
        <time>2026-08-17T22:40:42Z</time>
      </trkpt>
      <trkpt lat="23.062238" lon="113.276717">
        <time>2026-08-17T22:40:47Z</time>
      </trkpt>
      <trkpt lat="23.062174" lon="113.276877">
        <time>2026-08-17T22:40:52Z</time>
      </trkpt>
      <trkpt lat="23.062128" lon="113.276986">
        <time>2026-08-17T22:40:57Z</time>
      </trkpt>
      <trkpt lat="23.062087" lon="113.277098">
        <time>2026-08-17T22:41:02Z</time>
      </trkpt>
      <trkpt lat="23.06203" lon="113.277269">
        <time>2026-08-17T22:41:07Z</time>
      </trkpt>
      <trkpt lat="23.061974" lon="113.277434">
        <time>2026-08-17T22:41:12Z</time>
      </trkpt>
      <trkpt lat="23.061934" lon="113.27754">
        <time>2026-08-17T22:41:17Z</time>
      </trkpt>
      <trkpt lat="23.061886" lon="113.277646">
        <time>2026-08-17T22:41:22Z</time>
      </trkpt>
      <trkpt lat="23.061848" lon="113.27781">
        <time>2026-08-17T22:41:27Z</time>
      </trkpt>
      <trkpt lat="23.061841" lon="113.277964">
        <time>2026-08-17T22:41:32Z</time>
      </trkpt>
      <trkpt lat="23.061845" lon="113.278064">
        <time>2026-08-17T22:41:37Z</time>
      </trkpt>
      <trkpt lat="23.061855" lon="113.278166">
        <time>2026-08-17T22:41:42Z</time>
      </trkpt>
      <trkpt lat="23.061858" lon="113.278325">
        <time>2026-08-17T22:41:47Z</time>
      </trkpt>
      <trkpt lat="23.061867" lon="113.278485">
        <time>2026-08-17T22:41:52Z</time>
      </trkpt>
      <trkpt lat="23.061868" lon="113.278591">
        <time>2026-08-17T22:41:57Z</time>
      </trkpt>
      <trkpt lat="23.061856" lon="113.278688">
        <time>2026-08-17T22:42:02Z</time>
      </trkpt>
      <trkpt lat="23.061771" lon="113.278733">
        <time>2026-08-17T22:42:07Z</time>
      </trkpt>
      <trkpt lat="23.06169" lon="113.278851">
        <time>2026-08-17T22:42:12Z</time>
      </trkpt>
      <trkpt lat="23.061664" lon="113.27896">
        <time>2026-08-17T22:42:17Z</time>
      </trkpt>
      <trkpt lat="23.061635" lon="113.279067">
        <time>2026-08-17T22:42:22Z</time>
      </trkpt>
      <trkpt lat="23.061579" lon="113.279215">
        <time>2026-08-17T22:42:27Z</time>
      </trkpt>
      <trkpt lat="23.061511" lon="113.279358">
        <time>2026-08-17T22:42:32Z</time>
      </trkpt>
      <trkpt lat="23.061467" lon="113.27946">
        <time>2026-08-17T22:42:37Z</time>
      </trkpt>
      <trkpt lat="23.06143" lon="113.279565">
        <time>2026-08-17T22:42:42Z</time>
      </trkpt>
      <trkpt lat="23.061371" lon="113.279722">
        <time>2026-08-17T22:42:47Z</time>
      </trkpt>
      <trkpt lat="23.061309" lon="113.279876">
        <time>2026-08-17T22:42:52Z</time>
      </trkpt>
      <trkpt lat="23.061261" lon="113.279976">
        <time>2026-08-17T22:42:57Z</time>
      </trkpt>
      <trkpt lat="23.061212" lon="113.280075">
        <time>2026-08-17T22:43:02Z</time>
      </trkpt>
      <trkpt lat="23.061141" lon="113.280227">
        <time>2026-08-17T22:43:07Z</time>
      </trkpt>
      <trkpt lat="23.061074" lon="113.280386">
        <time>2026-08-17T22:43:12Z</time>
      </trkpt>
      <trkpt lat="23.06103" lon="113.280488">
        <time>2026-08-17T22:43:17Z</time>
      </trkpt>
      <trkpt lat="23.060986" lon="113.280589">
        <time>2026-08-17T22:43:22Z</time>
      </trkpt>
      <trkpt lat="23.06091" lon="113.280744">
        <time>2026-08-17T22:43:27Z</time>
      </trkpt>
      <trkpt lat="23.060846" lon="113.280897">
        <time>2026-08-17T22:43:32Z</time>
      </trkpt>
      <trkpt lat="23.06081" lon="113.280997">
        <time>2026-08-17T22:43:37Z</time>
      </trkpt>
      <trkpt lat="23.060766" lon="113.281098">
        <time>2026-08-17T22:43:42Z</time>
      </trkpt>
      <trkpt lat="23.060696" lon="113.281251">
        <time>2026-08-17T22:43:47Z</time>
      </trkpt>
      <trkpt lat="23.060637" lon="113.281404">
        <time>2026-08-17T22:43:52Z</time>
      </trkpt>
      <trkpt lat="23.060598" lon="113.281504">
        <time>2026-08-17T22:43:57Z</time>
      </trkpt>
      <trkpt lat="23.060562" lon="113.281606">
        <time>2026-08-17T22:44:02Z</time>
      </trkpt>
      <trkpt lat="23.060498" lon="113.281759">
        <time>2026-08-17T22:44:07Z</time>
      </trkpt>
      <trkpt lat="23.06043" lon="113.281915">
        <time>2026-08-17T22:44:12Z</time>
      </trkpt>
      <trkpt lat="23.060381" lon="113.282017">
        <time>2026-08-17T22:44:17Z</time>
      </trkpt>
      <trkpt lat="23.060339" lon="113.282121">
        <time>2026-08-17T22:44:22Z</time>
      </trkpt>
      <trkpt lat="23.060279" lon="113.28227">
        <time>2026-08-17T22:44:27Z</time>
      </trkpt>
      <trkpt lat="23.060216" lon="113.282415">
        <time>2026-08-17T22:44:32Z</time>
      </trkpt>
      <trkpt lat="23.060169" lon="113.282515">
        <time>2026-08-17T22:44:37Z</time>
      </trkpt>
      <trkpt lat="23.06012" lon="113.282615">
        <time>2026-08-17T22:44:42Z</time>
      </trkpt>
      <trkpt lat="23.060048" lon="113.282767">
        <time>2026-08-17T22:44:47Z</time>
      </trkpt>
      <trkpt lat="23.059987" lon="113.28292">
        <time>2026-08-17T22:44:52Z</time>
      </trkpt>
      <trkpt lat="23.059946" lon="113.283027">
        <time>2026-08-17T22:44:57Z</time>
      </trkpt>
      <trkpt lat="23.059897" lon="113.283135">
        <time>2026-08-17T22:45:02Z</time>
      </trkpt>
      <trkpt lat="23.059814" lon="113.283279">
        <time>2026-08-17T22:45:07Z</time>
      </trkpt>
      <trkpt lat="23.059826" lon="113.28336">
        <time>2026-08-17T22:45:12Z</time>
      </trkpt>
      <trkpt lat="23.05992" lon="113.283316">
        <time>2026-08-17T22:45:17Z</time>
      </trkpt>
      <trkpt lat="23.060004" lon="113.28322">
        <time>2026-08-17T22:45:22Z</time>
      </trkpt>
      <trkpt lat="23.060111" lon="113.283059">
        <time>2026-08-17T22:45:27Z</time>
      </trkpt>
      <trkpt lat="23.060181" lon="113.282899">
        <time>2026-08-17T22:45:32Z</time>
      </trkpt>
      <trkpt lat="23.060228" lon="113.282797">
        <time>2026-08-17T22:45:37Z</time>
      </trkpt>
      <trkpt lat="23.06027" lon="113.282688">
        <time>2026-08-17T22:45:42Z</time>
      </trkpt>
      <trkpt lat="23.060328" lon="113.282529">
        <time>2026-08-17T22:45:47Z</time>
      </trkpt>
      <trkpt lat="23.060387" lon="113.28237">
        <time>2026-08-17T22:45:52Z</time>
      </trkpt>
      <trkpt lat="23.060423" lon="113.282266">
        <time>2026-08-17T22:45:57Z</time>
      </trkpt>
      <trkpt lat="23.060456" lon="113.282163">
        <time>2026-08-17T22:46:02Z</time>
      </trkpt>
      <trkpt lat="23.060509" lon="113.282023">
        <time>2026-08-17T22:46:07Z</time>
      </trkpt>
      <trkpt lat="23.060569" lon="113.281882">
        <time>2026-08-17T22:46:12Z</time>
      </trkpt>
      <trkpt lat="23.060608" lon="113.281782">
        <time>2026-08-17T22:46:17Z</time>
      </trkpt>
      <trkpt lat="23.060652" lon="113.281685">
        <time>2026-08-17T22:46:22Z</time>
      </trkpt>
      <trkpt lat="23.060716" lon="113.281542">
        <time>2026-08-17T22:46:27Z</time>
      </trkpt>
      <trkpt lat="23.060789" lon="113.281399">
        <time>2026-08-17T22:46:32Z</time>
      </trkpt>
      <trkpt lat="23.060834" lon="113.281299">
        <time>2026-08-17T22:46:37Z</time>
      </trkpt>
      <trkpt lat="23.060875" lon="113.281194">
        <time>2026-08-17T22:46:42Z</time>
      </trkpt>
      <trkpt lat="23.060944" lon="113.281038">
        <time>2026-08-17T22:46:47Z</time>
      </trkpt>
      <trkpt lat="23.06101" lon="113.280886">
        <time>2026-08-17T22:46:52Z</time>
      </trkpt>
      <trkpt lat="23.061055" lon="113.280782">
        <time>2026-08-17T22:46:57Z</time>
      </trkpt>
      <trkpt lat="23.061104" lon="113.280676">
        <time>2026-08-17T22:47:02Z</time>
      </trkpt>
      <trkpt lat="23.061183" lon="113.280532">
        <time>2026-08-17T22:47:07Z</time>
      </trkpt>
      <trkpt lat="23.061259" lon="113.280392">
        <time>2026-08-17T22:47:12Z</time>
      </trkpt>
      <trkpt lat="23.061299" lon="113.280289">
        <time>2026-08-17T22:47:17Z</time>
      </trkpt>
      <trkpt lat="23.061346" lon="113.28019">
        <time>2026-08-17T22:47:22Z</time>
      </trkpt>
      <trkpt lat="23.061414" lon="113.28005">
        <time>2026-08-17T22:47:27Z</time>
      </trkpt>
      <trkpt lat="23.061468" lon="113.279907">
        <time>2026-08-17T22:47:32Z</time>
      </trkpt>
      <trkpt lat="23.061502" lon="113.279808">
        <time>2026-08-17T22:47:37Z</time>
      </trkpt>
      <trkpt lat="23.061535" lon="113.279712">
        <time>2026-08-17T22:47:42Z</time>
      </trkpt>
      <trkpt lat="23.061592" lon="113.279565">
        <time>2026-08-17T22:47:47Z</time>
      </trkpt>
      <trkpt lat="23.061646" lon="113.279408">
        <time>2026-08-17T22:47:52Z</time>
      </trkpt>
      <trkpt lat="23.061684" lon="113.279305">
        <time>2026-08-17T22:47:57Z</time>
      </trkpt>
      <trkpt lat="23.06173" lon="113.279205">
        <time>2026-08-17T22:48:02Z</time>
      </trkpt>
      <trkpt lat="23.06181" lon="113.279061">
        <time>2026-08-17T22:48:07Z</time>
      </trkpt>
      <trkpt lat="23.061903" lon="113.278924">
        <time>2026-08-17T22:48:12Z</time>
      </trkpt>
      <trkpt lat="23.061961" lon="113.278823">
        <time>2026-08-17T22:48:17Z</time>
      </trkpt>
      <trkpt lat="23.061995" lon="113.278714">
        <time>2026-08-17T22:48:22Z</time>
      </trkpt>
      <trkpt lat="23.061992" lon="113.278548">
        <time>2026-08-17T22:48:27Z</time>
      </trkpt>
      <trkpt lat="23.06198" lon="113.278381">
        <time>2026-08-17T22:48:32Z</time>
      </trkpt>
      <trkpt lat="23.061972" lon="113.278271">
        <time>2026-08-17T22:48:37Z</time>
      </trkpt>
      <trkpt lat="23.061966" lon="113.278158">
        <time>2026-08-17T22:48:42Z</time>
      </trkpt>
      <trkpt lat="23.061958" lon="113.277986">
        <time>2026-08-17T22:48:47Z</time>
      </trkpt>
      <trkpt lat="23.061956" lon="113.277813">
        <time>2026-08-17T22:48:52Z</time>
      </trkpt>
      <trkpt lat="23.061973" lon="113.277699">
        <time>2026-08-17T22:48:57Z</time>
      </trkpt>
      <trkpt lat="23.062008" lon="113.277586">
        <time>2026-08-17T22:49:02Z</time>
      </trkpt>
      <trkpt lat="23.062071" lon="113.277427">
        <time>2026-08-17T22:49:07Z</time>
      </trkpt>
      <trkpt lat="23.062135" lon="113.277268">
        <time>2026-08-17T22:49:12Z</time>
      </trkpt>
      <trkpt lat="23.062171" lon="113.277162">
        <time>2026-08-17T22:49:17Z</time>
      </trkpt>
      <trkpt lat="23.062208" lon="113.277057">
        <time>2026-08-17T22:49:22Z</time>
      </trkpt>
      <trkpt lat="23.062265" lon="113.276902">
        <time>2026-08-17T22:49:27Z</time>
      </trkpt>
      <trkpt lat="23.062329" lon="113.276745">
        <time>2026-08-17T22:49:32Z</time>
      </trkpt>
      <trkpt lat="23.062373" lon="113.276641">
        <time>2026-08-17T22:49:37Z</time>
      </trkpt>
      <trkpt lat="23.062417" lon="113.276536">
        <time>2026-08-17T22:49:42Z</time>
      </trkpt>
      <trkpt lat="23.062474" lon="113.276381">
        <time>2026-08-17T22:49:47Z</time>
      </trkpt>
      <trkpt lat="23.062528" lon="113.276225">
        <time>2026-08-17T22:49:52Z</time>
      </trkpt>
      <trkpt lat="23.062574" lon="113.276117">
        <time>2026-08-17T22:49:57Z</time>
      </trkpt>
      <trkpt lat="23.06263" lon="113.276014">
        <time>2026-08-17T22:50:02Z</time>
      </trkpt>
      <trkpt lat="23.062729" lon="113.275878">
        <time>2026-08-17T22:50:07Z</time>
      </trkpt>
      <trkpt lat="23.06284" lon="113.275757">
        <time>2026-08-17T22:50:12Z</time>
      </trkpt>
      <trkpt lat="23.062919" lon="113.275683">
        <time>2026-08-17T22:50:17Z</time>
      </trkpt>
      <trkpt lat="23.063001" lon="113.275603">
        <time>2026-08-17T22:50:22Z</time>
      </trkpt>
      <trkpt lat="23.063106" lon="113.275466">
        <time>2026-08-17T22:50:27Z</time>
      </trkpt>
      <trkpt lat="23.06319" lon="113.275321">
        <time>2026-08-17T22:50:32Z</time>
      </trkpt>
      <trkpt lat="23.063246" lon="113.275219">
        <time>2026-08-17T22:50:37Z</time>
      </trkpt>
      <trkpt lat="23.06331" lon="113.275121">
        <time>2026-08-17T22:50:42Z</time>
      </trkpt>
      <trkpt lat="23.063405" lon="113.27499">
        <time>2026-08-17T22:50:47Z</time>
      </trkpt>
      <trkpt lat="23.063453" lon="113.274852">
        <time>2026-08-17T22:50:52Z</time>
      </trkpt>
      <trkpt lat="23.063479" lon="113.274756">
        <time>2026-08-17T22:50:57Z</time>
      </trkpt>
      <trkpt lat="23.063508" lon="113.274663">
        <time>2026-08-17T22:51:02Z</time>
      </trkpt>
      <trkpt lat="23.063537" lon="113.274525">
        <time>2026-08-17T22:51:07Z</time>
      </trkpt>
      <trkpt lat="23.063608" lon="113.274366">
        <time>2026-08-17T22:51:12Z</time>
      </trkpt>
      <trkpt lat="23.063672" lon="113.274275">
        <time>2026-08-17T22:51:17Z</time>
      </trkpt>
      <trkpt lat="23.063745" lon="113.274192">
        <time>2026-08-17T22:51:22Z</time>
      </trkpt>
      <trkpt lat="23.063854" lon="113.274071">
        <time>2026-08-17T22:51:27Z</time>
      </trkpt>
      <trkpt lat="23.063949" lon="113.273934">
        <time>2026-08-17T22:51:32Z</time>
      </trkpt>
      <trkpt lat="23.064007" lon="113.273837">
        <time>2026-08-17T22:51:37Z</time>
      </trkpt>
      <trkpt lat="23.064067" lon="113.273748">
        <time>2026-08-17T22:51:42Z</time>
      </trkpt>
      <trkpt lat="23.064179" lon="113.273645">
        <time>2026-08-17T22:51:47Z</time>
      </trkpt>
      <trkpt lat="23.064296" lon="113.27355">
        <time>2026-08-17T22:51:52Z</time>
      </trkpt>
      <trkpt lat="23.064372" lon="113.273482">
        <time>2026-08-17T22:51:57Z</time>
      </trkpt>
      <trkpt lat="23.06444" lon="113.273408">
        <time>2026-08-17T22:52:02Z</time>
      </trkpt>
      <trkpt lat="23.06454" lon="113.273295">
        <time>2026-08-17T22:52:07Z</time>
      </trkpt>
      <trkpt lat="23.064589" lon="113.273135">
        <time>2026-08-17T22:52:12Z</time>
      </trkpt>
      <trkpt lat="23.064574" lon="113.273019">
        <time>2026-08-17T22:52:17Z</time>
      </trkpt>
      <trkpt lat="23.064538" lon="113.272912">
        <time>2026-08-17T22:52:22Z</time>
      </trkpt>
      <trkpt lat="23.064481" lon="113.272756">
        <time>2026-08-17T22:52:27Z</time>
      </trkpt>
      <trkpt lat="23.064451" lon="113.272596">
        <time>2026-08-17T22:52:32Z</time>
      </trkpt>
      <trkpt lat="23.064474" lon="113.272485">
        <time>2026-08-17T22:52:37Z</time>
      </trkpt>
      <trkpt lat="23.064524" lon="113.272378">
        <time>2026-08-17T22:52:42Z</time>
      </trkpt>
      <trkpt lat="23.064577" lon="113.272224">
        <time>2026-08-17T22:52:47Z</time>
      </trkpt>
      <trkpt lat="23.064628" lon="113.272077">
        <time>2026-08-17T22:52:52Z</time>
      </trkpt>
      <trkpt lat="23.064672" lon="113.271982">
        <time>2026-08-17T22:52:57Z</time>
      </trkpt>
      <trkpt lat="23.064713" lon="113.271888">
        <time>2026-08-17T22:53:02Z</time>
      </trkpt>
      <trkpt lat="23.064779" lon="113.271748">
        <time>2026-08-17T22:53:07Z</time>
      </trkpt>
      <trkpt lat="23.064852" lon="113.271604">
        <time>2026-08-17T22:53:12Z</time>
      </trkpt>
      <trkpt lat="23.064894" lon="113.271505">
        <time>2026-08-17T22:53:17Z</time>
      </trkpt>
      <trkpt lat="23.064934" lon="113.271409">
        <time>2026-08-17T22:53:22Z</time>
      </trkpt>
      <trkpt lat="23.065" lon="113.271262">
        <time>2026-08-17T22:53:27Z</time>
      </trkpt>
      <trkpt lat="23.065077" lon="113.271114">
        <time>2026-08-17T22:53:32Z</time>
      </trkpt>
      <trkpt lat="23.065126" lon="113.271018">
        <time>2026-08-17T22:53:37Z</time>
      </trkpt>
      <trkpt lat="23.065176" lon="113.270921">
        <time>2026-08-17T22:53:42Z</time>
      </trkpt>
      <trkpt lat="23.06524" lon="113.270771">
        <time>2026-08-17T22:53:47Z</time>
      </trkpt>
      <trkpt lat="23.065301" lon="113.270633">
        <time>2026-08-17T22:53:52Z</time>
      </trkpt>
      <trkpt lat="23.065343" lon="113.270537">
        <time>2026-08-17T22:53:57Z</time>
      </trkpt>
      <trkpt lat="23.065387" lon="113.270438">
        <time>2026-08-17T22:54:02Z</time>
      </trkpt>
      <trkpt lat="23.06545" lon="113.270296">
        <time>2026-08-17T22:54:07Z</time>
      </trkpt>
      <trkpt lat="23.065513" lon="113.270154">
        <time>2026-08-17T22:54:12Z</time>
      </trkpt>
      <trkpt lat="23.065551" lon="113.270057">
        <time>2026-08-17T22:54:17Z</time>
      </trkpt>
      <trkpt lat="23.065588" lon="113.269958">
        <time>2026-08-17T22:54:22Z</time>
      </trkpt>
      <trkpt lat="23.065633" lon="113.269801">
        <time>2026-08-17T22:54:27Z</time>
      </trkpt>
      <trkpt lat="23.06568" lon="113.269646">
        <time>2026-08-17T22:54:32Z</time>
      </trkpt>
      <trkpt lat="23.06572" lon="113.269547">
        <time>2026-08-17T22:54:37Z</time>
      </trkpt>
      <trkpt lat="23.065754" lon="113.269442">
        <time>2026-08-17T22:54:42Z</time>
      </trkpt>
      <trkpt lat="23.065785" lon="113.269279">
        <time>2026-08-17T22:54:47Z</time>
      </trkpt>
      <trkpt lat="23.06583" lon="113.269116">
        <time>2026-08-17T22:54:52Z</time>
      </trkpt>
      <trkpt lat="23.065867" lon="113.269015">
        <time>2026-08-17T22:54:57Z</time>
      </trkpt>
      <trkpt lat="23.065906" lon="113.268917">
        <time>2026-08-17T22:55:02Z</time>
      </trkpt>
      <trkpt lat="23.065968" lon="113.268761">
        <time>2026-08-17T22:55:07Z</time>
      </trkpt>
      <trkpt lat="23.066053" lon="113.268616">
        <time>2026-08-17T22:55:12Z</time>
      </trkpt>
      <trkpt lat="23.066112" lon="113.268518">
        <time>2026-08-17T22:55:17Z</time>
      </trkpt>
      <trkpt lat="23.06617" lon="113.268428">
        <time>2026-08-17T22:55:22Z</time>
      </trkpt>
      <trkpt lat="23.066264" lon="113.268297">
        <time>2026-08-17T22:55:27Z</time>
      </trkpt>
      <trkpt lat="23.066364" lon="113.268177">
        <time>2026-08-17T22:55:32Z</time>
      </trkpt>
      <trkpt lat="23.066451" lon="113.268123">
        <time>2026-08-17T22:55:37Z</time>
      </trkpt>
      <trkpt lat="23.066547" lon="113.268105">
        <time>2026-08-17T22:55:42Z</time>
      </trkpt>
      <trkpt lat="23.066696" lon="113.268127">
        <time>2026-08-17T22:55:47Z</time>
      </trkpt>
      <trkpt lat="23.066844" lon="113.26815">
        <time>2026-08-17T22:55:52Z</time>
      </trkpt>
      <trkpt lat="23.066949" lon="113.268157">
        <time>2026-08-17T22:55:57Z</time>
      </trkpt>
      <trkpt lat="23.067051" lon="113.268182">
        <time>2026-08-17T22:56:02Z</time>
      </trkpt>
      <trkpt lat="23.06718" lon="113.268243">
        <time>2026-08-17T22:56:07Z</time>
      </trkpt>
      <trkpt lat="23.067308" lon="113.268315">
        <time>2026-08-17T22:56:12Z</time>
      </trkpt>
      <trkpt lat="23.067397" lon="113.268373">
        <time>2026-08-17T22:56:17Z</time>
      </trkpt>
      <trkpt lat="23.067487" lon="113.268427">
        <time>2026-08-17T22:56:22Z</time>
      </trkpt>
      <trkpt lat="23.067631" lon="113.268504">
        <time>2026-08-17T22:56:27Z</time>
      </trkpt>
      <trkpt lat="23.067779" lon="113.26857">
        <time>2026-08-17T22:56:32Z</time>
      </trkpt>
      <trkpt lat="23.067868" lon="113.268619">
        <time>2026-08-17T22:56:37Z</time>
      </trkpt>
      <trkpt lat="23.067953" lon="113.268687">
        <time>2026-08-17T22:56:42Z</time>
      </trkpt>
      <trkpt lat="23.068074" lon="113.268763">
        <time>2026-08-17T22:56:47Z</time>
      </trkpt>
      <trkpt lat="23.068197" lon="113.268803">
        <time>2026-08-17T22:56:52Z</time>
      </trkpt>
      <trkpt lat="23.068294" lon="113.268848">
        <time>2026-08-17T22:56:57Z</time>
      </trkpt>
      <trkpt lat="23.068388" lon="113.268891">
        <time>2026-08-17T22:57:02Z</time>
      </trkpt>
      <trkpt lat="23.06852" lon="113.268977">
        <time>2026-08-17T22:57:07Z</time>
      </trkpt>
      <trkpt lat="23.06867" lon="113.269047">
        <time>2026-08-17T22:57:12Z</time>
      </trkpt>
      <trkpt lat="23.06878" lon="113.269083">
        <time>2026-08-17T22:57:17Z</time>
      </trkpt>
      <trkpt lat="23.068896" lon="113.269115">
        <time>2026-08-17T22:57:22Z</time>
      </trkpt>
      <trkpt lat="23.069041" lon="113.269164">
        <time>2026-08-17T22:57:27Z</time>
      </trkpt>
      <trkpt lat="23.069184" lon="113.269221">
        <time>2026-08-17T22:57:32Z</time>
      </trkpt>
      <trkpt lat="23.069266" lon="113.269273">
        <time>2026-08-17T22:57:37Z</time>
      </trkpt>
      <trkpt lat="23.06936" lon="113.26933">
        <time>2026-08-17T22:57:42Z</time>
      </trkpt>
      <trkpt lat="23.069508" lon="113.269401">
        <time>2026-08-17T22:57:47Z</time>
      </trkpt>
      <trkpt lat="23.069642" lon="113.269474">
        <time>2026-08-17T22:57:52Z</time>
      </trkpt>
      <trkpt lat="23.069728" lon="113.269536">
        <time>2026-08-17T22:57:57Z</time>
      </trkpt>
      <trkpt lat="23.06982" lon="113.269595">
        <time>2026-08-17T22:58:02Z</time>
      </trkpt>
      <trkpt lat="23.069955" lon="113.269651">
        <time>2026-08-17T22:58:07Z</time>
      </trkpt>
      <trkpt lat="23.070072" lon="113.269736">
        <time>2026-08-17T22:58:12Z</time>
      </trkpt>
      <trkpt lat="23.070161" lon="113.269786">
        <time>2026-08-17T22:58:17Z</time>
      </trkpt>
      <trkpt lat="23.07025" lon="113.269838">
        <time>2026-08-17T22:58:22Z</time>
      </trkpt>
      <trkpt lat="23.070385" lon="113.269901">
        <time>2026-08-17T22:58:27Z</time>
      </trkpt>
      <trkpt lat="23.070526" lon="113.269954">
        <time>2026-08-17T22:58:32Z</time>
      </trkpt>
      <trkpt lat="23.070625" lon="113.269992">
        <time>2026-08-17T22:58:37Z</time>
      </trkpt>
      <trkpt lat="23.070719" lon="113.270028">
        <time>2026-08-17T22:58:42Z</time>
      </trkpt>
      <trkpt lat="23.07085" lon="113.270085">
        <time>2026-08-17T22:58:47Z</time>
      </trkpt>
      <trkpt lat="23.070999" lon="113.2701">
        <time>2026-08-17T22:58:52Z</time>
      </trkpt>
      <trkpt lat="23.071079" lon="113.270145">
        <time>2026-08-17T22:58:57Z</time>
      </trkpt>
      <trkpt lat="23.071155" lon="113.270207">
        <time>2026-08-17T22:59:02Z</time>
      </trkpt>
      <trkpt lat="23.071283" lon="113.270293">
        <time>2026-08-17T22:59:07Z</time>
      </trkpt>
      <trkpt lat="23.071414" lon="113.270356">
        <time>2026-08-17T22:59:12Z</time>
      </trkpt>
      <trkpt lat="23.071504" lon="113.270398">
        <time>2026-08-17T22:59:17Z</time>
      </trkpt>
      <trkpt lat="23.071595" lon="113.270446">
        <time>2026-08-17T22:59:22Z</time>
      </trkpt>
      <trkpt lat="23.071733" lon="113.270482">
        <time>2026-08-17T22:59:27Z</time>
      </trkpt>
      <trkpt lat="23.071853" lon="113.270533">
        <time>2026-08-17T22:59:32Z</time>
      </trkpt>
      <trkpt lat="23.071938" lon="113.270589">
        <time>2026-08-17T22:59:37Z</time>
      </trkpt>
      <trkpt lat="23.072043" lon="113.270628">
        <time>2026-08-17T22:59:42Z</time>
      </trkpt>
      <trkpt lat="23.072167" lon="113.270708">
        <time>2026-08-17T22:59:47Z</time>
      </trkpt>
      <trkpt lat="23.07229" lon="113.270782">
        <time>2026-08-17T22:59:52Z</time>
      </trkpt>
      <trkpt lat="23.072392" lon="113.270795">
        <time>2026-08-17T22:59:57Z</time>
      </trkpt>
      <trkpt lat="23.072485" lon="113.270822">
        <time>2026-08-17T23:00:02Z</time>
      </trkpt>
      <trkpt lat="23.072601" lon="113.270903">
        <time>2026-08-17T23:00:07Z</time>
      </trkpt>
      <trkpt lat="23.072739" lon="113.270975">
        <time>2026-08-17T23:00:12Z</time>
      </trkpt>
      <trkpt lat="23.072817" lon="113.271023">
        <time>2026-08-17T23:00:17Z</time>
      </trkpt>
      <trkpt lat="23.072883" lon="113.271071">
        <time>2026-08-17T23:00:22Z</time>
      </trkpt>
      <trkpt lat="23.072993" lon="113.271126">
        <time>2026-08-17T23:00:27Z</time>
      </trkpt>
      <trkpt lat="23.07311" lon="113.271172">
        <time>2026-08-17T23:00:32Z</time>
      </trkpt>
      <trkpt lat="23.073232" lon="113.271207">
        <time>2026-08-17T23:00:37Z</time>
      </trkpt>
      <trkpt lat="23.073348" lon="113.271242">
        <time>2026-08-17T23:00:42Z</time>
      </trkpt>
      <trkpt lat="23.073476" lon="113.271321">
        <time>2026-08-17T23:00:47Z</time>
      </trkpt>
      <trkpt lat="23.073611" lon="113.271398">
        <time>2026-08-17T23:00:52Z</time>
      </trkpt>
      <trkpt lat="23.07371" lon="113.27145">
        <time>2026-08-17T23:00:57Z</time>
      </trkpt>
      <trkpt lat="23.073804" lon="113.271498">
        <time>2026-08-17T23:01:02Z</time>
      </trkpt>
      <trkpt lat="23.073946" lon="113.271568">
        <time>2026-08-17T23:01:07Z</time>
      </trkpt>
      <trkpt lat="23.074044" lon="113.271669">
        <time>2026-08-17T23:01:12Z</time>
      </trkpt>
      <trkpt lat="23.074096" lon="113.271738">
        <time>2026-08-17T23:01:17Z</time>
      </trkpt>
      <trkpt lat="23.074107" lon="113.271808">
        <time>2026-08-17T23:01:22Z</time>
      </trkpt>
      <trkpt lat="23.074043" lon="113.271945">
        <time>2026-08-17T23:01:27Z</time>
      </trkpt>
      <trkpt lat="23.073974" lon="113.272068">
        <time>2026-08-17T23:01:32Z</time>
      </trkpt>
      <trkpt lat="23.073936" lon="113.272145">
        <time>2026-08-17T23:01:37Z</time>
      </trkpt>
      <trkpt lat="23.073902" lon="113.272242">
        <time>2026-08-17T23:01:42Z</time>
      </trkpt>
      <trkpt lat="23.073855" lon="113.272379">
        <time>2026-08-17T23:01:47Z</time>
      </trkpt>
      <trkpt lat="23.073805" lon="113.272508">
        <time>2026-08-17T23:01:52Z</time>
      </trkpt>
      <trkpt lat="23.073761" lon="113.272595">
        <time>2026-08-17T23:01:57Z</time>
      </trkpt>
      <trkpt lat="23.073714" lon="113.272685">
        <time>2026-08-17T23:02:02Z</time>
      </trkpt>
      <trkpt lat="23.073661" lon="113.272839">
        <time>2026-08-17T23:02:07Z</time>
      </trkpt>
      <trkpt lat="23.073606" lon="113.27299">
        <time>2026-08-17T23:02:12Z</time>
      </trkpt>
      <trkpt lat="23.07358" lon="113.273054">
        <time>2026-08-17T23:02:17Z</time>
      </trkpt>
      <trkpt lat="23.073542" lon="113.273119">
        <time>2026-08-17T23:02:22Z</time>
      </trkpt>
      <trkpt lat="23.073515" lon="113.273172">
        <time>2026-08-17T23:02:27Z</time>
      </trkpt>
      <trkpt lat="23.073568" lon="113.273093">
        <time>2026-08-17T23:02:32Z</time>
      </trkpt>
      <trkpt lat="23.073586" lon="113.273068">
        <time>2026-08-17T23:02:37Z</time>
      </trkpt>
      <trkpt lat="23.073645" lon="113.272988">
        <time>2026-08-17T23:02:42Z</time>
      </trkpt>
      <trkpt lat="23.073705" lon="113.272937">
        <time>2026-08-17T23:02:47Z</time>
      </trkpt>
      <trkpt lat="23.073742" lon="113.272922">
        <time>2026-08-17T23:02:52Z</time>
      </trkpt>
      <trkpt lat="23.073855" lon="113.272958">
        <time>2026-08-17T23:02:57Z</time>
      </trkpt>
      <trkpt lat="23.074002" lon="113.273001">
        <time>2026-08-17T23:03:02Z</time>
      </trkpt>
      <trkpt lat="23.074068" lon="113.272929">
        <time>2026-08-17T23:03:07Z</time>
      </trkpt>
      <trkpt lat="23.074105" lon="113.27282">
        <time>2026-08-17T23:03:12Z</time>
      </trkpt>
      <trkpt lat="23.07415" lon="113.272674">
        <time>2026-08-17T23:03:17Z</time>
      </trkpt>
      <trkpt lat="23.074195" lon="113.272542">
        <time>2026-08-17T23:03:22Z</time>
      </trkpt>
      <trkpt lat="23.074234" lon="113.272453">
        <time>2026-08-17T23:03:27Z</time>
      </trkpt>
      <trkpt lat="23.074274" lon="113.272366">
        <time>2026-08-17T23:03:32Z</time>
      </trkpt>
      <trkpt lat="23.074324" lon="113.272237">
        <time>2026-08-17T23:03:37Z</time>
      </trkpt>
      <trkpt lat="23.074386" lon="113.272126">
        <time>2026-08-17T23:03:42Z</time>
      </trkpt>
      <trkpt lat="23.074462" lon="113.272069">
        <time>2026-08-17T23:03:47Z</time>
      </trkpt>
      <trkpt lat="23.074623" lon="113.272094">
        <time>2026-08-17T23:03:52Z</time>
      </trkpt>
    </trkseg>
  </trk>
</gpx>