<?xml version="1.0" encoding="UTF-8"?>
<gpx xmlns="http://www.topografix.com/GPX/1/1" xmlns:gpxtpx="http://www.garmin.com/xmlschemas/TrackPointExtension/v1" xmlns:xsi="http://www.w3.org/2001/XMLSchema-instance" xsi:schemaLocation="http://www.topografix.com/GPX/1/1 http://www.topografix.com/GPX/1/1/gpx.xsd" version="1.1" creator="gpx.py -- https://github.com/tkrajina/gpxpy">
  <trk>
    <name>gpx from joyrun</name>
    <trkseg>
      <trkpt lat="23.075856" lon="113.272803">
        <time>2026-08-19T21:53:42Z</time>
      </trkpt>
      <trkpt lat="23.075928" lon="113.272789">
        <time>2026-08-19T21:53:47Z</time>
      </trkpt>
      <trkpt lat="23.075943" lon="113.272738">
        <time>2026-08-19T21:53:52Z</time>
      </trkpt>
      <trkpt lat="23.075888" lon="113.272673">
        <time>2026-08-19T21:53:57Z</time>
      </trkpt>
      <trkpt lat="23.075772" lon="113.272605">
        <time>2026-08-19T21:54:02Z</time>
      </trkpt>
      <trkpt lat="23.075656" lon="113.272545">
        <time>2026-08-19T21:54:07Z</time>
      </trkpt>
      <trkpt lat="23.07557" lon="113.272518">
        <time>2026-08-19T21:54:12Z</time>
      </trkpt>
      <trkpt lat="23.075495" lon="113.272475">
        <time>2026-08-19T21:54:17Z</time>
      </trkpt>
      <trkpt lat="23.075363" lon="113.272428">
        <time>2026-08-19T21:54:22Z</time>
      </trkpt>
      <trkpt lat="23.075226" lon="113.272387">
        <time>2026-08-19T21:54:27Z</time>
      </trkpt>
      <trkpt lat="23.07515" lon="113.27236">
        <time>2026-08-19T21:54:32Z</time>
      </trkpt>
      <trkpt lat="23.075076" lon="113.272324">
        <time>2026-08-19T21:54:37Z</time>
      </trkpt>
      <trkpt lat="23.074961" lon="113.272253">
        <time>2026-08-19T21:54:42Z</time>
      </trkpt>
      <trkpt lat="23.074845" lon="113.272193">
        <time>2026-08-19T21:54:47Z</time>
      </trkpt>
      <trkpt lat="23.074772" lon="113.272147">
        <time>2026-08-19T21:54:52Z</time>
      </trkpt>
      <trkpt lat="23.074697" lon="113.272078">
        <time>2026-08-19T21:54:57Z</time>
      </trkpt>
      <trkpt lat="23.074572" lon="113.272003">
        <time>2026-08-19T21:55:02Z</time>
      </trkpt>
      <trkpt lat="23.074426" lon="113.272002">
        <time>2026-08-19T21:55:07Z</time>
      </trkpt>
      <trkpt lat="23.074364" lon="113.272075">
        <time>2026-08-19T21:55:12Z</time>
      </trkpt>
      <trkpt lat="23.074324" lon="113.272174">
        <time>2026-08-19T21:55:17Z</time>
      </trkpt>
      <trkpt lat="23.074257" lon="113.272327">
        <time>2026-08-19T21:55:22Z</time>
      </trkpt>
      <trkpt lat="23.07421" lon="113.272467">
        <time>2026-08-19T21:55:27Z</time>
      </trkpt>
      <trkpt lat="23.074173" lon="113.272562">
        <time>2026-08-19T21:55:32Z</time>
      </trkpt>
      <trkpt lat="23.07414" lon="113.272654">
        <time>2026-08-19T21:55:37Z</time>
      </trkpt>
      <trkpt lat="23.074092" lon="113.272785">
        <time>2026-08-19T21:55:42Z</time>
      </trkpt>
      <trkpt lat="23.074041" lon="113.272924">
        <time>2026-08-19T21:55:47Z</time>
      </trkpt>
      <trkpt lat="23.07401" lon="113.273014">
        <time>2026-08-19T21:55:52Z</time>
      </trkpt>
      <trkpt lat="23.073967" lon="113.273061">
        <time>2026-08-19T21:55:57Z</time>
      </trkpt>
      <trkpt lat="23.073898" lon="113.273002">
        <time>2026-08-19T21:56:02Z</time>
      </trkpt>
      <trkpt lat="23.073772" lon="113.272914">
        <time>2026-08-19T21:56:07Z</time>
      </trkpt>
      <trkpt lat="23.073709" lon="113.272863">
        <time>2026-08-19T21:56:12Z</time>
      </trkpt>
      <trkpt lat="23.073711" lon="113.272817">
        <time>2026-08-19T21:56:17Z</time>
      </trkpt>
      <trkpt lat="23.073756" lon="113.272724">
        <time>2026-08-19T21:56:22Z</time>
      </trkpt>
      <trkpt lat="23.073804" lon="113.272603">
        <time>2026-08-19T21:56:27Z</time>
      </trkpt>
      <trkpt lat="23.073834" lon="113.272529">
        <time>2026-08-19T21:56:32Z</time>
      </trkpt>
      <trkpt lat="23.073859" lon="113.272451">
        <time>2026-08-19T21:56:37Z</time>
      </trkpt>
      <trkpt lat="23.073917" lon="113.272319">
        <time>2026-08-19T21:56:42Z</time>
      </trkpt>
      <trkpt lat="23.073984" lon="113.272192">
        <time>2026-08-19T21:56:47Z</time>
      </trkpt>
      <trkpt lat="23.074025" lon="113.272111">
        <time>2026-08-19T21:56:52Z</time>
      </trkpt>
      <trkpt lat="23.074061" lon="113.272035">
        <time>2026-08-19T21:56:57Z</time>
      </trkpt>
      <trkpt lat="23.074114" lon="113.271908">
        <time>2026-08-19T21:57:02Z</time>
      </trkpt>
      <trkpt lat="23.074134" lon="113.271781">
        <time>2026-08-19T21:57:07Z</time>
      </trkpt>
      <trkpt lat="23.074072" lon="113.271722">
        <time>2026-08-19T21:57:12Z</time>
      </trkpt>
      <trkpt lat="23.073995" lon="113.271669">
        <time>2026-08-19T21:57:17Z</time>
      </trkpt>
      <trkpt lat="23.073865" lon="113.271593">
        <time>2026-08-19T21:57:22Z</time>
      </trkpt>
      <trkpt lat="23.073742" lon="113.271525">
        <time>2026-08-19T21:57:27Z</time>
      </trkpt>
      <trkpt lat="23.073647" lon="113.271497">
        <time>2026-08-19T21:57:32Z</time>
      </trkpt>
      <trkpt lat="23.073541" lon="113.271469">
        <time>2026-08-19T21:57:37Z</time>
      </trkpt>
      <trkpt lat="23.073402" lon="113.271409">
        <time>2026-08-19T21:57:42Z</time>
      </trkpt>
      <trkpt lat="23.073294" lon="113.27131">
        <time>2026-08-19T21:57:47Z</time>
      </trkpt>
      <trkpt lat="23.073242" lon="113.271234">
        <time>2026-08-19T21:57:52Z</time>
      </trkpt>
      <trkpt lat="23.073163" lon="113.271181">
        <time>2026-08-19T21:57:57Z</time>
      </trkpt>
      <trkpt lat="23.073036" lon="113.271098">
        <time>2026-08-19T21:58:02Z</time>
      </trkpt>
      <trkpt lat="23.072907" lon="113.271022">
        <time>2026-08-19T21:58:07Z</time>
      </trkpt>
      <trkpt lat="23.072818" lon="113.270959">
        <time>2026-08-19T21:58:12Z</time>
      </trkpt>
      <trkpt lat="23.072738" lon="113.270903">
        <time>2026-08-19T21:58:17Z</time>
      </trkpt>
      <trkpt lat="23.072615" lon="113.270844">
        <time>2026-08-19T21:58:22Z</time>
      </trkpt>
      <trkpt lat="23.072473" lon="113.270795">
        <time>2026-08-19T21:58:27Z</time>
      </trkpt>
      <trkpt lat="23.072382" lon="113.270753">
        <time>2026-08-19T21:58:32Z</time>
      </trkpt>
      <trkpt lat="23.072289" lon="113.2707">
        <time>2026-08-19T21:58:37Z</time>
      </trkpt>
      <trkpt lat="23.072162" lon="113.270584">
        <time>2026-08-19T21:58:42Z</time>
      </trkpt>
      <trkpt lat="23.072031" lon="113.270483">
        <time>2026-08-19T21:58:47Z</time>
      </trkpt>
      <trkpt lat="23.071946" lon="113.270427">
        <time>2026-08-19T21:58:52Z</time>
      </trkpt>
      <trkpt lat="23.07185" lon="113.27039">
        <time>2026-08-19T21:58:57Z</time>
      </trkpt>
      <trkpt lat="23.071722" lon="113.270336">
        <time>2026-08-19T21:59:02Z</time>
      </trkpt>
      <trkpt lat="23.071578" lon="113.270312">
        <time>2026-08-19T21:59:07Z</time>
      </trkpt>
      <trkpt lat="23.071477" lon="113.270295">
        <time>2026-08-19T21:59:12Z</time>
      </trkpt>
      <trkpt lat="23.071385" lon="113.270267">
        <time>2026-08-19T21:59:17Z</time>
      </trkpt>
      <trkpt lat="23.07125" lon="113.270201">
        <time>2026-08-19T21:59:22Z</time>
      </trkpt>
      <trkpt lat="23.071085" lon="113.270167">
        <time>2026-08-19T21:59:27Z</time>
      </trkpt>
      <trkpt lat="23.070979" lon="113.270145">
        <time>2026-08-19T21:59:32Z</time>
      </trkpt>
      <trkpt lat="23.070886" lon="113.270115">
        <time>2026-08-19T21:59:37Z</time>
      </trkpt>
      <trkpt lat="23.070762" lon="113.270033">
        <time>2026-08-19T21:59:42Z</time>
      </trkpt>
      <trkpt lat="23.070637" lon="113.269928">
        <time>2026-08-19T21:59:47Z</time>
      </trkpt>
      <trkpt lat="23.070538" lon="113.269889">
        <time>2026-08-19T21:59:52Z</time>
      </trkpt>
      <trkpt lat="23.070432" lon="113.269867">
        <time>2026-08-19T21:59:57Z</time>
      </trkpt>
      <trkpt lat="23.070281" lon="113.269821">
        <time>2026-08-19T22:00:02Z</time>
      </trkpt>
      <trkpt lat="23.070149" lon="113.269748">
        <time>2026-08-19T22:00:07Z</time>
      </trkpt>
      <trkpt lat="23.070059" lon="113.269704">
        <time>2026-08-19T22:00:12Z</time>
      </trkpt>
      <trkpt lat="23.069975" lon="113.269654">
        <time>2026-08-19T22:00:17Z</time>
      </trkpt>
      <trkpt lat="23.069849" lon="113.269579">
        <time>2026-08-19T22:00:22Z</time>
      </trkpt>
      <trkpt lat="23.069717" lon="113.269502">
        <time>2026-08-19T22:00:27Z</time>
      </trkpt>
      <trkpt lat="23.06963" lon="113.269453">
        <time>2026-08-19T22:00:32Z</time>
      </trkpt>
      <trkpt lat="23.069544" lon="113.269406">
        <time>2026-08-19T22:00:37Z</time>
      </trkpt>
      <trkpt lat="23.069422" lon="113.269338">
        <time>2026-08-19T22:00:42Z</time>
      </trkpt>
      <trkpt lat="23.069303" lon="113.269241">
        <time>2026-08-19T22:00:47Z</time>
      </trkpt>
      <trkpt lat="23.069219" lon="113.269199">
        <time>2026-08-19T22:00:52Z</time>
      </trkpt>
      <trkpt lat="23.069132" lon="113.269177">
        <time>2026-08-19T22:00:57Z</time>
      </trkpt>
      <trkpt lat="23.069017" lon="113.269136">
        <time>2026-08-19T22:01:02Z</time>
      </trkpt>
      <trkpt lat="23.068885" lon="113.269066">
        <time>2026-08-19T22:01:07Z</time>
      </trkpt>
      <trkpt lat="23.068799" lon="113.26903">
        <time>2026-08-19T22:01:12Z</time>
      </trkpt>
      <trkpt lat="23.068718" lon="113.269002">
        <time>2026-08-19T22:01:17Z</time>
      </trkpt>
      <trkpt lat="23.068591" lon="113.268964">
        <time>2026-08-19T22:01:22Z</time>
      </trkpt>
      <trkpt lat="23.068449" lon="113.268924">
        <time>2026-08-19T22:01:27Z</time>
      </trkpt>
      <trkpt lat="23.068338" lon="113.268919">
        <time>2026-08-19T22:01:32Z</time>
      </trkpt>
      <trkpt lat="23.068246" lon="113.2689">
        <time>2026-08-19T22:01:37Z</time>
      </trkpt>
      <trkpt lat="23.06812" lon="113.268845">
        <time>2026-08-19T22:01:42Z</time>
      </trkpt>
      <trkpt lat="23.068017" lon="113.268693">
        <time>2026-08-19T22:01:47Z</time>
      </trkpt>
      <trkpt lat="23.067966" lon="113.268556">
        <time>2026-08-19T22:01:52Z</time>
      </trkpt>
      <trkpt lat="23.067887" lon="113.268486">
        <time>2026-08-19T22:01:57Z</time>
      </trkpt>
      <trkpt lat="23.067751" lon="113.268432">
        <time>2026-08-19T22:02:02Z</time>
      </trkpt>
      <trkpt lat="23.067616" lon="113.268357">
        <time>2026-08-19T22:02:07Z</time>
      </trkpt>
      <trkpt lat="23.067531" lon="113.268309">
        <time>2026-08-19T22:02:12Z</time>
      </trkpt>
      <trkpt lat="23.067442" lon="113.268272">
        <time>2026-08-19T22:02:17Z</time>
      </trkpt>
      <trkpt lat="23.067293" lon="113.268229">
        <time>2026-08-19T22:02:22Z</time>
      </trkpt>
      <trkpt lat="23.067163" lon="113.268178">
        <time>2026-08-19T22:02:27Z</time>
      </trkpt>
      <trkpt lat="23.067077" lon="113.268137">
        <time>2026-08-19T22:02:32Z</time>
      </trkpt>
      <trkpt lat="23.066996" lon="113.268095">
        <time>2026-08-19T22:02:37Z</time>
      </trkpt>
      <trkpt lat="23.066858" lon="113.268051">
        <time>2026-08-19T22:02:42Z</time>
      </trkpt>
      <trkpt lat="23.066709" lon="113.268042">
        <time>2026-08-19T22:02:47Z</time>
      </trkpt>
      <trkpt lat="23.066619" lon="113.268022">
        <time>2026-08-19T22:02:52Z</time>
      </trkpt>
      <trkpt lat="23.066524" lon="113.267991">
        <time>2026-08-19T22:02:57Z</time>
      </trkpt>
      <trkpt lat="23.06638" lon="113.267973">
        <time>2026-08-19T22:03:02Z</time>
      </trkpt>
      <trkpt lat="23.066245" lon="113.268012">
        <time>2026-08-19T22:03:07Z</time>
      </trkpt>
      <trkpt lat="23.066172" lon="113.268077">
        <time>2026-08-19T22:03:12Z</time>
      </trkpt>
      <trkpt lat="23.0661" lon="113.268151">
        <time>2026-08-19T22:03:17Z</time>
      </trkpt>
      <trkpt lat="23.066002" lon="113.268272">
        <time>2026-08-19T22:03:22Z</time>
      </trkpt>
      <trkpt lat="23.065915" lon="113.268392">
        <time>2026-08-19T22:03:27Z</time>
      </trkpt>
      <trkpt lat="23.065856" lon="113.268475">
        <time>2026-08-19T22:03:32Z</time>
      </trkpt>
      <trkpt lat="23.065805" lon="113.268564">
        <time>2026-08-19T22:03:37Z</time>
      </trkpt>
      <trkpt lat="23.06574" lon="113.268697">
        <time>2026-08-19T22:03:42Z</time>
      </trkpt>
      <trkpt lat="23.065683" lon="113.268828">
        <time>2026-08-19T22:03:47Z</time>
      </trkpt>
      <trkpt lat="23.065652" lon="113.268917">
        <time>2026-08-19T22:03:52Z</time>
      </trkpt>
      <trkpt lat="23.065623" lon="113.26901">
        <time>2026-08-19T22:03:57Z</time>
      </trkpt>
      <trkpt lat="23.065584" lon="113.269155">
        <time>2026-08-19T22:04:02Z</time>
      </trkpt>
      <trkpt lat="23.065543" lon="113.269302">
        <time>2026-08-19T22:04:07Z</time>
      </trkpt>
      <trkpt lat="23.065516" lon="113.269404">
        <time>2026-08-19T22:04:12Z</time>
      </trkpt>
      <trkpt lat="23.06549" lon="113.269508">
        <time>2026-08-19T22:04:17Z</time>
      </trkpt>
      <trkpt lat="23.065457" lon="113.269659">
        <time>2026-08-19T22:04:22Z</time>
      </trkpt>
      <trkpt lat="23.06542" lon="113.269807">
        <time>2026-08-19T22:04:27Z</time>
      </trkpt>
      <trkpt lat="23.065393" lon="113.269907">
        <time>2026-08-19T22:04:32Z</time>
      </trkpt>
      <trkpt lat="23.065357" lon="113.270004">
        <time>2026-08-19T22:04:37Z</time>
      </trkpt>
      <trkpt lat="23.065299" lon="113.270154">
        <time>2026-08-19T22:04:42Z</time>
      </trkpt>
      <trkpt lat="23.065233" lon="113.270297">
        <time>2026-08-19T22:04:47Z</time>
      </trkpt>
      <trkpt lat="23.065191" lon="113.270385">
        <time>2026-08-19T22:04:52Z</time>
      </trkpt>
      <trkpt lat="23.065148" lon="113.270474">
        <time>2026-08-19T22:04:57Z</time>
      </trkpt>
      <trkpt lat="23.065081" lon="113.270611">
        <time>2026-08-19T22:05:02Z</time>
      </trkpt>
      <trkpt lat="23.065019" lon="113.27075">
        <time>2026-08-19T22:05:07Z</time>
      </trkpt>
      <trkpt lat="23.064978" lon="113.270844">
        <time>2026-08-19T22:05:12Z</time>
      </trkpt>
      <trkpt lat="23.064939" lon="113.27094">
        <time>2026-08-19T22:05:17Z</time>
      </trkpt>
      <trkpt lat="23.064875" lon="113.27108">
        <time>2026-08-19T22:05:22Z</time>
      </trkpt>
      <trkpt lat="23.064811" lon="113.271219">
        <time>2026-08-19T22:05:27Z</time>
      </trkpt>
      <trkpt lat="23.064768" lon="113.271309">
        <time>2026-08-19T22:05:32Z</time>
      </trkpt>
      <trkpt lat="23.064719" lon="113.2714">
        <time>2026-08-19T22:05:37Z</time>
      </trkpt>
      <trkpt lat="23.064649" lon="113.27154">
        <time>2026-08-19T22:05:42Z</time>
      </trkpt>
      <trkpt lat="23.064583" lon="113.271678">
        <time>2026-08-19T22:05:47Z</time>
      </trkpt>
      <trkpt lat="23.064543" lon="113.271771">
        <time>2026-08-19T22:05:52Z</time>
      </trkpt>
      <trkpt lat="23.064508" lon="113.271865">
        <time>2026-08-19T22:05:57Z</time>
      </trkpt>
      <trkpt lat="23.06445" lon="113.272009">
        <time>2026-08-19T22:06:02Z</time>
      </trkpt>
      <trkpt lat="23.064389" lon="113.272145">
        <time>2026-08-19T22:06:07Z</time>
      </trkpt>
      <trkpt lat="23.064363" lon="113.272242">
        <time>2026-08-19T22:06:12Z</time>
      </trkpt>
      <trkpt lat="23.064356" lon="113.272349">
        <time>2026-08-19T22:06:17Z</time>
      </trkpt>
      <trkpt lat="23.064346" lon="113.272507">
        <time>2026-08-19T22:06:22Z</time>
      </trkpt>
      <trkpt lat="23.064359" lon="113.272665">
        <time>2026-08-19T22:06:27Z</time>
      </trkpt>
      <trkpt lat="23.064384" lon="113.272769">
        <time>2026-08-19T22:06:32Z</time>
      </trkpt>
      <trkpt lat="23.064416" lon="113.272875">
        <time>2026-08-19T22:06:37Z</time>
      </trkpt>
      <trkpt lat="23.064463" lon="113.273049">
        <time>2026-08-19T22:06:42Z</time>
      </trkpt>
      <trkpt lat="23.064463" lon="113.273233">
        <time>2026-08-19T22:06:47Z</time>
      </trkpt>
      <trkpt lat="23.064405" lon="113.273335">
        <time>2026-08-19T22:06:52Z</time>
      </trkpt>
      <trkpt lat="23.064313" lon="113.27341">
        <time>2026-08-19T22:06:57Z</time>
      </trkpt>
      <trkpt lat="23.064163" lon="113.273516">
        <time>2026-08-19T22:07:02Z</time>
      </trkpt>
      <trkpt lat="23.064021" lon="113.27363">
        <time>2026-08-19T22:07:07Z</time>
      </trkpt>
      <trkpt lat="23.063937" lon="113.273721">
        <time>2026-08-19T22:07:12Z</time>
      </trkpt>
      <trkpt lat="23.063864" lon="113.273828">
        <time>2026-08-19T22:07:17Z</time>
      </trkpt>
      <trkpt lat="23.063773" lon="113.273998">
        <time>2026-08-19T22:07:22Z</time>
      </trkpt>
      <trkpt lat="23.063664" lon="113.274136">
        <time>2026-08-19T22:07:27Z</time>
      </trkpt>
      <trkpt lat="23.063575" lon="113.274208">
        <time>2026-08-19T22:07:32Z</time>
      </trkpt>
      <trkpt lat="23.063506" lon="113.274311">
        <time>2026-08-19T22:07:37Z</time>
      </trkpt>
      <trkpt lat="23.063427" lon="113.274507">
        <time>2026-08-19T22:07:42Z</time>
      </trkpt>
      <trkpt lat="23.063361" lon="113.274708">
        <time>2026-08-19T22:07:47Z</time>
      </trkpt>
      <trkpt lat="23.063316" lon="113.274839">
        <time>2026-08-19T22:07:52Z</time>
      </trkpt>
      <trkpt lat="23.06327" lon="113.274972">
        <time>2026-08-19T22:07:57Z</time>
      </trkpt>
      <trkpt lat="23.063179" lon="113.27516">
        <time>2026-08-19T22:08:02Z</time>
      </trkpt>
      <trkpt lat="23.063083" lon="113.275336">
        <time>2026-08-19T22:08:07Z</time>
      </trkpt>
      <trkpt lat="23.063016" lon="113.27545">
        <time>2026-08-19T22:08:12Z</time>
      </trkpt>
      <trkpt lat="23.062935" lon="113.275558">
        <time>2026-08-19T22:08:17Z</time>
      </trkpt>
      <trkpt lat="23.0628" lon="113.275703">
        <time>2026-08-19T22:08:22Z</time>
      </trkpt>
      <trkpt lat="23.062666" lon="113.275841">
        <time>2026-08-19T22:08:27Z</time>
      </trkpt>
      <trkpt lat="23.062592" lon="113.275941">
        <time>2026-08-19T22:08:32Z</time>
      </trkpt>
      <trkpt lat="23.062521" lon="113.276046">
        <time>2026-08-19T22:08:37Z</time>
      </trkpt>
      <trkpt lat="23.062433" lon="113.276215">
        <time>2026-08-19T22:08:42Z</time>
      </trkpt>
      <trkpt lat="23.062365" lon="113.27639">
        <time>2026-08-19T22:08:47Z</time>
      </trkpt>
      <trkpt lat="23.062322" lon="113.276509">
        <time>2026-08-19T22:08:52Z</time>
      </trkpt>
      <trkpt lat="23.062279" lon="113.276631">
        <time>2026-08-19T22:08:57Z</time>
      </trkpt>
      <trkpt lat="23.062219" lon="113.276807">
        <time>2026-08-19T22:09:02Z</time>
      </trkpt>
      <trkpt lat="23.062148" lon="113.276974">
        <time>2026-08-19T22:09:07Z</time>
      </trkpt>
      <trkpt lat="23.062093" lon="113.277092">
        <time>2026-08-19T22:09:12Z</time>
      </trkpt>
      <trkpt lat="23.062042" lon="113.277219">
        <time>2026-08-19T22:09:17Z</time>
      </trkpt>
      <trkpt lat="23.061971" lon="113.277415">
        <time>2026-08-19T22:09:22Z</time>
      </trkpt>
      <trkpt lat="23.0619" lon="113.2776">
        <time>2026-08-19T22:09:27Z</time>
      </trkpt>
      <trkpt lat="23.061864" lon="113.277724">
        <time>2026-08-19T22:09:32Z</time>
      </trkpt>
      <trkpt lat="23.061848" lon="113.277851">
        <time>2026-08-19T22:09:37Z</time>
      </trkpt>
      <trkpt lat="23.06185" lon="113.278039">
        <time>2026-08-19T22:09:42Z</time>
      </trkpt>
      <trkpt lat="23.061859" lon="113.27823">
        <time>2026-08-19T22:09:47Z</time>
      </trkpt>
      <trkpt lat="23.061858" lon="113.278357">
        <time>2026-08-19T22:09:52Z</time>
      </trkpt>
      <trkpt lat="23.061862" lon="113.278484">
        <time>2026-08-19T22:09:57Z</time>
      </trkpt>
      <trkpt lat="23.06186" lon="113.278668">
        <time>2026-08-19T22:10:02Z</time>
      </trkpt>
      <trkpt lat="23.061768" lon="113.278779">
        <time>2026-08-19T22:10:07Z</time>
      </trkpt>
      <trkpt lat="23.061706" lon="113.278878">
        <time>2026-08-19T22:10:12Z</time>
      </trkpt>
      <trkpt lat="23.061661" lon="113.279007">
        <time>2026-08-19T22:10:17Z</time>
      </trkpt>
      <trkpt lat="23.061593" lon="113.279201">
        <time>2026-08-19T22:10:22Z</time>
      </trkpt>
      <trkpt lat="23.061515" lon="113.279386">
        <time>2026-08-19T22:10:27Z</time>
      </trkpt>
      <trkpt lat="23.061464" lon="113.279512">
        <time>2026-08-19T22:10:32Z</time>
      </trkpt>
      <trkpt lat="23.061407" lon="113.279644">
        <time>2026-08-19T22:10:37Z</time>
      </trkpt>
      <trkpt lat="23.061317" lon="113.27984">
        <time>2026-08-19T22:10:42Z</time>
      </trkpt>
      <trkpt lat="23.061236" lon="113.280044">
        <time>2026-08-19T22:10:47Z</time>
      </trkpt>
      <trkpt lat="23.061182" lon="113.280173">
        <time>2026-08-19T22:10:52Z</time>
      </trkpt>
      <trkpt lat="23.061129" lon="113.280295">
        <time>2026-08-19T22:10:57Z</time>
      </trkpt>
      <trkpt lat="23.061052" lon="113.280479">
        <time>2026-08-19T22:11:02Z</time>
      </trkpt>
      <trkpt lat="23.060967" lon="113.280668">
        <time>2026-08-19T22:11:07Z</time>
      </trkpt>
      <trkpt lat="23.06091" lon="113.280795">
        <time>2026-08-19T22:11:12Z</time>
      </trkpt>
      <trkpt lat="23.060858" lon="113.280919">
        <time>2026-08-19T22:11:17Z</time>
      </trkpt>
      <trkpt lat="23.060786" lon="113.281104">
        <time>2026-08-19T22:11:22Z</time>
      </trkpt>
      <trkpt lat="23.060713" lon="113.281285">
        <time>2026-08-19T22:11:27Z</time>
      </trkpt>
      <trkpt lat="23.060657" lon="113.281404">
        <time>2026-08-19T22:11:32Z</time>
      </trkpt>
      <trkpt lat="23.060598" lon="113.281523">
        <time>2026-08-19T22:11:37Z</time>
      </trkpt>
      <trkpt lat="23.060517" lon="113.2817">
        <time>2026-08-19T22:11:42Z</time>
      </trkpt>
      <trkpt lat="23.060442" lon="113.281883">
        <time>2026-08-19T22:11:47Z</time>
      </trkpt>
      <trkpt lat="23.060392" lon="113.282004">
        <time>2026-08-19T22:11:52Z</time>
      </trkpt>
      <trkpt lat="23.060342" lon="113.282121">
        <time>2026-08-19T22:11:57Z</time>
      </trkpt>
      <trkpt lat="23.060264" lon="113.282297">
        <time>2026-08-19T22:12:02Z</time>
      </trkpt>
      <trkpt lat="23.0602" lon="113.282478">
        <time>2026-08-19T22:12:07Z</time>
      </trkpt>
      <trkpt lat="23.060154" lon="113.282599">
        <time>2026-08-19T22:12:12Z</time>
      </trkpt>
      <trkpt lat="23.060105" lon="113.282714">
        <time>2026-08-19T22:12:17Z</time>
      </trkpt>
      <trkpt lat="23.060033" lon="113.282885">
        <time>2026-08-19T22:12:22Z</time>
      </trkpt>
      <trkpt lat="23.059959" lon="113.283059">
        <time>2026-08-19T22:12:27Z</time>
      </trkpt>
      <trkpt lat="23.059899" lon="113.283172">
        <time>2026-08-19T22:12:32Z</time>
      </trkpt>
      <trkpt lat="23.059837" lon="113.28328">
        <time>2026-08-19T22:12:37Z</time>
      </trkpt>
      <trkpt lat="23.059752" lon="113.283453">
        <time>2026-08-19T22:12:42Z</time>
      </trkpt>
      <trkpt lat="23.059667" lon="113.283639">
        <time>2026-08-19T22:12:47Z</time>
      </trkpt>
      <trkpt lat="23.059609" lon="113.283764">
        <time>2026-08-19T22:12:52Z</time>
      </trkpt>
      <trkpt lat="23.059552" lon="113.283886">
        <time>2026-08-19T22:12:57Z</time>
      </trkpt>
      <trkpt lat="23.059471" lon="113.284069">
        <time>2026-08-19T22:13:02Z</time>
      </trkpt>
      <trkpt lat="23.05939" lon="113.284259">
        <time>2026-08-19T22:13:07Z</time>
      </trkpt>
      <trkpt lat="23.059344" lon="113.284384">
        <time>2026-08-19T22:13:12Z</time>
      </trkpt>
      <trkpt lat="23.059308" lon="113.284523">
        <time>2026-08-19T22:13:17Z</time>
      </trkpt>
      <trkpt lat="23.059248" lon="113.284719">
        <time>2026-08-19T22:13:22Z</time>
      </trkpt>
      <trkpt lat="23.059174" lon="113.284908">
        <time>2026-08-19T22:13:27Z</time>
      </trkpt>
      <trkpt lat="23.059122" lon="113.285033">
        <time>2026-08-19T22:13:32Z</time>
      </trkpt>
      <trkpt lat="23.059071" lon="113.285158">
        <time>2026-08-19T22:13:37Z</time>
      </trkpt>
      <trkpt lat="23.058988" lon="113.285351">
        <time>2026-08-19T22:13:42Z</time>
      </trkpt>
      <trkpt lat="23.058905" lon="113.285543">
        <time>2026-08-19T22:13:47Z</time>
      </trkpt>
      <trkpt lat="23.058849" lon="113.285671">
        <time>2026-08-19T22:13:52Z</time>
      </trkpt>
      <trkpt lat="23.058794" lon="113.2858">
        <time>2026-08-19T22:13:57Z</time>
      </trkpt>
      <trkpt lat="23.058713" lon="113.28599">
        <time>2026-08-19T22:14:02Z</time>
      </trkpt>
      <trkpt lat="23.058779" lon="113.286058">
        <time>2026-08-19T22:14:07Z</time>
      </trkpt>
      <trkpt lat="23.058848" lon="113.28593">
        <time>2026-08-19T22:14:12Z</time>
      </trkpt>
      <trkpt lat="23.058903" lon="113.285788">
        <time>2026-08-19T22:14:17Z</time>
      </trkpt>
      <trkpt lat="23.058984" lon="113.285595">
        <time>2026-08-19T22:14:22Z</time>
      </trkpt>
      <trkpt lat="23.059069" lon="113.285403">
        <time>2026-08-19T22:14:27Z</time>
      </trkpt>
      <trkpt lat="23.059122" lon="113.285281">
        <time>2026-08-19T22:14:32Z</time>
      </trkpt>
      <trkpt lat="23.059175" lon="113.28516">
        <time>2026-08-19T22:14:37Z</time>
      </trkpt>
      <trkpt lat="23.059254" lon="113.284983">
        <time>2026-08-19T22:14:42Z</time>
      </trkpt>
      <trkpt lat="23.059405" lon="113.284961">
        <time>2026-08-19T22:14:47Z</time>
      </trkpt>
      <trkpt lat="23.0595" lon="113.284933">
        <time>2026-08-19T22:14:52Z</time>
      </trkpt>
      <trkpt lat="23.059551" lon="113.284816">
        <time>2026-08-19T22:14:57Z</time>
      </trkpt>
      <trkpt lat="23.059618" lon="113.284623">
        <time>2026-08-19T22:15:02Z</time>
      </trkpt>
      <trkpt lat="23.059677" lon="113.284443">
        <time>2026-08-19T22:15:07Z</time>
      </trkpt>
      <trkpt lat="23.059731" lon="113.284331">
        <time>2026-08-19T22:15:12Z</time>
      </trkpt>
      <trkpt lat="23.059801" lon="113.284221">
        <time>2026-08-19T22:15:17Z</time>
      </trkpt>
      <trkpt lat="23.059882" lon="113.284039">
        <time>2026-08-19T22:15:22Z</time>
      </trkpt>
      <trkpt lat="23.059931" lon="113.283834">
        <time>2026-08-19T22:15:27Z</time>
      </trkpt>
      <trkpt lat="23.059926" lon="113.283686">
        <time>2026-08-19T22:15:32Z</time>
      </trkpt>
      <trkpt lat="23.059924" lon="113.28355">
        <time>2026-08-19T22:15:37Z</time>
      </trkpt>
      <trkpt lat="23.059969" lon="113.283355">
        <time>2026-08-19T22:15:42Z</time>
      </trkpt>
      <trkpt lat="23.060049" lon="113.283181">
        <time>2026-08-19T22:15:47Z</time>
      </trkpt>
      <trkpt lat="23.060109" lon="113.283076">
        <time>2026-08-19T22:15:52Z</time>
      </trkpt>
      <trkpt lat="23.060171" lon="113.282976">
        <time>2026-08-19T22:15:57Z</time>
      </trkpt>
      <trkpt lat="23.060237" lon="113.282809">
        <time>2026-08-19T22:16:02Z</time>
      </trkpt>
      <trkpt lat="23.060297" lon="113.282637">
        <time>2026-08-19T22:16:07Z</time>
      </trkpt>
      <trkpt lat="23.060344" lon="113.282522">
        <time>2026-08-19T22:16:12Z</time>
      </trkpt>
      <trkpt lat="23.060395" lon="113.282404">
        <time>2026-08-19T22:16:17Z</time>
      </trkpt>
      <trkpt lat="23.060461" lon="113.28222">
        <time>2026-08-19T22:16:22Z</time>
      </trkpt>
      <trkpt lat="23.060528" lon="113.282033">
        <time>2026-08-19T22:16:27Z</time>
      </trkpt>
      <trkpt lat="23.060578" lon="113.281913">
        <time>2026-08-19T22:16:32Z</time>
      </trkpt>
      <trkpt lat="23.060622" lon="113.28179">
        <time>2026-08-19T22:16:37Z</time>
      </trkpt>
      <trkpt lat="23.060696" lon="113.281604">
        <time>2026-08-19T22:16:42Z</time>
      </trkpt>
      <trkpt lat="23.06077" lon="113.28142">
        <time>2026-08-19T22:16:47Z</time>
      </trkpt>
      <trkpt lat="23.06082" lon="113.281298">
        <time>2026-08-19T22:16:52Z</time>
      </trkpt>
      <trkpt lat="23.060869" lon="113.281174">
        <time>2026-08-19T22:16:57Z</time>
      </trkpt>
      <trkpt lat="23.060948" lon="113.28099">
        <time>2026-08-19T22:17:02Z</time>
      </trkpt>
      <trkpt lat="23.061032" lon="113.280814">
        <time>2026-08-19T22:17:07Z</time>
      </trkpt>
      <trkpt lat="23.061089" lon="113.280693">
        <time>2026-08-19T22:17:12Z</time>
      </trkpt>
      <trkpt lat="23.061145" lon="113.280571">
        <time>2026-08-19T22:17:17Z</time>
      </trkpt>
      <trkpt lat="23.061219" lon="113.280388">
        <time>2026-08-19T22:17:22Z</time>
      </trkpt>
      <trkpt lat="23.061305" lon="113.280203">
        <time>2026-08-19T22:17:27Z</time>
      </trkpt>
      <trkpt lat="23.061359" lon="113.280081">
        <time>2026-08-19T22:17:32Z</time>
      </trkpt>
      <trkpt lat="23.061409" lon="113.279966">
        <time>2026-08-19T22:17:37Z</time>
      </trkpt>
      <trkpt lat="23.061478" lon="113.279797">
        <time>2026-08-19T22:17:42Z</time>
      </trkpt>
      <trkpt lat="23.061538" lon="113.279623">
        <time>2026-08-19T22:17:47Z</time>
      </trkpt>
      <trkpt lat="23.061585" lon="113.279509">
        <time>2026-08-19T22:17:52Z</time>
      </trkpt>
      <trkpt lat="23.061637" lon="113.279391">
        <time>2026-08-19T22:17:57Z</time>
      </trkpt>
      <trkpt lat="23.06172" lon="113.279208">
        <time>2026-08-19T22:18:02Z</time>
      </trkpt>
      <trkpt lat="23.061815" lon="113.279028">
        <time>2026-08-19T22:18:07Z</time>
      </trkpt>
      <trkpt lat="23.061891" lon="113.278908">
        <time>2026-08-19T22:18:12Z</time>
      </trkpt>
      <trkpt lat="23.061954" lon="113.278783">
        <time>2026-08-19T22:18:17Z</time>
      </trkpt>
      <trkpt lat="23.06198" lon="113.278583">
        <time>2026-08-19T22:18:22Z</time>
      </trkpt>
      <trkpt lat="23.061964" lon="113.278382">
        <time>2026-08-19T22:18:27Z</time>
      </trkpt>
      <trkpt lat="23.061954" lon="113.278246">
        <time>2026-08-19T22:18:32Z</time>
      </trkpt>
      <trkpt lat="23.061947" lon="113.278109">
        <time>2026-08-19T22:18:37Z</time>
      </trkpt>
      <trkpt lat="23.061937" lon="113.277904">
        <time>2026-08-19T22:18:42Z</time>
      </trkpt>
      <trkpt lat="23.061958" lon="113.277699">
        <time>2026-08-19T22:18:47Z</time>
      </trkpt>
      <trkpt lat="23.062002" lon="113.277569">
        <time>2026-08-19T22:18:52Z</time>
      </trkpt>
      <trkpt lat="23.062051" lon="113.277442">
        <time>2026-08-19T22:18:57Z</time>
      </trkpt>
      <trkpt lat="23.062119" lon="113.277253">
        <time>2026-08-19T22:19:02Z</time>
      </trkpt>
      <trkpt lat="23.062188" lon="113.277069">
        <time>2026-08-19T22:19:07Z</time>
      </trkpt>
      <trkpt lat="23.062239" lon="113.276943">
        <time>2026-08-19T22:19:12Z</time>
      </trkpt>
      <trkpt lat="23.062287" lon="113.27682">
        <time>2026-08-19T22:19:17Z</time>
      </trkpt>
      <trkpt lat="23.062354" lon="113.276634">
        <time>2026-08-19T22:19:22Z</time>
      </trkpt>
      <trkpt lat="23.062421" lon="113.276445">
        <time>2026-08-19T22:19:27Z</time>
      </trkpt>
      <trkpt lat="23.062464" lon="113.276321">
        <time>2026-08-19T22:19:32Z</time>
      </trkpt>
      <trkpt lat="23.062518" lon="113.276201">
        <time>2026-08-19T22:19:37Z</time>
      </trkpt>
      <trkpt lat="23.062616" lon="113.276021">
        <time>2026-08-19T22:19:42Z</time>
      </trkpt>
      <trkpt lat="23.062733" lon="113.275862">
        <time>2026-08-19T22:19:47Z</time>
      </trkpt>
      <trkpt lat="23.062824" lon="113.275769">
        <time>2026-08-19T22:19:52Z</time>
      </trkpt>
      <trkpt lat="23.062919" lon="113.275678">
        <time>2026-08-19T22:19:57Z</time>
      </trkpt>
      <trkpt lat="23.063048" lon="113.275536">
        <time>2026-08-19T22:20:02Z</time>
      </trkpt>
      <trkpt lat="23.063152" lon="113.275379">
        <time>2026-08-19T22:20:07Z</time>
      </trkpt>
      <trkpt lat="23.063216" lon="113.275263">
        <time>2026-08-19T22:20:12Z</time>
      </trkpt>
      <trkpt lat="23.063277" lon="113.27515">
        <time>2026-08-19T22:20:17Z</time>
      </trkpt>
      <trkpt lat="23.063365" lon="113.274972">
        <time>2026-08-19T22:20:22Z</time>
      </trkpt>
      <trkpt lat="23.063424" lon="113.274792">
        <time>2026-08-19T22:20:27Z</time>
      </trkpt>
      <trkpt lat="23.06346" lon="113.274677">
        <time>2026-08-19T22:20:32Z</time>
      </trkpt>
      <trkpt lat="23.063498" lon="113.274561">
        <time>2026-08-19T22:20:37Z</time>
      </trkpt>
      <trkpt lat="23.063565" lon="113.27438">
        <time>2026-08-19T22:20:42Z</time>
      </trkpt>
      <trkpt lat="23.063666" lon="113.27424">
        <time>2026-08-19T22:20:47Z</time>
      </trkpt>
      <trkpt lat="23.063764" lon="113.274164">
        <time>2026-08-19T22:20:52Z</time>
      </trkpt>
      <trkpt lat="23.063845" lon="113.274062">
        <time>2026-08-19T22:20:57Z</time>
      </trkpt>
      <trkpt lat="23.063948" lon="113.273882">
        <time>2026-08-19T22:21:02Z</time>
      </trkpt>
      <trkpt lat="23.064072" lon="113.273711">
        <time>2026-08-19T22:21:07Z</time>
      </trkpt>
      <trkpt lat="23.064172" lon="113.273623">
        <time>2026-08-19T22:21:12Z</time>
      </trkpt>
      <trkpt lat="23.064279" lon="113.273545">
        <time>2026-08-19T22:21:17Z</time>
      </trkpt>
      <trkpt lat="23.064434" lon="113.273418">
        <time>2026-08-19T22:21:22Z</time>
      </trkpt>
      <trkpt lat="23.064572" lon="113.273261">
        <time>2026-08-19T22:21:27Z</time>
      </trkpt>
      <trkpt lat="23.064598" lon="113.273111">
        <time>2026-08-19T22:21:32Z</time>
      </trkpt>
      <trkpt lat="23.064566" lon="113.272961">
        <time>2026-08-19T22:21:37Z</time>
      </trkpt>
      <trkpt lat="23.06448" lon="113.272749">
        <time>2026-08-19T22:21:42Z</time>
      </trkpt>
      <trkpt lat="23.064455" lon="113.272542">
        <time>2026-08-19T22:21:47Z</time>
      </trkpt>
      <trkpt lat="23.064514" lon="113.272416">
        <time>2026-08-19T22:21:52Z</time>
      </trkpt>
      <trkpt lat="23.064549" lon="113.272273">
        <time>2026-08-19T22:21:57Z</time>
      </trkpt>
      <trkpt lat="23.064609" lon="113.272074">
        <time>2026-08-19T22:22:02Z</time>
      </trkpt>
      <trkpt lat="23.064704" lon="113.271898">
        <time>2026-08-19T22:22:07Z</time>
      </trkpt>
      <trkpt lat="23.06476" lon="113.271781">
        <time>2026-08-19T22:22:12Z</time>
      </trkpt>
      <trkpt lat="23.064814" lon="113.271661">
        <time>2026-08-19T22:22:17Z</time>
      </trkpt>
      <trkpt lat="23.064897" lon="113.271487">
        <time>2026-08-19T22:22:22Z</time>
      </trkpt>
      <trkpt lat="23.064974" lon="113.271323">
        <time>2026-08-19T22:22:27Z</time>
      </trkpt>
      <trkpt lat="23.065033" lon="113.271212">
        <time>2026-08-19T22:22:32Z</time>
      </trkpt>
      <trkpt lat="23.065108" lon="113.271099">
        <time>2026-08-19T22:22:37Z</time>
      </trkpt>
      <trkpt lat="23.065184" lon="113.270913">
        <time>2026-08-19T22:22:42Z</time>
      </trkpt>
      <trkpt lat="23.065252" lon="113.270725">
        <time>2026-08-19T22:22:47Z</time>
      </trkpt>
      <trkpt lat="23.065303" lon="113.270614">
        <time>2026-08-19T22:22:52Z</time>
      </trkpt>
      <trkpt lat="23.065356" lon="113.270502">
        <time>2026-08-19T22:22:57Z</time>
      </trkpt>
      <trkpt lat="23.065437" lon="113.270325">
        <time>2026-08-19T22:23:02Z</time>
      </trkpt>
      <trkpt lat="23.065505" lon="113.270153">
        <time>2026-08-19T22:23:07Z</time>
      </trkpt>
      <trkpt lat="23.065548" lon="113.270037">
        <time>2026-08-19T22:23:12Z</time>
      </trkpt>
      <trkpt lat="23.065586" lon="113.269921">
        <time>2026-08-19T22:23:17Z</time>
      </trkpt>
      <trkpt lat="23.065638" lon="113.269734">
        <time>2026-08-19T22:23:22Z</time>
      </trkpt>
      <trkpt lat="23.065706" lon="113.269539">
        <time>2026-08-19T22:23:27Z</time>
      </trkpt>
      <trkpt lat="23.065742" lon="113.269405">
        <time>2026-08-19T22:23:32Z</time>
      </trkpt>
      <trkpt lat="23.065771" lon="113.26927">
        <time>2026-08-19T22:23:37Z</time>
      </trkpt>
      <trkpt lat="23.065826" lon="113.269074">
        <time>2026-08-19T22:23:42Z</time>
      </trkpt>
      <trkpt lat="23.065913" lon="113.268884">
        <time>2026-08-19T22:23:47Z</time>
      </trkpt>
      <trkpt lat="23.06597" lon="113.268754">
        <time>2026-08-19T22:23:52Z</time>
      </trkpt>
      <trkpt lat="23.06603" lon="113.268628">
        <time>2026-08-19T22:23:57Z</time>
      </trkpt>
      <trkpt lat="23.066141" lon="113.268458">
        <time>2026-08-19T22:24:02Z</time>
      </trkpt>
      <trkpt lat="23.066254" lon="113.268294">
        <time>2026-08-19T22:24:07Z</time>
      </trkpt>
      <trkpt lat="23.066337" lon="113.268197">
        <time>2026-08-19T22:24:12Z</time>
      </trkpt>
      <trkpt lat="23.066441" lon="113.268132">
        <time>2026-08-19T22:24:17Z</time>
      </trkpt>
      <trkpt lat="23.066626" lon="113.268131">
        <time>2026-08-19T22:24:22Z</time>
      </trkpt>
      <trkpt lat="23.066812" lon="113.268143">
        <time>2026-08-19T22:24:27Z</time>
      </trkpt>
      <trkpt lat="23.066936" lon="113.268144">
        <time>2026-08-19T22:24:32Z</time>
      </trkpt>
      <trkpt lat="23.067047" lon="113.268183">
        <time>2026-08-19T22:24:37Z</time>
      </trkpt>
      <trkpt lat="23.067193" lon="113.268282">
        <time>2026-08-19T22:24:42Z</time>
      </trkpt>
      <trkpt lat="23.067342" lon="113.268367">
        <time>2026-08-19T22:24:47Z</time>
      </trkpt>
      <trkpt lat="23.067439" lon="113.268428">
        <time>2026-08-19T22:24:52Z</time>
      </trkpt>
      <trkpt lat="23.067546" lon="113.2685">
        <time>2026-08-19T22:24:57Z</time>
      </trkpt>
      <trkpt lat="23.06772" lon="113.268596">
        <time>2026-08-19T22:25:02Z</time>
      </trkpt>
      <trkpt lat="23.067897" lon="113.268673">
        <time>2026-08-19T22:25:07Z</time>
      </trkpt>
      <trkpt lat="23.067977" lon="113.268645">
        <time>2026-08-19T22:25:12Z</time>
      </trkpt>
      <trkpt lat="23.067927" lon="113.26855">
        <time>2026-08-19T22:25:17Z</time>
      </trkpt>
      <trkpt lat="23.067747" lon="113.268446">
        <time>2026-08-19T22:25:22Z</time>
      </trkpt>
      <trkpt lat="23.067576" lon="113.268362">
        <time>2026-08-19T22:25:27Z</time>
      </trkpt>
      <trkpt lat="23.067459" lon="113.26831">
        <time>2026-08-19T22:25:32Z</time>
      </trkpt>
      <trkpt lat="23.067342" lon="113.268262">
        <time>2026-08-19T22:25:37Z</time>
      </trkpt>
      <trkpt lat="23.067174" lon="113.268199">
        <time>2026-08-19T22:25:42Z</time>
      </trkpt>
      <trkpt lat="23.06701" lon="113.268119">
        <time>2026-08-19T22:25:47Z</time>
      </trkpt>
      <trkpt lat="23.0669" lon="113.268061">
        <time>2026-08-19T22:25:52Z</time>
      </trkpt>
      <trkpt lat="23.066774" lon="113.268026">
        <time>2026-08-19T22:25:57Z</time>
      </trkpt>
      <trkpt lat="23.066583" lon="113.267998">
        <time>2026-08-19T22:26:02Z</time>
      </trkpt>
      <trkpt lat="23.066397" lon="113.267952">
        <time>2026-08-19T22:26:07Z</time>
      </trkpt>
      <trkpt lat="23.066272" lon="113.26797">
        <time>2026-08-19T22:26:12Z</time>
      </trkpt>
      <trkpt lat="23.066167" lon="113.268042">
        <time>2026-08-19T22:26:17Z</time>
      </trkpt>
      <trkpt lat="23.066035" lon="113.268197">
        <time>2026-08-19T22:26:22Z</time>
      </trkpt>
      <trkpt lat="23.065925" lon="113.268362">
        <time>2026-08-19T22:26:27Z</time>
      </trkpt>
      <trkpt lat="23.065851" lon="113.26847">
        <time>2026-08-19T22:26:32Z</time>
      </trkpt>
      <trkpt lat="23.065785" lon="113.268584">
        <time>2026-08-19T22:26:37Z</time>
      </trkpt>
      <trkpt lat="23.065699" lon="113.268768">
        <time>2026-08-19T22:26:42Z</time>
      </trkpt>
      <trkpt lat="23.065626" lon="113.268959">
        <time>2026-08-19T22:26:47Z</time>
      </trkpt>
      <trkpt lat="23.06559" lon="113.269088">
        <time>2026-08-19T22:26:52Z</time>
      </trkpt>
      <trkpt lat="23.06557" lon="113.269218">
        <time>2026-08-19T22:26:57Z</time>
      </trkpt>
      <trkpt lat="23.065514" lon="113.269403">
        <time>2026-08-19T22:27:02Z</time>
      </trkpt>
      <trkpt lat="23.065463" lon="113.269602">
        <time>2026-08-19T22:27:07Z</time>
      </trkpt>
      <trkpt lat="23.065425" lon="113.269734">
        <time>2026-08-19T22:27:12Z</time>
      </trkpt>
      <trkpt lat="23.06538" lon="113.269864">
        <time>2026-08-19T22:27:17Z</time>
      </trkpt>
      <trkpt lat="23.065318" lon="113.270058">
        <time>2026-08-19T22:27:22Z</time>
      </trkpt>
      <trkpt lat="23.065241" lon="113.270242">
        <time>2026-08-19T22:27:27Z</time>
      </trkpt>
      <trkpt lat="23.065186" lon="113.270364">
        <time>2026-08-19T22:27:32Z</time>
      </trkpt>
      <trkpt lat="23.065129" lon="113.270486">
        <time>2026-08-19T22:27:37Z</time>
      </trkpt>
      <trkpt lat="23.065049" lon="113.270671">
        <time>2026-08-19T22:27:42Z</time>
      </trkpt>
      <trkpt lat="23.064967" lon="113.270853">
        <time>2026-08-19T22:27:47Z</time>
      </trkpt>
      <trkpt lat="23.064916" lon="113.270973">
        <time>2026-08-19T22:27:52Z</time>
      </trkpt>
      <trkpt lat="23.064859" lon="113.271091">
        <time>2026-08-19T22:27:57Z</time>
      </trkpt>
      <trkpt lat="23.064771" lon="113.271264">
        <time>2026-08-19T22:28:02Z</time>
      </trkpt>
      <trkpt lat="23.06469" lon="113.271441">
        <time>2026-08-19T22:28:07Z</time>
      </trkpt>
      <trkpt lat="23.064636" lon="113.271562">
        <time>2026-08-19T22:28:12Z</time>
      </trkpt>
      <trkpt lat="23.064579" lon="113.271683">
        <time>2026-08-19T22:28:17Z</time>
      </trkpt>
      <trkpt lat="23.064496" lon="113.271865">
        <time>2026-08-19T22:28:22Z</time>
      </trkpt>
      <trkpt lat="23.064411" lon="113.272043">
        <time>2026-08-19T22:28:27Z</time>
      </trkpt>
      <trkpt lat="23.064355" lon="113.272164">
        <time>2026-08-19T22:28:32Z</time>
      </trkpt>
      <trkpt lat="23.064329" lon="113.272293">
        <time>2026-08-19T22:28:37Z</time>
      </trkpt>
      <trkpt lat="23.064311" lon="113.272484">
        <time>2026-08-19T22:28:42Z</time>
      </trkpt>
      <trkpt lat="23.064331" lon="113.27268">
        <time>2026-08-19T22:28:47Z</time>
      </trkpt>
      <trkpt lat="23.064372" lon="113.272807">
        <time>2026-08-19T22:28:52Z</time>
      </trkpt>
      <trkpt lat="23.064413" lon="113.272927">
        <time>2026-08-19T22:28:57Z</time>
      </trkpt>
      <trkpt lat="23.064471" lon="113.273119">
        <time>2026-08-19T22:29:02Z</time>
      </trkpt>
      <trkpt lat="23.064442" lon="113.2733">
        <time>2026-08-19T22:29:07Z</time>
      </trkpt>
      <trkpt lat="23.064349" lon="113.273387">
        <time>2026-08-19T22:29:12Z</time>
      </trkpt>
      <trkpt lat="23.064225" lon="113.273458">
        <time>2026-08-19T22:29:17Z</time>
      </trkpt>
      <trkpt lat="23.064056" lon="113.27357">
        <time>2026-08-19T22:29:22Z</time>
      </trkpt>
      <trkpt lat="23.063909" lon="113.273712">
        <time>2026-08-19T22:29:27Z</time>
      </trkpt>
      <trkpt lat="23.063831" lon="113.273824">
        <time>2026-08-19T22:29:32Z</time>
      </trkpt>
      <trkpt lat="23.063766" lon="113.273944">
        <time>2026-08-19T22:29:37Z</time>
      </trkpt>
      <trkpt lat="23.063672" lon="113.274098">
        <time>2026-08-19T22:29:42Z</time>
      </trkpt>
      <trkpt lat="23.063544" lon="113.274225">
        <time>2026-08-19T22:29:47Z</time>
      </trkpt>
      <trkpt lat="23.063485" lon="113.274348">
        <time>2026-08-19T22:29:52Z</time>
      </trkpt>
      <trkpt lat="23.063436" lon="113.274478">
        <time>2026-08-19T22:29:57Z</time>
      </trkpt>
      <trkpt lat="23.063366" lon="113.274675">
        <time>2026-08-19T22:30:02Z</time>
      </trkpt>
      <trkpt lat="23.063296" lon="113.274875">
        <time>2026-08-19T22:30:07Z</time>
      </trkpt>
      <trkpt lat="23.063244" lon="113.275008">
        <time>2026-08-19T22:30:12Z</time>
      </trkpt>
      <trkpt lat="23.063179" lon="113.275136">
        <time>2026-08-19T22:30:17Z</time>
      </trkpt>
      <trkpt lat="23.06308" lon="113.27531">
        <time>2026-08-19T22:30:22Z</time>
      </trkpt>
      <trkpt lat="23.062972" lon="113.275482">
        <time>2026-08-19T22:30:27Z</time>
      </trkpt>
      <trkpt lat="23.062889" lon="113.27559">
        <time>2026-08-19T22:30:32Z</time>
      </trkpt>
      <trkpt lat="23.062801" lon="113.275686">
        <time>2026-08-19T22:30:37Z</time>
      </trkpt>
      <trkpt lat="23.062666" lon="113.275824">
        <time>2026-08-19T22:30:42Z</time>
      </trkpt>
      <trkpt lat="23.062545" lon="113.275974">
        <time>2026-08-19T22:30:47Z</time>
      </trkpt>
      <trkpt lat="23.06247" lon="113.276082">
        <time>2026-08-19T22:30:52Z</time>
      </trkpt>
      <trkpt lat="23.062409" lon="113.276197">
        <time>2026-08-19T22:30:57Z</time>
      </trkpt>
      <trkpt lat="23.062345" lon="113.276369">
        <time>2026-08-19T22:31:02Z</time>
      </trkpt>
      <trkpt lat="23.06228" lon="113.276553">
        <time>2026-08-19T22:31:07Z</time>
      </trkpt>
      <trkpt lat="23.062236" lon="113.276677">
        <time>2026-08-19T22:31:12Z</time>
      </trkpt>
      <trkpt lat="23.06219" lon="113.276795">
        <time>2026-08-19T22:31:17Z</time>
      </trkpt>
      <trkpt lat="23.062125" lon="113.276978">
        <time>2026-08-19T22:31:22Z</time>
      </trkpt>
      <trkpt lat="23.062047" lon="113.27717">
        <time>2026-08-19T22:31:27Z</time>
      </trkpt>
      <trkpt lat="23.061999" lon="113.277303">
        <time>2026-08-19T22:31:32Z</time>
      </trkpt>
      <trkpt lat="23.061952" lon="113.277427">
        <time>2026-08-19T22:31:37Z</time>
      </trkpt>
      <trkpt lat="23.061884" lon="113.277614">
        <time>2026-08-19T22:31:42Z</time>
      </trkpt>
      <trkpt lat="23.061831" lon="113.277802">
        <time>2026-08-19T22:31:47Z</time>
      </trkpt>
      <trkpt lat="23.061826" lon="113.277929">
        <time>2026-08-19T22:31:52Z</time>
      </trkpt>
      <trkpt lat="23.061841" lon="113.278051">
        <time>2026-08-19T22:31:57Z</time>
      </trkpt>
      <trkpt lat="23.061854" lon="113.27824">
        <time>2026-08-19T22:32:02Z</time>
      </trkpt>
      <trkpt lat="23.061867" lon="113.278429">
        <time>2026-08-19T22:32:07Z</time>
      </trkpt>
      <trkpt lat="23.061873" lon="113.278554">
        <time>2026-08-19T22:32:12Z</time>
      </trkpt>
      <trkpt lat="23.061857" lon="113.27868">
        <time>2026-08-19T22:32:17Z</time>
      </trkpt>
      <trkpt lat="23.061752" lon="113.278787">
        <time>2026-08-19T22:32:22Z</time>
      </trkpt>
      <trkpt lat="23.06167" lon="113.278951">
        <time>2026-08-19T22:32:27Z</time>
      </trkpt>
      <trkpt lat="23.061625" lon="113.279075">
        <time>2026-08-19T22:32:32Z</time>
      </trkpt>
      <trkpt lat="23.061581" lon="113.279198">
        <time>2026-08-19T22:32:37Z</time>
      </trkpt>
      <trkpt lat="23.061504" lon="113.279388">
        <time>2026-08-19T22:32:42Z</time>
      </trkpt>
      <trkpt lat="23.061426" lon="113.27958">
        <time>2026-08-19T22:32:47Z</time>
      </trkpt>
      <trkpt lat="23.061376" lon="113.279705">
        <time>2026-08-19T22:32:52Z</time>
      </trkpt>
      <trkpt lat="23.061315" lon="113.279822">
        <time>2026-08-19T22:32:57Z</time>
      </trkpt>
      <trkpt lat="23.061232" lon="113.280001">
        <time>2026-08-19T22:33:02Z</time>
      </trkpt>
      <trkpt lat="23.061154" lon="113.280187">
        <time>2026-08-19T22:33:07Z</time>
      </trkpt>
      <trkpt lat="23.061105" lon="113.280311">
        <time>2026-08-19T22:33:12Z</time>
      </trkpt>
      <trkpt lat="23.061057" lon="113.28043">
        <time>2026-08-19T22:33:17Z</time>
      </trkpt>
      <trkpt lat="23.060976" lon="113.280616">
        <time>2026-08-19T22:33:22Z</time>
      </trkpt>
      <trkpt lat="23.060888" lon="113.280799">
        <time>2026-08-19T22:33:27Z</time>
      </trkpt>
      <trkpt lat="23.060847" lon="113.280924">
        <time>2026-08-19T22:33:32Z</time>
      </trkpt>
      <trkpt lat="23.060803" lon="113.281045">
        <time>2026-08-19T22:33:37Z</time>
      </trkpt>
      <trkpt lat="23.060719" lon="113.281222">
        <time>2026-08-19T22:33:42Z</time>
      </trkpt>
      <trkpt lat="23.060643" lon="113.28141">
        <time>2026-08-19T22:33:47Z</time>
      </trkpt>
      <trkpt lat="23.060595" lon="113.281534">
        <time>2026-08-19T22:33:52Z</time>
      </trkpt>
      <trkpt lat="23.060539" lon="113.281653">
        <time>2026-08-19T22:33:57Z</time>
      </trkpt>
      <trkpt lat="23.060454" lon="113.28183">
        <time>2026-08-19T22:34:02Z</time>
      </trkpt>
      <trkpt lat="23.060382" lon="113.282017">
        <time>2026-08-19T22:34:07Z</time>
      </trkpt>
      <trkpt lat="23.06033" lon="113.282134">
        <time>2026-08-19T22:34:12Z</time>
      </trkpt>
      <trkpt lat="23.060274" lon="113.282243">
        <time>2026-08-19T22:34:17Z</time>
      </trkpt>
      <trkpt lat="23.060207" lon="113.282415">
        <time>2026-08-19T22:34:22Z</time>
      </trkpt>
      <trkpt lat="23.060135" lon="113.28259">
        <time>2026-08-19T22:34:27Z</time>
      </trkpt>
      <trkpt lat="23.060085" lon="113.282708">
        <time>2026-08-19T22:34:32Z</time>
      </trkpt>
      <trkpt lat="23.060039" lon="113.282825">
        <time>2026-08-19T22:34:37Z</time>
      </trkpt>
      <trkpt lat="23.059962" lon="113.283">
        <time>2026-08-19T22:34:42Z</time>
      </trkpt>
      <trkpt lat="23.059882" lon="113.283179">
        <time>2026-08-19T22:34:47Z</time>
      </trkpt>
      <trkpt lat="23.05983" lon="113.283295">
        <time>2026-08-19T22:34:52Z</time>
      </trkpt>
      <trkpt lat="23.059776" lon="113.283411">
        <time>2026-08-19T22:34:57Z</time>
      </trkpt>
      <trkpt lat="23.059703" lon="113.283581">
        <time>2026-08-19T22:35:02Z</time>
      </trkpt>
      <trkpt lat="23.05962" lon="113.283759">
        <time>2026-08-19T22:35:07Z</time>
      </trkpt>
      <trkpt lat="23.059569" lon="113.283881">
        <time>2026-08-19T22:35:12Z</time>
      </trkpt>
      <trkpt lat="23.059513" lon="113.284">
        <time>2026-08-19T22:35:17Z</time>
      </trkpt>
      <trkpt lat="23.059409" lon="113.28417">
        <time>2026-08-19T22:35:22Z</time>
      </trkpt>
      <trkpt lat="23.059333" lon="113.284349">
        <time>2026-08-19T22:35:27Z</time>
      </trkpt>
      <trkpt lat="23.059296" lon="113.284478">
        <time>2026-08-19T22:35:32Z</time>
      </trkpt>
      <trkpt lat="23.059282" lon="113.284614">
        <time>2026-08-19T22:35:37Z</time>
      </trkpt>
      <trkpt lat="23.059224" lon="113.2848">
        <time>2026-08-19T22:35:42Z</time>
      </trkpt>
      <trkpt lat="23.059144" lon="113.284972">
        <time>2026-08-19T22:35:47Z</time>
      </trkpt>
      <trkpt lat="23.059094" lon="113.285089">
        <time>2026-08-19T22:35:52Z</time>
      </trkpt>
      <trkpt lat="23.059041" lon="113.285207">
        <time>2026-08-19T22:35:57Z</time>
      </trkpt>
      <trkpt lat="23.058969" lon="113.285386">
        <time>2026-08-19T22:36:02Z</time>
      </trkpt>
      <trkpt lat="23.058893" lon="113.28557">
        <time>2026-08-19T22:36:07Z</time>
      </trkpt>
      <trkpt lat="23.058836" lon="113.285695">
        <time>2026-08-19T22:36:12Z</time>
      </trkpt>
      <trkpt lat="23.058781" lon="113.285824">
        <time>2026-08-19T22:36:17Z</time>
      </trkpt>
      <trkpt lat="23.058699" lon="113.286014">
        <time>2026-08-19T22:36:22Z</time>
      </trkpt>
      <trkpt lat="23.058661" lon="113.286209">
        <time>2026-08-19T22:36:27Z</time>
      </trkpt>
      <trkpt lat="23.058711" lon="113.286323">
        <time>2026-08-19T22:36:32Z</time>
      </trkpt>
      <trkpt lat="23.058827" lon="113.286371">
        <time>2026-08-19T22:36:37Z</time>
      </trkpt>
      <trkpt lat="23.059007" lon="113.286398">
        <time>2026-08-19T22:36:42Z</time>
      </trkpt>
      <trkpt lat="23.05918" lon="113.286417">
        <time>2026-08-19T22:36:47Z</time>
      </trkpt>
      <trkpt lat="23.0593" lon="113.286425">
        <time>2026-08-19T22:36:52Z</time>
      </trkpt>
      <trkpt lat="23.059421" lon="113.286433">
        <time>2026-08-19T22:36:57Z</time>
      </trkpt>
      <trkpt lat="23.059598" lon="113.28644">
        <time>2026-08-19T22:37:02Z</time>
      </trkpt>
      <trkpt lat="23.059771" lon="113.286441">
        <time>2026-08-19T22:37:07Z</time>
      </trkpt>
      <trkpt lat="23.059884" lon="113.286434">
        <time>2026-08-19T22:37:12Z</time>
      </trkpt>
      <trkpt lat="23.060001" lon="113.28644">
        <time>2026-08-19T22:37:17Z</time>
      </trkpt>
      <trkpt lat="23.060123" lon="113.286551">
        <time>2026-08-19T22:37:22Z</time>
      </trkpt>
      <trkpt lat="23.060171" lon="113.286782">
        <time>2026-08-19T22:37:27Z</time>
      </trkpt>
      <trkpt lat="23.060184" lon="113.286944">
        <time>2026-08-19T22:37:32Z</time>
      </trkpt>
      <trkpt lat="23.060207" lon="113.287094">
        <time>2026-08-19T22:37:37Z</time>
      </trkpt>
      <trkpt lat="23.060257" lon="113.287311">
        <time>2026-08-19T22:37:42Z</time>
      </trkpt>
      <trkpt lat="23.060258" lon="113.287509">
        <time>2026-08-19T22:37:47Z</time>
      </trkpt>
      <trkpt lat="23.06024" lon="113.287632">
        <time>2026-08-19T22:37:52Z</time>
      </trkpt>
      <trkpt lat="23.060218" lon="113.287772">
        <time>2026-08-19T22:37:57Z</time>
      </trkpt>
      <trkpt lat="23.060283" lon="113.287923">
        <time>2026-08-19T22:38:02Z</time>
      </trkpt>
      <trkpt lat="23.060313" lon="113.287755">
        <time>2026-08-19T22:38:07Z</time>
      </trkpt>
      <trkpt lat="23.060311" lon="113.287624">
        <time>2026-08-19T22:38:12Z</time>
      </trkpt>
      <trkpt lat="23.060284" lon="113.287505">
        <time>2026-08-19T22:38:17Z</time>
      </trkpt>
      <trkpt lat="23.06022" lon="113.287289">
        <time>2026-08-19T22:38:22Z</time>
      </trkpt>
      <trkpt lat="23.060152" lon="113.287078">
        <time>2026-08-19T22:38:27Z</time>
      </trkpt>
      <trkpt lat="23.06014" lon="113.28693">
        <time>2026-08-19T22:38:32Z</time>
      </trkpt>
      <trkpt lat="23.060187" lon="113.286769">
        <time>2026-08-19T22:38:37Z</time>
      </trkpt>
      <trkpt lat="23.060217" lon="113.286579">
        <time>2026-08-19T22:38:42Z</time>
      </trkpt>
      <trkpt lat="23.060128" lon="113.286426">
        <time>2026-08-19T22:38:47Z</time>
      </trkpt>
      <trkpt lat="23.059997" lon="113.286375">
        <time>2026-08-19T22:38:52Z</time>
      </trkpt>
      <trkpt lat="23.059859" lon="113.286341">
        <time>2026-08-19T22:38:57Z</time>
      </trkpt>
      <trkpt lat="23.059666" lon="113.28625">
        <time>2026-08-19T22:39:02Z</time>
      </trkpt>
      <trkpt lat="23.059468" lon="113.286184">
        <time>2026-08-19T22:39:07Z</time>
      </trkpt>
      <trkpt lat="23.059332" lon="113.286181">
        <time>2026-08-19T22:39:12Z</time>
      </trkpt>
      <trkpt lat="23.05919" lon="113.286202">
        <time>2026-08-19T22:39:17Z</time>
      </trkpt>
      <trkpt lat="23.058995" lon="113.286227">
        <time>2026-08-19T22:39:22Z</time>
      </trkpt>
      <trkpt lat="23.058812" lon="113.286228">
        <time>2026-08-19T22:39:27Z</time>
      </trkpt>
      <trkpt lat="23.058722" lon="113.28617">
        <time>2026-08-19T22:39:32Z</time>
      </trkpt>
      <trkpt lat="23.05874" lon="113.286042">
        <time>2026-08-19T22:39:37Z</time>
      </trkpt>
      <trkpt lat="23.058852" lon="113.285844">
        <time>2026-08-19T22:39:42Z</time>
      </trkpt>
      <trkpt lat="23.058948" lon="113.285667">
        <time>2026-08-19T22:39:47Z</time>
      </trkpt>
      <trkpt lat="23.059007" lon="113.285543">
        <time>2026-08-19T22:39:52Z</time>
      </trkpt>
      <trkpt lat="23.05906" lon="113.285414">
        <time>2026-08-19T22:39:57Z</time>
      </trkpt>
      <trkpt lat="23.059142" lon="113.285219">
        <time>2026-08-19T22:40:02Z</time>
      </trkpt>
      <trkpt lat="23.059224" lon="113.28502">
        <time>2026-08-19T22:40:07Z</time>
      </trkpt>
      <trkpt lat="23.05928" lon="113.284888">
        <time>2026-08-19T22:40:12Z</time>
      </trkpt>
      <trkpt lat="23.059337" lon="113.284757">
        <time>2026-08-19T22:40:17Z</time>
      </trkpt>
      <trkpt lat="23.059418" lon="113.284568">
        <time>2026-08-19T22:40:22Z</time>
      </trkpt>
      <trkpt lat="23.059495" lon="113.28438">
        <time>2026-08-19T22:40:27Z</time>
      </trkpt>
      <trkpt lat="23.059553" lon="113.284255">
        <time>2026-08-19T22:40:32Z</time>
      </trkpt>
      <trkpt lat="23.05961" lon="113.284129">
        <time>2026-08-19T22:40:37Z</time>
      </trkpt>
      <trkpt lat="23.059684" lon="113.283939">
        <time>2026-08-19T22:40:42Z</time>
      </trkpt>
      <trkpt lat="23.059759" lon="113.28375">
        <time>2026-08-19T22:40:47Z</time>
      </trkpt>
      <trkpt lat="23.05982" lon="113.28362">
        <time>2026-08-19T22:40:52Z</time>
      </trkpt>
      <trkpt lat="23.059887" lon="113.283493">
        <time>2026-08-19T22:40:57Z</time>
      </trkpt>
      <trkpt lat="23.059977" lon="113.283308">
        <time>2026-08-19T22:41:02Z</time>
      </trkpt>
      <trkpt lat="23.060075" lon="113.283129">
        <time>2026-08-19T22:41:07Z</time>
      </trkpt>
      <trkpt lat="23.060132" lon="113.283002">
        <time>2026-08-19T22:41:12Z</time>
      </trkpt>
      <trkpt lat="23.060181" lon="113.282874">
        <time>2026-08-19T22:41:17Z</time>
      </trkpt>
      <trkpt lat="23.060247" lon="113.282685">
        <time>2026-08-19T22:41:22Z</time>
      </trkpt>
      <trkpt lat="23.060324" lon="113.282499">
        <time>2026-08-19T22:41:27Z</time>
      </trkpt>
      <trkpt lat="23.060374" lon="113.282376">
        <time>2026-08-19T22:41:32Z</time>
      </trkpt>
      <trkpt lat="23.060422" lon="113.282255">
        <time>2026-08-19T22:41:37Z</time>
      </trkpt>
      <trkpt lat="23.060498" lon="113.282067">
        <time>2026-08-19T22:41:42Z</time>
      </trkpt>
      <trkpt lat="23.060572" lon="113.281882">
        <time>2026-08-19T22:41:47Z</time>
      </trkpt>
      <trkpt lat="23.060623" lon="113.281761">
        <time>2026-08-19T22:41:52Z</time>
      </trkpt>
      <trkpt lat="23.060677" lon="113.281643">
        <time>2026-08-19T22:41:57Z</time>
      </trkpt>
      <trkpt lat="23.060757" lon="113.281468">
        <time>2026-08-19T22:42:02Z</time>
      </trkpt>
      <trkpt lat="23.060833" lon="113.281289">
        <time>2026-08-19T22:42:07Z</time>
      </trkpt>
      <trkpt lat="23.060883" lon="113.281172">
        <time>2026-08-19T22:42:12Z</time>
      </trkpt>
      <trkpt lat="23.060933" lon="113.281057">
        <time>2026-08-19T22:42:17Z</time>
      </trkpt>
      <trkpt lat="23.061003" lon="113.280887">
        <time>2026-08-19T22:42:22Z</time>
      </trkpt>
      <trkpt lat="23.061068" lon="113.280716">
        <time>2026-08-19T22:42:27Z</time>
      </trkpt>
      <trkpt lat="23.061121" lon="113.280586">
        <time>2026-08-19T22:42:32Z</time>
      </trkpt>
      <trkpt lat="23.061181" lon="113.280454">
        <time>2026-08-19T22:42:37Z</time>
      </trkpt>
      <trkpt lat="23.061273" lon="113.280273">
        <time>2026-08-19T22:42:42Z</time>
      </trkpt>
      <trkpt lat="23.061362" lon="113.2801">
        <time>2026-08-19T22:42:47Z</time>
      </trkpt>
      <trkpt lat="23.061417" lon="113.279983">
        <time>2026-08-19T22:42:52Z</time>
      </trkpt>
      <trkpt lat="23.061466" lon="113.279863">
        <time>2026-08-19T22:42:57Z</time>
      </trkpt>
      <trkpt lat="23.061534" lon="113.279685">
        <time>2026-08-19T22:43:02Z</time>
      </trkpt>
      <trkpt lat="23.061606" lon="113.279503">
        <time>2026-08-19T22:43:07Z</time>
      </trkpt>
      <trkpt lat="23.061648" lon="113.279373">
        <time>2026-08-19T22:43:12Z</time>
      </trkpt>
      <trkpt lat="23.061699" lon="113.27925">
        <time>2026-08-19T22:43:17Z</time>
      </trkpt>
      <trkpt lat="23.061791" lon="113.279074">
        <time>2026-08-19T22:43:22Z</time>
      </trkpt>
      <trkpt lat="23.061901" lon="113.278902">
        <time>2026-08-19T22:43:27Z</time>
      </trkpt>
      <trkpt lat="23.061962" lon="113.278778">
        <time>2026-08-19T22:43:32Z</time>
      </trkpt>
      <trkpt lat="23.061985" lon="113.278642">
        <time>2026-08-19T22:43:37Z</time>
      </trkpt>
      <trkpt lat="23.061971" lon="113.278428">
        <time>2026-08-19T22:43:42Z</time>
      </trkpt>
      <trkpt lat="23.061953" lon="113.278212">
        <time>2026-08-19T22:43:47Z</time>
      </trkpt>
      <trkpt lat="23.061943" lon="113.278064">
        <time>2026-08-19T22:43:52Z</time>
      </trkpt>
      <trkpt lat="23.061937" lon="113.277918">
        <time>2026-08-19T22:43:57Z</time>
      </trkpt>
      <trkpt lat="23.061958" lon="113.277698">
        <time>2026-08-19T22:44:02Z</time>
      </trkpt>
      <trkpt lat="23.062029" lon="113.277486">
        <time>2026-08-19T22:44:07Z</time>
      </trkpt>
      <trkpt lat="23.062078" lon="113.277354">
        <time>2026-08-19T22:44:12Z</time>
      </trkpt>
      <trkpt lat="23.062122" lon="113.277222">
        <time>2026-08-19T22:44:17Z</time>
      </trkpt>
      <trkpt lat="23.062186" lon="113.277022">
        <time>2026-08-19T22:44:22Z</time>
      </trkpt>
      <trkpt lat="23.062266" lon="113.276825">
        <time>2026-08-19T22:44:27Z</time>
      </trkpt>
      <trkpt lat="23.062322" lon="113.276696">
        <time>2026-08-19T22:44:32Z</time>
      </trkpt>
      <trkpt lat="23.062379" lon="113.276568">
        <time>2026-08-19T22:44:37Z</time>
      </trkpt>
      <trkpt lat="23.062456" lon="113.27637">
        <time>2026-08-19T22:44:42Z</time>
      </trkpt>
      <trkpt lat="23.06254" lon="113.276164">
        <time>2026-08-19T22:44:47Z</time>
      </trkpt>
      <trkpt lat="23.062613" lon="113.276038">
        <time>2026-08-19T22:44:52Z</time>
      </trkpt>
      <trkpt lat="23.062693" lon="113.275924">
        <time>2026-08-19T22:44:57Z</time>
      </trkpt>
      <trkpt lat="23.062829" lon="113.275769">
        <time>2026-08-19T22:45:02Z</time>
      </trkpt>
      <trkpt lat="23.062971" lon="113.275619">
        <time>2026-08-19T22:45:07Z</time>
      </trkpt>
      <trkpt lat="23.063059" lon="113.27552">
        <time>2026-08-19T22:45:12Z</time>
      </trkpt>
      <trkpt lat="23.063124" lon="113.275408">
        <time>2026-08-19T22:45:17Z</time>
      </trkpt>
      <trkpt lat="23.06323" lon="113.275229">
        <time>2026-08-19T22:45:22Z</time>
      </trkpt>
      <trkpt lat="23.063301" lon="113.275157">
        <time>2026-08-19T22:45:27Z</time>
      </trkpt>
      <trkpt lat="23.063334" lon="113.275133">
        <time>2026-08-19T22:45:32Z</time>
      </trkpt>
      <trkpt lat="23.063368" lon="113.275104">
        <time>2026-08-19T22:45:37Z</time>
      </trkpt>
      <trkpt lat="23.0634" lon="113.275045">
        <time>2026-08-19T22:45:42Z</time>
      </trkpt>
      <trkpt lat="23.063413" lon="113.274977">
        <time>2026-08-19T22:45:47Z</time>
      </trkpt>
      <trkpt lat="23.063427" lon="113.274938">
        <time>2026-08-19T22:45:52Z</time>
      </trkpt>
      <trkpt lat="23.063449" lon="113.274895">
        <time>2026-08-19T22:45:57Z</time>
      </trkpt>
      <trkpt lat="23.06348" lon="113.27483">
        <time>2026-08-19T22:46:02Z</time>
      </trkpt>
      <trkpt lat="23.063507" lon="113.274764">
        <time>2026-08-19T22:46:07Z</time>
      </trkpt>
      <trkpt lat="23.063524" lon="113.274722">
        <time>2026-08-19T22:46:12Z</time>
      </trkpt>
      <trkpt lat="23.063527" lon="113.274678">
        <time>2026-08-19T22:46:17Z</time>
      </trkpt>
      <trkpt lat="23.063531" lon="113.274601">
        <time>2026-08-19T22:46:22Z</time>
      </trkpt>
      <trkpt lat="23.063541" lon="113.274523">
        <time>2026-08-19T22:46:27Z</time>
      </trkpt>
      <trkpt lat="23.063557" lon="113.274473">
        <time>2026-08-19T22:46:32Z</time>
      </trkpt>
      <trkpt lat="23.063575" lon="113.274429">
        <time>2026-08-19T22:46:37Z</time>
      </trkpt>
      <trkpt lat="23.063602" lon="113.274352">
        <time>2026-08-19T22:46:42Z</time>
      </trkpt>
      <trkpt lat="23.06364" lon="113.274282">
        <time>2026-08-19T22:46:47Z</time>
      </trkpt>
      <trkpt lat="23.063686" lon="113.274252">
        <time>2026-08-19T22:46:52Z</time>
      </trkpt>
      <trkpt lat="23.06374" lon="113.274227">
        <time>2026-08-19T22:46:57Z</time>
      </trkpt>
      <trkpt lat="23.063805" lon="113.274169">
        <time>2026-08-19T22:47:02Z</time>
      </trkpt>
      <trkpt lat="23.063848" lon="113.274108">
        <time>2026-08-19T22:47:07Z</time>
      </trkpt>
      <trkpt lat="23.063869" lon="113.274064">
        <time>2026-08-19T22:47:12Z</time>
      </trkpt>
      <trkpt lat="23.063884" lon="113.27402">
        <time>2026-08-19T22:47:17Z</time>
      </trkpt>
      <trkpt lat="23.063924" lon="113.273946">
        <time>2026-08-19T22:47:22Z</time>
      </trkpt>
      <trkpt lat="23.06398" lon="113.273836">
        <time>2026-08-19T22:47:27Z</time>
      </trkpt>
      <trkpt lat="23.064034" lon="113.273764">
        <time>2026-08-19T22:47:32Z</time>
      </trkpt>
      <trkpt lat="23.064101" lon="113.273703">
        <time>2026-08-19T22:47:37Z</time>
      </trkpt>
      <trkpt lat="23.064209" lon="113.273628">
        <time>2026-08-19T22:47:42Z</time>
      </trkpt>
      <trkpt lat="23.064306" lon="113.273551">
        <time>2026-08-19T22:47:47Z</time>
      </trkpt>
      <trkpt lat="23.064376" lon="113.273498">
        <time>2026-08-19T22:47:52Z</time>
      </trkpt>
      <trkpt lat="23.064442" lon="113.273442">
        <time>2026-08-19T22:47:57Z</time>
      </trkpt>
      <trkpt lat="23.064532" lon="113.27335">
        <time>2026-08-19T22:48:02Z</time>
      </trkpt>
      <trkpt lat="23.064588" lon="113.27323">
        <time>2026-08-19T22:48:07Z</time>
      </trkpt>
      <trkpt lat="23.064592" lon="113.273146">
        <time>2026-08-19T22:48:12Z</time>
      </trkpt>
      <trkpt lat="23.064576" lon="113.273058">
        <time>2026-08-19T22:48:17Z</time>
      </trkpt>
      <trkpt lat="23.064534" lon="113.272929">
        <time>2026-08-19T22:48:22Z</time>
      </trkpt>
      <trkpt lat="23.064497" lon="113.272805">
        <time>2026-08-19T22:48:27Z</time>
      </trkpt>
      <trkpt lat="23.064474" lon="113.272726">
        <time>2026-08-19T22:48:32Z</time>
      </trkpt>
      <trkpt lat="23.064457" lon="113.272642">
        <time>2026-08-19T22:48:37Z</time>
      </trkpt>
      <trkpt lat="23.064491" lon="113.272516">
        <time>2026-08-19T22:48:42Z</time>
      </trkpt>
      <trkpt lat="23.064569" lon="113.272399">
        <time>2026-08-19T22:48:47Z</time>
      </trkpt>
      <trkpt lat="23.064601" lon="113.272314">
        <time>2026-08-19T22:48:52Z</time>
      </trkpt>
      <trkpt lat="23.064617" lon="113.272229">
        <time>2026-08-19T22:48:57Z</time>
      </trkpt>
      <trkpt lat="23.064655" lon="113.272112">
        <time>2026-08-19T22:49:02Z</time>
      </trkpt>
      <trkpt lat="23.064715" lon="113.272003">
        <time>2026-08-19T22:49:07Z</time>
      </trkpt>
      <trkpt lat="23.064757" lon="113.271929">
        <time>2026-08-19T22:49:12Z</time>
      </trkpt>
      <trkpt lat="23.064804" lon="113.271855">
        <time>2026-08-19T22:49:17Z</time>
      </trkpt>
      <trkpt lat="23.064868" lon="113.271741">
        <time>2026-08-19T22:49:22Z</time>
      </trkpt>
      <trkpt lat="23.064932" lon="113.271616">
        <time>2026-08-19T22:49:27Z</time>
      </trkpt>
      <trkpt lat="23.064969" lon="113.271535">
        <time>2026-08-19T22:49:32Z</time>
      </trkpt>
      <trkpt lat="23.065001" lon="113.271459">
        <time>2026-08-19T22:49:37Z</time>
      </trkpt>
      <trkpt lat="23.065041" lon="113.271341">
        <time>2026-08-19T22:49:42Z</time>
      </trkpt>
      <trkpt lat="23.065099" lon="113.271228">
        <time>2026-08-19T22:49:47Z</time>
      </trkpt>
      <trkpt lat="23.065152" lon="113.271171">
        <time>2026-08-19T22:49:52Z</time>
      </trkpt>
      <trkpt lat="23.065228" lon="113.271185">
        <time>2026-08-19T22:49:57Z</time>
      </trkpt>
      <trkpt lat="23.065329" lon="113.271236">
        <time>2026-08-19T22:50:02Z</time>
      </trkpt>
      <trkpt lat="23.065423" lon="113.271266">
        <time>2026-08-19T22:50:07Z</time>
      </trkpt>
      <trkpt lat="23.065492" lon="113.271293">
        <time>2026-08-19T22:50:12Z</time>
      </trkpt>
      <trkpt lat="23.065562" lon="113.27132">
        <time>2026-08-19T22:50:17Z</time>
      </trkpt>
      <trkpt lat="23.065666" lon="113.271364">
        <time>2026-08-19T22:50:22Z</time>
      </trkpt>
      <trkpt lat="23.065772" lon="113.271372">
        <time>2026-08-19T22:50:27Z</time>
      </trkpt>
      <trkpt lat="23.065772" lon="113.271293">
        <time>2026-08-19T22:50:32Z</time>
      </trkpt>
      <trkpt lat="23.065706" lon="113.27123">
        <time>2026-08-19T22:50:37Z</time>
      </trkpt>
      <trkpt lat="23.065592" lon="113.271185">
        <time>2026-08-19T22:50:42Z</time>
      </trkpt>
      <trkpt lat="23.065492" lon="113.271146">
        <time>2026-08-19T22:50:47Z</time>
      </trkpt>
      <trkpt lat="23.065443" lon="113.271099">
        <time>2026-08-19T22:50:52Z</time>
      </trkpt>
      <trkpt lat="23.065397" lon="113.271036">
        <time>2026-08-19T22:50:57Z</time>
      </trkpt>
      <trkpt lat="23.065304" lon="113.270974">
        <time>2026-08-19T22:51:02Z</time>
      </trkpt>
      <trkpt lat="23.065273" lon="113.270874">
        <time>2026-08-19T22:51:07Z</time>
      </trkpt>
      <trkpt lat="23.065298" lon="113.270792">
        <time>2026-08-19T22:51:12Z</time>
      </trkpt>
      <trkpt lat="23.065325" lon="113.270712">
        <time>2026-08-19T22:51:17Z</time>
      </trkpt>
      <trkpt lat="23.065372" lon="113.270601">
        <time>2026-08-19T22:51:22Z</time>
      </trkpt>
      <trkpt lat="23.06542" lon="113.270494">
        <time>2026-08-19T22:51:27Z</time>
      </trkpt>
      <trkpt lat="23.065453" lon="113.270428">
        <time>2026-08-19T22:51:32Z</time>
      </trkpt>
      <trkpt lat="23.065485" lon="113.270359">
        <time>2026-08-19T22:51:37Z</time>
      </trkpt>
      <trkpt lat="23.065527" lon="113.270251">
        <time>2026-08-19T22:51:42Z</time>
      </trkpt>
      <trkpt lat="23.065521" lon="113.270143">
        <time>2026-08-19T22:51:47Z</time>
      </trkpt>
      <trkpt lat="23.065546" lon="113.270066">
        <time>2026-08-19T22:51:52Z</time>
      </trkpt>
      <trkpt lat="23.065575" lon="113.26999">
        <time>2026-08-19T22:51:57Z</time>
      </trkpt>
      <trkpt lat="23.065613" lon="113.269874">
        <time>2026-08-19T22:52:02Z</time>
      </trkpt>
      <trkpt lat="23.065646" lon="113.269752">
        <time>2026-08-19T22:52:07Z</time>
      </trkpt>
      <trkpt lat="23.065662" lon="113.269665">
        <time>2026-08-19T22:52:12Z</time>
      </trkpt>
      <trkpt lat="23.065683" lon="113.26958">
        <time>2026-08-19T22:52:17Z</time>
      </trkpt>
      <trkpt lat="23.065723" lon="113.269458">
        <time>2026-08-19T22:52:22Z</time>
      </trkpt>
      <trkpt lat="23.065761" lon="113.269338">
        <time>2026-08-19T22:52:27Z</time>
      </trkpt>
      <trkpt lat="23.065784" lon="113.269257">
        <time>2026-08-19T22:52:32Z</time>
      </trkpt>
      <trkpt lat="23.065806" lon="113.269177">
        <time>2026-08-19T22:52:37Z</time>
      </trkpt>
      <trkpt lat="23.065843" lon="113.269057">
        <time>2026-08-19T22:52:42Z</time>
      </trkpt>
      <trkpt lat="23.065897" lon="113.268941">
        <time>2026-08-19T22:52:47Z</time>
      </trkpt>
      <trkpt lat="23.06593" lon="113.268863">
        <time>2026-08-19T22:52:52Z</time>
      </trkpt>
      <trkpt lat="23.065962" lon="113.268782">
        <time>2026-08-19T22:52:57Z</time>
      </trkpt>
      <trkpt lat="23.066013" lon="113.268665">
        <time>2026-08-19T22:53:02Z</time>
      </trkpt>
      <trkpt lat="23.06608" lon="113.268552">
        <time>2026-08-19T22:53:07Z</time>
      </trkpt>
      <trkpt lat="23.06613" lon="113.268479">
        <time>2026-08-19T22:53:12Z</time>
      </trkpt>
      <trkpt lat="23.066179" lon="113.268407">
        <time>2026-08-19T22:53:17Z</time>
      </trkpt>
      <trkpt lat="23.066252" lon="113.268304">
        <time>2026-08-19T22:53:22Z</time>
      </trkpt>
      <trkpt lat="23.06634" lon="113.268207">
        <time>2026-08-19T22:53:27Z</time>
      </trkpt>
      <trkpt lat="23.066409" lon="113.268155">
        <time>2026-08-19T22:53:32Z</time>
      </trkpt>
      <trkpt lat="23.06649" lon="113.268135">
        <time>2026-08-19T22:53:37Z</time>
      </trkpt>
      <trkpt lat="23.066614" lon="113.268146">
        <time>2026-08-19T22:53:42Z</time>
      </trkpt>
      <trkpt lat="23.066733" lon="113.268163">
        <time>2026-08-19T22:53:47Z</time>
      </trkpt>
      <trkpt lat="23.066815" lon="113.26815">
        <time>2026-08-19T22:53:52Z</time>
      </trkpt>
      <trkpt lat="23.066903" lon="113.268149">
        <time>2026-08-19T22:53:57Z</time>
      </trkpt>
      <trkpt lat="23.067028" lon="113.26818">
        <time>2026-08-19T22:54:02Z</time>
      </trkpt>
      <trkpt lat="23.067131" lon="113.268236">
        <time>2026-08-19T22:54:07Z</time>
      </trkpt>
      <trkpt lat="23.067194" lon="113.268277">
        <time>2026-08-19T22:54:12Z</time>
      </trkpt>
      <trkpt lat="23.067258" lon="113.268322">
        <time>2026-08-19T22:54:17Z</time>
      </trkpt>
      <trkpt lat="23.067372" lon="113.268386">
        <time>2026-08-19T22:54:22Z</time>
      </trkpt>
      <trkpt lat="23.067477" lon="113.268438">
        <time>2026-08-19T22:54:27Z</time>
      </trkpt>
      <trkpt lat="23.067558" lon="113.268473">
        <time>2026-08-19T22:54:32Z</time>
      </trkpt>
      <trkpt lat="23.067635" lon="113.268516">
        <time>2026-08-19T22:54:37Z</time>
      </trkpt>
      <trkpt lat="23.067751" lon="113.268577">
        <time>2026-08-19T22:54:42Z</time>
      </trkpt>
      <trkpt lat="23.067863" lon="113.268629">
        <time>2026-08-19T22:54:47Z</time>
      </trkpt>
      <trkpt lat="23.067939" lon="113.268671">
        <time>2026-08-19T22:54:52Z</time>
      </trkpt>
      <trkpt lat="23.068014" lon="113.268713">
        <time>2026-08-19T22:54:57Z</time>
      </trkpt>
      <trkpt lat="23.06812" lon="113.268757">
        <time>2026-08-19T22:55:02Z</time>
      </trkpt>
      <trkpt lat="23.068215" lon="113.268802">
        <time>2026-08-19T22:55:07Z</time>
      </trkpt>
      <trkpt lat="23.068281" lon="113.268828">
        <time>2026-08-19T22:55:12Z</time>
      </trkpt>
      <trkpt lat="23.068348" lon="113.268859">
        <time>2026-08-19T22:55:17Z</time>
      </trkpt>
      <trkpt lat="23.068448" lon="113.268907">
        <time>2026-08-19T22:55:22Z</time>
      </trkpt>
      <trkpt lat="23.068564" lon="113.268967">
        <time>2026-08-19T22:55:27Z</time>
      </trkpt>
      <trkpt lat="23.068632" lon="113.269009">
        <time>2026-08-19T22:55:32Z</time>
      </trkpt>
      <trkpt lat="23.0687" lon="113.269047">
        <time>2026-08-19T22:55:37Z</time>
      </trkpt>
      <trkpt lat="23.068831" lon="113.269079">
        <time>2026-08-19T22:55:42Z</time>
      </trkpt>
      <trkpt lat="23.068965" lon="113.26911">
        <time>2026-08-19T22:55:47Z</time>
      </trkpt>
      <trkpt lat="23.069057" lon="113.269156">
        <time>2026-08-19T22:55:52Z</time>
      </trkpt>
      <trkpt lat="23.069135" lon="113.2692">
        <time>2026-08-19T22:55:57Z</time>
      </trkpt>
      <trkpt lat="23.069232" lon="113.269268">
        <time>2026-08-19T22:56:02Z</time>
      </trkpt>
      <trkpt lat="23.069328" lon="113.269348">
        <time>2026-08-19T22:56:07Z</time>
      </trkpt>
      <trkpt lat="23.0694" lon="113.269387">
        <time>2026-08-19T22:56:12Z</time>
      </trkpt>
      <trkpt lat="23.069476" lon="113.269423">
        <time>2026-08-19T22:56:17Z</time>
      </trkpt>
      <trkpt lat="23.06959" lon="113.269476">
        <time>2026-08-19T22:56:22Z</time>
      </trkpt>
      <trkpt lat="23.069711" lon="113.269535">
        <time>2026-08-19T22:56:27Z</time>
      </trkpt>
      <trkpt lat="23.069785" lon="113.269583">
        <time>2026-08-19T22:56:32Z</time>
      </trkpt>
      <trkpt lat="23.069855" lon="113.269637">
        <time>2026-08-19T22:56:37Z</time>
      </trkpt>
      <trkpt lat="23.069949" lon="113.269707">
        <time>2026-08-19T22:56:42Z</time>
      </trkpt>
      <trkpt lat="23.070048" lon="113.269761">
        <time>2026-08-19T22:56:47Z</time>
      </trkpt>
      <trkpt lat="23.070129" lon="113.2698">
        <time>2026-08-19T22:56:52Z</time>
      </trkpt>
      <trkpt lat="23.070209" lon="113.269831">
        <time>2026-08-19T22:56:57Z</time>
      </trkpt>
      <trkpt lat="23.070312" lon="113.26987">
        <time>2026-08-19T22:57:02Z</time>
      </trkpt>
      <trkpt lat="23.070419" lon="113.269917">
        <time>2026-08-19T22:57:07Z</time>
      </trkpt>
      <trkpt lat="23.070502" lon="113.269945">
        <time>2026-08-19T22:57:12Z</time>
      </trkpt>
      <trkpt lat="23.070581" lon="113.269968">
        <time>2026-08-19T22:57:17Z</time>
      </trkpt>
      <trkpt lat="23.070686" lon="113.270014">
        <time>2026-08-19T22:57:22Z</time>
      </trkpt>
      <trkpt lat="23.070797" lon="113.270066">
        <time>2026-08-19T22:57:27Z</time>
      </trkpt>
      <trkpt lat="23.070874" lon="113.270095">
        <time>2026-08-19T22:57:32Z</time>
      </trkpt>
      <trkpt lat="23.070959" lon="113.270117">
        <time>2026-08-19T22:57:37Z</time>
      </trkpt>
      <trkpt lat="23.071062" lon="113.270174">
        <time>2026-08-19T22:57:42Z</time>
      </trkpt>
      <trkpt lat="23.071166" lon="113.27024">
        <time>2026-08-19T22:57:47Z</time>
      </trkpt>
      <trkpt lat="23.071233" lon="113.270274">
        <time>2026-08-19T22:57:52Z</time>
      </trkpt>
      <trkpt lat="23.071298" lon="113.270304">
        <time>2026-08-19T22:57:57Z</time>
      </trkpt>
      <trkpt lat="23.071409" lon="113.270355">
        <time>2026-08-19T22:58:02Z</time>
      </trkpt>
      <trkpt lat="23.071513" lon="113.270416">
        <time>2026-08-19T22:58:07Z</time>
      </trkpt>
      <trkpt lat="23.071589" lon="113.270457">
        <time>2026-08-19T22:58:12Z</time>
      </trkpt>
      <trkpt lat="23.071669" lon="113.270496">
        <time>2026-08-19T22:58:17Z</time>
      </trkpt>
      <trkpt lat="23.071787" lon="113.270545">
        <time>2026-08-19T22:58:22Z</time>
      </trkpt>
      <trkpt lat="23.071896" lon="113.270597">
        <time>2026-08-19T22:58:27Z</time>
      </trkpt>
      <trkpt lat="23.071965" lon="113.27065">
        <time>2026-08-19T22:58:32Z</time>
      </trkpt>
      <trkpt lat="23.072052" lon="113.270664">
        <time>2026-08-19T22:58:37Z</time>
      </trkpt>
      <trkpt lat="23.072179" lon="113.270672">
        <time>2026-08-19T22:58:42Z</time>
      </trkpt>
      <trkpt lat="23.072297" lon="113.270719">
        <time>2026-08-19T22:58:47Z</time>
      </trkpt>
      <trkpt lat="23.072362" lon="113.270778">
        <time>2026-08-19T22:58:52Z</time>
      </trkpt>
      <trkpt lat="23.072431" lon="113.270818">
        <time>2026-08-19T22:58:57Z</time>
      </trkpt>
      <trkpt lat="23.072557" lon="113.270886">
        <time>2026-08-19T22:59:02Z</time>
      </trkpt>
      <trkpt lat="23.072678" lon="113.270962">
        <time>2026-08-19T22:59:07Z</time>
      </trkpt>
      <trkpt lat="23.072751" lon="113.270999">
        <time>2026-08-19T22:59:12Z</time>
      </trkpt>
      <trkpt lat="23.072816" lon="113.271038">
        <time>2026-08-19T22:59:17Z</time>
      </trkpt>
      <trkpt lat="23.072915" lon="113.271075">
        <time>2026-08-19T22:59:22Z</time>
      </trkpt>
      <trkpt lat="23.073009" lon="113.271133">
        <time>2026-08-19T22:59:27Z</time>
      </trkpt>
      <trkpt lat="23.073084" lon="113.271175">
        <time>2026-08-19T22:59:32Z</time>
      </trkpt>
      <trkpt lat="23.073172" lon="113.271195">
        <time>2026-08-19T22:59:37Z</time>
      </trkpt>
      <trkpt lat="23.073301" lon="113.271254">
        <time>2026-08-19T22:59:42Z</time>
      </trkpt>
      <trkpt lat="23.073418" lon="113.271322">
        <time>2026-08-19T22:59:47Z</time>
      </trkpt>
      <trkpt lat="23.073489" lon="113.271372">
        <time>2026-08-19T22:59:52Z</time>
      </trkpt>
      <trkpt lat="23.07356" lon="113.271424">
        <time>2026-08-19T22:59:57Z</time>
      </trkpt>
      <trkpt lat="23.073671" lon="113.271493">
        <time>2026-08-19T23:00:02Z</time>
      </trkpt>
      <trkpt lat="23.073782" lon="113.271549">
        <time>2026-08-19T23:00:07Z</time>
      </trkpt>
      <trkpt lat="23.073857" lon="113.271576">
        <time>2026-08-19T23:00:12Z</time>
      </trkpt>
      <trkpt lat="23.073927" lon="113.271606">
        <time>2026-08-19T23:00:17Z</time>
      </trkpt>
      <trkpt lat="23.074026" lon="113.271661">
        <time>2026-08-19T23:00:22Z</time>
      </trkpt>
      <trkpt lat="23.074098" lon="113.271735">
        <time>2026-08-19T23:00:27Z</time>
      </trkpt>
      <trkpt lat="23.074121" lon="113.271786">
        <time>2026-08-19T23:00:32Z</time>
      </trkpt>
      <trkpt lat="23.0741" lon="113.271851">
        <time>2026-08-19T23:00:37Z</time>
      </trkpt>
      <trkpt lat="23.074047" lon="113.271959">
        <time>2026-08-19T23:00:42Z</time>
      </trkpt>
      <trkpt lat="23.074002" lon="113.272072">
        <time>2026-08-19T23:00:47Z</time>
      </trkpt>
      <trkpt lat="23.073973" lon="113.272141">
        <time>2026-08-19T23:00:52Z</time>
      </trkpt>
      <trkpt lat="23.073941" lon="113.27221">
        <time>2026-08-19T23:00:57Z</time>
      </trkpt>
      <trkpt lat="23.073888" lon="113.272316">
        <time>2026-08-19T23:01:02Z</time>
      </trkpt>
      <trkpt lat="23.073829" lon="113.27243">
        <time>2026-08-19T23:01:07Z</time>
      </trkpt>
      <trkpt lat="23.073796" lon="113.272509">
        <time>2026-08-19T23:01:12Z</time>
      </trkpt>
      <trkpt lat="23.073769" lon="113.272592">
        <time>2026-08-19T23:01:17Z</time>
      </trkpt>
      <trkpt lat="23.073727" lon="113.27271">
        <time>2026-08-19T23:01:22Z</time>
      </trkpt>
      <trkpt lat="23.073688" lon="113.272821">
        <time>2026-08-19T23:01:27Z</time>
      </trkpt>
      <trkpt lat="23.073656" lon="113.272896">
        <time>2026-08-19T23:01:32Z</time>
      </trkpt>
      <trkpt lat="23.073635" lon="113.272973">
        <time>2026-08-19T23:01:37Z</time>
      </trkpt>
      <trkpt lat="23.073589" lon="113.273068">
        <time>2026-08-19T23:01:42Z</time>
      </trkpt>
      <trkpt lat="23.073576" lon="113.273113">
        <time>2026-08-19T23:01:47Z</time>
      </trkpt>
      <trkpt lat="23.0736" lon="113.273051">
        <time>2026-08-19T23:01:52Z</time>
      </trkpt>
      <trkpt lat="23.073647" lon="113.272991">
        <time>2026-08-19T23:01:57Z</time>
      </trkpt>
      <trkpt lat="23.073762" lon="113.272975">
        <time>2026-08-19T23:02:02Z</time>
      </trkpt>
      <trkpt lat="23.073884" lon="113.273006">
        <time>2026-08-19T23:02:07Z</time>
      </trkpt>
      <trkpt lat="23.073965" lon="113.273029">
        <time>2026-08-19T23:02:12Z</time>
      </trkpt>
      <trkpt lat="23.074023" lon="113.27301">
        <time>2026-08-19T23:02:17Z</time>
      </trkpt>
      <trkpt lat="23.074061" lon="113.272891">
        <time>2026-08-19T23:02:22Z</time>
      </trkpt>
      <trkpt lat="23.074087" lon="113.272758">
        <time>2026-08-19T23:02:27Z</time>
      </trkpt>
      <trkpt lat="23.074112" lon="113.272678">
        <time>2026-08-19T23:02:32Z</time>
      </trkpt>
      <trkpt lat="23.07415" lon="113.272601">
        <time>2026-08-19T23:02:37Z</time>
      </trkpt>
      <trkpt lat="23.074218" lon="113.272494">
        <time>2026-08-19T23:02:42Z</time>
      </trkpt>
      <trkpt lat="23.074275" lon="113.272371">
        <time>2026-08-19T23:02:47Z</time>
      </trkpt>
      <trkpt lat="23.074307" lon="113.272289">
        <time>2026-08-19T23:02:52Z</time>
      </trkpt>
      <trkpt lat="23.074348" lon="113.272216">
        <time>2026-08-19T23:02:57Z</time>
      </trkpt>
      <trkpt lat="23.074428" lon="113.272105">
        <time>2026-08-19T23:03:02Z</time>
      </trkpt>
      <trkpt lat="23.074519" lon="113.272028">
        <time>2026-08-19T23:03:10Z</time>
      </trkpt>
    </trkseg>
  </trk>
</gpx>