<?xml version="1.0" encoding="UTF-8"?>
<gpx xmlns="http://www.topografix.com/GPX/1/1" xmlns:gpxtpx="http://www.garmin.com/xmlschemas/TrackPointExtension/v1" xmlns:xsi="http://www.w3.org/2001/XMLSchema-instance" xsi:schemaLocation="http://www.topografix.com/GPX/1/1 http://www.topografix.com/GPX/1/1/gpx.xsd" version="1.1" creator="gpx.py -- https://github.com/tkrajina/gpxpy">
  <trk>
    <name>gpx from joyrun</name>
    <trkseg>
      <trkpt lat="23.075927" lon="113.272792">
        <time>2026-08-24T21:47:39Z</time>
      </trkpt>
      <trkpt lat="23.075962" lon="113.272766">
        <time>2026-08-24T21:47:44Z</time>
      </trkpt>
      <trkpt lat="23.07591" lon="113.272646">
        <time>2026-08-24T21:47:49Z</time>
      </trkpt>
      <trkpt lat="23.075793" lon="113.272564">
        <time>2026-08-24T21:47:54Z</time>
      </trkpt>
      <trkpt lat="23.075716" lon="113.272525">
        <time>2026-08-24T21:47:59Z</time>
      </trkpt>
      <trkpt lat="23.075642" lon="113.272474">
        <time>2026-08-24T21:48:04Z</time>
      </trkpt>
      <trkpt lat="23.075531" lon="113.272391">
        <time>2026-08-24T21:48:09Z</time>
      </trkpt>
      <trkpt lat="23.075381" lon="113.272374">
        <time>2026-08-24T21:48:14Z</time>
      </trkpt>
      <trkpt lat="23.075276" lon="113.272374">
        <time>2026-08-24T21:48:19Z</time>
      </trkpt>
      <trkpt lat="23.075187" lon="113.272349">
        <time>2026-08-24T21:48:24Z</time>
      </trkpt>
      <trkpt lat="23.075078" lon="113.272288">
        <time>2026-08-24T21:48:29Z</time>
      </trkpt>
      <trkpt lat="23.074968" lon="113.272211">
        <time>2026-08-24T21:48:34Z</time>
      </trkpt>
      <trkpt lat="23.074889" lon="113.272158">
        <time>2026-08-24T21:48:39Z</time>
      </trkpt>
      <trkpt lat="23.074803" lon="113.27212">
        <time>2026-08-24T21:48:44Z</time>
      </trkpt>
      <trkpt lat="23.074686" lon="113.272057">
        <time>2026-08-24T21:48:49Z</time>
      </trkpt>
      <trkpt lat="23.07455" lon="113.271997">
        <time>2026-08-24T21:48:54Z</time>
      </trkpt>
      <trkpt lat="23.074459" lon="113.271968">
        <time>2026-08-24T21:48:59Z</time>
      </trkpt>
      <trkpt lat="23.074378" lon="113.271977">
        <time>2026-08-24T21:49:04Z</time>
      </trkpt>
      <trkpt lat="23.074299" lon="113.272095">
        <time>2026-08-24T21:49:09Z</time>
      </trkpt>
      <trkpt lat="23.074246" lon="113.272235">
        <time>2026-08-24T21:49:14Z</time>
      </trkpt>
      <trkpt lat="23.074211" lon="113.272313">
        <time>2026-08-24T21:49:19Z</time>
      </trkpt>
      <trkpt lat="23.074168" lon="113.272392">
        <time>2026-08-24T21:49:24Z</time>
      </trkpt>
      <trkpt lat="23.074107" lon="113.272535">
        <time>2026-08-24T21:49:29Z</time>
      </trkpt>
      <trkpt lat="23.074053" lon="113.272689">
        <time>2026-08-24T21:49:34Z</time>
      </trkpt>
      <trkpt lat="23.074012" lon="113.27279">
        <time>2026-08-24T21:49:39Z</time>
      </trkpt>
      <trkpt lat="23.073958" lon="113.272873">
        <time>2026-08-24T21:49:44Z</time>
      </trkpt>
      <trkpt lat="23.073833" lon="113.272932">
        <time>2026-08-24T21:49:49Z</time>
      </trkpt>
      <trkpt lat="23.073718" lon="113.272878">
        <time>2026-08-24T21:49:54Z</time>
      </trkpt>
      <trkpt lat="23.073677" lon="113.272806">
        <time>2026-08-24T21:49:59Z</time>
      </trkpt>
      <trkpt lat="23.073691" lon="113.272722">
        <time>2026-08-24T21:50:04Z</time>
      </trkpt>
      <trkpt lat="23.073755" lon="113.272597">
        <time>2026-08-24T21:50:09Z</time>
      </trkpt>
      <trkpt lat="23.07382" lon="113.272484">
        <time>2026-08-24T21:50:14Z</time>
      </trkpt>
      <trkpt lat="23.073863" lon="113.272411">
        <time>2026-08-24T21:50:19Z</time>
      </trkpt>
      <trkpt lat="23.073903" lon="113.272331">
        <time>2026-08-24T21:50:24Z</time>
      </trkpt>
      <trkpt lat="23.073956" lon="113.272192">
        <time>2026-08-24T21:50:29Z</time>
      </trkpt>
      <trkpt lat="23.074014" lon="113.272074">
        <time>2026-08-24T21:50:34Z</time>
      </trkpt>
      <trkpt lat="23.074049" lon="113.27199">
        <time>2026-08-24T21:50:39Z</time>
      </trkpt>
      <trkpt lat="23.074076" lon="113.271903">
        <time>2026-08-24T21:50:44Z</time>
      </trkpt>
      <trkpt lat="23.074114" lon="113.27178">
        <time>2026-08-24T21:50:49Z</time>
      </trkpt>
      <trkpt lat="23.074051" lon="113.271674">
        <time>2026-08-24T21:50:54Z</time>
      </trkpt>
      <trkpt lat="23.073969" lon="113.271623">
        <time>2026-08-24T21:50:59Z</time>
      </trkpt>
      <trkpt lat="23.073902" lon="113.271577">
        <time>2026-08-24T21:51:04Z</time>
      </trkpt>
      <trkpt lat="23.073801" lon="113.271513">
        <time>2026-08-24T21:51:09Z</time>
      </trkpt>
      <trkpt lat="23.073685" lon="113.271457">
        <time>2026-08-24T21:51:14Z</time>
      </trkpt>
      <trkpt lat="23.073602" lon="113.271425">
        <time>2026-08-24T21:51:19Z</time>
      </trkpt>
      <trkpt lat="23.07351" lon="113.271392">
        <time>2026-08-24T21:51:24Z</time>
      </trkpt>
      <trkpt lat="23.073375" lon="113.271339">
        <time>2026-08-24T21:51:29Z</time>
      </trkpt>
      <trkpt lat="23.073281" lon="113.271228">
        <time>2026-08-24T21:51:34Z</time>
      </trkpt>
      <trkpt lat="23.073218" lon="113.271147">
        <time>2026-08-24T21:51:39Z</time>
      </trkpt>
      <trkpt lat="23.073145" lon="113.271095">
        <time>2026-08-24T21:51:44Z</time>
      </trkpt>
      <trkpt lat="23.073026" lon="113.271011">
        <time>2026-08-24T21:51:49Z</time>
      </trkpt>
      <trkpt lat="23.072919" lon="113.270939">
        <time>2026-08-24T21:51:54Z</time>
      </trkpt>
      <trkpt lat="23.072838" lon="113.270882">
        <time>2026-08-24T21:51:59Z</time>
      </trkpt>
      <trkpt lat="23.072751" lon="113.270833">
        <time>2026-08-24T21:52:04Z</time>
      </trkpt>
      <trkpt lat="23.072619" lon="113.270774">
        <time>2026-08-24T21:52:09Z</time>
      </trkpt>
      <trkpt lat="23.072493" lon="113.270731">
        <time>2026-08-24T21:52:14Z</time>
      </trkpt>
      <trkpt lat="23.072403" lon="113.270699">
        <time>2026-08-24T21:52:19Z</time>
      </trkpt>
      <trkpt lat="23.072313" lon="113.270646">
        <time>2026-08-24T21:52:24Z</time>
      </trkpt>
      <trkpt lat="23.072202" lon="113.270536">
        <time>2026-08-24T21:52:29Z</time>
      </trkpt>
      <trkpt lat="23.072068" lon="113.270454">
        <time>2026-08-24T21:52:34Z</time>
      </trkpt>
      <trkpt lat="23.071982" lon="113.270409">
        <time>2026-08-24T21:52:39Z</time>
      </trkpt>
      <trkpt lat="23.0719" lon="113.270357">
        <time>2026-08-24T21:52:44Z</time>
      </trkpt>
      <trkpt lat="23.07177" lon="113.270294">
        <time>2026-08-24T21:52:49Z</time>
      </trkpt>
      <trkpt lat="23.071649" lon="113.270241">
        <time>2026-08-24T21:52:54Z</time>
      </trkpt>
      <trkpt lat="23.071564" lon="113.270213">
        <time>2026-08-24T21:52:59Z</time>
      </trkpt>
      <trkpt lat="23.071471" lon="113.270191">
        <time>2026-08-24T21:53:04Z</time>
      </trkpt>
      <trkpt lat="23.07134" lon="113.270134">
        <time>2026-08-24T21:53:09Z</time>
      </trkpt>
      <trkpt lat="23.071215" lon="113.270061">
        <time>2026-08-24T21:53:14Z</time>
      </trkpt>
      <trkpt lat="23.071111" lon="113.270031">
        <time>2026-08-24T21:53:19Z</time>
      </trkpt>
      <trkpt lat="23.071006" lon="113.270017">
        <time>2026-08-24T21:53:24Z</time>
      </trkpt>
      <trkpt lat="23.070872" lon="113.269989">
        <time>2026-08-24T21:53:29Z</time>
      </trkpt>
      <trkpt lat="23.070765" lon="113.269903">
        <time>2026-08-24T21:53:34Z</time>
      </trkpt>
      <trkpt lat="23.070678" lon="113.269844">
        <time>2026-08-24T21:53:39Z</time>
      </trkpt>
      <trkpt lat="23.070584" lon="113.269795">
        <time>2026-08-24T21:53:44Z</time>
      </trkpt>
      <trkpt lat="23.070427" lon="113.269759">
        <time>2026-08-24T21:53:49Z</time>
      </trkpt>
      <trkpt lat="23.070285" lon="113.269727">
        <time>2026-08-24T21:53:54Z</time>
      </trkpt>
      <trkpt lat="23.070195" lon="113.269697">
        <time>2026-08-24T21:53:59Z</time>
      </trkpt>
      <trkpt lat="23.070107" lon="113.269671">
        <time>2026-08-24T21:54:04Z</time>
      </trkpt>
      <trkpt lat="23.069975" lon="113.269609">
        <time>2026-08-24T21:54:09Z</time>
      </trkpt>
      <trkpt lat="23.069838" lon="113.269552">
        <time>2026-08-24T21:54:14Z</time>
      </trkpt>
      <trkpt lat="23.069741" lon="113.269516">
        <time>2026-08-24T21:54:19Z</time>
      </trkpt>
      <trkpt lat="23.069651" lon="113.269469">
        <time>2026-08-24T21:54:24Z</time>
      </trkpt>
      <trkpt lat="23.069524" lon="113.26939">
        <time>2026-08-24T21:54:29Z</time>
      </trkpt>
      <trkpt lat="23.069399" lon="113.269323">
        <time>2026-08-24T21:54:34Z</time>
      </trkpt>
      <trkpt lat="23.069318" lon="113.269266">
        <time>2026-08-24T21:54:39Z</time>
      </trkpt>
      <trkpt lat="23.069234" lon="113.269216">
        <time>2026-08-24T21:54:44Z</time>
      </trkpt>
      <trkpt lat="23.069153" lon="113.269109">
        <time>2026-08-24T21:54:49Z</time>
      </trkpt>
      <trkpt lat="23.069062" lon="113.269018">
        <time>2026-08-24T21:54:54Z</time>
      </trkpt>
      <trkpt lat="23.068979" lon="113.268987">
        <time>2026-08-24T21:54:59Z</time>
      </trkpt>
      <trkpt lat="23.068897" lon="113.268949">
        <time>2026-08-24T21:55:04Z</time>
      </trkpt>
      <trkpt lat="23.068777" lon="113.2689">
        <time>2026-08-24T21:55:09Z</time>
      </trkpt>
      <trkpt lat="23.068633" lon="113.268856">
        <time>2026-08-24T21:55:14Z</time>
      </trkpt>
      <trkpt lat="23.068542" lon="113.268822">
        <time>2026-08-24T21:55:19Z</time>
      </trkpt>
      <trkpt lat="23.068454" lon="113.268796">
        <time>2026-08-24T21:55:24Z</time>
      </trkpt>
      <trkpt lat="23.06833" lon="113.268748">
        <time>2026-08-24T21:55:29Z</time>
      </trkpt>
      <trkpt lat="23.0682" lon="113.268683">
        <time>2026-08-24T21:55:34Z</time>
      </trkpt>
      <trkpt lat="23.068109" lon="113.268633">
        <time>2026-08-24T21:55:39Z</time>
      </trkpt>
      <trkpt lat="23.068012" lon="113.268577">
        <time>2026-08-24T21:55:44Z</time>
      </trkpt>
      <trkpt lat="23.067864" lon="113.268502">
        <time>2026-08-24T21:55:49Z</time>
      </trkpt>
      <trkpt lat="23.067728" lon="113.268437">
        <time>2026-08-24T21:55:54Z</time>
      </trkpt>
      <trkpt lat="23.067636" lon="113.268385">
        <time>2026-08-24T21:55:59Z</time>
      </trkpt>
      <trkpt lat="23.067545" lon="113.268331">
        <time>2026-08-24T21:56:04Z</time>
      </trkpt>
      <trkpt lat="23.067405" lon="113.268273">
        <time>2026-08-24T21:56:09Z</time>
      </trkpt>
      <trkpt lat="23.067267" lon="113.268228">
        <time>2026-08-24T21:56:14Z</time>
      </trkpt>
      <trkpt lat="23.067176" lon="113.268192">
        <time>2026-08-24T21:56:19Z</time>
      </trkpt>
      <trkpt lat="23.067086" lon="113.268151">
        <time>2026-08-24T21:56:24Z</time>
      </trkpt>
      <trkpt lat="23.066964" lon="113.268081">
        <time>2026-08-24T21:56:29Z</time>
      </trkpt>
      <trkpt lat="23.066845" lon="113.268009">
        <time>2026-08-24T21:56:34Z</time>
      </trkpt>
      <trkpt lat="23.066752" lon="113.267985">
        <time>2026-08-24T21:56:39Z</time>
      </trkpt>
      <trkpt lat="23.066652" lon="113.267991">
        <time>2026-08-24T21:56:44Z</time>
      </trkpt>
      <trkpt lat="23.066509" lon="113.267973">
        <time>2026-08-24T21:56:49Z</time>
      </trkpt>
      <trkpt lat="23.066371" lon="113.267928">
        <time>2026-08-24T21:56:54Z</time>
      </trkpt>
      <trkpt lat="23.06628" lon="113.267926">
        <time>2026-08-24T21:56:59Z</time>
      </trkpt>
      <trkpt lat="23.066203" lon="113.267956">
        <time>2026-08-24T21:57:04Z</time>
      </trkpt>
      <trkpt lat="23.066095" lon="113.268068">
        <time>2026-08-24T21:57:09Z</time>
      </trkpt>
      <trkpt lat="23.065996" lon="113.268193">
        <time>2026-08-24T21:57:14Z</time>
      </trkpt>
      <trkpt lat="23.065937" lon="113.268277">
        <time>2026-08-24T21:57:19Z</time>
      </trkpt>
      <trkpt lat="23.065873" lon="113.268365">
        <time>2026-08-24T21:57:24Z</time>
      </trkpt>
      <trkpt lat="23.06579" lon="113.268503">
        <time>2026-08-24T21:57:29Z</time>
      </trkpt>
      <trkpt lat="23.065716" lon="113.268643">
        <time>2026-08-24T21:57:34Z</time>
      </trkpt>
      <trkpt lat="23.065676" lon="113.268741">
        <time>2026-08-24T21:57:39Z</time>
      </trkpt>
      <trkpt lat="23.065639" lon="113.268839">
        <time>2026-08-24T21:57:44Z</time>
      </trkpt>
      <trkpt lat="23.065583" lon="113.268987">
        <time>2026-08-24T21:57:49Z</time>
      </trkpt>
      <trkpt lat="23.065541" lon="113.269146">
        <time>2026-08-24T21:57:54Z</time>
      </trkpt>
      <trkpt lat="23.065515" lon="113.269247">
        <time>2026-08-24T21:57:59Z</time>
      </trkpt>
      <trkpt lat="23.065489" lon="113.269348">
        <time>2026-08-24T21:58:04Z</time>
      </trkpt>
      <trkpt lat="23.065453" lon="113.2695">
        <time>2026-08-24T21:58:09Z</time>
      </trkpt>
      <trkpt lat="23.065416" lon="113.269659">
        <time>2026-08-24T21:58:14Z</time>
      </trkpt>
      <trkpt lat="23.065386" lon="113.269764">
        <time>2026-08-24T21:58:19Z</time>
      </trkpt>
      <trkpt lat="23.065349" lon="113.269863">
        <time>2026-08-24T21:58:24Z</time>
      </trkpt>
      <trkpt lat="23.065289" lon="113.27001">
        <time>2026-08-24T21:58:29Z</time>
      </trkpt>
      <trkpt lat="23.065236" lon="113.27016">
        <time>2026-08-24T21:58:34Z</time>
      </trkpt>
      <trkpt lat="23.065198" lon="113.270255">
        <time>2026-08-24T21:58:39Z</time>
      </trkpt>
      <trkpt lat="23.065158" lon="113.270355">
        <time>2026-08-24T21:58:44Z</time>
      </trkpt>
      <trkpt lat="23.065091" lon="113.270508">
        <time>2026-08-24T21:58:49Z</time>
      </trkpt>
      <trkpt lat="23.065025" lon="113.270657">
        <time>2026-08-24T21:58:54Z</time>
      </trkpt>
      <trkpt lat="23.06498" lon="113.270757">
        <time>2026-08-24T21:58:59Z</time>
      </trkpt>
      <trkpt lat="23.064935" lon="113.270857">
        <time>2026-08-24T21:59:04Z</time>
      </trkpt>
      <trkpt lat="23.064874" lon="113.271011">
        <time>2026-08-24T21:59:09Z</time>
      </trkpt>
      <trkpt lat="23.06481" lon="113.271159">
        <time>2026-08-24T21:59:14Z</time>
      </trkpt>
      <trkpt lat="23.064765" lon="113.271256">
        <time>2026-08-24T21:59:19Z</time>
      </trkpt>
      <trkpt lat="23.064719" lon="113.271356">
        <time>2026-08-24T21:59:24Z</time>
      </trkpt>
      <trkpt lat="23.064651" lon="113.2715">
        <time>2026-08-24T21:59:29Z</time>
      </trkpt>
      <trkpt lat="23.064585" lon="113.27164">
        <time>2026-08-24T21:59:34Z</time>
      </trkpt>
      <trkpt lat="23.064532" lon="113.271734">
        <time>2026-08-24T21:59:39Z</time>
      </trkpt>
      <trkpt lat="23.064481" lon="113.27183">
        <time>2026-08-24T21:59:44Z</time>
      </trkpt>
      <trkpt lat="23.064418" lon="113.271984">
        <time>2026-08-24T21:59:49Z</time>
      </trkpt>
      <trkpt lat="23.064349" lon="113.27213">
        <time>2026-08-24T21:59:54Z</time>
      </trkpt>
      <trkpt lat="23.064319" lon="113.272243">
        <time>2026-08-24T21:59:59Z</time>
      </trkpt>
      <trkpt lat="23.06431" lon="113.272357">
        <time>2026-08-24T22:00:04Z</time>
      </trkpt>
      <trkpt lat="23.064303" lon="113.272526">
        <time>2026-08-24T22:00:09Z</time>
      </trkpt>
      <trkpt lat="23.064327" lon="113.272695">
        <time>2026-08-24T22:00:14Z</time>
      </trkpt>
      <trkpt lat="23.064357" lon="113.272798">
        <time>2026-08-24T22:00:19Z</time>
      </trkpt>
      <trkpt lat="23.064392" lon="113.272901">
        <time>2026-08-24T22:00:24Z</time>
      </trkpt>
      <trkpt lat="23.06444" lon="113.273052">
        <time>2026-08-24T22:00:29Z</time>
      </trkpt>
      <trkpt lat="23.064444" lon="113.27321">
        <time>2026-08-24T22:00:34Z</time>
      </trkpt>
      <trkpt lat="23.064405" lon="113.273298">
        <time>2026-08-24T22:00:39Z</time>
      </trkpt>
      <trkpt lat="23.064319" lon="113.273367">
        <time>2026-08-24T22:00:44Z</time>
      </trkpt>
      <trkpt lat="23.064179" lon="113.273461">
        <time>2026-08-24T22:00:49Z</time>
      </trkpt>
      <trkpt lat="23.064049" lon="113.273563">
        <time>2026-08-24T22:00:54Z</time>
      </trkpt>
      <trkpt lat="23.063963" lon="113.273634">
        <time>2026-08-24T22:00:59Z</time>
      </trkpt>
      <trkpt lat="23.063886" lon="113.273714">
        <time>2026-08-24T22:01:04Z</time>
      </trkpt>
      <trkpt lat="23.063789" lon="113.273855">
        <time>2026-08-24T22:01:09Z</time>
      </trkpt>
      <trkpt lat="23.063729" lon="113.273996">
        <time>2026-08-24T22:01:14Z</time>
      </trkpt>
      <trkpt lat="23.063681" lon="113.274076">
        <time>2026-08-24T22:01:19Z</time>
      </trkpt>
      <trkpt lat="23.063604" lon="113.274133">
        <time>2026-08-24T22:01:24Z</time>
      </trkpt>
      <trkpt lat="23.063492" lon="113.27425">
        <time>2026-08-24T22:01:29Z</time>
      </trkpt>
      <trkpt lat="23.063409" lon="113.274408">
        <time>2026-08-24T22:01:34Z</time>
      </trkpt>
      <trkpt lat="23.063367" lon="113.274524">
        <time>2026-08-24T22:01:39Z</time>
      </trkpt>
      <trkpt lat="23.06333" lon="113.27464">
        <time>2026-08-24T22:01:44Z</time>
      </trkpt>
      <trkpt lat="23.06328" lon="113.274807">
        <time>2026-08-24T22:01:49Z</time>
      </trkpt>
      <trkpt lat="23.063232" lon="113.274976">
        <time>2026-08-24T22:01:54Z</time>
      </trkpt>
      <trkpt lat="23.063184" lon="113.275081">
        <time>2026-08-24T22:01:59Z</time>
      </trkpt>
      <trkpt lat="23.063128" lon="113.275184">
        <time>2026-08-24T22:02:04Z</time>
      </trkpt>
      <trkpt lat="23.063047" lon="113.275329">
        <time>2026-08-24T22:02:09Z</time>
      </trkpt>
      <trkpt lat="23.062964" lon="113.275461">
        <time>2026-08-24T22:02:14Z</time>
      </trkpt>
      <trkpt lat="23.062902" lon="113.275545">
        <time>2026-08-24T22:02:19Z</time>
      </trkpt>
      <trkpt lat="23.062834" lon="113.275622">
        <time>2026-08-24T22:02:24Z</time>
      </trkpt>
      <trkpt lat="23.062719" lon="113.27573">
        <time>2026-08-24T22:02:29Z</time>
      </trkpt>
      <trkpt lat="23.062613" lon="113.275849">
        <time>2026-08-24T22:02:34Z</time>
      </trkpt>
      <trkpt lat="23.062549" lon="113.275936">
        <time>2026-08-24T22:02:39Z</time>
      </trkpt>
      <trkpt lat="23.062493" lon="113.276029">
        <time>2026-08-24T22:02:44Z</time>
      </trkpt>
      <trkpt lat="23.062422" lon="113.27617">
        <time>2026-08-24T22:02:49Z</time>
      </trkpt>
      <trkpt lat="23.062366" lon="113.276319">
        <time>2026-08-24T22:02:54Z</time>
      </trkpt>
      <trkpt lat="23.062336" lon="113.276418">
        <time>2026-08-24T22:02:59Z</time>
      </trkpt>
      <trkpt lat="23.062299" lon="113.276518">
        <time>2026-08-24T22:03:04Z</time>
      </trkpt>
      <trkpt lat="23.062243" lon="113.276667">
        <time>2026-08-24T22:03:09Z</time>
      </trkpt>
      <trkpt lat="23.06219" lon="113.276826">
        <time>2026-08-24T22:03:14Z</time>
      </trkpt>
      <trkpt lat="23.062155" lon="113.276934">
        <time>2026-08-24T22:03:19Z</time>
      </trkpt>
      <trkpt lat="23.06212" lon="113.277038">
        <time>2026-08-24T22:03:24Z</time>
      </trkpt>
      <trkpt lat="23.062057" lon="113.277194">
        <time>2026-08-24T22:03:29Z</time>
      </trkpt>
      <trkpt lat="23.061991" lon="113.277351">
        <time>2026-08-24T22:03:34Z</time>
      </trkpt>
      <trkpt lat="23.061947" lon="113.277457">
        <time>2026-08-24T22:03:39Z</time>
      </trkpt>
      <trkpt lat="23.061898" lon="113.27756">
        <time>2026-08-24T22:03:44Z</time>
      </trkpt>
      <trkpt lat="23.061826" lon="113.277725">
        <time>2026-08-24T22:03:49Z</time>
      </trkpt>
      <trkpt lat="23.061801" lon="113.277906">
        <time>2026-08-24T22:03:54Z</time>
      </trkpt>
      <trkpt lat="23.061806" lon="113.278019">
        <time>2026-08-24T22:03:59Z</time>
      </trkpt>
      <trkpt lat="23.061811" lon="113.278129">
        <time>2026-08-24T22:04:04Z</time>
      </trkpt>
      <trkpt lat="23.061822" lon="113.278289">
        <time>2026-08-24T22:04:09Z</time>
      </trkpt>
      <trkpt lat="23.061841" lon="113.278446">
        <time>2026-08-24T22:04:14Z</time>
      </trkpt>
      <trkpt lat="23.061847" lon="113.27855">
        <time>2026-08-24T22:04:19Z</time>
      </trkpt>
      <trkpt lat="23.061843" lon="113.278656">
        <time>2026-08-24T22:04:24Z</time>
      </trkpt>
      <trkpt lat="23.061759" lon="113.278747">
        <time>2026-08-24T22:04:29Z</time>
      </trkpt>
      <trkpt lat="23.061692" lon="113.278873">
        <time>2026-08-24T22:04:34Z</time>
      </trkpt>
      <trkpt lat="23.06166" lon="113.278975">
        <time>2026-08-24T22:04:39Z</time>
      </trkpt>
      <trkpt lat="23.061625" lon="113.279075">
        <time>2026-08-24T22:04:44Z</time>
      </trkpt>
      <trkpt lat="23.061562" lon="113.279224">
        <time>2026-08-24T22:04:49Z</time>
      </trkpt>
      <trkpt lat="23.061498" lon="113.279369">
        <time>2026-08-24T22:04:54Z</time>
      </trkpt>
      <trkpt lat="23.061454" lon="113.279466">
        <time>2026-08-24T22:04:59Z</time>
      </trkpt>
      <trkpt lat="23.061411" lon="113.279564">
        <time>2026-08-24T22:05:04Z</time>
      </trkpt>
      <trkpt lat="23.061347" lon="113.279716">
        <time>2026-08-24T22:05:09Z</time>
      </trkpt>
      <trkpt lat="23.061277" lon="113.279864">
        <time>2026-08-24T22:05:14Z</time>
      </trkpt>
      <trkpt lat="23.061234" lon="113.279964">
        <time>2026-08-24T22:05:19Z</time>
      </trkpt>
      <trkpt lat="23.061196" lon="113.280063">
        <time>2026-08-24T22:05:24Z</time>
      </trkpt>
      <trkpt lat="23.061135" lon="113.280214">
        <time>2026-08-24T22:05:29Z</time>
      </trkpt>
      <trkpt lat="23.06107" lon="113.280362">
        <time>2026-08-24T22:05:34Z</time>
      </trkpt>
      <trkpt lat="23.06102" lon="113.280463">
        <time>2026-08-24T22:05:39Z</time>
      </trkpt>
      <trkpt lat="23.060972" lon="113.280563">
        <time>2026-08-24T22:05:44Z</time>
      </trkpt>
      <trkpt lat="23.060908" lon="113.280719">
        <time>2026-08-24T22:05:49Z</time>
      </trkpt>
      <trkpt lat="23.060852" lon="113.280872">
        <time>2026-08-24T22:05:54Z</time>
      </trkpt>
      <trkpt lat="23.060815" lon="113.280969">
        <time>2026-08-24T22:05:59Z</time>
      </trkpt>
      <trkpt lat="23.060777" lon="113.281068">
        <time>2026-08-24T22:06:04Z</time>
      </trkpt>
      <trkpt lat="23.060715" lon="113.281214">
        <time>2026-08-24T22:06:09Z</time>
      </trkpt>
      <trkpt lat="23.060657" lon="113.281359">
        <time>2026-08-24T22:06:14Z</time>
      </trkpt>
      <trkpt lat="23.060618" lon="113.281458">
        <time>2026-08-24T22:06:19Z</time>
      </trkpt>
      <trkpt lat="23.060574" lon="113.281558">
        <time>2026-08-24T22:06:24Z</time>
      </trkpt>
      <trkpt lat="23.060509" lon="113.281711">
        <time>2026-08-24T22:06:29Z</time>
      </trkpt>
      <trkpt lat="23.060444" lon="113.281868">
        <time>2026-08-24T22:06:34Z</time>
      </trkpt>
      <trkpt lat="23.060402" lon="113.28197">
        <time>2026-08-24T22:06:39Z</time>
      </trkpt>
      <trkpt lat="23.060356" lon="113.282073">
        <time>2026-08-24T22:06:44Z</time>
      </trkpt>
      <trkpt lat="23.060288" lon="113.282227">
        <time>2026-08-24T22:06:49Z</time>
      </trkpt>
      <trkpt lat="23.060233" lon="113.282376">
        <time>2026-08-24T22:06:54Z</time>
      </trkpt>
      <trkpt lat="23.060195" lon="113.282477">
        <time>2026-08-24T22:06:59Z</time>
      </trkpt>
      <trkpt lat="23.060148" lon="113.282582">
        <time>2026-08-24T22:07:04Z</time>
      </trkpt>
      <trkpt lat="23.060082" lon="113.282729">
        <time>2026-08-24T22:07:09Z</time>
      </trkpt>
      <trkpt lat="23.060021" lon="113.282875">
        <time>2026-08-24T22:07:14Z</time>
      </trkpt>
      <trkpt lat="23.059977" lon="113.282972">
        <time>2026-08-24T22:07:19Z</time>
      </trkpt>
      <trkpt lat="23.059932" lon="113.283069">
        <time>2026-08-24T22:07:24Z</time>
      </trkpt>
      <trkpt lat="23.059869" lon="113.283213">
        <time>2026-08-24T22:07:29Z</time>
      </trkpt>
      <trkpt lat="23.05988" lon="113.28335">
        <time>2026-08-24T22:07:34Z</time>
      </trkpt>
      <trkpt lat="23.059951" lon="113.283338">
        <time>2026-08-24T22:07:39Z</time>
      </trkpt>
      <trkpt lat="23.060008" lon="113.283249">
        <time>2026-08-24T22:07:44Z</time>
      </trkpt>
      <trkpt lat="23.06009" lon="113.283101">
        <time>2026-08-24T22:07:49Z</time>
      </trkpt>
      <trkpt lat="23.06016" lon="113.282943">
        <time>2026-08-24T22:07:54Z</time>
      </trkpt>
      <trkpt lat="23.060196" lon="113.282843">
        <time>2026-08-24T22:07:59Z</time>
      </trkpt>
      <trkpt lat="23.060231" lon="113.28274">
        <time>2026-08-24T22:08:04Z</time>
      </trkpt>
      <trkpt lat="23.060289" lon="113.282589">
        <time>2026-08-24T22:08:09Z</time>
      </trkpt>
      <trkpt lat="23.060352" lon="113.282446">
        <time>2026-08-24T22:08:14Z</time>
      </trkpt>
      <trkpt lat="23.060393" lon="113.282353">
        <time>2026-08-24T22:08:19Z</time>
      </trkpt>
      <trkpt lat="23.060433" lon="113.28226">
        <time>2026-08-24T22:08:24Z</time>
      </trkpt>
      <trkpt lat="23.06049" lon="113.282116">
        <time>2026-08-24T22:08:29Z</time>
      </trkpt>
      <trkpt lat="23.060555" lon="113.28197">
        <time>2026-08-24T22:08:34Z</time>
      </trkpt>
      <trkpt lat="23.060596" lon="113.28187">
        <time>2026-08-24T22:08:39Z</time>
      </trkpt>
      <trkpt lat="23.06064" lon="113.281772">
        <time>2026-08-24T22:08:44Z</time>
      </trkpt>
      <trkpt lat="23.060696" lon="113.281629">
        <time>2026-08-24T22:08:49Z</time>
      </trkpt>
      <trkpt lat="23.060752" lon="113.281482">
        <time>2026-08-24T22:08:54Z</time>
      </trkpt>
      <trkpt lat="23.060796" lon="113.281379">
        <time>2026-08-24T22:08:59Z</time>
      </trkpt>
      <trkpt lat="23.060843" lon="113.281273">
        <time>2026-08-24T22:09:04Z</time>
      </trkpt>
      <trkpt lat="23.060904" lon="113.281119">
        <time>2026-08-24T22:09:09Z</time>
      </trkpt>
      <trkpt lat="23.060965" lon="113.280968">
        <time>2026-08-24T22:09:14Z</time>
      </trkpt>
      <trkpt lat="23.061006" lon="113.280866">
        <time>2026-08-24T22:09:19Z</time>
      </trkpt>
      <trkpt lat="23.061056" lon="113.280762">
        <time>2026-08-24T22:09:24Z</time>
      </trkpt>
      <trkpt lat="23.061137" lon="113.280605">
        <time>2026-08-24T22:09:29Z</time>
      </trkpt>
      <trkpt lat="23.061212" lon="113.280451">
        <time>2026-08-24T22:09:34Z</time>
      </trkpt>
      <trkpt lat="23.061254" lon="113.280351">
        <time>2026-08-24T22:09:39Z</time>
      </trkpt>
      <trkpt lat="23.061293" lon="113.280249">
        <time>2026-08-24T22:09:44Z</time>
      </trkpt>
      <trkpt lat="23.061367" lon="113.280109">
        <time>2026-08-24T22:09:49Z</time>
      </trkpt>
      <trkpt lat="23.06143" lon="113.279959">
        <time>2026-08-24T22:09:54Z</time>
      </trkpt>
      <trkpt lat="23.061469" lon="113.279856">
        <time>2026-08-24T22:09:59Z</time>
      </trkpt>
      <trkpt lat="23.061507" lon="113.279754">
        <time>2026-08-24T22:10:04Z</time>
      </trkpt>
      <trkpt lat="23.061568" lon="113.279606">
        <time>2026-08-24T22:10:09Z</time>
      </trkpt>
      <trkpt lat="23.061629" lon="113.279452">
        <time>2026-08-24T22:10:14Z</time>
      </trkpt>
      <trkpt lat="23.061671" lon="113.279345">
        <time>2026-08-24T22:10:19Z</time>
      </trkpt>
      <trkpt lat="23.061713" lon="113.279239">
        <time>2026-08-24T22:10:24Z</time>
      </trkpt>
      <trkpt lat="23.061785" lon="113.279093">
        <time>2026-08-24T22:10:29Z</time>
      </trkpt>
      <trkpt lat="23.061869" lon="113.278958">
        <time>2026-08-24T22:10:34Z</time>
      </trkpt>
      <trkpt lat="23.061928" lon="113.27886">
        <time>2026-08-24T22:10:39Z</time>
      </trkpt>
      <trkpt lat="23.061972" lon="113.278751">
        <time>2026-08-24T22:10:44Z</time>
      </trkpt>
      <trkpt lat="23.061985" lon="113.278575">
        <time>2026-08-24T22:10:49Z</time>
      </trkpt>
      <trkpt lat="23.061972" lon="113.278398">
        <time>2026-08-24T22:10:54Z</time>
      </trkpt>
      <trkpt lat="23.061966" lon="113.278278">
        <time>2026-08-24T22:10:59Z</time>
      </trkpt>
      <trkpt lat="23.06196" lon="113.278158">
        <time>2026-08-24T22:11:04Z</time>
      </trkpt>
      <trkpt lat="23.061955" lon="113.277971">
        <time>2026-08-24T22:11:09Z</time>
      </trkpt>
      <trkpt lat="23.061956" lon="113.277789">
        <time>2026-08-24T22:11:14Z</time>
      </trkpt>
      <trkpt lat="23.061975" lon="113.277673">
        <time>2026-08-24T22:11:19Z</time>
      </trkpt>
      <trkpt lat="23.062011" lon="113.277563">
        <time>2026-08-24T22:11:24Z</time>
      </trkpt>
      <trkpt lat="23.06207" lon="113.277399">
        <time>2026-08-24T22:11:29Z</time>
      </trkpt>
      <trkpt lat="23.062128" lon="113.27723">
        <time>2026-08-24T22:11:34Z</time>
      </trkpt>
      <trkpt lat="23.062161" lon="113.277114">
        <time>2026-08-24T22:11:39Z</time>
      </trkpt>
      <trkpt lat="23.062205" lon="113.277013">
        <time>2026-08-24T22:11:44Z</time>
      </trkpt>
      <trkpt lat="23.062268" lon="113.276865">
        <time>2026-08-24T22:11:49Z</time>
      </trkpt>
      <trkpt lat="23.062327" lon="113.276715">
        <time>2026-08-24T22:11:54Z</time>
      </trkpt>
      <trkpt lat="23.062368" lon="113.276613">
        <time>2026-08-24T22:11:59Z</time>
      </trkpt>
      <trkpt lat="23.062408" lon="113.27651">
        <time>2026-08-24T22:12:04Z</time>
      </trkpt>
      <trkpt lat="23.062463" lon="113.276355">
        <time>2026-08-24T22:12:09Z</time>
      </trkpt>
      <trkpt lat="23.062526" lon="113.276195">
        <time>2026-08-24T22:12:14Z</time>
      </trkpt>
      <trkpt lat="23.062582" lon="113.276094">
        <time>2026-08-24T22:12:19Z</time>
      </trkpt>
      <trkpt lat="23.062639" lon="113.275996">
        <time>2026-08-24T22:12:24Z</time>
      </trkpt>
      <trkpt lat="23.062739" lon="113.275862">
        <time>2026-08-24T22:12:29Z</time>
      </trkpt>
      <trkpt lat="23.062851" lon="113.275745">
        <time>2026-08-24T22:12:34Z</time>
      </trkpt>
      <trkpt lat="23.062931" lon="113.275671">
        <time>2026-08-24T22:12:39Z</time>
      </trkpt>
      <trkpt lat="23.063004" lon="113.27559">
        <time>2026-08-24T22:12:44Z</time>
      </trkpt>
      <trkpt lat="23.063102" lon="113.275453">
        <time>2026-08-24T22:12:49Z</time>
      </trkpt>
      <trkpt lat="23.063186" lon="113.275308">
        <time>2026-08-24T22:12:54Z</time>
      </trkpt>
      <trkpt lat="23.063246" lon="113.275207">
        <time>2026-08-24T22:12:59Z</time>
      </trkpt>
      <trkpt lat="23.063317" lon="113.275106">
        <time>2026-08-24T22:13:04Z</time>
      </trkpt>
      <trkpt lat="23.063406" lon="113.274968">
        <time>2026-08-24T22:13:09Z</time>
      </trkpt>
      <trkpt lat="23.063458" lon="113.274822">
        <time>2026-08-24T22:13:14Z</time>
      </trkpt>
      <trkpt lat="23.063484" lon="113.274724">
        <time>2026-08-24T22:13:19Z</time>
      </trkpt>
      <trkpt lat="23.063515" lon="113.274622">
        <time>2026-08-24T22:13:24Z</time>
      </trkpt>
      <trkpt lat="23.063548" lon="113.274471">
        <time>2026-08-24T22:13:29Z</time>
      </trkpt>
      <trkpt lat="23.063614" lon="113.274337">
        <time>2026-08-24T22:13:34Z</time>
      </trkpt>
      <trkpt lat="23.063682" lon="113.274258">
        <time>2026-08-24T22:13:39Z</time>
      </trkpt>
      <trkpt lat="23.063756" lon="113.274183">
        <time>2026-08-24T22:13:44Z</time>
      </trkpt>
      <trkpt lat="23.063854" lon="113.274067">
        <time>2026-08-24T22:13:49Z</time>
      </trkpt>
      <trkpt lat="23.063927" lon="113.273945">
        <time>2026-08-24T22:13:54Z</time>
      </trkpt>
      <trkpt lat="23.063972" lon="113.273859">
        <time>2026-08-24T22:13:59Z</time>
      </trkpt>
      <trkpt lat="23.064026" lon="113.273775">
        <time>2026-08-24T22:14:04Z</time>
      </trkpt>
      <trkpt lat="23.06413" lon="113.27367">
        <time>2026-08-24T22:14:09Z</time>
      </trkpt>
      <trkpt lat="23.064247" lon="113.273579">
        <time>2026-08-24T22:14:14Z</time>
      </trkpt>
      <trkpt lat="23.064322" lon="113.273518">
        <time>2026-08-24T22:14:19Z</time>
      </trkpt>
      <trkpt lat="23.064399" lon="113.273454">
        <time>2026-08-24T22:14:24Z</time>
      </trkpt>
      <trkpt lat="23.064509" lon="113.273344">
        <time>2026-08-24T22:14:29Z</time>
      </trkpt>
      <trkpt lat="23.064578" lon="113.273203">
        <time>2026-08-24T22:14:34Z</time>
      </trkpt>
      <trkpt lat="23.064579" lon="113.273097">
        <time>2026-08-24T22:14:39Z</time>
      </trkpt>
      <trkpt lat="23.064552" lon="113.272992">
        <time>2026-08-24T22:14:44Z</time>
      </trkpt>
      <trkpt lat="23.0645" lon="113.272833">
        <time>2026-08-24T22:14:49Z</time>
      </trkpt>
      <trkpt lat="23.064453" lon="113.272678">
        <time>2026-08-24T22:14:54Z</time>
      </trkpt>
      <trkpt lat="23.06445" lon="113.272572">
        <time>2026-08-24T22:14:59Z</time>
      </trkpt>
      <trkpt lat="23.064487" lon="113.272473">
        <time>2026-08-24T22:15:04Z</time>
      </trkpt>
      <trkpt lat="23.064537" lon="113.2723">
        <time>2026-08-24T22:15:09Z</time>
      </trkpt>
      <trkpt lat="23.064586" lon="113.272142">
        <time>2026-08-24T22:15:14Z</time>
      </trkpt>
      <trkpt lat="23.064632" lon="113.272052">
        <time>2026-08-24T22:15:19Z</time>
      </trkpt>
      <trkpt lat="23.064676" lon="113.271964">
        <time>2026-08-24T22:15:24Z</time>
      </trkpt>
      <trkpt lat="23.064734" lon="113.27182">
        <time>2026-08-24T22:15:29Z</time>
      </trkpt>
      <trkpt lat="23.0648" lon="113.271678">
        <time>2026-08-24T22:15:34Z</time>
      </trkpt>
      <trkpt lat="23.064848" lon="113.271581">
        <time>2026-08-24T22:15:39Z</time>
      </trkpt>
      <trkpt lat="23.064895" lon="113.271483">
        <time>2026-08-24T22:15:44Z</time>
      </trkpt>
      <trkpt lat="23.06497" lon="113.271338">
        <time>2026-08-24T22:15:49Z</time>
      </trkpt>
      <trkpt lat="23.065046" lon="113.271186">
        <time>2026-08-24T22:15:54Z</time>
      </trkpt>
      <trkpt lat="23.06511" lon="113.271091">
        <time>2026-08-24T22:15:59Z</time>
      </trkpt>
      <trkpt lat="23.065161" lon="113.270985">
        <time>2026-08-24T22:16:04Z</time>
      </trkpt>
      <trkpt lat="23.065214" lon="113.270823">
        <time>2026-08-24T22:16:09Z</time>
      </trkpt>
      <trkpt lat="23.06528" lon="113.27068">
        <time>2026-08-24T22:16:14Z</time>
      </trkpt>
      <trkpt lat="23.065322" lon="113.270587">
        <time>2026-08-24T22:16:19Z</time>
      </trkpt>
      <trkpt lat="23.065363" lon="113.270487">
        <time>2026-08-24T22:16:24Z</time>
      </trkpt>
      <trkpt lat="23.065427" lon="113.270344">
        <time>2026-08-24T22:16:29Z</time>
      </trkpt>
      <trkpt lat="23.065487" lon="113.2702">
        <time>2026-08-24T22:16:34Z</time>
      </trkpt>
      <trkpt lat="23.065522" lon="113.2701">
        <time>2026-08-24T22:16:39Z</time>
      </trkpt>
      <trkpt lat="23.065557" lon="113.269999">
        <time>2026-08-24T22:16:44Z</time>
      </trkpt>
      <trkpt lat="23.065604" lon="113.269846">
        <time>2026-08-24T22:16:49Z</time>
      </trkpt>
      <trkpt lat="23.065653" lon="113.269682">
        <time>2026-08-24T22:16:54Z</time>
      </trkpt>
      <trkpt lat="23.065697" lon="113.269577">
        <time>2026-08-24T22:16:59Z</time>
      </trkpt>
      <trkpt lat="23.06573" lon="113.269463">
        <time>2026-08-24T22:17:04Z</time>
      </trkpt>
      <trkpt lat="23.065765" lon="113.269287">
        <time>2026-08-24T22:17:09Z</time>
      </trkpt>
      <trkpt lat="23.065805" lon="113.269118">
        <time>2026-08-24T22:17:14Z</time>
      </trkpt>
      <trkpt lat="23.065845" lon="113.26901">
        <time>2026-08-24T22:17:19Z</time>
      </trkpt>
      <trkpt lat="23.065895" lon="113.268904">
        <time>2026-08-24T22:17:24Z</time>
      </trkpt>
      <trkpt lat="23.065967" lon="113.268751">
        <time>2026-08-24T22:17:29Z</time>
      </trkpt>
      <trkpt lat="23.066044" lon="113.2686">
        <time>2026-08-24T22:17:34Z</time>
      </trkpt>
      <trkpt lat="23.066101" lon="113.268507">
        <time>2026-08-24T22:17:39Z</time>
      </trkpt>
      <trkpt lat="23.066161" lon="113.268416">
        <time>2026-08-24T22:17:44Z</time>
      </trkpt>
      <trkpt lat="23.066253" lon="113.268284">
        <time>2026-08-24T22:17:49Z</time>
      </trkpt>
      <trkpt lat="23.066368" lon="113.268168">
        <time>2026-08-24T22:17:54Z</time>
      </trkpt>
      <trkpt lat="23.066465" lon="113.268127">
        <time>2026-08-24T22:17:59Z</time>
      </trkpt>
      <trkpt lat="23.066568" lon="113.268133">
        <time>2026-08-24T22:18:04Z</time>
      </trkpt>
      <trkpt lat="23.066722" lon="113.268169">
        <time>2026-08-24T22:18:09Z</time>
      </trkpt>
      <trkpt lat="23.066748" lon="113.268089">
        <time>2026-08-24T22:18:14Z</time>
      </trkpt>
      <trkpt lat="23.066641" lon="113.268039">
        <time>2026-08-24T22:18:19Z</time>
      </trkpt>
      <trkpt lat="23.066531" lon="113.267999">
        <time>2026-08-24T22:18:24Z</time>
      </trkpt>
      <trkpt lat="23.066377" lon="113.267961">
        <time>2026-08-24T22:18:29Z</time>
      </trkpt>
      <trkpt lat="23.066236" lon="113.267998">
        <time>2026-08-24T22:18:34Z</time>
      </trkpt>
      <trkpt lat="23.066154" lon="113.268067">
        <time>2026-08-24T22:18:39Z</time>
      </trkpt>
      <trkpt lat="23.066081" lon="113.268147">
        <time>2026-08-24T22:18:44Z</time>
      </trkpt>
      <trkpt lat="23.065984" lon="113.268264">
        <time>2026-08-24T22:18:49Z</time>
      </trkpt>
      <trkpt lat="23.06589" lon="113.268386">
        <time>2026-08-24T22:18:54Z</time>
      </trkpt>
      <trkpt lat="23.065829" lon="113.268475">
        <time>2026-08-24T22:18:59Z</time>
      </trkpt>
      <trkpt lat="23.065776" lon="113.268569">
        <time>2026-08-24T22:19:04Z</time>
      </trkpt>
      <trkpt lat="23.065709" lon="113.268713">
        <time>2026-08-24T22:19:09Z</time>
      </trkpt>
      <trkpt lat="23.065649" lon="113.268864">
        <time>2026-08-24T22:19:14Z</time>
      </trkpt>
      <trkpt lat="23.065613" lon="113.268963">
        <time>2026-08-24T22:19:19Z</time>
      </trkpt>
      <trkpt lat="23.065587" lon="113.269065">
        <time>2026-08-24T22:19:24Z</time>
      </trkpt>
      <trkpt lat="23.065553" lon="113.269219">
        <time>2026-08-24T22:19:29Z</time>
      </trkpt>
      <trkpt lat="23.065517" lon="113.269373">
        <time>2026-08-24T22:19:34Z</time>
      </trkpt>
      <trkpt lat="23.065495" lon="113.269478">
        <time>2026-08-24T22:19:39Z</time>
      </trkpt>
      <trkpt lat="23.06547" lon="113.269582">
        <time>2026-08-24T22:19:44Z</time>
      </trkpt>
      <trkpt lat="23.065433" lon="113.269733">
        <time>2026-08-24T22:19:49Z</time>
      </trkpt>
      <trkpt lat="23.065382" lon="113.269877">
        <time>2026-08-24T22:19:54Z</time>
      </trkpt>
      <trkpt lat="23.065351" lon="113.269979">
        <time>2026-08-24T22:19:59Z</time>
      </trkpt>
      <trkpt lat="23.065317" lon="113.270083">
        <time>2026-08-24T22:20:04Z</time>
      </trkpt>
      <trkpt lat="23.065252" lon="113.270232">
        <time>2026-08-24T22:20:09Z</time>
      </trkpt>
      <trkpt lat="23.065181" lon="113.270379">
        <time>2026-08-24T22:20:14Z</time>
      </trkpt>
      <trkpt lat="23.065133" lon="113.270479">
        <time>2026-08-24T22:20:19Z</time>
      </trkpt>
      <trkpt lat="23.065088" lon="113.270579">
        <time>2026-08-24T22:20:24Z</time>
      </trkpt>
      <trkpt lat="23.065022" lon="113.270727">
        <time>2026-08-24T22:20:29Z</time>
      </trkpt>
      <trkpt lat="23.064949" lon="113.270871">
        <time>2026-08-24T22:20:34Z</time>
      </trkpt>
      <trkpt lat="23.064904" lon="113.270967">
        <time>2026-08-24T22:20:39Z</time>
      </trkpt>
      <trkpt lat="23.064866" lon="113.271065">
        <time>2026-08-24T22:20:44Z</time>
      </trkpt>
      <trkpt lat="23.064797" lon="113.27121">
        <time>2026-08-24T22:20:49Z</time>
      </trkpt>
      <trkpt lat="23.06472" lon="113.271352">
        <time>2026-08-24T22:20:54Z</time>
      </trkpt>
      <trkpt lat="23.064677" lon="113.271447">
        <time>2026-08-24T22:20:59Z</time>
      </trkpt>
      <trkpt lat="23.064635" lon="113.271545">
        <time>2026-08-24T22:21:04Z</time>
      </trkpt>
      <trkpt lat="23.064566" lon="113.271698">
        <time>2026-08-24T22:21:09Z</time>
      </trkpt>
      <trkpt lat="23.064501" lon="113.271851">
        <time>2026-08-24T22:21:14Z</time>
      </trkpt>
      <trkpt lat="23.064455" lon="113.271958">
        <time>2026-08-24T22:21:19Z</time>
      </trkpt>
      <trkpt lat="23.06441" lon="113.272072">
        <time>2026-08-24T22:21:24Z</time>
      </trkpt>
      <trkpt lat="23.064353" lon="113.272248">
        <time>2026-08-24T22:21:29Z</time>
      </trkpt>
      <trkpt lat="23.064343" lon="113.272422">
        <time>2026-08-24T22:21:34Z</time>
      </trkpt>
      <trkpt lat="23.064343" lon="113.272535">
        <time>2026-08-24T22:21:39Z</time>
      </trkpt>
      <trkpt lat="23.064351" lon="113.272651">
        <time>2026-08-24T22:21:44Z</time>
      </trkpt>
      <trkpt lat="23.064398" lon="113.27282">
        <time>2026-08-24T22:21:49Z</time>
      </trkpt>
      <trkpt lat="23.064454" lon="113.27298">
        <time>2026-08-24T22:21:54Z</time>
      </trkpt>
      <trkpt lat="23.064485" lon="113.273087">
        <time>2026-08-24T22:21:59Z</time>
      </trkpt>
      <trkpt lat="23.064483" lon="113.273194">
        <time>2026-08-24T22:22:04Z</time>
      </trkpt>
      <trkpt lat="23.064403" lon="113.273329">
        <time>2026-08-24T22:22:09Z</time>
      </trkpt>
      <trkpt lat="23.064268" lon="113.273422">
        <time>2026-08-24T22:22:14Z</time>
      </trkpt>
      <trkpt lat="23.064179" lon="113.273482">
        <time>2026-08-24T22:22:19Z</time>
      </trkpt>
      <trkpt lat="23.064096" lon="113.273546">
        <time>2026-08-24T22:22:24Z</time>
      </trkpt>
      <trkpt lat="23.063971" lon="113.273653">
        <time>2026-08-24T22:22:29Z</time>
      </trkpt>
      <trkpt lat="23.063868" lon="113.273778">
        <time>2026-08-24T22:22:34Z</time>
      </trkpt>
      <trkpt lat="23.063813" lon="113.273873">
        <time>2026-08-24T22:22:39Z</time>
      </trkpt>
      <trkpt lat="23.06376" lon="113.273968">
        <time>2026-08-24T22:22:44Z</time>
      </trkpt>
      <trkpt lat="23.063677" lon="113.274093">
        <time>2026-08-24T22:22:49Z</time>
      </trkpt>
      <trkpt lat="23.063559" lon="113.27419">
        <time>2026-08-24T22:22:54Z</time>
      </trkpt>
      <trkpt lat="23.063493" lon="113.27428">
        <time>2026-08-24T22:22:59Z</time>
      </trkpt>
      <trkpt lat="23.063453" lon="113.274383">
        <time>2026-08-24T22:23:04Z</time>
      </trkpt>
      <trkpt lat="23.063408" lon="113.274551">
        <time>2026-08-24T22:23:09Z</time>
      </trkpt>
      <trkpt lat="23.063357" lon="113.274713">
        <time>2026-08-24T22:23:14Z</time>
      </trkpt>
      <trkpt lat="23.06332" lon="113.274818">
        <time>2026-08-24T22:23:19Z</time>
      </trkpt>
      <trkpt lat="23.063287" lon="113.274927">
        <time>2026-08-24T22:23:24Z</time>
      </trkpt>
      <trkpt lat="23.063221" lon="113.275082">
        <time>2026-08-24T22:23:29Z</time>
      </trkpt>
      <trkpt lat="23.063142" lon="113.275225">
        <time>2026-08-24T22:23:34Z</time>
      </trkpt>
      <trkpt lat="23.063089" lon="113.275318">
        <time>2026-08-24T22:23:39Z</time>
      </trkpt>
      <trkpt lat="23.063036" lon="113.275408">
        <time>2026-08-24T22:23:44Z</time>
      </trkpt>
      <trkpt lat="23.062943" lon="113.275545">
        <time>2026-08-24T22:23:49Z</time>
      </trkpt>
      <trkpt lat="23.062829" lon="113.275671">
        <time>2026-08-24T22:23:54Z</time>
      </trkpt>
      <trkpt lat="23.062747" lon="113.275746">
        <time>2026-08-24T22:23:59Z</time>
      </trkpt>
      <trkpt lat="23.062667" lon="113.275825">
        <time>2026-08-24T22:24:04Z</time>
      </trkpt>
      <trkpt lat="23.062561" lon="113.275951">
        <time>2026-08-24T22:24:09Z</time>
      </trkpt>
      <trkpt lat="23.062481" lon="113.27609">
        <time>2026-08-24T22:24:14Z</time>
      </trkpt>
      <trkpt lat="23.062434" lon="113.276184">
        <time>2026-08-24T22:24:19Z</time>
      </trkpt>
      <trkpt lat="23.062393" lon="113.276283">
        <time>2026-08-24T22:24:24Z</time>
      </trkpt>
      <trkpt lat="23.062341" lon="113.27643">
        <time>2026-08-24T22:24:29Z</time>
      </trkpt>
      <trkpt lat="23.062285" lon="113.27658">
        <time>2026-08-24T22:24:34Z</time>
      </trkpt>
      <trkpt lat="23.06225" lon="113.276676">
        <time>2026-08-24T22:24:39Z</time>
      </trkpt>
      <trkpt lat="23.062212" lon="113.276772">
        <time>2026-08-24T22:24:44Z</time>
      </trkpt>
      <trkpt lat="23.062162" lon="113.276916">
        <time>2026-08-24T22:24:49Z</time>
      </trkpt>
      <trkpt lat="23.062111" lon="113.277064">
        <time>2026-08-24T22:24:54Z</time>
      </trkpt>
      <trkpt lat="23.062074" lon="113.277169">
        <time>2026-08-24T22:24:59Z</time>
      </trkpt>
      <trkpt lat="23.062035" lon="113.277274">
        <time>2026-08-24T22:25:04Z</time>
      </trkpt>
      <trkpt lat="23.061976" lon="113.277425">
        <time>2026-08-24T22:25:09Z</time>
      </trkpt>
      <trkpt lat="23.061917" lon="113.277571">
        <time>2026-08-24T22:25:14Z</time>
      </trkpt>
      <trkpt lat="23.061873" lon="113.277671">
        <time>2026-08-24T22:25:19Z</time>
      </trkpt>
      <trkpt lat="23.06185" lon="113.277772">
        <time>2026-08-24T22:25:24Z</time>
      </trkpt>
      <trkpt lat="23.061839" lon="113.277927">
        <time>2026-08-24T22:25:29Z</time>
      </trkpt>
      <trkpt lat="23.061843" lon="113.278082">
        <time>2026-08-24T22:25:34Z</time>
      </trkpt>
      <trkpt lat="23.061852" lon="113.278181">
        <time>2026-08-24T22:25:39Z</time>
      </trkpt>
      <trkpt lat="23.061853" lon="113.278277">
        <time>2026-08-24T22:25:44Z</time>
      </trkpt>
      <trkpt lat="23.061866" lon="113.278427">
        <time>2026-08-24T22:25:49Z</time>
      </trkpt>
      <trkpt lat="23.061865" lon="113.278583">
        <time>2026-08-24T22:25:54Z</time>
      </trkpt>
      <trkpt lat="23.061846" lon="113.27869">
        <time>2026-08-24T22:25:59Z</time>
      </trkpt>
      <trkpt lat="23.0618" lon="113.278749">
        <time>2026-08-24T22:26:04Z</time>
      </trkpt>
      <trkpt lat="23.06172" lon="113.278846">
        <time>2026-08-24T22:26:09Z</time>
      </trkpt>
      <trkpt lat="23.06167" lon="113.278991">
        <time>2026-08-24T22:26:14Z</time>
      </trkpt>
      <trkpt lat="23.061636" lon="113.279085">
        <time>2026-08-24T22:26:19Z</time>
      </trkpt>
      <trkpt lat="23.0616" lon="113.279179">
        <time>2026-08-24T22:26:24Z</time>
      </trkpt>
      <trkpt lat="23.06154" lon="113.279317">
        <time>2026-08-24T22:26:29Z</time>
      </trkpt>
      <trkpt lat="23.061481" lon="113.279461">
        <time>2026-08-24T22:26:34Z</time>
      </trkpt>
      <trkpt lat="23.061441" lon="113.279555">
        <time>2026-08-24T22:26:39Z</time>
      </trkpt>
      <trkpt lat="23.061397" lon="113.279649">
        <time>2026-08-24T22:26:44Z</time>
      </trkpt>
      <trkpt lat="23.061331" lon="113.27979">
        <time>2026-08-24T22:26:49Z</time>
      </trkpt>
      <trkpt lat="23.061269" lon="113.27994">
        <time>2026-08-24T22:26:54Z</time>
      </trkpt>
      <trkpt lat="23.061226" lon="113.280043">
        <time>2026-08-24T22:26:59Z</time>
      </trkpt>
      <trkpt lat="23.061182" lon="113.28015">
        <time>2026-08-24T22:27:04Z</time>
      </trkpt>
      <trkpt lat="23.061117" lon="113.280306">
        <time>2026-08-24T22:27:09Z</time>
      </trkpt>
      <trkpt lat="23.061054" lon="113.280455">
        <time>2026-08-24T22:27:14Z</time>
      </trkpt>
      <trkpt lat="23.061003" lon="113.280551">
        <time>2026-08-24T22:27:19Z</time>
      </trkpt>
      <trkpt lat="23.060957" lon="113.280644">
        <time>2026-08-24T22:27:24Z</time>
      </trkpt>
      <trkpt lat="23.060897" lon="113.280796">
        <time>2026-08-24T22:27:29Z</time>
      </trkpt>
      <trkpt lat="23.060843" lon="113.280941">
        <time>2026-08-24T22:27:34Z</time>
      </trkpt>
      <trkpt lat="23.060805" lon="113.281033">
        <time>2026-08-24T22:27:39Z</time>
      </trkpt>
      <trkpt lat="23.060766" lon="113.281123">
        <time>2026-08-24T22:27:44Z</time>
      </trkpt>
      <trkpt lat="23.060708" lon="113.28126">
        <time>2026-08-24T22:27:49Z</time>
      </trkpt>
      <trkpt lat="23.06065" lon="113.281399">
        <time>2026-08-24T22:27:54Z</time>
      </trkpt>
      <trkpt lat="23.060609" lon="113.281493">
        <time>2026-08-24T22:27:59Z</time>
      </trkpt>
      <trkpt lat="23.06057" lon="113.281585">
        <time>2026-08-24T22:28:04Z</time>
      </trkpt>
      <trkpt lat="23.06051" lon="113.281721">
        <time>2026-08-24T22:28:09Z</time>
      </trkpt>
      <trkpt lat="23.06044" lon="113.281861">
        <time>2026-08-24T22:28:14Z</time>
      </trkpt>
      <trkpt lat="23.060395" lon="113.281957">
        <time>2026-08-24T22:28:19Z</time>
      </trkpt>
      <trkpt lat="23.060355" lon="113.282055">
        <time>2026-08-24T22:28:24Z</time>
      </trkpt>
      <trkpt lat="23.0603" lon="113.282205">
        <time>2026-08-24T22:28:29Z</time>
      </trkpt>
      <trkpt lat="23.060245" lon="113.282344">
        <time>2026-08-24T22:28:34Z</time>
      </trkpt>
      <trkpt lat="23.060207" lon="113.282432">
        <time>2026-08-24T22:28:39Z</time>
      </trkpt>
      <trkpt lat="23.060159" lon="113.282524">
        <time>2026-08-24T22:28:44Z</time>
      </trkpt>
      <trkpt lat="23.060088" lon="113.282665">
        <time>2026-08-24T22:28:49Z</time>
      </trkpt>
      <trkpt lat="23.060038" lon="113.282808">
        <time>2026-08-24T22:28:54Z</time>
      </trkpt>
      <trkpt lat="23.060004" lon="113.282912">
        <time>2026-08-24T22:28:59Z</time>
      </trkpt>
      <trkpt lat="23.059959" lon="113.283015">
        <time>2026-08-24T22:29:04Z</time>
      </trkpt>
      <trkpt lat="23.05989" lon="113.283165">
        <time>2026-08-24T22:29:09Z</time>
      </trkpt>
      <trkpt lat="23.05982" lon="113.283312">
        <time>2026-08-24T22:29:14Z</time>
      </trkpt>
      <trkpt lat="23.05977" lon="113.283407">
        <time>2026-08-24T22:29:19Z</time>
      </trkpt>
      <trkpt lat="23.05973" lon="113.283501">
        <time>2026-08-24T22:29:24Z</time>
      </trkpt>
      <trkpt lat="23.059668" lon="113.28364">
        <time>2026-08-24T22:29:29Z</time>
      </trkpt>
      <trkpt lat="23.059696" lon="113.283753">
        <time>2026-08-24T22:29:34Z</time>
      </trkpt>
      <trkpt lat="23.059779" lon="113.283712">
        <time>2026-08-24T22:29:39Z</time>
      </trkpt>
      <trkpt lat="23.059835" lon="113.283612">
        <time>2026-08-24T22:29:44Z</time>
      </trkpt>
      <trkpt lat="23.059898" lon="113.283461">
        <time>2026-08-24T22:29:49Z</time>
      </trkpt>
      <trkpt lat="23.059971" lon="113.283318">
        <time>2026-08-24T22:29:54Z</time>
      </trkpt>
      <trkpt lat="23.060028" lon="113.283233">
        <time>2026-08-24T22:29:59Z</time>
      </trkpt>
      <trkpt lat="23.060082" lon="113.283137">
        <time>2026-08-24T22:30:04Z</time>
      </trkpt>
      <trkpt lat="23.060153" lon="113.282988">
        <time>2026-08-24T22:30:09Z</time>
      </trkpt>
      <trkpt lat="23.060212" lon="113.282839">
        <time>2026-08-24T22:30:14Z</time>
      </trkpt>
      <trkpt lat="23.060254" lon="113.282741">
        <time>2026-08-24T22:30:19Z</time>
      </trkpt>
      <trkpt lat="23.060293" lon="113.282645">
        <time>2026-08-24T22:30:24Z</time>
      </trkpt>
      <trkpt lat="23.06033" lon="113.282504">
        <time>2026-08-24T22:30:29Z</time>
      </trkpt>
      <trkpt lat="23.060371" lon="113.282355">
        <time>2026-08-24T22:30:34Z</time>
      </trkpt>
      <trkpt lat="23.060412" lon="113.282259">
        <time>2026-08-24T22:30:39Z</time>
      </trkpt>
      <trkpt lat="23.060456" lon="113.28217">
        <time>2026-08-24T22:30:44Z</time>
      </trkpt>
      <trkpt lat="23.060519" lon="113.282031">
        <time>2026-08-24T22:30:49Z</time>
      </trkpt>
      <trkpt lat="23.060581" lon="113.281895">
        <time>2026-08-24T22:30:54Z</time>
      </trkpt>
      <trkpt lat="23.060626" lon="113.281804">
        <time>2026-08-24T22:30:59Z</time>
      </trkpt>
      <trkpt lat="23.060669" lon="113.281709">
        <time>2026-08-24T22:31:04Z</time>
      </trkpt>
      <trkpt lat="23.060726" lon="113.281567">
        <time>2026-08-24T22:31:09Z</time>
      </trkpt>
      <trkpt lat="23.060787" lon="113.281425">
        <time>2026-08-24T22:31:14Z</time>
      </trkpt>
      <trkpt lat="23.060828" lon="113.281327">
        <time>2026-08-24T22:31:19Z</time>
      </trkpt>
      <trkpt lat="23.060866" lon="113.281229">
        <time>2026-08-24T22:31:24Z</time>
      </trkpt>
      <trkpt lat="23.060928" lon="113.281088">
        <time>2026-08-24T22:31:29Z</time>
      </trkpt>
      <trkpt lat="23.060985" lon="113.280938">
        <time>2026-08-24T22:31:34Z</time>
      </trkpt>
      <trkpt lat="23.061024" lon="113.280836">
        <time>2026-08-24T22:31:39Z</time>
      </trkpt>
      <trkpt lat="23.061068" lon="113.280732">
        <time>2026-08-24T22:31:44Z</time>
      </trkpt>
      <trkpt lat="23.061144" lon="113.280582">
        <time>2026-08-24T22:31:49Z</time>
      </trkpt>
      <trkpt lat="23.061218" lon="113.280438">
        <time>2026-08-24T22:31:54Z</time>
      </trkpt>
      <trkpt lat="23.061253" lon="113.280338">
        <time>2026-08-24T22:31:59Z</time>
      </trkpt>
      <trkpt lat="23.061291" lon="113.280238">
        <time>2026-08-24T22:32:04Z</time>
      </trkpt>
      <trkpt lat="23.061356" lon="113.2801">
        <time>2026-08-24T22:32:09Z</time>
      </trkpt>
      <trkpt lat="23.061416" lon="113.27996">
        <time>2026-08-24T22:32:14Z</time>
      </trkpt>
      <trkpt lat="23.06145" lon="113.279863">
        <time>2026-08-24T22:32:19Z</time>
      </trkpt>
      <trkpt lat="23.061481" lon="113.279765">
        <time>2026-08-24T22:32:24Z</time>
      </trkpt>
      <trkpt lat="23.061536" lon="113.279626">
        <time>2026-08-24T22:32:29Z</time>
      </trkpt>
      <trkpt lat="23.061592" lon="113.279488">
        <time>2026-08-24T22:32:34Z</time>
      </trkpt>
      <trkpt lat="23.061632" lon="113.279398">
        <time>2026-08-24T22:32:39Z</time>
      </trkpt>
      <trkpt lat="23.061672" lon="113.279306">
        <time>2026-08-24T22:32:44Z</time>
      </trkpt>
      <trkpt lat="23.061742" lon="113.279161">
        <time>2026-08-24T22:32:49Z</time>
      </trkpt>
      <trkpt lat="23.061836" lon="113.27902">
        <time>2026-08-24T22:32:54Z</time>
      </trkpt>
      <trkpt lat="23.061903" lon="113.278928">
        <time>2026-08-24T22:32:59Z</time>
      </trkpt>
      <trkpt lat="23.061954" lon="113.278822">
        <time>2026-08-24T22:33:04Z</time>
      </trkpt>
      <trkpt lat="23.06198" lon="113.278649">
        <time>2026-08-24T22:33:09Z</time>
      </trkpt>
      <trkpt lat="23.061967" lon="113.278474">
        <time>2026-08-24T22:33:14Z</time>
      </trkpt>
      <trkpt lat="23.061959" lon="113.278357">
        <time>2026-08-24T22:33:19Z</time>
      </trkpt>
      <trkpt lat="23.061953" lon="113.278241">
        <time>2026-08-24T22:33:24Z</time>
      </trkpt>
      <trkpt lat="23.061946" lon="113.278074">
        <time>2026-08-24T22:33:29Z</time>
      </trkpt>
      <trkpt lat="23.06194" lon="113.277912">
        <time>2026-08-24T22:33:34Z</time>
      </trkpt>
      <trkpt lat="23.061944" lon="113.277803">
        <time>2026-08-24T22:33:39Z</time>
      </trkpt>
      <trkpt lat="23.061967" lon="113.27769">
        <time>2026-08-24T22:33:44Z</time>
      </trkpt>
      <trkpt lat="23.062026" lon="113.277526">
        <time>2026-08-24T22:33:49Z</time>
      </trkpt>
      <trkpt lat="23.062085" lon="113.277373">
        <time>2026-08-24T22:33:54Z</time>
      </trkpt>
      <trkpt lat="23.062123" lon="113.277274">
        <time>2026-08-24T22:33:59Z</time>
      </trkpt>
      <trkpt lat="23.06216" lon="113.277171">
        <time>2026-08-24T22:34:04Z</time>
      </trkpt>
      <trkpt lat="23.062208" lon="113.277018">
        <time>2026-08-24T22:34:09Z</time>
      </trkpt>
      <trkpt lat="23.062264" lon="113.276868">
        <time>2026-08-24T22:34:14Z</time>
      </trkpt>
      <trkpt lat="23.062304" lon="113.27677">
        <time>2026-08-24T22:34:19Z</time>
      </trkpt>
      <trkpt lat="23.062343" lon="113.276671">
        <time>2026-08-24T22:34:24Z</time>
      </trkpt>
      <trkpt lat="23.062401" lon="113.276521">
        <time>2026-08-24T22:34:29Z</time>
      </trkpt>
      <trkpt lat="23.062454" lon="113.276373">
        <time>2026-08-24T22:34:34Z</time>
      </trkpt>
      <trkpt lat="23.062491" lon="113.276275">
        <time>2026-08-24T22:34:39Z</time>
      </trkpt>
      <trkpt lat="23.062538" lon="113.276177">
        <time>2026-08-24T22:34:44Z</time>
      </trkpt>
      <trkpt lat="23.062614" lon="113.276041">
        <time>2026-08-24T22:34:49Z</time>
      </trkpt>
      <trkpt lat="23.062702" lon="113.275914">
        <time>2026-08-24T22:34:54Z</time>
      </trkpt>
      <trkpt lat="23.06277" lon="113.275834">
        <time>2026-08-24T22:34:59Z</time>
      </trkpt>
      <trkpt lat="23.062843" lon="113.275761">
        <time>2026-08-24T22:35:04Z</time>
      </trkpt>
      <trkpt lat="23.062957" lon="113.275653">
        <time>2026-08-24T22:35:09Z</time>
      </trkpt>
      <trkpt lat="23.063061" lon="113.275533">
        <time>2026-08-24T22:35:14Z</time>
      </trkpt>
      <trkpt lat="23.063111" lon="113.275438">
        <time>2026-08-24T22:35:19Z</time>
      </trkpt>
      <trkpt lat="23.063162" lon="113.275338">
        <time>2026-08-24T22:35:24Z</time>
      </trkpt>
      <trkpt lat="23.063248" lon="113.275204">
        <time>2026-08-24T22:35:29Z</time>
      </trkpt>
      <trkpt lat="23.063333" lon="113.275081">
        <time>2026-08-24T22:35:34Z</time>
      </trkpt>
      <trkpt lat="23.063387" lon="113.274997">
        <time>2026-08-24T22:35:39Z</time>
      </trkpt>
      <trkpt lat="23.06342" lon="113.274903">
        <time>2026-08-24T22:35:44Z</time>
      </trkpt>
      <trkpt lat="23.063467" lon="113.274768">
        <time>2026-08-24T22:35:49Z</time>
      </trkpt>
      <trkpt lat="23.063516" lon="113.274635">
        <time>2026-08-24T22:35:54Z</time>
      </trkpt>
      <trkpt lat="23.063543" lon="113.274536">
        <time>2026-08-24T22:35:59Z</time>
      </trkpt>
      <trkpt lat="23.063579" lon="113.274437">
        <time>2026-08-24T22:36:04Z</time>
      </trkpt>
      <trkpt lat="23.063662" lon="113.274302">
        <time>2026-08-24T22:36:09Z</time>
      </trkpt>
      <trkpt lat="23.063774" lon="113.27419">
        <time>2026-08-24T22:36:14Z</time>
      </trkpt>
      <trkpt lat="23.063849" lon="113.274112">
        <time>2026-08-24T22:36:19Z</time>
      </trkpt>
      <trkpt lat="23.063909" lon="113.274022">
        <time>2026-08-24T22:36:24Z</time>
      </trkpt>
      <trkpt lat="23.063984" lon="113.273882">
        <time>2026-08-24T22:36:29Z</time>
      </trkpt>
      <trkpt lat="23.064065" lon="113.273753">
        <time>2026-08-24T22:36:34Z</time>
      </trkpt>
      <trkpt lat="23.064135" lon="113.273685">
        <time>2026-08-24T22:36:39Z</time>
      </trkpt>
      <trkpt lat="23.064203" lon="113.273626">
        <time>2026-08-24T22:36:44Z</time>
      </trkpt>
      <trkpt lat="23.064313" lon="113.273537">
        <time>2026-08-24T22:36:49Z</time>
      </trkpt>
      <trkpt lat="23.0644" lon="113.273465">
        <time>2026-08-24T22:36:54Z</time>
      </trkpt>
      <trkpt lat="23.064468" lon="113.273401">
        <time>2026-08-24T22:36:59Z</time>
      </trkpt>
      <trkpt lat="23.064535" lon="113.273324">
        <time>2026-08-24T22:37:04Z</time>
      </trkpt>
      <trkpt lat="23.064591" lon="113.273184">
        <time>2026-08-24T22:37:09Z</time>
      </trkpt>
      <trkpt lat="23.064576" lon="113.273031">
        <time>2026-08-24T22:37:14Z</time>
      </trkpt>
      <trkpt lat="23.064542" lon="113.272922">
        <time>2026-08-24T22:37:19Z</time>
      </trkpt>
      <trkpt lat="23.064507" lon="113.272817">
        <time>2026-08-24T22:37:24Z</time>
      </trkpt>
      <trkpt lat="23.064466" lon="113.272666">
        <time>2026-08-24T22:37:29Z</time>
      </trkpt>
      <trkpt lat="23.06448" lon="113.272523">
        <time>2026-08-24T22:37:34Z</time>
      </trkpt>
      <trkpt lat="23.064533" lon="113.272438">
        <time>2026-08-24T22:37:39Z</time>
      </trkpt>
      <trkpt lat="23.064564" lon="113.272335">
        <time>2026-08-24T22:37:44Z</time>
      </trkpt>
      <trkpt lat="23.064577" lon="113.272178">
        <time>2026-08-24T22:37:49Z</time>
      </trkpt>
      <trkpt lat="23.064643" lon="113.272037">
        <time>2026-08-24T22:37:54Z</time>
      </trkpt>
      <trkpt lat="23.064686" lon="113.271946">
        <time>2026-08-24T22:37:59Z</time>
      </trkpt>
      <trkpt lat="23.064725" lon="113.271853">
        <time>2026-08-24T22:38:04Z</time>
      </trkpt>
      <trkpt lat="23.064796" lon="113.271719">
        <time>2026-08-24T22:38:09Z</time>
      </trkpt>
      <trkpt lat="23.064866" lon="113.271575">
        <time>2026-08-24T22:38:14Z</time>
      </trkpt>
      <trkpt lat="23.064916" lon="113.271481">
        <time>2026-08-24T22:38:19Z</time>
      </trkpt>
      <trkpt lat="23.06496" lon="113.271384">
        <time>2026-08-24T22:38:24Z</time>
      </trkpt>
      <trkpt lat="23.065021" lon="113.27124">
        <time>2026-08-24T22:38:29Z</time>
      </trkpt>
      <trkpt lat="23.06509" lon="113.271104">
        <time>2026-08-24T22:38:34Z</time>
      </trkpt>
      <trkpt lat="23.065134" lon="113.271011">
        <time>2026-08-24T22:38:39Z</time>
      </trkpt>
      <trkpt lat="23.06517" lon="113.270911">
        <time>2026-08-24T22:38:44Z</time>
      </trkpt>
      <trkpt lat="23.065234" lon="113.270762">
        <time>2026-08-24T22:38:49Z</time>
      </trkpt>
      <trkpt lat="23.065298" lon="113.270624">
        <time>2026-08-24T22:38:54Z</time>
      </trkpt>
      <trkpt lat="23.06534" lon="113.270536">
        <time>2026-08-24T22:38:59Z</time>
      </trkpt>
      <trkpt lat="23.065381" lon="113.270447">
        <time>2026-08-24T22:39:04Z</time>
      </trkpt>
      <trkpt lat="23.065445" lon="113.270302">
        <time>2026-08-24T22:39:09Z</time>
      </trkpt>
      <trkpt lat="23.065507" lon="113.270159">
        <time>2026-08-24T22:39:14Z</time>
      </trkpt>
      <trkpt lat="23.065539" lon="113.270067">
        <time>2026-08-24T22:39:19Z</time>
      </trkpt>
      <trkpt lat="23.065571" lon="113.269976">
        <time>2026-08-24T22:39:24Z</time>
      </trkpt>
      <trkpt lat="23.065616" lon="113.269838">
        <time>2026-08-24T22:39:29Z</time>
      </trkpt>
      <trkpt lat="23.065661" lon="113.269691">
        <time>2026-08-24T22:39:34Z</time>
      </trkpt>
      <trkpt lat="23.065701" lon="113.269601">
        <time>2026-08-24T22:39:39Z</time>
      </trkpt>
      <trkpt lat="23.06574" lon="113.269509">
        <time>2026-08-24T22:39:44Z</time>
      </trkpt>
      <trkpt lat="23.06577" lon="113.269363">
        <time>2026-08-24T22:39:49Z</time>
      </trkpt>
      <trkpt lat="23.065803" lon="113.269219">
        <time>2026-08-24T22:39:54Z</time>
      </trkpt>
      <trkpt lat="23.065833" lon="113.269128">
        <time>2026-08-24T22:39:59Z</time>
      </trkpt>
      <trkpt lat="23.065863" lon="113.269037">
        <time>2026-08-24T22:40:04Z</time>
      </trkpt>
      <trkpt lat="23.065919" lon="113.268903">
        <time>2026-08-24T22:40:09Z</time>
      </trkpt>
      <trkpt lat="23.065975" lon="113.268772">
        <time>2026-08-24T22:40:14Z</time>
      </trkpt>
      <trkpt lat="23.066012" lon="113.268683">
        <time>2026-08-24T22:40:19Z</time>
      </trkpt>
      <trkpt lat="23.066059" lon="113.268602">
        <time>2026-08-24T22:40:24Z</time>
      </trkpt>
      <trkpt lat="23.06614" lon="113.268477">
        <time>2026-08-24T22:40:29Z</time>
      </trkpt>
      <trkpt lat="23.066218" lon="113.268348">
        <time>2026-08-24T22:40:34Z</time>
      </trkpt>
      <trkpt lat="23.066279" lon="113.26827">
        <time>2026-08-24T22:40:39Z</time>
      </trkpt>
      <trkpt lat="23.066349" lon="113.268199">
        <time>2026-08-24T22:40:44Z</time>
      </trkpt>
      <trkpt lat="23.066469" lon="113.268135">
        <time>2026-08-24T22:40:49Z</time>
      </trkpt>
      <trkpt lat="23.066607" lon="113.268139">
        <time>2026-08-24T22:40:54Z</time>
      </trkpt>
      <trkpt lat="23.066703" lon="113.268155">
        <time>2026-08-24T22:40:59Z</time>
      </trkpt>
      <trkpt lat="23.066796" lon="113.26816">
        <time>2026-08-24T22:41:04Z</time>
      </trkpt>
      <trkpt lat="23.066937" lon="113.268174">
        <time>2026-08-24T22:41:09Z</time>
      </trkpt>
      <trkpt lat="23.067074" lon="113.268213">
        <time>2026-08-24T22:41:14Z</time>
      </trkpt>
      <trkpt lat="23.067158" lon="113.268249">
        <time>2026-08-24T22:41:19Z</time>
      </trkpt>
      <trkpt lat="23.067234" lon="113.2683">
        <time>2026-08-24T22:41:24Z</time>
      </trkpt>
      <trkpt lat="23.067361" lon="113.268365">
        <time>2026-08-24T22:41:29Z</time>
      </trkpt>
      <trkpt lat="23.067487" lon="113.268415">
        <time>2026-08-24T22:41:34Z</time>
      </trkpt>
      <trkpt lat="23.067576" lon="113.268457">
        <time>2026-08-24T22:41:39Z</time>
      </trkpt>
      <trkpt lat="23.067664" lon="113.268504">
        <time>2026-08-24T22:41:44Z</time>
      </trkpt>
      <trkpt lat="23.067794" lon="113.268582">
        <time>2026-08-24T22:41:49Z</time>
      </trkpt>
      <trkpt lat="23.067928" lon="113.268656">
        <time>2026-08-24T22:41:54Z</time>
      </trkpt>
      <trkpt lat="23.068015" lon="113.268704">
        <time>2026-08-24T22:41:59Z</time>
      </trkpt>
      <trkpt lat="23.068096" lon="113.26875">
        <time>2026-08-24T22:42:04Z</time>
      </trkpt>
      <trkpt lat="23.06822" lon="113.268798">
        <time>2026-08-24T22:42:09Z</time>
      </trkpt>
      <trkpt lat="23.068349" lon="113.268872">
        <time>2026-08-24T22:42:14Z</time>
      </trkpt>
      <trkpt lat="23.068429" lon="113.268941">
        <time>2026-08-24T22:42:19Z</time>
      </trkpt>
      <trkpt lat="23.068512" lon="113.269003">
        <time>2026-08-24T22:42:24Z</time>
      </trkpt>
      <trkpt lat="23.068652" lon="113.269065">
        <time>2026-08-24T22:42:29Z</time>
      </trkpt>
      <trkpt lat="23.068784" lon="113.269127">
        <time>2026-08-24T22:42:34Z</time>
      </trkpt>
      <trkpt lat="23.068869" lon="113.269164">
        <time>2026-08-24T22:42:39Z</time>
      </trkpt>
      <trkpt lat="23.068959" lon="113.269204">
        <time>2026-08-24T22:42:44Z</time>
      </trkpt>
      <trkpt lat="23.06909" lon="113.269253">
        <time>2026-08-24T22:42:49Z</time>
      </trkpt>
      <trkpt lat="23.069205" lon="113.269328">
        <time>2026-08-24T22:42:54Z</time>
      </trkpt>
      <trkpt lat="23.069286" lon="113.26938">
        <time>2026-08-24T22:42:59Z</time>
      </trkpt>
      <trkpt lat="23.069371" lon="113.269422">
        <time>2026-08-24T22:43:04Z</time>
      </trkpt>
      <trkpt lat="23.069503" lon="113.269477">
        <time>2026-08-24T22:43:09Z</time>
      </trkpt>
      <trkpt lat="23.069638" lon="113.269537">
        <time>2026-08-24T22:43:14Z</time>
      </trkpt>
      <trkpt lat="23.069724" lon="113.269572">
        <time>2026-08-24T22:43:19Z</time>
      </trkpt>
      <trkpt lat="23.069809" lon="113.269604">
        <time>2026-08-24T22:43:24Z</time>
      </trkpt>
      <trkpt lat="23.069924" lon="113.269684">
        <time>2026-08-24T22:43:29Z</time>
      </trkpt>
      <trkpt lat="23.070053" lon="113.269776">
        <time>2026-08-24T22:43:34Z</time>
      </trkpt>
      <trkpt lat="23.070153" lon="113.269817">
        <time>2026-08-24T22:43:39Z</time>
      </trkpt>
      <trkpt lat="23.070244" lon="113.269854">
        <time>2026-08-24T22:43:44Z</time>
      </trkpt>
      <trkpt lat="23.070359" lon="113.269917">
        <time>2026-08-24T22:43:49Z</time>
      </trkpt>
      <trkpt lat="23.070474" lon="113.269979">
        <time>2026-08-24T22:43:54Z</time>
      </trkpt>
      <trkpt lat="23.070558" lon="113.27002">
        <time>2026-08-24T22:43:59Z</time>
      </trkpt>
      <trkpt lat="23.070635" lon="113.270064">
        <time>2026-08-24T22:44:04Z</time>
      </trkpt>
      <trkpt lat="23.070749" lon="113.270133">
        <time>2026-08-24T22:44:09Z</time>
      </trkpt>
      <trkpt lat="23.070865" lon="113.270183">
        <time>2026-08-24T22:44:14Z</time>
      </trkpt>
      <trkpt lat="23.070936" lon="113.270225">
        <time>2026-08-24T22:44:19Z</time>
      </trkpt>
      <trkpt lat="23.07103" lon="113.270261">
        <time>2026-08-24T22:44:24Z</time>
      </trkpt>
      <trkpt lat="23.071164" lon="113.270319">
        <time>2026-08-24T22:44:29Z</time>
      </trkpt>
      <trkpt lat="23.071286" lon="113.270381">
        <time>2026-08-24T22:44:34Z</time>
      </trkpt>
      <trkpt lat="23.071369" lon="113.27042">
        <time>2026-08-24T22:44:39Z</time>
      </trkpt>
      <trkpt lat="23.071454" lon="113.270455">
        <time>2026-08-24T22:44:44Z</time>
      </trkpt>
      <trkpt lat="23.071572" lon="113.270517">
        <time>2026-08-24T22:44:49Z</time>
      </trkpt>
      <trkpt lat="23.071687" lon="113.270565">
        <time>2026-08-24T22:44:54Z</time>
      </trkpt>
      <trkpt lat="23.071768" lon="113.270596">
        <time>2026-08-24T22:44:59Z</time>
      </trkpt>
      <trkpt lat="23.071848" lon="113.270642">
        <time>2026-08-24T22:45:04Z</time>
      </trkpt>
      <trkpt lat="23.071976" lon="113.270706">
        <time>2026-08-24T22:45:09Z</time>
      </trkpt>
      <trkpt lat="23.072114" lon="113.27074">
        <time>2026-08-24T22:45:14Z</time>
      </trkpt>
      <trkpt lat="23.072202" lon="113.270783">
        <time>2026-08-24T22:45:19Z</time>
      </trkpt>
      <trkpt lat="23.07228" lon="113.270836">
        <time>2026-08-24T22:45:24Z</time>
      </trkpt>
      <trkpt lat="23.072401" lon="113.270887">
        <time>2026-08-24T22:45:29Z</time>
      </trkpt>
      <trkpt lat="23.072537" lon="113.270946">
        <time>2026-08-24T22:45:34Z</time>
      </trkpt>
      <trkpt lat="23.072618" lon="113.271004">
        <time>2026-08-24T22:45:39Z</time>
      </trkpt>
      <trkpt lat="23.072695" lon="113.271054">
        <time>2026-08-24T22:45:44Z</time>
      </trkpt>
      <trkpt lat="23.072797" lon="113.271096">
        <time>2026-08-24T22:45:49Z</time>
      </trkpt>
      <trkpt lat="23.072908" lon="113.271152">
        <time>2026-08-24T22:45:54Z</time>
      </trkpt>
      <trkpt lat="23.073003" lon="113.271194">
        <time>2026-08-24T22:45:59Z</time>
      </trkpt>
      <trkpt lat="23.073111" lon="113.271224">
        <time>2026-08-24T22:46:04Z</time>
      </trkpt>
      <trkpt lat="23.073244" lon="113.271294">
        <time>2026-08-24T22:46:09Z</time>
      </trkpt>
      <trkpt lat="23.073349" lon="113.27137">
        <time>2026-08-24T22:46:14Z</time>
      </trkpt>
      <trkpt lat="23.073423" lon="113.27141">
        <time>2026-08-24T22:46:19Z</time>
      </trkpt>
      <trkpt lat="23.073496" lon="113.271461">
        <time>2026-08-24T22:46:24Z</time>
      </trkpt>
      <trkpt lat="23.0736" lon="113.271559">
        <time>2026-08-24T22:46:29Z</time>
      </trkpt>
      <trkpt lat="23.073715" lon="113.271622">
        <time>2026-08-24T22:46:34Z</time>
      </trkpt>
      <trkpt lat="23.073805" lon="113.271657">
        <time>2026-08-24T22:46:39Z</time>
      </trkpt>
      <trkpt lat="23.073892" lon="113.271686">
        <time>2026-08-24T22:46:44Z</time>
      </trkpt>
      <trkpt lat="23.074001" lon="113.271726">
        <time>2026-08-24T22:46:49Z</time>
      </trkpt>
      <trkpt lat="23.074095" lon="113.271775">
        <time>2026-08-24T22:46:54Z</time>
      </trkpt>
      <trkpt lat="23.074084" lon="113.271835">
        <time>2026-08-24T22:46:59Z</time>
      </trkpt>
      <trkpt lat="23.074037" lon="113.271916">
        <time>2026-08-24T22:47:04Z</time>
      </trkpt>
      <trkpt lat="23.073969" lon="113.272063">
        <time>2026-08-24T22:47:09Z</time>
      </trkpt>
      <trkpt lat="23.073913" lon="113.272252">
        <time>2026-08-24T22:47:14Z</time>
      </trkpt>
      <trkpt lat="23.073848" lon="113.272401">
        <time>2026-08-24T22:47:19Z</time>
      </trkpt>
      <trkpt lat="23.073773" lon="113.272541">
        <time>2026-08-24T22:47:24Z</time>
      </trkpt>
      <trkpt lat="23.073681" lon="113.272742">
        <time>2026-08-24T22:47:29Z</time>
      </trkpt>
      <trkpt lat="23.07373" lon="113.272892">
        <time>2026-08-24T22:47:34Z</time>
      </trkpt>
      <trkpt lat="23.073831" lon="113.272944">
        <time>2026-08-24T22:47:39Z</time>
      </trkpt>
      <trkpt lat="23.073932" lon="113.272971">
        <time>2026-08-24T22:47:44Z</time>
      </trkpt>
      <trkpt lat="23.074055" lon="113.272857">
        <time>2026-08-24T22:47:49Z</time>
      </trkpt>
      <trkpt lat="23.074122" lon="113.272687">
        <time>2026-08-24T22:47:54Z</time>
      </trkpt>
      <trkpt lat="23.074161" lon="113.272578">
        <time>2026-08-24T22:47:59Z</time>
      </trkpt>
      <trkpt lat="23.074211" lon="113.272461">
        <time>2026-08-24T22:48:04Z</time>
      </trkpt>
      <trkpt lat="23.074287" lon="113.27231">
        <time>2026-08-24T22:48:09Z</time>
      </trkpt>
      <trkpt lat="23.074362" lon="113.272171">
        <time>2026-08-24T22:48:14Z</time>
      </trkpt>
      <trkpt lat="23.074418" lon="113.272097">
        <time>2026-08-24T22:48:19Z</time>
      </trkpt>
      <trkpt lat="23.074477" lon="113.272032">
        <time>2026-08-24T22:48:24Z</time>
      </trkpt>
      <trkpt lat="23.074605" lon="113.272053">
        <time>2026-08-24T22:48:29Z</time>
      </trkpt>
      <trkpt lat="23.074792" lon="113.272172">
        <time>2026-08-24T22:48:39Z</time>
      </trkpt>
    </trkseg>
  </trk>
</gpx>