<?xml version="1.0" encoding="UTF-8"?>
<gpx xmlns="http://www.topografix.com/GPX/1/1" xmlns:gpxtpx="http://www.garmin.com/xmlschemas/TrackPointExtension/v1" xmlns:xsi="http://www.w3.org/2001/XMLSchema-instance" xsi:schemaLocation="http://www.topografix.com/GPX/1/1 http://www.topografix.com/GPX/1/1/gpx.xsd" version="1.1" creator="gpx.py -- https://github.com/tkrajina/gpxpy">
  <trk>
    <name>gpx from joyrun</name>
    <trkseg>
      <trkpt lat="23.075311" lon="113.273188">
        <time>2026-08-27T10:40:07Z</time>
      </trkpt>
      <trkpt lat="23.075374" lon="113.273148">
        <time>2026-08-27T10:40:12Z</time>
      </trkpt>
      <trkpt lat="23.075404" lon="113.273014">
        <time>2026-08-27T10:40:17Z</time>
      </trkpt>
      <trkpt lat="23.075364" lon="113.27283">
        <time>2026-08-27T10:40:22Z</time>
      </trkpt>
      <trkpt lat="23.075348" lon="113.272712">
        <time>2026-08-27T10:40:27Z</time>
      </trkpt>
      <trkpt lat="23.07535" lon="113.272585">
        <time>2026-08-27T10:40:32Z</time>
      </trkpt>
      <trkpt lat="23.07532" lon="113.272392">
        <time>2026-08-27T10:40:37Z</time>
      </trkpt>
      <trkpt lat="23.0752" lon="113.272305">
        <time>2026-08-27T10:40:42Z</time>
      </trkpt>
      <trkpt lat="23.07511" lon="113.272255">
        <time>2026-08-27T10:40:47Z</time>
      </trkpt>
      <trkpt lat="23.075031" lon="113.272187">
        <time>2026-08-27T10:40:52Z</time>
      </trkpt>
      <trkpt lat="23.0749" lon="113.272091">
        <time>2026-08-27T10:40:57Z</time>
      </trkpt>
      <trkpt lat="23.074744" lon="113.272011">
        <time>2026-08-27T10:41:02Z</time>
      </trkpt>
      <trkpt lat="23.074638" lon="113.271965">
        <time>2026-08-27T10:41:07Z</time>
      </trkpt>
      <trkpt lat="23.07455" lon="113.271926">
        <time>2026-08-27T10:41:12Z</time>
      </trkpt>
      <trkpt lat="23.074485" lon="113.271984">
        <time>2026-08-27T10:41:17Z</time>
      </trkpt>
      <trkpt lat="23.074397" lon="113.272173">
        <time>2026-08-27T10:41:22Z</time>
      </trkpt>
      <trkpt lat="23.074343" lon="113.272304">
        <time>2026-08-27T10:41:27Z</time>
      </trkpt>
      <trkpt lat="23.074294" lon="113.272426">
        <time>2026-08-27T10:41:32Z</time>
      </trkpt>
      <trkpt lat="23.074215" lon="113.2726">
        <time>2026-08-27T10:41:37Z</time>
      </trkpt>
      <trkpt lat="23.07413" lon="113.272762">
        <time>2026-08-27T10:41:42Z</time>
      </trkpt>
      <trkpt lat="23.074084" lon="113.272859">
        <time>2026-08-27T10:41:47Z</time>
      </trkpt>
      <trkpt lat="23.074062" lon="113.272929">
        <time>2026-08-27T10:41:52Z</time>
      </trkpt>
      <trkpt lat="23.074011" lon="113.273023">
        <time>2026-08-27T10:41:57Z</time>
      </trkpt>
      <trkpt lat="23.074004" lon="113.272995">
        <time>2026-08-27T10:42:02Z</time>
      </trkpt>
      <trkpt lat="23.073969" lon="113.272962">
        <time>2026-08-27T10:42:07Z</time>
      </trkpt>
      <trkpt lat="23.073871" lon="113.272907">
        <time>2026-08-27T10:42:12Z</time>
      </trkpt>
      <trkpt lat="23.073776" lon="113.272786">
        <time>2026-08-27T10:42:17Z</time>
      </trkpt>
      <trkpt lat="23.073851" lon="113.272618">
        <time>2026-08-27T10:42:22Z</time>
      </trkpt>
      <trkpt lat="23.073893" lon="113.272511">
        <time>2026-08-27T10:42:27Z</time>
      </trkpt>
      <trkpt lat="23.073928" lon="113.272412">
        <time>2026-08-27T10:42:32Z</time>
      </trkpt>
      <trkpt lat="23.073994" lon="113.272272">
        <time>2026-08-27T10:42:37Z</time>
      </trkpt>
      <trkpt lat="23.074061" lon="113.272133">
        <time>2026-08-27T10:42:42Z</time>
      </trkpt>
      <trkpt lat="23.074102" lon="113.272039">
        <time>2026-08-27T10:42:47Z</time>
      </trkpt>
      <trkpt lat="23.074139" lon="113.271945">
        <time>2026-08-27T10:42:52Z</time>
      </trkpt>
      <trkpt lat="23.074153" lon="113.271799">
        <time>2026-08-27T10:42:57Z</time>
      </trkpt>
      <trkpt lat="23.074032" lon="113.271708">
        <time>2026-08-27T10:43:02Z</time>
      </trkpt>
      <trkpt lat="23.073948" lon="113.271657">
        <time>2026-08-27T10:43:07Z</time>
      </trkpt>
      <trkpt lat="23.073855" lon="113.271612">
        <time>2026-08-27T10:43:12Z</time>
      </trkpt>
      <trkpt lat="23.073712" lon="113.271525">
        <time>2026-08-27T10:43:17Z</time>
      </trkpt>
      <trkpt lat="23.073572" lon="113.271458">
        <time>2026-08-27T10:43:22Z</time>
      </trkpt>
      <trkpt lat="23.073486" lon="113.271414">
        <time>2026-08-27T10:43:27Z</time>
      </trkpt>
      <trkpt lat="23.073404" lon="113.271359">
        <time>2026-08-27T10:43:32Z</time>
      </trkpt>
      <trkpt lat="23.073345" lon="113.271231">
        <time>2026-08-27T10:43:37Z</time>
      </trkpt>
      <trkpt lat="23.073247" lon="113.271163">
        <time>2026-08-27T10:43:42Z</time>
      </trkpt>
      <trkpt lat="23.073183" lon="113.271143">
        <time>2026-08-27T10:43:47Z</time>
      </trkpt>
      <trkpt lat="23.073137" lon="113.271112">
        <time>2026-08-27T10:43:52Z</time>
      </trkpt>
      <trkpt lat="23.073048" lon="113.271068">
        <time>2026-08-27T10:43:57Z</time>
      </trkpt>
      <trkpt lat="23.072928" lon="113.271006">
        <time>2026-08-27T10:44:02Z</time>
      </trkpt>
      <trkpt lat="23.072831" lon="113.270954">
        <time>2026-08-27T10:44:07Z</time>
      </trkpt>
      <trkpt lat="23.072735" lon="113.27091">
        <time>2026-08-27T10:44:12Z</time>
      </trkpt>
      <trkpt lat="23.072584" lon="113.270852">
        <time>2026-08-27T10:44:17Z</time>
      </trkpt>
      <trkpt lat="23.072426" lon="113.270801">
        <time>2026-08-27T10:44:22Z</time>
      </trkpt>
      <trkpt lat="23.072325" lon="113.270742">
        <time>2026-08-27T10:44:27Z</time>
      </trkpt>
      <trkpt lat="23.072224" lon="113.270695">
        <time>2026-08-27T10:44:32Z</time>
      </trkpt>
      <trkpt lat="23.072092" lon="113.27061">
        <time>2026-08-27T10:44:37Z</time>
      </trkpt>
      <trkpt lat="23.071962" lon="113.270514">
        <time>2026-08-27T10:44:42Z</time>
      </trkpt>
      <trkpt lat="23.071879" lon="113.270461">
        <time>2026-08-27T10:44:47Z</time>
      </trkpt>
      <trkpt lat="23.071788" lon="113.270417">
        <time>2026-08-27T10:44:52Z</time>
      </trkpt>
      <trkpt lat="23.071673" lon="113.270349">
        <time>2026-08-27T10:44:57Z</time>
      </trkpt>
      <trkpt lat="23.071522" lon="113.2703">
        <time>2026-08-27T10:45:02Z</time>
      </trkpt>
      <trkpt lat="23.071401" lon="113.270271">
        <time>2026-08-27T10:45:07Z</time>
      </trkpt>
      <trkpt lat="23.071287" lon="113.270237">
        <time>2026-08-27T10:45:12Z</time>
      </trkpt>
      <trkpt lat="23.071144" lon="113.270165">
        <time>2026-08-27T10:45:17Z</time>
      </trkpt>
      <trkpt lat="23.071009" lon="113.270103">
        <time>2026-08-27T10:45:22Z</time>
      </trkpt>
      <trkpt lat="23.070921" lon="113.270064">
        <time>2026-08-27T10:45:27Z</time>
      </trkpt>
      <trkpt lat="23.070812" lon="113.27003">
        <time>2026-08-27T10:45:32Z</time>
      </trkpt>
      <trkpt lat="23.070661" lon="113.269951">
        <time>2026-08-27T10:45:37Z</time>
      </trkpt>
      <trkpt lat="23.070518" lon="113.269864">
        <time>2026-08-27T10:45:42Z</time>
      </trkpt>
      <trkpt lat="23.070416" lon="113.269807">
        <time>2026-08-27T10:45:47Z</time>
      </trkpt>
      <trkpt lat="23.070312" lon="113.269756">
        <time>2026-08-27T10:45:52Z</time>
      </trkpt>
      <trkpt lat="23.07016" lon="113.269695">
        <time>2026-08-27T10:45:57Z</time>
      </trkpt>
      <trkpt lat="23.070021" lon="113.26963">
        <time>2026-08-27T10:46:02Z</time>
      </trkpt>
      <trkpt lat="23.069931" lon="113.269581">
        <time>2026-08-27T10:46:07Z</time>
      </trkpt>
      <trkpt lat="23.069843" lon="113.269536">
        <time>2026-08-27T10:46:12Z</time>
      </trkpt>
      <trkpt lat="23.069694" lon="113.269465">
        <time>2026-08-27T10:46:17Z</time>
      </trkpt>
      <trkpt lat="23.069549" lon="113.269405">
        <time>2026-08-27T10:46:22Z</time>
      </trkpt>
      <trkpt lat="23.069461" lon="113.269348">
        <time>2026-08-27T10:46:27Z</time>
      </trkpt>
      <trkpt lat="23.069372" lon="113.269282">
        <time>2026-08-27T10:46:32Z</time>
      </trkpt>
      <trkpt lat="23.069229" lon="113.269204">
        <time>2026-08-27T10:46:37Z</time>
      </trkpt>
      <trkpt lat="23.069066" lon="113.269178">
        <time>2026-08-27T10:46:42Z</time>
      </trkpt>
      <trkpt lat="23.068967" lon="113.269143">
        <time>2026-08-27T10:46:47Z</time>
      </trkpt>
      <trkpt lat="23.068868" lon="113.269109">
        <time>2026-08-27T10:46:52Z</time>
      </trkpt>
      <trkpt lat="23.068723" lon="113.269049">
        <time>2026-08-27T10:46:57Z</time>
      </trkpt>
      <trkpt lat="23.068582" lon="113.268987">
        <time>2026-08-27T10:47:02Z</time>
      </trkpt>
      <trkpt lat="23.068494" lon="113.268956">
        <time>2026-08-27T10:47:07Z</time>
      </trkpt>
      <trkpt lat="23.068413" lon="113.268927">
        <time>2026-08-27T10:47:12Z</time>
      </trkpt>
      <trkpt lat="23.068323" lon="113.268849">
        <time>2026-08-27T10:47:17Z</time>
      </trkpt>
      <trkpt lat="23.068196" lon="113.268778">
        <time>2026-08-27T10:47:22Z</time>
      </trkpt>
      <trkpt lat="23.0681" lon="113.268715">
        <time>2026-08-27T10:47:27Z</time>
      </trkpt>
      <trkpt lat="23.068014" lon="113.268641">
        <time>2026-08-27T10:47:32Z</time>
      </trkpt>
      <trkpt lat="23.067884" lon="113.268552">
        <time>2026-08-27T10:47:37Z</time>
      </trkpt>
      <trkpt lat="23.067767" lon="113.268486">
        <time>2026-08-27T10:47:42Z</time>
      </trkpt>
      <trkpt lat="23.067706" lon="113.268413">
        <time>2026-08-27T10:47:47Z</time>
      </trkpt>
      <trkpt lat="23.067629" lon="113.268352">
        <time>2026-08-27T10:47:52Z</time>
      </trkpt>
      <trkpt lat="23.067488" lon="113.268277">
        <time>2026-08-27T10:47:57Z</time>
      </trkpt>
      <trkpt lat="23.067346" lon="113.268205">
        <time>2026-08-27T10:48:02Z</time>
      </trkpt>
      <trkpt lat="23.067253" lon="113.268173">
        <time>2026-08-27T10:48:07Z</time>
      </trkpt>
      <trkpt lat="23.06716" lon="113.268125">
        <time>2026-08-27T10:48:12Z</time>
      </trkpt>
      <trkpt lat="23.06703" lon="113.268055">
        <time>2026-08-27T10:48:17Z</time>
      </trkpt>
      <trkpt lat="23.066883" lon="113.268005">
        <time>2026-08-27T10:48:22Z</time>
      </trkpt>
      <trkpt lat="23.066775" lon="113.267995">
        <time>2026-08-27T10:48:27Z</time>
      </trkpt>
      <trkpt lat="23.066668" lon="113.267976">
        <time>2026-08-27T10:48:32Z</time>
      </trkpt>
      <trkpt lat="23.066511" lon="113.267932">
        <time>2026-08-27T10:48:37Z</time>
      </trkpt>
      <trkpt lat="23.066349" lon="113.267945">
        <time>2026-08-27T10:48:42Z</time>
      </trkpt>
      <trkpt lat="23.066269" lon="113.267997">
        <time>2026-08-27T10:48:47Z</time>
      </trkpt>
      <trkpt lat="23.066198" lon="113.268069">
        <time>2026-08-27T10:48:52Z</time>
      </trkpt>
      <trkpt lat="23.066099" lon="113.268187">
        <time>2026-08-27T10:48:57Z</time>
      </trkpt>
      <trkpt lat="23.066012" lon="113.268305">
        <time>2026-08-27T10:49:02Z</time>
      </trkpt>
      <trkpt lat="23.065955" lon="113.268386">
        <time>2026-08-27T10:49:07Z</time>
      </trkpt>
      <trkpt lat="23.0659" lon="113.268472">
        <time>2026-08-27T10:49:12Z</time>
      </trkpt>
      <trkpt lat="23.065829" lon="113.268605">
        <time>2026-08-27T10:49:17Z</time>
      </trkpt>
      <trkpt lat="23.065766" lon="113.268742">
        <time>2026-08-27T10:49:22Z</time>
      </trkpt>
      <trkpt lat="23.065725" lon="113.268834">
        <time>2026-08-27T10:49:27Z</time>
      </trkpt>
      <trkpt lat="23.065691" lon="113.268929">
        <time>2026-08-27T10:49:32Z</time>
      </trkpt>
      <trkpt lat="23.065649" lon="113.269077">
        <time>2026-08-27T10:49:37Z</time>
      </trkpt>
      <trkpt lat="23.065613" lon="113.269226">
        <time>2026-08-27T10:49:42Z</time>
      </trkpt>
      <trkpt lat="23.065589" lon="113.269328">
        <time>2026-08-27T10:49:47Z</time>
      </trkpt>
      <trkpt lat="23.065567" lon="113.269432">
        <time>2026-08-27T10:49:52Z</time>
      </trkpt>
      <trkpt lat="23.065532" lon="113.269585">
        <time>2026-08-27T10:49:57Z</time>
      </trkpt>
      <trkpt lat="23.065502" lon="113.26974">
        <time>2026-08-27T10:50:02Z</time>
      </trkpt>
      <trkpt lat="23.065468" lon="113.26984">
        <time>2026-08-27T10:50:07Z</time>
      </trkpt>
      <trkpt lat="23.065431" lon="113.269943">
        <time>2026-08-27T10:50:12Z</time>
      </trkpt>
      <trkpt lat="23.065372" lon="113.270093">
        <time>2026-08-27T10:50:17Z</time>
      </trkpt>
      <trkpt lat="23.065307" lon="113.270242">
        <time>2026-08-27T10:50:22Z</time>
      </trkpt>
      <trkpt lat="23.065263" lon="113.270335">
        <time>2026-08-27T10:50:27Z</time>
      </trkpt>
      <trkpt lat="23.065218" lon="113.270429">
        <time>2026-08-27T10:50:32Z</time>
      </trkpt>
      <trkpt lat="23.065153" lon="113.270577">
        <time>2026-08-27T10:50:37Z</time>
      </trkpt>
      <trkpt lat="23.065087" lon="113.27072">
        <time>2026-08-27T10:50:42Z</time>
      </trkpt>
      <trkpt lat="23.065043" lon="113.270811">
        <time>2026-08-27T10:50:47Z</time>
      </trkpt>
      <trkpt lat="23.065001" lon="113.270911">
        <time>2026-08-27T10:50:52Z</time>
      </trkpt>
      <trkpt lat="23.064941" lon="113.271072">
        <time>2026-08-27T10:50:57Z</time>
      </trkpt>
      <trkpt lat="23.064879" lon="113.271217">
        <time>2026-08-27T10:51:02Z</time>
      </trkpt>
      <trkpt lat="23.064834" lon="113.271306">
        <time>2026-08-27T10:51:07Z</time>
      </trkpt>
      <trkpt lat="23.06479" lon="113.271395">
        <time>2026-08-27T10:51:12Z</time>
      </trkpt>
      <trkpt lat="23.064722" lon="113.271539">
        <time>2026-08-27T10:51:17Z</time>
      </trkpt>
      <trkpt lat="23.064651" lon="113.271686">
        <time>2026-08-27T10:51:22Z</time>
      </trkpt>
      <trkpt lat="23.064606" lon="113.271783">
        <time>2026-08-27T10:51:27Z</time>
      </trkpt>
      <trkpt lat="23.064562" lon="113.271877">
        <time>2026-08-27T10:51:32Z</time>
      </trkpt>
      <trkpt lat="23.064495" lon="113.272026">
        <time>2026-08-27T10:51:37Z</time>
      </trkpt>
      <trkpt lat="23.064403" lon="113.272156">
        <time>2026-08-27T10:51:42Z</time>
      </trkpt>
      <trkpt lat="23.064376" lon="113.272259">
        <time>2026-08-27T10:51:47Z</time>
      </trkpt>
      <trkpt lat="23.064377" lon="113.272367">
        <time>2026-08-27T10:51:52Z</time>
      </trkpt>
      <trkpt lat="23.064375" lon="113.272523">
        <time>2026-08-27T10:51:57Z</time>
      </trkpt>
      <trkpt lat="23.064391" lon="113.272676">
        <time>2026-08-27T10:52:02Z</time>
      </trkpt>
      <trkpt lat="23.064416" lon="113.272775">
        <time>2026-08-27T10:52:07Z</time>
      </trkpt>
      <trkpt lat="23.064443" lon="113.27287">
        <time>2026-08-27T10:52:12Z</time>
      </trkpt>
      <trkpt lat="23.064487" lon="113.273032">
        <time>2026-08-27T10:52:17Z</time>
      </trkpt>
      <trkpt lat="23.064506" lon="113.273214">
        <time>2026-08-27T10:52:22Z</time>
      </trkpt>
      <trkpt lat="23.064447" lon="113.273319">
        <time>2026-08-27T10:52:27Z</time>
      </trkpt>
      <trkpt lat="23.064343" lon="113.273398">
        <time>2026-08-27T10:52:32Z</time>
      </trkpt>
      <trkpt lat="23.06419" lon="113.273509">
        <time>2026-08-27T10:52:37Z</time>
      </trkpt>
      <trkpt lat="23.064042" lon="113.273632">
        <time>2026-08-27T10:52:42Z</time>
      </trkpt>
      <trkpt lat="23.063958" lon="113.27373">
        <time>2026-08-27T10:52:47Z</time>
      </trkpt>
      <trkpt lat="23.063892" lon="113.273836">
        <time>2026-08-27T10:52:52Z</time>
      </trkpt>
      <trkpt lat="23.063796" lon="113.274003">
        <time>2026-08-27T10:52:57Z</time>
      </trkpt>
      <trkpt lat="23.063663" lon="113.274122">
        <time>2026-08-27T10:53:02Z</time>
      </trkpt>
      <trkpt lat="23.063561" lon="113.27411">
        <time>2026-08-27T10:53:07Z</time>
      </trkpt>
      <trkpt lat="23.063464" lon="113.274139">
        <time>2026-08-27T10:53:12Z</time>
      </trkpt>
      <trkpt lat="23.063379" lon="113.274334">
        <time>2026-08-27T10:53:17Z</time>
      </trkpt>
      <trkpt lat="23.063314" lon="113.274547">
        <time>2026-08-27T10:53:22Z</time>
      </trkpt>
      <trkpt lat="23.063267" lon="113.274683">
        <time>2026-08-27T10:53:27Z</time>
      </trkpt>
      <trkpt lat="23.063222" lon="113.274816">
        <time>2026-08-27T10:53:32Z</time>
      </trkpt>
      <trkpt lat="23.063161" lon="113.275016">
        <time>2026-08-27T10:53:37Z</time>
      </trkpt>
      <trkpt lat="23.063061" lon="113.275184">
        <time>2026-08-27T10:53:42Z</time>
      </trkpt>
      <trkpt lat="23.062984" lon="113.275283">
        <time>2026-08-27T10:53:47Z</time>
      </trkpt>
      <trkpt lat="23.062991" lon="113.275412">
        <time>2026-08-27T10:53:52Z</time>
      </trkpt>
      <trkpt lat="23.062944" lon="113.275594">
        <time>2026-08-27T10:53:57Z</time>
      </trkpt>
      <trkpt lat="23.062791" lon="113.275735">
        <time>2026-08-27T10:54:02Z</time>
      </trkpt>
      <trkpt lat="23.062694" lon="113.275834">
        <time>2026-08-27T10:54:07Z</time>
      </trkpt>
      <trkpt lat="23.062612" lon="113.275942">
        <time>2026-08-27T10:54:12Z</time>
      </trkpt>
      <trkpt lat="23.062512" lon="113.276115">
        <time>2026-08-27T10:54:17Z</time>
      </trkpt>
      <trkpt lat="23.062432" lon="113.276297">
        <time>2026-08-27T10:54:22Z</time>
      </trkpt>
      <trkpt lat="23.062385" lon="113.276419">
        <time>2026-08-27T10:54:27Z</time>
      </trkpt>
      <trkpt lat="23.062345" lon="113.276542">
        <time>2026-08-27T10:54:32Z</time>
      </trkpt>
      <trkpt lat="23.062278" lon="113.276724">
        <time>2026-08-27T10:54:37Z</time>
      </trkpt>
      <trkpt lat="23.062218" lon="113.276902">
        <time>2026-08-27T10:54:42Z</time>
      </trkpt>
      <trkpt lat="23.062171" lon="113.277026">
        <time>2026-08-27T10:54:47Z</time>
      </trkpt>
      <trkpt lat="23.06212" lon="113.277161">
        <time>2026-08-27T10:54:52Z</time>
      </trkpt>
      <trkpt lat="23.062046" lon="113.277374">
        <time>2026-08-27T10:54:57Z</time>
      </trkpt>
      <trkpt lat="23.061961" lon="113.277562">
        <time>2026-08-27T10:55:02Z</time>
      </trkpt>
      <trkpt lat="23.061915" lon="113.277691">
        <time>2026-08-27T10:55:07Z</time>
      </trkpt>
      <trkpt lat="23.061892" lon="113.277827">
        <time>2026-08-27T10:55:12Z</time>
      </trkpt>
      <trkpt lat="23.061892" lon="113.27803">
        <time>2026-08-27T10:55:17Z</time>
      </trkpt>
      <trkpt lat="23.061907" lon="113.278231">
        <time>2026-08-27T10:55:22Z</time>
      </trkpt>
      <trkpt lat="23.061915" lon="113.278367">
        <time>2026-08-27T10:55:27Z</time>
      </trkpt>
      <trkpt lat="23.061923" lon="113.278504">
        <time>2026-08-27T10:55:32Z</time>
      </trkpt>
      <trkpt lat="23.061912" lon="113.278701">
        <time>2026-08-27T10:55:37Z</time>
      </trkpt>
      <trkpt lat="23.061789" lon="113.2788">
        <time>2026-08-27T10:55:42Z</time>
      </trkpt>
      <trkpt lat="23.061723" lon="113.278912">
        <time>2026-08-27T10:55:47Z</time>
      </trkpt>
      <trkpt lat="23.061666" lon="113.279045">
        <time>2026-08-27T10:55:52Z</time>
      </trkpt>
      <trkpt lat="23.061588" lon="113.279234">
        <time>2026-08-27T10:55:57Z</time>
      </trkpt>
      <trkpt lat="23.061513" lon="113.279418">
        <time>2026-08-27T10:56:02Z</time>
      </trkpt>
      <trkpt lat="23.061463" lon="113.279547">
        <time>2026-08-27T10:56:07Z</time>
      </trkpt>
      <trkpt lat="23.061416" lon="113.279679">
        <time>2026-08-27T10:56:12Z</time>
      </trkpt>
      <trkpt lat="23.061345" lon="113.279869">
        <time>2026-08-27T10:56:17Z</time>
      </trkpt>
      <trkpt lat="23.061267" lon="113.280061">
        <time>2026-08-27T10:56:22Z</time>
      </trkpt>
      <trkpt lat="23.061214" lon="113.28019">
        <time>2026-08-27T10:56:27Z</time>
      </trkpt>
      <trkpt lat="23.061158" lon="113.280317">
        <time>2026-08-27T10:56:32Z</time>
      </trkpt>
      <trkpt lat="23.061092" lon="113.280507">
        <time>2026-08-27T10:56:37Z</time>
      </trkpt>
      <trkpt lat="23.061009" lon="113.280696">
        <time>2026-08-27T10:56:42Z</time>
      </trkpt>
      <trkpt lat="23.060952" lon="113.280828">
        <time>2026-08-27T10:56:47Z</time>
      </trkpt>
      <trkpt lat="23.060898" lon="113.280957">
        <time>2026-08-27T10:56:52Z</time>
      </trkpt>
      <trkpt lat="23.060817" lon="113.281144">
        <time>2026-08-27T10:56:57Z</time>
      </trkpt>
      <trkpt lat="23.060733" lon="113.281326">
        <time>2026-08-27T10:57:02Z</time>
      </trkpt>
      <trkpt lat="23.060677" lon="113.281449">
        <time>2026-08-27T10:57:07Z</time>
      </trkpt>
      <trkpt lat="23.060623" lon="113.281573">
        <time>2026-08-27T10:57:12Z</time>
      </trkpt>
      <trkpt lat="23.060543" lon="113.281762">
        <time>2026-08-27T10:57:17Z</time>
      </trkpt>
      <trkpt lat="23.06046" lon="113.281948">
        <time>2026-08-27T10:57:22Z</time>
      </trkpt>
      <trkpt lat="23.060403" lon="113.282072">
        <time>2026-08-27T10:57:27Z</time>
      </trkpt>
      <trkpt lat="23.060354" lon="113.282203">
        <time>2026-08-27T10:57:32Z</time>
      </trkpt>
      <trkpt lat="23.060286" lon="113.282399">
        <time>2026-08-27T10:57:37Z</time>
      </trkpt>
      <trkpt lat="23.060216" lon="113.28259">
        <time>2026-08-27T10:57:42Z</time>
      </trkpt>
      <trkpt lat="23.060166" lon="113.282714">
        <time>2026-08-27T10:57:47Z</time>
      </trkpt>
      <trkpt lat="23.060114" lon="113.282839">
        <time>2026-08-27T10:57:52Z</time>
      </trkpt>
      <trkpt lat="23.060028" lon="113.283022">
        <time>2026-08-27T10:57:57Z</time>
      </trkpt>
      <trkpt lat="23.05994" lon="113.283202">
        <time>2026-08-27T10:58:02Z</time>
      </trkpt>
      <trkpt lat="23.059906" lon="113.283319">
        <time>2026-08-27T10:58:07Z</time>
      </trkpt>
      <trkpt lat="23.059958" lon="113.283377">
        <time>2026-08-27T10:58:12Z</time>
      </trkpt>
      <trkpt lat="23.060066" lon="113.28325">
        <time>2026-08-27T10:58:17Z</time>
      </trkpt>
      <trkpt lat="23.060154" lon="113.283071">
        <time>2026-08-27T10:58:22Z</time>
      </trkpt>
      <trkpt lat="23.060218" lon="113.282957">
        <time>2026-08-27T10:58:27Z</time>
      </trkpt>
      <trkpt lat="23.06028" lon="113.282845">
        <time>2026-08-27T10:58:32Z</time>
      </trkpt>
      <trkpt lat="23.060378" lon="113.282661">
        <time>2026-08-27T10:58:37Z</time>
      </trkpt>
      <trkpt lat="23.060457" lon="113.282468">
        <time>2026-08-27T10:58:42Z</time>
      </trkpt>
      <trkpt lat="23.060513" lon="113.282349">
        <time>2026-08-27T10:58:47Z</time>
      </trkpt>
      <trkpt lat="23.060565" lon="113.282227">
        <time>2026-08-27T10:58:52Z</time>
      </trkpt>
      <trkpt lat="23.060643" lon="113.282042">
        <time>2026-08-27T10:58:57Z</time>
      </trkpt>
      <trkpt lat="23.060713" lon="113.281854">
        <time>2026-08-27T10:59:02Z</time>
      </trkpt>
      <trkpt lat="23.060753" lon="113.281728">
        <time>2026-08-27T10:59:07Z</time>
      </trkpt>
      <trkpt lat="23.060798" lon="113.281603">
        <time>2026-08-27T10:59:12Z</time>
      </trkpt>
      <trkpt lat="23.060879" lon="113.281407">
        <time>2026-08-27T10:59:17Z</time>
      </trkpt>
      <trkpt lat="23.060961" lon="113.281217">
        <time>2026-08-27T10:59:22Z</time>
      </trkpt>
      <trkpt lat="23.061013" lon="113.281088">
        <time>2026-08-27T10:59:27Z</time>
      </trkpt>
      <trkpt lat="23.061064" lon="113.280961">
        <time>2026-08-27T10:59:32Z</time>
      </trkpt>
      <trkpt lat="23.061146" lon="113.280759">
        <time>2026-08-27T10:59:37Z</time>
      </trkpt>
      <trkpt lat="23.061247" lon="113.280558">
        <time>2026-08-27T10:59:42Z</time>
      </trkpt>
      <trkpt lat="23.061305" lon="113.280426">
        <time>2026-08-27T10:59:47Z</time>
      </trkpt>
      <trkpt lat="23.061356" lon="113.280297">
        <time>2026-08-27T10:59:52Z</time>
      </trkpt>
      <trkpt lat="23.061449" lon="113.280115">
        <time>2026-08-27T10:59:57Z</time>
      </trkpt>
      <trkpt lat="23.061541" lon="113.279935">
        <time>2026-08-27T11:00:02Z</time>
      </trkpt>
      <trkpt lat="23.061586" lon="113.279819">
        <time>2026-08-27T11:00:07Z</time>
      </trkpt>
      <trkpt lat="23.061633" lon="113.279701">
        <time>2026-08-27T11:00:12Z</time>
      </trkpt>
      <trkpt lat="23.061716" lon="113.279504">
        <time>2026-08-27T11:00:17Z</time>
      </trkpt>
      <trkpt lat="23.061787" lon="113.27931">
        <time>2026-08-27T11:00:22Z</time>
      </trkpt>
      <trkpt lat="23.061841" lon="113.279186">
        <time>2026-08-27T11:00:27Z</time>
      </trkpt>
      <trkpt lat="23.061905" lon="113.279071">
        <time>2026-08-27T11:00:32Z</time>
      </trkpt>
      <trkpt lat="23.062004" lon="113.278891">
        <time>2026-08-27T11:00:37Z</time>
      </trkpt>
      <trkpt lat="23.062056" lon="113.278681">
        <time>2026-08-27T11:00:42Z</time>
      </trkpt>
      <trkpt lat="23.062053" lon="113.278535">
        <time>2026-08-27T11:00:47Z</time>
      </trkpt>
      <trkpt lat="23.062042" lon="113.278388">
        <time>2026-08-27T11:00:52Z</time>
      </trkpt>
      <trkpt lat="23.062027" lon="113.278169">
        <time>2026-08-27T11:00:57Z</time>
      </trkpt>
      <trkpt lat="23.062012" lon="113.277951">
        <time>2026-08-27T11:01:02Z</time>
      </trkpt>
      <trkpt lat="23.062016" lon="113.277801">
        <time>2026-08-27T11:01:07Z</time>
      </trkpt>
      <trkpt lat="23.062045" lon="113.277655">
        <time>2026-08-27T11:01:12Z</time>
      </trkpt>
      <trkpt lat="23.062119" lon="113.277451">
        <time>2026-08-27T11:01:17Z</time>
      </trkpt>
      <trkpt lat="23.062196" lon="113.277221">
        <time>2026-08-27T11:01:22Z</time>
      </trkpt>
      <trkpt lat="23.062254" lon="113.27706">
        <time>2026-08-27T11:01:27Z</time>
      </trkpt>
      <trkpt lat="23.062312" lon="113.276926">
        <time>2026-08-27T11:01:32Z</time>
      </trkpt>
      <trkpt lat="23.062388" lon="113.276736">
        <time>2026-08-27T11:01:37Z</time>
      </trkpt>
      <trkpt lat="23.062459" lon="113.276556">
        <time>2026-08-27T11:01:42Z</time>
      </trkpt>
      <trkpt lat="23.062501" lon="113.276437">
        <time>2026-08-27T11:01:47Z</time>
      </trkpt>
      <trkpt lat="23.062545" lon="113.276317">
        <time>2026-08-27T11:01:52Z</time>
      </trkpt>
      <trkpt lat="23.062626" lon="113.276141">
        <time>2026-08-27T11:01:57Z</time>
      </trkpt>
      <trkpt lat="23.062729" lon="113.275957">
        <time>2026-08-27T11:02:02Z</time>
      </trkpt>
      <trkpt lat="23.062815" lon="113.275845">
        <time>2026-08-27T11:02:07Z</time>
      </trkpt>
      <trkpt lat="23.062906" lon="113.275752">
        <time>2026-08-27T11:02:12Z</time>
      </trkpt>
      <trkpt lat="23.063038" lon="113.275614">
        <time>2026-08-27T11:02:17Z</time>
      </trkpt>
      <trkpt lat="23.063159" lon="113.275449">
        <time>2026-08-27T11:02:22Z</time>
      </trkpt>
      <trkpt lat="23.063231" lon="113.27533">
        <time>2026-08-27T11:02:27Z</time>
      </trkpt>
      <trkpt lat="23.063298" lon="113.275212">
        <time>2026-08-27T11:02:32Z</time>
      </trkpt>
      <trkpt lat="23.063399" lon="113.275032">
        <time>2026-08-27T11:02:37Z</time>
      </trkpt>
      <trkpt lat="23.063496" lon="113.274858">
        <time>2026-08-27T11:02:42Z</time>
      </trkpt>
      <trkpt lat="23.06354" lon="113.274746">
        <time>2026-08-27T11:02:47Z</time>
      </trkpt>
      <trkpt lat="23.063571" lon="113.274628">
        <time>2026-08-27T11:02:52Z</time>
      </trkpt>
      <trkpt lat="23.063618" lon="113.274442">
        <time>2026-08-27T11:02:57Z</time>
      </trkpt>
      <trkpt lat="23.063731" lon="113.27428">
        <time>2026-08-27T11:03:02Z</time>
      </trkpt>
      <trkpt lat="23.063822" lon="113.274191">
        <time>2026-08-27T11:03:07Z</time>
      </trkpt>
      <trkpt lat="23.063901" lon="113.274085">
        <time>2026-08-27T11:03:12Z</time>
      </trkpt>
      <trkpt lat="23.064013" lon="113.273918">
        <time>2026-08-27T11:03:17Z</time>
      </trkpt>
      <trkpt lat="23.06414" lon="113.273753">
        <time>2026-08-27T11:03:22Z</time>
      </trkpt>
      <trkpt lat="23.064227" lon="113.273665">
        <time>2026-08-27T11:03:27Z</time>
      </trkpt>
      <trkpt lat="23.064323" lon="113.273583">
        <time>2026-08-27T11:03:32Z</time>
      </trkpt>
      <trkpt lat="23.064475" lon="113.273456">
        <time>2026-08-27T11:03:37Z</time>
      </trkpt>
      <trkpt lat="23.064608" lon="113.273308">
        <time>2026-08-27T11:03:42Z</time>
      </trkpt>
      <trkpt lat="23.064653" lon="113.27318">
        <time>2026-08-27T11:03:47Z</time>
      </trkpt>
      <trkpt lat="23.064646" lon="113.273041">
        <time>2026-08-27T11:03:52Z</time>
      </trkpt>
      <trkpt lat="23.064583" lon="113.272844">
        <time>2026-08-27T11:03:57Z</time>
      </trkpt>
      <trkpt lat="23.064528" lon="113.272653">
        <time>2026-08-27T11:04:02Z</time>
      </trkpt>
      <trkpt lat="23.064537" lon="113.272519">
        <time>2026-08-27T11:04:07Z</time>
      </trkpt>
      <trkpt lat="23.064586" lon="113.272386">
        <time>2026-08-27T11:04:12Z</time>
      </trkpt>
      <trkpt lat="23.064653" lon="113.272188">
        <time>2026-08-27T11:04:17Z</time>
      </trkpt>
      <trkpt lat="23.064724" lon="113.272013">
        <time>2026-08-27T11:04:22Z</time>
      </trkpt>
      <trkpt lat="23.064782" lon="113.271907">
        <time>2026-08-27T11:04:27Z</time>
      </trkpt>
      <trkpt lat="23.064842" lon="113.2718">
        <time>2026-08-27T11:04:32Z</time>
      </trkpt>
      <trkpt lat="23.064932" lon="113.271626">
        <time>2026-08-27T11:04:37Z</time>
      </trkpt>
      <trkpt lat="23.06502" lon="113.271457">
        <time>2026-08-27T11:04:42Z</time>
      </trkpt>
      <trkpt lat="23.065077" lon="113.271346">
        <time>2026-08-27T11:04:47Z</time>
      </trkpt>
      <trkpt lat="23.065142" lon="113.271226">
        <time>2026-08-27T11:04:52Z</time>
      </trkpt>
      <trkpt lat="23.065235" lon="113.271035">
        <time>2026-08-27T11:04:57Z</time>
      </trkpt>
      <trkpt lat="23.065311" lon="113.270839">
        <time>2026-08-27T11:05:02Z</time>
      </trkpt>
      <trkpt lat="23.065367" lon="113.27071">
        <time>2026-08-27T11:05:07Z</time>
      </trkpt>
      <trkpt lat="23.065422" lon="113.270584">
        <time>2026-08-27T11:05:12Z</time>
      </trkpt>
      <trkpt lat="23.065508" lon="113.270402">
        <time>2026-08-27T11:05:17Z</time>
      </trkpt>
      <trkpt lat="23.06559" lon="113.270217">
        <time>2026-08-27T11:05:22Z</time>
      </trkpt>
      <trkpt lat="23.065636" lon="113.270091">
        <time>2026-08-27T11:05:27Z</time>
      </trkpt>
      <trkpt lat="23.065678" lon="113.269964">
        <time>2026-08-27T11:05:32Z</time>
      </trkpt>
      <trkpt lat="23.065729" lon="113.269761">
        <time>2026-08-27T11:05:37Z</time>
      </trkpt>
      <trkpt lat="23.065778" lon="113.269554">
        <time>2026-08-27T11:05:42Z</time>
      </trkpt>
      <trkpt lat="23.065807" lon="113.269424">
        <time>2026-08-27T11:05:47Z</time>
      </trkpt>
      <trkpt lat="23.065842" lon="113.269292">
        <time>2026-08-27T11:05:52Z</time>
      </trkpt>
      <trkpt lat="23.065904" lon="113.269102">
        <time>2026-08-27T11:05:57Z</time>
      </trkpt>
      <trkpt lat="23.065977" lon="113.268926">
        <time>2026-08-27T11:06:02Z</time>
      </trkpt>
      <trkpt lat="23.066029" lon="113.268809">
        <time>2026-08-27T11:06:07Z</time>
      </trkpt>
      <trkpt lat="23.066085" lon="113.268694">
        <time>2026-08-27T11:06:12Z</time>
      </trkpt>
      <trkpt lat="23.066183" lon="113.268524">
        <time>2026-08-27T11:06:17Z</time>
      </trkpt>
      <trkpt lat="23.066295" lon="113.268361">
        <time>2026-08-27T11:06:22Z</time>
      </trkpt>
      <trkpt lat="23.066379" lon="113.268262">
        <time>2026-08-27T11:06:27Z</time>
      </trkpt>
      <trkpt lat="23.066482" lon="113.268189">
        <time>2026-08-27T11:06:32Z</time>
      </trkpt>
      <trkpt lat="23.066661" lon="113.268155">
        <time>2026-08-27T11:06:37Z</time>
      </trkpt>
      <trkpt lat="23.066762" lon="113.268077">
        <time>2026-08-27T11:06:42Z</time>
      </trkpt>
      <trkpt lat="23.066667" lon="113.268012">
        <time>2026-08-27T11:06:47Z</time>
      </trkpt>
      <trkpt lat="23.066527" lon="113.26798">
        <time>2026-08-27T11:06:52Z</time>
      </trkpt>
      <trkpt lat="23.066332" lon="113.268003">
        <time>2026-08-27T11:06:57Z</time>
      </trkpt>
      <trkpt lat="23.066184" lon="113.26813">
        <time>2026-08-27T11:07:02Z</time>
      </trkpt>
      <trkpt lat="23.066099" lon="113.268221">
        <time>2026-08-27T11:07:07Z</time>
      </trkpt>
      <trkpt lat="23.066021" lon="113.268314">
        <time>2026-08-27T11:07:12Z</time>
      </trkpt>
      <trkpt lat="23.065915" lon="113.268465">
        <time>2026-08-27T11:07:17Z</time>
      </trkpt>
      <trkpt lat="23.065818" lon="113.26864">
        <time>2026-08-27T11:07:22Z</time>
      </trkpt>
      <trkpt lat="23.065762" lon="113.268763">
        <time>2026-08-27T11:07:27Z</time>
      </trkpt>
      <trkpt lat="23.065714" lon="113.26889">
        <time>2026-08-27T11:07:32Z</time>
      </trkpt>
      <trkpt lat="23.06565" lon="113.269087">
        <time>2026-08-27T11:07:37Z</time>
      </trkpt>
      <trkpt lat="23.065601" lon="113.269288">
        <time>2026-08-27T11:07:42Z</time>
      </trkpt>
      <trkpt lat="23.065571" lon="113.269424">
        <time>2026-08-27T11:07:47Z</time>
      </trkpt>
      <trkpt lat="23.065537" lon="113.269556">
        <time>2026-08-27T11:07:52Z</time>
      </trkpt>
      <trkpt lat="23.065486" lon="113.269758">
        <time>2026-08-27T11:07:57Z</time>
      </trkpt>
      <trkpt lat="23.065417" lon="113.269959">
        <time>2026-08-27T11:08:02Z</time>
      </trkpt>
      <trkpt lat="23.065375" lon="113.270094">
        <time>2026-08-27T11:08:07Z</time>
      </trkpt>
      <trkpt lat="23.065325" lon="113.270224">
        <time>2026-08-27T11:08:12Z</time>
      </trkpt>
      <trkpt lat="23.065242" lon="113.270408">
        <time>2026-08-27T11:08:17Z</time>
      </trkpt>
      <trkpt lat="23.065155" lon="113.270603">
        <time>2026-08-27T11:08:22Z</time>
      </trkpt>
      <trkpt lat="23.065097" lon="113.270729">
        <time>2026-08-27T11:08:27Z</time>
      </trkpt>
      <trkpt lat="23.065041" lon="113.270854">
        <time>2026-08-27T11:08:32Z</time>
      </trkpt>
      <trkpt lat="23.064959" lon="113.271041">
        <time>2026-08-27T11:08:37Z</time>
      </trkpt>
      <trkpt lat="23.064875" lon="113.27122">
        <time>2026-08-27T11:08:42Z</time>
      </trkpt>
      <trkpt lat="23.064817" lon="113.27134">
        <time>2026-08-27T11:08:47Z</time>
      </trkpt>
      <trkpt lat="23.064757" lon="113.271465">
        <time>2026-08-27T11:08:52Z</time>
      </trkpt>
      <trkpt lat="23.06467" lon="113.271657">
        <time>2026-08-27T11:08:57Z</time>
      </trkpt>
      <trkpt lat="23.064582" lon="113.271851">
        <time>2026-08-27T11:09:02Z</time>
      </trkpt>
      <trkpt lat="23.064522" lon="113.271984">
        <time>2026-08-27T11:09:07Z</time>
      </trkpt>
      <trkpt lat="23.064451" lon="113.272112">
        <time>2026-08-27T11:09:12Z</time>
      </trkpt>
      <trkpt lat="23.064376" lon="113.272304">
        <time>2026-08-27T11:09:17Z</time>
      </trkpt>
      <trkpt lat="23.064377" lon="113.272515">
        <time>2026-08-27T11:09:22Z</time>
      </trkpt>
      <trkpt lat="23.06438" lon="113.272655">
        <time>2026-08-27T11:09:27Z</time>
      </trkpt>
      <trkpt lat="23.064409" lon="113.272795">
        <time>2026-08-27T11:09:32Z</time>
      </trkpt>
      <trkpt lat="23.064477" lon="113.272997">
        <time>2026-08-27T11:09:37Z</time>
      </trkpt>
      <trkpt lat="23.06451" lon="113.273196">
        <time>2026-08-27T11:09:42Z</time>
      </trkpt>
      <trkpt lat="23.064458" lon="113.273314">
        <time>2026-08-27T11:09:47Z</time>
      </trkpt>
      <trkpt lat="23.064352" lon="113.273403">
        <time>2026-08-27T11:09:52Z</time>
      </trkpt>
      <trkpt lat="23.064189" lon="113.273527">
        <time>2026-08-27T11:09:57Z</time>
      </trkpt>
      <trkpt lat="23.064043" lon="113.273639">
        <time>2026-08-27T11:10:02Z</time>
      </trkpt>
      <trkpt lat="23.063957" lon="113.273727">
        <time>2026-08-27T11:10:07Z</time>
      </trkpt>
      <trkpt lat="23.063891" lon="113.273827">
        <time>2026-08-27T11:10:12Z</time>
      </trkpt>
      <trkpt lat="23.0638" lon="113.273988">
        <time>2026-08-27T11:10:17Z</time>
      </trkpt>
      <trkpt lat="23.063671" lon="113.274121">
        <time>2026-08-27T11:10:22Z</time>
      </trkpt>
      <trkpt lat="23.063567" lon="113.274139">
        <time>2026-08-27T11:10:27Z</time>
      </trkpt>
      <trkpt lat="23.063465" lon="113.274103">
        <time>2026-08-27T11:10:32Z</time>
      </trkpt>
      <trkpt lat="23.063378" lon="113.274234">
        <time>2026-08-27T11:10:37Z</time>
      </trkpt>
      <trkpt lat="23.063317" lon="113.274435">
        <time>2026-08-27T11:10:42Z</time>
      </trkpt>
      <trkpt lat="23.063273" lon="113.274563">
        <time>2026-08-27T11:10:47Z</time>
      </trkpt>
      <trkpt lat="23.063229" lon="113.274685">
        <time>2026-08-27T11:10:52Z</time>
      </trkpt>
      <trkpt lat="23.063168" lon="113.274865">
        <time>2026-08-27T11:10:57Z</time>
      </trkpt>
      <trkpt lat="23.063107" lon="113.275052">
        <time>2026-08-27T11:11:02Z</time>
      </trkpt>
      <trkpt lat="23.063045" lon="113.275157">
        <time>2026-08-27T11:11:07Z</time>
      </trkpt>
      <trkpt lat="23.062965" lon="113.275253">
        <time>2026-08-27T11:11:12Z</time>
      </trkpt>
      <trkpt lat="23.06296" lon="113.275444">
        <time>2026-08-27T11:11:17Z</time>
      </trkpt>
      <trkpt lat="23.062886" lon="113.275608">
        <time>2026-08-27T11:11:22Z</time>
      </trkpt>
      <trkpt lat="23.062794" lon="113.275708">
        <time>2026-08-27T11:11:27Z</time>
      </trkpt>
      <trkpt lat="23.062706" lon="113.275825">
        <time>2026-08-27T11:11:32Z</time>
      </trkpt>
      <trkpt lat="23.062588" lon="113.275992">
        <time>2026-08-27T11:11:37Z</time>
      </trkpt>
      <trkpt lat="23.062489" lon="113.276157">
        <time>2026-08-27T11:11:42Z</time>
      </trkpt>
      <trkpt lat="23.062433" lon="113.276274">
        <time>2026-08-27T11:11:47Z</time>
      </trkpt>
      <trkpt lat="23.062386" lon="113.276391">
        <time>2026-08-27T11:11:52Z</time>
      </trkpt>
      <trkpt lat="23.062331" lon="113.276565">
        <time>2026-08-27T11:11:57Z</time>
      </trkpt>
      <trkpt lat="23.06227" lon="113.27674">
        <time>2026-08-27T11:12:02Z</time>
      </trkpt>
      <trkpt lat="23.062232" lon="113.276855">
        <time>2026-08-27T11:12:07Z</time>
      </trkpt>
      <trkpt lat="23.062192" lon="113.276972">
        <time>2026-08-27T11:12:12Z</time>
      </trkpt>
      <trkpt lat="23.062127" lon="113.277153">
        <time>2026-08-27T11:12:17Z</time>
      </trkpt>
      <trkpt lat="23.06205" lon="113.277368">
        <time>2026-08-27T11:12:22Z</time>
      </trkpt>
      <trkpt lat="23.061995" lon="113.2775">
        <time>2026-08-27T11:12:27Z</time>
      </trkpt>
      <trkpt lat="23.061949" lon="113.277625">
        <time>2026-08-27T11:12:32Z</time>
      </trkpt>
      <trkpt lat="23.061889" lon="113.277812">
        <time>2026-08-27T11:12:37Z</time>
      </trkpt>
      <trkpt lat="23.061873" lon="113.278006">
        <time>2026-08-27T11:12:42Z</time>
      </trkpt>
      <trkpt lat="23.061878" lon="113.278134">
        <time>2026-08-27T11:12:47Z</time>
      </trkpt>
      <trkpt lat="23.061884" lon="113.278262">
        <time>2026-08-27T11:12:52Z</time>
      </trkpt>
      <trkpt lat="23.06189" lon="113.278453">
        <time>2026-08-27T11:12:57Z</time>
      </trkpt>
      <trkpt lat="23.061898" lon="113.278647">
        <time>2026-08-27T11:13:02Z</time>
      </trkpt>
      <trkpt lat="23.061878" lon="113.278766">
        <time>2026-08-27T11:13:07Z</time>
      </trkpt>
      <trkpt lat="23.061809" lon="113.278821">
        <time>2026-08-27T11:13:12Z</time>
      </trkpt>
      <trkpt lat="23.061729" lon="113.278977">
        <time>2026-08-27T11:13:17Z</time>
      </trkpt>
      <trkpt lat="23.061652" lon="113.279165">
        <time>2026-08-27T11:13:22Z</time>
      </trkpt>
      <trkpt lat="23.061599" lon="113.279285">
        <time>2026-08-27T11:13:27Z</time>
      </trkpt>
      <trkpt lat="23.061545" lon="113.279396">
        <time>2026-08-27T11:13:32Z</time>
      </trkpt>
      <trkpt lat="23.061471" lon="113.27958">
        <time>2026-08-27T11:13:37Z</time>
      </trkpt>
      <trkpt lat="23.061394" lon="113.279776">
        <time>2026-08-27T11:13:42Z</time>
      </trkpt>
      <trkpt lat="23.06134" lon="113.279905">
        <time>2026-08-27T11:13:47Z</time>
      </trkpt>
      <trkpt lat="23.061282" lon="113.280027">
        <time>2026-08-27T11:13:52Z</time>
      </trkpt>
      <trkpt lat="23.061217" lon="113.280214">
        <time>2026-08-27T11:13:57Z</time>
      </trkpt>
      <trkpt lat="23.061137" lon="113.280386">
        <time>2026-08-27T11:14:02Z</time>
      </trkpt>
      <trkpt lat="23.06109" lon="113.280499">
        <time>2026-08-27T11:14:07Z</time>
      </trkpt>
      <trkpt lat="23.061045" lon="113.280621">
        <time>2026-08-27T11:14:12Z</time>
      </trkpt>
      <trkpt lat="23.060965" lon="113.280815">
        <time>2026-08-27T11:14:17Z</time>
      </trkpt>
      <trkpt lat="23.060886" lon="113.281009">
        <time>2026-08-27T11:14:22Z</time>
      </trkpt>
      <trkpt lat="23.060837" lon="113.281137">
        <time>2026-08-27T11:14:27Z</time>
      </trkpt>
      <trkpt lat="23.060785" lon="113.281259">
        <time>2026-08-27T11:14:32Z</time>
      </trkpt>
      <trkpt lat="23.0607" lon="113.281437">
        <time>2026-08-27T11:14:37Z</time>
      </trkpt>
      <trkpt lat="23.06062" lon="113.281616">
        <time>2026-08-27T11:14:42Z</time>
      </trkpt>
      <trkpt lat="23.060571" lon="113.28174">
        <time>2026-08-27T11:14:47Z</time>
      </trkpt>
      <trkpt lat="23.060519" lon="113.281867">
        <time>2026-08-27T11:14:52Z</time>
      </trkpt>
      <trkpt lat="23.060438" lon="113.282058">
        <time>2026-08-27T11:14:57Z</time>
      </trkpt>
      <trkpt lat="23.060353" lon="113.282248">
        <time>2026-08-27T11:15:02Z</time>
      </trkpt>
      <trkpt lat="23.060309" lon="113.282366">
        <time>2026-08-27T11:15:07Z</time>
      </trkpt>
      <trkpt lat="23.06026" lon="113.282479">
        <time>2026-08-27T11:15:12Z</time>
      </trkpt>
      <trkpt lat="23.060193" lon="113.282666">
        <time>2026-08-27T11:15:17Z</time>
      </trkpt>
      <trkpt lat="23.060117" lon="113.282846">
        <time>2026-08-27T11:15:22Z</time>
      </trkpt>
      <trkpt lat="23.060064" lon="113.282973">
        <time>2026-08-27T11:15:27Z</time>
      </trkpt>
      <trkpt lat="23.060007" lon="113.283098">
        <time>2026-08-27T11:15:32Z</time>
      </trkpt>
      <trkpt lat="23.059922" lon="113.283276">
        <time>2026-08-27T11:15:37Z</time>
      </trkpt>
      <trkpt lat="23.059922" lon="113.283407">
        <time>2026-08-27T11:15:42Z</time>
      </trkpt>
      <trkpt lat="23.060008" lon="113.283392">
        <time>2026-08-27T11:15:47Z</time>
      </trkpt>
      <trkpt lat="23.060076" lon="113.283295">
        <time>2026-08-27T11:15:52Z</time>
      </trkpt>
      <trkpt lat="23.060176" lon="113.283127">
        <time>2026-08-27T11:15:57Z</time>
      </trkpt>
      <trkpt lat="23.060266" lon="113.282954">
        <time>2026-08-27T11:16:02Z</time>
      </trkpt>
      <trkpt lat="23.060314" lon="113.28282">
        <time>2026-08-27T11:16:07Z</time>
      </trkpt>
      <trkpt lat="23.060365" lon="113.282682">
        <time>2026-08-27T11:16:12Z</time>
      </trkpt>
      <trkpt lat="23.06045" lon="113.282471">
        <time>2026-08-27T11:16:17Z</time>
      </trkpt>
      <trkpt lat="23.060521" lon="113.28227">
        <time>2026-08-27T11:16:22Z</time>
      </trkpt>
      <trkpt lat="23.06057" lon="113.282155">
        <time>2026-08-27T11:16:27Z</time>
      </trkpt>
      <trkpt lat="23.060622" lon="113.282041">
        <time>2026-08-27T11:16:32Z</time>
      </trkpt>
      <trkpt lat="23.060696" lon="113.28186">
        <time>2026-08-27T11:16:37Z</time>
      </trkpt>
      <trkpt lat="23.060763" lon="113.28168">
        <time>2026-08-27T11:16:42Z</time>
      </trkpt>
      <trkpt lat="23.060809" lon="113.281558">
        <time>2026-08-27T11:16:47Z</time>
      </trkpt>
      <trkpt lat="23.060856" lon="113.281438">
        <time>2026-08-27T11:16:52Z</time>
      </trkpt>
      <trkpt lat="23.060929" lon="113.281258">
        <time>2026-08-27T11:16:57Z</time>
      </trkpt>
      <trkpt lat="23.061005" lon="113.281076">
        <time>2026-08-27T11:17:02Z</time>
      </trkpt>
      <trkpt lat="23.061054" lon="113.280956">
        <time>2026-08-27T11:17:07Z</time>
      </trkpt>
      <trkpt lat="23.061107" lon="113.280834">
        <time>2026-08-27T11:17:12Z</time>
      </trkpt>
      <trkpt lat="23.061195" lon="113.280645">
        <time>2026-08-27T11:17:17Z</time>
      </trkpt>
      <trkpt lat="23.061282" lon="113.280456">
        <time>2026-08-27T11:17:22Z</time>
      </trkpt>
      <trkpt lat="23.061332" lon="113.280333">
        <time>2026-08-27T11:17:27Z</time>
      </trkpt>
      <trkpt lat="23.061388" lon="113.280213">
        <time>2026-08-27T11:17:32Z</time>
      </trkpt>
      <trkpt lat="23.061464" lon="113.28004">
        <time>2026-08-27T11:17:37Z</time>
      </trkpt>
      <trkpt lat="23.061535" lon="113.279864">
        <time>2026-08-27T11:17:42Z</time>
      </trkpt>
      <trkpt lat="23.061585" lon="113.279753">
        <time>2026-08-27T11:17:47Z</time>
      </trkpt>
      <trkpt lat="23.061631" lon="113.279643">
        <time>2026-08-27T11:17:52Z</time>
      </trkpt>
      <trkpt lat="23.061709" lon="113.279465">
        <time>2026-08-27T11:17:57Z</time>
      </trkpt>
      <trkpt lat="23.061781" lon="113.279285">
        <time>2026-08-27T11:18:02Z</time>
      </trkpt>
      <trkpt lat="23.061835" lon="113.279168">
        <time>2026-08-27T11:18:07Z</time>
      </trkpt>
      <trkpt lat="23.061891" lon="113.279065">
        <time>2026-08-27T11:18:12Z</time>
      </trkpt>
      <trkpt lat="23.061985" lon="113.278928">
        <time>2026-08-27T11:18:17Z</time>
      </trkpt>
      <trkpt lat="23.062058" lon="113.278776">
        <time>2026-08-27T11:18:22Z</time>
      </trkpt>
      <trkpt lat="23.062073" lon="113.278647">
        <time>2026-08-27T11:18:27Z</time>
      </trkpt>
      <trkpt lat="23.062066" lon="113.27851">
        <time>2026-08-27T11:18:32Z</time>
      </trkpt>
      <trkpt lat="23.062048" lon="113.278315">
        <time>2026-08-27T11:18:37Z</time>
      </trkpt>
      <trkpt lat="23.062033" lon="113.278123">
        <time>2026-08-27T11:18:42Z</time>
      </trkpt>
      <trkpt lat="23.062027" lon="113.277988">
        <time>2026-08-27T11:18:47Z</time>
      </trkpt>
      <trkpt lat="23.062024" lon="113.277854">
        <time>2026-08-27T11:18:52Z</time>
      </trkpt>
      <trkpt lat="23.062054" lon="113.277663">
        <time>2026-08-27T11:18:57Z</time>
      </trkpt>
      <trkpt lat="23.062111" lon="113.277473">
        <time>2026-08-27T11:19:02Z</time>
      </trkpt>
      <trkpt lat="23.062156" lon="113.277352">
        <time>2026-08-27T11:19:07Z</time>
      </trkpt>
      <trkpt lat="23.062195" lon="113.277223">
        <time>2026-08-27T11:19:12Z</time>
      </trkpt>
      <trkpt lat="23.06227" lon="113.27705">
        <time>2026-08-27T11:19:17Z</time>
      </trkpt>
      <trkpt lat="23.062344" lon="113.276882">
        <time>2026-08-27T11:19:22Z</time>
      </trkpt>
      <trkpt lat="23.06239" lon="113.276766">
        <time>2026-08-27T11:19:27Z</time>
      </trkpt>
      <trkpt lat="23.062439" lon="113.276649">
        <time>2026-08-27T11:19:32Z</time>
      </trkpt>
      <trkpt lat="23.062511" lon="113.276469">
        <time>2026-08-27T11:19:37Z</time>
      </trkpt>
      <trkpt lat="23.062579" lon="113.276286">
        <time>2026-08-27T11:19:42Z</time>
      </trkpt>
      <trkpt lat="23.062633" lon="113.276171">
        <time>2026-08-27T11:19:47Z</time>
      </trkpt>
      <trkpt lat="23.062698" lon="113.276057">
        <time>2026-08-27T11:19:52Z</time>
      </trkpt>
      <trkpt lat="23.062802" lon="113.275904">
        <time>2026-08-27T11:19:57Z</time>
      </trkpt>
      <trkpt lat="23.062927" lon="113.275767">
        <time>2026-08-27T11:20:02Z</time>
      </trkpt>
      <trkpt lat="23.063014" lon="113.275668">
        <time>2026-08-27T11:20:07Z</time>
      </trkpt>
      <trkpt lat="23.063095" lon="113.27556">
        <time>2026-08-27T11:20:12Z</time>
      </trkpt>
      <trkpt lat="23.063195" lon="113.275407">
        <time>2026-08-27T11:20:17Z</time>
      </trkpt>
      <trkpt lat="23.063294" lon="113.275254">
        <time>2026-08-27T11:20:22Z</time>
      </trkpt>
      <trkpt lat="23.063386" lon="113.275167">
        <time>2026-08-27T11:20:27Z</time>
      </trkpt>
      <trkpt lat="23.063445" lon="113.275054">
        <time>2026-08-27T11:20:32Z</time>
      </trkpt>
      <trkpt lat="23.063495" lon="113.274859">
        <time>2026-08-27T11:20:37Z</time>
      </trkpt>
      <trkpt lat="23.063542" lon="113.274684">
        <time>2026-08-27T11:20:42Z</time>
      </trkpt>
      <trkpt lat="23.063573" lon="113.274564">
        <time>2026-08-27T11:20:47Z</time>
      </trkpt>
      <trkpt lat="23.063631" lon="113.274442">
        <time>2026-08-27T11:20:52Z</time>
      </trkpt>
      <trkpt lat="23.063747" lon="113.274278">
        <time>2026-08-27T11:20:57Z</time>
      </trkpt>
      <trkpt lat="23.063863" lon="113.274155">
        <time>2026-08-27T11:21:02Z</time>
      </trkpt>
      <trkpt lat="23.06394" lon="113.274062">
        <time>2026-08-27T11:21:07Z</time>
      </trkpt>
      <trkpt lat="23.064011" lon="113.27395">
        <time>2026-08-27T11:21:12Z</time>
      </trkpt>
      <trkpt lat="23.064124" lon="113.273785">
        <time>2026-08-27T11:21:17Z</time>
      </trkpt>
      <trkpt lat="23.064267" lon="113.273651">
        <time>2026-08-27T11:21:22Z</time>
      </trkpt>
      <trkpt lat="23.064366" lon="113.273569">
        <time>2026-08-27T11:21:27Z</time>
      </trkpt>
      <trkpt lat="23.064466" lon="113.27349">
        <time>2026-08-27T11:21:32Z</time>
      </trkpt>
      <trkpt lat="23.064597" lon="113.273347">
        <time>2026-08-27T11:21:37Z</time>
      </trkpt>
      <trkpt lat="23.064655" lon="113.273158">
        <time>2026-08-27T11:21:42Z</time>
      </trkpt>
      <trkpt lat="23.064629" lon="113.27302">
        <time>2026-08-27T11:21:47Z</time>
      </trkpt>
      <trkpt lat="23.064585" lon="113.272887">
        <time>2026-08-27T11:21:52Z</time>
      </trkpt>
      <trkpt lat="23.064526" lon="113.272695">
        <time>2026-08-27T11:21:57Z</time>
      </trkpt>
      <trkpt lat="23.064565" lon="113.272511">
        <time>2026-08-27T11:22:02Z</time>
      </trkpt>
      <trkpt lat="23.064612" lon="113.272382">
        <time>2026-08-27T11:22:07Z</time>
      </trkpt>
      <trkpt lat="23.064629" lon="113.272249">
        <time>2026-08-27T11:22:12Z</time>
      </trkpt>
      <trkpt lat="23.064689" lon="113.272076">
        <time>2026-08-27T11:22:17Z</time>
      </trkpt>
      <trkpt lat="23.064779" lon="113.271914">
        <time>2026-08-27T11:22:22Z</time>
      </trkpt>
      <trkpt lat="23.064833" lon="113.271806">
        <time>2026-08-27T11:22:27Z</time>
      </trkpt>
      <trkpt lat="23.064895" lon="113.271691">
        <time>2026-08-27T11:22:32Z</time>
      </trkpt>
      <trkpt lat="23.064975" lon="113.271509">
        <time>2026-08-27T11:22:37Z</time>
      </trkpt>
      <trkpt lat="23.065065" lon="113.271335">
        <time>2026-08-27T11:22:42Z</time>
      </trkpt>
      <trkpt lat="23.065136" lon="113.271215">
        <time>2026-08-27T11:22:47Z</time>
      </trkpt>
      <trkpt lat="23.065201" lon="113.271087">
        <time>2026-08-27T11:22:52Z</time>
      </trkpt>
      <trkpt lat="23.065282" lon="113.270876">
        <time>2026-08-27T11:22:57Z</time>
      </trkpt>
      <trkpt lat="23.065359" lon="113.270684">
        <time>2026-08-27T11:23:02Z</time>
      </trkpt>
      <trkpt lat="23.065418" lon="113.27056">
        <time>2026-08-27T11:23:07Z</time>
      </trkpt>
      <trkpt lat="23.065479" lon="113.270433">
        <time>2026-08-27T11:23:12Z</time>
      </trkpt>
      <trkpt lat="23.065565" lon="113.270247">
        <time>2026-08-27T11:23:17Z</time>
      </trkpt>
      <trkpt lat="23.065629" lon="113.270056">
        <time>2026-08-27T11:23:22Z</time>
      </trkpt>
      <trkpt lat="23.065669" lon="113.269929">
        <time>2026-08-27T11:23:27Z</time>
      </trkpt>
      <trkpt lat="23.065703" lon="113.269807">
        <time>2026-08-27T11:23:32Z</time>
      </trkpt>
      <trkpt lat="23.06576" lon="113.269609">
        <time>2026-08-27T11:23:37Z</time>
      </trkpt>
      <trkpt lat="23.065813" lon="113.269405">
        <time>2026-08-27T11:23:42Z</time>
      </trkpt>
      <trkpt lat="23.06585" lon="113.269276">
        <time>2026-08-27T11:23:47Z</time>
      </trkpt>
      <trkpt lat="23.065887" lon="113.269153">
        <time>2026-08-27T11:23:52Z</time>
      </trkpt>
      <trkpt lat="23.065961" lon="113.268981">
        <time>2026-08-27T11:23:57Z</time>
      </trkpt>
      <trkpt lat="23.066046" lon="113.268801">
        <time>2026-08-27T11:24:02Z</time>
      </trkpt>
      <trkpt lat="23.066104" lon="113.268688">
        <time>2026-08-27T11:24:07Z</time>
      </trkpt>
      <trkpt lat="23.06617" lon="113.268574">
        <time>2026-08-27T11:24:12Z</time>
      </trkpt>
      <trkpt lat="23.066269" lon="113.268408">
        <time>2026-08-27T11:24:17Z</time>
      </trkpt>
      <trkpt lat="23.066388" lon="113.268256">
        <time>2026-08-27T11:24:22Z</time>
      </trkpt>
      <trkpt lat="23.066493" lon="113.268184">
        <time>2026-08-27T11:24:27Z</time>
      </trkpt>
      <trkpt lat="23.066614" lon="113.268165">
        <time>2026-08-27T11:24:32Z</time>
      </trkpt>
      <trkpt lat="23.066791" lon="113.268175">
        <time>2026-08-27T11:24:37Z</time>
      </trkpt>
      <trkpt lat="23.06683" lon="113.268112">
        <time>2026-08-27T11:24:42Z</time>
      </trkpt>
      <trkpt lat="23.066725" lon="113.268047">
        <time>2026-08-27T11:24:47Z</time>
      </trkpt>
      <trkpt lat="23.066598" lon="113.268005">
        <time>2026-08-27T11:24:52Z</time>
      </trkpt>
      <trkpt lat="23.066409" lon="113.267993">
        <time>2026-08-27T11:24:57Z</time>
      </trkpt>
      <trkpt lat="23.066245" lon="113.268075">
        <time>2026-08-27T11:25:02Z</time>
      </trkpt>
      <trkpt lat="23.066151" lon="113.268174">
        <time>2026-08-27T11:25:07Z</time>
      </trkpt>
      <trkpt lat="23.066071" lon="113.268276">
        <time>2026-08-27T11:25:12Z</time>
      </trkpt>
      <trkpt lat="23.06596" lon="113.268424">
        <time>2026-08-27T11:25:17Z</time>
      </trkpt>
      <trkpt lat="23.065852" lon="113.268593">
        <time>2026-08-27T11:25:22Z</time>
      </trkpt>
      <trkpt lat="23.065788" lon="113.268715">
        <time>2026-08-27T11:25:27Z</time>
      </trkpt>
      <trkpt lat="23.065737" lon="113.268839">
        <time>2026-08-27T11:25:32Z</time>
      </trkpt>
      <trkpt lat="23.065666" lon="113.269027">
        <time>2026-08-27T11:25:37Z</time>
      </trkpt>
      <trkpt lat="23.065615" lon="113.269223">
        <time>2026-08-27T11:25:42Z</time>
      </trkpt>
      <trkpt lat="23.065583" lon="113.269355">
        <time>2026-08-27T11:25:47Z</time>
      </trkpt>
      <trkpt lat="23.06555" lon="113.269483">
        <time>2026-08-27T11:25:52Z</time>
      </trkpt>
      <trkpt lat="23.065505" lon="113.269667">
        <time>2026-08-27T11:25:57Z</time>
      </trkpt>
      <trkpt lat="23.065445" lon="113.269862">
        <time>2026-08-27T11:26:02Z</time>
      </trkpt>
      <trkpt lat="23.065399" lon="113.270004">
        <time>2026-08-27T11:26:07Z</time>
      </trkpt>
      <trkpt lat="23.065353" lon="113.270146">
        <time>2026-08-27T11:26:12Z</time>
      </trkpt>
      <trkpt lat="23.065271" lon="113.270346">
        <time>2026-08-27T11:26:17Z</time>
      </trkpt>
      <trkpt lat="23.065183" lon="113.27054">
        <time>2026-08-27T11:26:22Z</time>
      </trkpt>
      <trkpt lat="23.065123" lon="113.270669">
        <time>2026-08-27T11:26:27Z</time>
      </trkpt>
      <trkpt lat="23.065063" lon="113.270795">
        <time>2026-08-27T11:26:32Z</time>
      </trkpt>
      <trkpt lat="23.06498" lon="113.270981">
        <time>2026-08-27T11:26:37Z</time>
      </trkpt>
      <trkpt lat="23.064895" lon="113.271157">
        <time>2026-08-27T11:26:42Z</time>
      </trkpt>
      <trkpt lat="23.064835" lon="113.271269">
        <time>2026-08-27T11:26:47Z</time>
      </trkpt>
      <trkpt lat="23.064779" lon="113.271384">
        <time>2026-08-27T11:26:52Z</time>
      </trkpt>
      <trkpt lat="23.064705" lon="113.271564">
        <time>2026-08-27T11:26:57Z</time>
      </trkpt>
      <trkpt lat="23.064628" lon="113.271746">
        <time>2026-08-27T11:27:02Z</time>
      </trkpt>
      <trkpt lat="23.064575" lon="113.27187">
        <time>2026-08-27T11:27:07Z</time>
      </trkpt>
      <trkpt lat="23.064518" lon="113.271996">
        <time>2026-08-27T11:27:12Z</time>
      </trkpt>
      <trkpt lat="23.06441" lon="113.272172">
        <time>2026-08-27T11:27:17Z</time>
      </trkpt>
      <trkpt lat="23.064366" lon="113.272367">
        <time>2026-08-27T11:27:22Z</time>
      </trkpt>
      <trkpt lat="23.064359" lon="113.272502">
        <time>2026-08-27T11:27:27Z</time>
      </trkpt>
      <trkpt lat="23.064365" lon="113.272629">
        <time>2026-08-27T11:27:32Z</time>
      </trkpt>
      <trkpt lat="23.064403" lon="113.272818">
        <time>2026-08-27T11:27:37Z</time>
      </trkpt>
      <trkpt lat="23.064462" lon="113.272995">
        <time>2026-08-27T11:27:42Z</time>
      </trkpt>
      <trkpt lat="23.064502" lon="113.273113">
        <time>2026-08-27T11:27:47Z</time>
      </trkpt>
      <trkpt lat="23.064504" lon="113.27323">
        <time>2026-08-27T11:27:52Z</time>
      </trkpt>
      <trkpt lat="23.064399" lon="113.273362">
        <time>2026-08-27T11:27:57Z</time>
      </trkpt>
      <trkpt lat="23.064238" lon="113.273477">
        <time>2026-08-27T11:28:02Z</time>
      </trkpt>
      <trkpt lat="23.064142" lon="113.273553">
        <time>2026-08-27T11:28:07Z</time>
      </trkpt>
      <trkpt lat="23.064046" lon="113.273638">
        <time>2026-08-27T11:28:12Z</time>
      </trkpt>
      <trkpt lat="23.063918" lon="113.273783">
        <time>2026-08-27T11:28:17Z</time>
      </trkpt>
      <trkpt lat="23.063824" lon="113.273947">
        <time>2026-08-27T11:28:22Z</time>
      </trkpt>
      <trkpt lat="23.063762" lon="113.274046">
        <time>2026-08-27T11:28:27Z</time>
      </trkpt>
      <trkpt lat="23.063677" lon="113.274131">
        <time>2026-08-27T11:28:32Z</time>
      </trkpt>
      <trkpt lat="23.063536" lon="113.274138">
        <time>2026-08-27T11:28:37Z</time>
      </trkpt>
      <trkpt lat="23.063417" lon="113.274206">
        <time>2026-08-27T11:28:42Z</time>
      </trkpt>
      <trkpt lat="23.063359" lon="113.274341">
        <time>2026-08-27T11:28:47Z</time>
      </trkpt>
      <trkpt lat="23.063312" lon="113.274483">
        <time>2026-08-27T11:28:52Z</time>
      </trkpt>
      <trkpt lat="23.063253" lon="113.274674">
        <time>2026-08-27T11:28:57Z</time>
      </trkpt>
      <trkpt lat="23.063185" lon="113.274846">
        <time>2026-08-27T11:29:02Z</time>
      </trkpt>
      <trkpt lat="23.063139" lon="113.274964">
        <time>2026-08-27T11:29:07Z</time>
      </trkpt>
      <trkpt lat="23.063099" lon="113.275089">
        <time>2026-08-27T11:29:12Z</time>
      </trkpt>
      <trkpt lat="23.062986" lon="113.275229">
        <time>2026-08-27T11:29:17Z</time>
      </trkpt>
      <trkpt lat="23.062954" lon="113.275408">
        <time>2026-08-27T11:29:22Z</time>
      </trkpt>
      <trkpt lat="23.062951" lon="113.275538">
        <time>2026-08-27T11:29:27Z</time>
      </trkpt>
      <trkpt lat="23.062879" lon="113.275638">
        <time>2026-08-27T11:29:32Z</time>
      </trkpt>
      <trkpt lat="23.062736" lon="113.275767">
        <time>2026-08-27T11:29:37Z</time>
      </trkpt>
      <trkpt lat="23.062609" lon="113.275918">
        <time>2026-08-27T11:29:42Z</time>
      </trkpt>
      <trkpt lat="23.062541" lon="113.276033">
        <time>2026-08-27T11:29:47Z</time>
      </trkpt>
      <trkpt lat="23.062475" lon="113.276151">
        <time>2026-08-27T11:29:52Z</time>
      </trkpt>
      <trkpt lat="23.062397" lon="113.276326">
        <time>2026-08-27T11:29:57Z</time>
      </trkpt>
      <trkpt lat="23.062337" lon="113.276498">
        <time>2026-08-27T11:30:02Z</time>
      </trkpt>
      <trkpt lat="23.062299" lon="113.276622">
        <time>2026-08-27T11:30:07Z</time>
      </trkpt>
      <trkpt lat="23.062256" lon="113.276744">
        <time>2026-08-27T11:30:12Z</time>
      </trkpt>
      <trkpt lat="23.062185" lon="113.27693">
        <time>2026-08-27T11:30:17Z</time>
      </trkpt>
      <trkpt lat="23.062117" lon="113.277114">
        <time>2026-08-27T11:30:22Z</time>
      </trkpt>
      <trkpt lat="23.062074" lon="113.277245">
        <time>2026-08-27T11:30:27Z</time>
      </trkpt>
      <trkpt lat="23.062026" lon="113.277381">
        <time>2026-08-27T11:30:32Z</time>
      </trkpt>
      <trkpt lat="23.061945" lon="113.277576">
        <time>2026-08-27T11:30:37Z</time>
      </trkpt>
      <trkpt lat="23.061881" lon="113.277774">
        <time>2026-08-27T11:30:42Z</time>
      </trkpt>
      <trkpt lat="23.061867" lon="113.277909">
        <time>2026-08-27T11:30:47Z</time>
      </trkpt>
      <trkpt lat="23.061866" lon="113.278041">
        <time>2026-08-27T11:30:52Z</time>
      </trkpt>
      <trkpt lat="23.061881" lon="113.278233">
        <time>2026-08-27T11:30:57Z</time>
      </trkpt>
      <trkpt lat="23.061889" lon="113.278406">
        <time>2026-08-27T11:31:02Z</time>
      </trkpt>
      <trkpt lat="23.061892" lon="113.278454">
        <time>2026-08-27T11:31:07Z</time>
      </trkpt>
      <trkpt lat="23.061924" lon="113.278474">
        <time>2026-08-27T11:31:12Z</time>
      </trkpt>
      <trkpt lat="23.061995" lon="113.278446">
        <time>2026-08-27T11:31:17Z</time>
      </trkpt>
      <trkpt lat="23.062017" lon="113.278376">
        <time>2026-08-27T11:31:22Z</time>
      </trkpt>
      <trkpt lat="23.062022" lon="113.278324">
        <time>2026-08-27T11:31:27Z</time>
      </trkpt>
      <trkpt lat="23.062024" lon="113.278272">
        <time>2026-08-27T11:31:32Z</time>
      </trkpt>
      <trkpt lat="23.062019" lon="113.278196">
        <time>2026-08-27T11:31:37Z</time>
      </trkpt>
      <trkpt lat="23.062012" lon="113.278126">
        <time>2026-08-27T11:31:42Z</time>
      </trkpt>
      <trkpt lat="23.062007" lon="113.278079">
        <time>2026-08-27T11:31:47Z</time>
      </trkpt>
      <trkpt lat="23.062005" lon="113.278028">
        <time>2026-08-27T11:31:52Z</time>
      </trkpt>
      <trkpt lat="23.062012" lon="113.277948">
        <time>2026-08-27T11:31:57Z</time>
      </trkpt>
      <trkpt lat="23.062011" lon="113.277878">
        <time>2026-08-27T11:32:02Z</time>
      </trkpt>
      <trkpt lat="23.062012" lon="113.277834">
        <time>2026-08-27T11:32:07Z</time>
      </trkpt>
      <trkpt lat="23.062022" lon="113.277789">
        <time>2026-08-27T11:32:12Z</time>
      </trkpt>
      <trkpt lat="23.062037" lon="113.277717">
        <time>2026-08-27T11:32:17Z</time>
      </trkpt>
      <trkpt lat="23.062049" lon="113.277651">
        <time>2026-08-27T11:32:22Z</time>
      </trkpt>
      <trkpt lat="23.062067" lon="113.277607">
        <time>2026-08-27T11:32:27Z</time>
      </trkpt>
      <trkpt lat="23.062081" lon="113.277566">
        <time>2026-08-27T11:32:32Z</time>
      </trkpt>
      <trkpt lat="23.062105" lon="113.277505">
        <time>2026-08-27T11:32:37Z</time>
      </trkpt>
      <trkpt lat="23.062125" lon="113.277449">
        <time>2026-08-27T11:32:42Z</time>
      </trkpt>
      <trkpt lat="23.062137" lon="113.277412">
        <time>2026-08-27T11:32:47Z</time>
      </trkpt>
      <trkpt lat="23.06215" lon="113.277373">
        <time>2026-08-27T11:32:52Z</time>
      </trkpt>
      <trkpt lat="23.06217" lon="113.277312">
        <time>2026-08-27T11:32:57Z</time>
      </trkpt>
      <trkpt lat="23.06219" lon="113.277241">
        <time>2026-08-27T11:33:02Z</time>
      </trkpt>
      <trkpt lat="23.0622" lon="113.277188">
        <time>2026-08-27T11:33:07Z</time>
      </trkpt>
      <trkpt lat="23.062208" lon="113.277138">
        <time>2026-08-27T11:33:12Z</time>
      </trkpt>
      <trkpt lat="23.062242" lon="113.277074">
        <time>2026-08-27T11:33:17Z</time>
      </trkpt>
      <trkpt lat="23.062279" lon="113.277005">
        <time>2026-08-27T11:33:22Z</time>
      </trkpt>
      <trkpt lat="23.062302" lon="113.276947">
        <time>2026-08-27T11:33:27Z</time>
      </trkpt>
      <trkpt lat="23.062326" lon="113.276883">
        <time>2026-08-27T11:33:32Z</time>
      </trkpt>
      <trkpt lat="23.062371" lon="113.276775">
        <time>2026-08-27T11:33:37Z</time>
      </trkpt>
      <trkpt lat="23.062412" lon="113.276668">
        <time>2026-08-27T11:33:42Z</time>
      </trkpt>
      <trkpt lat="23.062439" lon="113.276605">
        <time>2026-08-27T11:33:47Z</time>
      </trkpt>
      <trkpt lat="23.062465" lon="113.276539">
        <time>2026-08-27T11:33:52Z</time>
      </trkpt>
      <trkpt lat="23.062497" lon="113.276463">
        <time>2026-08-27T11:33:57Z</time>
      </trkpt>
      <trkpt lat="23.062512" lon="113.276398">
        <time>2026-08-27T11:34:02Z</time>
      </trkpt>
      <trkpt lat="23.062525" lon="113.276355">
        <time>2026-08-27T11:34:07Z</time>
      </trkpt>
      <trkpt lat="23.062542" lon="113.276319">
        <time>2026-08-27T11:34:12Z</time>
      </trkpt>
      <trkpt lat="23.062559" lon="113.276259">
        <time>2026-08-27T11:34:17Z</time>
      </trkpt>
      <trkpt lat="23.062595" lon="113.276197">
        <time>2026-08-27T11:34:22Z</time>
      </trkpt>
      <trkpt lat="23.062624" lon="113.276159">
        <time>2026-08-27T11:34:27Z</time>
      </trkpt>
      <trkpt lat="23.062649" lon="113.276122">
        <time>2026-08-27T11:34:32Z</time>
      </trkpt>
      <trkpt lat="23.062682" lon="113.27606">
        <time>2026-08-27T11:34:37Z</time>
      </trkpt>
      <trkpt lat="23.062723" lon="113.275985">
        <time>2026-08-27T11:34:42Z</time>
      </trkpt>
      <trkpt lat="23.062769" lon="113.275925">
        <time>2026-08-27T11:34:47Z</time>
      </trkpt>
      <trkpt lat="23.062819" lon="113.275866">
        <time>2026-08-27T11:34:52Z</time>
      </trkpt>
      <trkpt lat="23.062887" lon="113.275783">
        <time>2026-08-27T11:34:57Z</time>
      </trkpt>
      <trkpt lat="23.062959" lon="113.275705">
        <time>2026-08-27T11:35:02Z</time>
      </trkpt>
      <trkpt lat="23.063009" lon="113.275651">
        <time>2026-08-27T11:35:07Z</time>
      </trkpt>
      <trkpt lat="23.063054" lon="113.275594">
        <time>2026-08-27T11:35:12Z</time>
      </trkpt>
      <trkpt lat="23.063113" lon="113.275511">
        <time>2026-08-27T11:35:17Z</time>
      </trkpt>
      <trkpt lat="23.063161" lon="113.275428">
        <time>2026-08-27T11:35:22Z</time>
      </trkpt>
      <trkpt lat="23.063194" lon="113.275371">
        <time>2026-08-27T11:35:27Z</time>
      </trkpt>
      <trkpt lat="23.063232" lon="113.275309">
        <time>2026-08-27T11:35:32Z</time>
      </trkpt>
      <trkpt lat="23.0633" lon="113.275222">
        <time>2026-08-27T11:35:37Z</time>
      </trkpt>
      <trkpt lat="23.06338" lon="113.275167">
        <time>2026-08-27T11:35:42Z</time>
      </trkpt>
      <trkpt lat="23.06341" lon="113.275122">
        <time>2026-08-27T11:35:47Z</time>
      </trkpt>
      <trkpt lat="23.063432" lon="113.275079">
        <time>2026-08-27T11:35:52Z</time>
      </trkpt>
      <trkpt lat="23.063454" lon="113.275012">
        <time>2026-08-27T11:35:57Z</time>
      </trkpt>
      <trkpt lat="23.063472" lon="113.274942">
        <time>2026-08-27T11:36:02Z</time>
      </trkpt>
      <trkpt lat="23.063486" lon="113.274895">
        <time>2026-08-27T11:36:07Z</time>
      </trkpt>
      <trkpt lat="23.063499" lon="113.274856">
        <time>2026-08-27T11:36:12Z</time>
      </trkpt>
      <trkpt lat="23.063528" lon="113.274804">
        <time>2026-08-27T11:36:17Z</time>
      </trkpt>
      <trkpt lat="23.063549" lon="113.274742">
        <time>2026-08-27T11:36:22Z</time>
      </trkpt>
      <trkpt lat="23.063565" lon="113.274702">
        <time>2026-08-27T11:36:27Z</time>
      </trkpt>
      <trkpt lat="23.063576" lon="113.274658">
        <time>2026-08-27T11:36:32Z</time>
      </trkpt>
      <trkpt lat="23.063581" lon="113.274585">
        <time>2026-08-27T11:36:37Z</time>
      </trkpt>
      <trkpt lat="23.063587" lon="113.274482">
        <time>2026-08-27T11:36:42Z</time>
      </trkpt>
      <trkpt lat="23.063622" lon="113.274406">
        <time>2026-08-27T11:36:47Z</time>
      </trkpt>
      <trkpt lat="23.063685" lon="113.274336">
        <time>2026-08-27T11:36:52Z</time>
      </trkpt>
      <trkpt lat="23.063758" lon="113.274223">
        <time>2026-08-27T11:36:57Z</time>
      </trkpt>
      <trkpt lat="23.063841" lon="113.274146">
        <time>2026-08-27T11:37:02Z</time>
      </trkpt>
      <trkpt lat="23.063889" lon="113.274094">
        <time>2026-08-27T11:37:07Z</time>
      </trkpt>
      <trkpt lat="23.063931" lon="113.274027">
        <time>2026-08-27T11:37:12Z</time>
      </trkpt>
      <trkpt lat="23.063994" lon="113.273912">
        <time>2026-08-27T11:37:17Z</time>
      </trkpt>
      <trkpt lat="23.064059" lon="113.27381">
        <time>2026-08-27T11:37:22Z</time>
      </trkpt>
      <trkpt lat="23.064095" lon="113.273762">
        <time>2026-08-27T11:37:27Z</time>
      </trkpt>
      <trkpt lat="23.064126" lon="113.273726">
        <time>2026-08-27T11:37:32Z</time>
      </trkpt>
      <trkpt lat="23.064176" lon="113.273687">
        <time>2026-08-27T11:37:37Z</time>
      </trkpt>
      <trkpt lat="23.064229" lon="113.273649">
        <time>2026-08-27T11:37:42Z</time>
      </trkpt>
      <trkpt lat="23.064265" lon="113.273618">
        <time>2026-08-27T11:37:47Z</time>
      </trkpt>
      <trkpt lat="23.064299" lon="113.27359">
        <time>2026-08-27T11:37:52Z</time>
      </trkpt>
      <trkpt lat="23.064352" lon="113.273546">
        <time>2026-08-27T11:37:57Z</time>
      </trkpt>
      <trkpt lat="23.064412" lon="113.273499">
        <time>2026-08-27T11:38:02Z</time>
      </trkpt>
      <trkpt lat="23.064455" lon="113.273468">
        <time>2026-08-27T11:38:07Z</time>
      </trkpt>
      <trkpt lat="23.064499" lon="113.27343">
        <time>2026-08-27T11:38:12Z</time>
      </trkpt>
      <trkpt lat="23.064575" lon="113.273346">
        <time>2026-08-27T11:38:17Z</time>
      </trkpt>
      <trkpt lat="23.06463" lon="113.273228">
        <time>2026-08-27T11:38:22Z</time>
      </trkpt>
      <trkpt lat="23.06464" lon="113.273145">
        <time>2026-08-27T11:38:27Z</time>
      </trkpt>
      <trkpt lat="23.064629" lon="113.273064">
        <time>2026-08-27T11:38:32Z</time>
      </trkpt>
      <trkpt lat="23.064588" lon="113.272936">
        <time>2026-08-27T11:38:37Z</time>
      </trkpt>
      <trkpt lat="23.064546" lon="113.272812">
        <time>2026-08-27T11:38:42Z</time>
      </trkpt>
      <trkpt lat="23.064522" lon="113.272732">
        <time>2026-08-27T11:38:47Z</time>
      </trkpt>
      <trkpt lat="23.064504" lon="113.272652">
        <time>2026-08-27T11:38:52Z</time>
      </trkpt>
      <trkpt lat="23.064522" lon="113.272537">
        <time>2026-08-27T11:38:57Z</time>
      </trkpt>
      <trkpt lat="23.064562" lon="113.272488">
        <time>2026-08-27T11:39:02Z</time>
      </trkpt>
      <trkpt lat="23.064574" lon="113.272462">
        <time>2026-08-27T11:39:07Z</time>
      </trkpt>
      <trkpt lat="23.064609" lon="113.272394">
        <time>2026-08-27T11:39:12Z</time>
      </trkpt>
      <trkpt lat="23.064651" lon="113.272319">
        <time>2026-08-27T11:39:17Z</time>
      </trkpt>
      <trkpt lat="23.064665" lon="113.272268">
        <time>2026-08-27T11:39:22Z</time>
      </trkpt>
      <trkpt lat="23.064678" lon="113.272219">
        <time>2026-08-27T11:39:27Z</time>
      </trkpt>
      <trkpt lat="23.064706" lon="113.272154">
        <time>2026-08-27T11:39:32Z</time>
      </trkpt>
      <trkpt lat="23.064738" lon="113.272092">
        <time>2026-08-27T11:39:37Z</time>
      </trkpt>
      <trkpt lat="23.064766" lon="113.272027">
        <time>2026-08-27T11:39:42Z</time>
      </trkpt>
      <trkpt lat="23.064802" lon="113.271948">
        <time>2026-08-27T11:39:47Z</time>
      </trkpt>
      <trkpt lat="23.06486" lon="113.27183">
        <time>2026-08-27T11:39:52Z</time>
      </trkpt>
      <trkpt lat="23.064927" lon="113.271721">
        <time>2026-08-27T11:39:57Z</time>
      </trkpt>
      <trkpt lat="23.06496" lon="113.271639">
        <time>2026-08-27T11:40:02Z</time>
      </trkpt>
      <trkpt lat="23.064993" lon="113.271559">
        <time>2026-08-27T11:40:07Z</time>
      </trkpt>
      <trkpt lat="23.065048" lon="113.271451">
        <time>2026-08-27T11:40:12Z</time>
      </trkpt>
      <trkpt lat="23.065104" lon="113.271348">
        <time>2026-08-27T11:40:17Z</time>
      </trkpt>
      <trkpt lat="23.065136" lon="113.271274">
        <time>2026-08-27T11:40:22Z</time>
      </trkpt>
      <trkpt lat="23.065168" lon="113.271191">
        <time>2026-08-27T11:40:27Z</time>
      </trkpt>
      <trkpt lat="23.065233" lon="113.271081">
        <time>2026-08-27T11:40:32Z</time>
      </trkpt>
      <trkpt lat="23.065293" lon="113.270983">
        <time>2026-08-27T11:40:37Z</time>
      </trkpt>
      <trkpt lat="23.065317" lon="113.270911">
        <time>2026-08-27T11:40:42Z</time>
      </trkpt>
      <trkpt lat="23.065336" lon="113.270836">
        <time>2026-08-27T11:40:47Z</time>
      </trkpt>
      <trkpt lat="23.065373" lon="113.270731">
        <time>2026-08-27T11:40:52Z</time>
      </trkpt>
      <trkpt lat="23.065404" lon="113.270663">
        <time>2026-08-27T11:40:57Z</time>
      </trkpt>
      <trkpt lat="23.065423" lon="113.270619">
        <time>2026-08-27T11:41:02Z</time>
      </trkpt>
      <trkpt lat="23.065441" lon="113.270571">
        <time>2026-08-27T11:41:07Z</time>
      </trkpt>
      <trkpt lat="23.06547" lon="113.270502">
        <time>2026-08-27T11:41:12Z</time>
      </trkpt>
      <trkpt lat="23.065505" lon="113.270427">
        <time>2026-08-27T11:41:17Z</time>
      </trkpt>
      <trkpt lat="23.065525" lon="113.270379">
        <time>2026-08-27T11:41:22Z</time>
      </trkpt>
      <trkpt lat="23.065543" lon="113.270335">
        <time>2026-08-27T11:41:27Z</time>
      </trkpt>
      <trkpt lat="23.065575" lon="113.270253">
        <time>2026-08-27T11:41:32Z</time>
      </trkpt>
      <trkpt lat="23.065612" lon="113.270134">
        <time>2026-08-27T11:41:37Z</time>
      </trkpt>
      <trkpt lat="23.065641" lon="113.270058">
        <time>2026-08-27T11:41:42Z</time>
      </trkpt>
      <trkpt lat="23.065669" lon="113.26998">
        <time>2026-08-27T11:41:47Z</time>
      </trkpt>
      <trkpt lat="23.065707" lon="113.269864">
        <time>2026-08-27T11:41:52Z</time>
      </trkpt>
      <trkpt lat="23.065728" lon="113.269753">
        <time>2026-08-27T11:41:57Z</time>
      </trkpt>
      <trkpt lat="23.065723" lon="113.269669">
        <time>2026-08-27T11:42:02Z</time>
      </trkpt>
      <trkpt lat="23.065737" lon="113.269583">
        <time>2026-08-27T11:42:07Z</time>
      </trkpt>
      <trkpt lat="23.065772" lon="113.269457">
        <time>2026-08-27T11:42:12Z</time>
      </trkpt>
      <trkpt lat="23.0658" lon="113.26933">
        <time>2026-08-27T11:42:17Z</time>
      </trkpt>
      <trkpt lat="23.065821" lon="113.269247">
        <time>2026-08-27T11:42:22Z</time>
      </trkpt>
      <trkpt lat="23.065848" lon="113.26917">
        <time>2026-08-27T11:42:27Z</time>
      </trkpt>
      <trkpt lat="23.065895" lon="113.269059">
        <time>2026-08-27T11:42:32Z</time>
      </trkpt>
      <trkpt lat="23.065947" lon="113.268947">
        <time>2026-08-27T11:42:37Z</time>
      </trkpt>
      <trkpt lat="23.06598" lon="113.268871">
        <time>2026-08-27T11:42:42Z</time>
      </trkpt>
      <trkpt lat="23.066016" lon="113.268792">
        <time>2026-08-27T11:42:47Z</time>
      </trkpt>
      <trkpt lat="23.066073" lon="113.26868">
        <time>2026-08-27T11:42:52Z</time>
      </trkpt>
      <trkpt lat="23.066128" lon="113.268573">
        <time>2026-08-27T11:42:57Z</time>
      </trkpt>
      <trkpt lat="23.066158" lon="113.268521">
        <time>2026-08-27T11:43:02Z</time>
      </trkpt>
      <trkpt lat="23.066187" lon="113.268477">
        <time>2026-08-27T11:43:07Z</time>
      </trkpt>
      <trkpt lat="23.066231" lon="113.268416">
        <time>2026-08-27T11:43:12Z</time>
      </trkpt>
      <trkpt lat="23.06628" lon="113.268356">
        <time>2026-08-27T11:43:17Z</time>
      </trkpt>
      <trkpt lat="23.066316" lon="113.268317">
        <time>2026-08-27T11:43:22Z</time>
      </trkpt>
      <trkpt lat="23.066354" lon="113.268279">
        <time>2026-08-27T11:43:27Z</time>
      </trkpt>
      <trkpt lat="23.066414" lon="113.268215">
        <time>2026-08-27T11:43:32Z</time>
      </trkpt>
      <trkpt lat="23.066478" lon="113.268171">
        <time>2026-08-27T11:43:37Z</time>
      </trkpt>
      <trkpt lat="23.066534" lon="113.268151">
        <time>2026-08-27T11:43:42Z</time>
      </trkpt>
      <trkpt lat="23.066614" lon="113.268144">
        <time>2026-08-27T11:43:47Z</time>
      </trkpt>
      <trkpt lat="23.06674" lon="113.268157">
        <time>2026-08-27T11:43:52Z</time>
      </trkpt>
      <trkpt lat="23.066861" lon="113.268147">
        <time>2026-08-27T11:43:57Z</time>
      </trkpt>
      <trkpt lat="23.066944" lon="113.268151">
        <time>2026-08-27T11:44:02Z</time>
      </trkpt>
      <trkpt lat="23.067025" lon="113.268163">
        <time>2026-08-27T11:44:07Z</time>
      </trkpt>
      <trkpt lat="23.067125" lon="113.268195">
        <time>2026-08-27T11:44:12Z</time>
      </trkpt>
      <trkpt lat="23.067213" lon="113.268249">
        <time>2026-08-27T11:44:17Z</time>
      </trkpt>
      <trkpt lat="23.067277" lon="113.268301">
        <time>2026-08-27T11:44:22Z</time>
      </trkpt>
      <trkpt lat="23.067349" lon="113.268348">
        <time>2026-08-27T11:44:27Z</time>
      </trkpt>
      <trkpt lat="23.067445" lon="113.268391">
        <time>2026-08-27T11:44:32Z</time>
      </trkpt>
      <trkpt lat="23.067552" lon="113.268443">
        <time>2026-08-27T11:44:37Z</time>
      </trkpt>
      <trkpt lat="23.067633" lon="113.268486">
        <time>2026-08-27T11:44:42Z</time>
      </trkpt>
      <trkpt lat="23.067714" lon="113.268529">
        <time>2026-08-27T11:44:47Z</time>
      </trkpt>
      <trkpt lat="23.06783" lon="113.268592">
        <time>2026-08-27T11:44:52Z</time>
      </trkpt>
      <trkpt lat="23.067943" lon="113.268647">
        <time>2026-08-27T11:44:57Z</time>
      </trkpt>
      <trkpt lat="23.068013" lon="113.268685">
        <time>2026-08-27T11:45:02Z</time>
      </trkpt>
      <trkpt lat="23.068057" lon="113.268728">
        <time>2026-08-27T11:45:07Z</time>
      </trkpt>
      <trkpt lat="23.068121" lon="113.268769">
        <time>2026-08-27T11:45:12Z</time>
      </trkpt>
      <trkpt lat="23.068198" lon="113.268801">
        <time>2026-08-27T11:45:17Z</time>
      </trkpt>
      <trkpt lat="23.068259" lon="113.268823">
        <time>2026-08-27T11:45:22Z</time>
      </trkpt>
      <trkpt lat="23.068319" lon="113.268855">
        <time>2026-08-27T11:45:27Z</time>
      </trkpt>
      <trkpt lat="23.068385" lon="113.268905">
        <time>2026-08-27T11:45:32Z</time>
      </trkpt>
      <trkpt lat="23.06846" lon="113.268997">
        <time>2026-08-27T11:45:37Z</time>
      </trkpt>
      <trkpt lat="23.068514" lon="113.26905">
        <time>2026-08-27T11:45:42Z</time>
      </trkpt>
      <trkpt lat="23.06857" lon="113.269078">
        <time>2026-08-27T11:45:47Z</time>
      </trkpt>
      <trkpt lat="23.068654" lon="113.269113">
        <time>2026-08-27T11:45:52Z</time>
      </trkpt>
      <trkpt lat="23.06873" lon="113.269152">
        <time>2026-08-27T11:45:57Z</time>
      </trkpt>
      <trkpt lat="23.068779" lon="113.269163">
        <time>2026-08-27T11:46:02Z</time>
      </trkpt>
      <trkpt lat="23.068833" lon="113.269172">
        <time>2026-08-27T11:46:07Z</time>
      </trkpt>
      <trkpt lat="23.068923" lon="113.269173">
        <time>2026-08-27T11:46:12Z</time>
      </trkpt>
      <trkpt lat="23.069002" lon="113.269188">
        <time>2026-08-27T11:46:17Z</time>
      </trkpt>
      <trkpt lat="23.069054" lon="113.269203">
        <time>2026-08-27T11:46:22Z</time>
      </trkpt>
      <trkpt lat="23.069105" lon="113.269224">
        <time>2026-08-27T11:46:27Z</time>
      </trkpt>
      <trkpt lat="23.069191" lon="113.269266">
        <time>2026-08-27T11:46:32Z</time>
      </trkpt>
      <trkpt lat="23.069311" lon="113.269333">
        <time>2026-08-27T11:46:37Z</time>
      </trkpt>
      <trkpt lat="23.069403" lon="113.269384">
        <time>2026-08-27T11:46:42Z</time>
      </trkpt>
      <trkpt lat="23.069486" lon="113.269428">
        <time>2026-08-27T11:46:47Z</time>
      </trkpt>
      <trkpt lat="23.069608" lon="113.269491">
        <time>2026-08-27T11:46:52Z</time>
      </trkpt>
      <trkpt lat="23.069741" lon="113.269556">
        <time>2026-08-27T11:46:57Z</time>
      </trkpt>
      <trkpt lat="23.069833" lon="113.2696">
        <time>2026-08-27T11:47:02Z</time>
      </trkpt>
      <trkpt lat="23.069913" lon="113.269646">
        <time>2026-08-27T11:47:07Z</time>
      </trkpt>
      <trkpt lat="23.070022" lon="113.269724">
        <time>2026-08-27T11:47:12Z</time>
      </trkpt>
      <trkpt lat="23.070132" lon="113.269796">
        <time>2026-08-27T11:47:17Z</time>
      </trkpt>
      <trkpt lat="23.07021" lon="113.269839">
        <time>2026-08-27T11:47:22Z</time>
      </trkpt>
      <trkpt lat="23.070295" lon="113.269866">
        <time>2026-08-27T11:47:27Z</time>
      </trkpt>
      <trkpt lat="23.070408" lon="113.269909">
        <time>2026-08-27T11:47:32Z</time>
      </trkpt>
      <trkpt lat="23.070518" lon="113.269959">
        <time>2026-08-27T11:47:37Z</time>
      </trkpt>
      <trkpt lat="23.070591" lon="113.269988">
        <time>2026-08-27T11:47:42Z</time>
      </trkpt>
      <trkpt lat="23.070662" lon="113.27002">
        <time>2026-08-27T11:47:47Z</time>
      </trkpt>
      <trkpt lat="23.070778" lon="113.270079">
        <time>2026-08-27T11:47:52Z</time>
      </trkpt>
      <trkpt lat="23.070885" lon="113.270155">
        <time>2026-08-27T11:47:57Z</time>
      </trkpt>
      <trkpt lat="23.070947" lon="113.270198">
        <time>2026-08-27T11:48:02Z</time>
      </trkpt>
      <trkpt lat="23.071034" lon="113.270218">
        <time>2026-08-27T11:48:07Z</time>
      </trkpt>
      <trkpt lat="23.071152" lon="113.270246">
        <time>2026-08-27T11:48:12Z</time>
      </trkpt>
      <trkpt lat="23.071223" lon="113.270295">
        <time>2026-08-27T11:48:17Z</time>
      </trkpt>
      <trkpt lat="23.071266" lon="113.270329">
        <time>2026-08-27T11:48:22Z</time>
      </trkpt>
      <trkpt lat="23.071314" lon="113.270355">
        <time>2026-08-27T11:48:27Z</time>
      </trkpt>
      <trkpt lat="23.071385" lon="113.270384">
        <time>2026-08-27T11:48:32Z</time>
      </trkpt>
      <trkpt lat="23.07147" lon="113.270425">
        <time>2026-08-27T11:48:37Z</time>
      </trkpt>
      <trkpt lat="23.07154" lon="113.270466">
        <time>2026-08-27T11:48:42Z</time>
      </trkpt>
      <trkpt lat="23.071614" lon="113.270504">
        <time>2026-08-27T11:48:47Z</time>
      </trkpt>
      <trkpt lat="23.07174" lon="113.270549">
        <time>2026-08-27T11:48:52Z</time>
      </trkpt>
      <trkpt lat="23.071854" lon="113.270622">
        <time>2026-08-27T11:48:57Z</time>
      </trkpt>
      <trkpt lat="23.07193" lon="113.270674">
        <time>2026-08-27T11:49:02Z</time>
      </trkpt>
      <trkpt lat="23.072003" lon="113.270724">
        <time>2026-08-27T11:49:07Z</time>
      </trkpt>
      <trkpt lat="23.072123" lon="113.270762">
        <time>2026-08-27T11:49:12Z</time>
      </trkpt>
      <trkpt lat="23.072231" lon="113.270821">
        <time>2026-08-27T11:49:17Z</time>
      </trkpt>
      <trkpt lat="23.072288" lon="113.270859">
        <time>2026-08-27T11:49:22Z</time>
      </trkpt>
      <trkpt lat="23.072351" lon="113.270892">
        <time>2026-08-27T11:49:27Z</time>
      </trkpt>
      <trkpt lat="23.07246" lon="113.270941">
        <time>2026-08-27T11:49:32Z</time>
      </trkpt>
      <trkpt lat="23.072577" lon="113.270987">
        <time>2026-08-27T11:49:37Z</time>
      </trkpt>
      <trkpt lat="23.072654" lon="113.271023">
        <time>2026-08-27T11:49:42Z</time>
      </trkpt>
      <trkpt lat="23.072728" lon="113.271059">
        <time>2026-08-27T11:49:47Z</time>
      </trkpt>
      <trkpt lat="23.072834" lon="113.271109">
        <time>2026-08-27T11:49:52Z</time>
      </trkpt>
      <trkpt lat="23.072945" lon="113.27116">
        <time>2026-08-27T11:49:57Z</time>
      </trkpt>
      <trkpt lat="23.073023" lon="113.271194">
        <time>2026-08-27T11:50:02Z</time>
      </trkpt>
      <trkpt lat="23.073098" lon="113.271225">
        <time>2026-08-27T11:50:07Z</time>
      </trkpt>
      <trkpt lat="23.073216" lon="113.271223">
        <time>2026-08-27T11:50:12Z</time>
      </trkpt>
      <trkpt lat="23.073264" lon="113.271274">
        <time>2026-08-27T11:50:17Z</time>
      </trkpt>
      <trkpt lat="23.073315" lon="113.271329">
        <time>2026-08-27T11:50:22Z</time>
      </trkpt>
      <trkpt lat="23.073398" lon="113.271367">
        <time>2026-08-27T11:50:27Z</time>
      </trkpt>
      <trkpt lat="23.073491" lon="113.271425">
        <time>2026-08-27T11:50:32Z</time>
      </trkpt>
      <trkpt lat="23.073556" lon="113.271474">
        <time>2026-08-27T11:50:37Z</time>
      </trkpt>
      <trkpt lat="23.073597" lon="113.271507">
        <time>2026-08-27T11:50:42Z</time>
      </trkpt>
      <trkpt lat="23.073637" lon="113.271547">
        <time>2026-08-27T11:50:47Z</time>
      </trkpt>
      <trkpt lat="23.073697" lon="113.27161">
        <time>2026-08-27T11:50:52Z</time>
      </trkpt>
      <trkpt lat="23.073771" lon="113.271642">
        <time>2026-08-27T11:50:57Z</time>
      </trkpt>
      <trkpt lat="23.073833" lon="113.271661">
        <time>2026-08-27T11:51:02Z</time>
      </trkpt>
      <trkpt lat="23.073914" lon="113.271668">
        <time>2026-08-27T11:51:10Z</time>
      </trkpt>
    </trkseg>
  </trk>
</gpx>