<?xml version="1.0" encoding="UTF-8"?>
<gpx xmlns="http://www.topografix.com/GPX/1/1" xmlns:gpxtpx="http://www.garmin.com/xmlschemas/TrackPointExtension/v1" xmlns:xsi="http://www.w3.org/2001/XMLSchema-instance" xsi:schemaLocation="http://www.topografix.com/GPX/1/1 http://www.topografix.com/GPX/1/1/gpx.xsd" version="1.1" creator="gpx.py -- https://github.com/tkrajina/gpxpy">
  <trk>
    <name>gpx from joyrun</name>
    <trkseg>
      <trkpt lat="23.076145" lon="113.272757">
        <time>2026-08-29T23:39:47Z</time>
      </trkpt>
      <trkpt lat="23.07611" lon="113.272702">
        <time>2026-08-29T23:39:52Z</time>
      </trkpt>
      <trkpt lat="23.076031" lon="113.272634">
        <time>2026-08-29T23:39:57Z</time>
      </trkpt>
      <trkpt lat="23.075925" lon="113.272569">
        <time>2026-08-29T23:40:02Z</time>
      </trkpt>
      <trkpt lat="23.07585" lon="113.272524">
        <time>2026-08-29T23:40:07Z</time>
      </trkpt>
      <trkpt lat="23.075764" lon="113.272469">
        <time>2026-08-29T23:40:12Z</time>
      </trkpt>
      <trkpt lat="23.075627" lon="113.272406">
        <time>2026-08-29T23:40:17Z</time>
      </trkpt>
      <trkpt lat="23.075464" lon="113.272379">
        <time>2026-08-29T23:40:22Z</time>
      </trkpt>
      <trkpt lat="23.075365" lon="113.272362">
        <time>2026-08-29T23:40:27Z</time>
      </trkpt>
      <trkpt lat="23.075303" lon="113.272327">
        <time>2026-08-29T23:40:32Z</time>
      </trkpt>
      <trkpt lat="23.075303" lon="113.272228">
        <time>2026-08-29T23:40:37Z</time>
      </trkpt>
      <trkpt lat="23.075311" lon="113.272165">
        <time>2026-08-29T23:40:42Z</time>
      </trkpt>
      <trkpt lat="23.075347" lon="113.272183">
        <time>2026-08-29T23:40:47Z</time>
      </trkpt>
      <trkpt lat="23.075412" lon="113.272218">
        <time>2026-08-29T23:40:52Z</time>
      </trkpt>
      <trkpt lat="23.075529" lon="113.272261">
        <time>2026-08-29T23:40:57Z</time>
      </trkpt>
      <trkpt lat="23.075627" lon="113.272327">
        <time>2026-08-29T23:41:02Z</time>
      </trkpt>
      <trkpt lat="23.075689" lon="113.272364">
        <time>2026-08-29T23:41:07Z</time>
      </trkpt>
      <trkpt lat="23.075755" lon="113.272405">
        <time>2026-08-29T23:41:12Z</time>
      </trkpt>
      <trkpt lat="23.075854" lon="113.272456">
        <time>2026-08-29T23:41:17Z</time>
      </trkpt>
      <trkpt lat="23.075947" lon="113.272519">
        <time>2026-08-29T23:41:22Z</time>
      </trkpt>
      <trkpt lat="23.075995" lon="113.272569">
        <time>2026-08-29T23:41:27Z</time>
      </trkpt>
      <trkpt lat="23.07604" lon="113.272626">
        <time>2026-08-29T23:41:32Z</time>
      </trkpt>
      <trkpt lat="23.076128" lon="113.272703">
        <time>2026-08-29T23:41:37Z</time>
      </trkpt>
      <trkpt lat="23.076246" lon="113.272778">
        <time>2026-08-29T23:41:42Z</time>
      </trkpt>
      <trkpt lat="23.076325" lon="113.272793">
        <time>2026-08-29T23:41:47Z</time>
      </trkpt>
      <trkpt lat="23.076403" lon="113.272821">
        <time>2026-08-29T23:41:52Z</time>
      </trkpt>
      <trkpt lat="23.076516" lon="113.27293">
        <time>2026-08-29T23:41:57Z</time>
      </trkpt>
      <trkpt lat="23.076552" lon="113.273087">
        <time>2026-08-29T23:42:02Z</time>
      </trkpt>
      <trkpt lat="23.076603" lon="113.273158">
        <time>2026-08-29T23:42:07Z</time>
      </trkpt>
      <trkpt lat="23.076683" lon="113.273231">
        <time>2026-08-29T23:42:12Z</time>
      </trkpt>
      <trkpt lat="23.07678" lon="113.273326">
        <time>2026-08-29T23:42:17Z</time>
      </trkpt>
      <trkpt lat="23.076845" lon="113.273442">
        <time>2026-08-29T23:42:22Z</time>
      </trkpt>
      <trkpt lat="23.076906" lon="113.273497">
        <time>2026-08-29T23:42:27Z</time>
      </trkpt>
      <trkpt lat="23.076972" lon="113.27355">
        <time>2026-08-29T23:42:32Z</time>
      </trkpt>
      <trkpt lat="23.077072" lon="113.273615">
        <time>2026-08-29T23:42:37Z</time>
      </trkpt>
      <trkpt lat="23.077172" lon="113.273654">
        <time>2026-08-29T23:42:42Z</time>
      </trkpt>
      <trkpt lat="23.077242" lon="113.273665">
        <time>2026-08-29T23:42:47Z</time>
      </trkpt>
      <trkpt lat="23.077316" lon="113.273655">
        <time>2026-08-29T23:42:52Z</time>
      </trkpt>
      <trkpt lat="23.077408" lon="113.273574">
        <time>2026-08-29T23:42:57Z</time>
      </trkpt>
      <trkpt lat="23.077497" lon="113.273469">
        <time>2026-08-29T23:43:02Z</time>
      </trkpt>
      <trkpt lat="23.077552" lon="113.273424">
        <time>2026-08-29T23:43:07Z</time>
      </trkpt>
      <trkpt lat="23.077617" lon="113.273393">
        <time>2026-08-29T23:43:12Z</time>
      </trkpt>
      <trkpt lat="23.077718" lon="113.273329">
        <time>2026-08-29T23:43:17Z</time>
      </trkpt>
      <trkpt lat="23.077824" lon="113.273299">
        <time>2026-08-29T23:43:22Z</time>
      </trkpt>
      <trkpt lat="23.077889" lon="113.273261">
        <time>2026-08-29T23:43:27Z</time>
      </trkpt>
      <trkpt lat="23.077958" lon="113.273189">
        <time>2026-08-29T23:43:32Z</time>
      </trkpt>
      <trkpt lat="23.078069" lon="113.273091">
        <time>2026-08-29T23:43:37Z</time>
      </trkpt>
      <trkpt lat="23.078211" lon="113.273042">
        <time>2026-08-29T23:43:42Z</time>
      </trkpt>
      <trkpt lat="23.078288" lon="113.272987">
        <time>2026-08-29T23:43:47Z</time>
      </trkpt>
      <trkpt lat="23.078359" lon="113.272918">
        <time>2026-08-29T23:43:52Z</time>
      </trkpt>
      <trkpt lat="23.078448" lon="113.272825">
        <time>2026-08-29T23:43:57Z</time>
      </trkpt>
      <trkpt lat="23.078529" lon="113.27274">
        <time>2026-08-29T23:44:02Z</time>
      </trkpt>
      <trkpt lat="23.078581" lon="113.27268">
        <time>2026-08-29T23:44:07Z</time>
      </trkpt>
      <trkpt lat="23.078642" lon="113.272621">
        <time>2026-08-29T23:44:12Z</time>
      </trkpt>
      <trkpt lat="23.078755" lon="113.272546">
        <time>2026-08-29T23:44:17Z</time>
      </trkpt>
      <trkpt lat="23.078861" lon="113.272482">
        <time>2026-08-29T23:44:22Z</time>
      </trkpt>
      <trkpt lat="23.078925" lon="113.272433">
        <time>2026-08-29T23:44:27Z</time>
      </trkpt>
      <trkpt lat="23.07899" lon="113.272387">
        <time>2026-08-29T23:44:32Z</time>
      </trkpt>
      <trkpt lat="23.079078" lon="113.2723">
        <time>2026-08-29T23:44:37Z</time>
      </trkpt>
      <trkpt lat="23.079164" lon="113.272206">
        <time>2026-08-29T23:44:42Z</time>
      </trkpt>
      <trkpt lat="23.07922" lon="113.272151">
        <time>2026-08-29T23:44:47Z</time>
      </trkpt>
      <trkpt lat="23.079272" lon="113.272103">
        <time>2026-08-29T23:44:52Z</time>
      </trkpt>
      <trkpt lat="23.07935" lon="113.272039">
        <time>2026-08-29T23:44:57Z</time>
      </trkpt>
      <trkpt lat="23.079435" lon="113.272079">
        <time>2026-08-29T23:45:02Z</time>
      </trkpt>
      <trkpt lat="23.07951" lon="113.272129">
        <time>2026-08-29T23:45:07Z</time>
      </trkpt>
      <trkpt lat="23.079589" lon="113.272144">
        <time>2026-08-29T23:45:12Z</time>
      </trkpt>
      <trkpt lat="23.079697" lon="113.272178">
        <time>2026-08-29T23:45:17Z</time>
      </trkpt>
      <trkpt lat="23.079803" lon="113.272214">
        <time>2026-08-29T23:45:22Z</time>
      </trkpt>
      <trkpt lat="23.079881" lon="113.272244">
        <time>2026-08-29T23:45:27Z</time>
      </trkpt>
      <trkpt lat="23.079952" lon="113.272292">
        <time>2026-08-29T23:45:32Z</time>
      </trkpt>
      <trkpt lat="23.08004" lon="113.272355">
        <time>2026-08-29T23:45:37Z</time>
      </trkpt>
      <trkpt lat="23.080131" lon="113.272414">
        <time>2026-08-29T23:45:42Z</time>
      </trkpt>
      <trkpt lat="23.080204" lon="113.272458">
        <time>2026-08-29T23:45:47Z</time>
      </trkpt>
      <trkpt lat="23.080298" lon="113.272503">
        <time>2026-08-29T23:45:52Z</time>
      </trkpt>
      <trkpt lat="23.080433" lon="113.272542">
        <time>2026-08-29T23:45:57Z</time>
      </trkpt>
      <trkpt lat="23.080543" lon="113.272611">
        <time>2026-08-29T23:46:02Z</time>
      </trkpt>
      <trkpt lat="23.080611" lon="113.272662">
        <time>2026-08-29T23:46:07Z</time>
      </trkpt>
      <trkpt lat="23.080682" lon="113.272695">
        <time>2026-08-29T23:46:12Z</time>
      </trkpt>
      <trkpt lat="23.080824" lon="113.272736">
        <time>2026-08-29T23:46:17Z</time>
      </trkpt>
      <trkpt lat="23.080956" lon="113.272774">
        <time>2026-08-29T23:46:22Z</time>
      </trkpt>
      <trkpt lat="23.08104" lon="113.272819">
        <time>2026-08-29T23:46:27Z</time>
      </trkpt>
      <trkpt lat="23.081124" lon="113.272879">
        <time>2026-08-29T23:46:32Z</time>
      </trkpt>
      <trkpt lat="23.081248" lon="113.272963">
        <time>2026-08-29T23:46:37Z</time>
      </trkpt>
      <trkpt lat="23.081354" lon="113.27305">
        <time>2026-08-29T23:46:42Z</time>
      </trkpt>
      <trkpt lat="23.081372" lon="113.273119">
        <time>2026-08-29T23:46:47Z</time>
      </trkpt>
      <trkpt lat="23.081379" lon="113.273185">
        <time>2026-08-29T23:46:52Z</time>
      </trkpt>
      <trkpt lat="23.081262" lon="113.273146">
        <time>2026-08-29T23:46:57Z</time>
      </trkpt>
      <trkpt lat="23.081141" lon="113.273094">
        <time>2026-08-29T23:47:02Z</time>
      </trkpt>
      <trkpt lat="23.081071" lon="113.273063">
        <time>2026-08-29T23:47:07Z</time>
      </trkpt>
      <trkpt lat="23.080999" lon="113.273035">
        <time>2026-08-29T23:47:12Z</time>
      </trkpt>
      <trkpt lat="23.0809" lon="113.272985">
        <time>2026-08-29T23:47:17Z</time>
      </trkpt>
      <trkpt lat="23.080804" lon="113.273004">
        <time>2026-08-29T23:47:22Z</time>
      </trkpt>
      <trkpt lat="23.080717" lon="113.273086">
        <time>2026-08-29T23:47:27Z</time>
      </trkpt>
      <trkpt lat="23.080653" lon="113.273186">
        <time>2026-08-29T23:47:32Z</time>
      </trkpt>
      <trkpt lat="23.080593" lon="113.273342">
        <time>2026-08-29T23:47:37Z</time>
      </trkpt>
      <trkpt lat="23.080546" lon="113.273542">
        <time>2026-08-29T23:47:42Z</time>
      </trkpt>
      <trkpt lat="23.080549" lon="113.273651">
        <time>2026-08-29T23:47:47Z</time>
      </trkpt>
      <trkpt lat="23.080577" lon="113.273743">
        <time>2026-08-29T23:47:52Z</time>
      </trkpt>
      <trkpt lat="23.080655" lon="113.273858">
        <time>2026-08-29T23:47:57Z</time>
      </trkpt>
      <trkpt lat="23.080777" lon="113.27392">
        <time>2026-08-29T23:48:02Z</time>
      </trkpt>
      <trkpt lat="23.08087" lon="113.273945">
        <time>2026-08-29T23:48:07Z</time>
      </trkpt>
      <trkpt lat="23.080958" lon="113.273974">
        <time>2026-08-29T23:48:12Z</time>
      </trkpt>
      <trkpt lat="23.081086" lon="113.274014">
        <time>2026-08-29T23:48:17Z</time>
      </trkpt>
      <trkpt lat="23.08124" lon="113.274043">
        <time>2026-08-29T23:48:22Z</time>
      </trkpt>
      <trkpt lat="23.081319" lon="113.274061">
        <time>2026-08-29T23:48:27Z</time>
      </trkpt>
      <trkpt lat="23.081397" lon="113.27408">
        <time>2026-08-29T23:48:32Z</time>
      </trkpt>
      <trkpt lat="23.081526" lon="113.274115">
        <time>2026-08-29T23:48:37Z</time>
      </trkpt>
      <trkpt lat="23.081657" lon="113.274146">
        <time>2026-08-29T23:48:42Z</time>
      </trkpt>
      <trkpt lat="23.081745" lon="113.274153">
        <time>2026-08-29T23:48:47Z</time>
      </trkpt>
      <trkpt lat="23.081827" lon="113.274131">
        <time>2026-08-29T23:48:52Z</time>
      </trkpt>
      <trkpt lat="23.081932" lon="113.27406">
        <time>2026-08-29T23:48:57Z</time>
      </trkpt>
      <trkpt lat="23.082042" lon="113.273954">
        <time>2026-08-29T23:49:02Z</time>
      </trkpt>
      <trkpt lat="23.082088" lon="113.273871">
        <time>2026-08-29T23:49:07Z</time>
      </trkpt>
      <trkpt lat="23.08211" lon="113.27378">
        <time>2026-08-29T23:49:12Z</time>
      </trkpt>
      <trkpt lat="23.08211" lon="113.27363">
        <time>2026-08-29T23:49:17Z</time>
      </trkpt>
      <trkpt lat="23.082067" lon="113.273499">
        <time>2026-08-29T23:49:22Z</time>
      </trkpt>
      <trkpt lat="23.082008" lon="113.273431">
        <time>2026-08-29T23:49:27Z</time>
      </trkpt>
      <trkpt lat="23.081933" lon="113.27339">
        <time>2026-08-29T23:49:32Z</time>
      </trkpt>
      <trkpt lat="23.081818" lon="113.273337">
        <time>2026-08-29T23:49:37Z</time>
      </trkpt>
      <trkpt lat="23.081702" lon="113.273271">
        <time>2026-08-29T23:49:42Z</time>
      </trkpt>
      <trkpt lat="23.08163" lon="113.273222">
        <time>2026-08-29T23:49:47Z</time>
      </trkpt>
      <trkpt lat="23.081553" lon="113.273182">
        <time>2026-08-29T23:49:52Z</time>
      </trkpt>
      <trkpt lat="23.081438" lon="113.273127">
        <time>2026-08-29T23:49:57Z</time>
      </trkpt>
      <trkpt lat="23.081328" lon="113.273075">
        <time>2026-08-29T23:50:02Z</time>
      </trkpt>
      <trkpt lat="23.081252" lon="113.273038">
        <time>2026-08-29T23:50:07Z</time>
      </trkpt>
      <trkpt lat="23.081177" lon="113.272993">
        <time>2026-08-29T23:50:12Z</time>
      </trkpt>
      <trkpt lat="23.081056" lon="113.272925">
        <time>2026-08-29T23:50:17Z</time>
      </trkpt>
      <trkpt lat="23.080943" lon="113.27285">
        <time>2026-08-29T23:50:22Z</time>
      </trkpt>
      <trkpt lat="23.080885" lon="113.272834">
        <time>2026-08-29T23:50:27Z</time>
      </trkpt>
      <trkpt lat="23.080826" lon="113.272857">
        <time>2026-08-29T23:50:32Z</time>
      </trkpt>
      <trkpt lat="23.080718" lon="113.27302">
        <time>2026-08-29T23:50:37Z</time>
      </trkpt>
      <trkpt lat="23.080641" lon="113.273229">
        <time>2026-08-29T23:50:42Z</time>
      </trkpt>
      <trkpt lat="23.080622" lon="113.273362">
        <time>2026-08-29T23:50:47Z</time>
      </trkpt>
      <trkpt lat="23.080621" lon="113.273493">
        <time>2026-08-29T23:50:52Z</time>
      </trkpt>
      <trkpt lat="23.08064" lon="113.273657">
        <time>2026-08-29T23:50:57Z</time>
      </trkpt>
      <trkpt lat="23.0807" lon="113.273783">
        <time>2026-08-29T23:51:02Z</time>
      </trkpt>
      <trkpt lat="23.080771" lon="113.273845">
        <time>2026-08-29T23:51:07Z</time>
      </trkpt>
      <trkpt lat="23.080853" lon="113.273883">
        <time>2026-08-29T23:51:12Z</time>
      </trkpt>
      <trkpt lat="23.080973" lon="113.273936">
        <time>2026-08-29T23:51:17Z</time>
      </trkpt>
      <trkpt lat="23.08109" lon="113.273988">
        <time>2026-08-29T23:51:22Z</time>
      </trkpt>
      <trkpt lat="23.081169" lon="113.274018">
        <time>2026-08-29T23:51:27Z</time>
      </trkpt>
      <trkpt lat="23.081247" lon="113.274049">
        <time>2026-08-29T23:51:32Z</time>
      </trkpt>
      <trkpt lat="23.081357" lon="113.274097">
        <time>2026-08-29T23:51:37Z</time>
      </trkpt>
      <trkpt lat="23.081473" lon="113.27413">
        <time>2026-08-29T23:51:42Z</time>
      </trkpt>
      <trkpt lat="23.081552" lon="113.274151">
        <time>2026-08-29T23:51:47Z</time>
      </trkpt>
      <trkpt lat="23.081636" lon="113.274165">
        <time>2026-08-29T23:51:52Z</time>
      </trkpt>
      <trkpt lat="23.081767" lon="113.274166">
        <time>2026-08-29T23:51:57Z</time>
      </trkpt>
      <trkpt lat="23.081881" lon="113.274117">
        <time>2026-08-29T23:52:02Z</time>
      </trkpt>
      <trkpt lat="23.081947" lon="113.274068">
        <time>2026-08-29T23:52:07Z</time>
      </trkpt>
      <trkpt lat="23.082013" lon="113.27401">
        <time>2026-08-29T23:52:12Z</time>
      </trkpt>
      <trkpt lat="23.082085" lon="113.273898">
        <time>2026-08-29T23:52:17Z</time>
      </trkpt>
      <trkpt lat="23.082118" lon="113.273769">
        <time>2026-08-29T23:52:22Z</time>
      </trkpt>
      <trkpt lat="23.082122" lon="113.273678">
        <time>2026-08-29T23:52:27Z</time>
      </trkpt>
      <trkpt lat="23.082101" lon="113.273591">
        <time>2026-08-29T23:52:32Z</time>
      </trkpt>
      <trkpt lat="23.082039" lon="113.273477">
        <time>2026-08-29T23:52:37Z</time>
      </trkpt>
      <trkpt lat="23.081937" lon="113.273403">
        <time>2026-08-29T23:52:42Z</time>
      </trkpt>
      <trkpt lat="23.081858" lon="113.273363">
        <time>2026-08-29T23:52:47Z</time>
      </trkpt>
      <trkpt lat="23.081778" lon="113.273315">
        <time>2026-08-29T23:52:52Z</time>
      </trkpt>
      <trkpt lat="23.081667" lon="113.273242">
        <time>2026-08-29T23:52:57Z</time>
      </trkpt>
      <trkpt lat="23.081552" lon="113.273171">
        <time>2026-08-29T23:53:02Z</time>
      </trkpt>
      <trkpt lat="23.081479" lon="113.273134">
        <time>2026-08-29T23:53:07Z</time>
      </trkpt>
      <trkpt lat="23.081402" lon="113.273112">
        <time>2026-08-29T23:53:12Z</time>
      </trkpt>
      <trkpt lat="23.081289" lon="113.273062">
        <time>2026-08-29T23:53:17Z</time>
      </trkpt>
      <trkpt lat="23.081172" lon="113.273012">
        <time>2026-08-29T23:53:22Z</time>
      </trkpt>
      <trkpt lat="23.081077" lon="113.273008">
        <time>2026-08-29T23:53:27Z</time>
      </trkpt>
      <trkpt lat="23.080992" lon="113.27299">
        <time>2026-08-29T23:53:32Z</time>
      </trkpt>
      <trkpt lat="23.080895" lon="113.272948">
        <time>2026-08-29T23:53:37Z</time>
      </trkpt>
      <trkpt lat="23.0808" lon="113.272984">
        <time>2026-08-29T23:53:42Z</time>
      </trkpt>
      <trkpt lat="23.080726" lon="113.273083">
        <time>2026-08-29T23:53:47Z</time>
      </trkpt>
      <trkpt lat="23.080666" lon="113.273199">
        <time>2026-08-29T23:53:52Z</time>
      </trkpt>
      <trkpt lat="23.080588" lon="113.273372">
        <time>2026-08-29T23:53:57Z</time>
      </trkpt>
      <trkpt lat="23.080556" lon="113.273556">
        <time>2026-08-29T23:54:02Z</time>
      </trkpt>
      <trkpt lat="23.080557" lon="113.273678">
        <time>2026-08-29T23:54:07Z</time>
      </trkpt>
      <trkpt lat="23.080593" lon="113.273778">
        <time>2026-08-29T23:54:12Z</time>
      </trkpt>
      <trkpt lat="23.080699" lon="113.273881">
        <time>2026-08-29T23:54:17Z</time>
      </trkpt>
      <trkpt lat="23.080835" lon="113.273938">
        <time>2026-08-29T23:54:22Z</time>
      </trkpt>
      <trkpt lat="23.080923" lon="113.27396">
        <time>2026-08-29T23:54:27Z</time>
      </trkpt>
      <trkpt lat="23.081009" lon="113.273983">
        <time>2026-08-29T23:54:32Z</time>
      </trkpt>
      <trkpt lat="23.081133" lon="113.274018">
        <time>2026-08-29T23:54:37Z</time>
      </trkpt>
      <trkpt lat="23.081252" lon="113.274054">
        <time>2026-08-29T23:54:42Z</time>
      </trkpt>
      <trkpt lat="23.081329" lon="113.274076">
        <time>2026-08-29T23:54:47Z</time>
      </trkpt>
      <trkpt lat="23.081411" lon="113.274098">
        <time>2026-08-29T23:54:52Z</time>
      </trkpt>
      <trkpt lat="23.081534" lon="113.274131">
        <time>2026-08-29T23:54:57Z</time>
      </trkpt>
      <trkpt lat="23.081657" lon="113.27416">
        <time>2026-08-29T23:55:02Z</time>
      </trkpt>
      <trkpt lat="23.08174" lon="113.27417">
        <time>2026-08-29T23:55:07Z</time>
      </trkpt>
      <trkpt lat="23.081824" lon="113.274154">
        <time>2026-08-29T23:55:12Z</time>
      </trkpt>
      <trkpt lat="23.081941" lon="113.274087">
        <time>2026-08-29T23:55:17Z</time>
      </trkpt>
      <trkpt lat="23.082039" lon="113.273998">
        <time>2026-08-29T23:55:22Z</time>
      </trkpt>
      <trkpt lat="23.082084" lon="113.273915">
        <time>2026-08-29T23:55:27Z</time>
      </trkpt>
      <trkpt lat="23.082109" lon="113.273825">
        <time>2026-08-29T23:55:32Z</time>
      </trkpt>
      <trkpt lat="23.082118" lon="113.2737">
        <time>2026-08-29T23:55:37Z</time>
      </trkpt>
      <trkpt lat="23.082098" lon="113.273576">
        <time>2026-08-29T23:55:42Z</time>
      </trkpt>
      <trkpt lat="23.082068" lon="113.273493">
        <time>2026-08-29T23:55:47Z</time>
      </trkpt>
      <trkpt lat="23.08201" lon="113.273422">
        <time>2026-08-29T23:55:52Z</time>
      </trkpt>
      <trkpt lat="23.081889" lon="113.273356">
        <time>2026-08-29T23:55:57Z</time>
      </trkpt>
      <trkpt lat="23.081765" lon="113.273283">
        <time>2026-08-29T23:56:02Z</time>
      </trkpt>
      <trkpt lat="23.081686" lon="113.273233">
        <time>2026-08-29T23:56:07Z</time>
      </trkpt>
      <trkpt lat="23.081606" lon="113.273198">
        <time>2026-08-29T23:56:12Z</time>
      </trkpt>
      <trkpt lat="23.0815" lon="113.273141">
        <time>2026-08-29T23:56:17Z</time>
      </trkpt>
      <trkpt lat="23.081389" lon="113.273088">
        <time>2026-08-29T23:56:22Z</time>
      </trkpt>
      <trkpt lat="23.081312" lon="113.273063">
        <time>2026-08-29T23:56:27Z</time>
      </trkpt>
      <trkpt lat="23.08124" lon="113.273027">
        <time>2026-08-29T23:56:32Z</time>
      </trkpt>
      <trkpt lat="23.081134" lon="113.27298">
        <time>2026-08-29T23:56:37Z</time>
      </trkpt>
      <trkpt lat="23.081018" lon="113.272944">
        <time>2026-08-29T23:56:42Z</time>
      </trkpt>
      <trkpt lat="23.080948" lon="113.272914">
        <time>2026-08-29T23:56:47Z</time>
      </trkpt>
      <trkpt lat="23.080884" lon="113.272897">
        <time>2026-08-29T23:56:52Z</time>
      </trkpt>
      <trkpt lat="23.080764" lon="113.272998">
        <time>2026-08-29T23:56:57Z</time>
      </trkpt>
      <trkpt lat="23.080672" lon="113.273164">
        <time>2026-08-29T23:57:02Z</time>
      </trkpt>
      <trkpt lat="23.080624" lon="113.27328">
        <time>2026-08-29T23:57:07Z</time>
      </trkpt>
      <trkpt lat="23.080589" lon="113.273401">
        <time>2026-08-29T23:57:12Z</time>
      </trkpt>
      <trkpt lat="23.080557" lon="113.273589">
        <time>2026-08-29T23:57:17Z</time>
      </trkpt>
      <trkpt lat="23.080594" lon="113.273745">
        <time>2026-08-29T23:57:22Z</time>
      </trkpt>
      <trkpt lat="23.080638" lon="113.273841">
        <time>2026-08-29T23:57:27Z</time>
      </trkpt>
      <trkpt lat="23.080699" lon="113.273908">
        <time>2026-08-29T23:57:32Z</time>
      </trkpt>
      <trkpt lat="23.080831" lon="113.273941">
        <time>2026-08-29T23:57:37Z</time>
      </trkpt>
      <trkpt lat="23.080963" lon="113.273969">
        <time>2026-08-29T23:57:42Z</time>
      </trkpt>
      <trkpt lat="23.08105" lon="113.273989">
        <time>2026-08-29T23:57:47Z</time>
      </trkpt>
      <trkpt lat="23.081133" lon="113.274015">
        <time>2026-08-29T23:57:52Z</time>
      </trkpt>
      <trkpt lat="23.081256" lon="113.274052">
        <time>2026-08-29T23:57:57Z</time>
      </trkpt>
      <trkpt lat="23.081371" lon="113.274087">
        <time>2026-08-29T23:58:02Z</time>
      </trkpt>
      <trkpt lat="23.08145" lon="113.274111">
        <time>2026-08-29T23:58:07Z</time>
      </trkpt>
      <trkpt lat="23.081529" lon="113.274132">
        <time>2026-08-29T23:58:12Z</time>
      </trkpt>
      <trkpt lat="23.081647" lon="113.274163">
        <time>2026-08-29T23:58:17Z</time>
      </trkpt>
      <trkpt lat="23.081769" lon="113.274168">
        <time>2026-08-29T23:58:22Z</time>
      </trkpt>
      <trkpt lat="23.081854" lon="113.274144">
        <time>2026-08-29T23:58:27Z</time>
      </trkpt>
      <trkpt lat="23.081933" lon="113.274099">
        <time>2026-08-29T23:58:32Z</time>
      </trkpt>
      <trkpt lat="23.082023" lon="113.274011">
        <time>2026-08-29T23:58:37Z</time>
      </trkpt>
      <trkpt lat="23.082095" lon="113.273889">
        <time>2026-08-29T23:58:42Z</time>
      </trkpt>
      <trkpt lat="23.082116" lon="113.273797">
        <time>2026-08-29T23:58:47Z</time>
      </trkpt>
      <trkpt lat="23.082119" lon="113.273701">
        <time>2026-08-29T23:58:52Z</time>
      </trkpt>
      <trkpt lat="23.082088" lon="113.273569">
        <time>2026-08-29T23:58:57Z</time>
      </trkpt>
      <trkpt lat="23.082037" lon="113.273444">
        <time>2026-08-29T23:59:02Z</time>
      </trkpt>
      <trkpt lat="23.081975" lon="113.273392">
        <time>2026-08-29T23:59:07Z</time>
      </trkpt>
      <trkpt lat="23.081895" lon="113.273361">
        <time>2026-08-29T23:59:12Z</time>
      </trkpt>
      <trkpt lat="23.081769" lon="113.273307">
        <time>2026-08-29T23:59:17Z</time>
      </trkpt>
      <trkpt lat="23.081652" lon="113.273234">
        <time>2026-08-29T23:59:22Z</time>
      </trkpt>
      <trkpt lat="23.081577" lon="113.27319">
        <time>2026-08-29T23:59:27Z</time>
      </trkpt>
      <trkpt lat="23.081501" lon="113.27315">
        <time>2026-08-29T23:59:32Z</time>
      </trkpt>
      <trkpt lat="23.081383" lon="113.273109">
        <time>2026-08-29T23:59:37Z</time>
      </trkpt>
      <trkpt lat="23.081265" lon="113.273068">
        <time>2026-08-29T23:59:42Z</time>
      </trkpt>
      <trkpt lat="23.081186" lon="113.273044">
        <time>2026-08-29T23:59:47Z</time>
      </trkpt>
      <trkpt lat="23.081113" lon="113.27301">
        <time>2026-08-29T23:59:52Z</time>
      </trkpt>
      <trkpt lat="23.081002" lon="113.272948">
        <time>2026-08-29T23:59:57Z</time>
      </trkpt>
      <trkpt lat="23.080886" lon="113.272917">
        <time>2026-08-30T00:00:02Z</time>
      </trkpt>
      <trkpt lat="23.080797" lon="113.272928">
        <time>2026-08-30T00:00:07Z</time>
      </trkpt>
      <trkpt lat="23.080721" lon="113.273004">
        <time>2026-08-30T00:00:12Z</time>
      </trkpt>
      <trkpt lat="23.080627" lon="113.273202">
        <time>2026-08-30T00:00:17Z</time>
      </trkpt>
      <trkpt lat="23.080555" lon="113.273389">
        <time>2026-08-30T00:00:22Z</time>
      </trkpt>
      <trkpt lat="23.08053" lon="113.273511">
        <time>2026-08-30T00:00:27Z</time>
      </trkpt>
      <trkpt lat="23.080539" lon="113.273619">
        <time>2026-08-30T00:00:32Z</time>
      </trkpt>
      <trkpt lat="23.080606" lon="113.273762">
        <time>2026-08-30T00:00:37Z</time>
      </trkpt>
      <trkpt lat="23.080694" lon="113.273868">
        <time>2026-08-30T00:00:42Z</time>
      </trkpt>
      <trkpt lat="23.080771" lon="113.273914">
        <time>2026-08-30T00:00:47Z</time>
      </trkpt>
      <trkpt lat="23.080857" lon="113.273943">
        <time>2026-08-30T00:00:52Z</time>
      </trkpt>
      <trkpt lat="23.080988" lon="113.273969">
        <time>2026-08-30T00:00:57Z</time>
      </trkpt>
      <trkpt lat="23.081116" lon="113.274">
        <time>2026-08-30T00:01:02Z</time>
      </trkpt>
      <trkpt lat="23.081205" lon="113.274025">
        <time>2026-08-30T00:01:07Z</time>
      </trkpt>
      <trkpt lat="23.081293" lon="113.274051">
        <time>2026-08-30T00:01:12Z</time>
      </trkpt>
      <trkpt lat="23.081416" lon="113.274094">
        <time>2026-08-30T00:01:17Z</time>
      </trkpt>
      <trkpt lat="23.081539" lon="113.274128">
        <time>2026-08-30T00:01:22Z</time>
      </trkpt>
      <trkpt lat="23.081623" lon="113.274148">
        <time>2026-08-30T00:01:27Z</time>
      </trkpt>
      <trkpt lat="23.081709" lon="113.274162">
        <time>2026-08-30T00:01:32Z</time>
      </trkpt>
      <trkpt lat="23.081847" lon="113.27414">
        <time>2026-08-30T00:01:37Z</time>
      </trkpt>
      <trkpt lat="23.08197" lon="113.274074">
        <time>2026-08-30T00:01:42Z</time>
      </trkpt>
      <trkpt lat="23.082032" lon="113.274012">
        <time>2026-08-30T00:01:47Z</time>
      </trkpt>
      <trkpt lat="23.082085" lon="113.273935">
        <time>2026-08-30T00:01:52Z</time>
      </trkpt>
      <trkpt lat="23.08213" lon="113.273818">
        <time>2026-08-30T00:01:57Z</time>
      </trkpt>
      <trkpt lat="23.082136" lon="113.273691">
        <time>2026-08-30T00:02:02Z</time>
      </trkpt>
      <trkpt lat="23.082119" lon="113.273606">
        <time>2026-08-30T00:02:07Z</time>
      </trkpt>
      <trkpt lat="23.082091" lon="113.273525">
        <time>2026-08-30T00:02:12Z</time>
      </trkpt>
      <trkpt lat="23.082013" lon="113.273427">
        <time>2026-08-30T00:02:17Z</time>
      </trkpt>
      <trkpt lat="23.081897" lon="113.273362">
        <time>2026-08-30T00:02:22Z</time>
      </trkpt>
      <trkpt lat="23.081817" lon="113.273317">
        <time>2026-08-30T00:02:27Z</time>
      </trkpt>
      <trkpt lat="23.081735" lon="113.273275">
        <time>2026-08-30T00:02:32Z</time>
      </trkpt>
      <trkpt lat="23.081615" lon="113.273215">
        <time>2026-08-30T00:02:37Z</time>
      </trkpt>
      <trkpt lat="23.081498" lon="113.273161">
        <time>2026-08-30T00:02:42Z</time>
      </trkpt>
      <trkpt lat="23.08142" lon="113.273132">
        <time>2026-08-30T00:02:47Z</time>
      </trkpt>
      <trkpt lat="23.081337" lon="113.273108">
        <time>2026-08-30T00:02:52Z</time>
      </trkpt>
      <trkpt lat="23.08122" lon="113.273052">
        <time>2026-08-30T00:02:57Z</time>
      </trkpt>
      <trkpt lat="23.081104" lon="113.273004">
        <time>2026-08-30T00:03:02Z</time>
      </trkpt>
      <trkpt lat="23.08102" lon="113.272975">
        <time>2026-08-30T00:03:07Z</time>
      </trkpt>
      <trkpt lat="23.080938" lon="113.272929">
        <time>2026-08-30T00:03:12Z</time>
      </trkpt>
      <trkpt lat="23.080822" lon="113.272927">
        <time>2026-08-30T00:03:17Z</time>
      </trkpt>
      <trkpt lat="23.080705" lon="113.273099">
        <time>2026-08-30T00:03:22Z</time>
      </trkpt>
      <trkpt lat="23.080648" lon="113.27322">
        <time>2026-08-30T00:03:27Z</time>
      </trkpt>
      <trkpt lat="23.080607" lon="113.27333">
        <time>2026-08-30T00:03:32Z</time>
      </trkpt>
      <trkpt lat="23.080545" lon="113.273515">
        <time>2026-08-30T00:03:37Z</time>
      </trkpt>
      <trkpt lat="23.080576" lon="113.27369">
        <time>2026-08-30T00:03:42Z</time>
      </trkpt>
      <trkpt lat="23.080631" lon="113.273777">
        <time>2026-08-30T00:03:47Z</time>
      </trkpt>
      <trkpt lat="23.080692" lon="113.27385">
        <time>2026-08-30T00:03:52Z</time>
      </trkpt>
      <trkpt lat="23.080811" lon="113.273923">
        <time>2026-08-30T00:03:57Z</time>
      </trkpt>
      <trkpt lat="23.080939" lon="113.273965">
        <time>2026-08-30T00:04:02Z</time>
      </trkpt>
      <trkpt lat="23.081023" lon="113.273984">
        <time>2026-08-30T00:04:07Z</time>
      </trkpt>
      <trkpt lat="23.081109" lon="113.274003">
        <time>2026-08-30T00:04:12Z</time>
      </trkpt>
      <trkpt lat="23.081233" lon="113.27404">
        <time>2026-08-30T00:04:17Z</time>
      </trkpt>
      <trkpt lat="23.081353" lon="113.274076">
        <time>2026-08-30T00:04:22Z</time>
      </trkpt>
      <trkpt lat="23.081435" lon="113.274097">
        <time>2026-08-30T00:04:27Z</time>
      </trkpt>
      <trkpt lat="23.081519" lon="113.274118">
        <time>2026-08-30T00:04:32Z</time>
      </trkpt>
      <trkpt lat="23.081643" lon="113.274151">
        <time>2026-08-30T00:04:37Z</time>
      </trkpt>
      <trkpt lat="23.08177" lon="113.274161">
        <time>2026-08-30T00:04:42Z</time>
      </trkpt>
      <trkpt lat="23.081852" lon="113.274132">
        <time>2026-08-30T00:04:47Z</time>
      </trkpt>
      <trkpt lat="23.081931" lon="113.274091">
        <time>2026-08-30T00:04:52Z</time>
      </trkpt>
      <trkpt lat="23.082025" lon="113.273995">
        <time>2026-08-30T00:04:57Z</time>
      </trkpt>
      <trkpt lat="23.082089" lon="113.273875">
        <time>2026-08-30T00:05:02Z</time>
      </trkpt>
      <trkpt lat="23.082111" lon="113.273788">
        <time>2026-08-30T00:05:07Z</time>
      </trkpt>
      <trkpt lat="23.082119" lon="113.273699">
        <time>2026-08-30T00:05:12Z</time>
      </trkpt>
      <trkpt lat="23.082099" lon="113.27357">
        <time>2026-08-30T00:05:17Z</time>
      </trkpt>
      <trkpt lat="23.082049" lon="113.273444">
        <time>2026-08-30T00:05:22Z</time>
      </trkpt>
      <trkpt lat="23.081977" lon="113.273384">
        <time>2026-08-30T00:05:27Z</time>
      </trkpt>
      <trkpt lat="23.081891" lon="113.273346">
        <time>2026-08-30T00:05:32Z</time>
      </trkpt>
      <trkpt lat="23.081765" lon="113.27327">
        <time>2026-08-30T00:05:37Z</time>
      </trkpt>
      <trkpt lat="23.08164" lon="113.273206">
        <time>2026-08-30T00:05:42Z</time>
      </trkpt>
      <trkpt lat="23.081562" lon="113.273167">
        <time>2026-08-30T00:05:47Z</time>
      </trkpt>
      <trkpt lat="23.081488" lon="113.273129">
        <time>2026-08-30T00:05:52Z</time>
      </trkpt>
      <trkpt lat="23.081378" lon="113.27308">
        <time>2026-08-30T00:05:57Z</time>
      </trkpt>
      <trkpt lat="23.08126" lon="113.273033">
        <time>2026-08-30T00:06:02Z</time>
      </trkpt>
      <trkpt lat="23.081183" lon="113.272998">
        <time>2026-08-30T00:06:07Z</time>
      </trkpt>
      <trkpt lat="23.08111" lon="113.272958">
        <time>2026-08-30T00:06:12Z</time>
      </trkpt>
      <trkpt lat="23.080998" lon="113.272902">
        <time>2026-08-30T00:06:17Z</time>
      </trkpt>
      <trkpt lat="23.080854" lon="113.272929">
        <time>2026-08-30T00:06:22Z</time>
      </trkpt>
      <trkpt lat="23.080729" lon="113.273026">
        <time>2026-08-30T00:06:27Z</time>
      </trkpt>
      <trkpt lat="23.080636" lon="113.27313">
        <time>2026-08-30T00:06:32Z</time>
      </trkpt>
      <trkpt lat="23.080552" lon="113.273295">
        <time>2026-08-30T00:06:37Z</time>
      </trkpt>
      <trkpt lat="23.080506" lon="113.27348">
        <time>2026-08-30T00:06:42Z</time>
      </trkpt>
      <trkpt lat="23.080511" lon="113.273605">
        <time>2026-08-30T00:06:47Z</time>
      </trkpt>
      <trkpt lat="23.080552" lon="113.27372">
        <time>2026-08-30T00:06:52Z</time>
      </trkpt>
      <trkpt lat="23.080638" lon="113.273838">
        <time>2026-08-30T00:06:57Z</time>
      </trkpt>
      <trkpt lat="23.080749" lon="113.273924">
        <time>2026-08-30T00:07:02Z</time>
      </trkpt>
      <trkpt lat="23.080834" lon="113.273954">
        <time>2026-08-30T00:07:07Z</time>
      </trkpt>
      <trkpt lat="23.080919" lon="113.273974">
        <time>2026-08-30T00:07:12Z</time>
      </trkpt>
      <trkpt lat="23.081048" lon="113.274005">
        <time>2026-08-30T00:07:17Z</time>
      </trkpt>
      <trkpt lat="23.081183" lon="113.274039">
        <time>2026-08-30T00:07:22Z</time>
      </trkpt>
      <trkpt lat="23.08127" lon="113.274067">
        <time>2026-08-30T00:07:27Z</time>
      </trkpt>
      <trkpt lat="23.081355" lon="113.274091">
        <time>2026-08-30T00:07:32Z</time>
      </trkpt>
      <trkpt lat="23.081481" lon="113.274127">
        <time>2026-08-30T00:07:37Z</time>
      </trkpt>
      <trkpt lat="23.081607" lon="113.274158">
        <time>2026-08-30T00:07:42Z</time>
      </trkpt>
      <trkpt lat="23.081693" lon="113.274172">
        <time>2026-08-30T00:07:47Z</time>
      </trkpt>
      <trkpt lat="23.081788" lon="113.274162">
        <time>2026-08-30T00:07:52Z</time>
      </trkpt>
      <trkpt lat="23.081923" lon="113.274108">
        <time>2026-08-30T00:07:57Z</time>
      </trkpt>
      <trkpt lat="23.082028" lon="113.274018">
        <time>2026-08-30T00:08:02Z</time>
      </trkpt>
      <trkpt lat="23.08208" lon="113.27394">
        <time>2026-08-30T00:08:07Z</time>
      </trkpt>
      <trkpt lat="23.082119" lon="113.273858">
        <time>2026-08-30T00:08:12Z</time>
      </trkpt>
      <trkpt lat="23.082135" lon="113.273723">
        <time>2026-08-30T00:08:17Z</time>
      </trkpt>
      <trkpt lat="23.082119" lon="113.273595">
        <time>2026-08-30T00:08:22Z</time>
      </trkpt>
      <trkpt lat="23.082088" lon="113.273514">
        <time>2026-08-30T00:08:27Z</time>
      </trkpt>
      <trkpt lat="23.08204" lon="113.273439">
        <time>2026-08-30T00:08:32Z</time>
      </trkpt>
      <trkpt lat="23.081925" lon="113.273373">
        <time>2026-08-30T00:08:37Z</time>
      </trkpt>
      <trkpt lat="23.081796" lon="113.273318">
        <time>2026-08-30T00:08:42Z</time>
      </trkpt>
      <trkpt lat="23.081709" lon="113.273286">
        <time>2026-08-30T00:08:47Z</time>
      </trkpt>
      <trkpt lat="23.081631" lon="113.273243">
        <time>2026-08-30T00:08:52Z</time>
      </trkpt>
      <trkpt lat="23.08152" lon="113.273175">
        <time>2026-08-30T00:08:57Z</time>
      </trkpt>
      <trkpt lat="23.081405" lon="113.273115">
        <time>2026-08-30T00:09:02Z</time>
      </trkpt>
      <trkpt lat="23.081326" lon="113.273083">
        <time>2026-08-30T00:09:07Z</time>
      </trkpt>
      <trkpt lat="23.081245" lon="113.273051">
        <time>2026-08-30T00:09:12Z</time>
      </trkpt>
      <trkpt lat="23.081129" lon="113.273003">
        <time>2026-08-30T00:09:17Z</time>
      </trkpt>
      <trkpt lat="23.081014" lon="113.272956">
        <time>2026-08-30T00:09:22Z</time>
      </trkpt>
      <trkpt lat="23.080931" lon="113.27292">
        <time>2026-08-30T00:09:27Z</time>
      </trkpt>
      <trkpt lat="23.080824" lon="113.272936">
        <time>2026-08-30T00:09:32Z</time>
      </trkpt>
      <trkpt lat="23.080654" lon="113.273063">
        <time>2026-08-30T00:09:37Z</time>
      </trkpt>
      <trkpt lat="23.080537" lon="113.27324">
        <time>2026-08-30T00:09:42Z</time>
      </trkpt>
      <trkpt lat="23.080507" lon="113.273362">
        <time>2026-08-30T00:09:47Z</time>
      </trkpt>
      <trkpt lat="23.080498" lon="113.273491">
        <time>2026-08-30T00:09:52Z</time>
      </trkpt>
      <trkpt lat="23.080533" lon="113.273667">
        <time>2026-08-30T00:09:57Z</time>
      </trkpt>
      <trkpt lat="23.080593" lon="113.273802">
        <time>2026-08-30T00:10:02Z</time>
      </trkpt>
      <trkpt lat="23.080649" lon="113.273862">
        <time>2026-08-30T00:10:07Z</time>
      </trkpt>
      <trkpt lat="23.080738" lon="113.273897">
        <time>2026-08-30T00:10:12Z</time>
      </trkpt>
      <trkpt lat="23.080889" lon="113.273937">
        <time>2026-08-30T00:10:17Z</time>
      </trkpt>
      <trkpt lat="23.081025" lon="113.273979">
        <time>2026-08-30T00:10:22Z</time>
      </trkpt>
      <trkpt lat="23.081113" lon="113.274003">
        <time>2026-08-30T00:10:27Z</time>
      </trkpt>
      <trkpt lat="23.081202" lon="113.274025">
        <time>2026-08-30T00:10:32Z</time>
      </trkpt>
      <trkpt lat="23.08133" lon="113.274065">
        <time>2026-08-30T00:10:37Z</time>
      </trkpt>
      <trkpt lat="23.081451" lon="113.274105">
        <time>2026-08-30T00:10:42Z</time>
      </trkpt>
      <trkpt lat="23.081531" lon="113.274125">
        <time>2026-08-30T00:10:47Z</time>
      </trkpt>
      <trkpt lat="23.081613" lon="113.274145">
        <time>2026-08-30T00:10:52Z</time>
      </trkpt>
      <trkpt lat="23.081748" lon="113.274156">
        <time>2026-08-30T00:10:57Z</time>
      </trkpt>
      <trkpt lat="23.081885" lon="113.274116">
        <time>2026-08-30T00:11:02Z</time>
      </trkpt>
      <trkpt lat="23.081966" lon="113.274073">
        <time>2026-08-30T00:11:07Z</time>
      </trkpt>
      <trkpt lat="23.082027" lon="113.27401">
        <time>2026-08-30T00:11:12Z</time>
      </trkpt>
      <trkpt lat="23.082096" lon="113.273895">
        <time>2026-08-30T00:11:17Z</time>
      </trkpt>
      <trkpt lat="23.082126" lon="113.273765">
        <time>2026-08-30T00:11:22Z</time>
      </trkpt>
      <trkpt lat="23.08212" lon="113.273682">
        <time>2026-08-30T00:11:27Z</time>
      </trkpt>
      <trkpt lat="23.082099" lon="113.273604">
        <time>2026-08-30T00:11:32Z</time>
      </trkpt>
      <trkpt lat="23.082052" lon="113.273494">
        <time>2026-08-30T00:11:37Z</time>
      </trkpt>
      <trkpt lat="23.081942" lon="113.273409">
        <time>2026-08-30T00:11:42Z</time>
      </trkpt>
      <trkpt lat="23.081856" lon="113.273372">
        <time>2026-08-30T00:11:47Z</time>
      </trkpt>
      <trkpt lat="23.081776" lon="113.273329">
        <time>2026-08-30T00:11:52Z</time>
      </trkpt>
      <trkpt lat="23.081657" lon="113.273244">
        <time>2026-08-30T00:11:57Z</time>
      </trkpt>
      <trkpt lat="23.081542" lon="113.273173">
        <time>2026-08-30T00:12:02Z</time>
      </trkpt>
      <trkpt lat="23.081467" lon="113.273134">
        <time>2026-08-30T00:12:07Z</time>
      </trkpt>
      <trkpt lat="23.081386" lon="113.273101">
        <time>2026-08-30T00:12:12Z</time>
      </trkpt>
      <trkpt lat="23.081267" lon="113.273038">
        <time>2026-08-30T00:12:17Z</time>
      </trkpt>
      <trkpt lat="23.081153" lon="113.272971">
        <time>2026-08-30T00:12:22Z</time>
      </trkpt>
      <trkpt lat="23.081073" lon="113.272935">
        <time>2026-08-30T00:12:27Z</time>
      </trkpt>
      <trkpt lat="23.080989" lon="113.272896">
        <time>2026-08-30T00:12:32Z</time>
      </trkpt>
      <trkpt lat="23.080849" lon="113.272891">
        <time>2026-08-30T00:12:37Z</time>
      </trkpt>
      <trkpt lat="23.080697" lon="113.272981">
        <time>2026-08-30T00:12:42Z</time>
      </trkpt>
      <trkpt lat="23.080623" lon="113.273085">
        <time>2026-08-30T00:12:47Z</time>
      </trkpt>
      <trkpt lat="23.080577" lon="113.273204">
        <time>2026-08-30T00:12:52Z</time>
      </trkpt>
      <trkpt lat="23.080513" lon="113.273397">
        <time>2026-08-30T00:12:57Z</time>
      </trkpt>
      <trkpt lat="23.080514" lon="113.273594">
        <time>2026-08-30T00:13:02Z</time>
      </trkpt>
      <trkpt lat="23.080569" lon="113.273702">
        <time>2026-08-30T00:13:07Z</time>
      </trkpt>
      <trkpt lat="23.080624" lon="113.273793">
        <time>2026-08-30T00:13:12Z</time>
      </trkpt>
      <trkpt lat="23.080731" lon="113.273898">
        <time>2026-08-30T00:13:17Z</time>
      </trkpt>
      <trkpt lat="23.08087" lon="113.273936">
        <time>2026-08-30T00:13:22Z</time>
      </trkpt>
      <trkpt lat="23.080961" lon="113.273952">
        <time>2026-08-30T00:13:27Z</time>
      </trkpt>
      <trkpt lat="23.081045" lon="113.273968">
        <time>2026-08-30T00:13:32Z</time>
      </trkpt>
      <trkpt lat="23.081174" lon="113.274">
        <time>2026-08-30T00:13:37Z</time>
      </trkpt>
      <trkpt lat="23.081306" lon="113.27404">
        <time>2026-08-30T00:13:42Z</time>
      </trkpt>
      <trkpt lat="23.081394" lon="113.274062">
        <time>2026-08-30T00:13:47Z</time>
      </trkpt>
      <trkpt lat="23.081485" lon="113.274084">
        <time>2026-08-30T00:13:52Z</time>
      </trkpt>
      <trkpt lat="23.081616" lon="113.27413">
        <time>2026-08-30T00:13:57Z</time>
      </trkpt>
      <trkpt lat="23.081754" lon="113.274158">
        <time>2026-08-30T00:14:02Z</time>
      </trkpt>
      <trkpt lat="23.081847" lon="113.274142">
        <time>2026-08-30T00:14:07Z</time>
      </trkpt>
      <trkpt lat="23.081933" lon="113.274099">
        <time>2026-08-30T00:14:12Z</time>
      </trkpt>
      <trkpt lat="23.082037" lon="113.274005">
        <time>2026-08-30T00:14:17Z</time>
      </trkpt>
      <trkpt lat="23.082102" lon="113.273874">
        <time>2026-08-30T00:14:22Z</time>
      </trkpt>
      <trkpt lat="23.08212" lon="113.273782">
        <time>2026-08-30T00:14:27Z</time>
      </trkpt>
      <trkpt lat="23.082122" lon="113.273688">
        <time>2026-08-30T00:14:32Z</time>
      </trkpt>
      <trkpt lat="23.082094" lon="113.273556">
        <time>2026-08-30T00:14:37Z</time>
      </trkpt>
      <trkpt lat="23.082036" lon="113.273442">
        <time>2026-08-30T00:14:42Z</time>
      </trkpt>
      <trkpt lat="23.081957" lon="113.27338">
        <time>2026-08-30T00:14:47Z</time>
      </trkpt>
      <trkpt lat="23.081867" lon="113.273338">
        <time>2026-08-30T00:14:52Z</time>
      </trkpt>
      <trkpt lat="23.081741" lon="113.273276">
        <time>2026-08-30T00:14:57Z</time>
      </trkpt>
      <trkpt lat="23.08161" lon="113.273224">
        <time>2026-08-30T00:15:02Z</time>
      </trkpt>
      <trkpt lat="23.081523" lon="113.273184">
        <time>2026-08-30T00:15:07Z</time>
      </trkpt>
      <trkpt lat="23.081442" lon="113.273143">
        <time>2026-08-30T00:15:12Z</time>
      </trkpt>
      <trkpt lat="23.081333" lon="113.273105">
        <time>2026-08-30T00:15:17Z</time>
      </trkpt>
      <trkpt lat="23.081219" lon="113.273069">
        <time>2026-08-30T00:15:22Z</time>
      </trkpt>
      <trkpt lat="23.081141" lon="113.273034">
        <time>2026-08-30T00:15:27Z</time>
      </trkpt>
      <trkpt lat="23.08106" lon="113.272989">
        <time>2026-08-30T00:15:32Z</time>
      </trkpt>
      <trkpt lat="23.080922" lon="113.272945">
        <time>2026-08-30T00:15:37Z</time>
      </trkpt>
      <trkpt lat="23.080752" lon="113.272971">
        <time>2026-08-30T00:15:42Z</time>
      </trkpt>
      <trkpt lat="23.080619" lon="113.27304">
        <time>2026-08-30T00:15:47Z</time>
      </trkpt>
      <trkpt lat="23.080525" lon="113.273155">
        <time>2026-08-30T00:15:52Z</time>
      </trkpt>
      <trkpt lat="23.080495" lon="113.273401">
        <time>2026-08-30T00:15:57Z</time>
      </trkpt>
      <trkpt lat="23.080525" lon="113.273616">
        <time>2026-08-30T00:16:02Z</time>
      </trkpt>
      <trkpt lat="23.080562" lon="113.273715">
        <time>2026-08-30T00:16:07Z</time>
      </trkpt>
      <trkpt lat="23.080608" lon="113.273801">
        <time>2026-08-30T00:16:12Z</time>
      </trkpt>
      <trkpt lat="23.080708" lon="113.273903">
        <time>2026-08-30T00:16:17Z</time>
      </trkpt>
      <trkpt lat="23.08084" lon="113.27395">
        <time>2026-08-30T00:16:22Z</time>
      </trkpt>
      <trkpt lat="23.080931" lon="113.273971">
        <time>2026-08-30T00:16:27Z</time>
      </trkpt>
      <trkpt lat="23.081019" lon="113.273992">
        <time>2026-08-30T00:16:32Z</time>
      </trkpt>
      <trkpt lat="23.081153" lon="113.274022">
        <time>2026-08-30T00:16:37Z</time>
      </trkpt>
      <trkpt lat="23.081291" lon="113.274057">
        <time>2026-08-30T00:16:42Z</time>
      </trkpt>
      <trkpt lat="23.081376" lon="113.274078">
        <time>2026-08-30T00:16:47Z</time>
      </trkpt>
      <trkpt lat="23.081462" lon="113.274103">
        <time>2026-08-30T00:16:52Z</time>
      </trkpt>
      <trkpt lat="23.0816" lon="113.274137">
        <time>2026-08-30T00:16:57Z</time>
      </trkpt>
      <trkpt lat="23.081741" lon="113.27415">
        <time>2026-08-30T00:17:02Z</time>
      </trkpt>
      <trkpt lat="23.081836" lon="113.274126">
        <time>2026-08-30T00:17:07Z</time>
      </trkpt>
      <trkpt lat="23.081928" lon="113.274082">
        <time>2026-08-30T00:17:12Z</time>
      </trkpt>
      <trkpt lat="23.082032" lon="113.273983">
        <time>2026-08-30T00:17:17Z</time>
      </trkpt>
      <trkpt lat="23.082105" lon="113.273865">
        <time>2026-08-30T00:17:22Z</time>
      </trkpt>
      <trkpt lat="23.082123" lon="113.273773">
        <time>2026-08-30T00:17:27Z</time>
      </trkpt>
      <trkpt lat="23.082122" lon="113.273684">
        <time>2026-08-30T00:17:32Z</time>
      </trkpt>
      <trkpt lat="23.082087" lon="113.273561">
        <time>2026-08-30T00:17:37Z</time>
      </trkpt>
      <trkpt lat="23.082022" lon="113.273445">
        <time>2026-08-30T00:17:42Z</time>
      </trkpt>
      <trkpt lat="23.081952" lon="113.273392">
        <time>2026-08-30T00:17:47Z</time>
      </trkpt>
      <trkpt lat="23.081868" lon="113.273354">
        <time>2026-08-30T00:17:52Z</time>
      </trkpt>
      <trkpt lat="23.081745" lon="113.27328">
        <time>2026-08-30T00:17:57Z</time>
      </trkpt>
      <trkpt lat="23.081629" lon="113.273205">
        <time>2026-08-30T00:18:02Z</time>
      </trkpt>
      <trkpt lat="23.081549" lon="113.273172">
        <time>2026-08-30T00:18:07Z</time>
      </trkpt>
      <trkpt lat="23.081469" lon="113.27314">
        <time>2026-08-30T00:18:12Z</time>
      </trkpt>
      <trkpt lat="23.081349" lon="113.273083">
        <time>2026-08-30T00:18:17Z</time>
      </trkpt>
      <trkpt lat="23.081235" lon="113.273019">
        <time>2026-08-30T00:18:22Z</time>
      </trkpt>
      <trkpt lat="23.081159" lon="113.272982">
        <time>2026-08-30T00:18:27Z</time>
      </trkpt>
      <trkpt lat="23.081074" lon="113.272955">
        <time>2026-08-30T00:18:32Z</time>
      </trkpt>
      <trkpt lat="23.080915" lon="113.272947">
        <time>2026-08-30T00:18:37Z</time>
      </trkpt>
      <trkpt lat="23.080768" lon="113.272973">
        <time>2026-08-30T00:18:42Z</time>
      </trkpt>
      <trkpt lat="23.080656" lon="113.27305">
        <time>2026-08-30T00:18:47Z</time>
      </trkpt>
      <trkpt lat="23.080586" lon="113.27316">
        <time>2026-08-30T00:18:52Z</time>
      </trkpt>
      <trkpt lat="23.08053" lon="113.273372">
        <time>2026-08-30T00:18:57Z</time>
      </trkpt>
      <trkpt lat="23.080527" lon="113.27358">
        <time>2026-08-30T00:19:02Z</time>
      </trkpt>
      <trkpt lat="23.080571" lon="113.27369">
        <time>2026-08-30T00:19:07Z</time>
      </trkpt>
      <trkpt lat="23.080618" lon="113.273783">
        <time>2026-08-30T00:19:12Z</time>
      </trkpt>
      <trkpt lat="23.080708" lon="113.273884">
        <time>2026-08-30T00:19:17Z</time>
      </trkpt>
      <trkpt lat="23.080839" lon="113.273926">
        <time>2026-08-30T00:19:22Z</time>
      </trkpt>
      <trkpt lat="23.080931" lon="113.273946">
        <time>2026-08-30T00:19:27Z</time>
      </trkpt>
      <trkpt lat="23.08102" lon="113.273964">
        <time>2026-08-30T00:19:32Z</time>
      </trkpt>
      <trkpt lat="23.081164" lon="113.274006">
        <time>2026-08-30T00:19:37Z</time>
      </trkpt>
      <trkpt lat="23.08131" lon="113.27404">
        <time>2026-08-30T00:19:42Z</time>
      </trkpt>
      <trkpt lat="23.081398" lon="113.274065">
        <time>2026-08-30T00:19:47Z</time>
      </trkpt>
      <trkpt lat="23.081481" lon="113.274095">
        <time>2026-08-30T00:19:52Z</time>
      </trkpt>
      <trkpt lat="23.081608" lon="113.27413">
        <time>2026-08-30T00:19:57Z</time>
      </trkpt>
      <trkpt lat="23.081739" lon="113.274163">
        <time>2026-08-30T00:20:02Z</time>
      </trkpt>
      <trkpt lat="23.081833" lon="113.274149">
        <time>2026-08-30T00:20:07Z</time>
      </trkpt>
      <trkpt lat="23.081921" lon="113.274105">
        <time>2026-08-30T00:20:12Z</time>
      </trkpt>
      <trkpt lat="23.082018" lon="113.274007">
        <time>2026-08-30T00:20:17Z</time>
      </trkpt>
      <trkpt lat="23.082092" lon="113.273883">
        <time>2026-08-30T00:20:22Z</time>
      </trkpt>
      <trkpt lat="23.082121" lon="113.273793">
        <time>2026-08-30T00:20:27Z</time>
      </trkpt>
      <trkpt lat="23.082126" lon="113.273698">
        <time>2026-08-30T00:20:32Z</time>
      </trkpt>
      <trkpt lat="23.082096" lon="113.273569">
        <time>2026-08-30T00:20:37Z</time>
      </trkpt>
      <trkpt lat="23.08204" lon="113.273449">
        <time>2026-08-30T00:20:42Z</time>
      </trkpt>
      <trkpt lat="23.081968" lon="113.27339">
        <time>2026-08-30T00:20:47Z</time>
      </trkpt>
      <trkpt lat="23.081884" lon="113.273349">
        <time>2026-08-30T00:20:52Z</time>
      </trkpt>
      <trkpt lat="23.08176" lon="113.273285">
        <time>2026-08-30T00:20:57Z</time>
      </trkpt>
      <trkpt lat="23.081639" lon="113.273225">
        <time>2026-08-30T00:21:02Z</time>
      </trkpt>
      <trkpt lat="23.081564" lon="113.273189">
        <time>2026-08-30T00:21:07Z</time>
      </trkpt>
      <trkpt lat="23.081488" lon="113.273168">
        <time>2026-08-30T00:21:12Z</time>
      </trkpt>
      <trkpt lat="23.081367" lon="113.27314">
        <time>2026-08-30T00:21:17Z</time>
      </trkpt>
      <trkpt lat="23.081251" lon="113.273097">
        <time>2026-08-30T00:21:22Z</time>
      </trkpt>
      <trkpt lat="23.081184" lon="113.273051">
        <time>2026-08-30T00:21:27Z</time>
      </trkpt>
      <trkpt lat="23.081112" lon="113.273014">
        <time>2026-08-30T00:21:32Z</time>
      </trkpt>
      <trkpt lat="23.080992" lon="113.272968">
        <time>2026-08-30T00:21:37Z</time>
      </trkpt>
      <trkpt lat="23.080839" lon="113.272937">
        <time>2026-08-30T00:21:42Z</time>
      </trkpt>
      <trkpt lat="23.080697" lon="113.272954">
        <time>2026-08-30T00:21:47Z</time>
      </trkpt>
      <trkpt lat="23.080592" lon="113.273023">
        <time>2026-08-30T00:21:52Z</time>
      </trkpt>
      <trkpt lat="23.080529" lon="113.273223">
        <time>2026-08-30T00:21:57Z</time>
      </trkpt>
      <trkpt lat="23.080517" lon="113.273436">
        <time>2026-08-30T00:22:02Z</time>
      </trkpt>
      <trkpt lat="23.080538" lon="113.273568">
        <time>2026-08-30T00:22:07Z</time>
      </trkpt>
      <trkpt lat="23.080583" lon="113.273686">
        <time>2026-08-30T00:22:12Z</time>
      </trkpt>
      <trkpt lat="23.080662" lon="113.273834">
        <time>2026-08-30T00:22:17Z</time>
      </trkpt>
      <trkpt lat="23.080773" lon="113.27392">
        <time>2026-08-30T00:22:22Z</time>
      </trkpt>
      <trkpt lat="23.080863" lon="113.273945">
        <time>2026-08-30T00:22:27Z</time>
      </trkpt>
      <trkpt lat="23.080953" lon="113.273969">
        <time>2026-08-30T00:22:32Z</time>
      </trkpt>
      <trkpt lat="23.081092" lon="113.274002">
        <time>2026-08-30T00:22:37Z</time>
      </trkpt>
      <trkpt lat="23.081225" lon="113.274038">
        <time>2026-08-30T00:22:42Z</time>
      </trkpt>
      <trkpt lat="23.081308" lon="113.27406">
        <time>2026-08-30T00:22:47Z</time>
      </trkpt>
      <trkpt lat="23.08139" lon="113.274086">
        <time>2026-08-30T00:22:52Z</time>
      </trkpt>
      <trkpt lat="23.08151" lon="113.274125">
        <time>2026-08-30T00:22:57Z</time>
      </trkpt>
      <trkpt lat="23.081637" lon="113.274157">
        <time>2026-08-30T00:23:02Z</time>
      </trkpt>
      <trkpt lat="23.081724" lon="113.274166">
        <time>2026-08-30T00:23:07Z</time>
      </trkpt>
      <trkpt lat="23.081814" lon="113.27415">
        <time>2026-08-30T00:23:12Z</time>
      </trkpt>
      <trkpt lat="23.081942" lon="113.274079">
        <time>2026-08-30T00:23:17Z</time>
      </trkpt>
      <trkpt lat="23.08205" lon="113.273962">
        <time>2026-08-30T00:23:22Z</time>
      </trkpt>
      <trkpt lat="23.082098" lon="113.273874">
        <time>2026-08-30T00:23:27Z</time>
      </trkpt>
      <trkpt lat="23.082126" lon="113.273779">
        <time>2026-08-30T00:23:32Z</time>
      </trkpt>
      <trkpt lat="23.082133" lon="113.273629">
        <time>2026-08-30T00:23:37Z</time>
      </trkpt>
      <trkpt lat="23.082102" lon="113.273492">
        <time>2026-08-30T00:23:42Z</time>
      </trkpt>
      <trkpt lat="23.082053" lon="113.273413">
        <time>2026-08-30T00:23:47Z</time>
      </trkpt>
      <trkpt lat="23.081968" lon="113.27336">
        <time>2026-08-30T00:23:52Z</time>
      </trkpt>
      <trkpt lat="23.081833" lon="113.273311">
        <time>2026-08-30T00:23:57Z</time>
      </trkpt>
      <trkpt lat="23.081707" lon="113.273262">
        <time>2026-08-30T00:24:02Z</time>
      </trkpt>
      <trkpt lat="23.081624" lon="113.273224">
        <time>2026-08-30T00:24:07Z</time>
      </trkpt>
      <trkpt lat="23.081542" lon="113.273181">
        <time>2026-08-30T00:24:12Z</time>
      </trkpt>
      <trkpt lat="23.08142" lon="113.273124">
        <time>2026-08-30T00:24:17Z</time>
      </trkpt>
      <trkpt lat="23.081299" lon="113.273064">
        <time>2026-08-30T00:24:22Z</time>
      </trkpt>
      <trkpt lat="23.081208" lon="113.273036">
        <time>2026-08-30T00:24:27Z</time>
      </trkpt>
      <trkpt lat="23.081113" lon="113.273014">
        <time>2026-08-30T00:24:32Z</time>
      </trkpt>
      <trkpt lat="23.080978" lon="113.272959">
        <time>2026-08-30T00:24:37Z</time>
      </trkpt>
      <trkpt lat="23.080839" lon="113.272913">
        <time>2026-08-30T00:24:42Z</time>
      </trkpt>
      <trkpt lat="23.080716" lon="113.272923">
        <time>2026-08-30T00:24:47Z</time>
      </trkpt>
      <trkpt lat="23.080619" lon="113.272994">
        <time>2026-08-30T00:24:52Z</time>
      </trkpt>
      <trkpt lat="23.080559" lon="113.27319">
        <time>2026-08-30T00:24:57Z</time>
      </trkpt>
      <trkpt lat="23.080509" lon="113.27341">
        <time>2026-08-30T00:25:02Z</time>
      </trkpt>
      <trkpt lat="23.080521" lon="113.273541">
        <time>2026-08-30T00:25:07Z</time>
      </trkpt>
      <trkpt lat="23.080569" lon="113.273657">
        <time>2026-08-30T00:25:12Z</time>
      </trkpt>
      <trkpt lat="23.080658" lon="113.27381">
        <time>2026-08-30T00:25:17Z</time>
      </trkpt>
      <trkpt lat="23.080777" lon="113.2739">
        <time>2026-08-30T00:25:22Z</time>
      </trkpt>
      <trkpt lat="23.080873" lon="113.273932">
        <time>2026-08-30T00:25:27Z</time>
      </trkpt>
      <trkpt lat="23.08097" lon="113.273961">
        <time>2026-08-30T00:25:32Z</time>
      </trkpt>
      <trkpt lat="23.081099" lon="113.273998">
        <time>2026-08-30T00:25:37Z</time>
      </trkpt>
      <trkpt lat="23.081234" lon="113.274027">
        <time>2026-08-30T00:25:42Z</time>
      </trkpt>
      <trkpt lat="23.081327" lon="113.274048">
        <time>2026-08-30T00:25:47Z</time>
      </trkpt>
      <trkpt lat="23.081416" lon="113.274078">
        <time>2026-08-30T00:25:52Z</time>
      </trkpt>
      <trkpt lat="23.081554" lon="113.27412">
        <time>2026-08-30T00:25:57Z</time>
      </trkpt>
      <trkpt lat="23.081689" lon="113.274148">
        <time>2026-08-30T00:26:02Z</time>
      </trkpt>
      <trkpt lat="23.081782" lon="113.274151">
        <time>2026-08-30T00:26:07Z</time>
      </trkpt>
      <trkpt lat="23.081874" lon="113.274127">
        <time>2026-08-30T00:26:12Z</time>
      </trkpt>
      <trkpt lat="23.081985" lon="113.274039">
        <time>2026-08-30T00:26:17Z</time>
      </trkpt>
      <trkpt lat="23.08207" lon="113.273925">
        <time>2026-08-30T00:26:22Z</time>
      </trkpt>
      <trkpt lat="23.082105" lon="113.273832">
        <time>2026-08-30T00:26:27Z</time>
      </trkpt>
      <trkpt lat="23.08212" lon="113.273734">
        <time>2026-08-30T00:26:32Z</time>
      </trkpt>
      <trkpt lat="23.08211" lon="113.273594">
        <time>2026-08-30T00:26:37Z</time>
      </trkpt>
      <trkpt lat="23.082063" lon="113.273477">
        <time>2026-08-30T00:26:42Z</time>
      </trkpt>
      <trkpt lat="23.082003" lon="113.273411">
        <time>2026-08-30T00:26:47Z</time>
      </trkpt>
      <trkpt lat="23.081913" lon="113.273379">
        <time>2026-08-30T00:26:52Z</time>
      </trkpt>
      <trkpt lat="23.081773" lon="113.273331">
        <time>2026-08-30T00:26:57Z</time>
      </trkpt>
      <trkpt lat="23.081641" lon="113.273277">
        <time>2026-08-30T00:27:02Z</time>
      </trkpt>
      <trkpt lat="23.081552" lon="113.273244">
        <time>2026-08-30T00:27:07Z</time>
      </trkpt>
      <trkpt lat="23.081468" lon="113.273214">
        <time>2026-08-30T00:27:12Z</time>
      </trkpt>
      <trkpt lat="23.081345" lon="113.273172">
        <time>2026-08-30T00:27:17Z</time>
      </trkpt>
      <trkpt lat="23.081228" lon="113.273115">
        <time>2026-08-30T00:27:22Z</time>
      </trkpt>
      <trkpt lat="23.081147" lon="113.27308">
        <time>2026-08-30T00:27:27Z</time>
      </trkpt>
      <trkpt lat="23.081058" lon="113.273053">
        <time>2026-08-30T00:27:32Z</time>
      </trkpt>
      <trkpt lat="23.080922" lon="113.273001">
        <time>2026-08-30T00:27:37Z</time>
      </trkpt>
      <trkpt lat="23.080773" lon="113.273031">
        <time>2026-08-30T00:27:42Z</time>
      </trkpt>
      <trkpt lat="23.080678" lon="113.27311">
        <time>2026-08-30T00:27:47Z</time>
      </trkpt>
      <trkpt lat="23.080618" lon="113.273218">
        <time>2026-08-30T00:27:52Z</time>
      </trkpt>
      <trkpt lat="23.080562" lon="113.273384">
        <time>2026-08-30T00:27:57Z</time>
      </trkpt>
      <trkpt lat="23.080561" lon="113.273567">
        <time>2026-08-30T00:28:02Z</time>
      </trkpt>
      <trkpt lat="23.080587" lon="113.273677">
        <time>2026-08-30T00:28:07Z</time>
      </trkpt>
      <trkpt lat="23.080626" lon="113.27378">
        <time>2026-08-30T00:28:12Z</time>
      </trkpt>
      <trkpt lat="23.080715" lon="113.2739">
        <time>2026-08-30T00:28:17Z</time>
      </trkpt>
      <trkpt lat="23.08085" lon="113.273944">
        <time>2026-08-30T00:28:22Z</time>
      </trkpt>
      <trkpt lat="23.080941" lon="113.273963">
        <time>2026-08-30T00:28:27Z</time>
      </trkpt>
      <trkpt lat="23.081029" lon="113.273986">
        <time>2026-08-30T00:28:32Z</time>
      </trkpt>
      <trkpt lat="23.081166" lon="113.274007">
        <time>2026-08-30T00:28:37Z</time>
      </trkpt>
      <trkpt lat="23.081297" lon="113.274038">
        <time>2026-08-30T00:28:42Z</time>
      </trkpt>
      <trkpt lat="23.081384" lon="113.27407">
        <time>2026-08-30T00:28:47Z</time>
      </trkpt>
      <trkpt lat="23.081469" lon="113.274106">
        <time>2026-08-30T00:28:52Z</time>
      </trkpt>
      <trkpt lat="23.081603" lon="113.274141">
        <time>2026-08-30T00:28:57Z</time>
      </trkpt>
      <trkpt lat="23.08174" lon="113.274155">
        <time>2026-08-30T00:29:02Z</time>
      </trkpt>
      <trkpt lat="23.081836" lon="113.274137">
        <time>2026-08-30T00:29:07Z</time>
      </trkpt>
      <trkpt lat="23.081925" lon="113.274109">
        <time>2026-08-30T00:29:12Z</time>
      </trkpt>
      <trkpt lat="23.082022" lon="113.274008">
        <time>2026-08-30T00:29:17Z</time>
      </trkpt>
      <trkpt lat="23.082101" lon="113.273877">
        <time>2026-08-30T00:29:22Z</time>
      </trkpt>
      <trkpt lat="23.082124" lon="113.273779">
        <time>2026-08-30T00:29:27Z</time>
      </trkpt>
      <trkpt lat="23.082126" lon="113.273676">
        <time>2026-08-30T00:29:32Z</time>
      </trkpt>
      <trkpt lat="23.0821" lon="113.27354">
        <time>2026-08-30T00:29:37Z</time>
      </trkpt>
      <trkpt lat="23.082042" lon="113.273414">
        <time>2026-08-30T00:29:42Z</time>
      </trkpt>
      <trkpt lat="23.081966" lon="113.273364">
        <time>2026-08-30T00:29:47Z</time>
      </trkpt>
      <trkpt lat="23.081881" lon="113.27333">
        <time>2026-08-30T00:29:52Z</time>
      </trkpt>
      <trkpt lat="23.081757" lon="113.27327">
        <time>2026-08-30T00:29:57Z</time>
      </trkpt>
      <trkpt lat="23.081635" lon="113.27322">
        <time>2026-08-30T00:30:02Z</time>
      </trkpt>
      <trkpt lat="23.081555" lon="113.273166">
        <time>2026-08-30T00:30:07Z</time>
      </trkpt>
      <trkpt lat="23.081477" lon="113.273115">
        <time>2026-08-30T00:30:12Z</time>
      </trkpt>
      <trkpt lat="23.081347" lon="113.273074">
        <time>2026-08-30T00:30:17Z</time>
      </trkpt>
      <trkpt lat="23.081219" lon="113.273036">
        <time>2026-08-30T00:30:22Z</time>
      </trkpt>
      <trkpt lat="23.081137" lon="113.273016">
        <time>2026-08-30T00:30:27Z</time>
      </trkpt>
      <trkpt lat="23.081051" lon="113.272991">
        <time>2026-08-30T00:30:32Z</time>
      </trkpt>
      <trkpt lat="23.080931" lon="113.272952">
        <time>2026-08-30T00:30:37Z</time>
      </trkpt>
      <trkpt lat="23.080786" lon="113.273011">
        <time>2026-08-30T00:30:42Z</time>
      </trkpt>
      <trkpt lat="23.080687" lon="113.27308">
        <time>2026-08-30T00:30:47Z</time>
      </trkpt>
      <trkpt lat="23.080618" lon="113.273188">
        <time>2026-08-30T00:30:52Z</time>
      </trkpt>
      <trkpt lat="23.080541" lon="113.273375">
        <time>2026-08-30T00:30:57Z</time>
      </trkpt>
      <trkpt lat="23.080524" lon="113.273578">
        <time>2026-08-30T00:31:02Z</time>
      </trkpt>
      <trkpt lat="23.080562" lon="113.27368">
        <time>2026-08-30T00:31:07Z</time>
      </trkpt>
      <trkpt lat="23.080616" lon="113.273758">
        <time>2026-08-30T00:31:12Z</time>
      </trkpt>
      <trkpt lat="23.080706" lon="113.273861">
        <time>2026-08-30T00:31:17Z</time>
      </trkpt>
      <trkpt lat="23.08083" lon="113.273929">
        <time>2026-08-30T00:31:22Z</time>
      </trkpt>
      <trkpt lat="23.080932" lon="113.273955">
        <time>2026-08-30T00:31:27Z</time>
      </trkpt>
      <trkpt lat="23.081032" lon="113.273981">
        <time>2026-08-30T00:31:32Z</time>
      </trkpt>
      <trkpt lat="23.081168" lon="113.274016">
        <time>2026-08-30T00:31:37Z</time>
      </trkpt>
      <trkpt lat="23.081296" lon="113.274051">
        <time>2026-08-30T00:31:42Z</time>
      </trkpt>
      <trkpt lat="23.081385" lon="113.274075">
        <time>2026-08-30T00:31:47Z</time>
      </trkpt>
      <trkpt lat="23.081474" lon="113.274103">
        <time>2026-08-30T00:31:52Z</time>
      </trkpt>
      <trkpt lat="23.0816" lon="113.274147">
        <time>2026-08-30T00:31:57Z</time>
      </trkpt>
      <trkpt lat="23.081736" lon="113.274165">
        <time>2026-08-30T00:32:02Z</time>
      </trkpt>
      <trkpt lat="23.081832" lon="113.27415">
        <time>2026-08-30T00:32:07Z</time>
      </trkpt>
      <trkpt lat="23.081918" lon="113.274107">
        <time>2026-08-30T00:32:12Z</time>
      </trkpt>
      <trkpt lat="23.082025" lon="113.274003">
        <time>2026-08-30T00:32:17Z</time>
      </trkpt>
      <trkpt lat="23.082095" lon="113.273872">
        <time>2026-08-30T00:32:22Z</time>
      </trkpt>
      <trkpt lat="23.08211" lon="113.27377">
        <time>2026-08-30T00:32:27Z</time>
      </trkpt>
      <trkpt lat="23.082102" lon="113.273665">
        <time>2026-08-30T00:32:32Z</time>
      </trkpt>
      <trkpt lat="23.082066" lon="113.273522">
        <time>2026-08-30T00:32:37Z</time>
      </trkpt>
      <trkpt lat="23.081987" lon="113.273407">
        <time>2026-08-30T00:32:42Z</time>
      </trkpt>
      <trkpt lat="23.081905" lon="113.273369">
        <time>2026-08-30T00:32:47Z</time>
      </trkpt>
      <trkpt lat="23.081819" lon="113.273335">
        <time>2026-08-30T00:32:52Z</time>
      </trkpt>
      <trkpt lat="23.081696" lon="113.273263">
        <time>2026-08-30T00:32:57Z</time>
      </trkpt>
      <trkpt lat="23.081576" lon="113.27319">
        <time>2026-08-30T00:33:02Z</time>
      </trkpt>
      <trkpt lat="23.081492" lon="113.273147">
        <time>2026-08-30T00:33:07Z</time>
      </trkpt>
      <trkpt lat="23.081411" lon="113.2731">
        <time>2026-08-30T00:33:12Z</time>
      </trkpt>
      <trkpt lat="23.081283" lon="113.273057">
        <time>2026-08-30T00:33:17Z</time>
      </trkpt>
      <trkpt lat="23.081149" lon="113.273031">
        <time>2026-08-30T00:33:22Z</time>
      </trkpt>
      <trkpt lat="23.081059" lon="113.272998">
        <time>2026-08-30T00:33:27Z</time>
      </trkpt>
      <trkpt lat="23.080974" lon="113.272969">
        <time>2026-08-30T00:33:32Z</time>
      </trkpt>
      <trkpt lat="23.080822" lon="113.273031">
        <time>2026-08-30T00:33:37Z</time>
      </trkpt>
      <trkpt lat="23.08065" lon="113.273135">
        <time>2026-08-30T00:33:42Z</time>
      </trkpt>
      <trkpt lat="23.080578" lon="113.273242">
        <time>2026-08-30T00:33:47Z</time>
      </trkpt>
      <trkpt lat="23.080532" lon="113.273369">
        <time>2026-08-30T00:33:52Z</time>
      </trkpt>
      <trkpt lat="23.080529" lon="113.273564">
        <time>2026-08-30T00:33:57Z</time>
      </trkpt>
      <trkpt lat="23.080596" lon="113.273715">
        <time>2026-08-30T00:34:02Z</time>
      </trkpt>
      <trkpt lat="23.080654" lon="113.273784">
        <time>2026-08-30T00:34:07Z</time>
      </trkpt>
      <trkpt lat="23.080719" lon="113.27386">
        <time>2026-08-30T00:34:12Z</time>
      </trkpt>
      <trkpt lat="23.080858" lon="113.273927">
        <time>2026-08-30T00:34:17Z</time>
      </trkpt>
      <trkpt lat="23.081015" lon="113.27397">
        <time>2026-08-30T00:34:22Z</time>
      </trkpt>
      <trkpt lat="23.081109" lon="113.274">
        <time>2026-08-30T00:34:27Z</time>
      </trkpt>
      <trkpt lat="23.081197" lon="113.274032">
        <time>2026-08-30T00:34:32Z</time>
      </trkpt>
      <trkpt lat="23.081326" lon="113.27407">
        <time>2026-08-30T00:34:37Z</time>
      </trkpt>
      <trkpt lat="23.081457" lon="113.274114">
        <time>2026-08-30T00:34:42Z</time>
      </trkpt>
      <trkpt lat="23.081547" lon="113.274142">
        <time>2026-08-30T00:34:47Z</time>
      </trkpt>
      <trkpt lat="23.081638" lon="113.274167">
        <time>2026-08-30T00:34:52Z</time>
      </trkpt>
      <trkpt lat="23.081777" lon="113.274172">
        <time>2026-08-30T00:34:57Z</time>
      </trkpt>
      <trkpt lat="23.08191" lon="113.274119">
        <time>2026-08-30T00:35:02Z</time>
      </trkpt>
      <trkpt lat="23.081981" lon="113.274052">
        <time>2026-08-30T00:35:07Z</time>
      </trkpt>
      <trkpt lat="23.082051" lon="113.273963">
        <time>2026-08-30T00:35:12Z</time>
      </trkpt>
      <trkpt lat="23.082122" lon="113.273821">
        <time>2026-08-30T00:35:17Z</time>
      </trkpt>
      <trkpt lat="23.082128" lon="113.273666">
        <time>2026-08-30T00:35:22Z</time>
      </trkpt>
      <trkpt lat="23.082106" lon="113.273568">
        <time>2026-08-30T00:35:27Z</time>
      </trkpt>
      <trkpt lat="23.082069" lon="113.273471">
        <time>2026-08-30T00:35:32Z</time>
      </trkpt>
      <trkpt lat="23.081967" lon="113.273366">
        <time>2026-08-30T00:35:37Z</time>
      </trkpt>
      <trkpt lat="23.081823" lon="113.273308">
        <time>2026-08-30T00:35:42Z</time>
      </trkpt>
      <trkpt lat="23.081736" lon="113.27327">
        <time>2026-08-30T00:35:47Z</time>
      </trkpt>
      <trkpt lat="23.081658" lon="113.273236">
        <time>2026-08-30T00:35:52Z</time>
      </trkpt>
      <trkpt lat="23.081537" lon="113.273187">
        <time>2026-08-30T00:35:57Z</time>
      </trkpt>
      <trkpt lat="23.081407" lon="113.273132">
        <time>2026-08-30T00:36:02Z</time>
      </trkpt>
      <trkpt lat="23.081324" lon="113.273099">
        <time>2026-08-30T00:36:07Z</time>
      </trkpt>
      <trkpt lat="23.081237" lon="113.273067">
        <time>2026-08-30T00:36:12Z</time>
      </trkpt>
      <trkpt lat="23.081114" lon="113.273004">
        <time>2026-08-30T00:36:17Z</time>
      </trkpt>
      <trkpt lat="23.080981" lon="113.272959">
        <time>2026-08-30T00:36:22Z</time>
      </trkpt>
      <trkpt lat="23.080884" lon="113.272984">
        <time>2026-08-30T00:36:27Z</time>
      </trkpt>
      <trkpt lat="23.08078" lon="113.273041">
        <time>2026-08-30T00:36:32Z</time>
      </trkpt>
      <trkpt lat="23.080657" lon="113.273203">
        <time>2026-08-30T00:36:37Z</time>
      </trkpt>
      <trkpt lat="23.080587" lon="113.273379">
        <time>2026-08-30T00:36:42Z</time>
      </trkpt>
      <trkpt lat="23.080574" lon="113.2735">
        <time>2026-08-30T00:36:47Z</time>
      </trkpt>
      <trkpt lat="23.08059" lon="113.273626">
        <time>2026-08-30T00:36:52Z</time>
      </trkpt>
      <trkpt lat="23.080678" lon="113.27378">
        <time>2026-08-30T00:36:57Z</time>
      </trkpt>
      <trkpt lat="23.08081" lon="113.273884">
        <time>2026-08-30T00:37:02Z</time>
      </trkpt>
      <trkpt lat="23.080917" lon="113.273933">
        <time>2026-08-30T00:37:07Z</time>
      </trkpt>
      <trkpt lat="23.081033" lon="113.273977">
        <time>2026-08-30T00:37:12Z</time>
      </trkpt>
      <trkpt lat="23.081201" lon="113.274025">
        <time>2026-08-30T00:37:17Z</time>
      </trkpt>
      <trkpt lat="23.081369" lon="113.27408">
        <time>2026-08-30T00:37:22Z</time>
      </trkpt>
      <trkpt lat="23.081484" lon="113.274116">
        <time>2026-08-30T00:37:27Z</time>
      </trkpt>
      <trkpt lat="23.0816" lon="113.274144">
        <time>2026-08-30T00:37:32Z</time>
      </trkpt>
      <trkpt lat="23.081779" lon="113.274164">
        <time>2026-08-30T00:37:37Z</time>
      </trkpt>
      <trkpt lat="23.081949" lon="113.274085">
        <time>2026-08-30T00:37:42Z</time>
      </trkpt>
      <trkpt lat="23.082041" lon="113.273994">
        <time>2026-08-30T00:37:47Z</time>
      </trkpt>
      <trkpt lat="23.082111" lon="113.27388">
        <time>2026-08-30T00:37:52Z</time>
      </trkpt>
      <trkpt lat="23.082145" lon="113.273713">
        <time>2026-08-30T00:37:57Z</time>
      </trkpt>
      <trkpt lat="23.082117" lon="113.273576">
        <time>2026-08-30T00:38:02Z</time>
      </trkpt>
      <trkpt lat="23.082078" lon="113.273491">
        <time>2026-08-30T00:38:07Z</time>
      </trkpt>
      <trkpt lat="23.082021" lon="113.27342">
        <time>2026-08-30T00:38:12Z</time>
      </trkpt>
      <trkpt lat="23.081901" lon="113.273341">
        <time>2026-08-30T00:38:17Z</time>
      </trkpt>
      <trkpt lat="23.081783" lon="113.273257">
        <time>2026-08-30T00:38:22Z</time>
      </trkpt>
      <trkpt lat="23.081706" lon="113.273209">
        <time>2026-08-30T00:38:27Z</time>
      </trkpt>
      <trkpt lat="23.081626" lon="113.27317">
        <time>2026-08-30T00:38:32Z</time>
      </trkpt>
      <trkpt lat="23.081514" lon="113.273128">
        <time>2026-08-30T00:38:37Z</time>
      </trkpt>
      <trkpt lat="23.081468" lon="113.27307">
        <time>2026-08-30T00:38:42Z</time>
      </trkpt>
      <trkpt lat="23.081466" lon="113.272978">
        <time>2026-08-30T00:38:47Z</time>
      </trkpt>
      <trkpt lat="23.081421" lon="113.272912">
        <time>2026-08-30T00:38:52Z</time>
      </trkpt>
      <trkpt lat="23.081305" lon="113.27287">
        <time>2026-08-30T00:38:57Z</time>
      </trkpt>
      <trkpt lat="23.081179" lon="113.27282">
        <time>2026-08-30T00:39:02Z</time>
      </trkpt>
      <trkpt lat="23.081101" lon="113.272805">
        <time>2026-08-30T00:39:07Z</time>
      </trkpt>
      <trkpt lat="23.081021" lon="113.272787">
        <time>2026-08-30T00:39:12Z</time>
      </trkpt>
      <trkpt lat="23.080903" lon="113.272756">
        <time>2026-08-30T00:39:17Z</time>
      </trkpt>
      <trkpt lat="23.080791" lon="113.272738">
        <time>2026-08-30T00:39:22Z</time>
      </trkpt>
      <trkpt lat="23.080715" lon="113.272713">
        <time>2026-08-30T00:39:27Z</time>
      </trkpt>
      <trkpt lat="23.080636" lon="113.27268">
        <time>2026-08-30T00:39:32Z</time>
      </trkpt>
      <trkpt lat="23.080521" lon="113.272621">
        <time>2026-08-30T00:39:37Z</time>
      </trkpt>
      <trkpt lat="23.080449" lon="113.272562">
        <time>2026-08-30T00:39:42Z</time>
      </trkpt>
      <trkpt lat="23.080402" lon="113.272525">
        <time>2026-08-30T00:39:47Z</time>
      </trkpt>
      <trkpt lat="23.080343" lon="113.27249">
        <time>2026-08-30T00:39:52Z</time>
      </trkpt>
      <trkpt lat="23.080217" lon="113.272449">
        <time>2026-08-30T00:39:57Z</time>
      </trkpt>
      <trkpt lat="23.080087" lon="113.2724">
        <time>2026-08-30T00:40:02Z</time>
      </trkpt>
      <trkpt lat="23.08" lon="113.272374">
        <time>2026-08-30T00:40:07Z</time>
      </trkpt>
      <trkpt lat="23.07991" lon="113.272331">
        <time>2026-08-30T00:40:12Z</time>
      </trkpt>
      <trkpt lat="23.07978" lon="113.272298">
        <time>2026-08-30T00:40:17Z</time>
      </trkpt>
      <trkpt lat="23.079697" lon="113.272292">
        <time>2026-08-30T00:40:22Z</time>
      </trkpt>
      <trkpt lat="23.079616" lon="113.272247">
        <time>2026-08-30T00:40:27Z</time>
      </trkpt>
      <trkpt lat="23.079533" lon="113.272195">
        <time>2026-08-30T00:40:32Z</time>
      </trkpt>
      <trkpt lat="23.079428" lon="113.272095">
        <time>2026-08-30T00:40:37Z</time>
      </trkpt>
      <trkpt lat="23.07932" lon="113.272028">
        <time>2026-08-30T00:40:42Z</time>
      </trkpt>
      <trkpt lat="23.079241" lon="113.272067">
        <time>2026-08-30T00:40:47Z</time>
      </trkpt>
      <trkpt lat="23.079165" lon="113.272147">
        <time>2026-08-30T00:40:52Z</time>
      </trkpt>
      <trkpt lat="23.079059" lon="113.272279">
        <time>2026-08-30T00:40:57Z</time>
      </trkpt>
      <trkpt lat="23.078948" lon="113.272391">
        <time>2026-08-30T00:41:02Z</time>
      </trkpt>
      <trkpt lat="23.078867" lon="113.272448">
        <time>2026-08-30T00:41:07Z</time>
      </trkpt>
      <trkpt lat="23.078788" lon="113.272503">
        <time>2026-08-30T00:41:12Z</time>
      </trkpt>
      <trkpt lat="23.078651" lon="113.272573">
        <time>2026-08-30T00:41:17Z</time>
      </trkpt>
      <trkpt lat="23.078536" lon="113.272649">
        <time>2026-08-30T00:41:22Z</time>
      </trkpt>
      <trkpt lat="23.078462" lon="113.272708">
        <time>2026-08-30T00:41:27Z</time>
      </trkpt>
      <trkpt lat="23.078385" lon="113.272763">
        <time>2026-08-30T00:41:32Z</time>
      </trkpt>
      <trkpt lat="23.078275" lon="113.272837">
        <time>2026-08-30T00:41:37Z</time>
      </trkpt>
      <trkpt lat="23.078172" lon="113.272927">
        <time>2026-08-30T00:41:42Z</time>
      </trkpt>
      <trkpt lat="23.078106" lon="113.272985">
        <time>2026-08-30T00:41:47Z</time>
      </trkpt>
      <trkpt lat="23.078031" lon="113.273044">
        <time>2026-08-30T00:41:52Z</time>
      </trkpt>
      <trkpt lat="23.077901" lon="113.273104">
        <time>2026-08-30T00:41:57Z</time>
      </trkpt>
      <trkpt lat="23.077783" lon="113.273142">
        <time>2026-08-30T00:42:02Z</time>
      </trkpt>
      <trkpt lat="23.077695" lon="113.27319">
        <time>2026-08-30T00:42:07Z</time>
      </trkpt>
      <trkpt lat="23.077619" lon="113.273267">
        <time>2026-08-30T00:42:12Z</time>
      </trkpt>
      <trkpt lat="23.077516" lon="113.273386">
        <time>2026-08-30T00:42:17Z</time>
      </trkpt>
      <trkpt lat="23.077411" lon="113.2735">
        <time>2026-08-30T00:42:22Z</time>
      </trkpt>
      <trkpt lat="23.077344" lon="113.273575">
        <time>2026-08-30T00:42:27Z</time>
      </trkpt>
      <trkpt lat="23.077265" lon="113.273601">
        <time>2026-08-30T00:42:32Z</time>
      </trkpt>
      <trkpt lat="23.077133" lon="113.273573">
        <time>2026-08-30T00:42:37Z</time>
      </trkpt>
      <trkpt lat="23.077005" lon="113.273517">
        <time>2026-08-30T00:42:42Z</time>
      </trkpt>
      <trkpt lat="23.07693" lon="113.273472">
        <time>2026-08-30T00:42:47Z</time>
      </trkpt>
      <trkpt lat="23.076864" lon="113.273414">
        <time>2026-08-30T00:42:52Z</time>
      </trkpt>
      <trkpt lat="23.076825" lon="113.273299">
        <time>2026-08-30T00:42:57Z</time>
      </trkpt>
      <trkpt lat="23.076783" lon="113.273168">
        <time>2026-08-30T00:43:02Z</time>
      </trkpt>
      <trkpt lat="23.076716" lon="113.273088">
        <time>2026-08-30T00:43:07Z</time>
      </trkpt>
      <trkpt lat="23.076648" lon="113.27301">
        <time>2026-08-30T00:43:12Z</time>
      </trkpt>
      <trkpt lat="23.076566" lon="113.272896">
        <time>2026-08-30T00:43:17Z</time>
      </trkpt>
      <trkpt lat="23.076483" lon="113.272792">
        <time>2026-08-30T00:43:22Z</time>
      </trkpt>
      <trkpt lat="23.076425" lon="113.272736">
        <time>2026-08-30T00:43:27Z</time>
      </trkpt>
      <trkpt lat="23.076357" lon="113.272665">
        <time>2026-08-30T00:43:32Z</time>
      </trkpt>
      <trkpt lat="23.076238" lon="113.27258">
        <time>2026-08-30T00:43:37Z</time>
      </trkpt>
      <trkpt lat="23.076169" lon="113.272561">
        <time>2026-08-30T00:43:42Z</time>
      </trkpt>
      <trkpt lat="23.076102" lon="113.27252">
        <time>2026-08-30T00:43:47Z</time>
      </trkpt>
      <trkpt lat="23.076018" lon="113.272448">
        <time>2026-08-30T00:43:52Z</time>
      </trkpt>
      <trkpt lat="23.075897" lon="113.272358">
        <time>2026-08-30T00:43:57Z</time>
      </trkpt>
      <trkpt lat="23.075771" lon="113.27228">
        <time>2026-08-30T00:44:02Z</time>
      </trkpt>
      <trkpt lat="23.075677" lon="113.272249">
        <time>2026-08-30T00:44:07Z</time>
      </trkpt>
      <trkpt lat="23.075595" lon="113.272227">
        <time>2026-08-30T00:44:12Z</time>
      </trkpt>
      <trkpt lat="23.075457" lon="113.272163">
        <time>2026-08-30T00:44:17Z</time>
      </trkpt>
      <trkpt lat="23.075344" lon="113.272042">
        <time>2026-08-30T00:44:22Z</time>
      </trkpt>
      <trkpt lat="23.075309" lon="113.272027">
        <time>2026-08-30T00:44:27Z</time>
      </trkpt>
      <trkpt lat="23.075311" lon="113.272089">
        <time>2026-08-30T00:44:32Z</time>
      </trkpt>
      <trkpt lat="23.075301" lon="113.272224">
        <time>2026-08-30T00:44:37Z</time>
      </trkpt>
      <trkpt lat="23.075299" lon="113.272377">
        <time>2026-08-30T00:44:42Z</time>
      </trkpt>
      <trkpt lat="23.075371" lon="113.272425">
        <time>2026-08-30T00:44:47Z</time>
      </trkpt>
      <trkpt lat="23.07545" lon="113.27248">
        <time>2026-08-30T00:44:53Z</time>
      </trkpt>
    </trkseg>
  </trk>
</gpx>