<?xml version="1.0" encoding="UTF-8"?>
<gpx xmlns="http://www.topografix.com/GPX/1/1" xmlns:gpxtpx="http://www.garmin.com/xmlschemas/TrackPointExtension/v1" xmlns:xsi="http://www.w3.org/2001/XMLSchema-instance" xsi:schemaLocation="http://www.topografix.com/GPX/1/1 http://www.topografix.com/GPX/1/1/gpx.xsd" version="1.1" creator="gpx.py -- https://github.com/tkrajina/gpxpy">
  <trk>
    <name>gpx from joyrun</name>
    <trkseg>
      <trkpt lat="23.076013" lon="113.272834">
        <time>2026-08-31T22:02:51Z</time>
      </trkpt>
      <trkpt lat="23.075971" lon="113.272733">
        <time>2026-08-31T22:02:56Z</time>
      </trkpt>
      <trkpt lat="23.075858" lon="113.272647">
        <time>2026-08-31T22:03:01Z</time>
      </trkpt>
      <trkpt lat="23.075768" lon="113.272616">
        <time>2026-08-31T22:03:06Z</time>
      </trkpt>
      <trkpt lat="23.075692" lon="113.272568">
        <time>2026-08-31T22:03:11Z</time>
      </trkpt>
      <trkpt lat="23.075576" lon="113.272479">
        <time>2026-08-31T22:03:16Z</time>
      </trkpt>
      <trkpt lat="23.075428" lon="113.272439">
        <time>2026-08-31T22:03:21Z</time>
      </trkpt>
      <trkpt lat="23.075345" lon="113.272408">
        <time>2026-08-31T22:03:26Z</time>
      </trkpt>
      <trkpt lat="23.075269" lon="113.272374">
        <time>2026-08-31T22:03:31Z</time>
      </trkpt>
      <trkpt lat="23.075148" lon="113.272317">
        <time>2026-08-31T22:03:36Z</time>
      </trkpt>
      <trkpt lat="23.075034" lon="113.27224">
        <time>2026-08-31T22:03:41Z</time>
      </trkpt>
      <trkpt lat="23.074956" lon="113.272177">
        <time>2026-08-31T22:03:46Z</time>
      </trkpt>
      <trkpt lat="23.074879" lon="113.272103">
        <time>2026-08-31T22:03:51Z</time>
      </trkpt>
      <trkpt lat="23.074748" lon="113.272054">
        <time>2026-08-31T22:03:56Z</time>
      </trkpt>
      <trkpt lat="23.074604" lon="113.272002">
        <time>2026-08-31T22:04:01Z</time>
      </trkpt>
      <trkpt lat="23.074514" lon="113.271963">
        <time>2026-08-31T22:04:06Z</time>
      </trkpt>
      <trkpt lat="23.074454" lon="113.272015">
        <time>2026-08-31T22:04:11Z</time>
      </trkpt>
      <trkpt lat="23.074374" lon="113.272099">
        <time>2026-08-31T22:04:16Z</time>
      </trkpt>
      <trkpt lat="23.074318" lon="113.272228">
        <time>2026-08-31T22:04:21Z</time>
      </trkpt>
      <trkpt lat="23.074285" lon="113.27233">
        <time>2026-08-31T22:04:26Z</time>
      </trkpt>
      <trkpt lat="23.074246" lon="113.272423">
        <time>2026-08-31T22:04:31Z</time>
      </trkpt>
      <trkpt lat="23.074179" lon="113.272559">
        <time>2026-08-31T22:04:36Z</time>
      </trkpt>
      <trkpt lat="23.07412" lon="113.272699">
        <time>2026-08-31T22:04:41Z</time>
      </trkpt>
      <trkpt lat="23.074085" lon="113.272798">
        <time>2026-08-31T22:04:46Z</time>
      </trkpt>
      <trkpt lat="23.07404" lon="113.272889">
        <time>2026-08-31T22:04:51Z</time>
      </trkpt>
      <trkpt lat="23.073922" lon="113.272954">
        <time>2026-08-31T22:04:56Z</time>
      </trkpt>
      <trkpt lat="23.073778" lon="113.272922">
        <time>2026-08-31T22:05:01Z</time>
      </trkpt>
      <trkpt lat="23.073707" lon="113.272873">
        <time>2026-08-31T22:05:06Z</time>
      </trkpt>
      <trkpt lat="23.073702" lon="113.272799">
        <time>2026-08-31T22:05:11Z</time>
      </trkpt>
      <trkpt lat="23.073765" lon="113.272673">
        <time>2026-08-31T22:05:16Z</time>
      </trkpt>
      <trkpt lat="23.073825" lon="113.272549">
        <time>2026-08-31T22:05:21Z</time>
      </trkpt>
      <trkpt lat="23.073857" lon="113.272464">
        <time>2026-08-31T22:05:26Z</time>
      </trkpt>
      <trkpt lat="23.073896" lon="113.272379">
        <time>2026-08-31T22:05:31Z</time>
      </trkpt>
      <trkpt lat="23.073954" lon="113.272249">
        <time>2026-08-31T22:05:36Z</time>
      </trkpt>
      <trkpt lat="23.074006" lon="113.272123">
        <time>2026-08-31T22:05:41Z</time>
      </trkpt>
      <trkpt lat="23.074048" lon="113.272046">
        <time>2026-08-31T22:05:46Z</time>
      </trkpt>
      <trkpt lat="23.074093" lon="113.27196">
        <time>2026-08-31T22:05:51Z</time>
      </trkpt>
      <trkpt lat="23.074153" lon="113.271828">
        <time>2026-08-31T22:05:56Z</time>
      </trkpt>
      <trkpt lat="23.074095" lon="113.271712">
        <time>2026-08-31T22:06:01Z</time>
      </trkpt>
      <trkpt lat="23.074009" lon="113.27166">
        <time>2026-08-31T22:06:06Z</time>
      </trkpt>
      <trkpt lat="23.073931" lon="113.271614">
        <time>2026-08-31T22:06:11Z</time>
      </trkpt>
      <trkpt lat="23.073805" lon="113.271556">
        <time>2026-08-31T22:06:16Z</time>
      </trkpt>
      <trkpt lat="23.073684" lon="113.271508">
        <time>2026-08-31T22:06:21Z</time>
      </trkpt>
      <trkpt lat="23.073599" lon="113.271483">
        <time>2026-08-31T22:06:26Z</time>
      </trkpt>
      <trkpt lat="23.073502" lon="113.271461">
        <time>2026-08-31T22:06:31Z</time>
      </trkpt>
      <trkpt lat="23.073362" lon="113.271406">
        <time>2026-08-31T22:06:36Z</time>
      </trkpt>
      <trkpt lat="23.073261" lon="113.271282">
        <time>2026-08-31T22:06:41Z</time>
      </trkpt>
      <trkpt lat="23.073212" lon="113.271189">
        <time>2026-08-31T22:06:46Z</time>
      </trkpt>
      <trkpt lat="23.073138" lon="113.271107">
        <time>2026-08-31T22:06:51Z</time>
      </trkpt>
      <trkpt lat="23.072994" lon="113.271032">
        <time>2026-08-31T22:06:56Z</time>
      </trkpt>
      <trkpt lat="23.072846" lon="113.270953">
        <time>2026-08-31T22:07:01Z</time>
      </trkpt>
      <trkpt lat="23.072751" lon="113.270889">
        <time>2026-08-31T22:07:06Z</time>
      </trkpt>
      <trkpt lat="23.072651" lon="113.270834">
        <time>2026-08-31T22:07:11Z</time>
      </trkpt>
      <trkpt lat="23.072504" lon="113.270763">
        <time>2026-08-31T22:07:16Z</time>
      </trkpt>
      <trkpt lat="23.07236" lon="113.270686">
        <time>2026-08-31T22:07:21Z</time>
      </trkpt>
      <trkpt lat="23.072261" lon="113.270638">
        <time>2026-08-31T22:07:26Z</time>
      </trkpt>
      <trkpt lat="23.072168" lon="113.270581">
        <time>2026-08-31T22:07:31Z</time>
      </trkpt>
      <trkpt lat="23.072032" lon="113.270506">
        <time>2026-08-31T22:07:36Z</time>
      </trkpt>
      <trkpt lat="23.071908" lon="113.270424">
        <time>2026-08-31T22:07:41Z</time>
      </trkpt>
      <trkpt lat="23.071823" lon="113.270364">
        <time>2026-08-31T22:07:46Z</time>
      </trkpt>
      <trkpt lat="23.071727" lon="113.270329">
        <time>2026-08-31T22:07:51Z</time>
      </trkpt>
      <trkpt lat="23.071555" lon="113.270301">
        <time>2026-08-31T22:07:56Z</time>
      </trkpt>
      <trkpt lat="23.071405" lon="113.27032">
        <time>2026-08-31T22:08:01Z</time>
      </trkpt>
      <trkpt lat="23.071304" lon="113.270292">
        <time>2026-08-31T22:08:06Z</time>
      </trkpt>
      <trkpt lat="23.071207" lon="113.270249">
        <time>2026-08-31T22:08:11Z</time>
      </trkpt>
      <trkpt lat="23.071092" lon="113.270201">
        <time>2026-08-31T22:08:16Z</time>
      </trkpt>
      <trkpt lat="23.070961" lon="113.270156">
        <time>2026-08-31T22:08:21Z</time>
      </trkpt>
      <trkpt lat="23.070867" lon="113.27013">
        <time>2026-08-31T22:08:26Z</time>
      </trkpt>
      <trkpt lat="23.070775" lon="113.270106">
        <time>2026-08-31T22:08:31Z</time>
      </trkpt>
      <trkpt lat="23.070632" lon="113.270042">
        <time>2026-08-31T22:08:36Z</time>
      </trkpt>
      <trkpt lat="23.070491" lon="113.269966">
        <time>2026-08-31T22:08:41Z</time>
      </trkpt>
      <trkpt lat="23.0704" lon="113.269925">
        <time>2026-08-31T22:08:46Z</time>
      </trkpt>
      <trkpt lat="23.070307" lon="113.269888">
        <time>2026-08-31T22:08:51Z</time>
      </trkpt>
      <trkpt lat="23.07018" lon="113.269802">
        <time>2026-08-31T22:08:56Z</time>
      </trkpt>
      <trkpt lat="23.070057" lon="113.2697">
        <time>2026-08-31T22:09:01Z</time>
      </trkpt>
      <trkpt lat="23.069976" lon="113.269641">
        <time>2026-08-31T22:09:06Z</time>
      </trkpt>
      <trkpt lat="23.069893" lon="113.269587">
        <time>2026-08-31T22:09:11Z</time>
      </trkpt>
      <trkpt lat="23.069769" lon="113.26952">
        <time>2026-08-31T22:09:16Z</time>
      </trkpt>
      <trkpt lat="23.069632" lon="113.269467">
        <time>2026-08-31T22:09:21Z</time>
      </trkpt>
      <trkpt lat="23.069543" lon="113.26942">
        <time>2026-08-31T22:09:26Z</time>
      </trkpt>
      <trkpt lat="23.069453" lon="113.269377">
        <time>2026-08-31T22:09:31Z</time>
      </trkpt>
      <trkpt lat="23.069315" lon="113.269294">
        <time>2026-08-31T22:09:36Z</time>
      </trkpt>
      <trkpt lat="23.069176" lon="113.26923">
        <time>2026-08-31T22:09:41Z</time>
      </trkpt>
      <trkpt lat="23.069082" lon="113.269214">
        <time>2026-08-31T22:09:46Z</time>
      </trkpt>
      <trkpt lat="23.068992" lon="113.269203">
        <time>2026-08-31T22:09:51Z</time>
      </trkpt>
      <trkpt lat="23.068844" lon="113.269147">
        <time>2026-08-31T22:09:56Z</time>
      </trkpt>
      <trkpt lat="23.068702" lon="113.26908">
        <time>2026-08-31T22:10:01Z</time>
      </trkpt>
      <trkpt lat="23.06861" lon="113.269048">
        <time>2026-08-31T22:10:06Z</time>
      </trkpt>
      <trkpt lat="23.068522" lon="113.269022">
        <time>2026-08-31T22:10:11Z</time>
      </trkpt>
      <trkpt lat="23.068392" lon="113.268977">
        <time>2026-08-31T22:10:16Z</time>
      </trkpt>
      <trkpt lat="23.068248" lon="113.268954">
        <time>2026-08-31T22:10:21Z</time>
      </trkpt>
      <trkpt lat="23.068175" lon="113.26891">
        <time>2026-08-31T22:10:26Z</time>
      </trkpt>
      <trkpt lat="23.068117" lon="113.268846">
        <time>2026-08-31T22:10:31Z</time>
      </trkpt>
      <trkpt lat="23.068011" lon="113.268711">
        <time>2026-08-31T22:10:36Z</time>
      </trkpt>
      <trkpt lat="23.067906" lon="113.268557">
        <time>2026-08-31T22:10:41Z</time>
      </trkpt>
      <trkpt lat="23.067824" lon="113.268479">
        <time>2026-08-31T22:10:46Z</time>
      </trkpt>
      <trkpt lat="23.067731" lon="113.268423">
        <time>2026-08-31T22:10:51Z</time>
      </trkpt>
      <trkpt lat="23.067591" lon="113.268343">
        <time>2026-08-31T22:10:56Z</time>
      </trkpt>
      <trkpt lat="23.067449" lon="113.268283">
        <time>2026-08-31T22:11:01Z</time>
      </trkpt>
      <trkpt lat="23.067353" lon="113.268256">
        <time>2026-08-31T22:11:06Z</time>
      </trkpt>
      <trkpt lat="23.067263" lon="113.268222">
        <time>2026-08-31T22:11:11Z</time>
      </trkpt>
      <trkpt lat="23.067134" lon="113.268161">
        <time>2026-08-31T22:11:16Z</time>
      </trkpt>
      <trkpt lat="23.067" lon="113.268084">
        <time>2026-08-31T22:11:21Z</time>
      </trkpt>
      <trkpt lat="23.066907" lon="113.268045">
        <time>2026-08-31T22:11:26Z</time>
      </trkpt>
      <trkpt lat="23.066801" lon="113.268031">
        <time>2026-08-31T22:11:31Z</time>
      </trkpt>
      <trkpt lat="23.066648" lon="113.268007">
        <time>2026-08-31T22:11:36Z</time>
      </trkpt>
      <trkpt lat="23.066501" lon="113.267964">
        <time>2026-08-31T22:11:41Z</time>
      </trkpt>
      <trkpt lat="23.066403" lon="113.267949">
        <time>2026-08-31T22:11:46Z</time>
      </trkpt>
      <trkpt lat="23.066306" lon="113.267963">
        <time>2026-08-31T22:11:51Z</time>
      </trkpt>
      <trkpt lat="23.066178" lon="113.268048">
        <time>2026-08-31T22:11:56Z</time>
      </trkpt>
      <trkpt lat="23.066063" lon="113.268172">
        <time>2026-08-31T22:12:01Z</time>
      </trkpt>
      <trkpt lat="23.065993" lon="113.268259">
        <time>2026-08-31T22:12:06Z</time>
      </trkpt>
      <trkpt lat="23.065928" lon="113.268346">
        <time>2026-08-31T22:12:11Z</time>
      </trkpt>
      <trkpt lat="23.065836" lon="113.268483">
        <time>2026-08-31T22:12:16Z</time>
      </trkpt>
      <trkpt lat="23.065756" lon="113.268628">
        <time>2026-08-31T22:12:21Z</time>
      </trkpt>
      <trkpt lat="23.065708" lon="113.268729">
        <time>2026-08-31T22:12:26Z</time>
      </trkpt>
      <trkpt lat="23.065669" lon="113.268833">
        <time>2026-08-31T22:12:31Z</time>
      </trkpt>
      <trkpt lat="23.065632" lon="113.268995">
        <time>2026-08-31T22:12:36Z</time>
      </trkpt>
      <trkpt lat="23.065582" lon="113.269158">
        <time>2026-08-31T22:12:41Z</time>
      </trkpt>
      <trkpt lat="23.065551" lon="113.269263">
        <time>2026-08-31T22:12:46Z</time>
      </trkpt>
      <trkpt lat="23.065524" lon="113.269367">
        <time>2026-08-31T22:12:51Z</time>
      </trkpt>
      <trkpt lat="23.065486" lon="113.269522">
        <time>2026-08-31T22:12:56Z</time>
      </trkpt>
      <trkpt lat="23.065447" lon="113.269683">
        <time>2026-08-31T22:13:01Z</time>
      </trkpt>
      <trkpt lat="23.065422" lon="113.269785">
        <time>2026-08-31T22:13:06Z</time>
      </trkpt>
      <trkpt lat="23.065386" lon="113.269885">
        <time>2026-08-31T22:13:11Z</time>
      </trkpt>
      <trkpt lat="23.065326" lon="113.270042">
        <time>2026-08-31T22:13:16Z</time>
      </trkpt>
      <trkpt lat="23.065262" lon="113.270194">
        <time>2026-08-31T22:13:21Z</time>
      </trkpt>
      <trkpt lat="23.065215" lon="113.27029">
        <time>2026-08-31T22:13:26Z</time>
      </trkpt>
      <trkpt lat="23.065164" lon="113.270387">
        <time>2026-08-31T22:13:31Z</time>
      </trkpt>
      <trkpt lat="23.065095" lon="113.270537">
        <time>2026-08-31T22:13:36Z</time>
      </trkpt>
      <trkpt lat="23.065025" lon="113.270689">
        <time>2026-08-31T22:13:41Z</time>
      </trkpt>
      <trkpt lat="23.06498" lon="113.270785">
        <time>2026-08-31T22:13:46Z</time>
      </trkpt>
      <trkpt lat="23.064941" lon="113.270885">
        <time>2026-08-31T22:13:51Z</time>
      </trkpt>
      <trkpt lat="23.064875" lon="113.271039">
        <time>2026-08-31T22:13:56Z</time>
      </trkpt>
      <trkpt lat="23.064801" lon="113.271186">
        <time>2026-08-31T22:14:01Z</time>
      </trkpt>
      <trkpt lat="23.064751" lon="113.271287">
        <time>2026-08-31T22:14:06Z</time>
      </trkpt>
      <trkpt lat="23.064705" lon="113.271387">
        <time>2026-08-31T22:14:11Z</time>
      </trkpt>
      <trkpt lat="23.06464" lon="113.271537">
        <time>2026-08-31T22:14:16Z</time>
      </trkpt>
      <trkpt lat="23.064568" lon="113.271684">
        <time>2026-08-31T22:14:21Z</time>
      </trkpt>
      <trkpt lat="23.064523" lon="113.271788">
        <time>2026-08-31T22:14:26Z</time>
      </trkpt>
      <trkpt lat="23.064478" lon="113.271892">
        <time>2026-08-31T22:14:31Z</time>
      </trkpt>
      <trkpt lat="23.064405" lon="113.272048">
        <time>2026-08-31T22:14:36Z</time>
      </trkpt>
      <trkpt lat="23.064351" lon="113.272209">
        <time>2026-08-31T22:14:41Z</time>
      </trkpt>
      <trkpt lat="23.064339" lon="113.272325">
        <time>2026-08-31T22:14:46Z</time>
      </trkpt>
      <trkpt lat="23.064327" lon="113.272439">
        <time>2026-08-31T22:14:51Z</time>
      </trkpt>
      <trkpt lat="23.064325" lon="113.272606">
        <time>2026-08-31T22:14:56Z</time>
      </trkpt>
      <trkpt lat="23.06437" lon="113.27277">
        <time>2026-08-31T22:15:01Z</time>
      </trkpt>
      <trkpt lat="23.064408" lon="113.272878">
        <time>2026-08-31T22:15:06Z</time>
      </trkpt>
      <trkpt lat="23.06444" lon="113.272987">
        <time>2026-08-31T22:15:11Z</time>
      </trkpt>
      <trkpt lat="23.064481" lon="113.273146">
        <time>2026-08-31T22:15:16Z</time>
      </trkpt>
      <trkpt lat="23.064441" lon="113.273297">
        <time>2026-08-31T22:15:21Z</time>
      </trkpt>
      <trkpt lat="23.064361" lon="113.273374">
        <time>2026-08-31T22:15:26Z</time>
      </trkpt>
      <trkpt lat="23.064266" lon="113.27344">
        <time>2026-08-31T22:15:31Z</time>
      </trkpt>
      <trkpt lat="23.064127" lon="113.273539">
        <time>2026-08-31T22:15:36Z</time>
      </trkpt>
      <trkpt lat="23.063998" lon="113.273645">
        <time>2026-08-31T22:15:41Z</time>
      </trkpt>
      <trkpt lat="23.063924" lon="113.273725">
        <time>2026-08-31T22:15:46Z</time>
      </trkpt>
      <trkpt lat="23.063861" lon="113.273815">
        <time>2026-08-31T22:15:51Z</time>
      </trkpt>
      <trkpt lat="23.06378" lon="113.273965">
        <time>2026-08-31T22:15:56Z</time>
      </trkpt>
      <trkpt lat="23.063684" lon="113.274098">
        <time>2026-08-31T22:16:01Z</time>
      </trkpt>
      <trkpt lat="23.063604" lon="113.274167">
        <time>2026-08-31T22:16:06Z</time>
      </trkpt>
      <trkpt lat="23.063537" lon="113.27426">
        <time>2026-08-31T22:16:11Z</time>
      </trkpt>
      <trkpt lat="23.063463" lon="113.274432">
        <time>2026-08-31T22:16:16Z</time>
      </trkpt>
      <trkpt lat="23.063405" lon="113.274604">
        <time>2026-08-31T22:16:21Z</time>
      </trkpt>
      <trkpt lat="23.063364" lon="113.274723">
        <time>2026-08-31T22:16:26Z</time>
      </trkpt>
      <trkpt lat="23.063319" lon="113.27485">
        <time>2026-08-31T22:16:31Z</time>
      </trkpt>
      <trkpt lat="23.063247" lon="113.275041">
        <time>2026-08-31T22:16:36Z</time>
      </trkpt>
      <trkpt lat="23.063152" lon="113.275213">
        <time>2026-08-31T22:16:41Z</time>
      </trkpt>
      <trkpt lat="23.063084" lon="113.275322">
        <time>2026-08-31T22:16:46Z</time>
      </trkpt>
      <trkpt lat="23.063021" lon="113.275424">
        <time>2026-08-31T22:16:51Z</time>
      </trkpt>
      <trkpt lat="23.062916" lon="113.275572">
        <time>2026-08-31T22:16:56Z</time>
      </trkpt>
      <trkpt lat="23.062793" lon="113.275699">
        <time>2026-08-31T22:17:01Z</time>
      </trkpt>
      <trkpt lat="23.06271" lon="113.275785">
        <time>2026-08-31T22:17:06Z</time>
      </trkpt>
      <trkpt lat="23.062631" lon="113.275878">
        <time>2026-08-31T22:17:11Z</time>
      </trkpt>
      <trkpt lat="23.062525" lon="113.276032">
        <time>2026-08-31T22:17:16Z</time>
      </trkpt>
      <trkpt lat="23.062441" lon="113.27619">
        <time>2026-08-31T22:17:21Z</time>
      </trkpt>
      <trkpt lat="23.0624" lon="113.276293">
        <time>2026-08-31T22:17:26Z</time>
      </trkpt>
      <trkpt lat="23.06236" lon="113.276398">
        <time>2026-08-31T22:17:31Z</time>
      </trkpt>
      <trkpt lat="23.062303" lon="113.276559">
        <time>2026-08-31T22:17:36Z</time>
      </trkpt>
      <trkpt lat="23.062242" lon="113.276721">
        <time>2026-08-31T22:17:41Z</time>
      </trkpt>
      <trkpt lat="23.062202" lon="113.276826">
        <time>2026-08-31T22:17:46Z</time>
      </trkpt>
      <trkpt lat="23.062165" lon="113.276935">
        <time>2026-08-31T22:17:51Z</time>
      </trkpt>
      <trkpt lat="23.062105" lon="113.2771">
        <time>2026-08-31T22:17:56Z</time>
      </trkpt>
      <trkpt lat="23.062043" lon="113.277272">
        <time>2026-08-31T22:18:01Z</time>
      </trkpt>
      <trkpt lat="23.061998" lon="113.277386">
        <time>2026-08-31T22:18:06Z</time>
      </trkpt>
      <trkpt lat="23.061955" lon="113.2775">
        <time>2026-08-31T22:18:11Z</time>
      </trkpt>
      <trkpt lat="23.061895" lon="113.277668">
        <time>2026-08-31T22:18:16Z</time>
      </trkpt>
      <trkpt lat="23.061861" lon="113.277838">
        <time>2026-08-31T22:18:21Z</time>
      </trkpt>
      <trkpt lat="23.061858" lon="113.277952">
        <time>2026-08-31T22:18:26Z</time>
      </trkpt>
      <trkpt lat="23.061865" lon="113.278064">
        <time>2026-08-31T22:18:31Z</time>
      </trkpt>
      <trkpt lat="23.061872" lon="113.278228">
        <time>2026-08-31T22:18:36Z</time>
      </trkpt>
      <trkpt lat="23.06188" lon="113.278396">
        <time>2026-08-31T22:18:41Z</time>
      </trkpt>
      <trkpt lat="23.061885" lon="113.27851">
        <time>2026-08-31T22:18:46Z</time>
      </trkpt>
      <trkpt lat="23.061889" lon="113.278623">
        <time>2026-08-31T22:18:51Z</time>
      </trkpt>
      <trkpt lat="23.061851" lon="113.278788">
        <time>2026-08-31T22:18:56Z</time>
      </trkpt>
      <trkpt lat="23.061757" lon="113.278943">
        <time>2026-08-31T22:19:01Z</time>
      </trkpt>
      <trkpt lat="23.061692" lon="113.279048">
        <time>2026-08-31T22:19:06Z</time>
      </trkpt>
      <trkpt lat="23.061638" lon="113.279152">
        <time>2026-08-31T22:19:11Z</time>
      </trkpt>
      <trkpt lat="23.061571" lon="113.27931">
        <time>2026-08-31T22:19:16Z</time>
      </trkpt>
      <trkpt lat="23.061503" lon="113.279467">
        <time>2026-08-31T22:19:21Z</time>
      </trkpt>
      <trkpt lat="23.061456" lon="113.279577">
        <time>2026-08-31T22:19:26Z</time>
      </trkpt>
      <trkpt lat="23.061411" lon="113.279687">
        <time>2026-08-31T22:19:31Z</time>
      </trkpt>
      <trkpt lat="23.061344" lon="113.27986">
        <time>2026-08-31T22:19:36Z</time>
      </trkpt>
      <trkpt lat="23.061274" lon="113.280038">
        <time>2026-08-31T22:19:41Z</time>
      </trkpt>
      <trkpt lat="23.061223" lon="113.280154">
        <time>2026-08-31T22:19:46Z</time>
      </trkpt>
      <trkpt lat="23.061175" lon="113.280269">
        <time>2026-08-31T22:19:51Z</time>
      </trkpt>
      <trkpt lat="23.061097" lon="113.280432">
        <time>2026-08-31T22:19:56Z</time>
      </trkpt>
      <trkpt lat="23.061004" lon="113.280586">
        <time>2026-08-31T22:20:01Z</time>
      </trkpt>
      <trkpt lat="23.060955" lon="113.280694">
        <time>2026-08-31T22:20:06Z</time>
      </trkpt>
      <trkpt lat="23.060907" lon="113.2808">
        <time>2026-08-31T22:20:11Z</time>
      </trkpt>
      <trkpt lat="23.060831" lon="113.280957">
        <time>2026-08-31T22:20:16Z</time>
      </trkpt>
      <trkpt lat="23.060763" lon="113.281113">
        <time>2026-08-31T22:20:21Z</time>
      </trkpt>
      <trkpt lat="23.060717" lon="113.281217">
        <time>2026-08-31T22:20:26Z</time>
      </trkpt>
      <trkpt lat="23.060673" lon="113.281322">
        <time>2026-08-31T22:20:31Z</time>
      </trkpt>
      <trkpt lat="23.060604" lon="113.281478">
        <time>2026-08-31T22:20:36Z</time>
      </trkpt>
      <trkpt lat="23.060541" lon="113.281636">
        <time>2026-08-31T22:20:41Z</time>
      </trkpt>
      <trkpt lat="23.060494" lon="113.281738">
        <time>2026-08-31T22:20:46Z</time>
      </trkpt>
      <trkpt lat="23.06045" lon="113.28184">
        <time>2026-08-31T22:20:51Z</time>
      </trkpt>
      <trkpt lat="23.060382" lon="113.28199">
        <time>2026-08-31T22:20:56Z</time>
      </trkpt>
      <trkpt lat="23.060317" lon="113.282149">
        <time>2026-08-31T22:21:01Z</time>
      </trkpt>
      <trkpt lat="23.060269" lon="113.282255">
        <time>2026-08-31T22:21:06Z</time>
      </trkpt>
      <trkpt lat="23.060224" lon="113.28236">
        <time>2026-08-31T22:21:11Z</time>
      </trkpt>
      <trkpt lat="23.060164" lon="113.282513">
        <time>2026-08-31T22:21:16Z</time>
      </trkpt>
      <trkpt lat="23.060096" lon="113.282667">
        <time>2026-08-31T22:21:21Z</time>
      </trkpt>
      <trkpt lat="23.060046" lon="113.282766">
        <time>2026-08-31T22:21:26Z</time>
      </trkpt>
      <trkpt lat="23.060002" lon="113.282875">
        <time>2026-08-31T22:21:31Z</time>
      </trkpt>
      <trkpt lat="23.059951" lon="113.283049">
        <time>2026-08-31T22:21:36Z</time>
      </trkpt>
      <trkpt lat="23.059881" lon="113.28322">
        <time>2026-08-31T22:21:41Z</time>
      </trkpt>
      <trkpt lat="23.059853" lon="113.283325">
        <time>2026-08-31T22:21:46Z</time>
      </trkpt>
      <trkpt lat="23.059911" lon="113.283373">
        <time>2026-08-31T22:21:51Z</time>
      </trkpt>
      <trkpt lat="23.060016" lon="113.283254">
        <time>2026-08-31T22:21:56Z</time>
      </trkpt>
      <trkpt lat="23.060094" lon="113.28309">
        <time>2026-08-31T22:22:01Z</time>
      </trkpt>
      <trkpt lat="23.060144" lon="113.282982">
        <time>2026-08-31T22:22:06Z</time>
      </trkpt>
      <trkpt lat="23.060191" lon="113.282886">
        <time>2026-08-31T22:22:11Z</time>
      </trkpt>
      <trkpt lat="23.060256" lon="113.282734">
        <time>2026-08-31T22:22:16Z</time>
      </trkpt>
      <trkpt lat="23.060318" lon="113.282573">
        <time>2026-08-31T22:22:21Z</time>
      </trkpt>
      <trkpt lat="23.060357" lon="113.28246">
        <time>2026-08-31T22:22:26Z</time>
      </trkpt>
      <trkpt lat="23.060401" lon="113.282346">
        <time>2026-08-31T22:22:31Z</time>
      </trkpt>
      <trkpt lat="23.060466" lon="113.282186">
        <time>2026-08-31T22:22:36Z</time>
      </trkpt>
      <trkpt lat="23.060531" lon="113.282028">
        <time>2026-08-31T22:22:41Z</time>
      </trkpt>
      <trkpt lat="23.06058" lon="113.281931">
        <time>2026-08-31T22:22:46Z</time>
      </trkpt>
      <trkpt lat="23.060627" lon="113.281828">
        <time>2026-08-31T22:22:51Z</time>
      </trkpt>
      <trkpt lat="23.060687" lon="113.281678">
        <time>2026-08-31T22:22:56Z</time>
      </trkpt>
      <trkpt lat="23.060748" lon="113.281537">
        <time>2026-08-31T22:23:01Z</time>
      </trkpt>
      <trkpt lat="23.060793" lon="113.281438">
        <time>2026-08-31T22:23:06Z</time>
      </trkpt>
      <trkpt lat="23.06084" lon="113.281332">
        <time>2026-08-31T22:23:11Z</time>
      </trkpt>
      <trkpt lat="23.060915" lon="113.281167">
        <time>2026-08-31T22:23:16Z</time>
      </trkpt>
      <trkpt lat="23.060988" lon="113.280997">
        <time>2026-08-31T22:23:21Z</time>
      </trkpt>
      <trkpt lat="23.061035" lon="113.280885">
        <time>2026-08-31T22:23:26Z</time>
      </trkpt>
      <trkpt lat="23.061078" lon="113.280775">
        <time>2026-08-31T22:23:31Z</time>
      </trkpt>
      <trkpt lat="23.06115" lon="113.280608">
        <time>2026-08-31T22:23:36Z</time>
      </trkpt>
      <trkpt lat="23.061227" lon="113.280444">
        <time>2026-08-31T22:23:41Z</time>
      </trkpt>
      <trkpt lat="23.06127" lon="113.280336">
        <time>2026-08-31T22:23:46Z</time>
      </trkpt>
      <trkpt lat="23.061311" lon="113.28023">
        <time>2026-08-31T22:23:51Z</time>
      </trkpt>
      <trkpt lat="23.061388" lon="113.280083">
        <time>2026-08-31T22:23:56Z</time>
      </trkpt>
      <trkpt lat="23.061461" lon="113.279933">
        <time>2026-08-31T22:24:01Z</time>
      </trkpt>
      <trkpt lat="23.061502" lon="113.27983">
        <time>2026-08-31T22:24:06Z</time>
      </trkpt>
      <trkpt lat="23.061541" lon="113.279725">
        <time>2026-08-31T22:24:11Z</time>
      </trkpt>
      <trkpt lat="23.0616" lon="113.279563">
        <time>2026-08-31T22:24:16Z</time>
      </trkpt>
      <trkpt lat="23.06166" lon="113.279399">
        <time>2026-08-31T22:24:21Z</time>
      </trkpt>
      <trkpt lat="23.061702" lon="113.279287">
        <time>2026-08-31T22:24:26Z</time>
      </trkpt>
      <trkpt lat="23.06175" lon="113.279176">
        <time>2026-08-31T22:24:31Z</time>
      </trkpt>
      <trkpt lat="23.061835" lon="113.27902">
        <time>2026-08-31T22:24:36Z</time>
      </trkpt>
      <trkpt lat="23.061933" lon="113.278878">
        <time>2026-08-31T22:24:41Z</time>
      </trkpt>
      <trkpt lat="23.061985" lon="113.278769">
        <time>2026-08-31T22:24:46Z</time>
      </trkpt>
      <trkpt lat="23.062002" lon="113.278653">
        <time>2026-08-31T22:24:51Z</time>
      </trkpt>
      <trkpt lat="23.06199" lon="113.278469">
        <time>2026-08-31T22:24:56Z</time>
      </trkpt>
      <trkpt lat="23.061978" lon="113.278281">
        <time>2026-08-31T22:25:01Z</time>
      </trkpt>
      <trkpt lat="23.061969" lon="113.278156">
        <time>2026-08-31T22:25:06Z</time>
      </trkpt>
      <trkpt lat="23.061963" lon="113.278029">
        <time>2026-08-31T22:25:11Z</time>
      </trkpt>
      <trkpt lat="23.061958" lon="113.277838">
        <time>2026-08-31T22:25:16Z</time>
      </trkpt>
      <trkpt lat="23.061995" lon="113.277649">
        <time>2026-08-31T22:25:21Z</time>
      </trkpt>
      <trkpt lat="23.062038" lon="113.27753">
        <time>2026-08-31T22:25:26Z</time>
      </trkpt>
      <trkpt lat="23.062083" lon="113.277416">
        <time>2026-08-31T22:25:31Z</time>
      </trkpt>
      <trkpt lat="23.062148" lon="113.277246">
        <time>2026-08-31T22:25:36Z</time>
      </trkpt>
      <trkpt lat="23.062205" lon="113.277073">
        <time>2026-08-31T22:25:41Z</time>
      </trkpt>
      <trkpt lat="23.062242" lon="113.276965">
        <time>2026-08-31T22:25:46Z</time>
      </trkpt>
      <trkpt lat="23.062283" lon="113.276855">
        <time>2026-08-31T22:25:51Z</time>
      </trkpt>
      <trkpt lat="23.062349" lon="113.276689">
        <time>2026-08-31T22:25:56Z</time>
      </trkpt>
      <trkpt lat="23.062412" lon="113.276524">
        <time>2026-08-31T22:26:01Z</time>
      </trkpt>
      <trkpt lat="23.062451" lon="113.27641">
        <time>2026-08-31T22:26:06Z</time>
      </trkpt>
      <trkpt lat="23.06249" lon="113.276303">
        <time>2026-08-31T22:26:11Z</time>
      </trkpt>
      <trkpt lat="23.062559" lon="113.276149">
        <time>2026-08-31T22:26:16Z</time>
      </trkpt>
      <trkpt lat="23.062646" lon="113.276004">
        <time>2026-08-31T22:26:21Z</time>
      </trkpt>
      <trkpt lat="23.062713" lon="113.275916">
        <time>2026-08-31T22:26:26Z</time>
      </trkpt>
      <trkpt lat="23.062789" lon="113.275828">
        <time>2026-08-31T22:26:31Z</time>
      </trkpt>
      <trkpt lat="23.062904" lon="113.275697">
        <time>2026-08-31T22:26:36Z</time>
      </trkpt>
      <trkpt lat="23.063024" lon="113.275569">
        <time>2026-08-31T22:26:41Z</time>
      </trkpt>
      <trkpt lat="23.063093" lon="113.275472">
        <time>2026-08-31T22:26:46Z</time>
      </trkpt>
      <trkpt lat="23.063153" lon="113.275369">
        <time>2026-08-31T22:26:51Z</time>
      </trkpt>
      <trkpt lat="23.063237" lon="113.275221">
        <time>2026-08-31T22:26:56Z</time>
      </trkpt>
      <trkpt lat="23.063331" lon="113.275082">
        <time>2026-08-31T22:27:01Z</time>
      </trkpt>
      <trkpt lat="23.063373" lon="113.274973">
        <time>2026-08-31T22:27:06Z</time>
      </trkpt>
      <trkpt lat="23.063405" lon="113.274868">
        <time>2026-08-31T22:27:11Z</time>
      </trkpt>
      <trkpt lat="23.063462" lon="113.274702">
        <time>2026-08-31T22:27:16Z</time>
      </trkpt>
      <trkpt lat="23.063515" lon="113.274539">
        <time>2026-08-31T22:27:21Z</time>
      </trkpt>
      <trkpt lat="23.063556" lon="113.274435">
        <time>2026-08-31T22:27:26Z</time>
      </trkpt>
      <trkpt lat="23.063608" lon="113.274339">
        <time>2026-08-31T22:27:31Z</time>
      </trkpt>
      <trkpt lat="23.06371" lon="113.274221">
        <time>2026-08-31T22:27:36Z</time>
      </trkpt>
      <trkpt lat="23.063839" lon="113.274112">
        <time>2026-08-31T22:27:41Z</time>
      </trkpt>
      <trkpt lat="23.063903" lon="113.274015">
        <time>2026-08-31T22:27:46Z</time>
      </trkpt>
      <trkpt lat="23.063953" lon="113.273905">
        <time>2026-08-31T22:27:51Z</time>
      </trkpt>
      <trkpt lat="23.064046" lon="113.273751">
        <time>2026-08-31T22:27:56Z</time>
      </trkpt>
      <trkpt lat="23.064165" lon="113.27364">
        <time>2026-08-31T22:28:01Z</time>
      </trkpt>
      <trkpt lat="23.064251" lon="113.27358">
        <time>2026-08-31T22:28:06Z</time>
      </trkpt>
      <trkpt lat="23.064333" lon="113.273514">
        <time>2026-08-31T22:28:11Z</time>
      </trkpt>
      <trkpt lat="23.064456" lon="113.273406">
        <time>2026-08-31T22:28:16Z</time>
      </trkpt>
      <trkpt lat="23.064555" lon="113.273264">
        <time>2026-08-31T22:28:21Z</time>
      </trkpt>
      <trkpt lat="23.064578" lon="113.273143">
        <time>2026-08-31T22:28:26Z</time>
      </trkpt>
      <trkpt lat="23.064564" lon="113.273017">
        <time>2026-08-31T22:28:31Z</time>
      </trkpt>
      <trkpt lat="23.064503" lon="113.272839">
        <time>2026-08-31T22:28:36Z</time>
      </trkpt>
      <trkpt lat="23.064449" lon="113.272662">
        <time>2026-08-31T22:28:41Z</time>
      </trkpt>
      <trkpt lat="23.06446" lon="113.27254">
        <time>2026-08-31T22:28:46Z</time>
      </trkpt>
      <trkpt lat="23.064516" lon="113.272419">
        <time>2026-08-31T22:28:51Z</time>
      </trkpt>
      <trkpt lat="23.064584" lon="113.272235">
        <time>2026-08-31T22:28:56Z</time>
      </trkpt>
      <trkpt lat="23.064653" lon="113.272068">
        <time>2026-08-31T22:29:01Z</time>
      </trkpt>
      <trkpt lat="23.064702" lon="113.271965">
        <time>2026-08-31T22:29:06Z</time>
      </trkpt>
      <trkpt lat="23.06475" lon="113.271861">
        <time>2026-08-31T22:29:11Z</time>
      </trkpt>
      <trkpt lat="23.064813" lon="113.271704">
        <time>2026-08-31T22:29:16Z</time>
      </trkpt>
      <trkpt lat="23.064882" lon="113.271539">
        <time>2026-08-31T22:29:21Z</time>
      </trkpt>
      <trkpt lat="23.064938" lon="113.271426">
        <time>2026-08-31T22:29:26Z</time>
      </trkpt>
      <trkpt lat="23.064992" lon="113.271318">
        <time>2026-08-31T22:29:31Z</time>
      </trkpt>
      <trkpt lat="23.06507" lon="113.271158">
        <time>2026-08-31T22:29:36Z</time>
      </trkpt>
      <trkpt lat="23.065152" lon="113.270995">
        <time>2026-08-31T22:29:41Z</time>
      </trkpt>
      <trkpt lat="23.065202" lon="113.270885">
        <time>2026-08-31T22:29:46Z</time>
      </trkpt>
      <trkpt lat="23.065251" lon="113.270779">
        <time>2026-08-31T22:29:51Z</time>
      </trkpt>
      <trkpt lat="23.065317" lon="113.270624">
        <time>2026-08-31T22:29:56Z</time>
      </trkpt>
      <trkpt lat="23.065379" lon="113.270471">
        <time>2026-08-31T22:30:01Z</time>
      </trkpt>
      <trkpt lat="23.065423" lon="113.270363">
        <time>2026-08-31T22:30:06Z</time>
      </trkpt>
      <trkpt lat="23.06547" lon="113.270258">
        <time>2026-08-31T22:30:11Z</time>
      </trkpt>
      <trkpt lat="23.065534" lon="113.270097">
        <time>2026-08-31T22:30:16Z</time>
      </trkpt>
      <trkpt lat="23.065595" lon="113.269933">
        <time>2026-08-31T22:30:21Z</time>
      </trkpt>
      <trkpt lat="23.065629" lon="113.269822">
        <time>2026-08-31T22:30:26Z</time>
      </trkpt>
      <trkpt lat="23.065661" lon="113.26971">
        <time>2026-08-31T22:30:31Z</time>
      </trkpt>
      <trkpt lat="23.065704" lon="113.269535">
        <time>2026-08-31T22:30:36Z</time>
      </trkpt>
      <trkpt lat="23.065747" lon="113.26936">
        <time>2026-08-31T22:30:41Z</time>
      </trkpt>
      <trkpt lat="23.065787" lon="113.269242">
        <time>2026-08-31T22:30:46Z</time>
      </trkpt>
      <trkpt lat="23.065827" lon="113.269124">
        <time>2026-08-31T22:30:51Z</time>
      </trkpt>
      <trkpt lat="23.065898" lon="113.268958">
        <time>2026-08-31T22:30:56Z</time>
      </trkpt>
      <trkpt lat="23.065971" lon="113.268789">
        <time>2026-08-31T22:31:01Z</time>
      </trkpt>
      <trkpt lat="23.06602" lon="113.268683">
        <time>2026-08-31T22:31:06Z</time>
      </trkpt>
      <trkpt lat="23.066078" lon="113.268577">
        <time>2026-08-31T22:31:11Z</time>
      </trkpt>
      <trkpt lat="23.066173" lon="113.268432">
        <time>2026-08-31T22:31:16Z</time>
      </trkpt>
      <trkpt lat="23.066273" lon="113.268294">
        <time>2026-08-31T22:31:21Z</time>
      </trkpt>
      <trkpt lat="23.066349" lon="113.268208">
        <time>2026-08-31T22:31:26Z</time>
      </trkpt>
      <trkpt lat="23.066444" lon="113.268145">
        <time>2026-08-31T22:31:31Z</time>
      </trkpt>
      <trkpt lat="23.066604" lon="113.268134">
        <time>2026-08-31T22:31:36Z</time>
      </trkpt>
      <trkpt lat="23.066686" lon="113.268066">
        <time>2026-08-31T22:31:41Z</time>
      </trkpt>
      <trkpt lat="23.066587" lon="113.267999">
        <time>2026-08-31T22:31:46Z</time>
      </trkpt>
      <trkpt lat="23.066459" lon="113.267967">
        <time>2026-08-31T22:31:51Z</time>
      </trkpt>
      <trkpt lat="23.06629" lon="113.26797">
        <time>2026-08-31T22:31:56Z</time>
      </trkpt>
      <trkpt lat="23.066148" lon="113.26807">
        <time>2026-08-31T22:32:01Z</time>
      </trkpt>
      <trkpt lat="23.066071" lon="113.268156">
        <time>2026-08-31T22:32:06Z</time>
      </trkpt>
      <trkpt lat="23.066005" lon="113.268241">
        <time>2026-08-31T22:32:11Z</time>
      </trkpt>
      <trkpt lat="23.065909" lon="113.268383">
        <time>2026-08-31T22:32:16Z</time>
      </trkpt>
      <trkpt lat="23.065819" lon="113.268549">
        <time>2026-08-31T22:32:21Z</time>
      </trkpt>
      <trkpt lat="23.065764" lon="113.268663">
        <time>2026-08-31T22:32:26Z</time>
      </trkpt>
      <trkpt lat="23.065712" lon="113.268779">
        <time>2026-08-31T22:32:31Z</time>
      </trkpt>
      <trkpt lat="23.065649" lon="113.268956">
        <time>2026-08-31T22:32:36Z</time>
      </trkpt>
      <trkpt lat="23.065594" lon="113.269137">
        <time>2026-08-31T22:32:41Z</time>
      </trkpt>
      <trkpt lat="23.06556" lon="113.269259">
        <time>2026-08-31T22:32:46Z</time>
      </trkpt>
      <trkpt lat="23.065535" lon="113.269384">
        <time>2026-08-31T22:32:51Z</time>
      </trkpt>
      <trkpt lat="23.065486" lon="113.269567">
        <time>2026-08-31T22:32:56Z</time>
      </trkpt>
      <trkpt lat="23.065439" lon="113.269748">
        <time>2026-08-31T22:33:01Z</time>
      </trkpt>
      <trkpt lat="23.065392" lon="113.269872">
        <time>2026-08-31T22:33:06Z</time>
      </trkpt>
      <trkpt lat="23.065353" lon="113.269993">
        <time>2026-08-31T22:33:11Z</time>
      </trkpt>
      <trkpt lat="23.065289" lon="113.270173">
        <time>2026-08-31T22:33:16Z</time>
      </trkpt>
      <trkpt lat="23.065204" lon="113.270342">
        <time>2026-08-31T22:33:21Z</time>
      </trkpt>
      <trkpt lat="23.065148" lon="113.270453">
        <time>2026-08-31T22:33:26Z</time>
      </trkpt>
      <trkpt lat="23.065098" lon="113.270567">
        <time>2026-08-31T22:33:31Z</time>
      </trkpt>
      <trkpt lat="23.065027" lon="113.270737">
        <time>2026-08-31T22:33:36Z</time>
      </trkpt>
      <trkpt lat="23.064951" lon="113.270908">
        <time>2026-08-31T22:33:41Z</time>
      </trkpt>
      <trkpt lat="23.064894" lon="113.27102">
        <time>2026-08-31T22:33:46Z</time>
      </trkpt>
      <trkpt lat="23.064839" lon="113.271128">
        <time>2026-08-31T22:33:51Z</time>
      </trkpt>
      <trkpt lat="23.064761" lon="113.271288">
        <time>2026-08-31T22:33:56Z</time>
      </trkpt>
      <trkpt lat="23.064689" lon="113.271443">
        <time>2026-08-31T22:34:01Z</time>
      </trkpt>
      <trkpt lat="23.064648" lon="113.271555">
        <time>2026-08-31T22:34:06Z</time>
      </trkpt>
      <trkpt lat="23.064598" lon="113.271666">
        <time>2026-08-31T22:34:11Z</time>
      </trkpt>
      <trkpt lat="23.064523" lon="113.27183">
        <time>2026-08-31T22:34:16Z</time>
      </trkpt>
      <trkpt lat="23.064449" lon="113.271995">
        <time>2026-08-31T22:34:21Z</time>
      </trkpt>
      <trkpt lat="23.064398" lon="113.272102">
        <time>2026-08-31T22:34:26Z</time>
      </trkpt>
      <trkpt lat="23.064354" lon="113.272215">
        <time>2026-08-31T22:34:31Z</time>
      </trkpt>
      <trkpt lat="23.064334" lon="113.272394">
        <time>2026-08-31T22:34:36Z</time>
      </trkpt>
      <trkpt lat="23.064322" lon="113.272558">
        <time>2026-08-31T22:34:41Z</time>
      </trkpt>
      <trkpt lat="23.064332" lon="113.272665">
        <time>2026-08-31T22:34:46Z</time>
      </trkpt>
      <trkpt lat="23.064364" lon="113.27277">
        <time>2026-08-31T22:34:51Z</time>
      </trkpt>
      <trkpt lat="23.064419" lon="113.272923">
        <time>2026-08-31T22:34:56Z</time>
      </trkpt>
      <trkpt lat="23.064466" lon="113.273081">
        <time>2026-08-31T22:35:01Z</time>
      </trkpt>
      <trkpt lat="23.064474" lon="113.273183">
        <time>2026-08-31T22:35:06Z</time>
      </trkpt>
      <trkpt lat="23.064444" lon="113.273279">
        <time>2026-08-31T22:35:11Z</time>
      </trkpt>
      <trkpt lat="23.064335" lon="113.273386">
        <time>2026-08-31T22:35:16Z</time>
      </trkpt>
      <trkpt lat="23.064195" lon="113.273468">
        <time>2026-08-31T22:35:21Z</time>
      </trkpt>
      <trkpt lat="23.064107" lon="113.273528">
        <time>2026-08-31T22:35:26Z</time>
      </trkpt>
      <trkpt lat="23.06402" lon="113.273598">
        <time>2026-08-31T22:35:31Z</time>
      </trkpt>
      <trkpt lat="23.063913" lon="113.273713">
        <time>2026-08-31T22:35:36Z</time>
      </trkpt>
      <trkpt lat="23.063831" lon="113.273842">
        <time>2026-08-31T22:35:41Z</time>
      </trkpt>
      <trkpt lat="23.06378" lon="113.273934">
        <time>2026-08-31T22:35:46Z</time>
      </trkpt>
      <trkpt lat="23.063727" lon="113.274025">
        <time>2026-08-31T22:35:51Z</time>
      </trkpt>
      <trkpt lat="23.063622" lon="113.274126">
        <time>2026-08-31T22:35:56Z</time>
      </trkpt>
      <trkpt lat="23.0635" lon="113.274107">
        <time>2026-08-31T22:36:01Z</time>
      </trkpt>
      <trkpt lat="23.063424" lon="113.274135">
        <time>2026-08-31T22:36:06Z</time>
      </trkpt>
      <trkpt lat="23.06337" lon="113.274241">
        <time>2026-08-31T22:36:11Z</time>
      </trkpt>
      <trkpt lat="23.0633" lon="113.274404">
        <time>2026-08-31T22:36:16Z</time>
      </trkpt>
      <trkpt lat="23.063226" lon="113.274567">
        <time>2026-08-31T22:36:21Z</time>
      </trkpt>
      <trkpt lat="23.063177" lon="113.274678">
        <time>2026-08-31T22:36:26Z</time>
      </trkpt>
      <trkpt lat="23.063132" lon="113.274784">
        <time>2026-08-31T22:36:31Z</time>
      </trkpt>
      <trkpt lat="23.063089" lon="113.27495">
        <time>2026-08-31T22:36:36Z</time>
      </trkpt>
      <trkpt lat="23.063039" lon="113.275121">
        <time>2026-08-31T22:36:41Z</time>
      </trkpt>
      <trkpt lat="23.062959" lon="113.275193">
        <time>2026-08-31T22:36:46Z</time>
      </trkpt>
      <trkpt lat="23.062905" lon="113.27529">
        <time>2026-08-31T22:36:51Z</time>
      </trkpt>
      <trkpt lat="23.062933" lon="113.275474">
        <time>2026-08-31T22:36:56Z</time>
      </trkpt>
      <trkpt lat="23.062851" lon="113.27562">
        <time>2026-08-31T22:37:01Z</time>
      </trkpt>
      <trkpt lat="23.062766" lon="113.275697">
        <time>2026-08-31T22:37:06Z</time>
      </trkpt>
      <trkpt lat="23.062681" lon="113.275781">
        <time>2026-08-31T22:37:11Z</time>
      </trkpt>
      <trkpt lat="23.062576" lon="113.275927">
        <time>2026-08-31T22:37:16Z</time>
      </trkpt>
      <trkpt lat="23.062484" lon="113.276075">
        <time>2026-08-31T22:37:21Z</time>
      </trkpt>
      <trkpt lat="23.062433" lon="113.276178">
        <time>2026-08-31T22:37:26Z</time>
      </trkpt>
      <trkpt lat="23.062392" lon="113.276288">
        <time>2026-08-31T22:37:31Z</time>
      </trkpt>
      <trkpt lat="23.062338" lon="113.276453">
        <time>2026-08-31T22:37:36Z</time>
      </trkpt>
      <trkpt lat="23.062278" lon="113.276611">
        <time>2026-08-31T22:37:41Z</time>
      </trkpt>
      <trkpt lat="23.06224" lon="113.276715">
        <time>2026-08-31T22:37:46Z</time>
      </trkpt>
      <trkpt lat="23.062204" lon="113.276818">
        <time>2026-08-31T22:37:51Z</time>
      </trkpt>
      <trkpt lat="23.062141" lon="113.276976">
        <time>2026-08-31T22:37:56Z</time>
      </trkpt>
      <trkpt lat="23.062076" lon="113.277135">
        <time>2026-08-31T22:38:01Z</time>
      </trkpt>
      <trkpt lat="23.062035" lon="113.277248">
        <time>2026-08-31T22:38:06Z</time>
      </trkpt>
      <trkpt lat="23.061993" lon="113.277367">
        <time>2026-08-31T22:38:11Z</time>
      </trkpt>
      <trkpt lat="23.061925" lon="113.277537">
        <time>2026-08-31T22:38:16Z</time>
      </trkpt>
      <trkpt lat="23.061867" lon="113.277699">
        <time>2026-08-31T22:38:21Z</time>
      </trkpt>
      <trkpt lat="23.061839" lon="113.27781">
        <time>2026-08-31T22:38:26Z</time>
      </trkpt>
      <trkpt lat="23.061828" lon="113.277925">
        <time>2026-08-31T22:38:31Z</time>
      </trkpt>
      <trkpt lat="23.061834" lon="113.278091">
        <time>2026-08-31T22:38:36Z</time>
      </trkpt>
      <trkpt lat="23.061846" lon="113.278261">
        <time>2026-08-31T22:38:41Z</time>
      </trkpt>
      <trkpt lat="23.061857" lon="113.27838">
        <time>2026-08-31T22:38:46Z</time>
      </trkpt>
      <trkpt lat="23.061869" lon="113.278501">
        <time>2026-08-31T22:38:51Z</time>
      </trkpt>
      <trkpt lat="23.061865" lon="113.278674">
        <time>2026-08-31T22:38:56Z</time>
      </trkpt>
      <trkpt lat="23.06177" lon="113.278777">
        <time>2026-08-31T22:39:01Z</time>
      </trkpt>
      <trkpt lat="23.061716" lon="113.27887">
        <time>2026-08-31T22:39:06Z</time>
      </trkpt>
      <trkpt lat="23.061679" lon="113.278991">
        <time>2026-08-31T22:39:11Z</time>
      </trkpt>
      <trkpt lat="23.061615" lon="113.279164">
        <time>2026-08-31T22:39:16Z</time>
      </trkpt>
      <trkpt lat="23.061527" lon="113.279325">
        <time>2026-08-31T22:39:21Z</time>
      </trkpt>
      <trkpt lat="23.061473" lon="113.279443">
        <time>2026-08-31T22:39:26Z</time>
      </trkpt>
      <trkpt lat="23.061423" lon="113.279571">
        <time>2026-08-31T22:39:31Z</time>
      </trkpt>
      <trkpt lat="23.061352" lon="113.279761">
        <time>2026-08-31T22:39:36Z</time>
      </trkpt>
      <trkpt lat="23.061282" lon="113.279945">
        <time>2026-08-31T22:39:41Z</time>
      </trkpt>
      <trkpt lat="23.061225" lon="113.280063">
        <time>2026-08-31T22:39:46Z</time>
      </trkpt>
      <trkpt lat="23.06117" lon="113.28018">
        <time>2026-08-31T22:39:51Z</time>
      </trkpt>
      <trkpt lat="23.061103" lon="113.280357">
        <time>2026-08-31T22:39:56Z</time>
      </trkpt>
      <trkpt lat="23.061028" lon="113.280517">
        <time>2026-08-31T22:40:01Z</time>
      </trkpt>
      <trkpt lat="23.060971" lon="113.280618">
        <time>2026-08-31T22:40:06Z</time>
      </trkpt>
      <trkpt lat="23.060925" lon="113.28073">
        <time>2026-08-31T22:40:11Z</time>
      </trkpt>
      <trkpt lat="23.060858" lon="113.2809">
        <time>2026-08-31T22:40:16Z</time>
      </trkpt>
      <trkpt lat="23.060795" lon="113.281056">
        <time>2026-08-31T22:40:21Z</time>
      </trkpt>
      <trkpt lat="23.060753" lon="113.28116">
        <time>2026-08-31T22:40:26Z</time>
      </trkpt>
      <trkpt lat="23.060709" lon="113.281262">
        <time>2026-08-31T22:40:31Z</time>
      </trkpt>
      <trkpt lat="23.060641" lon="113.281416">
        <time>2026-08-31T22:40:36Z</time>
      </trkpt>
      <trkpt lat="23.06057" lon="113.281573">
        <time>2026-08-31T22:40:41Z</time>
      </trkpt>
      <trkpt lat="23.060526" lon="113.281679">
        <time>2026-08-31T22:40:46Z</time>
      </trkpt>
      <trkpt lat="23.060479" lon="113.281786">
        <time>2026-08-31T22:40:51Z</time>
      </trkpt>
      <trkpt lat="23.060406" lon="113.28196">
        <time>2026-08-31T22:40:56Z</time>
      </trkpt>
      <trkpt lat="23.060323" lon="113.282126">
        <time>2026-08-31T22:41:01Z</time>
      </trkpt>
      <trkpt lat="23.060274" lon="113.282239">
        <time>2026-08-31T22:41:06Z</time>
      </trkpt>
      <trkpt lat="23.060229" lon="113.282349">
        <time>2026-08-31T22:41:11Z</time>
      </trkpt>
      <trkpt lat="23.060154" lon="113.28251">
        <time>2026-08-31T22:41:16Z</time>
      </trkpt>
      <trkpt lat="23.060083" lon="113.282676">
        <time>2026-08-31T22:41:21Z</time>
      </trkpt>
      <trkpt lat="23.060036" lon="113.28278">
        <time>2026-08-31T22:41:26Z</time>
      </trkpt>
      <trkpt lat="23.059995" lon="113.282886">
        <time>2026-08-31T22:41:31Z</time>
      </trkpt>
      <trkpt lat="23.059928" lon="113.283049">
        <time>2026-08-31T22:41:36Z</time>
      </trkpt>
      <trkpt lat="23.059855" lon="113.283209">
        <time>2026-08-31T22:41:41Z</time>
      </trkpt>
      <trkpt lat="23.05983" lon="113.28332">
        <time>2026-08-31T22:41:46Z</time>
      </trkpt>
      <trkpt lat="23.059886" lon="113.28338">
        <time>2026-08-31T22:41:51Z</time>
      </trkpt>
      <trkpt lat="23.05999" lon="113.283253">
        <time>2026-08-31T22:41:56Z</time>
      </trkpt>
      <trkpt lat="23.060081" lon="113.283082">
        <time>2026-08-31T22:42:01Z</time>
      </trkpt>
      <trkpt lat="23.060134" lon="113.282973">
        <time>2026-08-31T22:42:06Z</time>
      </trkpt>
      <trkpt lat="23.060178" lon="113.282869">
        <time>2026-08-31T22:42:11Z</time>
      </trkpt>
      <trkpt lat="23.060257" lon="113.282716">
        <time>2026-08-31T22:42:16Z</time>
      </trkpt>
      <trkpt lat="23.060328" lon="113.282558">
        <time>2026-08-31T22:42:21Z</time>
      </trkpt>
      <trkpt lat="23.060375" lon="113.28245">
        <time>2026-08-31T22:42:26Z</time>
      </trkpt>
      <trkpt lat="23.060421" lon="113.282341">
        <time>2026-08-31T22:42:31Z</time>
      </trkpt>
      <trkpt lat="23.06049" lon="113.282174">
        <time>2026-08-31T22:42:36Z</time>
      </trkpt>
      <trkpt lat="23.060547" lon="113.282021">
        <time>2026-08-31T22:42:41Z</time>
      </trkpt>
      <trkpt lat="23.060588" lon="113.281921">
        <time>2026-08-31T22:42:46Z</time>
      </trkpt>
      <trkpt lat="23.060634" lon="113.281823">
        <time>2026-08-31T22:42:51Z</time>
      </trkpt>
      <trkpt lat="23.060694" lon="113.281669">
        <time>2026-08-31T22:42:56Z</time>
      </trkpt>
      <trkpt lat="23.060755" lon="113.281515">
        <time>2026-08-31T22:43:01Z</time>
      </trkpt>
      <trkpt lat="23.060798" lon="113.281407">
        <time>2026-08-31T22:43:06Z</time>
      </trkpt>
      <trkpt lat="23.060845" lon="113.281295">
        <time>2026-08-31T22:43:11Z</time>
      </trkpt>
      <trkpt lat="23.060909" lon="113.281129">
        <time>2026-08-31T22:43:16Z</time>
      </trkpt>
      <trkpt lat="23.060974" lon="113.280956">
        <time>2026-08-31T22:43:21Z</time>
      </trkpt>
      <trkpt lat="23.061022" lon="113.280843">
        <time>2026-08-31T22:43:26Z</time>
      </trkpt>
      <trkpt lat="23.061072" lon="113.280732">
        <time>2026-08-31T22:43:31Z</time>
      </trkpt>
      <trkpt lat="23.061152" lon="113.280569">
        <time>2026-08-31T22:43:36Z</time>
      </trkpt>
      <trkpt lat="23.061233" lon="113.280412">
        <time>2026-08-31T22:43:41Z</time>
      </trkpt>
      <trkpt lat="23.061276" lon="113.280309">
        <time>2026-08-31T22:43:46Z</time>
      </trkpt>
      <trkpt lat="23.06132" lon="113.280201">
        <time>2026-08-31T22:43:51Z</time>
      </trkpt>
      <trkpt lat="23.061395" lon="113.28005">
        <time>2026-08-31T22:43:56Z</time>
      </trkpt>
      <trkpt lat="23.061466" lon="113.279904">
        <time>2026-08-31T22:44:01Z</time>
      </trkpt>
      <trkpt lat="23.061505" lon="113.279803">
        <time>2026-08-31T22:44:06Z</time>
      </trkpt>
      <trkpt lat="23.061542" lon="113.279698">
        <time>2026-08-31T22:44:11Z</time>
      </trkpt>
      <trkpt lat="23.061603" lon="113.279545">
        <time>2026-08-31T22:44:16Z</time>
      </trkpt>
      <trkpt lat="23.061662" lon="113.279395">
        <time>2026-08-31T22:44:21Z</time>
      </trkpt>
      <trkpt lat="23.061697" lon="113.279295">
        <time>2026-08-31T22:44:26Z</time>
      </trkpt>
      <trkpt lat="23.061741" lon="113.279198">
        <time>2026-08-31T22:44:31Z</time>
      </trkpt>
      <trkpt lat="23.061826" lon="113.279059">
        <time>2026-08-31T22:44:36Z</time>
      </trkpt>
      <trkpt lat="23.061924" lon="113.278912">
        <time>2026-08-31T22:44:41Z</time>
      </trkpt>
      <trkpt lat="23.061972" lon="113.278798">
        <time>2026-08-31T22:44:46Z</time>
      </trkpt>
      <trkpt lat="23.061988" lon="113.278678">
        <time>2026-08-31T22:44:51Z</time>
      </trkpt>
      <trkpt lat="23.06198" lon="113.2785">
        <time>2026-08-31T22:44:56Z</time>
      </trkpt>
      <trkpt lat="23.061972" lon="113.278328">
        <time>2026-08-31T22:45:01Z</time>
      </trkpt>
      <trkpt lat="23.061968" lon="113.278214">
        <time>2026-08-31T22:45:06Z</time>
      </trkpt>
      <trkpt lat="23.061965" lon="113.278096">
        <time>2026-08-31T22:45:11Z</time>
      </trkpt>
      <trkpt lat="23.061961" lon="113.277928">
        <time>2026-08-31T22:45:16Z</time>
      </trkpt>
      <trkpt lat="23.061971" lon="113.277756">
        <time>2026-08-31T22:45:21Z</time>
      </trkpt>
      <trkpt lat="23.061988" lon="113.277632">
        <time>2026-08-31T22:45:26Z</time>
      </trkpt>
      <trkpt lat="23.062039" lon="113.277525">
        <time>2026-08-31T22:45:31Z</time>
      </trkpt>
      <trkpt lat="23.062106" lon="113.277369">
        <time>2026-08-31T22:45:36Z</time>
      </trkpt>
      <trkpt lat="23.062162" lon="113.277223">
        <time>2026-08-31T22:45:41Z</time>
      </trkpt>
      <trkpt lat="23.062184" lon="113.277124">
        <time>2026-08-31T22:45:46Z</time>
      </trkpt>
      <trkpt lat="23.062214" lon="113.277033">
        <time>2026-08-31T22:45:51Z</time>
      </trkpt>
      <trkpt lat="23.062281" lon="113.27688">
        <time>2026-08-31T22:45:56Z</time>
      </trkpt>
      <trkpt lat="23.062338" lon="113.276722">
        <time>2026-08-31T22:46:01Z</time>
      </trkpt>
      <trkpt lat="23.062375" lon="113.276618">
        <time>2026-08-31T22:46:06Z</time>
      </trkpt>
      <trkpt lat="23.062412" lon="113.276515">
        <time>2026-08-31T22:46:11Z</time>
      </trkpt>
      <trkpt lat="23.062466" lon="113.276365">
        <time>2026-08-31T22:46:16Z</time>
      </trkpt>
      <trkpt lat="23.062529" lon="113.276219">
        <time>2026-08-31T22:46:21Z</time>
      </trkpt>
      <trkpt lat="23.062583" lon="113.276114">
        <time>2026-08-31T22:46:26Z</time>
      </trkpt>
      <trkpt lat="23.062647" lon="113.27601">
        <time>2026-08-31T22:46:31Z</time>
      </trkpt>
      <trkpt lat="23.06275" lon="113.275871">
        <time>2026-08-31T22:46:36Z</time>
      </trkpt>
      <trkpt lat="23.062861" lon="113.275753">
        <time>2026-08-31T22:46:41Z</time>
      </trkpt>
      <trkpt lat="23.062944" lon="113.275668">
        <time>2026-08-31T22:46:46Z</time>
      </trkpt>
      <trkpt lat="23.063025" lon="113.27558">
        <time>2026-08-31T22:46:51Z</time>
      </trkpt>
      <trkpt lat="23.063128" lon="113.275441">
        <time>2026-08-31T22:46:56Z</time>
      </trkpt>
      <trkpt lat="23.063211" lon="113.275295">
        <time>2026-08-31T22:47:01Z</time>
      </trkpt>
      <trkpt lat="23.063266" lon="113.275198">
        <time>2026-08-31T22:47:06Z</time>
      </trkpt>
      <trkpt lat="23.063326" lon="113.275102">
        <time>2026-08-31T22:47:11Z</time>
      </trkpt>
      <trkpt lat="23.063395" lon="113.274944">
        <time>2026-08-31T22:47:16Z</time>
      </trkpt>
      <trkpt lat="23.063435" lon="113.274786">
        <time>2026-08-31T22:47:21Z</time>
      </trkpt>
      <trkpt lat="23.06347" lon="113.274676">
        <time>2026-08-31T22:47:26Z</time>
      </trkpt>
      <trkpt lat="23.063507" lon="113.274569">
        <time>2026-08-31T22:47:31Z</time>
      </trkpt>
      <trkpt lat="23.063569" lon="113.27442">
        <time>2026-08-31T22:47:36Z</time>
      </trkpt>
      <trkpt lat="23.063657" lon="113.274283">
        <time>2026-08-31T22:47:41Z</time>
      </trkpt>
      <trkpt lat="23.063728" lon="113.274219">
        <time>2026-08-31T22:47:46Z</time>
      </trkpt>
      <trkpt lat="23.063814" lon="113.274153">
        <time>2026-08-31T22:47:51Z</time>
      </trkpt>
      <trkpt lat="23.063925" lon="113.274016">
        <time>2026-08-31T22:47:56Z</time>
      </trkpt>
      <trkpt lat="23.063998" lon="113.273854">
        <time>2026-08-31T22:48:01Z</time>
      </trkpt>
      <trkpt lat="23.064059" lon="113.273755">
        <time>2026-08-31T22:48:06Z</time>
      </trkpt>
      <trkpt lat="23.064142" lon="113.273681">
        <time>2026-08-31T22:48:11Z</time>
      </trkpt>
      <trkpt lat="23.064269" lon="113.273587">
        <time>2026-08-31T22:48:16Z</time>
      </trkpt>
      <trkpt lat="23.064405" lon="113.273475">
        <time>2026-08-31T22:48:21Z</time>
      </trkpt>
      <trkpt lat="23.06448" lon="113.273393">
        <time>2026-08-31T22:48:26Z</time>
      </trkpt>
      <trkpt lat="23.064549" lon="113.273308">
        <time>2026-08-31T22:48:31Z</time>
      </trkpt>
      <trkpt lat="23.064604" lon="113.273148">
        <time>2026-08-31T22:48:36Z</time>
      </trkpt>
      <trkpt lat="23.064574" lon="113.272973">
        <time>2026-08-31T22:48:41Z</time>
      </trkpt>
      <trkpt lat="23.064535" lon="113.272863">
        <time>2026-08-31T22:48:46Z</time>
      </trkpt>
      <trkpt lat="23.064492" lon="113.27276">
        <time>2026-08-31T22:48:51Z</time>
      </trkpt>
      <trkpt lat="23.064461" lon="113.272594">
        <time>2026-08-31T22:48:56Z</time>
      </trkpt>
      <trkpt lat="23.064529" lon="113.27244">
        <time>2026-08-31T22:49:01Z</time>
      </trkpt>
      <trkpt lat="23.064567" lon="113.272324">
        <time>2026-08-31T22:49:06Z</time>
      </trkpt>
      <trkpt lat="23.064584" lon="113.272206">
        <time>2026-08-31T22:49:11Z</time>
      </trkpt>
      <trkpt lat="23.064645" lon="113.27206">
        <time>2026-08-31T22:49:16Z</time>
      </trkpt>
      <trkpt lat="23.064719" lon="113.271925">
        <time>2026-08-31T22:49:21Z</time>
      </trkpt>
      <trkpt lat="23.064765" lon="113.271826">
        <time>2026-08-31T22:49:26Z</time>
      </trkpt>
      <trkpt lat="23.064814" lon="113.271722">
        <time>2026-08-31T22:49:31Z</time>
      </trkpt>
      <trkpt lat="23.064877" lon="113.271568">
        <time>2026-08-31T22:49:36Z</time>
      </trkpt>
      <trkpt lat="23.06495" lon="113.271422">
        <time>2026-08-31T22:49:41Z</time>
      </trkpt>
      <trkpt lat="23.065005" lon="113.271327">
        <time>2026-08-31T22:49:46Z</time>
      </trkpt>
      <trkpt lat="23.065064" lon="113.271227">
        <time>2026-08-31T22:49:51Z</time>
      </trkpt>
      <trkpt lat="23.065142" lon="113.271065">
        <time>2026-08-31T22:49:56Z</time>
      </trkpt>
      <trkpt lat="23.065209" lon="113.2709">
        <time>2026-08-31T22:50:01Z</time>
      </trkpt>
      <trkpt lat="23.065249" lon="113.270794">
        <time>2026-08-31T22:50:06Z</time>
      </trkpt>
      <trkpt lat="23.065292" lon="113.270695">
        <time>2026-08-31T22:50:11Z</time>
      </trkpt>
      <trkpt lat="23.065361" lon="113.270545">
        <time>2026-08-31T22:50:16Z</time>
      </trkpt>
      <trkpt lat="23.065432" lon="113.270382">
        <time>2026-08-31T22:50:21Z</time>
      </trkpt>
      <trkpt lat="23.065483" lon="113.270284">
        <time>2026-08-31T22:50:26Z</time>
      </trkpt>
      <trkpt lat="23.065532" lon="113.270184">
        <time>2026-08-31T22:50:31Z</time>
      </trkpt>
      <trkpt lat="23.065591" lon="113.270028">
        <time>2026-08-31T22:50:36Z</time>
      </trkpt>
      <trkpt lat="23.065634" lon="113.269868">
        <time>2026-08-31T22:50:41Z</time>
      </trkpt>
      <trkpt lat="23.065665" lon="113.269755">
        <time>2026-08-31T22:50:46Z</time>
      </trkpt>
      <trkpt lat="23.065701" lon="113.269644">
        <time>2026-08-31T22:50:51Z</time>
      </trkpt>
      <trkpt lat="23.065743" lon="113.269475">
        <time>2026-08-31T22:50:56Z</time>
      </trkpt>
      <trkpt lat="23.065779" lon="113.269306">
        <time>2026-08-31T22:51:01Z</time>
      </trkpt>
      <trkpt lat="23.065811" lon="113.269193">
        <time>2026-08-31T22:51:06Z</time>
      </trkpt>
      <trkpt lat="23.065848" lon="113.26909">
        <time>2026-08-31T22:51:11Z</time>
      </trkpt>
      <trkpt lat="23.065912" lon="113.268941">
        <time>2026-08-31T22:51:16Z</time>
      </trkpt>
      <trkpt lat="23.065984" lon="113.268784">
        <time>2026-08-31T22:51:21Z</time>
      </trkpt>
      <trkpt lat="23.066034" lon="113.268682">
        <time>2026-08-31T22:51:26Z</time>
      </trkpt>
      <trkpt lat="23.066089" lon="113.268582">
        <time>2026-08-31T22:51:31Z</time>
      </trkpt>
      <trkpt lat="23.066178" lon="113.268438">
        <time>2026-08-31T22:51:36Z</time>
      </trkpt>
      <trkpt lat="23.066269" lon="113.268301">
        <time>2026-08-31T22:51:41Z</time>
      </trkpt>
      <trkpt lat="23.066344" lon="113.268219">
        <time>2026-08-31T22:51:46Z</time>
      </trkpt>
      <trkpt lat="23.066437" lon="113.268162">
        <time>2026-08-31T22:51:51Z</time>
      </trkpt>
      <trkpt lat="23.066592" lon="113.268145">
        <time>2026-08-31T22:51:56Z</time>
      </trkpt>
      <trkpt lat="23.066756" lon="113.268166">
        <time>2026-08-31T22:52:01Z</time>
      </trkpt>
      <trkpt lat="23.066861" lon="113.268164">
        <time>2026-08-31T22:52:06Z</time>
      </trkpt>
      <trkpt lat="23.06697" lon="113.268173">
        <time>2026-08-31T22:52:11Z</time>
      </trkpt>
      <trkpt lat="23.067114" lon="113.268227">
        <time>2026-08-31T22:52:16Z</time>
      </trkpt>
      <trkpt lat="23.067242" lon="113.268292">
        <time>2026-08-31T22:52:21Z</time>
      </trkpt>
      <trkpt lat="23.067322" lon="113.26834">
        <time>2026-08-31T22:52:26Z</time>
      </trkpt>
      <trkpt lat="23.067407" lon="113.268396">
        <time>2026-08-31T22:52:31Z</time>
      </trkpt>
      <trkpt lat="23.067558" lon="113.26849">
        <time>2026-08-31T22:52:36Z</time>
      </trkpt>
      <trkpt lat="23.067717" lon="113.268567">
        <time>2026-08-31T22:52:41Z</time>
      </trkpt>
      <trkpt lat="23.067809" lon="113.268624">
        <time>2026-08-31T22:52:46Z</time>
      </trkpt>
      <trkpt lat="23.067883" lon="113.268696">
        <time>2026-08-31T22:52:51Z</time>
      </trkpt>
      <trkpt lat="23.068016" lon="113.268764">
        <time>2026-08-31T22:52:56Z</time>
      </trkpt>
      <trkpt lat="23.068146" lon="113.268803">
        <time>2026-08-31T22:53:01Z</time>
      </trkpt>
      <trkpt lat="23.068226" lon="113.268807">
        <time>2026-08-31T22:53:06Z</time>
      </trkpt>
      <trkpt lat="23.068308" lon="113.268832">
        <time>2026-08-31T22:53:11Z</time>
      </trkpt>
      <trkpt lat="23.068427" lon="113.268928">
        <time>2026-08-31T22:53:16Z</time>
      </trkpt>
      <trkpt lat="23.068567" lon="113.269035">
        <time>2026-08-31T22:53:21Z</time>
      </trkpt>
      <trkpt lat="23.068678" lon="113.269126">
        <time>2026-08-31T22:53:26Z</time>
      </trkpt>
      <trkpt lat="23.068808" lon="113.26917">
        <time>2026-08-31T22:53:31Z</time>
      </trkpt>
      <trkpt lat="23.068973" lon="113.269197">
        <time>2026-08-31T22:53:36Z</time>
      </trkpt>
      <trkpt lat="23.069126" lon="113.269231">
        <time>2026-08-31T22:53:41Z</time>
      </trkpt>
      <trkpt lat="23.069229" lon="113.26928">
        <time>2026-08-31T22:53:46Z</time>
      </trkpt>
      <trkpt lat="23.069324" lon="113.269339">
        <time>2026-08-31T22:53:51Z</time>
      </trkpt>
      <trkpt lat="23.069469" lon="113.269412">
        <time>2026-08-31T22:53:56Z</time>
      </trkpt>
      <trkpt lat="23.069611" lon="113.269481">
        <time>2026-08-31T22:54:01Z</time>
      </trkpt>
      <trkpt lat="23.069713" lon="113.269519">
        <time>2026-08-31T22:54:06Z</time>
      </trkpt>
      <trkpt lat="23.069815" lon="113.269559">
        <time>2026-08-31T22:54:11Z</time>
      </trkpt>
      <trkpt lat="23.069943" lon="113.269654">
        <time>2026-08-31T22:54:16Z</time>
      </trkpt>
      <trkpt lat="23.070068" lon="113.269755">
        <time>2026-08-31T22:54:21Z</time>
      </trkpt>
      <trkpt lat="23.070162" lon="113.269808">
        <time>2026-08-31T22:54:26Z</time>
      </trkpt>
      <trkpt lat="23.070257" lon="113.269848">
        <time>2026-08-31T22:54:31Z</time>
      </trkpt>
      <trkpt lat="23.070389" lon="113.269913">
        <time>2026-08-31T22:54:36Z</time>
      </trkpt>
      <trkpt lat="23.070537" lon="113.269962">
        <time>2026-08-31T22:54:41Z</time>
      </trkpt>
      <trkpt lat="23.070641" lon="113.269986">
        <time>2026-08-31T22:54:46Z</time>
      </trkpt>
      <trkpt lat="23.070735" lon="113.27001">
        <time>2026-08-31T22:54:51Z</time>
      </trkpt>
      <trkpt lat="23.070867" lon="113.270093">
        <time>2026-08-31T22:54:56Z</time>
      </trkpt>
      <trkpt lat="23.070977" lon="113.270163">
        <time>2026-08-31T22:55:01Z</time>
      </trkpt>
      <trkpt lat="23.071067" lon="113.270187">
        <time>2026-08-31T22:55:06Z</time>
      </trkpt>
      <trkpt lat="23.07116" lon="113.270217">
        <time>2026-08-31T22:55:11Z</time>
      </trkpt>
      <trkpt lat="23.071291" lon="113.270296">
        <time>2026-08-31T22:55:16Z</time>
      </trkpt>
      <trkpt lat="23.071435" lon="113.270379">
        <time>2026-08-31T22:55:21Z</time>
      </trkpt>
      <trkpt lat="23.07152" lon="113.270447">
        <time>2026-08-31T22:55:26Z</time>
      </trkpt>
      <trkpt lat="23.071601" lon="113.270512">
        <time>2026-08-31T22:55:31Z</time>
      </trkpt>
      <trkpt lat="23.071735" lon="113.270576">
        <time>2026-08-31T22:55:36Z</time>
      </trkpt>
      <trkpt lat="23.071871" lon="113.27062">
        <time>2026-08-31T22:55:41Z</time>
      </trkpt>
      <trkpt lat="23.071968" lon="113.270656">
        <time>2026-08-31T22:55:46Z</time>
      </trkpt>
      <trkpt lat="23.072061" lon="113.270693">
        <time>2026-08-31T22:55:51Z</time>
      </trkpt>
      <trkpt lat="23.072186" lon="113.270772">
        <time>2026-08-31T22:55:56Z</time>
      </trkpt>
      <trkpt lat="23.072315" lon="113.270852">
        <time>2026-08-31T22:56:01Z</time>
      </trkpt>
      <trkpt lat="23.072416" lon="113.270871">
        <time>2026-08-31T22:56:06Z</time>
      </trkpt>
      <trkpt lat="23.072512" lon="113.270911">
        <time>2026-08-31T22:56:11Z</time>
      </trkpt>
      <trkpt lat="23.072646" lon="113.271001">
        <time>2026-08-31T22:56:16Z</time>
      </trkpt>
      <trkpt lat="23.072796" lon="113.271076">
        <time>2026-08-31T22:56:21Z</time>
      </trkpt>
      <trkpt lat="23.072876" lon="113.271105">
        <time>2026-08-31T22:56:26Z</time>
      </trkpt>
      <trkpt lat="23.072964" lon="113.271144">
        <time>2026-08-31T22:56:31Z</time>
      </trkpt>
      <trkpt lat="23.073106" lon="113.271213">
        <time>2026-08-31T22:56:36Z</time>
      </trkpt>
      <trkpt lat="23.073231" lon="113.271294">
        <time>2026-08-31T22:56:41Z</time>
      </trkpt>
      <trkpt lat="23.073309" lon="113.271358">
        <time>2026-08-31T22:56:46Z</time>
      </trkpt>
      <trkpt lat="23.07343" lon="113.271399">
        <time>2026-08-31T22:56:51Z</time>
      </trkpt>
      <trkpt lat="23.073579" lon="113.271477">
        <time>2026-08-31T22:56:56Z</time>
      </trkpt>
      <trkpt lat="23.073702" lon="113.271581">
        <time>2026-08-31T22:57:01Z</time>
      </trkpt>
      <trkpt lat="23.073786" lon="113.271631">
        <time>2026-08-31T22:57:06Z</time>
      </trkpt>
      <trkpt lat="23.073876" lon="113.271665">
        <time>2026-08-31T22:57:11Z</time>
      </trkpt>
      <trkpt lat="23.074002" lon="113.27172">
        <time>2026-08-31T22:57:16Z</time>
      </trkpt>
      <trkpt lat="23.074089" lon="113.27178">
        <time>2026-08-31T22:57:21Z</time>
      </trkpt>
      <trkpt lat="23.074065" lon="113.271856">
        <time>2026-08-31T22:57:26Z</time>
      </trkpt>
      <trkpt lat="23.074019" lon="113.271956">
        <time>2026-08-31T22:57:31Z</time>
      </trkpt>
      <trkpt lat="23.073969" lon="113.27211">
        <time>2026-08-31T22:57:36Z</time>
      </trkpt>
      <trkpt lat="23.073908" lon="113.272271">
        <time>2026-08-31T22:57:41Z</time>
      </trkpt>
      <trkpt lat="23.07387" lon="113.272373">
        <time>2026-08-31T22:57:46Z</time>
      </trkpt>
      <trkpt lat="23.073839" lon="113.272478">
        <time>2026-08-31T22:57:51Z</time>
      </trkpt>
      <trkpt lat="23.073781" lon="113.272632">
        <time>2026-08-31T22:57:56Z</time>
      </trkpt>
      <trkpt lat="23.073688" lon="113.272784">
        <time>2026-08-31T22:58:01Z</time>
      </trkpt>
      <trkpt lat="23.073648" lon="113.272884">
        <time>2026-08-31T22:58:06Z</time>
      </trkpt>
      <trkpt lat="23.073631" lon="113.272982">
        <time>2026-08-31T22:58:11Z</time>
      </trkpt>
      <trkpt lat="23.073667" lon="113.272993">
        <time>2026-08-31T22:58:16Z</time>
      </trkpt>
      <trkpt lat="23.073789" lon="113.272961">
        <time>2026-08-31T22:58:21Z</time>
      </trkpt>
      <trkpt lat="23.073878" lon="113.272989">
        <time>2026-08-31T22:58:26Z</time>
      </trkpt>
      <trkpt lat="23.07395" lon="113.272995">
        <time>2026-08-31T22:58:31Z</time>
      </trkpt>
      <trkpt lat="23.07403" lon="113.272903">
        <time>2026-08-31T22:58:36Z</time>
      </trkpt>
      <trkpt lat="23.074101" lon="113.272759">
        <time>2026-08-31T22:58:41Z</time>
      </trkpt>
      <trkpt lat="23.074145" lon="113.272664">
        <time>2026-08-31T22:58:46Z</time>
      </trkpt>
      <trkpt lat="23.074187" lon="113.272568">
        <time>2026-08-31T22:58:51Z</time>
      </trkpt>
      <trkpt lat="23.074251" lon="113.272425">
        <time>2026-08-31T22:58:56Z</time>
      </trkpt>
      <trkpt lat="23.074317" lon="113.272278">
        <time>2026-08-31T22:59:01Z</time>
      </trkpt>
      <trkpt lat="23.074361" lon="113.272187">
        <time>2026-08-31T22:59:06Z</time>
      </trkpt>
      <trkpt lat="23.074426" lon="113.272097">
        <time>2026-08-31T22:59:11Z</time>
      </trkpt>
      <trkpt lat="23.074532" lon="113.272">
        <time>2026-08-31T22:59:16Z</time>
      </trkpt>
      <trkpt lat="23.074667" lon="113.272061">
        <time>2026-08-31T22:59:21Z</time>
      </trkpt>
      <trkpt lat="23.074751" lon="113.272119">
        <time>2026-08-31T22:59:26Z</time>
      </trkpt>
      <trkpt lat="23.074819" lon="113.272174">
        <time>2026-08-31T22:59:31Z</time>
      </trkpt>
      <trkpt lat="23.07492" lon="113.272244">
        <time>2026-08-31T22:59:36Z</time>
      </trkpt>
      <trkpt lat="23.075005" lon="113.27232">
        <time>2026-08-31T22:59:41Z</time>
      </trkpt>
      <trkpt lat="23.075078" lon="113.272366">
        <time>2026-08-31T22:59:46Z</time>
      </trkpt>
      <trkpt lat="23.075238" lon="113.272439">
        <time>2026-08-31T22:59:52Z</time>
      </trkpt>
    </trkseg>
  </trk>
</gpx>