<?xml version="1.0" encoding="UTF-8"?>
<gpx xmlns="http://www.topografix.com/GPX/1/1" xmlns:gpxtpx="http://www.garmin.com/xmlschemas/TrackPointExtension/v1" xmlns:xsi="http://www.w3.org/2001/XMLSchema-instance" xsi:schemaLocation="http://www.topografix.com/GPX/1/1 http://www.topografix.com/GPX/1/1/gpx.xsd" version="1.1" creator="gpx.py -- https://github.com/tkrajina/gpxpy">
  <trk>
    <name>gpx from joyrun</name>
    <trkseg>
      <trkpt lat="23.076045" lon="113.272953">
        <time>2026-09-02T21:54:30Z</time>
      </trkpt>
      <trkpt lat="23.076048" lon="113.272935">
        <time>2026-09-02T21:54:35Z</time>
      </trkpt>
      <trkpt lat="23.076039" lon="113.2728">
        <time>2026-09-02T21:54:40Z</time>
      </trkpt>
      <trkpt lat="23.075955" lon="113.272686">
        <time>2026-09-02T21:54:45Z</time>
      </trkpt>
      <trkpt lat="23.075866" lon="113.272598">
        <time>2026-09-02T21:54:50Z</time>
      </trkpt>
      <trkpt lat="23.075777" lon="113.27252">
        <time>2026-09-02T21:54:55Z</time>
      </trkpt>
      <trkpt lat="23.075679" lon="113.272458">
        <time>2026-09-02T21:55:00Z</time>
      </trkpt>
      <trkpt lat="23.075557" lon="113.272421">
        <time>2026-09-02T21:55:05Z</time>
      </trkpt>
      <trkpt lat="23.075419" lon="113.272422">
        <time>2026-09-02T21:55:10Z</time>
      </trkpt>
      <trkpt lat="23.0753" lon="113.2724">
        <time>2026-09-02T21:55:15Z</time>
      </trkpt>
      <trkpt lat="23.075188" lon="113.272344">
        <time>2026-09-02T21:55:20Z</time>
      </trkpt>
      <trkpt lat="23.07508" lon="113.272299">
        <time>2026-09-02T21:55:25Z</time>
      </trkpt>
      <trkpt lat="23.074985" lon="113.272188">
        <time>2026-09-02T21:55:30Z</time>
      </trkpt>
      <trkpt lat="23.074874" lon="113.272101">
        <time>2026-09-02T21:55:35Z</time>
      </trkpt>
      <trkpt lat="23.074767" lon="113.272052">
        <time>2026-09-02T21:55:40Z</time>
      </trkpt>
      <trkpt lat="23.074656" lon="113.272">
        <time>2026-09-02T21:55:45Z</time>
      </trkpt>
      <trkpt lat="23.074552" lon="113.271934">
        <time>2026-09-02T21:55:50Z</time>
      </trkpt>
      <trkpt lat="23.074445" lon="113.271977">
        <time>2026-09-02T21:55:55Z</time>
      </trkpt>
      <trkpt lat="23.074373" lon="113.272115">
        <time>2026-09-02T21:56:00Z</time>
      </trkpt>
      <trkpt lat="23.074311" lon="113.272256">
        <time>2026-09-02T21:56:05Z</time>
      </trkpt>
      <trkpt lat="23.074244" lon="113.272391">
        <time>2026-09-02T21:56:10Z</time>
      </trkpt>
      <trkpt lat="23.074175" lon="113.272536">
        <time>2026-09-02T21:56:15Z</time>
      </trkpt>
      <trkpt lat="23.074105" lon="113.272684">
        <time>2026-09-02T21:56:20Z</time>
      </trkpt>
      <trkpt lat="23.074054" lon="113.272822">
        <time>2026-09-02T21:56:25Z</time>
      </trkpt>
      <trkpt lat="23.073951" lon="113.272928">
        <time>2026-09-02T21:56:30Z</time>
      </trkpt>
      <trkpt lat="23.073812" lon="113.272941">
        <time>2026-09-02T21:56:35Z</time>
      </trkpt>
      <trkpt lat="23.07371" lon="113.272881">
        <time>2026-09-02T21:56:40Z</time>
      </trkpt>
      <trkpt lat="23.073708" lon="113.272771">
        <time>2026-09-02T21:56:45Z</time>
      </trkpt>
      <trkpt lat="23.073756" lon="113.272654">
        <time>2026-09-02T21:56:50Z</time>
      </trkpt>
      <trkpt lat="23.073799" lon="113.272554">
        <time>2026-09-02T21:56:55Z</time>
      </trkpt>
      <trkpt lat="23.073854" lon="113.27245">
        <time>2026-09-02T21:57:00Z</time>
      </trkpt>
      <trkpt lat="23.073917" lon="113.272327">
        <time>2026-09-02T21:57:05Z</time>
      </trkpt>
      <trkpt lat="23.073966" lon="113.272202">
        <time>2026-09-02T21:57:10Z</time>
      </trkpt>
      <trkpt lat="23.074018" lon="113.272079">
        <time>2026-09-02T21:57:15Z</time>
      </trkpt>
      <trkpt lat="23.074066" lon="113.271954">
        <time>2026-09-02T21:57:20Z</time>
      </trkpt>
      <trkpt lat="23.074106" lon="113.271828">
        <time>2026-09-02T21:57:25Z</time>
      </trkpt>
      <trkpt lat="23.074072" lon="113.271727">
        <time>2026-09-02T21:57:30Z</time>
      </trkpt>
      <trkpt lat="23.073988" lon="113.27166">
        <time>2026-09-02T21:57:35Z</time>
      </trkpt>
      <trkpt lat="23.073892" lon="113.271605">
        <time>2026-09-02T21:57:40Z</time>
      </trkpt>
      <trkpt lat="23.073786" lon="113.271552">
        <time>2026-09-02T21:57:45Z</time>
      </trkpt>
      <trkpt lat="23.073672" lon="113.271508">
        <time>2026-09-02T21:57:50Z</time>
      </trkpt>
      <trkpt lat="23.073559" lon="113.27147">
        <time>2026-09-02T21:57:55Z</time>
      </trkpt>
      <trkpt lat="23.073447" lon="113.271429">
        <time>2026-09-02T21:58:00Z</time>
      </trkpt>
      <trkpt lat="23.073352" lon="113.271362">
        <time>2026-09-02T21:58:05Z</time>
      </trkpt>
      <trkpt lat="23.073298" lon="113.271238">
        <time>2026-09-02T21:58:10Z</time>
      </trkpt>
      <trkpt lat="23.073198" lon="113.271134">
        <time>2026-09-02T21:58:15Z</time>
      </trkpt>
      <trkpt lat="23.073078" lon="113.271076">
        <time>2026-09-02T21:58:20Z</time>
      </trkpt>
      <trkpt lat="23.072967" lon="113.271021">
        <time>2026-09-02T21:58:25Z</time>
      </trkpt>
      <trkpt lat="23.072852" lon="113.270963">
        <time>2026-09-02T21:58:30Z</time>
      </trkpt>
      <trkpt lat="23.07274" lon="113.270913">
        <time>2026-09-02T21:58:35Z</time>
      </trkpt>
      <trkpt lat="23.072629" lon="113.270867">
        <time>2026-09-02T21:58:40Z</time>
      </trkpt>
      <trkpt lat="23.072521" lon="113.270808">
        <time>2026-09-02T21:58:45Z</time>
      </trkpt>
      <trkpt lat="23.072398" lon="113.270771">
        <time>2026-09-02T21:58:50Z</time>
      </trkpt>
      <trkpt lat="23.072268" lon="113.270723">
        <time>2026-09-02T21:58:55Z</time>
      </trkpt>
      <trkpt lat="23.072139" lon="113.270676">
        <time>2026-09-02T21:59:00Z</time>
      </trkpt>
      <trkpt lat="23.072033" lon="113.270585">
        <time>2026-09-02T21:59:05Z</time>
      </trkpt>
      <trkpt lat="23.07192" lon="113.270489">
        <time>2026-09-02T21:59:10Z</time>
      </trkpt>
      <trkpt lat="23.07181" lon="113.27041">
        <time>2026-09-02T21:59:15Z</time>
      </trkpt>
      <trkpt lat="23.071692" lon="113.270362">
        <time>2026-09-02T21:59:20Z</time>
      </trkpt>
      <trkpt lat="23.071571" lon="113.270305">
        <time>2026-09-02T21:59:25Z</time>
      </trkpt>
      <trkpt lat="23.071442" lon="113.270254">
        <time>2026-09-02T21:59:30Z</time>
      </trkpt>
      <trkpt lat="23.071308" lon="113.270215">
        <time>2026-09-02T21:59:35Z</time>
      </trkpt>
      <trkpt lat="23.071164" lon="113.270173">
        <time>2026-09-02T21:59:40Z</time>
      </trkpt>
      <trkpt lat="23.071025" lon="113.270138">
        <time>2026-09-02T21:59:45Z</time>
      </trkpt>
      <trkpt lat="23.070909" lon="113.270094">
        <time>2026-09-02T21:59:50Z</time>
      </trkpt>
      <trkpt lat="23.070777" lon="113.270049">
        <time>2026-09-02T21:59:55Z</time>
      </trkpt>
      <trkpt lat="23.07064" lon="113.269979">
        <time>2026-09-02T22:00:00Z</time>
      </trkpt>
      <trkpt lat="23.070497" lon="113.269944">
        <time>2026-09-02T22:00:05Z</time>
      </trkpt>
      <trkpt lat="23.070366" lon="113.26989">
        <time>2026-09-02T22:00:10Z</time>
      </trkpt>
      <trkpt lat="23.070233" lon="113.269834">
        <time>2026-09-02T22:00:15Z</time>
      </trkpt>
      <trkpt lat="23.070111" lon="113.269768">
        <time>2026-09-02T22:00:20Z</time>
      </trkpt>
      <trkpt lat="23.070007" lon="113.26968">
        <time>2026-09-02T22:00:25Z</time>
      </trkpt>
      <trkpt lat="23.069897" lon="113.26961">
        <time>2026-09-02T22:00:30Z</time>
      </trkpt>
      <trkpt lat="23.069773" lon="113.269562">
        <time>2026-09-02T22:00:35Z</time>
      </trkpt>
      <trkpt lat="23.069645" lon="113.26951">
        <time>2026-09-02T22:00:40Z</time>
      </trkpt>
      <trkpt lat="23.069534" lon="113.269444">
        <time>2026-09-02T22:00:45Z</time>
      </trkpt>
      <trkpt lat="23.069416" lon="113.269395">
        <time>2026-09-02T22:00:50Z</time>
      </trkpt>
      <trkpt lat="23.069293" lon="113.269341">
        <time>2026-09-02T22:00:55Z</time>
      </trkpt>
      <trkpt lat="23.069188" lon="113.269254">
        <time>2026-09-02T22:01:00Z</time>
      </trkpt>
      <trkpt lat="23.069089" lon="113.269197">
        <time>2026-09-02T22:01:05Z</time>
      </trkpt>
      <trkpt lat="23.068981" lon="113.269139">
        <time>2026-09-02T22:01:10Z</time>
      </trkpt>
      <trkpt lat="23.068856" lon="113.269095">
        <time>2026-09-02T22:01:15Z</time>
      </trkpt>
      <trkpt lat="23.068738" lon="113.269061">
        <time>2026-09-02T22:01:20Z</time>
      </trkpt>
      <trkpt lat="23.068629" lon="113.269005">
        <time>2026-09-02T22:01:25Z</time>
      </trkpt>
      <trkpt lat="23.068514" lon="113.268983">
        <time>2026-09-02T22:01:30Z</time>
      </trkpt>
      <trkpt lat="23.068389" lon="113.268995">
        <time>2026-09-02T22:01:35Z</time>
      </trkpt>
      <trkpt lat="23.068285" lon="113.268938">
        <time>2026-09-02T22:01:40Z</time>
      </trkpt>
      <trkpt lat="23.068185" lon="113.268867">
        <time>2026-09-02T22:01:45Z</time>
      </trkpt>
      <trkpt lat="23.068074" lon="113.268768">
        <time>2026-09-02T22:01:50Z</time>
      </trkpt>
      <trkpt lat="23.067919" lon="113.268652">
        <time>2026-09-02T22:01:55Z</time>
      </trkpt>
      <trkpt lat="23.067777" lon="113.268569">
        <time>2026-09-02T22:02:00Z</time>
      </trkpt>
      <trkpt lat="23.067675" lon="113.268464">
        <time>2026-09-02T22:02:05Z</time>
      </trkpt>
      <trkpt lat="23.067569" lon="113.268357">
        <time>2026-09-02T22:02:10Z</time>
      </trkpt>
      <trkpt lat="23.067441" lon="113.268293">
        <time>2026-09-02T22:02:15Z</time>
      </trkpt>
      <trkpt lat="23.067312" lon="113.268239">
        <time>2026-09-02T22:02:20Z</time>
      </trkpt>
      <trkpt lat="23.067185" lon="113.268181">
        <time>2026-09-02T22:02:25Z</time>
      </trkpt>
      <trkpt lat="23.067066" lon="113.268139">
        <time>2026-09-02T22:02:30Z</time>
      </trkpt>
      <trkpt lat="23.066938" lon="113.268093">
        <time>2026-09-02T22:02:35Z</time>
      </trkpt>
      <trkpt lat="23.066805" lon="113.268055">
        <time>2026-09-02T22:02:40Z</time>
      </trkpt>
      <trkpt lat="23.066673" lon="113.268033">
        <time>2026-09-02T22:02:45Z</time>
      </trkpt>
      <trkpt lat="23.06655" lon="113.268001">
        <time>2026-09-02T22:02:50Z</time>
      </trkpt>
      <trkpt lat="23.066417" lon="113.267972">
        <time>2026-09-02T22:02:55Z</time>
      </trkpt>
      <trkpt lat="23.06628" lon="113.267987">
        <time>2026-09-02T22:03:00Z</time>
      </trkpt>
      <trkpt lat="23.066169" lon="113.268055">
        <time>2026-09-02T22:03:05Z</time>
      </trkpt>
      <trkpt lat="23.066077" lon="113.268155">
        <time>2026-09-02T22:03:10Z</time>
      </trkpt>
      <trkpt lat="23.065985" lon="113.268256">
        <time>2026-09-02T22:03:15Z</time>
      </trkpt>
      <trkpt lat="23.065898" lon="113.268367">
        <time>2026-09-02T22:03:20Z</time>
      </trkpt>
      <trkpt lat="23.065821" lon="113.268485">
        <time>2026-09-02T22:03:25Z</time>
      </trkpt>
      <trkpt lat="23.065757" lon="113.268607">
        <time>2026-09-02T22:03:30Z</time>
      </trkpt>
      <trkpt lat="23.065701" lon="113.268733">
        <time>2026-09-02T22:03:35Z</time>
      </trkpt>
      <trkpt lat="23.065648" lon="113.268858">
        <time>2026-09-02T22:03:40Z</time>
      </trkpt>
      <trkpt lat="23.065601" lon="113.268984">
        <time>2026-09-02T22:03:45Z</time>
      </trkpt>
      <trkpt lat="23.065567" lon="113.269115">
        <time>2026-09-02T22:03:50Z</time>
      </trkpt>
      <trkpt lat="23.065537" lon="113.269252">
        <time>2026-09-02T22:03:55Z</time>
      </trkpt>
      <trkpt lat="23.065508" lon="113.269396">
        <time>2026-09-02T22:04:00Z</time>
      </trkpt>
      <trkpt lat="23.065475" lon="113.269542">
        <time>2026-09-02T22:04:05Z</time>
      </trkpt>
      <trkpt lat="23.065438" lon="113.269688">
        <time>2026-09-02T22:04:10Z</time>
      </trkpt>
      <trkpt lat="23.065392" lon="113.269829">
        <time>2026-09-02T22:04:15Z</time>
      </trkpt>
      <trkpt lat="23.065343" lon="113.269968">
        <time>2026-09-02T22:04:20Z</time>
      </trkpt>
      <trkpt lat="23.065289" lon="113.270109">
        <time>2026-09-02T22:04:25Z</time>
      </trkpt>
      <trkpt lat="23.065229" lon="113.270246">
        <time>2026-09-02T22:04:30Z</time>
      </trkpt>
      <trkpt lat="23.065169" lon="113.270385">
        <time>2026-09-02T22:04:35Z</time>
      </trkpt>
      <trkpt lat="23.065105" lon="113.270523">
        <time>2026-09-02T22:04:40Z</time>
      </trkpt>
      <trkpt lat="23.065049" lon="113.270664">
        <time>2026-09-02T22:04:45Z</time>
      </trkpt>
      <trkpt lat="23.064997" lon="113.27079">
        <time>2026-09-02T22:04:50Z</time>
      </trkpt>
      <trkpt lat="23.064943" lon="113.270899">
        <time>2026-09-02T22:04:55Z</time>
      </trkpt>
      <trkpt lat="23.064908" lon="113.271001">
        <time>2026-09-02T22:05:00Z</time>
      </trkpt>
      <trkpt lat="23.06486" lon="113.27111">
        <time>2026-09-02T22:05:05Z</time>
      </trkpt>
      <trkpt lat="23.06481" lon="113.271227">
        <time>2026-09-02T22:05:10Z</time>
      </trkpt>
      <trkpt lat="23.064758" lon="113.271345">
        <time>2026-09-02T22:05:15Z</time>
      </trkpt>
      <trkpt lat="23.064707" lon="113.271461">
        <time>2026-09-02T22:05:20Z</time>
      </trkpt>
      <trkpt lat="23.064652" lon="113.271582">
        <time>2026-09-02T22:05:25Z</time>
      </trkpt>
      <trkpt lat="23.064593" lon="113.271711">
        <time>2026-09-02T22:05:30Z</time>
      </trkpt>
      <trkpt lat="23.06453" lon="113.271848">
        <time>2026-09-02T22:05:35Z</time>
      </trkpt>
      <trkpt lat="23.064471" lon="113.271986">
        <time>2026-09-02T22:05:40Z</time>
      </trkpt>
      <trkpt lat="23.064408" lon="113.27212">
        <time>2026-09-02T22:05:45Z</time>
      </trkpt>
      <trkpt lat="23.064362" lon="113.272264">
        <time>2026-09-02T22:05:50Z</time>
      </trkpt>
      <trkpt lat="23.064352" lon="113.272428">
        <time>2026-09-02T22:05:55Z</time>
      </trkpt>
      <trkpt lat="23.064361" lon="113.27261">
        <time>2026-09-02T22:06:00Z</time>
      </trkpt>
      <trkpt lat="23.064408" lon="113.272783">
        <time>2026-09-02T22:06:05Z</time>
      </trkpt>
      <trkpt lat="23.064464" lon="113.272951">
        <time>2026-09-02T22:06:10Z</time>
      </trkpt>
      <trkpt lat="23.064498" lon="113.273134">
        <time>2026-09-02T22:06:15Z</time>
      </trkpt>
      <trkpt lat="23.06444" lon="113.273304">
        <time>2026-09-02T22:06:20Z</time>
      </trkpt>
      <trkpt lat="23.064303" lon="113.273437">
        <time>2026-09-02T22:06:25Z</time>
      </trkpt>
      <trkpt lat="23.064149" lon="113.273556">
        <time>2026-09-02T22:06:30Z</time>
      </trkpt>
      <trkpt lat="23.064004" lon="113.273685">
        <time>2026-09-02T22:06:35Z</time>
      </trkpt>
      <trkpt lat="23.063879" lon="113.273835">
        <time>2026-09-02T22:06:40Z</time>
      </trkpt>
      <trkpt lat="23.063771" lon="113.274008">
        <time>2026-09-02T22:06:45Z</time>
      </trkpt>
      <trkpt lat="23.063644" lon="113.274149">
        <time>2026-09-02T22:06:50Z</time>
      </trkpt>
      <trkpt lat="23.063521" lon="113.274285">
        <time>2026-09-02T22:06:55Z</time>
      </trkpt>
      <trkpt lat="23.063434" lon="113.274465">
        <time>2026-09-02T22:07:00Z</time>
      </trkpt>
      <trkpt lat="23.063371" lon="113.274655">
        <time>2026-09-02T22:07:05Z</time>
      </trkpt>
      <trkpt lat="23.063315" lon="113.274839">
        <time>2026-09-02T22:07:10Z</time>
      </trkpt>
      <trkpt lat="23.063249" lon="113.275029">
        <time>2026-09-02T22:07:15Z</time>
      </trkpt>
      <trkpt lat="23.063159" lon="113.275204">
        <time>2026-09-02T22:07:20Z</time>
      </trkpt>
      <trkpt lat="23.063062" lon="113.275371">
        <time>2026-09-02T22:07:25Z</time>
      </trkpt>
      <trkpt lat="23.062956" lon="113.275525">
        <time>2026-09-02T22:07:30Z</time>
      </trkpt>
      <trkpt lat="23.062829" lon="113.275665">
        <time>2026-09-02T22:07:35Z</time>
      </trkpt>
      <trkpt lat="23.062691" lon="113.275791">
        <time>2026-09-02T22:07:40Z</time>
      </trkpt>
      <trkpt lat="23.062558" lon="113.27593">
        <time>2026-09-02T22:07:45Z</time>
      </trkpt>
      <trkpt lat="23.062458" lon="113.27609">
        <time>2026-09-02T22:07:50Z</time>
      </trkpt>
      <trkpt lat="23.062389" lon="113.276257">
        <time>2026-09-02T22:07:55Z</time>
      </trkpt>
      <trkpt lat="23.06232" lon="113.276418">
        <time>2026-09-02T22:08:00Z</time>
      </trkpt>
      <trkpt lat="23.062255" lon="113.276582">
        <time>2026-09-02T22:08:05Z</time>
      </trkpt>
      <trkpt lat="23.0622" lon="113.276741">
        <time>2026-09-02T22:08:10Z</time>
      </trkpt>
      <trkpt lat="23.062147" lon="113.276902">
        <time>2026-09-02T22:08:15Z</time>
      </trkpt>
      <trkpt lat="23.062094" lon="113.277062">
        <time>2026-09-02T22:08:20Z</time>
      </trkpt>
      <trkpt lat="23.06203" lon="113.277231">
        <time>2026-09-02T22:08:25Z</time>
      </trkpt>
      <trkpt lat="23.061962" lon="113.277403">
        <time>2026-09-02T22:08:30Z</time>
      </trkpt>
      <trkpt lat="23.061896" lon="113.277572">
        <time>2026-09-02T22:08:35Z</time>
      </trkpt>
      <trkpt lat="23.061849" lon="113.277752">
        <time>2026-09-02T22:08:40Z</time>
      </trkpt>
      <trkpt lat="23.061856" lon="113.27795">
        <time>2026-09-02T22:08:45Z</time>
      </trkpt>
      <trkpt lat="23.061866" lon="113.278126">
        <time>2026-09-02T22:08:50Z</time>
      </trkpt>
      <trkpt lat="23.061869" lon="113.2783">
        <time>2026-09-02T22:08:55Z</time>
      </trkpt>
      <trkpt lat="23.06188" lon="113.278474">
        <time>2026-09-02T22:09:00Z</time>
      </trkpt>
      <trkpt lat="23.06188" lon="113.278644">
        <time>2026-09-02T22:09:05Z</time>
      </trkpt>
      <trkpt lat="23.061821" lon="113.278761">
        <time>2026-09-02T22:09:10Z</time>
      </trkpt>
      <trkpt lat="23.061724" lon="113.27885">
        <time>2026-09-02T22:09:15Z</time>
      </trkpt>
      <trkpt lat="23.06166" lon="113.27901">
        <time>2026-09-02T22:09:20Z</time>
      </trkpt>
      <trkpt lat="23.061596" lon="113.279177">
        <time>2026-09-02T22:09:25Z</time>
      </trkpt>
      <trkpt lat="23.061529" lon="113.279349">
        <time>2026-09-02T22:09:30Z</time>
      </trkpt>
      <trkpt lat="23.061459" lon="113.279517">
        <time>2026-09-02T22:09:35Z</time>
      </trkpt>
      <trkpt lat="23.061387" lon="113.279685">
        <time>2026-09-02T22:09:40Z</time>
      </trkpt>
      <trkpt lat="23.061317" lon="113.279853">
        <time>2026-09-02T22:09:45Z</time>
      </trkpt>
      <trkpt lat="23.061244" lon="113.28002">
        <time>2026-09-02T22:09:50Z</time>
      </trkpt>
      <trkpt lat="23.061165" lon="113.280191">
        <time>2026-09-02T22:09:55Z</time>
      </trkpt>
      <trkpt lat="23.061089" lon="113.28036">
        <time>2026-09-02T22:10:00Z</time>
      </trkpt>
      <trkpt lat="23.061017" lon="113.280527">
        <time>2026-09-02T22:10:05Z</time>
      </trkpt>
      <trkpt lat="23.060942" lon="113.280685">
        <time>2026-09-02T22:10:10Z</time>
      </trkpt>
      <trkpt lat="23.060875" lon="113.280845">
        <time>2026-09-02T22:10:15Z</time>
      </trkpt>
      <trkpt lat="23.060811" lon="113.281001">
        <time>2026-09-02T22:10:20Z</time>
      </trkpt>
      <trkpt lat="23.060751" lon="113.281152">
        <time>2026-09-02T22:10:25Z</time>
      </trkpt>
      <trkpt lat="23.060691" lon="113.281309">
        <time>2026-09-02T22:10:30Z</time>
      </trkpt>
      <trkpt lat="23.060631" lon="113.281468">
        <time>2026-09-02T22:10:35Z</time>
      </trkpt>
      <trkpt lat="23.060555" lon="113.28163">
        <time>2026-09-02T22:10:40Z</time>
      </trkpt>
      <trkpt lat="23.060493" lon="113.281803">
        <time>2026-09-02T22:10:45Z</time>
      </trkpt>
      <trkpt lat="23.060429" lon="113.281975">
        <time>2026-09-02T22:10:50Z</time>
      </trkpt>
      <trkpt lat="23.060359" lon="113.282136">
        <time>2026-09-02T22:10:55Z</time>
      </trkpt>
      <trkpt lat="23.060286" lon="113.282299">
        <time>2026-09-02T22:11:00Z</time>
      </trkpt>
      <trkpt lat="23.060213" lon="113.282463">
        <time>2026-09-02T22:11:05Z</time>
      </trkpt>
      <trkpt lat="23.060132" lon="113.282615">
        <time>2026-09-02T22:11:10Z</time>
      </trkpt>
      <trkpt lat="23.06006" lon="113.282766">
        <time>2026-09-02T22:11:15Z</time>
      </trkpt>
      <trkpt lat="23.059995" lon="113.282925">
        <time>2026-09-02T22:11:20Z</time>
      </trkpt>
      <trkpt lat="23.059928" lon="113.283087">
        <time>2026-09-02T22:11:25Z</time>
      </trkpt>
      <trkpt lat="23.059857" lon="113.283253">
        <time>2026-09-02T22:11:30Z</time>
      </trkpt>
      <trkpt lat="23.059836" lon="113.283394">
        <time>2026-09-02T22:11:35Z</time>
      </trkpt>
      <trkpt lat="23.059919" lon="113.283378">
        <time>2026-09-02T22:11:40Z</time>
      </trkpt>
      <trkpt lat="23.06" lon="113.283224">
        <time>2026-09-02T22:11:45Z</time>
      </trkpt>
      <trkpt lat="23.060074" lon="113.283058">
        <time>2026-09-02T22:11:50Z</time>
      </trkpt>
      <trkpt lat="23.060142" lon="113.2829">
        <time>2026-09-02T22:11:55Z</time>
      </trkpt>
      <trkpt lat="23.060205" lon="113.282748">
        <time>2026-09-02T22:12:00Z</time>
      </trkpt>
      <trkpt lat="23.060273" lon="113.282595">
        <time>2026-09-02T22:12:05Z</time>
      </trkpt>
      <trkpt lat="23.060338" lon="113.28245">
        <time>2026-09-02T22:12:10Z</time>
      </trkpt>
      <trkpt lat="23.060407" lon="113.282305">
        <time>2026-09-02T22:12:15Z</time>
      </trkpt>
      <trkpt lat="23.060475" lon="113.282148">
        <time>2026-09-02T22:12:20Z</time>
      </trkpt>
      <trkpt lat="23.060538" lon="113.281995">
        <time>2026-09-02T22:12:25Z</time>
      </trkpt>
      <trkpt lat="23.060611" lon="113.281835">
        <time>2026-09-02T22:12:30Z</time>
      </trkpt>
      <trkpt lat="23.060694" lon="113.281672">
        <time>2026-09-02T22:12:35Z</time>
      </trkpt>
      <trkpt lat="23.060767" lon="113.281521">
        <time>2026-09-02T22:12:40Z</time>
      </trkpt>
      <trkpt lat="23.060836" lon="113.281367">
        <time>2026-09-02T22:12:45Z</time>
      </trkpt>
      <trkpt lat="23.0609" lon="113.281207">
        <time>2026-09-02T22:12:50Z</time>
      </trkpt>
      <trkpt lat="23.060971" lon="113.281045">
        <time>2026-09-02T22:12:55Z</time>
      </trkpt>
      <trkpt lat="23.06104" lon="113.280885">
        <time>2026-09-02T22:13:00Z</time>
      </trkpt>
      <trkpt lat="23.061106" lon="113.280728">
        <time>2026-09-02T22:13:05Z</time>
      </trkpt>
      <trkpt lat="23.061177" lon="113.280574">
        <time>2026-09-02T22:13:10Z</time>
      </trkpt>
      <trkpt lat="23.061243" lon="113.28042">
        <time>2026-09-02T22:13:15Z</time>
      </trkpt>
      <trkpt lat="23.061303" lon="113.280271">
        <time>2026-09-02T22:13:20Z</time>
      </trkpt>
      <trkpt lat="23.061375" lon="113.280125">
        <time>2026-09-02T22:13:25Z</time>
      </trkpt>
      <trkpt lat="23.061446" lon="113.279969">
        <time>2026-09-02T22:13:30Z</time>
      </trkpt>
      <trkpt lat="23.061505" lon="113.279808">
        <time>2026-09-02T22:13:35Z</time>
      </trkpt>
      <trkpt lat="23.061568" lon="113.279642">
        <time>2026-09-02T22:13:40Z</time>
      </trkpt>
      <trkpt lat="23.061632" lon="113.279472">
        <time>2026-09-02T22:13:45Z</time>
      </trkpt>
      <trkpt lat="23.061701" lon="113.279306">
        <time>2026-09-02T22:13:50Z</time>
      </trkpt>
      <trkpt lat="23.061772" lon="113.279149">
        <time>2026-09-02T22:13:55Z</time>
      </trkpt>
      <trkpt lat="23.061867" lon="113.279">
        <time>2026-09-02T22:14:00Z</time>
      </trkpt>
      <trkpt lat="23.061964" lon="113.27884">
        <time>2026-09-02T22:14:05Z</time>
      </trkpt>
      <trkpt lat="23.062007" lon="113.278644">
        <time>2026-09-02T22:14:10Z</time>
      </trkpt>
      <trkpt lat="23.061996" lon="113.278431">
        <time>2026-09-02T22:14:15Z</time>
      </trkpt>
      <trkpt lat="23.06198" lon="113.278225">
        <time>2026-09-02T22:14:20Z</time>
      </trkpt>
      <trkpt lat="23.061965" lon="113.278033">
        <time>2026-09-02T22:14:25Z</time>
      </trkpt>
      <trkpt lat="23.061956" lon="113.277848">
        <time>2026-09-02T22:14:30Z</time>
      </trkpt>
      <trkpt lat="23.061981" lon="113.277664">
        <time>2026-09-02T22:14:35Z</time>
      </trkpt>
      <trkpt lat="23.062041" lon="113.277487">
        <time>2026-09-02T22:14:40Z</time>
      </trkpt>
      <trkpt lat="23.062104" lon="113.277321">
        <time>2026-09-02T22:14:45Z</time>
      </trkpt>
      <trkpt lat="23.062166" lon="113.277158">
        <time>2026-09-02T22:14:50Z</time>
      </trkpt>
      <trkpt lat="23.062229" lon="113.276996">
        <time>2026-09-02T22:14:55Z</time>
      </trkpt>
      <trkpt lat="23.062295" lon="113.276838">
        <time>2026-09-02T22:15:00Z</time>
      </trkpt>
      <trkpt lat="23.062358" lon="113.276682">
        <time>2026-09-02T22:15:05Z</time>
      </trkpt>
      <trkpt lat="23.062421" lon="113.276524">
        <time>2026-09-02T22:15:10Z</time>
      </trkpt>
      <trkpt lat="23.062477" lon="113.276365">
        <time>2026-09-02T22:15:15Z</time>
      </trkpt>
      <trkpt lat="23.062538" lon="113.276208">
        <time>2026-09-02T22:15:20Z</time>
      </trkpt>
      <trkpt lat="23.062617" lon="113.276056">
        <time>2026-09-02T22:15:25Z</time>
      </trkpt>
      <trkpt lat="23.062709" lon="113.275916">
        <time>2026-09-02T22:15:30Z</time>
      </trkpt>
      <trkpt lat="23.062815" lon="113.27579">
        <time>2026-09-02T22:15:35Z</time>
      </trkpt>
      <trkpt lat="23.062936" lon="113.275672">
        <time>2026-09-02T22:15:40Z</time>
      </trkpt>
      <trkpt lat="23.06305" lon="113.27555">
        <time>2026-09-02T22:15:45Z</time>
      </trkpt>
      <trkpt lat="23.063141" lon="113.275418">
        <time>2026-09-02T22:15:50Z</time>
      </trkpt>
      <trkpt lat="23.063226" lon="113.275276">
        <time>2026-09-02T22:15:55Z</time>
      </trkpt>
      <trkpt lat="23.063311" lon="113.275131">
        <time>2026-09-02T22:16:00Z</time>
      </trkpt>
      <trkpt lat="23.063387" lon="113.274978">
        <time>2026-09-02T22:16:05Z</time>
      </trkpt>
      <trkpt lat="23.063442" lon="113.274824">
        <time>2026-09-02T22:16:10Z</time>
      </trkpt>
      <trkpt lat="23.063493" lon="113.274676">
        <time>2026-09-02T22:16:15Z</time>
      </trkpt>
      <trkpt lat="23.06355" lon="113.274515">
        <time>2026-09-02T22:16:20Z</time>
      </trkpt>
      <trkpt lat="23.063608" lon="113.27436">
        <time>2026-09-02T22:16:25Z</time>
      </trkpt>
      <trkpt lat="23.063696" lon="113.27423">
        <time>2026-09-02T22:16:30Z</time>
      </trkpt>
      <trkpt lat="23.063816" lon="113.274129">
        <time>2026-09-02T22:16:35Z</time>
      </trkpt>
      <trkpt lat="23.063915" lon="113.274003">
        <time>2026-09-02T22:16:40Z</time>
      </trkpt>
      <trkpt lat="23.063993" lon="113.273859">
        <time>2026-09-02T22:16:45Z</time>
      </trkpt>
      <trkpt lat="23.064095" lon="113.273714">
        <time>2026-09-02T22:16:50Z</time>
      </trkpt>
      <trkpt lat="23.064218" lon="113.273611">
        <time>2026-09-02T22:16:55Z</time>
      </trkpt>
      <trkpt lat="23.064345" lon="113.273514">
        <time>2026-09-02T22:17:00Z</time>
      </trkpt>
      <trkpt lat="23.064467" lon="113.273411">
        <time>2026-09-02T22:17:05Z</time>
      </trkpt>
      <trkpt lat="23.06456" lon="113.273272">
        <time>2026-09-02T22:17:10Z</time>
      </trkpt>
      <trkpt lat="23.064586" lon="113.27309">
        <time>2026-09-02T22:17:15Z</time>
      </trkpt>
      <trkpt lat="23.064545" lon="113.272907">
        <time>2026-09-02T22:17:20Z</time>
      </trkpt>
      <trkpt lat="23.064491" lon="113.272733">
        <time>2026-09-02T22:17:25Z</time>
      </trkpt>
      <trkpt lat="23.064474" lon="113.27256">
        <time>2026-09-02T22:17:30Z</time>
      </trkpt>
      <trkpt lat="23.064526" lon="113.272393">
        <time>2026-09-02T22:17:35Z</time>
      </trkpt>
      <trkpt lat="23.064577" lon="113.272228">
        <time>2026-09-02T22:17:40Z</time>
      </trkpt>
      <trkpt lat="23.064644" lon="113.272071">
        <time>2026-09-02T22:17:45Z</time>
      </trkpt>
      <trkpt lat="23.06472" lon="113.271924">
        <time>2026-09-02T22:17:50Z</time>
      </trkpt>
      <trkpt lat="23.064781" lon="113.271778">
        <time>2026-09-02T22:17:55Z</time>
      </trkpt>
      <trkpt lat="23.064836" lon="113.271629">
        <time>2026-09-02T22:18:00Z</time>
      </trkpt>
      <trkpt lat="23.064913" lon="113.271472">
        <time>2026-09-02T22:18:05Z</time>
      </trkpt>
      <trkpt lat="23.064998" lon="113.271317">
        <time>2026-09-02T22:18:10Z</time>
      </trkpt>
      <trkpt lat="23.065073" lon="113.271161">
        <time>2026-09-02T22:18:15Z</time>
      </trkpt>
      <trkpt lat="23.065145" lon="113.270998">
        <time>2026-09-02T22:18:20Z</time>
      </trkpt>
      <trkpt lat="23.065218" lon="113.27084">
        <time>2026-09-02T22:18:25Z</time>
      </trkpt>
      <trkpt lat="23.065292" lon="113.27068">
        <time>2026-09-02T22:18:30Z</time>
      </trkpt>
      <trkpt lat="23.065371" lon="113.270516">
        <time>2026-09-02T22:18:35Z</time>
      </trkpt>
      <trkpt lat="23.065448" lon="113.270353">
        <time>2026-09-02T22:18:40Z</time>
      </trkpt>
      <trkpt lat="23.065515" lon="113.270199">
        <time>2026-09-02T22:18:45Z</time>
      </trkpt>
      <trkpt lat="23.065576" lon="113.27004">
        <time>2026-09-02T22:18:50Z</time>
      </trkpt>
      <trkpt lat="23.065635" lon="113.269881">
        <time>2026-09-02T22:18:55Z</time>
      </trkpt>
      <trkpt lat="23.065672" lon="113.26972">
        <time>2026-09-02T22:19:00Z</time>
      </trkpt>
      <trkpt lat="23.065712" lon="113.269558">
        <time>2026-09-02T22:19:05Z</time>
      </trkpt>
      <trkpt lat="23.065765" lon="113.269391">
        <time>2026-09-02T22:19:10Z</time>
      </trkpt>
      <trkpt lat="23.06581" lon="113.269214">
        <time>2026-09-02T22:19:15Z</time>
      </trkpt>
      <trkpt lat="23.065867" lon="113.269046">
        <time>2026-09-02T22:19:20Z</time>
      </trkpt>
      <trkpt lat="23.065934" lon="113.268889">
        <time>2026-09-02T22:19:25Z</time>
      </trkpt>
      <trkpt lat="23.066006" lon="113.268738">
        <time>2026-09-02T22:19:30Z</time>
      </trkpt>
      <trkpt lat="23.066085" lon="113.268596">
        <time>2026-09-02T22:19:35Z</time>
      </trkpt>
      <trkpt lat="23.066172" lon="113.268459">
        <time>2026-09-02T22:19:40Z</time>
      </trkpt>
      <trkpt lat="23.066264" lon="113.268326">
        <time>2026-09-02T22:19:45Z</time>
      </trkpt>
      <trkpt lat="23.066371" lon="113.268205">
        <time>2026-09-02T22:19:50Z</time>
      </trkpt>
      <trkpt lat="23.066516" lon="113.268141">
        <time>2026-09-02T22:19:55Z</time>
      </trkpt>
      <trkpt lat="23.066668" lon="113.26814">
        <time>2026-09-02T22:20:00Z</time>
      </trkpt>
      <trkpt lat="23.066704" lon="113.26804">
        <time>2026-09-02T22:20:05Z</time>
      </trkpt>
      <trkpt lat="23.06655" lon="113.267964">
        <time>2026-09-02T22:20:10Z</time>
      </trkpt>
      <trkpt lat="23.066365" lon="113.267963">
        <time>2026-09-02T22:20:15Z</time>
      </trkpt>
      <trkpt lat="23.066207" lon="113.268036">
        <time>2026-09-02T22:20:20Z</time>
      </trkpt>
      <trkpt lat="23.066087" lon="113.26817">
        <time>2026-09-02T22:20:25Z</time>
      </trkpt>
      <trkpt lat="23.065993" lon="113.268315">
        <time>2026-09-02T22:20:30Z</time>
      </trkpt>
      <trkpt lat="23.0659" lon="113.268453">
        <time>2026-09-02T22:20:35Z</time>
      </trkpt>
      <trkpt lat="23.065814" lon="113.268599">
        <time>2026-09-02T22:20:40Z</time>
      </trkpt>
      <trkpt lat="23.065741" lon="113.268757">
        <time>2026-09-02T22:20:45Z</time>
      </trkpt>
      <trkpt lat="23.065677" lon="113.26892">
        <time>2026-09-02T22:20:50Z</time>
      </trkpt>
      <trkpt lat="23.065628" lon="113.269091">
        <time>2026-09-02T22:20:55Z</time>
      </trkpt>
      <trkpt lat="23.06559" lon="113.269263">
        <time>2026-09-02T22:21:00Z</time>
      </trkpt>
      <trkpt lat="23.065555" lon="113.269433">
        <time>2026-09-02T22:21:05Z</time>
      </trkpt>
      <trkpt lat="23.065503" lon="113.269602">
        <time>2026-09-02T22:21:10Z</time>
      </trkpt>
      <trkpt lat="23.065456" lon="113.269779">
        <time>2026-09-02T22:21:15Z</time>
      </trkpt>
      <trkpt lat="23.065403" lon="113.269948">
        <time>2026-09-02T22:21:20Z</time>
      </trkpt>
      <trkpt lat="23.065344" lon="113.270113">
        <time>2026-09-02T22:21:25Z</time>
      </trkpt>
      <trkpt lat="23.065272" lon="113.270272">
        <time>2026-09-02T22:21:30Z</time>
      </trkpt>
      <trkpt lat="23.065191" lon="113.270432">
        <time>2026-09-02T22:21:35Z</time>
      </trkpt>
      <trkpt lat="23.065108" lon="113.270595">
        <time>2026-09-02T22:21:40Z</time>
      </trkpt>
      <trkpt lat="23.065029" lon="113.270758">
        <time>2026-09-02T22:21:45Z</time>
      </trkpt>
      <trkpt lat="23.064958" lon="113.270915">
        <time>2026-09-02T22:21:50Z</time>
      </trkpt>
      <trkpt lat="23.064883" lon="113.271069">
        <time>2026-09-02T22:21:55Z</time>
      </trkpt>
      <trkpt lat="23.064806" lon="113.271227">
        <time>2026-09-02T22:22:00Z</time>
      </trkpt>
      <trkpt lat="23.06473" lon="113.271388">
        <time>2026-09-02T22:22:05Z</time>
      </trkpt>
      <trkpt lat="23.064659" lon="113.271552">
        <time>2026-09-02T22:22:10Z</time>
      </trkpt>
      <trkpt lat="23.064588" lon="113.271717">
        <time>2026-09-02T22:22:15Z</time>
      </trkpt>
      <trkpt lat="23.064516" lon="113.271882">
        <time>2026-09-02T22:22:20Z</time>
      </trkpt>
      <trkpt lat="23.064447" lon="113.272047">
        <time>2026-09-02T22:22:25Z</time>
      </trkpt>
      <trkpt lat="23.064378" lon="113.272208">
        <time>2026-09-02T22:22:30Z</time>
      </trkpt>
      <trkpt lat="23.064357" lon="113.272376">
        <time>2026-09-02T22:22:35Z</time>
      </trkpt>
      <trkpt lat="23.064352" lon="113.272547">
        <time>2026-09-02T22:22:40Z</time>
      </trkpt>
      <trkpt lat="23.064377" lon="113.27272">
        <time>2026-09-02T22:22:45Z</time>
      </trkpt>
      <trkpt lat="23.064439" lon="113.272881">
        <time>2026-09-02T22:22:50Z</time>
      </trkpt>
      <trkpt lat="23.064493" lon="113.273038">
        <time>2026-09-02T22:22:55Z</time>
      </trkpt>
      <trkpt lat="23.064511" lon="113.273196">
        <time>2026-09-02T22:23:00Z</time>
      </trkpt>
      <trkpt lat="23.064435" lon="113.273338">
        <time>2026-09-02T22:23:05Z</time>
      </trkpt>
      <trkpt lat="23.064296" lon="113.273437">
        <time>2026-09-02T22:23:10Z</time>
      </trkpt>
      <trkpt lat="23.064154" lon="113.273534">
        <time>2026-09-02T22:23:15Z</time>
      </trkpt>
      <trkpt lat="23.064018" lon="113.273638">
        <time>2026-09-02T22:23:20Z</time>
      </trkpt>
      <trkpt lat="23.063905" lon="113.273759">
        <time>2026-09-02T22:23:25Z</time>
      </trkpt>
      <trkpt lat="23.063821" lon="113.273905">
        <time>2026-09-02T22:23:30Z</time>
      </trkpt>
      <trkpt lat="23.063737" lon="113.274055">
        <time>2026-09-02T22:23:35Z</time>
      </trkpt>
      <trkpt lat="23.063629" lon="113.274169">
        <time>2026-09-02T22:23:40Z</time>
      </trkpt>
      <trkpt lat="23.063534" lon="113.27429">
        <time>2026-09-02T22:23:45Z</time>
      </trkpt>
      <trkpt lat="23.063468" lon="113.274451">
        <time>2026-09-02T22:23:50Z</time>
      </trkpt>
      <trkpt lat="23.063415" lon="113.27461">
        <time>2026-09-02T22:23:55Z</time>
      </trkpt>
      <trkpt lat="23.063355" lon="113.274772">
        <time>2026-09-02T22:24:00Z</time>
      </trkpt>
      <trkpt lat="23.063299" lon="113.274942">
        <time>2026-09-02T22:24:05Z</time>
      </trkpt>
      <trkpt lat="23.063227" lon="113.275106">
        <time>2026-09-02T22:24:10Z</time>
      </trkpt>
      <trkpt lat="23.063146" lon="113.27526">
        <time>2026-09-02T22:24:15Z</time>
      </trkpt>
      <trkpt lat="23.063058" lon="113.275407">
        <time>2026-09-02T22:24:20Z</time>
      </trkpt>
      <trkpt lat="23.062955" lon="113.275549">
        <time>2026-09-02T22:24:25Z</time>
      </trkpt>
      <trkpt lat="23.062828" lon="113.275679">
        <time>2026-09-02T22:24:30Z</time>
      </trkpt>
      <trkpt lat="23.062703" lon="113.275804">
        <time>2026-09-02T22:24:35Z</time>
      </trkpt>
      <trkpt lat="23.0626" lon="113.275939">
        <time>2026-09-02T22:24:40Z</time>
      </trkpt>
      <trkpt lat="23.062507" lon="113.276091">
        <time>2026-09-02T22:24:45Z</time>
      </trkpt>
      <trkpt lat="23.062429" lon="113.276253">
        <time>2026-09-02T22:24:50Z</time>
      </trkpt>
      <trkpt lat="23.062367" lon="113.276419">
        <time>2026-09-02T22:24:55Z</time>
      </trkpt>
      <trkpt lat="23.062309" lon="113.276588">
        <time>2026-09-02T22:25:00Z</time>
      </trkpt>
      <trkpt lat="23.06225" lon="113.276751">
        <time>2026-09-02T22:25:05Z</time>
      </trkpt>
      <trkpt lat="23.062187" lon="113.276919">
        <time>2026-09-02T22:25:10Z</time>
      </trkpt>
      <trkpt lat="23.062124" lon="113.27709">
        <time>2026-09-02T22:25:15Z</time>
      </trkpt>
      <trkpt lat="23.062059" lon="113.277264">
        <time>2026-09-02T22:25:20Z</time>
      </trkpt>
      <trkpt lat="23.061991" lon="113.277439">
        <time>2026-09-02T22:25:25Z</time>
      </trkpt>
      <trkpt lat="23.06192" lon="113.277608">
        <time>2026-09-02T22:25:30Z</time>
      </trkpt>
      <trkpt lat="23.06186" lon="113.277783">
        <time>2026-09-02T22:25:35Z</time>
      </trkpt>
      <trkpt lat="23.06185" lon="113.277958">
        <time>2026-09-02T22:25:40Z</time>
      </trkpt>
      <trkpt lat="23.06185" lon="113.278124">
        <time>2026-09-02T22:25:45Z</time>
      </trkpt>
      <trkpt lat="23.061857" lon="113.278292">
        <time>2026-09-02T22:25:50Z</time>
      </trkpt>
      <trkpt lat="23.061871" lon="113.278465">
        <time>2026-09-02T22:25:55Z</time>
      </trkpt>
      <trkpt lat="23.061865" lon="113.278638">
        <time>2026-09-02T22:26:00Z</time>
      </trkpt>
      <trkpt lat="23.061805" lon="113.278755">
        <time>2026-09-02T22:26:05Z</time>
      </trkpt>
      <trkpt lat="23.061717" lon="113.278852">
        <time>2026-09-02T22:26:10Z</time>
      </trkpt>
      <trkpt lat="23.06166" lon="113.279013">
        <time>2026-09-02T22:26:15Z</time>
      </trkpt>
      <trkpt lat="23.061596" lon="113.279173">
        <time>2026-09-02T22:26:20Z</time>
      </trkpt>
      <trkpt lat="23.061528" lon="113.279333">
        <time>2026-09-02T22:26:25Z</time>
      </trkpt>
      <trkpt lat="23.061455" lon="113.279498">
        <time>2026-09-02T22:26:30Z</time>
      </trkpt>
      <trkpt lat="23.061383" lon="113.279664">
        <time>2026-09-02T22:26:35Z</time>
      </trkpt>
      <trkpt lat="23.061312" lon="113.279826">
        <time>2026-09-02T22:26:40Z</time>
      </trkpt>
      <trkpt lat="23.06124" lon="113.279986">
        <time>2026-09-02T22:26:45Z</time>
      </trkpt>
      <trkpt lat="23.061174" lon="113.280146">
        <time>2026-09-02T22:26:50Z</time>
      </trkpt>
      <trkpt lat="23.06111" lon="113.280305">
        <time>2026-09-02T22:26:55Z</time>
      </trkpt>
      <trkpt lat="23.061046" lon="113.280462">
        <time>2026-09-02T22:27:00Z</time>
      </trkpt>
      <trkpt lat="23.060984" lon="113.280614">
        <time>2026-09-02T22:27:05Z</time>
      </trkpt>
      <trkpt lat="23.060919" lon="113.280772">
        <time>2026-09-02T22:27:10Z</time>
      </trkpt>
      <trkpt lat="23.060854" lon="113.280936">
        <time>2026-09-02T22:27:15Z</time>
      </trkpt>
      <trkpt lat="23.060794" lon="113.281097">
        <time>2026-09-02T22:27:20Z</time>
      </trkpt>
      <trkpt lat="23.060729" lon="113.281259">
        <time>2026-09-02T22:27:25Z</time>
      </trkpt>
      <trkpt lat="23.06066" lon="113.281419">
        <time>2026-09-02T22:27:30Z</time>
      </trkpt>
      <trkpt lat="23.060592" lon="113.281581">
        <time>2026-09-02T22:27:35Z</time>
      </trkpt>
      <trkpt lat="23.060521" lon="113.281745">
        <time>2026-09-02T22:27:40Z</time>
      </trkpt>
      <trkpt lat="23.060452" lon="113.281907">
        <time>2026-09-02T22:27:45Z</time>
      </trkpt>
      <trkpt lat="23.060383" lon="113.282062">
        <time>2026-09-02T22:27:50Z</time>
      </trkpt>
      <trkpt lat="23.060316" lon="113.282211">
        <time>2026-09-02T22:27:55Z</time>
      </trkpt>
      <trkpt lat="23.060249" lon="113.282366">
        <time>2026-09-02T22:28:00Z</time>
      </trkpt>
      <trkpt lat="23.060183" lon="113.282521">
        <time>2026-09-02T22:28:05Z</time>
      </trkpt>
      <trkpt lat="23.060111" lon="113.28268">
        <time>2026-09-02T22:28:10Z</time>
      </trkpt>
      <trkpt lat="23.060032" lon="113.282836">
        <time>2026-09-02T22:28:15Z</time>
      </trkpt>
      <trkpt lat="23.059965" lon="113.282998">
        <time>2026-09-02T22:28:20Z</time>
      </trkpt>
      <trkpt lat="23.059888" lon="113.283159">
        <time>2026-09-02T22:28:25Z</time>
      </trkpt>
      <trkpt lat="23.059835" lon="113.283317">
        <time>2026-09-02T22:28:30Z</time>
      </trkpt>
      <trkpt lat="23.059914" lon="113.28338">
        <time>2026-09-02T22:28:35Z</time>
      </trkpt>
      <trkpt lat="23.060012" lon="113.283243">
        <time>2026-09-02T22:28:40Z</time>
      </trkpt>
      <trkpt lat="23.060094" lon="113.283076">
        <time>2026-09-02T22:28:45Z</time>
      </trkpt>
      <trkpt lat="23.060166" lon="113.282911">
        <time>2026-09-02T22:28:50Z</time>
      </trkpt>
      <trkpt lat="23.060241" lon="113.282753">
        <time>2026-09-02T22:28:55Z</time>
      </trkpt>
      <trkpt lat="23.06031" lon="113.282599">
        <time>2026-09-02T22:29:00Z</time>
      </trkpt>
      <trkpt lat="23.060372" lon="113.282454">
        <time>2026-09-02T22:29:05Z</time>
      </trkpt>
      <trkpt lat="23.060431" lon="113.282309">
        <time>2026-09-02T22:29:10Z</time>
      </trkpt>
      <trkpt lat="23.060494" lon="113.282163">
        <time>2026-09-02T22:29:15Z</time>
      </trkpt>
      <trkpt lat="23.060561" lon="113.282015">
        <time>2026-09-02T22:29:20Z</time>
      </trkpt>
      <trkpt lat="23.060623" lon="113.281858">
        <time>2026-09-02T22:29:25Z</time>
      </trkpt>
      <trkpt lat="23.060679" lon="113.281705">
        <time>2026-09-02T22:29:30Z</time>
      </trkpt>
      <trkpt lat="23.060735" lon="113.28155">
        <time>2026-09-02T22:29:35Z</time>
      </trkpt>
      <trkpt lat="23.060797" lon="113.281403">
        <time>2026-09-02T22:29:40Z</time>
      </trkpt>
      <trkpt lat="23.060857" lon="113.281258">
        <time>2026-09-02T22:29:45Z</time>
      </trkpt>
      <trkpt lat="23.060919" lon="113.281106">
        <time>2026-09-02T22:29:50Z</time>
      </trkpt>
      <trkpt lat="23.060983" lon="113.28095">
        <time>2026-09-02T22:29:55Z</time>
      </trkpt>
      <trkpt lat="23.061051" lon="113.280796">
        <time>2026-09-02T22:30:00Z</time>
      </trkpt>
      <trkpt lat="23.061121" lon="113.28064">
        <time>2026-09-02T22:30:05Z</time>
      </trkpt>
      <trkpt lat="23.061191" lon="113.280492">
        <time>2026-09-02T22:30:10Z</time>
      </trkpt>
      <trkpt lat="23.061253" lon="113.280347">
        <time>2026-09-02T22:30:15Z</time>
      </trkpt>
      <trkpt lat="23.061315" lon="113.280202">
        <time>2026-09-02T22:30:20Z</time>
      </trkpt>
      <trkpt lat="23.061383" lon="113.280058">
        <time>2026-09-02T22:30:25Z</time>
      </trkpt>
      <trkpt lat="23.061449" lon="113.279915">
        <time>2026-09-02T22:30:30Z</time>
      </trkpt>
      <trkpt lat="23.061508" lon="113.279766">
        <time>2026-09-02T22:30:35Z</time>
      </trkpt>
      <trkpt lat="23.061563" lon="113.279611">
        <time>2026-09-02T22:30:40Z</time>
      </trkpt>
      <trkpt lat="23.061618" lon="113.279455">
        <time>2026-09-02T22:30:45Z</time>
      </trkpt>
      <trkpt lat="23.061678" lon="113.279301">
        <time>2026-09-02T22:30:50Z</time>
      </trkpt>
      <trkpt lat="23.061747" lon="113.279154">
        <time>2026-09-02T22:30:55Z</time>
      </trkpt>
      <trkpt lat="23.06183" lon="113.27902">
        <time>2026-09-02T22:31:00Z</time>
      </trkpt>
      <trkpt lat="23.061911" lon="113.278885">
        <time>2026-09-02T22:31:05Z</time>
      </trkpt>
      <trkpt lat="23.061963" lon="113.278728">
        <time>2026-09-02T22:31:10Z</time>
      </trkpt>
      <trkpt lat="23.061973" lon="113.278557">
        <time>2026-09-02T22:31:15Z</time>
      </trkpt>
      <trkpt lat="23.061968" lon="113.278384">
        <time>2026-09-02T22:31:20Z</time>
      </trkpt>
      <trkpt lat="23.061962" lon="113.278212">
        <time>2026-09-02T22:31:25Z</time>
      </trkpt>
      <trkpt lat="23.061956" lon="113.278041">
        <time>2026-09-02T22:31:30Z</time>
      </trkpt>
      <trkpt lat="23.061949" lon="113.277864">
        <time>2026-09-02T22:31:35Z</time>
      </trkpt>
      <trkpt lat="23.061972" lon="113.277689">
        <time>2026-09-02T22:31:40Z</time>
      </trkpt>
      <trkpt lat="23.062028" lon="113.277522">
        <time>2026-09-02T22:31:45Z</time>
      </trkpt>
      <trkpt lat="23.062091" lon="113.277361">
        <time>2026-09-02T22:31:50Z</time>
      </trkpt>
      <trkpt lat="23.062154" lon="113.277203">
        <time>2026-09-02T22:31:55Z</time>
      </trkpt>
      <trkpt lat="23.062203" lon="113.277051">
        <time>2026-09-02T22:32:00Z</time>
      </trkpt>
      <trkpt lat="23.062258" lon="113.276898">
        <time>2026-09-02T22:32:05Z</time>
      </trkpt>
      <trkpt lat="23.062318" lon="113.276735">
        <time>2026-09-02T22:32:10Z</time>
      </trkpt>
      <trkpt lat="23.062376" lon="113.276571">
        <time>2026-09-02T22:32:15Z</time>
      </trkpt>
      <trkpt lat="23.062432" lon="113.276411">
        <time>2026-09-02T22:32:20Z</time>
      </trkpt>
      <trkpt lat="23.062496" lon="113.276249">
        <time>2026-09-02T22:32:25Z</time>
      </trkpt>
      <trkpt lat="23.062575" lon="113.276097">
        <time>2026-09-02T22:32:30Z</time>
      </trkpt>
      <trkpt lat="23.062672" lon="113.275959">
        <time>2026-09-02T22:32:35Z</time>
      </trkpt>
      <trkpt lat="23.062779" lon="113.275834">
        <time>2026-09-02T22:32:40Z</time>
      </trkpt>
      <trkpt lat="23.062903" lon="113.275725">
        <time>2026-09-02T22:32:45Z</time>
      </trkpt>
      <trkpt lat="23.063027" lon="113.275605">
        <time>2026-09-02T22:32:50Z</time>
      </trkpt>
      <trkpt lat="23.063116" lon="113.275468">
        <time>2026-09-02T22:32:55Z</time>
      </trkpt>
      <trkpt lat="23.063193" lon="113.275323">
        <time>2026-09-02T22:33:00Z</time>
      </trkpt>
      <trkpt lat="23.06327" lon="113.275174">
        <time>2026-09-02T22:33:05Z</time>
      </trkpt>
      <trkpt lat="23.063345" lon="113.275023">
        <time>2026-09-02T22:33:10Z</time>
      </trkpt>
      <trkpt lat="23.063397" lon="113.274866">
        <time>2026-09-02T22:33:15Z</time>
      </trkpt>
      <trkpt lat="23.063441" lon="113.274708">
        <time>2026-09-02T22:33:20Z</time>
      </trkpt>
      <trkpt lat="23.06349" lon="113.274545">
        <time>2026-09-02T22:33:25Z</time>
      </trkpt>
      <trkpt lat="23.063555" lon="113.27439">
        <time>2026-09-02T22:33:30Z</time>
      </trkpt>
      <trkpt lat="23.06365" lon="113.274258">
        <time>2026-09-02T22:33:35Z</time>
      </trkpt>
      <trkpt lat="23.06376" lon="113.27417">
        <time>2026-09-02T22:33:40Z</time>
      </trkpt>
      <trkpt lat="23.063842" lon="113.27405">
        <time>2026-09-02T22:33:45Z</time>
      </trkpt>
      <trkpt lat="23.063934" lon="113.273891">
        <time>2026-09-02T22:33:50Z</time>
      </trkpt>
      <trkpt lat="23.064041" lon="113.273745">
        <time>2026-09-02T22:33:55Z</time>
      </trkpt>
      <trkpt lat="23.064172" lon="113.273626">
        <time>2026-09-02T22:34:00Z</time>
      </trkpt>
      <trkpt lat="23.064303" lon="113.273526">
        <time>2026-09-02T22:34:05Z</time>
      </trkpt>
      <trkpt lat="23.064427" lon="113.273421">
        <time>2026-09-02T22:34:10Z</time>
      </trkpt>
      <trkpt lat="23.064538" lon="113.273291">
        <time>2026-09-02T22:34:15Z</time>
      </trkpt>
      <trkpt lat="23.064581" lon="113.273127">
        <time>2026-09-02T22:34:20Z</time>
      </trkpt>
      <trkpt lat="23.064549" lon="113.272955">
        <time>2026-09-02T22:34:25Z</time>
      </trkpt>
      <trkpt lat="23.06449" lon="113.272791">
        <time>2026-09-02T22:34:30Z</time>
      </trkpt>
      <trkpt lat="23.064451" lon="113.272631">
        <time>2026-09-02T22:34:35Z</time>
      </trkpt>
      <trkpt lat="23.064482" lon="113.272465">
        <time>2026-09-02T22:34:40Z</time>
      </trkpt>
      <trkpt lat="23.064537" lon="113.272298">
        <time>2026-09-02T22:34:45Z</time>
      </trkpt>
      <trkpt lat="23.064591" lon="113.272141">
        <time>2026-09-02T22:34:50Z</time>
      </trkpt>
      <trkpt lat="23.064661" lon="113.272004">
        <time>2026-09-02T22:34:55Z</time>
      </trkpt>
      <trkpt lat="23.064728" lon="113.271866">
        <time>2026-09-02T22:35:00Z</time>
      </trkpt>
      <trkpt lat="23.06479" lon="113.271721">
        <time>2026-09-02T22:35:05Z</time>
      </trkpt>
      <trkpt lat="23.064858" lon="113.271564">
        <time>2026-09-02T22:35:10Z</time>
      </trkpt>
      <trkpt lat="23.064952" lon="113.271398">
        <time>2026-09-02T22:35:15Z</time>
      </trkpt>
      <trkpt lat="23.065026" lon="113.271231">
        <time>2026-09-02T22:35:20Z</time>
      </trkpt>
      <trkpt lat="23.065091" lon="113.271074">
        <time>2026-09-02T22:35:25Z</time>
      </trkpt>
      <trkpt lat="23.065158" lon="113.270919">
        <time>2026-09-02T22:35:30Z</time>
      </trkpt>
      <trkpt lat="23.065227" lon="113.270759">
        <time>2026-09-02T22:35:35Z</time>
      </trkpt>
      <trkpt lat="23.065297" lon="113.270604">
        <time>2026-09-02T22:35:40Z</time>
      </trkpt>
      <trkpt lat="23.06537" lon="113.270446">
        <time>2026-09-02T22:35:45Z</time>
      </trkpt>
      <trkpt lat="23.065441" lon="113.27029">
        <time>2026-09-02T22:35:50Z</time>
      </trkpt>
      <trkpt lat="23.065513" lon="113.270132">
        <time>2026-09-02T22:35:55Z</time>
      </trkpt>
      <trkpt lat="23.065577" lon="113.269975">
        <time>2026-09-02T22:36:00Z</time>
      </trkpt>
      <trkpt lat="23.065626" lon="113.26982">
        <time>2026-09-02T22:36:05Z</time>
      </trkpt>
      <trkpt lat="23.065661" lon="113.269657">
        <time>2026-09-02T22:36:10Z</time>
      </trkpt>
      <trkpt lat="23.065694" lon="113.269494">
        <time>2026-09-02T22:36:15Z</time>
      </trkpt>
      <trkpt lat="23.065742" lon="113.269335">
        <time>2026-09-02T22:36:20Z</time>
      </trkpt>
      <trkpt lat="23.065798" lon="113.26917">
        <time>2026-09-02T22:36:25Z</time>
      </trkpt>
      <trkpt lat="23.065866" lon="113.269013">
        <time>2026-09-02T22:36:30Z</time>
      </trkpt>
      <trkpt lat="23.065932" lon="113.268874">
        <time>2026-09-02T22:36:35Z</time>
      </trkpt>
      <trkpt lat="23.065993" lon="113.268735">
        <time>2026-09-02T22:36:40Z</time>
      </trkpt>
      <trkpt lat="23.066064" lon="113.268596">
        <time>2026-09-02T22:36:45Z</time>
      </trkpt>
      <trkpt lat="23.06614" lon="113.268463">
        <time>2026-09-02T22:36:50Z</time>
      </trkpt>
      <trkpt lat="23.06622" lon="113.268334">
        <time>2026-09-02T22:36:55Z</time>
      </trkpt>
      <trkpt lat="23.066314" lon="113.268218">
        <time>2026-09-02T22:37:00Z</time>
      </trkpt>
      <trkpt lat="23.06645" lon="113.268142">
        <time>2026-09-02T22:37:05Z</time>
      </trkpt>
      <trkpt lat="23.066609" lon="113.268139">
        <time>2026-09-02T22:37:10Z</time>
      </trkpt>
      <trkpt lat="23.06677" lon="113.268139">
        <time>2026-09-02T22:37:15Z</time>
      </trkpt>
      <trkpt lat="23.066932" lon="113.268144">
        <time>2026-09-02T22:37:20Z</time>
      </trkpt>
      <trkpt lat="23.06708" lon="113.268195">
        <time>2026-09-02T22:37:25Z</time>
      </trkpt>
      <trkpt lat="23.067201" lon="113.268271">
        <time>2026-09-02T22:37:30Z</time>
      </trkpt>
      <trkpt lat="23.067324" lon="113.268348">
        <time>2026-09-02T22:37:35Z</time>
      </trkpt>
      <trkpt lat="23.067446" lon="113.268431">
        <time>2026-09-02T22:37:40Z</time>
      </trkpt>
      <trkpt lat="23.067568" lon="113.268513">
        <time>2026-09-02T22:37:45Z</time>
      </trkpt>
      <trkpt lat="23.06771" lon="113.26859">
        <time>2026-09-02T22:37:50Z</time>
      </trkpt>
      <trkpt lat="23.06786" lon="113.26867">
        <time>2026-09-02T22:37:55Z</time>
      </trkpt>
      <trkpt lat="23.067996" lon="113.268763">
        <time>2026-09-02T22:38:00Z</time>
      </trkpt>
      <trkpt lat="23.06813" lon="113.26882">
        <time>2026-09-02T22:38:05Z</time>
      </trkpt>
      <trkpt lat="23.068256" lon="113.268851">
        <time>2026-09-02T22:38:10Z</time>
      </trkpt>
      <trkpt lat="23.068397" lon="113.268921">
        <time>2026-09-02T22:38:15Z</time>
      </trkpt>
      <trkpt lat="23.068536" lon="113.269024">
        <time>2026-09-02T22:38:20Z</time>
      </trkpt>
      <trkpt lat="23.06865" lon="113.269113">
        <time>2026-09-02T22:38:25Z</time>
      </trkpt>
      <trkpt lat="23.068771" lon="113.269199">
        <time>2026-09-02T22:38:30Z</time>
      </trkpt>
      <trkpt lat="23.068913" lon="113.26925">
        <time>2026-09-02T22:38:35Z</time>
      </trkpt>
      <trkpt lat="23.069062" lon="113.269263">
        <time>2026-09-02T22:38:40Z</time>
      </trkpt>
      <trkpt lat="23.069129" lon="113.269187">
        <time>2026-09-02T22:38:45Z</time>
      </trkpt>
      <trkpt lat="23.069044" lon="113.269073">
        <time>2026-09-02T22:38:50Z</time>
      </trkpt>
      <trkpt lat="23.068922" lon="113.269007">
        <time>2026-09-02T22:38:55Z</time>
      </trkpt>
      <trkpt lat="23.068808" lon="113.268959">
        <time>2026-09-02T22:39:00Z</time>
      </trkpt>
      <trkpt lat="23.068674" lon="113.268892">
        <time>2026-09-02T22:39:05Z</time>
      </trkpt>
      <trkpt lat="23.068524" lon="113.268824">
        <time>2026-09-02T22:39:10Z</time>
      </trkpt>
      <trkpt lat="23.068374" lon="113.268751">
        <time>2026-09-02T22:39:15Z</time>
      </trkpt>
      <trkpt lat="23.068235" lon="113.268666">
        <time>2026-09-02T22:39:20Z</time>
      </trkpt>
      <trkpt lat="23.068104" lon="113.268593">
        <time>2026-09-02T22:39:25Z</time>
      </trkpt>
      <trkpt lat="23.067958" lon="113.268539">
        <time>2026-09-02T22:39:30Z</time>
      </trkpt>
      <trkpt lat="23.067802" lon="113.268473">
        <time>2026-09-02T22:39:35Z</time>
      </trkpt>
      <trkpt lat="23.06765" lon="113.268394">
        <time>2026-09-02T22:39:40Z</time>
      </trkpt>
      <trkpt lat="23.067502" lon="113.268326">
        <time>2026-09-02T22:39:45Z</time>
      </trkpt>
      <trkpt lat="23.067354" lon="113.26827">
        <time>2026-09-02T22:39:50Z</time>
      </trkpt>
      <trkpt lat="23.067206" lon="113.268211">
        <time>2026-09-02T22:39:55Z</time>
      </trkpt>
      <trkpt lat="23.067062" lon="113.268146">
        <time>2026-09-02T22:40:00Z</time>
      </trkpt>
      <trkpt lat="23.06691" lon="113.268078">
        <time>2026-09-02T22:40:05Z</time>
      </trkpt>
      <trkpt lat="23.066743" lon="113.268036">
        <time>2026-09-02T22:40:10Z</time>
      </trkpt>
      <trkpt lat="23.066586" lon="113.268">
        <time>2026-09-02T22:40:15Z</time>
      </trkpt>
      <trkpt lat="23.066439" lon="113.267962">
        <time>2026-09-02T22:40:20Z</time>
      </trkpt>
      <trkpt lat="23.066291" lon="113.26798">
        <time>2026-09-02T22:40:25Z</time>
      </trkpt>
      <trkpt lat="23.066159" lon="113.268075">
        <time>2026-09-02T22:40:30Z</time>
      </trkpt>
      <trkpt lat="23.066045" lon="113.268204">
        <time>2026-09-02T22:40:35Z</time>
      </trkpt>
      <trkpt lat="23.065942" lon="113.268341">
        <time>2026-09-02T22:40:40Z</time>
      </trkpt>
      <trkpt lat="23.065845" lon="113.268496">
        <time>2026-09-02T22:40:45Z</time>
      </trkpt>
      <trkpt lat="23.065761" lon="113.268657">
        <time>2026-09-02T22:40:50Z</time>
      </trkpt>
      <trkpt lat="23.065689" lon="113.268815">
        <time>2026-09-02T22:40:55Z</time>
      </trkpt>
      <trkpt lat="23.065626" lon="113.268978">
        <time>2026-09-02T22:41:00Z</time>
      </trkpt>
      <trkpt lat="23.065575" lon="113.269139">
        <time>2026-09-02T22:41:05Z</time>
      </trkpt>
      <trkpt lat="23.065532" lon="113.269301">
        <time>2026-09-02T22:41:10Z</time>
      </trkpt>
      <trkpt lat="23.065494" lon="113.269471">
        <time>2026-09-02T22:41:15Z</time>
      </trkpt>
      <trkpt lat="23.065457" lon="113.269637">
        <time>2026-09-02T22:41:20Z</time>
      </trkpt>
      <trkpt lat="23.065421" lon="113.269804">
        <time>2026-09-02T22:41:25Z</time>
      </trkpt>
      <trkpt lat="23.06537" lon="113.269959">
        <time>2026-09-02T22:41:30Z</time>
      </trkpt>
      <trkpt lat="23.065311" lon="113.27012">
        <time>2026-09-02T22:41:35Z</time>
      </trkpt>
      <trkpt lat="23.065241" lon="113.270275">
        <time>2026-09-02T22:41:40Z</time>
      </trkpt>
      <trkpt lat="23.06517" lon="113.270424">
        <time>2026-09-02T22:41:45Z</time>
      </trkpt>
      <trkpt lat="23.065101" lon="113.270578">
        <time>2026-09-02T22:41:50Z</time>
      </trkpt>
      <trkpt lat="23.065027" lon="113.270729">
        <time>2026-09-02T22:41:55Z</time>
      </trkpt>
      <trkpt lat="23.064955" lon="113.27088">
        <time>2026-09-02T22:42:00Z</time>
      </trkpt>
      <trkpt lat="23.064885" lon="113.271033">
        <time>2026-09-02T22:42:05Z</time>
      </trkpt>
      <trkpt lat="23.064818" lon="113.271189">
        <time>2026-09-02T22:42:10Z</time>
      </trkpt>
      <trkpt lat="23.064747" lon="113.271343">
        <time>2026-09-02T22:42:15Z</time>
      </trkpt>
      <trkpt lat="23.064673" lon="113.271497">
        <time>2026-09-02T22:42:20Z</time>
      </trkpt>
      <trkpt lat="23.064604" lon="113.271652">
        <time>2026-09-02T22:42:25Z</time>
      </trkpt>
      <trkpt lat="23.06453" lon="113.271809">
        <time>2026-09-02T22:42:30Z</time>
      </trkpt>
      <trkpt lat="23.064453" lon="113.271969">
        <time>2026-09-02T22:42:35Z</time>
      </trkpt>
      <trkpt lat="23.064375" lon="113.272125">
        <time>2026-09-02T22:42:40Z</time>
      </trkpt>
      <trkpt lat="23.064327" lon="113.272285">
        <time>2026-09-02T22:42:45Z</time>
      </trkpt>
      <trkpt lat="23.064318" lon="113.272452">
        <time>2026-09-02T22:42:50Z</time>
      </trkpt>
      <trkpt lat="23.064323" lon="113.272618">
        <time>2026-09-02T22:42:55Z</time>
      </trkpt>
      <trkpt lat="23.064363" lon="113.272779">
        <time>2026-09-02T22:43:00Z</time>
      </trkpt>
      <trkpt lat="23.064415" lon="113.272939">
        <time>2026-09-02T22:43:05Z</time>
      </trkpt>
      <trkpt lat="23.064465" lon="113.2731">
        <time>2026-09-02T22:43:10Z</time>
      </trkpt>
      <trkpt lat="23.064451" lon="113.273261">
        <time>2026-09-02T22:43:15Z</time>
      </trkpt>
      <trkpt lat="23.064355" lon="113.273383">
        <time>2026-09-02T22:43:20Z</time>
      </trkpt>
      <trkpt lat="23.06423" lon="113.273475">
        <time>2026-09-02T22:43:25Z</time>
      </trkpt>
      <trkpt lat="23.064112" lon="113.273565">
        <time>2026-09-02T22:43:30Z</time>
      </trkpt>
      <trkpt lat="23.064039" lon="113.273611">
        <time>2026-09-02T22:43:35Z</time>
      </trkpt>
      <trkpt lat="23.064" lon="113.273643">
        <time>2026-09-02T22:43:40Z</time>
      </trkpt>
      <trkpt lat="23.063963" lon="113.273685">
        <time>2026-09-02T22:43:45Z</time>
      </trkpt>
      <trkpt lat="23.063925" lon="113.273734">
        <time>2026-09-02T22:43:50Z</time>
      </trkpt>
      <trkpt lat="23.063895" lon="113.273785">
        <time>2026-09-02T22:43:55Z</time>
      </trkpt>
      <trkpt lat="23.063861" lon="113.273832">
        <time>2026-09-02T22:44:00Z</time>
      </trkpt>
      <trkpt lat="23.063829" lon="113.273883">
        <time>2026-09-02T22:44:05Z</time>
      </trkpt>
      <trkpt lat="23.063798" lon="113.273937">
        <time>2026-09-02T22:44:10Z</time>
      </trkpt>
      <trkpt lat="23.06377" lon="113.273993">
        <time>2026-09-02T22:44:15Z</time>
      </trkpt>
      <trkpt lat="23.063768" lon="113.274063">
        <time>2026-09-02T22:44:20Z</time>
      </trkpt>
      <trkpt lat="23.063764" lon="113.274132">
        <time>2026-09-02T22:44:25Z</time>
      </trkpt>
      <trkpt lat="23.063735" lon="113.274184">
        <time>2026-09-02T22:44:30Z</time>
      </trkpt>
      <trkpt lat="23.063699" lon="113.274219">
        <time>2026-09-02T22:44:35Z</time>
      </trkpt>
      <trkpt lat="23.063662" lon="113.274256">
        <time>2026-09-02T22:44:40Z</time>
      </trkpt>
      <trkpt lat="23.063635" lon="113.274302">
        <time>2026-09-02T22:44:45Z</time>
      </trkpt>
      <trkpt lat="23.063622" lon="113.274351">
        <time>2026-09-02T22:44:50Z</time>
      </trkpt>
      <trkpt lat="23.063591" lon="113.274402">
        <time>2026-09-02T22:44:55Z</time>
      </trkpt>
      <trkpt lat="23.063554" lon="113.274452">
        <time>2026-09-02T22:45:00Z</time>
      </trkpt>
      <trkpt lat="23.063527" lon="113.274497">
        <time>2026-09-02T22:45:05Z</time>
      </trkpt>
      <trkpt lat="23.063507" lon="113.274544">
        <time>2026-09-02T22:45:10Z</time>
      </trkpt>
      <trkpt lat="23.063484" lon="113.274607">
        <time>2026-09-02T22:45:15Z</time>
      </trkpt>
      <trkpt lat="23.063477" lon="113.274657">
        <time>2026-09-02T22:45:20Z</time>
      </trkpt>
      <trkpt lat="23.063498" lon="113.274674">
        <time>2026-09-02T22:45:25Z</time>
      </trkpt>
      <trkpt lat="23.063507" lon="113.274637">
        <time>2026-09-02T22:45:30Z</time>
      </trkpt>
      <trkpt lat="23.063513" lon="113.274579">
        <time>2026-09-02T22:45:35Z</time>
      </trkpt>
      <trkpt lat="23.063525" lon="113.274516">
        <time>2026-09-02T22:45:40Z</time>
      </trkpt>
      <trkpt lat="23.063561" lon="113.274436">
        <time>2026-09-02T22:45:45Z</time>
      </trkpt>
      <trkpt lat="23.063622" lon="113.274364">
        <time>2026-09-02T22:45:50Z</time>
      </trkpt>
      <trkpt lat="23.06368" lon="113.274295">
        <time>2026-09-02T22:45:55Z</time>
      </trkpt>
      <trkpt lat="23.063752" lon="113.274232">
        <time>2026-09-02T22:46:00Z</time>
      </trkpt>
      <trkpt lat="23.063828" lon="113.274155">
        <time>2026-09-02T22:46:05Z</time>
      </trkpt>
      <trkpt lat="23.063887" lon="113.27406">
        <time>2026-09-02T22:46:10Z</time>
      </trkpt>
      <trkpt lat="23.063936" lon="113.273962">
        <time>2026-09-02T22:46:15Z</time>
      </trkpt>
      <trkpt lat="23.063984" lon="113.273865">
        <time>2026-09-02T22:46:20Z</time>
      </trkpt>
      <trkpt lat="23.064041" lon="113.273773">
        <time>2026-09-02T22:46:25Z</time>
      </trkpt>
      <trkpt lat="23.064113" lon="113.273689">
        <time>2026-09-02T22:46:30Z</time>
      </trkpt>
      <trkpt lat="23.064199" lon="113.273623">
        <time>2026-09-02T22:46:35Z</time>
      </trkpt>
      <trkpt lat="23.064288" lon="113.27356">
        <time>2026-09-02T22:46:40Z</time>
      </trkpt>
      <trkpt lat="23.064373" lon="113.273494">
        <time>2026-09-02T22:46:45Z</time>
      </trkpt>
      <trkpt lat="23.064454" lon="113.273423">
        <time>2026-09-02T22:46:50Z</time>
      </trkpt>
      <trkpt lat="23.064529" lon="113.273339">
        <time>2026-09-02T22:46:55Z</time>
      </trkpt>
      <trkpt lat="23.064576" lon="113.273225">
        <time>2026-09-02T22:47:00Z</time>
      </trkpt>
      <trkpt lat="23.064586" lon="113.273099">
        <time>2026-09-02T22:47:05Z</time>
      </trkpt>
      <trkpt lat="23.064556" lon="113.272977">
        <time>2026-09-02T22:47:10Z</time>
      </trkpt>
      <trkpt lat="23.064516" lon="113.272863">
        <time>2026-09-02T22:47:15Z</time>
      </trkpt>
      <trkpt lat="23.064475" lon="113.272751">
        <time>2026-09-02T22:47:20Z</time>
      </trkpt>
      <trkpt lat="23.064448" lon="113.272639">
        <time>2026-09-02T22:47:25Z</time>
      </trkpt>
      <trkpt lat="23.064464" lon="113.272524">
        <time>2026-09-02T22:47:30Z</time>
      </trkpt>
      <trkpt lat="23.064525" lon="113.272413">
        <time>2026-09-02T22:47:35Z</time>
      </trkpt>
      <trkpt lat="23.06456" lon="113.272291">
        <time>2026-09-02T22:47:40Z</time>
      </trkpt>
      <trkpt lat="23.064599" lon="113.272179">
        <time>2026-09-02T22:47:45Z</time>
      </trkpt>
      <trkpt lat="23.064653" lon="113.272075">
        <time>2026-09-02T22:47:50Z</time>
      </trkpt>
      <trkpt lat="23.064702" lon="113.271971">
        <time>2026-09-02T22:47:55Z</time>
      </trkpt>
      <trkpt lat="23.064753" lon="113.271866">
        <time>2026-09-02T22:48:00Z</time>
      </trkpt>
      <trkpt lat="23.064801" lon="113.271764">
        <time>2026-09-02T22:48:05Z</time>
      </trkpt>
      <trkpt lat="23.064851" lon="113.271661">
        <time>2026-09-02T22:48:10Z</time>
      </trkpt>
      <trkpt lat="23.064905" lon="113.271561">
        <time>2026-09-02T22:48:15Z</time>
      </trkpt>
      <trkpt lat="23.064956" lon="113.271451">
        <time>2026-09-02T22:48:20Z</time>
      </trkpt>
      <trkpt lat="23.065009" lon="113.271341">
        <time>2026-09-02T22:48:25Z</time>
      </trkpt>
      <trkpt lat="23.065049" lon="113.271225">
        <time>2026-09-02T22:48:30Z</time>
      </trkpt>
      <trkpt lat="23.065094" lon="113.271113">
        <time>2026-09-02T22:48:35Z</time>
      </trkpt>
      <trkpt lat="23.065149" lon="113.271001">
        <time>2026-09-02T22:48:40Z</time>
      </trkpt>
      <trkpt lat="23.065204" lon="113.270887">
        <time>2026-09-02T22:48:45Z</time>
      </trkpt>
      <trkpt lat="23.065254" lon="113.270778">
        <time>2026-09-02T22:48:50Z</time>
      </trkpt>
      <trkpt lat="23.065304" lon="113.27067">
        <time>2026-09-02T22:48:55Z</time>
      </trkpt>
      <trkpt lat="23.065352" lon="113.270566">
        <time>2026-09-02T22:49:00Z</time>
      </trkpt>
      <trkpt lat="23.065403" lon="113.270458">
        <time>2026-09-02T22:49:05Z</time>
      </trkpt>
      <trkpt lat="23.065453" lon="113.270347">
        <time>2026-09-02T22:49:10Z</time>
      </trkpt>
      <trkpt lat="23.0655" lon="113.270243">
        <time>2026-09-02T22:49:15Z</time>
      </trkpt>
      <trkpt lat="23.065538" lon="113.270135">
        <time>2026-09-02T22:49:20Z</time>
      </trkpt>
      <trkpt lat="23.065572" lon="113.270024">
        <time>2026-09-02T22:49:25Z</time>
      </trkpt>
      <trkpt lat="23.065605" lon="113.269914">
        <time>2026-09-02T22:49:30Z</time>
      </trkpt>
      <trkpt lat="23.065639" lon="113.269802">
        <time>2026-09-02T22:49:35Z</time>
      </trkpt>
      <trkpt lat="23.065672" lon="113.26969">
        <time>2026-09-02T22:49:40Z</time>
      </trkpt>
      <trkpt lat="23.065712" lon="113.269585">
        <time>2026-09-02T22:49:45Z</time>
      </trkpt>
      <trkpt lat="23.065749" lon="113.269471">
        <time>2026-09-02T22:49:50Z</time>
      </trkpt>
      <trkpt lat="23.065774" lon="113.269345">
        <time>2026-09-02T22:49:55Z</time>
      </trkpt>
      <trkpt lat="23.065803" lon="113.269224">
        <time>2026-09-02T22:50:00Z</time>
      </trkpt>
      <trkpt lat="23.065843" lon="113.269103">
        <time>2026-09-02T22:50:05Z</time>
      </trkpt>
      <trkpt lat="23.065885" lon="113.268987">
        <time>2026-09-02T22:50:10Z</time>
      </trkpt>
      <trkpt lat="23.06593" lon="113.268876">
        <time>2026-09-02T22:50:15Z</time>
      </trkpt>
      <trkpt lat="23.065977" lon="113.268764">
        <time>2026-09-02T22:50:20Z</time>
      </trkpt>
      <trkpt lat="23.06603" lon="113.26866">
        <time>2026-09-02T22:50:25Z</time>
      </trkpt>
      <trkpt lat="23.066091" lon="113.268555">
        <time>2026-09-02T22:50:30Z</time>
      </trkpt>
      <trkpt lat="23.06615" lon="113.268458">
        <time>2026-09-02T22:50:35Z</time>
      </trkpt>
      <trkpt lat="23.066213" lon="113.268366">
        <time>2026-09-02T22:50:40Z</time>
      </trkpt>
      <trkpt lat="23.066284" lon="113.268269">
        <time>2026-09-02T22:50:45Z</time>
      </trkpt>
      <trkpt lat="23.066374" lon="113.268191">
        <time>2026-09-02T22:50:50Z</time>
      </trkpt>
      <trkpt lat="23.066479" lon="113.268145">
        <time>2026-09-02T22:50:55Z</time>
      </trkpt>
      <trkpt lat="23.066584" lon="113.268141">
        <time>2026-09-02T22:51:00Z</time>
      </trkpt>
      <trkpt lat="23.066697" lon="113.268142">
        <time>2026-09-02T22:51:05Z</time>
      </trkpt>
      <trkpt lat="23.066811" lon="113.268128">
        <time>2026-09-02T22:51:10Z</time>
      </trkpt>
      <trkpt lat="23.066923" lon="113.268139">
        <time>2026-09-02T22:51:15Z</time>
      </trkpt>
      <trkpt lat="23.067032" lon="113.268179">
        <time>2026-09-02T22:51:20Z</time>
      </trkpt>
      <trkpt lat="23.067124" lon="113.268243">
        <time>2026-09-02T22:51:25Z</time>
      </trkpt>
      <trkpt lat="23.067219" lon="113.268296">
        <time>2026-09-02T22:51:30Z</time>
      </trkpt>
      <trkpt lat="23.067316" lon="113.268355">
        <time>2026-09-02T22:51:35Z</time>
      </trkpt>
      <trkpt lat="23.067402" lon="113.26842">
        <time>2026-09-02T22:51:40Z</time>
      </trkpt>
      <trkpt lat="23.067492" lon="113.26848">
        <time>2026-09-02T22:51:45Z</time>
      </trkpt>
      <trkpt lat="23.067605" lon="113.268538">
        <time>2026-09-02T22:51:50Z</time>
      </trkpt>
      <trkpt lat="23.067722" lon="113.268598">
        <time>2026-09-02T22:51:55Z</time>
      </trkpt>
      <trkpt lat="23.067839" lon="113.268644">
        <time>2026-09-02T22:52:00Z</time>
      </trkpt>
      <trkpt lat="23.067938" lon="113.268716">
        <time>2026-09-02T22:52:05Z</time>
      </trkpt>
      <trkpt lat="23.068028" lon="113.26879">
        <time>2026-09-02T22:52:10Z</time>
      </trkpt>
      <trkpt lat="23.068123" lon="113.268823">
        <time>2026-09-02T22:52:15Z</time>
      </trkpt>
      <trkpt lat="23.068214" lon="113.268881">
        <time>2026-09-02T22:52:20Z</time>
      </trkpt>
      <trkpt lat="23.068317" lon="113.26897">
        <time>2026-09-02T22:52:25Z</time>
      </trkpt>
      <trkpt lat="23.068393" lon="113.269031">
        <time>2026-09-02T22:52:30Z</time>
      </trkpt>
      <trkpt lat="23.068479" lon="113.269079">
        <time>2026-09-02T22:52:35Z</time>
      </trkpt>
      <trkpt lat="23.068587" lon="113.269114">
        <time>2026-09-02T22:52:40Z</time>
      </trkpt>
      <trkpt lat="23.068702" lon="113.269162">
        <time>2026-09-02T22:52:45Z</time>
      </trkpt>
      <trkpt lat="23.068836" lon="113.269199">
        <time>2026-09-02T22:52:50Z</time>
      </trkpt>
      <trkpt lat="23.068957" lon="113.269234">
        <time>2026-09-02T22:52:55Z</time>
      </trkpt>
      <trkpt lat="23.069069" lon="113.269268">
        <time>2026-09-02T22:53:00Z</time>
      </trkpt>
      <trkpt lat="23.069191" lon="113.269313">
        <time>2026-09-02T22:53:05Z</time>
      </trkpt>
      <trkpt lat="23.06931" lon="113.269376">
        <time>2026-09-02T22:53:10Z</time>
      </trkpt>
      <trkpt lat="23.069421" lon="113.269443">
        <time>2026-09-02T22:53:15Z</time>
      </trkpt>
      <trkpt lat="23.069527" lon="113.269499">
        <time>2026-09-02T22:53:20Z</time>
      </trkpt>
      <trkpt lat="23.069637" lon="113.269544">
        <time>2026-09-02T22:53:25Z</time>
      </trkpt>
      <trkpt lat="23.069748" lon="113.269609">
        <time>2026-09-02T22:53:30Z</time>
      </trkpt>
      <trkpt lat="23.069863" lon="113.269668">
        <time>2026-09-02T22:53:35Z</time>
      </trkpt>
      <trkpt lat="23.069982" lon="113.269722">
        <time>2026-09-02T22:53:40Z</time>
      </trkpt>
      <trkpt lat="23.07009" lon="113.269797">
        <time>2026-09-02T22:53:45Z</time>
      </trkpt>
      <trkpt lat="23.070191" lon="113.269863">
        <time>2026-09-02T22:53:50Z</time>
      </trkpt>
      <trkpt lat="23.070298" lon="113.269922">
        <time>2026-09-02T22:53:55Z</time>
      </trkpt>
      <trkpt lat="23.070398" lon="113.269968">
        <time>2026-09-02T22:54:00Z</time>
      </trkpt>
      <trkpt lat="23.070507" lon="113.270006">
        <time>2026-09-02T22:54:05Z</time>
      </trkpt>
      <trkpt lat="23.070623" lon="113.270035">
        <time>2026-09-02T22:54:10Z</time>
      </trkpt>
      <trkpt lat="23.070728" lon="113.270088">
        <time>2026-09-02T22:54:15Z</time>
      </trkpt>
      <trkpt lat="23.070828" lon="113.270126">
        <time>2026-09-02T22:54:20Z</time>
      </trkpt>
      <trkpt lat="23.070928" lon="113.270148">
        <time>2026-09-02T22:54:25Z</time>
      </trkpt>
      <trkpt lat="23.071013" lon="113.270191">
        <time>2026-09-02T22:54:30Z</time>
      </trkpt>
      <trkpt lat="23.07109" lon="113.270255">
        <time>2026-09-02T22:54:35Z</time>
      </trkpt>
      <trkpt lat="23.071187" lon="113.270326">
        <time>2026-09-02T22:54:40Z</time>
      </trkpt>
      <trkpt lat="23.071294" lon="113.270386">
        <time>2026-09-02T22:54:45Z</time>
      </trkpt>
      <trkpt lat="23.071407" lon="113.270438">
        <time>2026-09-02T22:54:50Z</time>
      </trkpt>
      <trkpt lat="23.071519" lon="113.270499">
        <time>2026-09-02T22:54:55Z</time>
      </trkpt>
      <trkpt lat="23.071634" lon="113.27054">
        <time>2026-09-02T22:55:00Z</time>
      </trkpt>
      <trkpt lat="23.071748" lon="113.270593">
        <time>2026-09-02T22:55:05Z</time>
      </trkpt>
      <trkpt lat="23.071865" lon="113.270632">
        <time>2026-09-02T22:55:10Z</time>
      </trkpt>
      <trkpt lat="23.071986" lon="113.27064">
        <time>2026-09-02T22:55:15Z</time>
      </trkpt>
      <trkpt lat="23.072102" lon="113.270655">
        <time>2026-09-02T22:55:20Z</time>
      </trkpt>
      <trkpt lat="23.072203" lon="113.270709">
        <time>2026-09-02T22:55:25Z</time>
      </trkpt>
      <trkpt lat="23.072305" lon="113.270783">
        <time>2026-09-02T22:55:30Z</time>
      </trkpt>
      <trkpt lat="23.072406" lon="113.270844">
        <time>2026-09-02T22:55:35Z</time>
      </trkpt>
      <trkpt lat="23.072514" lon="113.270875">
        <time>2026-09-02T22:55:40Z</time>
      </trkpt>
      <trkpt lat="23.072619" lon="113.270945">
        <time>2026-09-02T22:55:45Z</time>
      </trkpt>
      <trkpt lat="23.072724" lon="113.271025">
        <time>2026-09-02T22:55:50Z</time>
      </trkpt>
      <trkpt lat="23.072823" lon="113.271087">
        <time>2026-09-02T22:55:55Z</time>
      </trkpt>
      <trkpt lat="23.072926" lon="113.271141">
        <time>2026-09-02T22:56:00Z</time>
      </trkpt>
      <trkpt lat="23.073032" lon="113.271181">
        <time>2026-09-02T22:56:05Z</time>
      </trkpt>
      <trkpt lat="23.073131" lon="113.271195">
        <time>2026-09-02T22:56:10Z</time>
      </trkpt>
      <trkpt lat="23.073203" lon="113.27121">
        <time>2026-09-02T22:56:15Z</time>
      </trkpt>
      <trkpt lat="23.073303" lon="113.271274">
        <time>2026-09-02T22:56:20Z</time>
      </trkpt>
      <trkpt lat="23.073407" lon="113.271368">
        <time>2026-09-02T22:56:25Z</time>
      </trkpt>
      <trkpt lat="23.073514" lon="113.271466">
        <time>2026-09-02T22:56:30Z</time>
      </trkpt>
      <trkpt lat="23.073615" lon="113.271556">
        <time>2026-09-02T22:56:35Z</time>
      </trkpt>
      <trkpt lat="23.073721" lon="113.271609">
        <time>2026-09-02T22:56:40Z</time>
      </trkpt>
      <trkpt lat="23.073836" lon="113.271639">
        <time>2026-09-02T22:56:45Z</time>
      </trkpt>
      <trkpt lat="23.073949" lon="113.271668">
        <time>2026-09-02T22:56:50Z</time>
      </trkpt>
      <trkpt lat="23.074051" lon="113.271716">
        <time>2026-09-02T22:56:55Z</time>
      </trkpt>
      <trkpt lat="23.074097" lon="113.271805">
        <time>2026-09-02T22:57:00Z</time>
      </trkpt>
      <trkpt lat="23.074057" lon="113.271915">
        <time>2026-09-02T22:57:05Z</time>
      </trkpt>
      <trkpt lat="23.073994" lon="113.272036">
        <time>2026-09-02T22:57:10Z</time>
      </trkpt>
      <trkpt lat="23.073944" lon="113.272155">
        <time>2026-09-02T22:57:15Z</time>
      </trkpt>
      <trkpt lat="23.073903" lon="113.272265">
        <time>2026-09-02T22:57:20Z</time>
      </trkpt>
      <trkpt lat="23.073856" lon="113.272363">
        <time>2026-09-02T22:57:25Z</time>
      </trkpt>
      <trkpt lat="23.07382" lon="113.272465">
        <time>2026-09-02T22:57:30Z</time>
      </trkpt>
      <trkpt lat="23.073784" lon="113.272573">
        <time>2026-09-02T22:57:35Z</time>
      </trkpt>
      <trkpt lat="23.073747" lon="113.272684">
        <time>2026-09-02T22:57:40Z</time>
      </trkpt>
      <trkpt lat="23.0737" lon="113.272796">
        <time>2026-09-02T22:57:45Z</time>
      </trkpt>
      <trkpt lat="23.073693" lon="113.272891">
        <time>2026-09-02T22:57:50Z</time>
      </trkpt>
      <trkpt lat="23.073774" lon="113.272949">
        <time>2026-09-02T22:57:55Z</time>
      </trkpt>
      <trkpt lat="23.073881" lon="113.272969">
        <time>2026-09-02T22:58:00Z</time>
      </trkpt>
      <trkpt lat="23.073985" lon="113.272956">
        <time>2026-09-02T22:58:05Z</time>
      </trkpt>
      <trkpt lat="23.074054" lon="113.272875">
        <time>2026-09-02T22:58:10Z</time>
      </trkpt>
      <trkpt lat="23.074097" lon="113.272772">
        <time>2026-09-02T22:58:15Z</time>
      </trkpt>
      <trkpt lat="23.074128" lon="113.272665">
        <time>2026-09-02T22:58:20Z</time>
      </trkpt>
      <trkpt lat="23.074161" lon="113.27258">
        <time>2026-09-02T22:58:25Z</time>
      </trkpt>
      <trkpt lat="23.07421" lon="113.272484">
        <time>2026-09-02T22:58:30Z</time>
      </trkpt>
      <trkpt lat="23.074278" lon="113.272375">
        <time>2026-09-02T22:58:35Z</time>
      </trkpt>
      <trkpt lat="23.074338" lon="113.272268">
        <time>2026-09-02T22:58:40Z</time>
      </trkpt>
      <trkpt lat="23.074395" lon="113.272157">
        <time>2026-09-02T22:58:45Z</time>
      </trkpt>
      <trkpt lat="23.07448" lon="113.272062">
        <time>2026-09-02T22:58:50Z</time>
      </trkpt>
      <trkpt lat="23.07456" lon="113.271997">
        <time>2026-09-02T22:58:56Z</time>
      </trkpt>
    </trkseg>
  </trk>
</gpx>