<?xml version="1.0" encoding="UTF-8"?>
<gpx xmlns="http://www.topografix.com/GPX/1/1" xmlns:gpxtpx="http://www.garmin.com/xmlschemas/TrackPointExtension/v1" xmlns:xsi="http://www.w3.org/2001/XMLSchema-instance" xsi:schemaLocation="http://www.topografix.com/GPX/1/1 http://www.topografix.com/GPX/1/1/gpx.xsd" version="1.1" creator="gpx.py -- https://github.com/tkrajina/gpxpy">
  <trk>
    <name>gpx from joyrun</name>
    <trkseg>
      <trkpt lat="23.075901" lon="113.272495">
        <time>2026-09-05T23:29:34Z</time>
      </trkpt>
      <trkpt lat="23.075861" lon="113.272471">
        <time>2026-09-05T23:29:39Z</time>
      </trkpt>
      <trkpt lat="23.075773" lon="113.272422">
        <time>2026-09-05T23:29:44Z</time>
      </trkpt>
      <trkpt lat="23.075689" lon="113.272398">
        <time>2026-09-05T23:29:49Z</time>
      </trkpt>
      <trkpt lat="23.075588" lon="113.272413">
        <time>2026-09-05T23:29:54Z</time>
      </trkpt>
      <trkpt lat="23.075467" lon="113.272415">
        <time>2026-09-05T23:29:59Z</time>
      </trkpt>
      <trkpt lat="23.075347" lon="113.272387">
        <time>2026-09-05T23:30:04Z</time>
      </trkpt>
      <trkpt lat="23.075282" lon="113.272307">
        <time>2026-09-05T23:30:09Z</time>
      </trkpt>
      <trkpt lat="23.075279" lon="113.272217">
        <time>2026-09-05T23:30:14Z</time>
      </trkpt>
      <trkpt lat="23.075291" lon="113.272146">
        <time>2026-09-05T23:30:19Z</time>
      </trkpt>
      <trkpt lat="23.075344" lon="113.272147">
        <time>2026-09-05T23:30:24Z</time>
      </trkpt>
      <trkpt lat="23.075441" lon="113.272199">
        <time>2026-09-05T23:30:29Z</time>
      </trkpt>
      <trkpt lat="23.075515" lon="113.272248">
        <time>2026-09-05T23:30:34Z</time>
      </trkpt>
      <trkpt lat="23.075608" lon="113.2723">
        <time>2026-09-05T23:30:39Z</time>
      </trkpt>
      <trkpt lat="23.075654" lon="113.272332">
        <time>2026-09-05T23:30:44Z</time>
      </trkpt>
      <trkpt lat="23.075738" lon="113.272377">
        <time>2026-09-05T23:30:49Z</time>
      </trkpt>
      <trkpt lat="23.075818" lon="113.272442">
        <time>2026-09-05T23:30:54Z</time>
      </trkpt>
      <trkpt lat="23.075895" lon="113.272514">
        <time>2026-09-05T23:30:59Z</time>
      </trkpt>
      <trkpt lat="23.075974" lon="113.272562">
        <time>2026-09-05T23:31:04Z</time>
      </trkpt>
      <trkpt lat="23.076045" lon="113.272627">
        <time>2026-09-05T23:31:09Z</time>
      </trkpt>
      <trkpt lat="23.076132" lon="113.272684">
        <time>2026-09-05T23:31:14Z</time>
      </trkpt>
      <trkpt lat="23.076209" lon="113.272721">
        <time>2026-09-05T23:31:19Z</time>
      </trkpt>
      <trkpt lat="23.076281" lon="113.272732">
        <time>2026-09-05T23:31:24Z</time>
      </trkpt>
      <trkpt lat="23.076383" lon="113.272808">
        <time>2026-09-05T23:31:29Z</time>
      </trkpt>
      <trkpt lat="23.076495" lon="113.272946">
        <time>2026-09-05T23:31:34Z</time>
      </trkpt>
      <trkpt lat="23.076526" lon="113.273077">
        <time>2026-09-05T23:31:39Z</time>
      </trkpt>
      <trkpt lat="23.076608" lon="113.27316">
        <time>2026-09-05T23:31:44Z</time>
      </trkpt>
      <trkpt lat="23.076695" lon="113.273236">
        <time>2026-09-05T23:31:49Z</time>
      </trkpt>
      <trkpt lat="23.076753" lon="113.273339">
        <time>2026-09-05T23:31:54Z</time>
      </trkpt>
      <trkpt lat="23.076826" lon="113.273435">
        <time>2026-09-05T23:31:59Z</time>
      </trkpt>
      <trkpt lat="23.076913" lon="113.273524">
        <time>2026-09-05T23:32:04Z</time>
      </trkpt>
      <trkpt lat="23.077004" lon="113.273608">
        <time>2026-09-05T23:32:09Z</time>
      </trkpt>
      <trkpt lat="23.077095" lon="113.273642">
        <time>2026-09-05T23:32:14Z</time>
      </trkpt>
      <trkpt lat="23.077182" lon="113.273667">
        <time>2026-09-05T23:32:19Z</time>
      </trkpt>
      <trkpt lat="23.077304" lon="113.273664">
        <time>2026-09-05T23:32:24Z</time>
      </trkpt>
      <trkpt lat="23.077399" lon="113.273603">
        <time>2026-09-05T23:32:29Z</time>
      </trkpt>
      <trkpt lat="23.077482" lon="113.273509">
        <time>2026-09-05T23:32:34Z</time>
      </trkpt>
      <trkpt lat="23.077577" lon="113.273426">
        <time>2026-09-05T23:32:39Z</time>
      </trkpt>
      <trkpt lat="23.077678" lon="113.273365">
        <time>2026-09-05T23:32:44Z</time>
      </trkpt>
      <trkpt lat="23.077779" lon="113.273328">
        <time>2026-09-05T23:32:49Z</time>
      </trkpt>
      <trkpt lat="23.077881" lon="113.273293">
        <time>2026-09-05T23:32:54Z</time>
      </trkpt>
      <trkpt lat="23.077999" lon="113.273208">
        <time>2026-09-05T23:32:59Z</time>
      </trkpt>
      <trkpt lat="23.078101" lon="113.273122">
        <time>2026-09-05T23:33:04Z</time>
      </trkpt>
      <trkpt lat="23.078206" lon="113.273042">
        <time>2026-09-05T23:33:09Z</time>
      </trkpt>
      <trkpt lat="23.078302" lon="113.272959">
        <time>2026-09-05T23:33:14Z</time>
      </trkpt>
      <trkpt lat="23.078393" lon="113.272875">
        <time>2026-09-05T23:33:19Z</time>
      </trkpt>
      <trkpt lat="23.078484" lon="113.272794">
        <time>2026-09-05T23:33:24Z</time>
      </trkpt>
      <trkpt lat="23.078549" lon="113.272676">
        <time>2026-09-05T23:33:29Z</time>
      </trkpt>
      <trkpt lat="23.078618" lon="113.272568">
        <time>2026-09-05T23:33:34Z</time>
      </trkpt>
      <trkpt lat="23.078713" lon="113.272499">
        <time>2026-09-05T23:33:39Z</time>
      </trkpt>
      <trkpt lat="23.078796" lon="113.272448">
        <time>2026-09-05T23:33:44Z</time>
      </trkpt>
      <trkpt lat="23.078888" lon="113.272373">
        <time>2026-09-05T23:33:49Z</time>
      </trkpt>
      <trkpt lat="23.078977" lon="113.272293">
        <time>2026-09-05T23:33:54Z</time>
      </trkpt>
      <trkpt lat="23.079065" lon="113.272227">
        <time>2026-09-05T23:33:59Z</time>
      </trkpt>
      <trkpt lat="23.079157" lon="113.272177">
        <time>2026-09-05T23:34:04Z</time>
      </trkpt>
      <trkpt lat="23.079255" lon="113.272141">
        <time>2026-09-05T23:34:09Z</time>
      </trkpt>
      <trkpt lat="23.079336" lon="113.272129">
        <time>2026-09-05T23:34:14Z</time>
      </trkpt>
      <trkpt lat="23.079405" lon="113.272197">
        <time>2026-09-05T23:34:19Z</time>
      </trkpt>
      <trkpt lat="23.079482" lon="113.272258">
        <time>2026-09-05T23:34:24Z</time>
      </trkpt>
      <trkpt lat="23.079573" lon="113.272296">
        <time>2026-09-05T23:34:29Z</time>
      </trkpt>
      <trkpt lat="23.079625" lon="113.272327">
        <time>2026-09-05T23:34:34Z</time>
      </trkpt>
      <trkpt lat="23.079685" lon="113.272311">
        <time>2026-09-05T23:34:39Z</time>
      </trkpt>
      <trkpt lat="23.079788" lon="113.272309">
        <time>2026-09-05T23:34:44Z</time>
      </trkpt>
      <trkpt lat="23.079886" lon="113.272354">
        <time>2026-09-05T23:34:49Z</time>
      </trkpt>
      <trkpt lat="23.07998" lon="113.272415">
        <time>2026-09-05T23:34:54Z</time>
      </trkpt>
      <trkpt lat="23.080087" lon="113.272473">
        <time>2026-09-05T23:34:59Z</time>
      </trkpt>
      <trkpt lat="23.080197" lon="113.272526">
        <time>2026-09-05T23:35:04Z</time>
      </trkpt>
      <trkpt lat="23.080272" lon="113.272556">
        <time>2026-09-05T23:35:09Z</time>
      </trkpt>
      <trkpt lat="23.080344" lon="113.272592">
        <time>2026-09-05T23:35:14Z</time>
      </trkpt>
      <trkpt lat="23.080435" lon="113.272632">
        <time>2026-09-05T23:35:19Z</time>
      </trkpt>
      <trkpt lat="23.080542" lon="113.272676">
        <time>2026-09-05T23:35:24Z</time>
      </trkpt>
      <trkpt lat="23.080665" lon="113.272716">
        <time>2026-09-05T23:35:29Z</time>
      </trkpt>
      <trkpt lat="23.080778" lon="113.272759">
        <time>2026-09-05T23:35:34Z</time>
      </trkpt>
      <trkpt lat="23.080887" lon="113.272789">
        <time>2026-09-05T23:35:39Z</time>
      </trkpt>
      <trkpt lat="23.080995" lon="113.272814">
        <time>2026-09-05T23:35:44Z</time>
      </trkpt>
      <trkpt lat="23.081113" lon="113.272837">
        <time>2026-09-05T23:35:49Z</time>
      </trkpt>
      <trkpt lat="23.081233" lon="113.272852">
        <time>2026-09-05T23:35:54Z</time>
      </trkpt>
      <trkpt lat="23.081335" lon="113.272888">
        <time>2026-09-05T23:35:59Z</time>
      </trkpt>
      <trkpt lat="23.081344" lon="113.273052">
        <time>2026-09-05T23:36:04Z</time>
      </trkpt>
      <trkpt lat="23.081318" lon="113.273169">
        <time>2026-09-05T23:36:09Z</time>
      </trkpt>
      <trkpt lat="23.08125" lon="113.273148">
        <time>2026-09-05T23:36:14Z</time>
      </trkpt>
      <trkpt lat="23.081144" lon="113.273092">
        <time>2026-09-05T23:36:19Z</time>
      </trkpt>
      <trkpt lat="23.081046" lon="113.273036">
        <time>2026-09-05T23:36:24Z</time>
      </trkpt>
      <trkpt lat="23.080944" lon="113.272984">
        <time>2026-09-05T23:36:29Z</time>
      </trkpt>
      <trkpt lat="23.080802" lon="113.273003">
        <time>2026-09-05T23:36:34Z</time>
      </trkpt>
      <trkpt lat="23.080694" lon="113.273071">
        <time>2026-09-05T23:36:39Z</time>
      </trkpt>
      <trkpt lat="23.080618" lon="113.273177">
        <time>2026-09-05T23:36:44Z</time>
      </trkpt>
      <trkpt lat="23.08056" lon="113.273328">
        <time>2026-09-05T23:36:49Z</time>
      </trkpt>
      <trkpt lat="23.080542" lon="113.273476">
        <time>2026-09-05T23:36:54Z</time>
      </trkpt>
      <trkpt lat="23.080565" lon="113.273631">
        <time>2026-09-05T23:36:59Z</time>
      </trkpt>
      <trkpt lat="23.080614" lon="113.273761">
        <time>2026-09-05T23:37:04Z</time>
      </trkpt>
      <trkpt lat="23.080688" lon="113.27387">
        <time>2026-09-05T23:37:09Z</time>
      </trkpt>
      <trkpt lat="23.080801" lon="113.27392">
        <time>2026-09-05T23:37:14Z</time>
      </trkpt>
      <trkpt lat="23.08092" lon="113.273955">
        <time>2026-09-05T23:37:19Z</time>
      </trkpt>
      <trkpt lat="23.081028" lon="113.273983">
        <time>2026-09-05T23:37:24Z</time>
      </trkpt>
      <trkpt lat="23.081136" lon="113.274015">
        <time>2026-09-05T23:37:29Z</time>
      </trkpt>
      <trkpt lat="23.081242" lon="113.274046">
        <time>2026-09-05T23:37:34Z</time>
      </trkpt>
      <trkpt lat="23.081346" lon="113.274077">
        <time>2026-09-05T23:37:39Z</time>
      </trkpt>
      <trkpt lat="23.081454" lon="113.274111">
        <time>2026-09-05T23:37:44Z</time>
      </trkpt>
      <trkpt lat="23.081571" lon="113.274146">
        <time>2026-09-05T23:37:49Z</time>
      </trkpt>
      <trkpt lat="23.081677" lon="113.274173">
        <time>2026-09-05T23:37:54Z</time>
      </trkpt>
      <trkpt lat="23.081788" lon="113.274186">
        <time>2026-09-05T23:37:59Z</time>
      </trkpt>
      <trkpt lat="23.081892" lon="113.274148">
        <time>2026-09-05T23:38:04Z</time>
      </trkpt>
      <trkpt lat="23.081982" lon="113.274073">
        <time>2026-09-05T23:38:09Z</time>
      </trkpt>
      <trkpt lat="23.082056" lon="113.27398">
        <time>2026-09-05T23:38:14Z</time>
      </trkpt>
      <trkpt lat="23.08211" lon="113.273868">
        <time>2026-09-05T23:38:19Z</time>
      </trkpt>
      <trkpt lat="23.082134" lon="113.273756">
        <time>2026-09-05T23:38:24Z</time>
      </trkpt>
      <trkpt lat="23.082122" lon="113.27365">
        <time>2026-09-05T23:38:29Z</time>
      </trkpt>
      <trkpt lat="23.082087" lon="113.273557">
        <time>2026-09-05T23:38:34Z</time>
      </trkpt>
      <trkpt lat="23.082034" lon="113.273468">
        <time>2026-09-05T23:38:39Z</time>
      </trkpt>
      <trkpt lat="23.081944" lon="113.273413">
        <time>2026-09-05T23:38:44Z</time>
      </trkpt>
      <trkpt lat="23.081842" lon="113.273373">
        <time>2026-09-05T23:38:49Z</time>
      </trkpt>
      <trkpt lat="23.081736" lon="113.273335">
        <time>2026-09-05T23:38:54Z</time>
      </trkpt>
      <trkpt lat="23.08163" lon="113.273285">
        <time>2026-09-05T23:38:59Z</time>
      </trkpt>
      <trkpt lat="23.081519" lon="113.273224">
        <time>2026-09-05T23:39:04Z</time>
      </trkpt>
      <trkpt lat="23.081409" lon="113.27318">
        <time>2026-09-05T23:39:09Z</time>
      </trkpt>
      <trkpt lat="23.081293" lon="113.273134">
        <time>2026-09-05T23:39:14Z</time>
      </trkpt>
      <trkpt lat="23.081182" lon="113.273083">
        <time>2026-09-05T23:39:19Z</time>
      </trkpt>
      <trkpt lat="23.081076" lon="113.273034">
        <time>2026-09-05T23:39:24Z</time>
      </trkpt>
      <trkpt lat="23.080958" lon="113.272987">
        <time>2026-09-05T23:39:29Z</time>
      </trkpt>
      <trkpt lat="23.080818" lon="113.273011">
        <time>2026-09-05T23:39:34Z</time>
      </trkpt>
      <trkpt lat="23.080696" lon="113.273109">
        <time>2026-09-05T23:39:39Z</time>
      </trkpt>
      <trkpt lat="23.080608" lon="113.273238">
        <time>2026-09-05T23:39:44Z</time>
      </trkpt>
      <trkpt lat="23.080555" lon="113.273384">
        <time>2026-09-05T23:39:49Z</time>
      </trkpt>
      <trkpt lat="23.080533" lon="113.27354">
        <time>2026-09-05T23:39:54Z</time>
      </trkpt>
      <trkpt lat="23.080548" lon="113.273689">
        <time>2026-09-05T23:39:59Z</time>
      </trkpt>
      <trkpt lat="23.080602" lon="113.273814">
        <time>2026-09-05T23:40:04Z</time>
      </trkpt>
      <trkpt lat="23.080673" lon="113.273907">
        <time>2026-09-05T23:40:09Z</time>
      </trkpt>
      <trkpt lat="23.08079" lon="113.273948">
        <time>2026-09-05T23:40:14Z</time>
      </trkpt>
      <trkpt lat="23.080912" lon="113.273974">
        <time>2026-09-05T23:40:19Z</time>
      </trkpt>
      <trkpt lat="23.081028" lon="113.274005">
        <time>2026-09-05T23:40:24Z</time>
      </trkpt>
      <trkpt lat="23.081138" lon="113.274027">
        <time>2026-09-05T23:40:29Z</time>
      </trkpt>
      <trkpt lat="23.081246" lon="113.274052">
        <time>2026-09-05T23:40:34Z</time>
      </trkpt>
      <trkpt lat="23.08135" lon="113.274086">
        <time>2026-09-05T23:40:39Z</time>
      </trkpt>
      <trkpt lat="23.08146" lon="113.274121">
        <time>2026-09-05T23:40:44Z</time>
      </trkpt>
      <trkpt lat="23.081574" lon="113.274155">
        <time>2026-09-05T23:40:49Z</time>
      </trkpt>
      <trkpt lat="23.081685" lon="113.274187">
        <time>2026-09-05T23:40:54Z</time>
      </trkpt>
      <trkpt lat="23.081803" lon="113.274186">
        <time>2026-09-05T23:40:59Z</time>
      </trkpt>
      <trkpt lat="23.081902" lon="113.274139">
        <time>2026-09-05T23:41:04Z</time>
      </trkpt>
      <trkpt lat="23.081987" lon="113.274062">
        <time>2026-09-05T23:41:09Z</time>
      </trkpt>
      <trkpt lat="23.082064" lon="113.273966">
        <time>2026-09-05T23:41:14Z</time>
      </trkpt>
      <trkpt lat="23.082115" lon="113.273844">
        <time>2026-09-05T23:41:19Z</time>
      </trkpt>
      <trkpt lat="23.082126" lon="113.273719">
        <time>2026-09-05T23:41:24Z</time>
      </trkpt>
      <trkpt lat="23.082103" lon="113.273607">
        <time>2026-09-05T23:41:29Z</time>
      </trkpt>
      <trkpt lat="23.082077" lon="113.273498">
        <time>2026-09-05T23:41:34Z</time>
      </trkpt>
      <trkpt lat="23.082037" lon="113.273406">
        <time>2026-09-05T23:41:39Z</time>
      </trkpt>
      <trkpt lat="23.081939" lon="113.273366">
        <time>2026-09-05T23:41:44Z</time>
      </trkpt>
      <trkpt lat="23.081822" lon="113.273331">
        <time>2026-09-05T23:41:49Z</time>
      </trkpt>
      <trkpt lat="23.081699" lon="113.273278">
        <time>2026-09-05T23:41:54Z</time>
      </trkpt>
      <trkpt lat="23.081587" lon="113.273222">
        <time>2026-09-05T23:41:59Z</time>
      </trkpt>
      <trkpt lat="23.081479" lon="113.273177">
        <time>2026-09-05T23:42:04Z</time>
      </trkpt>
      <trkpt lat="23.081375" lon="113.273145">
        <time>2026-09-05T23:42:09Z</time>
      </trkpt>
      <trkpt lat="23.081268" lon="113.273095">
        <time>2026-09-05T23:42:14Z</time>
      </trkpt>
      <trkpt lat="23.081165" lon="113.273042">
        <time>2026-09-05T23:42:19Z</time>
      </trkpt>
      <trkpt lat="23.081058" lon="113.272984">
        <time>2026-09-05T23:42:24Z</time>
      </trkpt>
      <trkpt lat="23.08095" lon="113.272926">
        <time>2026-09-05T23:42:29Z</time>
      </trkpt>
      <trkpt lat="23.080842" lon="113.272975">
        <time>2026-09-05T23:42:34Z</time>
      </trkpt>
      <trkpt lat="23.080715" lon="113.273066">
        <time>2026-09-05T23:42:39Z</time>
      </trkpt>
      <trkpt lat="23.080621" lon="113.273151">
        <time>2026-09-05T23:42:44Z</time>
      </trkpt>
      <trkpt lat="23.08057" lon="113.27326">
        <time>2026-09-05T23:42:49Z</time>
      </trkpt>
      <trkpt lat="23.080538" lon="113.273411">
        <time>2026-09-05T23:42:54Z</time>
      </trkpt>
      <trkpt lat="23.080534" lon="113.273561">
        <time>2026-09-05T23:42:59Z</time>
      </trkpt>
      <trkpt lat="23.08057" lon="113.273684">
        <time>2026-09-05T23:43:04Z</time>
      </trkpt>
      <trkpt lat="23.080626" lon="113.273779">
        <time>2026-09-05T23:43:09Z</time>
      </trkpt>
      <trkpt lat="23.080725" lon="113.27386">
        <time>2026-09-05T23:43:14Z</time>
      </trkpt>
      <trkpt lat="23.080842" lon="113.273923">
        <time>2026-09-05T23:43:19Z</time>
      </trkpt>
      <trkpt lat="23.080953" lon="113.273965">
        <time>2026-09-05T23:43:24Z</time>
      </trkpt>
      <trkpt lat="23.081063" lon="113.274004">
        <time>2026-09-05T23:43:29Z</time>
      </trkpt>
      <trkpt lat="23.08117" lon="113.27404">
        <time>2026-09-05T23:43:34Z</time>
      </trkpt>
      <trkpt lat="23.081276" lon="113.274074">
        <time>2026-09-05T23:43:39Z</time>
      </trkpt>
      <trkpt lat="23.081381" lon="113.274106">
        <time>2026-09-05T23:43:44Z</time>
      </trkpt>
      <trkpt lat="23.081482" lon="113.274136">
        <time>2026-09-05T23:43:49Z</time>
      </trkpt>
      <trkpt lat="23.081592" lon="113.27417">
        <time>2026-09-05T23:43:54Z</time>
      </trkpt>
      <trkpt lat="23.081712" lon="113.274189">
        <time>2026-09-05T23:43:59Z</time>
      </trkpt>
      <trkpt lat="23.08182" lon="113.274187">
        <time>2026-09-05T23:44:04Z</time>
      </trkpt>
      <trkpt lat="23.081907" lon="113.274128">
        <time>2026-09-05T23:44:09Z</time>
      </trkpt>
      <trkpt lat="23.082" lon="113.27405">
        <time>2026-09-05T23:44:14Z</time>
      </trkpt>
      <trkpt lat="23.082091" lon="113.273944">
        <time>2026-09-05T23:44:19Z</time>
      </trkpt>
      <trkpt lat="23.082133" lon="113.273825">
        <time>2026-09-05T23:44:24Z</time>
      </trkpt>
      <trkpt lat="23.082132" lon="113.273704">
        <time>2026-09-05T23:44:29Z</time>
      </trkpt>
      <trkpt lat="23.082104" lon="113.273589">
        <time>2026-09-05T23:44:34Z</time>
      </trkpt>
      <trkpt lat="23.082082" lon="113.273478">
        <time>2026-09-05T23:44:39Z</time>
      </trkpt>
      <trkpt lat="23.082028" lon="113.273396">
        <time>2026-09-05T23:44:44Z</time>
      </trkpt>
      <trkpt lat="23.081926" lon="113.273361">
        <time>2026-09-05T23:44:49Z</time>
      </trkpt>
      <trkpt lat="23.081819" lon="113.273332">
        <time>2026-09-05T23:44:54Z</time>
      </trkpt>
      <trkpt lat="23.081715" lon="113.273294">
        <time>2026-09-05T23:44:59Z</time>
      </trkpt>
      <trkpt lat="23.081606" lon="113.27324">
        <time>2026-09-05T23:45:04Z</time>
      </trkpt>
      <trkpt lat="23.081492" lon="113.273189">
        <time>2026-09-05T23:45:09Z</time>
      </trkpt>
      <trkpt lat="23.081385" lon="113.273155">
        <time>2026-09-05T23:45:14Z</time>
      </trkpt>
      <trkpt lat="23.081283" lon="113.273125">
        <time>2026-09-05T23:45:19Z</time>
      </trkpt>
      <trkpt lat="23.081188" lon="113.273086">
        <time>2026-09-05T23:45:24Z</time>
      </trkpt>
      <trkpt lat="23.081085" lon="113.273026">
        <time>2026-09-05T23:45:29Z</time>
      </trkpt>
      <trkpt lat="23.080978" lon="113.272975">
        <time>2026-09-05T23:45:34Z</time>
      </trkpt>
      <trkpt lat="23.080858" lon="113.273009">
        <time>2026-09-05T23:45:39Z</time>
      </trkpt>
      <trkpt lat="23.080751" lon="113.273097">
        <time>2026-09-05T23:45:44Z</time>
      </trkpt>
      <trkpt lat="23.080669" lon="113.273204">
        <time>2026-09-05T23:45:49Z</time>
      </trkpt>
      <trkpt lat="23.080606" lon="113.273381">
        <time>2026-09-05T23:45:54Z</time>
      </trkpt>
      <trkpt lat="23.08056" lon="113.273542">
        <time>2026-09-05T23:45:59Z</time>
      </trkpt>
      <trkpt lat="23.080564" lon="113.273681">
        <time>2026-09-05T23:46:04Z</time>
      </trkpt>
      <trkpt lat="23.080607" lon="113.273808">
        <time>2026-09-05T23:46:09Z</time>
      </trkpt>
      <trkpt lat="23.080674" lon="113.273909">
        <time>2026-09-05T23:46:14Z</time>
      </trkpt>
      <trkpt lat="23.080778" lon="113.273944">
        <time>2026-09-05T23:46:19Z</time>
      </trkpt>
      <trkpt lat="23.080887" lon="113.273966">
        <time>2026-09-05T23:46:24Z</time>
      </trkpt>
      <trkpt lat="23.080995" lon="113.273997">
        <time>2026-09-05T23:46:29Z</time>
      </trkpt>
      <trkpt lat="23.081104" lon="113.27403">
        <time>2026-09-05T23:46:34Z</time>
      </trkpt>
      <trkpt lat="23.081212" lon="113.274063">
        <time>2026-09-05T23:46:39Z</time>
      </trkpt>
      <trkpt lat="23.081322" lon="113.274097">
        <time>2026-09-05T23:46:44Z</time>
      </trkpt>
      <trkpt lat="23.081433" lon="113.274132">
        <time>2026-09-05T23:46:49Z</time>
      </trkpt>
      <trkpt lat="23.081543" lon="113.274162">
        <time>2026-09-05T23:46:54Z</time>
      </trkpt>
      <trkpt lat="23.081655" lon="113.274194">
        <time>2026-09-05T23:46:59Z</time>
      </trkpt>
      <trkpt lat="23.08178" lon="113.274215">
        <time>2026-09-05T23:47:04Z</time>
      </trkpt>
      <trkpt lat="23.081885" lon="113.274164">
        <time>2026-09-05T23:47:09Z</time>
      </trkpt>
      <trkpt lat="23.081986" lon="113.274074">
        <time>2026-09-05T23:47:14Z</time>
      </trkpt>
      <trkpt lat="23.082072" lon="113.273979">
        <time>2026-09-05T23:47:19Z</time>
      </trkpt>
      <trkpt lat="23.082121" lon="113.273862">
        <time>2026-09-05T23:47:24Z</time>
      </trkpt>
      <trkpt lat="23.082132" lon="113.273742">
        <time>2026-09-05T23:47:29Z</time>
      </trkpt>
      <trkpt lat="23.082115" lon="113.273629">
        <time>2026-09-05T23:47:34Z</time>
      </trkpt>
      <trkpt lat="23.082088" lon="113.27352">
        <time>2026-09-05T23:47:39Z</time>
      </trkpt>
      <trkpt lat="23.082057" lon="113.273423">
        <time>2026-09-05T23:47:44Z</time>
      </trkpt>
      <trkpt lat="23.081975" lon="113.273377">
        <time>2026-09-05T23:47:49Z</time>
      </trkpt>
      <trkpt lat="23.081881" lon="113.27334">
        <time>2026-09-05T23:47:54Z</time>
      </trkpt>
      <trkpt lat="23.081787" lon="113.273301">
        <time>2026-09-05T23:47:59Z</time>
      </trkpt>
      <trkpt lat="23.081684" lon="113.273263">
        <time>2026-09-05T23:48:04Z</time>
      </trkpt>
      <trkpt lat="23.081578" lon="113.273226">
        <time>2026-09-05T23:48:09Z</time>
      </trkpt>
      <trkpt lat="23.081467" lon="113.273185">
        <time>2026-09-05T23:48:14Z</time>
      </trkpt>
      <trkpt lat="23.081358" lon="113.273141">
        <time>2026-09-05T23:48:19Z</time>
      </trkpt>
      <trkpt lat="23.081263" lon="113.273099">
        <time>2026-09-05T23:48:24Z</time>
      </trkpt>
      <trkpt lat="23.081168" lon="113.273073">
        <time>2026-09-05T23:48:29Z</time>
      </trkpt>
      <trkpt lat="23.081061" lon="113.27304">
        <time>2026-09-05T23:48:34Z</time>
      </trkpt>
      <trkpt lat="23.08096" lon="113.272972">
        <time>2026-09-05T23:48:39Z</time>
      </trkpt>
      <trkpt lat="23.080888" lon="113.273007">
        <time>2026-09-05T23:48:44Z</time>
      </trkpt>
      <trkpt lat="23.080793" lon="113.273108">
        <time>2026-09-05T23:48:49Z</time>
      </trkpt>
      <trkpt lat="23.080707" lon="113.273226">
        <time>2026-09-05T23:48:54Z</time>
      </trkpt>
      <trkpt lat="23.080644" lon="113.27337">
        <time>2026-09-05T23:48:59Z</time>
      </trkpt>
      <trkpt lat="23.08059" lon="113.273538">
        <time>2026-09-05T23:49:04Z</time>
      </trkpt>
      <trkpt lat="23.080596" lon="113.273683">
        <time>2026-09-05T23:49:09Z</time>
      </trkpt>
      <trkpt lat="23.080643" lon="113.273796">
        <time>2026-09-05T23:49:14Z</time>
      </trkpt>
      <trkpt lat="23.080712" lon="113.273885">
        <time>2026-09-05T23:49:19Z</time>
      </trkpt>
      <trkpt lat="23.080803" lon="113.273942">
        <time>2026-09-05T23:49:24Z</time>
      </trkpt>
      <trkpt lat="23.080905" lon="113.273976">
        <time>2026-09-05T23:49:29Z</time>
      </trkpt>
      <trkpt lat="23.081009" lon="113.274009">
        <time>2026-09-05T23:49:34Z</time>
      </trkpt>
      <trkpt lat="23.081109" lon="113.274034">
        <time>2026-09-05T23:49:39Z</time>
      </trkpt>
      <trkpt lat="23.081216" lon="113.274058">
        <time>2026-09-05T23:49:44Z</time>
      </trkpt>
      <trkpt lat="23.081325" lon="113.274088">
        <time>2026-09-05T23:49:49Z</time>
      </trkpt>
      <trkpt lat="23.081426" lon="113.274124">
        <time>2026-09-05T23:49:54Z</time>
      </trkpt>
      <trkpt lat="23.081524" lon="113.27416">
        <time>2026-09-05T23:49:59Z</time>
      </trkpt>
      <trkpt lat="23.081628" lon="113.274188">
        <time>2026-09-05T23:50:04Z</time>
      </trkpt>
      <trkpt lat="23.081738" lon="113.274207">
        <time>2026-09-05T23:50:09Z</time>
      </trkpt>
      <trkpt lat="23.081845" lon="113.274176">
        <time>2026-09-05T23:50:14Z</time>
      </trkpt>
      <trkpt lat="23.081951" lon="113.274099">
        <time>2026-09-05T23:50:19Z</time>
      </trkpt>
      <trkpt lat="23.082044" lon="113.274011">
        <time>2026-09-05T23:50:24Z</time>
      </trkpt>
      <trkpt lat="23.082107" lon="113.273908">
        <time>2026-09-05T23:50:29Z</time>
      </trkpt>
      <trkpt lat="23.08213" lon="113.273791">
        <time>2026-09-05T23:50:34Z</time>
      </trkpt>
      <trkpt lat="23.082135" lon="113.273651">
        <time>2026-09-05T23:50:39Z</time>
      </trkpt>
      <trkpt lat="23.082118" lon="113.27354">
        <time>2026-09-05T23:50:44Z</time>
      </trkpt>
      <trkpt lat="23.08209" lon="113.273449">
        <time>2026-09-05T23:50:49Z</time>
      </trkpt>
      <trkpt lat="23.082015" lon="113.273397">
        <time>2026-09-05T23:50:54Z</time>
      </trkpt>
      <trkpt lat="23.081917" lon="113.273366">
        <time>2026-09-05T23:50:59Z</time>
      </trkpt>
      <trkpt lat="23.081817" lon="113.273332">
        <time>2026-09-05T23:51:04Z</time>
      </trkpt>
      <trkpt lat="23.081707" lon="113.273291">
        <time>2026-09-05T23:51:09Z</time>
      </trkpt>
      <trkpt lat="23.081589" lon="113.273241">
        <time>2026-09-05T23:51:14Z</time>
      </trkpt>
      <trkpt lat="23.081483" lon="113.27318">
        <time>2026-09-05T23:51:19Z</time>
      </trkpt>
      <trkpt lat="23.081377" lon="113.273135">
        <time>2026-09-05T23:51:24Z</time>
      </trkpt>
      <trkpt lat="23.081276" lon="113.273103">
        <time>2026-09-05T23:51:29Z</time>
      </trkpt>
      <trkpt lat="23.081174" lon="113.273063">
        <time>2026-09-05T23:51:34Z</time>
      </trkpt>
      <trkpt lat="23.081069" lon="113.273014">
        <time>2026-09-05T23:51:39Z</time>
      </trkpt>
      <trkpt lat="23.080952" lon="113.272961">
        <time>2026-09-05T23:51:44Z</time>
      </trkpt>
      <trkpt lat="23.080861" lon="113.273033">
        <time>2026-09-05T23:51:49Z</time>
      </trkpt>
      <trkpt lat="23.080771" lon="113.273122">
        <time>2026-09-05T23:51:54Z</time>
      </trkpt>
      <trkpt lat="23.080702" lon="113.273218">
        <time>2026-09-05T23:51:59Z</time>
      </trkpt>
      <trkpt lat="23.080625" lon="113.27335">
        <time>2026-09-05T23:52:04Z</time>
      </trkpt>
      <trkpt lat="23.080596" lon="113.273511">
        <time>2026-09-05T23:52:09Z</time>
      </trkpt>
      <trkpt lat="23.080625" lon="113.273655">
        <time>2026-09-05T23:52:14Z</time>
      </trkpt>
      <trkpt lat="23.080674" lon="113.273774">
        <time>2026-09-05T23:52:19Z</time>
      </trkpt>
      <trkpt lat="23.080744" lon="113.273894">
        <time>2026-09-05T23:52:24Z</time>
      </trkpt>
      <trkpt lat="23.080852" lon="113.273945">
        <time>2026-09-05T23:52:29Z</time>
      </trkpt>
      <trkpt lat="23.080961" lon="113.273971">
        <time>2026-09-05T23:52:34Z</time>
      </trkpt>
      <trkpt lat="23.081069" lon="113.273997">
        <time>2026-09-05T23:52:39Z</time>
      </trkpt>
      <trkpt lat="23.081175" lon="113.274024">
        <time>2026-09-05T23:52:44Z</time>
      </trkpt>
      <trkpt lat="23.081273" lon="113.274052">
        <time>2026-09-05T23:52:49Z</time>
      </trkpt>
      <trkpt lat="23.081377" lon="113.274082">
        <time>2026-09-05T23:52:54Z</time>
      </trkpt>
      <trkpt lat="23.081484" lon="113.274112">
        <time>2026-09-05T23:52:59Z</time>
      </trkpt>
      <trkpt lat="23.081598" lon="113.274136">
        <time>2026-09-05T23:53:04Z</time>
      </trkpt>
      <trkpt lat="23.081706" lon="113.274167">
        <time>2026-09-05T23:53:09Z</time>
      </trkpt>
      <trkpt lat="23.081823" lon="113.274169">
        <time>2026-09-05T23:53:14Z</time>
      </trkpt>
      <trkpt lat="23.081923" lon="113.274119">
        <time>2026-09-05T23:53:19Z</time>
      </trkpt>
      <trkpt lat="23.082003" lon="113.274048">
        <time>2026-09-05T23:53:24Z</time>
      </trkpt>
      <trkpt lat="23.082075" lon="113.273966">
        <time>2026-09-05T23:53:29Z</time>
      </trkpt>
      <trkpt lat="23.082123" lon="113.273856">
        <time>2026-09-05T23:53:34Z</time>
      </trkpt>
      <trkpt lat="23.082136" lon="113.273737">
        <time>2026-09-05T23:53:39Z</time>
      </trkpt>
      <trkpt lat="23.082126" lon="113.273622">
        <time>2026-09-05T23:53:44Z</time>
      </trkpt>
      <trkpt lat="23.082104" lon="113.273507">
        <time>2026-09-05T23:53:49Z</time>
      </trkpt>
      <trkpt lat="23.082046" lon="113.273428">
        <time>2026-09-05T23:53:54Z</time>
      </trkpt>
      <trkpt lat="23.081963" lon="113.273402">
        <time>2026-09-05T23:53:59Z</time>
      </trkpt>
      <trkpt lat="23.081866" lon="113.273375">
        <time>2026-09-05T23:54:04Z</time>
      </trkpt>
      <trkpt lat="23.081764" lon="113.273348">
        <time>2026-09-05T23:54:09Z</time>
      </trkpt>
      <trkpt lat="23.081665" lon="113.273315">
        <time>2026-09-05T23:54:14Z</time>
      </trkpt>
      <trkpt lat="23.08157" lon="113.273265">
        <time>2026-09-05T23:54:19Z</time>
      </trkpt>
      <trkpt lat="23.08148" lon="113.273222">
        <time>2026-09-05T23:54:24Z</time>
      </trkpt>
      <trkpt lat="23.081389" lon="113.273176">
        <time>2026-09-05T23:54:29Z</time>
      </trkpt>
      <trkpt lat="23.081297" lon="113.273142">
        <time>2026-09-05T23:54:34Z</time>
      </trkpt>
      <trkpt lat="23.081197" lon="113.273109">
        <time>2026-09-05T23:54:39Z</time>
      </trkpt>
      <trkpt lat="23.081097" lon="113.273073">
        <time>2026-09-05T23:54:44Z</time>
      </trkpt>
      <trkpt lat="23.080976" lon="113.273018">
        <time>2026-09-05T23:54:49Z</time>
      </trkpt>
      <trkpt lat="23.080843" lon="113.273013">
        <time>2026-09-05T23:54:54Z</time>
      </trkpt>
      <trkpt lat="23.080738" lon="113.273094">
        <time>2026-09-05T23:54:59Z</time>
      </trkpt>
      <trkpt lat="23.080661" lon="113.273184">
        <time>2026-09-05T23:55:04Z</time>
      </trkpt>
      <trkpt lat="23.080615" lon="113.27329">
        <time>2026-09-05T23:55:09Z</time>
      </trkpt>
      <trkpt lat="23.080576" lon="113.273435">
        <time>2026-09-05T23:55:14Z</time>
      </trkpt>
      <trkpt lat="23.080568" lon="113.273595">
        <time>2026-09-05T23:55:19Z</time>
      </trkpt>
      <trkpt lat="23.080606" lon="113.273734">
        <time>2026-09-05T23:55:24Z</time>
      </trkpt>
      <trkpt lat="23.08065" lon="113.273845">
        <time>2026-09-05T23:55:29Z</time>
      </trkpt>
      <trkpt lat="23.080742" lon="113.273917">
        <time>2026-09-05T23:55:34Z</time>
      </trkpt>
      <trkpt lat="23.080854" lon="113.273945">
        <time>2026-09-05T23:55:39Z</time>
      </trkpt>
      <trkpt lat="23.080965" lon="113.27396">
        <time>2026-09-05T23:55:44Z</time>
      </trkpt>
      <trkpt lat="23.081078" lon="113.273975">
        <time>2026-09-05T23:55:49Z</time>
      </trkpt>
      <trkpt lat="23.08118" lon="113.274002">
        <time>2026-09-05T23:55:54Z</time>
      </trkpt>
      <trkpt lat="23.081279" lon="113.27403">
        <time>2026-09-05T23:55:59Z</time>
      </trkpt>
      <trkpt lat="23.08138" lon="113.274068">
        <time>2026-09-05T23:56:04Z</time>
      </trkpt>
      <trkpt lat="23.081481" lon="113.274102">
        <time>2026-09-05T23:56:09Z</time>
      </trkpt>
      <trkpt lat="23.081589" lon="113.274133">
        <time>2026-09-05T23:56:14Z</time>
      </trkpt>
      <trkpt lat="23.0817" lon="113.274165">
        <time>2026-09-05T23:56:19Z</time>
      </trkpt>
      <trkpt lat="23.081811" lon="113.274189">
        <time>2026-09-05T23:56:24Z</time>
      </trkpt>
      <trkpt lat="23.081897" lon="113.274151">
        <time>2026-09-05T23:56:29Z</time>
      </trkpt>
      <trkpt lat="23.081983" lon="113.27407">
        <time>2026-09-05T23:56:34Z</time>
      </trkpt>
      <trkpt lat="23.082063" lon="113.273973">
        <time>2026-09-05T23:56:39Z</time>
      </trkpt>
      <trkpt lat="23.082114" lon="113.273861">
        <time>2026-09-05T23:56:44Z</time>
      </trkpt>
      <trkpt lat="23.082133" lon="113.273737">
        <time>2026-09-05T23:56:49Z</time>
      </trkpt>
      <trkpt lat="23.082124" lon="113.273622">
        <time>2026-09-05T23:56:54Z</time>
      </trkpt>
      <trkpt lat="23.082104" lon="113.273517">
        <time>2026-09-05T23:56:59Z</time>
      </trkpt>
      <trkpt lat="23.082076" lon="113.27342">
        <time>2026-09-05T23:57:04Z</time>
      </trkpt>
      <trkpt lat="23.081993" lon="113.27337">
        <time>2026-09-05T23:57:09Z</time>
      </trkpt>
      <trkpt lat="23.08189" lon="113.27334">
        <time>2026-09-05T23:57:14Z</time>
      </trkpt>
      <trkpt lat="23.081791" lon="113.273312">
        <time>2026-09-05T23:57:19Z</time>
      </trkpt>
      <trkpt lat="23.081698" lon="113.273286">
        <time>2026-09-05T23:57:24Z</time>
      </trkpt>
      <trkpt lat="23.081601" lon="113.273256">
        <time>2026-09-05T23:57:29Z</time>
      </trkpt>
      <trkpt lat="23.081503" lon="113.273233">
        <time>2026-09-05T23:57:34Z</time>
      </trkpt>
      <trkpt lat="23.081399" lon="113.27324">
        <time>2026-09-05T23:57:39Z</time>
      </trkpt>
      <trkpt lat="23.081295" lon="113.27324">
        <time>2026-09-05T23:57:44Z</time>
      </trkpt>
      <trkpt lat="23.081182" lon="113.273223">
        <time>2026-09-05T23:57:49Z</time>
      </trkpt>
      <trkpt lat="23.081062" lon="113.273155">
        <time>2026-09-05T23:57:54Z</time>
      </trkpt>
      <trkpt lat="23.080945" lon="113.273089">
        <time>2026-09-05T23:57:59Z</time>
      </trkpt>
      <trkpt lat="23.080797" lon="113.273109">
        <time>2026-09-05T23:58:04Z</time>
      </trkpt>
      <trkpt lat="23.080666" lon="113.273171">
        <time>2026-09-05T23:58:09Z</time>
      </trkpt>
      <trkpt lat="23.08062" lon="113.273266">
        <time>2026-09-05T23:58:14Z</time>
      </trkpt>
      <trkpt lat="23.08057" lon="113.273418">
        <time>2026-09-05T23:58:19Z</time>
      </trkpt>
      <trkpt lat="23.080517" lon="113.273591">
        <time>2026-09-05T23:58:24Z</time>
      </trkpt>
      <trkpt lat="23.080538" lon="113.273747">
        <time>2026-09-05T23:58:29Z</time>
      </trkpt>
      <trkpt lat="23.080604" lon="113.273871">
        <time>2026-09-05T23:58:34Z</time>
      </trkpt>
      <trkpt lat="23.080668" lon="113.273946">
        <time>2026-09-05T23:58:39Z</time>
      </trkpt>
      <trkpt lat="23.080782" lon="113.273956">
        <time>2026-09-05T23:58:44Z</time>
      </trkpt>
      <trkpt lat="23.080902" lon="113.273966">
        <time>2026-09-05T23:58:49Z</time>
      </trkpt>
      <trkpt lat="23.081011" lon="113.273984">
        <time>2026-09-05T23:58:54Z</time>
      </trkpt>
      <trkpt lat="23.08112" lon="113.274007">
        <time>2026-09-05T23:58:59Z</time>
      </trkpt>
      <trkpt lat="23.08123" lon="113.274036">
        <time>2026-09-05T23:59:04Z</time>
      </trkpt>
      <trkpt lat="23.081335" lon="113.274072">
        <time>2026-09-05T23:59:09Z</time>
      </trkpt>
      <trkpt lat="23.081437" lon="113.274103">
        <time>2026-09-05T23:59:14Z</time>
      </trkpt>
      <trkpt lat="23.081542" lon="113.274131">
        <time>2026-09-05T23:59:19Z</time>
      </trkpt>
      <trkpt lat="23.081649" lon="113.274155">
        <time>2026-09-05T23:59:24Z</time>
      </trkpt>
      <trkpt lat="23.081758" lon="113.274175">
        <time>2026-09-05T23:59:29Z</time>
      </trkpt>
      <trkpt lat="23.08186" lon="113.27415">
        <time>2026-09-05T23:59:34Z</time>
      </trkpt>
      <trkpt lat="23.081944" lon="113.274082">
        <time>2026-09-05T23:59:39Z</time>
      </trkpt>
      <trkpt lat="23.082027" lon="113.274001">
        <time>2026-09-05T23:59:44Z</time>
      </trkpt>
      <trkpt lat="23.082087" lon="113.273904">
        <time>2026-09-05T23:59:49Z</time>
      </trkpt>
      <trkpt lat="23.082112" lon="113.273796">
        <time>2026-09-05T23:59:54Z</time>
      </trkpt>
      <trkpt lat="23.082105" lon="113.273676">
        <time>2026-09-05T23:59:59Z</time>
      </trkpt>
      <trkpt lat="23.082071" lon="113.273559">
        <time>2026-09-06T00:00:04Z</time>
      </trkpt>
      <trkpt lat="23.082033" lon="113.273447">
        <time>2026-09-06T00:00:09Z</time>
      </trkpt>
      <trkpt lat="23.08198" lon="113.273375">
        <time>2026-09-06T00:00:14Z</time>
      </trkpt>
      <trkpt lat="23.081898" lon="113.273349">
        <time>2026-09-06T00:00:19Z</time>
      </trkpt>
      <trkpt lat="23.081807" lon="113.273315">
        <time>2026-09-06T00:00:24Z</time>
      </trkpt>
      <trkpt lat="23.081717" lon="113.273258">
        <time>2026-09-06T00:00:29Z</time>
      </trkpt>
      <trkpt lat="23.081618" lon="113.273216">
        <time>2026-09-06T00:00:34Z</time>
      </trkpt>
      <trkpt lat="23.081509" lon="113.273185">
        <time>2026-09-06T00:00:39Z</time>
      </trkpt>
      <trkpt lat="23.081401" lon="113.273161">
        <time>2026-09-06T00:00:44Z</time>
      </trkpt>
      <trkpt lat="23.081285" lon="113.273148">
        <time>2026-09-06T00:00:49Z</time>
      </trkpt>
      <trkpt lat="23.081181" lon="113.273132">
        <time>2026-09-06T00:00:54Z</time>
      </trkpt>
      <trkpt lat="23.081079" lon="113.273094">
        <time>2026-09-06T00:00:59Z</time>
      </trkpt>
      <trkpt lat="23.080973" lon="113.273065">
        <time>2026-09-06T00:01:04Z</time>
      </trkpt>
      <trkpt lat="23.080849" lon="113.273063">
        <time>2026-09-06T00:01:09Z</time>
      </trkpt>
      <trkpt lat="23.080726" lon="113.273128">
        <time>2026-09-06T00:01:14Z</time>
      </trkpt>
      <trkpt lat="23.080647" lon="113.273229">
        <time>2026-09-06T00:01:19Z</time>
      </trkpt>
      <trkpt lat="23.080591" lon="113.273359">
        <time>2026-09-06T00:01:24Z</time>
      </trkpt>
      <trkpt lat="23.080535" lon="113.273527">
        <time>2026-09-06T00:01:29Z</time>
      </trkpt>
      <trkpt lat="23.080522" lon="113.273713">
        <time>2026-09-06T00:01:34Z</time>
      </trkpt>
      <trkpt lat="23.080575" lon="113.273865">
        <time>2026-09-06T00:01:39Z</time>
      </trkpt>
      <trkpt lat="23.080642" lon="113.273937">
        <time>2026-09-06T00:01:44Z</time>
      </trkpt>
      <trkpt lat="23.080762" lon="113.273957">
        <time>2026-09-06T00:01:49Z</time>
      </trkpt>
      <trkpt lat="23.080885" lon="113.273972">
        <time>2026-09-06T00:01:54Z</time>
      </trkpt>
      <trkpt lat="23.080999" lon="113.273994">
        <time>2026-09-06T00:01:59Z</time>
      </trkpt>
      <trkpt lat="23.081107" lon="113.274024">
        <time>2026-09-06T00:02:04Z</time>
      </trkpt>
      <trkpt lat="23.081215" lon="113.274053">
        <time>2026-09-06T00:02:09Z</time>
      </trkpt>
      <trkpt lat="23.081327" lon="113.274081">
        <time>2026-09-06T00:02:14Z</time>
      </trkpt>
      <trkpt lat="23.081435" lon="113.274112">
        <time>2026-09-06T00:02:19Z</time>
      </trkpt>
      <trkpt lat="23.081549" lon="113.274141">
        <time>2026-09-06T00:02:24Z</time>
      </trkpt>
      <trkpt lat="23.081657" lon="113.274169">
        <time>2026-09-06T00:02:29Z</time>
      </trkpt>
      <trkpt lat="23.081761" lon="113.274188">
        <time>2026-09-06T00:02:34Z</time>
      </trkpt>
      <trkpt lat="23.081862" lon="113.27416">
        <time>2026-09-06T00:02:39Z</time>
      </trkpt>
      <trkpt lat="23.081953" lon="113.274089">
        <time>2026-09-06T00:02:44Z</time>
      </trkpt>
      <trkpt lat="23.082034" lon="113.273991">
        <time>2026-09-06T00:02:49Z</time>
      </trkpt>
      <trkpt lat="23.082084" lon="113.27388">
        <time>2026-09-06T00:02:54Z</time>
      </trkpt>
      <trkpt lat="23.082102" lon="113.273756">
        <time>2026-09-06T00:02:59Z</time>
      </trkpt>
      <trkpt lat="23.082087" lon="113.273639">
        <time>2026-09-06T00:03:04Z</time>
      </trkpt>
      <trkpt lat="23.082052" lon="113.273525">
        <time>2026-09-06T00:03:09Z</time>
      </trkpt>
      <trkpt lat="23.082013" lon="113.273419">
        <time>2026-09-06T00:03:14Z</time>
      </trkpt>
      <trkpt lat="23.081937" lon="113.273367">
        <time>2026-09-06T00:03:19Z</time>
      </trkpt>
      <trkpt lat="23.081844" lon="113.27335">
        <time>2026-09-06T00:03:24Z</time>
      </trkpt>
      <trkpt lat="23.081746" lon="113.273336">
        <time>2026-09-06T00:03:29Z</time>
      </trkpt>
      <trkpt lat="23.081658" lon="113.273308">
        <time>2026-09-06T00:03:34Z</time>
      </trkpt>
      <trkpt lat="23.081567" lon="113.27325">
        <time>2026-09-06T00:03:39Z</time>
      </trkpt>
      <trkpt lat="23.081462" lon="113.273186">
        <time>2026-09-06T00:03:44Z</time>
      </trkpt>
      <trkpt lat="23.081356" lon="113.273145">
        <time>2026-09-06T00:03:49Z</time>
      </trkpt>
      <trkpt lat="23.081259" lon="113.273107">
        <time>2026-09-06T00:03:54Z</time>
      </trkpt>
      <trkpt lat="23.081163" lon="113.273084">
        <time>2026-09-06T00:03:59Z</time>
      </trkpt>
      <trkpt lat="23.081058" lon="113.27307">
        <time>2026-09-06T00:04:04Z</time>
      </trkpt>
      <trkpt lat="23.080948" lon="113.273036">
        <time>2026-09-06T00:04:09Z</time>
      </trkpt>
      <trkpt lat="23.080824" lon="113.273048">
        <time>2026-09-06T00:04:14Z</time>
      </trkpt>
      <trkpt lat="23.080723" lon="113.273114">
        <time>2026-09-06T00:04:19Z</time>
      </trkpt>
      <trkpt lat="23.080647" lon="113.273217">
        <time>2026-09-06T00:04:24Z</time>
      </trkpt>
      <trkpt lat="23.080592" lon="113.273369">
        <time>2026-09-06T00:04:29Z</time>
      </trkpt>
      <trkpt lat="23.080554" lon="113.273533">
        <time>2026-09-06T00:04:34Z</time>
      </trkpt>
      <trkpt lat="23.08057" lon="113.273678">
        <time>2026-09-06T00:04:39Z</time>
      </trkpt>
      <trkpt lat="23.080611" lon="113.273806">
        <time>2026-09-06T00:04:44Z</time>
      </trkpt>
      <trkpt lat="23.080661" lon="113.273897">
        <time>2026-09-06T00:04:49Z</time>
      </trkpt>
      <trkpt lat="23.080768" lon="113.273924">
        <time>2026-09-06T00:04:54Z</time>
      </trkpt>
      <trkpt lat="23.080882" lon="113.273943">
        <time>2026-09-06T00:04:59Z</time>
      </trkpt>
      <trkpt lat="23.080994" lon="113.273967">
        <time>2026-09-06T00:05:04Z</time>
      </trkpt>
      <trkpt lat="23.081101" lon="113.273991">
        <time>2026-09-06T00:05:09Z</time>
      </trkpt>
      <trkpt lat="23.081205" lon="113.274021">
        <time>2026-09-06T00:05:14Z</time>
      </trkpt>
      <trkpt lat="23.081309" lon="113.274053">
        <time>2026-09-06T00:05:19Z</time>
      </trkpt>
      <trkpt lat="23.081417" lon="113.27409">
        <time>2026-09-06T00:05:24Z</time>
      </trkpt>
      <trkpt lat="23.081532" lon="113.274121">
        <time>2026-09-06T00:05:29Z</time>
      </trkpt>
      <trkpt lat="23.081642" lon="113.27415">
        <time>2026-09-06T00:05:34Z</time>
      </trkpt>
      <trkpt lat="23.081754" lon="113.274172">
        <time>2026-09-06T00:05:39Z</time>
      </trkpt>
      <trkpt lat="23.081854" lon="113.274133">
        <time>2026-09-06T00:05:44Z</time>
      </trkpt>
      <trkpt lat="23.081937" lon="113.274066">
        <time>2026-09-06T00:05:49Z</time>
      </trkpt>
      <trkpt lat="23.082017" lon="113.27398">
        <time>2026-09-06T00:05:54Z</time>
      </trkpt>
      <trkpt lat="23.082069" lon="113.273874">
        <time>2026-09-06T00:05:59Z</time>
      </trkpt>
      <trkpt lat="23.082093" lon="113.273759">
        <time>2026-09-06T00:06:04Z</time>
      </trkpt>
      <trkpt lat="23.082089" lon="113.273646">
        <time>2026-09-06T00:06:09Z</time>
      </trkpt>
      <trkpt lat="23.082057" lon="113.273533">
        <time>2026-09-06T00:06:14Z</time>
      </trkpt>
      <trkpt lat="23.082025" lon="113.273425">
        <time>2026-09-06T00:06:19Z</time>
      </trkpt>
      <trkpt lat="23.081964" lon="113.273358">
        <time>2026-09-06T00:06:24Z</time>
      </trkpt>
      <trkpt lat="23.081878" lon="113.273319">
        <time>2026-09-06T00:06:29Z</time>
      </trkpt>
      <trkpt lat="23.081781" lon="113.273284">
        <time>2026-09-06T00:06:34Z</time>
      </trkpt>
      <trkpt lat="23.081672" lon="113.273258">
        <time>2026-09-06T00:06:39Z</time>
      </trkpt>
      <trkpt lat="23.081569" lon="113.273233">
        <time>2026-09-06T00:06:44Z</time>
      </trkpt>
      <trkpt lat="23.081473" lon="113.273207">
        <time>2026-09-06T00:06:49Z</time>
      </trkpt>
      <trkpt lat="23.081373" lon="113.273178">
        <time>2026-09-06T00:06:54Z</time>
      </trkpt>
      <trkpt lat="23.081259" lon="113.273163">
        <time>2026-09-06T00:06:59Z</time>
      </trkpt>
      <trkpt lat="23.081156" lon="113.273137">
        <time>2026-09-06T00:07:04Z</time>
      </trkpt>
      <trkpt lat="23.081051" lon="113.273099">
        <time>2026-09-06T00:07:09Z</time>
      </trkpt>
      <trkpt lat="23.080957" lon="113.27304">
        <time>2026-09-06T00:07:14Z</time>
      </trkpt>
      <trkpt lat="23.080884" lon="113.273012">
        <time>2026-09-06T00:07:19Z</time>
      </trkpt>
      <trkpt lat="23.080813" lon="113.273059">
        <time>2026-09-06T00:07:24Z</time>
      </trkpt>
      <trkpt lat="23.080745" lon="113.273193">
        <time>2026-09-06T00:07:29Z</time>
      </trkpt>
      <trkpt lat="23.080664" lon="113.273374">
        <time>2026-09-06T00:07:34Z</time>
      </trkpt>
      <trkpt lat="23.080578" lon="113.273538">
        <time>2026-09-06T00:07:39Z</time>
      </trkpt>
      <trkpt lat="23.08059" lon="113.273689">
        <time>2026-09-06T00:07:44Z</time>
      </trkpt>
      <trkpt lat="23.080623" lon="113.273831">
        <time>2026-09-06T00:07:49Z</time>
      </trkpt>
      <trkpt lat="23.080715" lon="113.273905">
        <time>2026-09-06T00:07:54Z</time>
      </trkpt>
      <trkpt lat="23.080842" lon="113.273941">
        <time>2026-09-06T00:07:59Z</time>
      </trkpt>
      <trkpt lat="23.080962" lon="113.273976">
        <time>2026-09-06T00:08:04Z</time>
      </trkpt>
      <trkpt lat="23.081081" lon="113.274012">
        <time>2026-09-06T00:08:09Z</time>
      </trkpt>
      <trkpt lat="23.081198" lon="113.274037">
        <time>2026-09-06T00:08:14Z</time>
      </trkpt>
      <trkpt lat="23.081309" lon="113.274067">
        <time>2026-09-06T00:08:19Z</time>
      </trkpt>
      <trkpt lat="23.081418" lon="113.274104">
        <time>2026-09-06T00:08:24Z</time>
      </trkpt>
      <trkpt lat="23.081532" lon="113.27414">
        <time>2026-09-06T00:08:29Z</time>
      </trkpt>
      <trkpt lat="23.08165" lon="113.274168">
        <time>2026-09-06T00:08:34Z</time>
      </trkpt>
      <trkpt lat="23.081774" lon="113.274169">
        <time>2026-09-06T00:08:39Z</time>
      </trkpt>
      <trkpt lat="23.08188" lon="113.274114">
        <time>2026-09-06T00:08:44Z</time>
      </trkpt>
      <trkpt lat="23.081974" lon="113.274035">
        <time>2026-09-06T00:08:49Z</time>
      </trkpt>
      <trkpt lat="23.082052" lon="113.273924">
        <time>2026-09-06T00:08:54Z</time>
      </trkpt>
      <trkpt lat="23.082091" lon="113.273803">
        <time>2026-09-06T00:08:59Z</time>
      </trkpt>
      <trkpt lat="23.082094" lon="113.273676">
        <time>2026-09-06T00:09:04Z</time>
      </trkpt>
      <trkpt lat="23.082063" lon="113.273552">
        <time>2026-09-06T00:09:09Z</time>
      </trkpt>
      <trkpt lat="23.081998" lon="113.273443">
        <time>2026-09-06T00:09:14Z</time>
      </trkpt>
      <trkpt lat="23.08191" lon="113.273365">
        <time>2026-09-06T00:09:19Z</time>
      </trkpt>
      <trkpt lat="23.081829" lon="113.273318">
        <time>2026-09-06T00:09:24Z</time>
      </trkpt>
      <trkpt lat="23.081749" lon="113.273275">
        <time>2026-09-06T00:09:29Z</time>
      </trkpt>
      <trkpt lat="23.081664" lon="113.273236">
        <time>2026-09-06T00:09:34Z</time>
      </trkpt>
      <trkpt lat="23.081571" lon="113.273201">
        <time>2026-09-06T00:09:39Z</time>
      </trkpt>
      <trkpt lat="23.081487" lon="113.273153">
        <time>2026-09-06T00:09:44Z</time>
      </trkpt>
      <trkpt lat="23.081399" lon="113.273108">
        <time>2026-09-06T00:09:49Z</time>
      </trkpt>
      <trkpt lat="23.081295" lon="113.273079">
        <time>2026-09-06T00:09:54Z</time>
      </trkpt>
      <trkpt lat="23.081183" lon="113.273072">
        <time>2026-09-06T00:09:59Z</time>
      </trkpt>
      <trkpt lat="23.081084" lon="113.273054">
        <time>2026-09-06T00:10:04Z</time>
      </trkpt>
      <trkpt lat="23.080982" lon="113.272997">
        <time>2026-09-06T00:10:09Z</time>
      </trkpt>
      <trkpt lat="23.080896" lon="113.27298">
        <time>2026-09-06T00:10:14Z</time>
      </trkpt>
      <trkpt lat="23.080818" lon="113.273059">
        <time>2026-09-06T00:10:19Z</time>
      </trkpt>
      <trkpt lat="23.080767" lon="113.273183">
        <time>2026-09-06T00:10:24Z</time>
      </trkpt>
      <trkpt lat="23.0807" lon="113.273327">
        <time>2026-09-06T00:10:29Z</time>
      </trkpt>
      <trkpt lat="23.080635" lon="113.273503">
        <time>2026-09-06T00:10:34Z</time>
      </trkpt>
      <trkpt lat="23.080656" lon="113.273653">
        <time>2026-09-06T00:10:39Z</time>
      </trkpt>
      <trkpt lat="23.080683" lon="113.273773">
        <time>2026-09-06T00:10:44Z</time>
      </trkpt>
      <trkpt lat="23.080741" lon="113.273866">
        <time>2026-09-06T00:10:49Z</time>
      </trkpt>
      <trkpt lat="23.080854" lon="113.273906">
        <time>2026-09-06T00:10:54Z</time>
      </trkpt>
      <trkpt lat="23.08097" lon="113.273947">
        <time>2026-09-06T00:10:59Z</time>
      </trkpt>
      <trkpt lat="23.081086" lon="113.273988">
        <time>2026-09-06T00:11:04Z</time>
      </trkpt>
      <trkpt lat="23.081199" lon="113.274029">
        <time>2026-09-06T00:11:09Z</time>
      </trkpt>
      <trkpt lat="23.081308" lon="113.274069">
        <time>2026-09-06T00:11:14Z</time>
      </trkpt>
      <trkpt lat="23.081413" lon="113.274103">
        <time>2026-09-06T00:11:19Z</time>
      </trkpt>
      <trkpt lat="23.081513" lon="113.274124">
        <time>2026-09-06T00:11:24Z</time>
      </trkpt>
      <trkpt lat="23.081612" lon="113.274144">
        <time>2026-09-06T00:11:29Z</time>
      </trkpt>
      <trkpt lat="23.08172" lon="113.274162">
        <time>2026-09-06T00:11:34Z</time>
      </trkpt>
      <trkpt lat="23.081838" lon="113.274148">
        <time>2026-09-06T00:11:39Z</time>
      </trkpt>
      <trkpt lat="23.081927" lon="113.274087">
        <time>2026-09-06T00:11:44Z</time>
      </trkpt>
      <trkpt lat="23.082008" lon="113.274008">
        <time>2026-09-06T00:11:49Z</time>
      </trkpt>
      <trkpt lat="23.082082" lon="113.273899">
        <time>2026-09-06T00:11:54Z</time>
      </trkpt>
      <trkpt lat="23.082113" lon="113.273776">
        <time>2026-09-06T00:11:59Z</time>
      </trkpt>
      <trkpt lat="23.08211" lon="113.273656">
        <time>2026-09-06T00:12:04Z</time>
      </trkpt>
      <trkpt lat="23.08208" lon="113.273544">
        <time>2026-09-06T00:12:09Z</time>
      </trkpt>
      <trkpt lat="23.082023" lon="113.273432">
        <time>2026-09-06T00:12:14Z</time>
      </trkpt>
      <trkpt lat="23.081934" lon="113.273377">
        <time>2026-09-06T00:12:19Z</time>
      </trkpt>
      <trkpt lat="23.081832" lon="113.273331">
        <time>2026-09-06T00:12:24Z</time>
      </trkpt>
      <trkpt lat="23.08173" lon="113.273283">
        <time>2026-09-06T00:12:29Z</time>
      </trkpt>
      <trkpt lat="23.081631" lon="113.273214">
        <time>2026-09-06T00:12:34Z</time>
      </trkpt>
      <trkpt lat="23.081541" lon="113.273144">
        <time>2026-09-06T00:12:39Z</time>
      </trkpt>
      <trkpt lat="23.081452" lon="113.273092">
        <time>2026-09-06T00:12:44Z</time>
      </trkpt>
      <trkpt lat="23.081358" lon="113.273043">
        <time>2026-09-06T00:12:49Z</time>
      </trkpt>
      <trkpt lat="23.081256" lon="113.273005">
        <time>2026-09-06T00:12:54Z</time>
      </trkpt>
      <trkpt lat="23.081155" lon="113.272982">
        <time>2026-09-06T00:12:59Z</time>
      </trkpt>
      <trkpt lat="23.081055" lon="113.272947">
        <time>2026-09-06T00:13:04Z</time>
      </trkpt>
      <trkpt lat="23.080935" lon="113.272933">
        <time>2026-09-06T00:13:09Z</time>
      </trkpt>
      <trkpt lat="23.080827" lon="113.273001">
        <time>2026-09-06T00:13:14Z</time>
      </trkpt>
      <trkpt lat="23.080717" lon="113.273122">
        <time>2026-09-06T00:13:19Z</time>
      </trkpt>
      <trkpt lat="23.080635" lon="113.273285">
        <time>2026-09-06T00:13:24Z</time>
      </trkpt>
      <trkpt lat="23.080576" lon="113.27344">
        <time>2026-09-06T00:13:29Z</time>
      </trkpt>
      <trkpt lat="23.08056" lon="113.273602">
        <time>2026-09-06T00:13:34Z</time>
      </trkpt>
      <trkpt lat="23.080598" lon="113.27373">
        <time>2026-09-06T00:13:39Z</time>
      </trkpt>
      <trkpt lat="23.080639" lon="113.273841">
        <time>2026-09-06T00:13:44Z</time>
      </trkpt>
      <trkpt lat="23.080748" lon="113.273895">
        <time>2026-09-06T00:13:49Z</time>
      </trkpt>
      <trkpt lat="23.080874" lon="113.273927">
        <time>2026-09-06T00:13:54Z</time>
      </trkpt>
      <trkpt lat="23.080997" lon="113.273964">
        <time>2026-09-06T00:13:59Z</time>
      </trkpt>
      <trkpt lat="23.081119" lon="113.273997">
        <time>2026-09-06T00:14:04Z</time>
      </trkpt>
      <trkpt lat="23.081236" lon="113.274033">
        <time>2026-09-06T00:14:09Z</time>
      </trkpt>
      <trkpt lat="23.081337" lon="113.274071">
        <time>2026-09-06T00:14:14Z</time>
      </trkpt>
      <trkpt lat="23.081431" lon="113.2741">
        <time>2026-09-06T00:14:19Z</time>
      </trkpt>
      <trkpt lat="23.08153" lon="113.274121">
        <time>2026-09-06T00:14:24Z</time>
      </trkpt>
      <trkpt lat="23.081631" lon="113.274149">
        <time>2026-09-06T00:14:29Z</time>
      </trkpt>
      <trkpt lat="23.081741" lon="113.274169">
        <time>2026-09-06T00:14:34Z</time>
      </trkpt>
      <trkpt lat="23.081852" lon="113.274145">
        <time>2026-09-06T00:14:39Z</time>
      </trkpt>
      <trkpt lat="23.081944" lon="113.274087">
        <time>2026-09-06T00:14:44Z</time>
      </trkpt>
      <trkpt lat="23.082025" lon="113.274007">
        <time>2026-09-06T00:14:49Z</time>
      </trkpt>
      <trkpt lat="23.082087" lon="113.273891">
        <time>2026-09-06T00:14:54Z</time>
      </trkpt>
      <trkpt lat="23.082108" lon="113.273766">
        <time>2026-09-06T00:14:59Z</time>
      </trkpt>
      <trkpt lat="23.0821" lon="113.273646">
        <time>2026-09-06T00:15:04Z</time>
      </trkpt>
      <trkpt lat="23.082074" lon="113.273518">
        <time>2026-09-06T00:15:09Z</time>
      </trkpt>
      <trkpt lat="23.082018" lon="113.273408">
        <time>2026-09-06T00:15:14Z</time>
      </trkpt>
      <trkpt lat="23.081937" lon="113.273372">
        <time>2026-09-06T00:15:19Z</time>
      </trkpt>
      <trkpt lat="23.081845" lon="113.273353">
        <time>2026-09-06T00:15:24Z</time>
      </trkpt>
      <trkpt lat="23.081738" lon="113.273313">
        <time>2026-09-06T00:15:29Z</time>
      </trkpt>
      <trkpt lat="23.081632" lon="113.273266">
        <time>2026-09-06T00:15:34Z</time>
      </trkpt>
      <trkpt lat="23.081534" lon="113.273216">
        <time>2026-09-06T00:15:39Z</time>
      </trkpt>
      <trkpt lat="23.081434" lon="113.273169">
        <time>2026-09-06T00:15:44Z</time>
      </trkpt>
      <trkpt lat="23.081323" lon="113.273145">
        <time>2026-09-06T00:15:49Z</time>
      </trkpt>
      <trkpt lat="23.081213" lon="113.273127">
        <time>2026-09-06T00:15:54Z</time>
      </trkpt>
      <trkpt lat="23.081106" lon="113.27309">
        <time>2026-09-06T00:15:59Z</time>
      </trkpt>
      <trkpt lat="23.081005" lon="113.27305">
        <time>2026-09-06T00:16:04Z</time>
      </trkpt>
      <trkpt lat="23.080903" lon="113.273048">
        <time>2026-09-06T00:16:09Z</time>
      </trkpt>
      <trkpt lat="23.080785" lon="113.27312">
        <time>2026-09-06T00:16:14Z</time>
      </trkpt>
      <trkpt lat="23.080679" lon="113.273253">
        <time>2026-09-06T00:16:19Z</time>
      </trkpt>
      <trkpt lat="23.080606" lon="113.273411">
        <time>2026-09-06T00:16:24Z</time>
      </trkpt>
      <trkpt lat="23.080569" lon="113.273572">
        <time>2026-09-06T00:16:29Z</time>
      </trkpt>
      <trkpt lat="23.08059" lon="113.273708">
        <time>2026-09-06T00:16:34Z</time>
      </trkpt>
      <trkpt lat="23.080625" lon="113.273827">
        <time>2026-09-06T00:16:39Z</time>
      </trkpt>
      <trkpt lat="23.08069" lon="113.273911">
        <time>2026-09-06T00:16:44Z</time>
      </trkpt>
      <trkpt lat="23.080816" lon="113.273945">
        <time>2026-09-06T00:16:49Z</time>
      </trkpt>
      <trkpt lat="23.080948" lon="113.273974">
        <time>2026-09-06T00:16:54Z</time>
      </trkpt>
      <trkpt lat="23.081074" lon="113.274003">
        <time>2026-09-06T00:16:59Z</time>
      </trkpt>
      <trkpt lat="23.081183" lon="113.274032">
        <time>2026-09-06T00:17:04Z</time>
      </trkpt>
      <trkpt lat="23.081293" lon="113.274065">
        <time>2026-09-06T00:17:09Z</time>
      </trkpt>
      <trkpt lat="23.081399" lon="113.274095">
        <time>2026-09-06T00:17:14Z</time>
      </trkpt>
      <trkpt lat="23.081505" lon="113.274119">
        <time>2026-09-06T00:17:19Z</time>
      </trkpt>
      <trkpt lat="23.081612" lon="113.274144">
        <time>2026-09-06T00:17:24Z</time>
      </trkpt>
      <trkpt lat="23.081721" lon="113.274162">
        <time>2026-09-06T00:17:29Z</time>
      </trkpt>
      <trkpt lat="23.081833" lon="113.274137">
        <time>2026-09-06T00:17:34Z</time>
      </trkpt>
      <trkpt lat="23.081925" lon="113.274068">
        <time>2026-09-06T00:17:39Z</time>
      </trkpt>
      <trkpt lat="23.082003" lon="113.273969">
        <time>2026-09-06T00:17:44Z</time>
      </trkpt>
      <trkpt lat="23.082062" lon="113.273852">
        <time>2026-09-06T00:17:49Z</time>
      </trkpt>
      <trkpt lat="23.082087" lon="113.273724">
        <time>2026-09-06T00:17:54Z</time>
      </trkpt>
      <trkpt lat="23.082056" lon="113.273585">
        <time>2026-09-06T00:17:59Z</time>
      </trkpt>
      <trkpt lat="23.081988" lon="113.273455">
        <time>2026-09-06T00:18:04Z</time>
      </trkpt>
      <trkpt lat="23.081897" lon="113.273375">
        <time>2026-09-06T00:18:09Z</time>
      </trkpt>
      <trkpt lat="23.081791" lon="113.273322">
        <time>2026-09-06T00:18:14Z</time>
      </trkpt>
      <trkpt lat="23.081682" lon="113.273275">
        <time>2026-09-06T00:18:19Z</time>
      </trkpt>
      <trkpt lat="23.08158" lon="113.273228">
        <time>2026-09-06T00:18:24Z</time>
      </trkpt>
      <trkpt lat="23.081483" lon="113.273181">
        <time>2026-09-06T00:18:29Z</time>
      </trkpt>
      <trkpt lat="23.081385" lon="113.273141">
        <time>2026-09-06T00:18:34Z</time>
      </trkpt>
      <trkpt lat="23.081281" lon="113.273111">
        <time>2026-09-06T00:18:39Z</time>
      </trkpt>
      <trkpt lat="23.081173" lon="113.273071">
        <time>2026-09-06T00:18:44Z</time>
      </trkpt>
      <trkpt lat="23.081075" lon="113.273007">
        <time>2026-09-06T00:18:49Z</time>
      </trkpt>
      <trkpt lat="23.080979" lon="113.272948">
        <time>2026-09-06T00:18:54Z</time>
      </trkpt>
      <trkpt lat="23.080875" lon="113.272994">
        <time>2026-09-06T00:18:59Z</time>
      </trkpt>
      <trkpt lat="23.08077" lon="113.273145">
        <time>2026-09-06T00:19:04Z</time>
      </trkpt>
      <trkpt lat="23.080673" lon="113.273312">
        <time>2026-09-06T00:19:09Z</time>
      </trkpt>
      <trkpt lat="23.080593" lon="113.273472">
        <time>2026-09-06T00:19:14Z</time>
      </trkpt>
      <trkpt lat="23.0806" lon="113.273622">
        <time>2026-09-06T00:19:19Z</time>
      </trkpt>
      <trkpt lat="23.080665" lon="113.273745">
        <time>2026-09-06T00:19:24Z</time>
      </trkpt>
      <trkpt lat="23.08077" lon="113.273823">
        <time>2026-09-06T00:19:29Z</time>
      </trkpt>
      <trkpt lat="23.080896" lon="113.273875">
        <time>2026-09-06T00:19:34Z</time>
      </trkpt>
      <trkpt lat="23.081023" lon="113.273919">
        <time>2026-09-06T00:19:39Z</time>
      </trkpt>
      <trkpt lat="23.081141" lon="113.273956">
        <time>2026-09-06T00:19:44Z</time>
      </trkpt>
      <trkpt lat="23.081254" lon="113.273989">
        <time>2026-09-06T00:19:49Z</time>
      </trkpt>
      <trkpt lat="23.081364" lon="113.274022">
        <time>2026-09-06T00:19:54Z</time>
      </trkpt>
      <trkpt lat="23.081475" lon="113.274056">
        <time>2026-09-06T00:19:59Z</time>
      </trkpt>
      <trkpt lat="23.081588" lon="113.274089">
        <time>2026-09-06T00:20:04Z</time>
      </trkpt>
      <trkpt lat="23.081705" lon="113.274108">
        <time>2026-09-06T00:20:09Z</time>
      </trkpt>
      <trkpt lat="23.081825" lon="113.27409">
        <time>2026-09-06T00:20:14Z</time>
      </trkpt>
      <trkpt lat="23.08193" lon="113.274032">
        <time>2026-09-06T00:20:19Z</time>
      </trkpt>
      <trkpt lat="23.082011" lon="113.273934">
        <time>2026-09-06T00:20:24Z</time>
      </trkpt>
      <trkpt lat="23.082063" lon="113.273817">
        <time>2026-09-06T00:20:29Z</time>
      </trkpt>
      <trkpt lat="23.082084" lon="113.273691">
        <time>2026-09-06T00:20:34Z</time>
      </trkpt>
      <trkpt lat="23.082051" lon="113.273569">
        <time>2026-09-06T00:20:39Z</time>
      </trkpt>
      <trkpt lat="23.081984" lon="113.273453">
        <time>2026-09-06T00:20:44Z</time>
      </trkpt>
      <trkpt lat="23.081902" lon="113.273382">
        <time>2026-09-06T00:20:49Z</time>
      </trkpt>
      <trkpt lat="23.08181" lon="113.273325">
        <time>2026-09-06T00:20:54Z</time>
      </trkpt>
      <trkpt lat="23.081699" lon="113.273258">
        <time>2026-09-06T00:20:59Z</time>
      </trkpt>
      <trkpt lat="23.081585" lon="113.273201">
        <time>2026-09-06T00:21:04Z</time>
      </trkpt>
      <trkpt lat="23.081479" lon="113.273151">
        <time>2026-09-06T00:21:09Z</time>
      </trkpt>
      <trkpt lat="23.08137" lon="113.273116">
        <time>2026-09-06T00:21:14Z</time>
      </trkpt>
      <trkpt lat="23.081261" lon="113.273096">
        <time>2026-09-06T00:21:19Z</time>
      </trkpt>
      <trkpt lat="23.08115" lon="113.273069">
        <time>2026-09-06T00:21:24Z</time>
      </trkpt>
      <trkpt lat="23.081039" lon="113.273023">
        <time>2026-09-06T00:21:29Z</time>
      </trkpt>
      <trkpt lat="23.080946" lon="113.27299">
        <time>2026-09-06T00:21:34Z</time>
      </trkpt>
      <trkpt lat="23.080871" lon="113.273046">
        <time>2026-09-06T00:21:39Z</time>
      </trkpt>
      <trkpt lat="23.080779" lon="113.273195">
        <time>2026-09-06T00:21:44Z</time>
      </trkpt>
      <trkpt lat="23.080615" lon="113.273407">
        <time>2026-09-06T00:21:49Z</time>
      </trkpt>
      <trkpt lat="23.080589" lon="113.27357">
        <time>2026-09-06T00:21:54Z</time>
      </trkpt>
      <trkpt lat="23.080636" lon="113.273703">
        <time>2026-09-06T00:21:59Z</time>
      </trkpt>
      <trkpt lat="23.0807" lon="113.273814">
        <time>2026-09-06T00:22:04Z</time>
      </trkpt>
      <trkpt lat="23.080807" lon="113.273886">
        <time>2026-09-06T00:22:09Z</time>
      </trkpt>
      <trkpt lat="23.080938" lon="113.273927">
        <time>2026-09-06T00:22:14Z</time>
      </trkpt>
      <trkpt lat="23.081072" lon="113.273957">
        <time>2026-09-06T00:22:19Z</time>
      </trkpt>
      <trkpt lat="23.081194" lon="113.273985">
        <time>2026-09-06T00:22:24Z</time>
      </trkpt>
      <trkpt lat="23.081312" lon="113.274018">
        <time>2026-09-06T00:22:29Z</time>
      </trkpt>
      <trkpt lat="23.081428" lon="113.27405">
        <time>2026-09-06T00:22:34Z</time>
      </trkpt>
      <trkpt lat="23.081547" lon="113.274081">
        <time>2026-09-06T00:22:39Z</time>
      </trkpt>
      <trkpt lat="23.081666" lon="113.274113">
        <time>2026-09-06T00:22:44Z</time>
      </trkpt>
      <trkpt lat="23.08179" lon="113.274116">
        <time>2026-09-06T00:22:49Z</time>
      </trkpt>
      <trkpt lat="23.081905" lon="113.274069">
        <time>2026-09-06T00:22:54Z</time>
      </trkpt>
      <trkpt lat="23.081989" lon="113.273986">
        <time>2026-09-06T00:22:59Z</time>
      </trkpt>
      <trkpt lat="23.082058" lon="113.273859">
        <time>2026-09-06T00:23:04Z</time>
      </trkpt>
      <trkpt lat="23.08209" lon="113.273719">
        <time>2026-09-06T00:23:09Z</time>
      </trkpt>
      <trkpt lat="23.082075" lon="113.273587">
        <time>2026-09-06T00:23:14Z</time>
      </trkpt>
      <trkpt lat="23.082013" lon="113.273469">
        <time>2026-09-06T00:23:19Z</time>
      </trkpt>
      <trkpt lat="23.081924" lon="113.2734">
        <time>2026-09-06T00:23:24Z</time>
      </trkpt>
      <trkpt lat="23.081827" lon="113.273364">
        <time>2026-09-06T00:23:29Z</time>
      </trkpt>
      <trkpt lat="23.081726" lon="113.273302">
        <time>2026-09-06T00:23:34Z</time>
      </trkpt>
      <trkpt lat="23.081626" lon="113.273231">
        <time>2026-09-06T00:23:39Z</time>
      </trkpt>
      <trkpt lat="23.081519" lon="113.273174">
        <time>2026-09-06T00:23:44Z</time>
      </trkpt>
      <trkpt lat="23.081411" lon="113.273125">
        <time>2026-09-06T00:23:49Z</time>
      </trkpt>
      <trkpt lat="23.081305" lon="113.273083">
        <time>2026-09-06T00:23:54Z</time>
      </trkpt>
      <trkpt lat="23.081194" lon="113.273038">
        <time>2026-09-06T00:23:59Z</time>
      </trkpt>
      <trkpt lat="23.081088" lon="113.272999">
        <time>2026-09-06T00:24:04Z</time>
      </trkpt>
      <trkpt lat="23.080986" lon="113.272966">
        <time>2026-09-06T00:24:09Z</time>
      </trkpt>
      <trkpt lat="23.08088" lon="113.273">
        <time>2026-09-06T00:24:14Z</time>
      </trkpt>
      <trkpt lat="23.080768" lon="113.273125">
        <time>2026-09-06T00:24:19Z</time>
      </trkpt>
      <trkpt lat="23.080672" lon="113.273287">
        <time>2026-09-06T00:24:24Z</time>
      </trkpt>
      <trkpt lat="23.080617" lon="113.273444">
        <time>2026-09-06T00:24:29Z</time>
      </trkpt>
      <trkpt lat="23.080604" lon="113.273592">
        <time>2026-09-06T00:24:34Z</time>
      </trkpt>
      <trkpt lat="23.080644" lon="113.273725">
        <time>2026-09-06T00:24:39Z</time>
      </trkpt>
      <trkpt lat="23.080706" lon="113.273806">
        <time>2026-09-06T00:24:44Z</time>
      </trkpt>
      <trkpt lat="23.080823" lon="113.273875">
        <time>2026-09-06T00:24:49Z</time>
      </trkpt>
      <trkpt lat="23.08096" lon="113.273922">
        <time>2026-09-06T00:24:54Z</time>
      </trkpt>
      <trkpt lat="23.081092" lon="113.273963">
        <time>2026-09-06T00:24:59Z</time>
      </trkpt>
      <trkpt lat="23.081214" lon="113.274">
        <time>2026-09-06T00:25:04Z</time>
      </trkpt>
      <trkpt lat="23.081327" lon="113.274029">
        <time>2026-09-06T00:25:09Z</time>
      </trkpt>
      <trkpt lat="23.081442" lon="113.274052">
        <time>2026-09-06T00:25:14Z</time>
      </trkpt>
      <trkpt lat="23.081562" lon="113.27408">
        <time>2026-09-06T00:25:19Z</time>
      </trkpt>
      <trkpt lat="23.081683" lon="113.27411">
        <time>2026-09-06T00:25:24Z</time>
      </trkpt>
      <trkpt lat="23.081806" lon="113.274107">
        <time>2026-09-06T00:25:29Z</time>
      </trkpt>
      <trkpt lat="23.081918" lon="113.274058">
        <time>2026-09-06T00:25:34Z</time>
      </trkpt>
      <trkpt lat="23.082001" lon="113.273976">
        <time>2026-09-06T00:25:39Z</time>
      </trkpt>
      <trkpt lat="23.08206" lon="113.273869">
        <time>2026-09-06T00:25:44Z</time>
      </trkpt>
      <trkpt lat="23.082081" lon="113.273748">
        <time>2026-09-06T00:25:49Z</time>
      </trkpt>
      <trkpt lat="23.082073" lon="113.273619">
        <time>2026-09-06T00:25:54Z</time>
      </trkpt>
      <trkpt lat="23.082046" lon="113.273486">
        <time>2026-09-06T00:25:59Z</time>
      </trkpt>
      <trkpt lat="23.081992" lon="113.273379">
        <time>2026-09-06T00:26:04Z</time>
      </trkpt>
      <trkpt lat="23.081884" lon="113.273324">
        <time>2026-09-06T00:26:09Z</time>
      </trkpt>
      <trkpt lat="23.081779" lon="113.273291">
        <time>2026-09-06T00:26:14Z</time>
      </trkpt>
      <trkpt lat="23.081683" lon="113.273231">
        <time>2026-09-06T00:26:19Z</time>
      </trkpt>
      <trkpt lat="23.08158" lon="113.273188">
        <time>2026-09-06T00:26:24Z</time>
      </trkpt>
      <trkpt lat="23.081498" lon="113.27317">
        <time>2026-09-06T00:26:29Z</time>
      </trkpt>
      <trkpt lat="23.081484" lon="113.273126">
        <time>2026-09-06T00:26:34Z</time>
      </trkpt>
      <trkpt lat="23.081474" lon="113.272971">
        <time>2026-09-06T00:26:39Z</time>
      </trkpt>
      <trkpt lat="23.081372" lon="113.272877">
        <time>2026-09-06T00:26:44Z</time>
      </trkpt>
      <trkpt lat="23.081265" lon="113.272847">
        <time>2026-09-06T00:26:49Z</time>
      </trkpt>
      <trkpt lat="23.081161" lon="113.272827">
        <time>2026-09-06T00:26:54Z</time>
      </trkpt>
      <trkpt lat="23.08106" lon="113.2728">
        <time>2026-09-06T00:26:59Z</time>
      </trkpt>
      <trkpt lat="23.08096" lon="113.272771">
        <time>2026-09-06T00:27:04Z</time>
      </trkpt>
      <trkpt lat="23.080864" lon="113.272733">
        <time>2026-09-06T00:27:09Z</time>
      </trkpt>
      <trkpt lat="23.080767" lon="113.27268">
        <time>2026-09-06T00:27:14Z</time>
      </trkpt>
      <trkpt lat="23.080651" lon="113.272624">
        <time>2026-09-06T00:27:19Z</time>
      </trkpt>
      <trkpt lat="23.080542" lon="113.27259">
        <time>2026-09-06T00:27:24Z</time>
      </trkpt>
      <trkpt lat="23.080448" lon="113.272556">
        <time>2026-09-06T00:27:29Z</time>
      </trkpt>
      <trkpt lat="23.08036" lon="113.272526">
        <time>2026-09-06T00:27:34Z</time>
      </trkpt>
      <trkpt lat="23.080265" lon="113.2725">
        <time>2026-09-06T00:27:39Z</time>
      </trkpt>
      <trkpt lat="23.080153" lon="113.272458">
        <time>2026-09-06T00:27:44Z</time>
      </trkpt>
      <trkpt lat="23.080037" lon="113.272398">
        <time>2026-09-06T00:27:49Z</time>
      </trkpt>
      <trkpt lat="23.079911" lon="113.27237">
        <time>2026-09-06T00:27:54Z</time>
      </trkpt>
      <trkpt lat="23.079794" lon="113.272338">
        <time>2026-09-06T00:27:59Z</time>
      </trkpt>
      <trkpt lat="23.079701" lon="113.272353">
        <time>2026-09-06T00:28:04Z</time>
      </trkpt>
      <trkpt lat="23.079593" lon="113.272334">
        <time>2026-09-06T00:28:09Z</time>
      </trkpt>
      <trkpt lat="23.079466" lon="113.272284">
        <time>2026-09-06T00:28:14Z</time>
      </trkpt>
      <trkpt lat="23.079387" lon="113.272219">
        <time>2026-09-06T00:28:19Z</time>
      </trkpt>
      <trkpt lat="23.079339" lon="113.272111">
        <time>2026-09-06T00:28:24Z</time>
      </trkpt>
      <trkpt lat="23.079263" lon="113.272061">
        <time>2026-09-06T00:28:29Z</time>
      </trkpt>
      <trkpt lat="23.079167" lon="113.272117">
        <time>2026-09-06T00:28:34Z</time>
      </trkpt>
      <trkpt lat="23.079044" lon="113.272197">
        <time>2026-09-06T00:28:39Z</time>
      </trkpt>
      <trkpt lat="23.078947" lon="113.272266">
        <time>2026-09-06T00:28:44Z</time>
      </trkpt>
      <trkpt lat="23.07888" lon="113.272355">
        <time>2026-09-06T00:28:49Z</time>
      </trkpt>
      <trkpt lat="23.078803" lon="113.272461">
        <time>2026-09-06T00:28:54Z</time>
      </trkpt>
      <trkpt lat="23.078728" lon="113.272547">
        <time>2026-09-06T00:28:59Z</time>
      </trkpt>
      <trkpt lat="23.07864" lon="113.272608">
        <time>2026-09-06T00:29:04Z</time>
      </trkpt>
      <trkpt lat="23.078551" lon="113.272675">
        <time>2026-09-06T00:29:09Z</time>
      </trkpt>
      <trkpt lat="23.078462" lon="113.27275">
        <time>2026-09-06T00:29:14Z</time>
      </trkpt>
      <trkpt lat="23.078366" lon="113.272799">
        <time>2026-09-06T00:29:19Z</time>
      </trkpt>
      <trkpt lat="23.078269" lon="113.272861">
        <time>2026-09-06T00:29:24Z</time>
      </trkpt>
      <trkpt lat="23.078186" lon="113.272895">
        <time>2026-09-06T00:29:29Z</time>
      </trkpt>
      <trkpt lat="23.078116" lon="113.272997">
        <time>2026-09-06T00:29:34Z</time>
      </trkpt>
      <trkpt lat="23.078034" lon="113.273154">
        <time>2026-09-06T00:29:39Z</time>
      </trkpt>
      <trkpt lat="23.077961" lon="113.273266">
        <time>2026-09-06T00:29:44Z</time>
      </trkpt>
      <trkpt lat="23.077846" lon="113.273367">
        <time>2026-09-06T00:29:49Z</time>
      </trkpt>
      <trkpt lat="23.077716" lon="113.273441">
        <time>2026-09-06T00:29:54Z</time>
      </trkpt>
      <trkpt lat="23.077568" lon="113.273504">
        <time>2026-09-06T00:29:59Z</time>
      </trkpt>
      <trkpt lat="23.077452" lon="113.273556">
        <time>2026-09-06T00:30:04Z</time>
      </trkpt>
      <trkpt lat="23.077349" lon="113.273579">
        <time>2026-09-06T00:30:09Z</time>
      </trkpt>
      <trkpt lat="23.077257" lon="113.27358">
        <time>2026-09-06T00:30:14Z</time>
      </trkpt>
      <trkpt lat="23.077145" lon="113.273549">
        <time>2026-09-06T00:30:19Z</time>
      </trkpt>
      <trkpt lat="23.077034" lon="113.273491">
        <time>2026-09-06T00:30:24Z</time>
      </trkpt>
      <trkpt lat="23.076938" lon="113.27341">
        <time>2026-09-06T00:30:29Z</time>
      </trkpt>
      <trkpt lat="23.076844" lon="113.27334">
        <time>2026-09-06T00:30:34Z</time>
      </trkpt>
      <trkpt lat="23.076853" lon="113.273281">
        <time>2026-09-06T00:30:39Z</time>
      </trkpt>
      <trkpt lat="23.076843" lon="113.273159">
        <time>2026-09-06T00:30:44Z</time>
      </trkpt>
      <trkpt lat="23.076774" lon="113.273046">
        <time>2026-09-06T00:30:49Z</time>
      </trkpt>
      <trkpt lat="23.076695" lon="113.272965">
        <time>2026-09-06T00:30:54Z</time>
      </trkpt>
      <trkpt lat="23.076609" lon="113.272902">
        <time>2026-09-06T00:30:59Z</time>
      </trkpt>
      <trkpt lat="23.076521" lon="113.272834">
        <time>2026-09-06T00:31:04Z</time>
      </trkpt>
      <trkpt lat="23.07645" lon="113.272764">
        <time>2026-09-06T00:31:09Z</time>
      </trkpt>
      <trkpt lat="23.076377" lon="113.272697">
        <time>2026-09-06T00:31:14Z</time>
      </trkpt>
      <trkpt lat="23.076301" lon="113.272632">
        <time>2026-09-06T00:31:19Z</time>
      </trkpt>
      <trkpt lat="23.076253" lon="113.272574">
        <time>2026-09-06T00:31:24Z</time>
      </trkpt>
      <trkpt lat="23.076179" lon="113.272507">
        <time>2026-09-06T00:31:29Z</time>
      </trkpt>
      <trkpt lat="23.076074" lon="113.272429">
        <time>2026-09-06T00:31:34Z</time>
      </trkpt>
      <trkpt lat="23.075928" lon="113.272376">
        <time>2026-09-06T00:31:39Z</time>
      </trkpt>
      <trkpt lat="23.075781" lon="113.272357">
        <time>2026-09-06T00:31:44Z</time>
      </trkpt>
      <trkpt lat="23.075673" lon="113.272323">
        <time>2026-09-06T00:31:49Z</time>
      </trkpt>
      <trkpt lat="23.075562" lon="113.272277">
        <time>2026-09-06T00:31:54Z</time>
      </trkpt>
      <trkpt lat="23.075462" lon="113.272216">
        <time>2026-09-06T00:31:59Z</time>
      </trkpt>
      <trkpt lat="23.075386" lon="113.272156">
        <time>2026-09-06T00:32:04Z</time>
      </trkpt>
      <trkpt lat="23.075327" lon="113.272142">
        <time>2026-09-06T00:32:09Z</time>
      </trkpt>
      <trkpt lat="23.075309" lon="113.27215">
        <time>2026-09-06T00:32:14Z</time>
      </trkpt>
      <trkpt lat="23.075263" lon="113.27226">
        <time>2026-09-06T00:32:19Z</time>
      </trkpt>
      <trkpt lat="23.075214" lon="113.272406">
        <time>2026-09-06T00:32:24Z</time>
      </trkpt>
      <trkpt lat="23.075237" lon="113.272537">
        <time>2026-09-06T00:32:29Z</time>
      </trkpt>
      <trkpt lat="23.075251" lon="113.272711">
        <time>2026-09-06T00:32:34Z</time>
      </trkpt>
      <trkpt lat="23.075272" lon="113.272843">
        <time>2026-09-06T00:32:39Z</time>
      </trkpt>
      <trkpt lat="23.075309" lon="113.272939">
        <time>2026-09-06T00:32:44Z</time>
      </trkpt>
      <trkpt lat="23.075344" lon="113.273043">
        <time>2026-09-06T00:32:49Z</time>
      </trkpt>
      <trkpt lat="23.075374" lon="113.273154">
        <time>2026-09-06T00:32:54Z</time>
      </trkpt>
      <trkpt lat="23.075396" lon="113.273269">
        <time>2026-09-06T00:32:59Z</time>
      </trkpt>
      <trkpt lat="23.075441" lon="113.273374">
        <time>2026-09-06T00:33:04Z</time>
      </trkpt>
      <trkpt lat="23.075519" lon="113.273441">
        <time>2026-09-06T00:33:09Z</time>
      </trkpt>
      <trkpt lat="23.075625" lon="113.273418">
        <time>2026-09-06T00:33:14Z</time>
      </trkpt>
      <trkpt lat="23.07569" lon="113.273319">
        <time>2026-09-06T00:33:19Z</time>
      </trkpt>
      <trkpt lat="23.075735" lon="113.273206">
        <time>2026-09-06T00:33:24Z</time>
      </trkpt>
      <trkpt lat="23.07577" lon="113.273098">
        <time>2026-09-06T00:33:29Z</time>
      </trkpt>
      <trkpt lat="23.075802" lon="113.272968">
        <time>2026-09-06T00:33:34Z</time>
      </trkpt>
      <trkpt lat="23.075854" lon="113.272837">
        <time>2026-09-06T00:33:39Z</time>
      </trkpt>
      <trkpt lat="23.075831" lon="113.272763">
        <time>2026-09-06T00:33:44Z</time>
      </trkpt>
      <trkpt lat="23.075736" lon="113.272718">
        <time>2026-09-06T00:33:49Z</time>
      </trkpt>
      <trkpt lat="23.075626" lon="113.272682">
        <time>2026-09-06T00:33:54Z</time>
      </trkpt>
      <trkpt lat="23.07551" lon="113.272643">
        <time>2026-09-06T00:33:59Z</time>
      </trkpt>
      <trkpt lat="23.075404" lon="113.272599">
        <time>2026-09-06T00:34:04Z</time>
      </trkpt>
      <trkpt lat="23.075302" lon="113.272554">
        <time>2026-09-06T00:34:09Z</time>
      </trkpt>
      <trkpt lat="23.075272" lon="113.272538">
        <time>2026-09-06T00:34:14Z</time>
      </trkpt>
      <trkpt lat="23.075363" lon="113.272573">
        <time>2026-09-06T00:34:19Z</time>
      </trkpt>
      <trkpt lat="23.075483" lon="113.272611">
        <time>2026-09-06T00:34:24Z</time>
      </trkpt>
    </trkseg>
  </trk>
</gpx>