<?xml version="1.0" encoding="UTF-8"?>
<gpx xmlns="http://www.topografix.com/GPX/1/1" xmlns:gpxtpx="http://www.garmin.com/xmlschemas/TrackPointExtension/v1" xmlns:xsi="http://www.w3.org/2001/XMLSchema-instance" xsi:schemaLocation="http://www.topografix.com/GPX/1/1 http://www.topografix.com/GPX/1/1/gpx.xsd" version="1.1" creator="gpx.py -- https://github.com/tkrajina/gpxpy">
  <trk>
    <name>gpx from joyrun</name>
    <trkseg>
      <trkpt lat="23.076031" lon="113.272995">
        <time>2026-09-09T22:25:21Z</time>
      </trkpt>
      <trkpt lat="23.075983" lon="113.272888">
        <time>2026-09-09T22:25:26Z</time>
      </trkpt>
      <trkpt lat="23.075882" lon="113.272749">
        <time>2026-09-09T22:25:31Z</time>
      </trkpt>
      <trkpt lat="23.075753" lon="113.272653">
        <time>2026-09-09T22:25:36Z</time>
      </trkpt>
      <trkpt lat="23.075625" lon="113.272581">
        <time>2026-09-09T22:25:41Z</time>
      </trkpt>
      <trkpt lat="23.075502" lon="113.272525">
        <time>2026-09-09T22:25:46Z</time>
      </trkpt>
      <trkpt lat="23.075388" lon="113.272481">
        <time>2026-09-09T22:25:51Z</time>
      </trkpt>
      <trkpt lat="23.075258" lon="113.27245">
        <time>2026-09-09T22:25:56Z</time>
      </trkpt>
      <trkpt lat="23.075136" lon="113.272401">
        <time>2026-09-09T22:26:01Z</time>
      </trkpt>
      <trkpt lat="23.075025" lon="113.272329">
        <time>2026-09-09T22:26:06Z</time>
      </trkpt>
      <trkpt lat="23.074909" lon="113.272232">
        <time>2026-09-09T22:26:11Z</time>
      </trkpt>
      <trkpt lat="23.074797" lon="113.272141">
        <time>2026-09-09T22:26:16Z</time>
      </trkpt>
      <trkpt lat="23.074674" lon="113.272067">
        <time>2026-09-09T22:26:21Z</time>
      </trkpt>
      <trkpt lat="23.074547" lon="113.271999">
        <time>2026-09-09T22:26:26Z</time>
      </trkpt>
      <trkpt lat="23.074429" lon="113.271987">
        <time>2026-09-09T22:26:31Z</time>
      </trkpt>
      <trkpt lat="23.074343" lon="113.27207">
        <time>2026-09-09T22:26:36Z</time>
      </trkpt>
      <trkpt lat="23.074279" lon="113.272178">
        <time>2026-09-09T22:26:41Z</time>
      </trkpt>
      <trkpt lat="23.074236" lon="113.272312">
        <time>2026-09-09T22:26:46Z</time>
      </trkpt>
      <trkpt lat="23.074195" lon="113.27246">
        <time>2026-09-09T22:26:51Z</time>
      </trkpt>
      <trkpt lat="23.074143" lon="113.272586">
        <time>2026-09-09T22:26:56Z</time>
      </trkpt>
      <trkpt lat="23.074097" lon="113.272707">
        <time>2026-09-09T22:27:01Z</time>
      </trkpt>
      <trkpt lat="23.074055" lon="113.272826">
        <time>2026-09-09T22:27:06Z</time>
      </trkpt>
      <trkpt lat="23.074014" lon="113.27295">
        <time>2026-09-09T22:27:11Z</time>
      </trkpt>
      <trkpt lat="23.073969" lon="113.273031">
        <time>2026-09-09T22:27:16Z</time>
      </trkpt>
      <trkpt lat="23.073904" lon="113.273008">
        <time>2026-09-09T22:27:21Z</time>
      </trkpt>
      <trkpt lat="23.073794" lon="113.272933">
        <time>2026-09-09T22:27:26Z</time>
      </trkpt>
      <trkpt lat="23.073695" lon="113.272861">
        <time>2026-09-09T22:27:31Z</time>
      </trkpt>
      <trkpt lat="23.073696" lon="113.272766">
        <time>2026-09-09T22:27:36Z</time>
      </trkpt>
      <trkpt lat="23.073734" lon="113.272655">
        <time>2026-09-09T22:27:41Z</time>
      </trkpt>
      <trkpt lat="23.073772" lon="113.272542">
        <time>2026-09-09T22:27:46Z</time>
      </trkpt>
      <trkpt lat="23.073805" lon="113.272431">
        <time>2026-09-09T22:27:51Z</time>
      </trkpt>
      <trkpt lat="23.073849" lon="113.272309">
        <time>2026-09-09T22:27:56Z</time>
      </trkpt>
      <trkpt lat="23.073907" lon="113.272186">
        <time>2026-09-09T22:28:01Z</time>
      </trkpt>
      <trkpt lat="23.073978" lon="113.272071">
        <time>2026-09-09T22:28:06Z</time>
      </trkpt>
      <trkpt lat="23.074067" lon="113.27194">
        <time>2026-09-09T22:28:11Z</time>
      </trkpt>
      <trkpt lat="23.074133" lon="113.271808">
        <time>2026-09-09T22:28:16Z</time>
      </trkpt>
      <trkpt lat="23.074092" lon="113.271717">
        <time>2026-09-09T22:28:21Z</time>
      </trkpt>
      <trkpt lat="23.073978" lon="113.271653">
        <time>2026-09-09T22:28:26Z</time>
      </trkpt>
      <trkpt lat="23.073858" lon="113.271589">
        <time>2026-09-09T22:28:31Z</time>
      </trkpt>
      <trkpt lat="23.07373" lon="113.27153">
        <time>2026-09-09T22:28:36Z</time>
      </trkpt>
      <trkpt lat="23.073582" lon="113.271495">
        <time>2026-09-09T22:28:41Z</time>
      </trkpt>
      <trkpt lat="23.073446" lon="113.271456">
        <time>2026-09-09T22:28:46Z</time>
      </trkpt>
      <trkpt lat="23.073322" lon="113.271422">
        <time>2026-09-09T22:28:51Z</time>
      </trkpt>
      <trkpt lat="23.073215" lon="113.27138">
        <time>2026-09-09T22:28:56Z</time>
      </trkpt>
      <trkpt lat="23.07311" lon="113.271311">
        <time>2026-09-09T22:29:01Z</time>
      </trkpt>
      <trkpt lat="23.073002" lon="113.271257">
        <time>2026-09-09T22:29:06Z</time>
      </trkpt>
      <trkpt lat="23.072881" lon="113.271194">
        <time>2026-09-09T22:29:11Z</time>
      </trkpt>
      <trkpt lat="23.07276" lon="113.271117">
        <time>2026-09-09T22:29:16Z</time>
      </trkpt>
      <trkpt lat="23.072637" lon="113.271049">
        <time>2026-09-09T22:29:21Z</time>
      </trkpt>
      <trkpt lat="23.072505" lon="113.270979">
        <time>2026-09-09T22:29:26Z</time>
      </trkpt>
      <trkpt lat="23.072366" lon="113.270929">
        <time>2026-09-09T22:29:31Z</time>
      </trkpt>
      <trkpt lat="23.072241" lon="113.270879">
        <time>2026-09-09T22:29:36Z</time>
      </trkpt>
      <trkpt lat="23.07211" lon="113.270823">
        <time>2026-09-09T22:29:41Z</time>
      </trkpt>
      <trkpt lat="23.071986" lon="113.270782">
        <time>2026-09-09T22:29:46Z</time>
      </trkpt>
      <trkpt lat="23.071866" lon="113.270721">
        <time>2026-09-09T22:29:51Z</time>
      </trkpt>
      <trkpt lat="23.071753" lon="113.27065">
        <time>2026-09-09T22:29:56Z</time>
      </trkpt>
      <trkpt lat="23.071637" lon="113.270588">
        <time>2026-09-09T22:30:01Z</time>
      </trkpt>
      <trkpt lat="23.071522" lon="113.270539">
        <time>2026-09-09T22:30:06Z</time>
      </trkpt>
      <trkpt lat="23.071424" lon="113.270477">
        <time>2026-09-09T22:30:11Z</time>
      </trkpt>
      <trkpt lat="23.07134" lon="113.27042">
        <time>2026-09-09T22:30:16Z</time>
      </trkpt>
      <trkpt lat="23.071217" lon="113.270338">
        <time>2026-09-09T22:30:21Z</time>
      </trkpt>
      <trkpt lat="23.071092" lon="113.270274">
        <time>2026-09-09T22:30:26Z</time>
      </trkpt>
      <trkpt lat="23.07098" lon="113.270214">
        <time>2026-09-09T22:30:31Z</time>
      </trkpt>
      <trkpt lat="23.070873" lon="113.270154">
        <time>2026-09-09T22:30:36Z</time>
      </trkpt>
      <trkpt lat="23.070753" lon="113.270099">
        <time>2026-09-09T22:30:41Z</time>
      </trkpt>
      <trkpt lat="23.070617" lon="113.270037">
        <time>2026-09-09T22:30:46Z</time>
      </trkpt>
      <trkpt lat="23.070477" lon="113.269998">
        <time>2026-09-09T22:30:51Z</time>
      </trkpt>
      <trkpt lat="23.070348" lon="113.269956">
        <time>2026-09-09T22:30:56Z</time>
      </trkpt>
      <trkpt lat="23.070216" lon="113.269912">
        <time>2026-09-09T22:31:01Z</time>
      </trkpt>
      <trkpt lat="23.070091" lon="113.269853">
        <time>2026-09-09T22:31:06Z</time>
      </trkpt>
      <trkpt lat="23.069987" lon="113.269749">
        <time>2026-09-09T22:31:11Z</time>
      </trkpt>
      <trkpt lat="23.069866" lon="113.269675">
        <time>2026-09-09T22:31:16Z</time>
      </trkpt>
      <trkpt lat="23.069742" lon="113.269597">
        <time>2026-09-09T22:31:21Z</time>
      </trkpt>
      <trkpt lat="23.069616" lon="113.269519">
        <time>2026-09-09T22:31:26Z</time>
      </trkpt>
      <trkpt lat="23.069492" lon="113.269454">
        <time>2026-09-09T22:31:31Z</time>
      </trkpt>
      <trkpt lat="23.069369" lon="113.269398">
        <time>2026-09-09T22:31:36Z</time>
      </trkpt>
      <trkpt lat="23.069256" lon="113.269327">
        <time>2026-09-09T22:31:41Z</time>
      </trkpt>
      <trkpt lat="23.069165" lon="113.269231">
        <time>2026-09-09T22:31:46Z</time>
      </trkpt>
      <trkpt lat="23.069052" lon="113.269174">
        <time>2026-09-09T22:31:51Z</time>
      </trkpt>
      <trkpt lat="23.068926" lon="113.269115">
        <time>2026-09-09T22:31:56Z</time>
      </trkpt>
      <trkpt lat="23.0688" lon="113.269062">
        <time>2026-09-09T22:32:01Z</time>
      </trkpt>
      <trkpt lat="23.068681" lon="113.269017">
        <time>2026-09-09T22:32:06Z</time>
      </trkpt>
      <trkpt lat="23.068569" lon="113.268985">
        <time>2026-09-09T22:32:11Z</time>
      </trkpt>
      <trkpt lat="23.068462" lon="113.268975">
        <time>2026-09-09T22:32:16Z</time>
      </trkpt>
      <trkpt lat="23.068342" lon="113.26897">
        <time>2026-09-09T22:32:21Z</time>
      </trkpt>
      <trkpt lat="23.068223" lon="113.268899">
        <time>2026-09-09T22:32:26Z</time>
      </trkpt>
      <trkpt lat="23.068108" lon="113.26881">
        <time>2026-09-09T22:32:31Z</time>
      </trkpt>
      <trkpt lat="23.067981" lon="113.268675">
        <time>2026-09-09T22:32:36Z</time>
      </trkpt>
      <trkpt lat="23.067837" lon="113.268592">
        <time>2026-09-09T22:32:41Z</time>
      </trkpt>
      <trkpt lat="23.067704" lon="113.268526">
        <time>2026-09-09T22:32:46Z</time>
      </trkpt>
      <trkpt lat="23.067596" lon="113.268426">
        <time>2026-09-09T22:32:51Z</time>
      </trkpt>
      <trkpt lat="23.067481" lon="113.26832">
        <time>2026-09-09T22:32:56Z</time>
      </trkpt>
      <trkpt lat="23.067346" lon="113.268265">
        <time>2026-09-09T22:33:01Z</time>
      </trkpt>
      <trkpt lat="23.067218" lon="113.268216">
        <time>2026-09-09T22:33:06Z</time>
      </trkpt>
      <trkpt lat="23.067102" lon="113.268163">
        <time>2026-09-09T22:33:11Z</time>
      </trkpt>
      <trkpt lat="23.066986" lon="113.268095">
        <time>2026-09-09T22:33:16Z</time>
      </trkpt>
      <trkpt lat="23.066854" lon="113.268048">
        <time>2026-09-09T22:33:21Z</time>
      </trkpt>
      <trkpt lat="23.066705" lon="113.268025">
        <time>2026-09-09T22:33:26Z</time>
      </trkpt>
      <trkpt lat="23.066568" lon="113.267993">
        <time>2026-09-09T22:33:31Z</time>
      </trkpt>
      <trkpt lat="23.066446" lon="113.267938">
        <time>2026-09-09T22:33:36Z</time>
      </trkpt>
      <trkpt lat="23.066315" lon="113.267934">
        <time>2026-09-09T22:33:41Z</time>
      </trkpt>
      <trkpt lat="23.066196" lon="113.267987">
        <time>2026-09-09T22:33:46Z</time>
      </trkpt>
      <trkpt lat="23.066104" lon="113.268085">
        <time>2026-09-09T22:33:51Z</time>
      </trkpt>
      <trkpt lat="23.066022" lon="113.268201">
        <time>2026-09-09T22:33:56Z</time>
      </trkpt>
      <trkpt lat="23.065939" lon="113.268312">
        <time>2026-09-09T22:34:01Z</time>
      </trkpt>
      <trkpt lat="23.06586" lon="113.268434">
        <time>2026-09-09T22:34:06Z</time>
      </trkpt>
      <trkpt lat="23.065791" lon="113.268563">
        <time>2026-09-09T22:34:11Z</time>
      </trkpt>
      <trkpt lat="23.065731" lon="113.268701">
        <time>2026-09-09T22:34:16Z</time>
      </trkpt>
      <trkpt lat="23.065682" lon="113.268846">
        <time>2026-09-09T22:34:21Z</time>
      </trkpt>
      <trkpt lat="23.065629" lon="113.26899">
        <time>2026-09-09T22:34:26Z</time>
      </trkpt>
      <trkpt lat="23.065584" lon="113.269138">
        <time>2026-09-09T22:34:31Z</time>
      </trkpt>
      <trkpt lat="23.065548" lon="113.269283">
        <time>2026-09-09T22:34:36Z</time>
      </trkpt>
      <trkpt lat="23.065513" lon="113.269431">
        <time>2026-09-09T22:34:41Z</time>
      </trkpt>
      <trkpt lat="23.065478" lon="113.269577">
        <time>2026-09-09T22:34:46Z</time>
      </trkpt>
      <trkpt lat="23.065441" lon="113.269719">
        <time>2026-09-09T22:34:51Z</time>
      </trkpt>
      <trkpt lat="23.065402" lon="113.269864">
        <time>2026-09-09T22:34:56Z</time>
      </trkpt>
      <trkpt lat="23.065355" lon="113.270015">
        <time>2026-09-09T22:35:01Z</time>
      </trkpt>
      <trkpt lat="23.0653" lon="113.270157">
        <time>2026-09-09T22:35:06Z</time>
      </trkpt>
      <trkpt lat="23.065234" lon="113.27029">
        <time>2026-09-09T22:35:11Z</time>
      </trkpt>
      <trkpt lat="23.065171" lon="113.270421">
        <time>2026-09-09T22:35:16Z</time>
      </trkpt>
      <trkpt lat="23.065103" lon="113.270555">
        <time>2026-09-09T22:35:21Z</time>
      </trkpt>
      <trkpt lat="23.065041" lon="113.270693">
        <time>2026-09-09T22:35:26Z</time>
      </trkpt>
      <trkpt lat="23.064978" lon="113.270825">
        <time>2026-09-09T22:35:31Z</time>
      </trkpt>
      <trkpt lat="23.064923" lon="113.270956">
        <time>2026-09-09T22:35:36Z</time>
      </trkpt>
      <trkpt lat="23.064865" lon="113.271084">
        <time>2026-09-09T22:35:41Z</time>
      </trkpt>
      <trkpt lat="23.064806" lon="113.271216">
        <time>2026-09-09T22:35:46Z</time>
      </trkpt>
      <trkpt lat="23.064746" lon="113.271346">
        <time>2026-09-09T22:35:51Z</time>
      </trkpt>
      <trkpt lat="23.064691" lon="113.271474">
        <time>2026-09-09T22:35:56Z</time>
      </trkpt>
      <trkpt lat="23.064632" lon="113.271606">
        <time>2026-09-09T22:36:01Z</time>
      </trkpt>
      <trkpt lat="23.064576" lon="113.271737">
        <time>2026-09-09T22:36:06Z</time>
      </trkpt>
      <trkpt lat="23.064513" lon="113.271868">
        <time>2026-09-09T22:36:11Z</time>
      </trkpt>
      <trkpt lat="23.064453" lon="113.272002">
        <time>2026-09-09T22:36:16Z</time>
      </trkpt>
      <trkpt lat="23.06439" lon="113.272133">
        <time>2026-09-09T22:36:21Z</time>
      </trkpt>
      <trkpt lat="23.064352" lon="113.272278">
        <time>2026-09-09T22:36:26Z</time>
      </trkpt>
      <trkpt lat="23.064351" lon="113.272426">
        <time>2026-09-09T22:36:31Z</time>
      </trkpt>
      <trkpt lat="23.064354" lon="113.272574">
        <time>2026-09-09T22:36:36Z</time>
      </trkpt>
      <trkpt lat="23.064385" lon="113.272731">
        <time>2026-09-09T22:36:41Z</time>
      </trkpt>
      <trkpt lat="23.064438" lon="113.272899">
        <time>2026-09-09T22:36:46Z</time>
      </trkpt>
      <trkpt lat="23.064486" lon="113.27307">
        <time>2026-09-09T22:36:51Z</time>
      </trkpt>
      <trkpt lat="23.064484" lon="113.27324">
        <time>2026-09-09T22:36:56Z</time>
      </trkpt>
      <trkpt lat="23.064374" lon="113.27338">
        <time>2026-09-09T22:37:01Z</time>
      </trkpt>
      <trkpt lat="23.064219" lon="113.273486">
        <time>2026-09-09T22:37:06Z</time>
      </trkpt>
      <trkpt lat="23.064066" lon="113.273594">
        <time>2026-09-09T22:37:11Z</time>
      </trkpt>
      <trkpt lat="23.063932" lon="113.273727">
        <time>2026-09-09T22:37:16Z</time>
      </trkpt>
      <trkpt lat="23.063829" lon="113.273879">
        <time>2026-09-09T22:37:21Z</time>
      </trkpt>
      <trkpt lat="23.063739" lon="113.27404">
        <time>2026-09-09T22:37:26Z</time>
      </trkpt>
      <trkpt lat="23.063616" lon="113.274165">
        <time>2026-09-09T22:37:31Z</time>
      </trkpt>
      <trkpt lat="23.063515" lon="113.27431">
        <time>2026-09-09T22:37:36Z</time>
      </trkpt>
      <trkpt lat="23.063447" lon="113.274478">
        <time>2026-09-09T22:37:41Z</time>
      </trkpt>
      <trkpt lat="23.063388" lon="113.274652">
        <time>2026-09-09T22:37:46Z</time>
      </trkpt>
      <trkpt lat="23.063329" lon="113.274824">
        <time>2026-09-09T22:37:51Z</time>
      </trkpt>
      <trkpt lat="23.063266" lon="113.275004">
        <time>2026-09-09T22:37:56Z</time>
      </trkpt>
      <trkpt lat="23.063187" lon="113.275166">
        <time>2026-09-09T22:38:01Z</time>
      </trkpt>
      <trkpt lat="23.063095" lon="113.275308">
        <time>2026-09-09T22:38:06Z</time>
      </trkpt>
      <trkpt lat="23.063011" lon="113.275449">
        <time>2026-09-09T22:38:11Z</time>
      </trkpt>
      <trkpt lat="23.062912" lon="113.275589">
        <time>2026-09-09T22:38:16Z</time>
      </trkpt>
      <trkpt lat="23.062795" lon="113.275713">
        <time>2026-09-09T22:38:21Z</time>
      </trkpt>
      <trkpt lat="23.062673" lon="113.275831">
        <time>2026-09-09T22:38:26Z</time>
      </trkpt>
      <trkpt lat="23.062564" lon="113.275967">
        <time>2026-09-09T22:38:31Z</time>
      </trkpt>
      <trkpt lat="23.06247" lon="113.276124">
        <time>2026-09-09T22:38:36Z</time>
      </trkpt>
      <trkpt lat="23.062402" lon="113.276288">
        <time>2026-09-09T22:38:41Z</time>
      </trkpt>
      <trkpt lat="23.062351" lon="113.27645">
        <time>2026-09-09T22:38:46Z</time>
      </trkpt>
      <trkpt lat="23.062293" lon="113.276621">
        <time>2026-09-09T22:38:51Z</time>
      </trkpt>
      <trkpt lat="23.062234" lon="113.276786">
        <time>2026-09-09T22:38:56Z</time>
      </trkpt>
      <trkpt lat="23.062171" lon="113.276955">
        <time>2026-09-09T22:39:01Z</time>
      </trkpt>
      <trkpt lat="23.062102" lon="113.277131">
        <time>2026-09-09T22:39:06Z</time>
      </trkpt>
      <trkpt lat="23.062031" lon="113.277311">
        <time>2026-09-09T22:39:11Z</time>
      </trkpt>
      <trkpt lat="23.061968" lon="113.277482">
        <time>2026-09-09T22:39:16Z</time>
      </trkpt>
      <trkpt lat="23.061905" lon="113.27765">
        <time>2026-09-09T22:39:21Z</time>
      </trkpt>
      <trkpt lat="23.06186" lon="113.277824">
        <time>2026-09-09T22:39:26Z</time>
      </trkpt>
      <trkpt lat="23.061852" lon="113.277999">
        <time>2026-09-09T22:39:31Z</time>
      </trkpt>
      <trkpt lat="23.061864" lon="113.278176">
        <time>2026-09-09T22:39:36Z</time>
      </trkpt>
      <trkpt lat="23.061876" lon="113.278349">
        <time>2026-09-09T22:39:41Z</time>
      </trkpt>
      <trkpt lat="23.061886" lon="113.278527">
        <time>2026-09-09T22:39:46Z</time>
      </trkpt>
      <trkpt lat="23.06188" lon="113.278711">
        <time>2026-09-09T22:39:51Z</time>
      </trkpt>
      <trkpt lat="23.061818" lon="113.278879">
        <time>2026-09-09T22:39:56Z</time>
      </trkpt>
      <trkpt lat="23.061728" lon="113.279036">
        <time>2026-09-09T22:40:01Z</time>
      </trkpt>
      <trkpt lat="23.061642" lon="113.279195">
        <time>2026-09-09T22:40:06Z</time>
      </trkpt>
      <trkpt lat="23.061567" lon="113.279354">
        <time>2026-09-09T22:40:11Z</time>
      </trkpt>
      <trkpt lat="23.0615" lon="113.279517">
        <time>2026-09-09T22:40:16Z</time>
      </trkpt>
      <trkpt lat="23.061435" lon="113.279678">
        <time>2026-09-09T22:40:21Z</time>
      </trkpt>
      <trkpt lat="23.061361" lon="113.27984">
        <time>2026-09-09T22:40:26Z</time>
      </trkpt>
      <trkpt lat="23.061295" lon="113.280004">
        <time>2026-09-09T22:40:31Z</time>
      </trkpt>
      <trkpt lat="23.061227" lon="113.280166">
        <time>2026-09-09T22:40:36Z</time>
      </trkpt>
      <trkpt lat="23.061154" lon="113.280331">
        <time>2026-09-09T22:40:41Z</time>
      </trkpt>
      <trkpt lat="23.061079" lon="113.2805">
        <time>2026-09-09T22:40:46Z</time>
      </trkpt>
      <trkpt lat="23.060999" lon="113.280665">
        <time>2026-09-09T22:40:51Z</time>
      </trkpt>
      <trkpt lat="23.060911" lon="113.280819">
        <time>2026-09-09T22:40:56Z</time>
      </trkpt>
      <trkpt lat="23.060829" lon="113.280986">
        <time>2026-09-09T22:41:01Z</time>
      </trkpt>
      <trkpt lat="23.060753" lon="113.281153">
        <time>2026-09-09T22:41:06Z</time>
      </trkpt>
      <trkpt lat="23.060681" lon="113.281318">
        <time>2026-09-09T22:41:11Z</time>
      </trkpt>
      <trkpt lat="23.06061" lon="113.28148">
        <time>2026-09-09T22:41:16Z</time>
      </trkpt>
      <trkpt lat="23.06054" lon="113.281645">
        <time>2026-09-09T22:41:21Z</time>
      </trkpt>
      <trkpt lat="23.060472" lon="113.28181">
        <time>2026-09-09T22:41:26Z</time>
      </trkpt>
      <trkpt lat="23.060409" lon="113.281971">
        <time>2026-09-09T22:41:31Z</time>
      </trkpt>
      <trkpt lat="23.060346" lon="113.28213">
        <time>2026-09-09T22:41:36Z</time>
      </trkpt>
      <trkpt lat="23.060283" lon="113.282288">
        <time>2026-09-09T22:41:41Z</time>
      </trkpt>
      <trkpt lat="23.060212" lon="113.282447">
        <time>2026-09-09T22:41:46Z</time>
      </trkpt>
      <trkpt lat="23.060146" lon="113.2826">
        <time>2026-09-09T22:41:51Z</time>
      </trkpt>
      <trkpt lat="23.060077" lon="113.282754">
        <time>2026-09-09T22:41:56Z</time>
      </trkpt>
      <trkpt lat="23.060001" lon="113.282918">
        <time>2026-09-09T22:42:01Z</time>
      </trkpt>
      <trkpt lat="23.059929" lon="113.283087">
        <time>2026-09-09T22:42:06Z</time>
      </trkpt>
      <trkpt lat="23.059859" lon="113.28325">
        <time>2026-09-09T22:42:11Z</time>
      </trkpt>
      <trkpt lat="23.059787" lon="113.283413">
        <time>2026-09-09T22:42:16Z</time>
      </trkpt>
      <trkpt lat="23.059724" lon="113.283584">
        <time>2026-09-09T22:42:21Z</time>
      </trkpt>
      <trkpt lat="23.05966" lon="113.283753">
        <time>2026-09-09T22:42:26Z</time>
      </trkpt>
      <trkpt lat="23.059581" lon="113.283913">
        <time>2026-09-09T22:42:31Z</time>
      </trkpt>
      <trkpt lat="23.059515" lon="113.28408">
        <time>2026-09-09T22:42:36Z</time>
      </trkpt>
      <trkpt lat="23.059452" lon="113.284254">
        <time>2026-09-09T22:42:41Z</time>
      </trkpt>
      <trkpt lat="23.059379" lon="113.284422">
        <time>2026-09-09T22:42:46Z</time>
      </trkpt>
      <trkpt lat="23.059308" lon="113.284587">
        <time>2026-09-09T22:42:51Z</time>
      </trkpt>
      <trkpt lat="23.059249" lon="113.284748">
        <time>2026-09-09T22:42:56Z</time>
      </trkpt>
      <trkpt lat="23.059181" lon="113.284916">
        <time>2026-09-09T22:43:01Z</time>
      </trkpt>
      <trkpt lat="23.059107" lon="113.285083">
        <time>2026-09-09T22:43:06Z</time>
      </trkpt>
      <trkpt lat="23.059036" lon="113.285246">
        <time>2026-09-09T22:43:11Z</time>
      </trkpt>
      <trkpt lat="23.058963" lon="113.285409">
        <time>2026-09-09T22:43:16Z</time>
      </trkpt>
      <trkpt lat="23.058893" lon="113.285573">
        <time>2026-09-09T22:43:21Z</time>
      </trkpt>
      <trkpt lat="23.058824" lon="113.285734">
        <time>2026-09-09T22:43:26Z</time>
      </trkpt>
      <trkpt lat="23.058755" lon="113.285891">
        <time>2026-09-09T22:43:31Z</time>
      </trkpt>
      <trkpt lat="23.058704" lon="113.286041">
        <time>2026-09-09T22:43:36Z</time>
      </trkpt>
      <trkpt lat="23.058765" lon="113.286095">
        <time>2026-09-09T22:43:41Z</time>
      </trkpt>
      <trkpt lat="23.058854" lon="113.285943">
        <time>2026-09-09T22:43:46Z</time>
      </trkpt>
      <trkpt lat="23.058926" lon="113.285765">
        <time>2026-09-09T22:43:51Z</time>
      </trkpt>
      <trkpt lat="23.058988" lon="113.285594">
        <time>2026-09-09T22:43:56Z</time>
      </trkpt>
      <trkpt lat="23.059056" lon="113.285425">
        <time>2026-09-09T22:44:01Z</time>
      </trkpt>
      <trkpt lat="23.059128" lon="113.285257">
        <time>2026-09-09T22:44:06Z</time>
      </trkpt>
      <trkpt lat="23.059196" lon="113.285089">
        <time>2026-09-09T22:44:11Z</time>
      </trkpt>
      <trkpt lat="23.059263" lon="113.28492">
        <time>2026-09-09T22:44:16Z</time>
      </trkpt>
      <trkpt lat="23.059325" lon="113.284752">
        <time>2026-09-09T22:44:21Z</time>
      </trkpt>
      <trkpt lat="23.059398" lon="113.28459">
        <time>2026-09-09T22:44:26Z</time>
      </trkpt>
      <trkpt lat="23.059473" lon="113.28443">
        <time>2026-09-09T22:44:31Z</time>
      </trkpt>
      <trkpt lat="23.059554" lon="113.284279">
        <time>2026-09-09T22:44:36Z</time>
      </trkpt>
      <trkpt lat="23.059622" lon="113.284124">
        <time>2026-09-09T22:44:41Z</time>
      </trkpt>
      <trkpt lat="23.059695" lon="113.283955">
        <time>2026-09-09T22:44:46Z</time>
      </trkpt>
      <trkpt lat="23.059768" lon="113.283788">
        <time>2026-09-09T22:44:51Z</time>
      </trkpt>
      <trkpt lat="23.059848" lon="113.283618">
        <time>2026-09-09T22:44:56Z</time>
      </trkpt>
      <trkpt lat="23.05992" lon="113.283455">
        <time>2026-09-09T22:45:01Z</time>
      </trkpt>
      <trkpt lat="23.059992" lon="113.283296">
        <time>2026-09-09T22:45:06Z</time>
      </trkpt>
      <trkpt lat="23.060067" lon="113.283129">
        <time>2026-09-09T22:45:11Z</time>
      </trkpt>
      <trkpt lat="23.060141" lon="113.282958">
        <time>2026-09-09T22:45:16Z</time>
      </trkpt>
      <trkpt lat="23.060224" lon="113.282801">
        <time>2026-09-09T22:45:21Z</time>
      </trkpt>
      <trkpt lat="23.060314" lon="113.282642">
        <time>2026-09-09T22:45:26Z</time>
      </trkpt>
      <trkpt lat="23.060394" lon="113.282472">
        <time>2026-09-09T22:45:31Z</time>
      </trkpt>
      <trkpt lat="23.060464" lon="113.282294">
        <time>2026-09-09T22:45:36Z</time>
      </trkpt>
      <trkpt lat="23.060526" lon="113.282126">
        <time>2026-09-09T22:45:41Z</time>
      </trkpt>
      <trkpt lat="23.060598" lon="113.281962">
        <time>2026-09-09T22:45:46Z</time>
      </trkpt>
      <trkpt lat="23.060663" lon="113.281802">
        <time>2026-09-09T22:45:51Z</time>
      </trkpt>
      <trkpt lat="23.060719" lon="113.281643">
        <time>2026-09-09T22:45:56Z</time>
      </trkpt>
      <trkpt lat="23.060778" lon="113.281486">
        <time>2026-09-09T22:46:01Z</time>
      </trkpt>
      <trkpt lat="23.060841" lon="113.281325">
        <time>2026-09-09T22:46:06Z</time>
      </trkpt>
      <trkpt lat="23.060906" lon="113.28115">
        <time>2026-09-09T22:46:11Z</time>
      </trkpt>
      <trkpt lat="23.060976" lon="113.280983">
        <time>2026-09-09T22:46:16Z</time>
      </trkpt>
      <trkpt lat="23.061043" lon="113.280823">
        <time>2026-09-09T22:46:21Z</time>
      </trkpt>
      <trkpt lat="23.061118" lon="113.280652">
        <time>2026-09-09T22:46:26Z</time>
      </trkpt>
      <trkpt lat="23.061199" lon="113.280487">
        <time>2026-09-09T22:46:31Z</time>
      </trkpt>
      <trkpt lat="23.06127" lon="113.280331">
        <time>2026-09-09T22:46:36Z</time>
      </trkpt>
      <trkpt lat="23.061337" lon="113.280175">
        <time>2026-09-09T22:46:41Z</time>
      </trkpt>
      <trkpt lat="23.061417" lon="113.280024">
        <time>2026-09-09T22:46:46Z</time>
      </trkpt>
      <trkpt lat="23.061497" lon="113.279872">
        <time>2026-09-09T22:46:51Z</time>
      </trkpt>
      <trkpt lat="23.061569" lon="113.279719">
        <time>2026-09-09T22:46:56Z</time>
      </trkpt>
      <trkpt lat="23.061636" lon="113.279565">
        <time>2026-09-09T22:47:01Z</time>
      </trkpt>
      <trkpt lat="23.061702" lon="113.279399">
        <time>2026-09-09T22:47:06Z</time>
      </trkpt>
      <trkpt lat="23.061758" lon="113.279219">
        <time>2026-09-09T22:47:11Z</time>
      </trkpt>
      <trkpt lat="23.061827" lon="113.279053">
        <time>2026-09-09T22:47:16Z</time>
      </trkpt>
      <trkpt lat="23.061919" lon="113.278902">
        <time>2026-09-09T22:47:21Z</time>
      </trkpt>
      <trkpt lat="23.061992" lon="113.278735">
        <time>2026-09-09T22:47:26Z</time>
      </trkpt>
      <trkpt lat="23.062005" lon="113.278554">
        <time>2026-09-09T22:47:31Z</time>
      </trkpt>
      <trkpt lat="23.061992" lon="113.278379">
        <time>2026-09-09T22:47:36Z</time>
      </trkpt>
      <trkpt lat="23.061977" lon="113.278199">
        <time>2026-09-09T22:47:41Z</time>
      </trkpt>
      <trkpt lat="23.061963" lon="113.278017">
        <time>2026-09-09T22:47:46Z</time>
      </trkpt>
      <trkpt lat="23.061955" lon="113.277834">
        <time>2026-09-09T22:47:51Z</time>
      </trkpt>
      <trkpt lat="23.061984" lon="113.277648">
        <time>2026-09-09T22:47:56Z</time>
      </trkpt>
      <trkpt lat="23.062051" lon="113.277467">
        <time>2026-09-09T22:48:01Z</time>
      </trkpt>
      <trkpt lat="23.062119" lon="113.277292">
        <time>2026-09-09T22:48:06Z</time>
      </trkpt>
      <trkpt lat="23.062177" lon="113.277124">
        <time>2026-09-09T22:48:11Z</time>
      </trkpt>
      <trkpt lat="23.062243" lon="113.276963">
        <time>2026-09-09T22:48:16Z</time>
      </trkpt>
      <trkpt lat="23.062304" lon="113.276796">
        <time>2026-09-09T22:48:21Z</time>
      </trkpt>
      <trkpt lat="23.062366" lon="113.276628">
        <time>2026-09-09T22:48:26Z</time>
      </trkpt>
      <trkpt lat="23.062426" lon="113.276461">
        <time>2026-09-09T22:48:31Z</time>
      </trkpt>
      <trkpt lat="23.062488" lon="113.276294">
        <time>2026-09-09T22:48:36Z</time>
      </trkpt>
      <trkpt lat="23.062562" lon="113.276134">
        <time>2026-09-09T22:48:41Z</time>
      </trkpt>
      <trkpt lat="23.062653" lon="113.275988">
        <time>2026-09-09T22:48:46Z</time>
      </trkpt>
      <trkpt lat="23.062761" lon="113.275852">
        <time>2026-09-09T22:48:51Z</time>
      </trkpt>
      <trkpt lat="23.062879" lon="113.275731">
        <time>2026-09-09T22:48:56Z</time>
      </trkpt>
      <trkpt lat="23.063003" lon="113.275608">
        <time>2026-09-09T22:49:01Z</time>
      </trkpt>
      <trkpt lat="23.063103" lon="113.275467">
        <time>2026-09-09T22:49:06Z</time>
      </trkpt>
      <trkpt lat="23.063189" lon="113.275315">
        <time>2026-09-09T22:49:11Z</time>
      </trkpt>
      <trkpt lat="23.06328" lon="113.275157">
        <time>2026-09-09T22:49:16Z</time>
      </trkpt>
      <trkpt lat="23.063363" lon="113.274998">
        <time>2026-09-09T22:49:21Z</time>
      </trkpt>
      <trkpt lat="23.063422" lon="113.274844">
        <time>2026-09-09T22:49:26Z</time>
      </trkpt>
      <trkpt lat="23.063472" lon="113.274694">
        <time>2026-09-09T22:49:31Z</time>
      </trkpt>
      <trkpt lat="23.063524" lon="113.274521">
        <time>2026-09-09T22:49:36Z</time>
      </trkpt>
      <trkpt lat="23.063599" lon="113.274351">
        <time>2026-09-09T22:49:41Z</time>
      </trkpt>
      <trkpt lat="23.063713" lon="113.27423">
        <time>2026-09-09T22:49:46Z</time>
      </trkpt>
      <trkpt lat="23.063842" lon="113.274117">
        <time>2026-09-09T22:49:51Z</time>
      </trkpt>
      <trkpt lat="23.063941" lon="113.273962">
        <time>2026-09-09T22:49:56Z</time>
      </trkpt>
      <trkpt lat="23.064025" lon="113.2738">
        <time>2026-09-09T22:50:01Z</time>
      </trkpt>
      <trkpt lat="23.064132" lon="113.273667">
        <time>2026-09-09T22:50:06Z</time>
      </trkpt>
      <trkpt lat="23.064263" lon="113.273554">
        <time>2026-09-09T22:50:11Z</time>
      </trkpt>
      <trkpt lat="23.064398" lon="113.27345">
        <time>2026-09-09T22:50:16Z</time>
      </trkpt>
      <trkpt lat="23.06452" lon="113.273334">
        <time>2026-09-09T22:50:21Z</time>
      </trkpt>
      <trkpt lat="23.064593" lon="113.27317">
        <time>2026-09-09T22:50:26Z</time>
      </trkpt>
      <trkpt lat="23.064569" lon="113.272985">
        <time>2026-09-09T22:50:31Z</time>
      </trkpt>
      <trkpt lat="23.064494" lon="113.272809">
        <time>2026-09-09T22:50:36Z</time>
      </trkpt>
      <trkpt lat="23.064443" lon="113.272631">
        <time>2026-09-09T22:50:41Z</time>
      </trkpt>
      <trkpt lat="23.064464" lon="113.272442">
        <time>2026-09-09T22:50:46Z</time>
      </trkpt>
      <trkpt lat="23.064526" lon="113.272252">
        <time>2026-09-09T22:50:51Z</time>
      </trkpt>
      <trkpt lat="23.064603" lon="113.272084">
        <time>2026-09-09T22:50:56Z</time>
      </trkpt>
      <trkpt lat="23.064692" lon="113.271936">
        <time>2026-09-09T22:51:01Z</time>
      </trkpt>
      <trkpt lat="23.064778" lon="113.271793">
        <time>2026-09-09T22:51:06Z</time>
      </trkpt>
      <trkpt lat="23.064857" lon="113.271639">
        <time>2026-09-09T22:51:11Z</time>
      </trkpt>
      <trkpt lat="23.064932" lon="113.271472">
        <time>2026-09-09T22:51:16Z</time>
      </trkpt>
      <trkpt lat="23.065009" lon="113.271312">
        <time>2026-09-09T22:51:21Z</time>
      </trkpt>
      <trkpt lat="23.0651" lon="113.271158">
        <time>2026-09-09T22:51:26Z</time>
      </trkpt>
      <trkpt lat="23.065182" lon="113.270989">
        <time>2026-09-09T22:51:31Z</time>
      </trkpt>
      <trkpt lat="23.065248" lon="113.270814">
        <time>2026-09-09T22:51:36Z</time>
      </trkpt>
      <trkpt lat="23.065319" lon="113.270646">
        <time>2026-09-09T22:51:41Z</time>
      </trkpt>
      <trkpt lat="23.065392" lon="113.270478">
        <time>2026-09-09T22:51:46Z</time>
      </trkpt>
      <trkpt lat="23.065466" lon="113.270308">
        <time>2026-09-09T22:51:51Z</time>
      </trkpt>
      <trkpt lat="23.065533" lon="113.270136">
        <time>2026-09-09T22:51:56Z</time>
      </trkpt>
      <trkpt lat="23.065587" lon="113.269967">
        <time>2026-09-09T22:52:01Z</time>
      </trkpt>
      <trkpt lat="23.065641" lon="113.269795">
        <time>2026-09-09T22:52:06Z</time>
      </trkpt>
      <trkpt lat="23.065693" lon="113.269621">
        <time>2026-09-09T22:52:11Z</time>
      </trkpt>
      <trkpt lat="23.065743" lon="113.26944">
        <time>2026-09-09T22:52:16Z</time>
      </trkpt>
      <trkpt lat="23.065796" lon="113.269262">
        <time>2026-09-09T22:52:21Z</time>
      </trkpt>
      <trkpt lat="23.065852" lon="113.269089">
        <time>2026-09-09T22:52:26Z</time>
      </trkpt>
      <trkpt lat="23.06592" lon="113.268925">
        <time>2026-09-09T22:52:31Z</time>
      </trkpt>
      <trkpt lat="23.065997" lon="113.26877">
        <time>2026-09-09T22:52:36Z</time>
      </trkpt>
      <trkpt lat="23.066075" lon="113.268621">
        <time>2026-09-09T22:52:41Z</time>
      </trkpt>
      <trkpt lat="23.066166" lon="113.268465">
        <time>2026-09-09T22:52:46Z</time>
      </trkpt>
      <trkpt lat="23.066262" lon="113.268323">
        <time>2026-09-09T22:52:51Z</time>
      </trkpt>
      <trkpt lat="23.066374" lon="113.268197">
        <time>2026-09-09T22:52:56Z</time>
      </trkpt>
      <trkpt lat="23.066523" lon="113.268127">
        <time>2026-09-09T22:53:01Z</time>
      </trkpt>
      <trkpt lat="23.066675" lon="113.268114">
        <time>2026-09-09T22:53:06Z</time>
      </trkpt>
      <trkpt lat="23.066641" lon="113.268005">
        <time>2026-09-09T22:53:11Z</time>
      </trkpt>
      <trkpt lat="23.066453" lon="113.267948">
        <time>2026-09-09T22:53:16Z</time>
      </trkpt>
      <trkpt lat="23.066278" lon="113.267971">
        <time>2026-09-09T22:53:21Z</time>
      </trkpt>
      <trkpt lat="23.066142" lon="113.268078">
        <time>2026-09-09T22:53:26Z</time>
      </trkpt>
      <trkpt lat="23.066025" lon="113.268217">
        <time>2026-09-09T22:53:31Z</time>
      </trkpt>
      <trkpt lat="23.065921" lon="113.268357">
        <time>2026-09-09T22:53:36Z</time>
      </trkpt>
      <trkpt lat="23.065829" lon="113.268501">
        <time>2026-09-09T22:53:41Z</time>
      </trkpt>
      <trkpt lat="23.06575" lon="113.268656">
        <time>2026-09-09T22:53:46Z</time>
      </trkpt>
      <trkpt lat="23.06568" lon="113.268816">
        <time>2026-09-09T22:53:51Z</time>
      </trkpt>
      <trkpt lat="23.065622" lon="113.268982">
        <time>2026-09-09T22:53:56Z</time>
      </trkpt>
      <trkpt lat="23.065573" lon="113.269153">
        <time>2026-09-09T22:54:01Z</time>
      </trkpt>
      <trkpt lat="23.065533" lon="113.26933">
        <time>2026-09-09T22:54:06Z</time>
      </trkpt>
      <trkpt lat="23.065503" lon="113.269503">
        <time>2026-09-09T22:54:11Z</time>
      </trkpt>
      <trkpt lat="23.065461" lon="113.269661">
        <time>2026-09-09T22:54:16Z</time>
      </trkpt>
      <trkpt lat="23.065407" lon="113.269819">
        <time>2026-09-09T22:54:21Z</time>
      </trkpt>
      <trkpt lat="23.065348" lon="113.269987">
        <time>2026-09-09T22:54:26Z</time>
      </trkpt>
      <trkpt lat="23.065283" lon="113.270149">
        <time>2026-09-09T22:54:31Z</time>
      </trkpt>
      <trkpt lat="23.065215" lon="113.270304">
        <time>2026-09-09T22:54:36Z</time>
      </trkpt>
      <trkpt lat="23.065143" lon="113.270461">
        <time>2026-09-09T22:54:41Z</time>
      </trkpt>
      <trkpt lat="23.065073" lon="113.270618">
        <time>2026-09-09T22:54:46Z</time>
      </trkpt>
      <trkpt lat="23.065007" lon="113.270776">
        <time>2026-09-09T22:54:51Z</time>
      </trkpt>
      <trkpt lat="23.064941" lon="113.270934">
        <time>2026-09-09T22:54:56Z</time>
      </trkpt>
      <trkpt lat="23.06487" lon="113.27109">
        <time>2026-09-09T22:55:01Z</time>
      </trkpt>
      <trkpt lat="23.064797" lon="113.271243">
        <time>2026-09-09T22:55:06Z</time>
      </trkpt>
      <trkpt lat="23.064723" lon="113.271404">
        <time>2026-09-09T22:55:11Z</time>
      </trkpt>
      <trkpt lat="23.064647" lon="113.271566">
        <time>2026-09-09T22:55:16Z</time>
      </trkpt>
      <trkpt lat="23.064575" lon="113.271724">
        <time>2026-09-09T22:55:21Z</time>
      </trkpt>
      <trkpt lat="23.064498" lon="113.271883">
        <time>2026-09-09T22:55:26Z</time>
      </trkpt>
      <trkpt lat="23.064429" lon="113.27205">
        <time>2026-09-09T22:55:31Z</time>
      </trkpt>
      <trkpt lat="23.064363" lon="113.27222">
        <time>2026-09-09T22:55:36Z</time>
      </trkpt>
      <trkpt lat="23.064333" lon="113.272388">
        <time>2026-09-09T22:55:41Z</time>
      </trkpt>
      <trkpt lat="23.064326" lon="113.272553">
        <time>2026-09-09T22:55:46Z</time>
      </trkpt>
      <trkpt lat="23.06435" lon="113.272718">
        <time>2026-09-09T22:55:51Z</time>
      </trkpt>
      <trkpt lat="23.0644" lon="113.27288">
        <time>2026-09-09T22:55:56Z</time>
      </trkpt>
      <trkpt lat="23.064447" lon="113.273038">
        <time>2026-09-09T22:56:01Z</time>
      </trkpt>
      <trkpt lat="23.064467" lon="113.273205">
        <time>2026-09-09T22:56:06Z</time>
      </trkpt>
      <trkpt lat="23.064391" lon="113.27335">
        <time>2026-09-09T22:56:11Z</time>
      </trkpt>
      <trkpt lat="23.064254" lon="113.27346">
        <time>2026-09-09T22:56:16Z</time>
      </trkpt>
      <trkpt lat="23.064117" lon="113.27356">
        <time>2026-09-09T22:56:21Z</time>
      </trkpt>
      <trkpt lat="23.063988" lon="113.273671">
        <time>2026-09-09T22:56:26Z</time>
      </trkpt>
      <trkpt lat="23.063877" lon="113.273802">
        <time>2026-09-09T22:56:31Z</time>
      </trkpt>
      <trkpt lat="23.063784" lon="113.273952">
        <time>2026-09-09T22:56:36Z</time>
      </trkpt>
      <trkpt lat="23.06368" lon="113.274091">
        <time>2026-09-09T22:56:41Z</time>
      </trkpt>
      <trkpt lat="23.063553" lon="113.274212">
        <time>2026-09-09T22:56:46Z</time>
      </trkpt>
      <trkpt lat="23.063476" lon="113.274383">
        <time>2026-09-09T22:56:51Z</time>
      </trkpt>
      <trkpt lat="23.063417" lon="113.274563">
        <time>2026-09-09T22:56:56Z</time>
      </trkpt>
      <trkpt lat="23.063351" lon="113.274739">
        <time>2026-09-09T22:57:01Z</time>
      </trkpt>
      <trkpt lat="23.063291" lon="113.274913">
        <time>2026-09-09T22:57:06Z</time>
      </trkpt>
      <trkpt lat="23.063229" lon="113.275075">
        <time>2026-09-09T22:57:11Z</time>
      </trkpt>
      <trkpt lat="23.063153" lon="113.275235">
        <time>2026-09-09T22:57:16Z</time>
      </trkpt>
      <trkpt lat="23.063058" lon="113.275384">
        <time>2026-09-09T22:57:21Z</time>
      </trkpt>
      <trkpt lat="23.062955" lon="113.275526">
        <time>2026-09-09T22:57:26Z</time>
      </trkpt>
      <trkpt lat="23.062842" lon="113.275654">
        <time>2026-09-09T22:57:31Z</time>
      </trkpt>
      <trkpt lat="23.062719" lon="113.275778">
        <time>2026-09-09T22:57:36Z</time>
      </trkpt>
      <trkpt lat="23.062604" lon="113.27591">
        <time>2026-09-09T22:57:41Z</time>
      </trkpt>
      <trkpt lat="23.062508" lon="113.276053">
        <time>2026-09-09T22:57:46Z</time>
      </trkpt>
      <trkpt lat="23.062418" lon="113.276203">
        <time>2026-09-09T22:57:51Z</time>
      </trkpt>
      <trkpt lat="23.06235" lon="113.276364">
        <time>2026-09-09T22:57:56Z</time>
      </trkpt>
      <trkpt lat="23.062297" lon="113.276529">
        <time>2026-09-09T22:58:01Z</time>
      </trkpt>
      <trkpt lat="23.062243" lon="113.27669">
        <time>2026-09-09T22:58:06Z</time>
      </trkpt>
      <trkpt lat="23.062191" lon="113.27685">
        <time>2026-09-09T22:58:11Z</time>
      </trkpt>
      <trkpt lat="23.062132" lon="113.277013">
        <time>2026-09-09T22:58:16Z</time>
      </trkpt>
      <trkpt lat="23.062064" lon="113.277171">
        <time>2026-09-09T22:58:21Z</time>
      </trkpt>
      <trkpt lat="23.061995" lon="113.277338">
        <time>2026-09-09T22:58:26Z</time>
      </trkpt>
      <trkpt lat="23.061929" lon="113.277508">
        <time>2026-09-09T22:58:31Z</time>
      </trkpt>
      <trkpt lat="23.061872" lon="113.277677">
        <time>2026-09-09T22:58:36Z</time>
      </trkpt>
      <trkpt lat="23.061839" lon="113.277851">
        <time>2026-09-09T22:58:41Z</time>
      </trkpt>
      <trkpt lat="23.061837" lon="113.278025">
        <time>2026-09-09T22:58:46Z</time>
      </trkpt>
      <trkpt lat="23.061847" lon="113.278193">
        <time>2026-09-09T22:58:51Z</time>
      </trkpt>
      <trkpt lat="23.061864" lon="113.27836">
        <time>2026-09-09T22:58:56Z</time>
      </trkpt>
      <trkpt lat="23.061877" lon="113.278529">
        <time>2026-09-09T22:59:01Z</time>
      </trkpt>
      <trkpt lat="23.061863" lon="113.278694">
        <time>2026-09-09T22:59:06Z</time>
      </trkpt>
      <trkpt lat="23.061768" lon="113.278775">
        <time>2026-09-09T22:59:11Z</time>
      </trkpt>
      <trkpt lat="23.061694" lon="113.278912">
        <time>2026-09-09T22:59:16Z</time>
      </trkpt>
      <trkpt lat="23.06164" lon="113.279073">
        <time>2026-09-09T22:59:21Z</time>
      </trkpt>
      <trkpt lat="23.061578" lon="113.279231">
        <time>2026-09-09T22:59:26Z</time>
      </trkpt>
      <trkpt lat="23.061509" lon="113.27939">
        <time>2026-09-09T22:59:31Z</time>
      </trkpt>
      <trkpt lat="23.061441" lon="113.279548">
        <time>2026-09-09T22:59:36Z</time>
      </trkpt>
      <trkpt lat="23.061374" lon="113.279708">
        <time>2026-09-09T22:59:41Z</time>
      </trkpt>
      <trkpt lat="23.061307" lon="113.279869">
        <time>2026-09-09T22:59:46Z</time>
      </trkpt>
      <trkpt lat="23.061232" lon="113.28003">
        <time>2026-09-09T22:59:51Z</time>
      </trkpt>
      <trkpt lat="23.061166" lon="113.280194">
        <time>2026-09-09T22:59:56Z</time>
      </trkpt>
      <trkpt lat="23.061102" lon="113.280362">
        <time>2026-09-09T23:00:01Z</time>
      </trkpt>
      <trkpt lat="23.061033" lon="113.280515">
        <time>2026-09-09T23:00:06Z</time>
      </trkpt>
      <trkpt lat="23.060971" lon="113.280659">
        <time>2026-09-09T23:00:11Z</time>
      </trkpt>
      <trkpt lat="23.06102" lon="113.280744">
        <time>2026-09-09T23:00:16Z</time>
      </trkpt>
      <trkpt lat="23.061125" lon="113.280651">
        <time>2026-09-09T23:00:21Z</time>
      </trkpt>
      <trkpt lat="23.06119" lon="113.280482">
        <time>2026-09-09T23:00:26Z</time>
      </trkpt>
      <trkpt lat="23.061264" lon="113.280329">
        <time>2026-09-09T23:00:31Z</time>
      </trkpt>
      <trkpt lat="23.061347" lon="113.280177">
        <time>2026-09-09T23:00:36Z</time>
      </trkpt>
      <trkpt lat="23.061423" lon="113.280026">
        <time>2026-09-09T23:00:41Z</time>
      </trkpt>
      <trkpt lat="23.0615" lon="113.279881">
        <time>2026-09-09T23:00:46Z</time>
      </trkpt>
      <trkpt lat="23.061555" lon="113.279729">
        <time>2026-09-09T23:00:51Z</time>
      </trkpt>
      <trkpt lat="23.061611" lon="113.279564">
        <time>2026-09-09T23:00:56Z</time>
      </trkpt>
      <trkpt lat="23.061669" lon="113.279388">
        <time>2026-09-09T23:01:01Z</time>
      </trkpt>
      <trkpt lat="23.061729" lon="113.279211">
        <time>2026-09-09T23:01:06Z</time>
      </trkpt>
      <trkpt lat="23.061812" lon="113.27905">
        <time>2026-09-09T23:01:11Z</time>
      </trkpt>
      <trkpt lat="23.061911" lon="113.278896">
        <time>2026-09-09T23:01:16Z</time>
      </trkpt>
      <trkpt lat="23.061983" lon="113.278721">
        <time>2026-09-09T23:01:21Z</time>
      </trkpt>
      <trkpt lat="23.061983" lon="113.27853">
        <time>2026-09-09T23:01:26Z</time>
      </trkpt>
      <trkpt lat="23.061963" lon="113.278335">
        <time>2026-09-09T23:01:31Z</time>
      </trkpt>
      <trkpt lat="23.061951" lon="113.278143">
        <time>2026-09-09T23:01:36Z</time>
      </trkpt>
      <trkpt lat="23.061943" lon="113.277953">
        <time>2026-09-09T23:01:41Z</time>
      </trkpt>
      <trkpt lat="23.061944" lon="113.277768">
        <time>2026-09-09T23:01:46Z</time>
      </trkpt>
      <trkpt lat="23.061988" lon="113.277592">
        <time>2026-09-09T23:01:51Z</time>
      </trkpt>
      <trkpt lat="23.062057" lon="113.277423">
        <time>2026-09-09T23:01:56Z</time>
      </trkpt>
      <trkpt lat="23.06212" lon="113.277257">
        <time>2026-09-09T23:02:01Z</time>
      </trkpt>
      <trkpt lat="23.062179" lon="113.277087">
        <time>2026-09-09T23:02:06Z</time>
      </trkpt>
      <trkpt lat="23.062244" lon="113.276918">
        <time>2026-09-09T23:02:11Z</time>
      </trkpt>
      <trkpt lat="23.062309" lon="113.276751">
        <time>2026-09-09T23:02:16Z</time>
      </trkpt>
      <trkpt lat="23.062374" lon="113.276588">
        <time>2026-09-09T23:02:21Z</time>
      </trkpt>
      <trkpt lat="23.062434" lon="113.276425">
        <time>2026-09-09T23:02:26Z</time>
      </trkpt>
      <trkpt lat="23.062492" lon="113.276265">
        <time>2026-09-09T23:02:31Z</time>
      </trkpt>
      <trkpt lat="23.062566" lon="113.276103">
        <time>2026-09-09T23:02:36Z</time>
      </trkpt>
      <trkpt lat="23.062654" lon="113.275957">
        <time>2026-09-09T23:02:41Z</time>
      </trkpt>
      <trkpt lat="23.062763" lon="113.275826">
        <time>2026-09-09T23:02:46Z</time>
      </trkpt>
      <trkpt lat="23.062886" lon="113.275708">
        <time>2026-09-09T23:02:51Z</time>
      </trkpt>
      <trkpt lat="23.063007" lon="113.275584">
        <time>2026-09-09T23:02:56Z</time>
      </trkpt>
      <trkpt lat="23.063101" lon="113.275438">
        <time>2026-09-09T23:03:01Z</time>
      </trkpt>
      <trkpt lat="23.063184" lon="113.27528">
        <time>2026-09-09T23:03:06Z</time>
      </trkpt>
      <trkpt lat="23.063293" lon="113.275141">
        <time>2026-09-09T23:03:11Z</time>
      </trkpt>
      <trkpt lat="23.063387" lon="113.274994">
        <time>2026-09-09T23:03:16Z</time>
      </trkpt>
      <trkpt lat="23.063444" lon="113.274841">
        <time>2026-09-09T23:03:21Z</time>
      </trkpt>
      <trkpt lat="23.06349" lon="113.274688">
        <time>2026-09-09T23:03:26Z</time>
      </trkpt>
      <trkpt lat="23.063536" lon="113.274515">
        <time>2026-09-09T23:03:31Z</time>
      </trkpt>
      <trkpt lat="23.063625" lon="113.274348">
        <time>2026-09-09T23:03:36Z</time>
      </trkpt>
      <trkpt lat="23.063734" lon="113.274218">
        <time>2026-09-09T23:03:41Z</time>
      </trkpt>
      <trkpt lat="23.063854" lon="113.274102">
        <time>2026-09-09T23:03:46Z</time>
      </trkpt>
      <trkpt lat="23.063944" lon="113.273968">
        <time>2026-09-09T23:03:51Z</time>
      </trkpt>
      <trkpt lat="23.063981" lon="113.273881">
        <time>2026-09-09T23:03:56Z</time>
      </trkpt>
      <trkpt lat="23.064004" lon="113.273819">
        <time>2026-09-09T23:04:01Z</time>
      </trkpt>
      <trkpt lat="23.064041" lon="113.273767">
        <time>2026-09-09T23:04:06Z</time>
      </trkpt>
      <trkpt lat="23.064083" lon="113.27372">
        <time>2026-09-09T23:04:11Z</time>
      </trkpt>
      <trkpt lat="23.064135" lon="113.273687">
        <time>2026-09-09T23:04:16Z</time>
      </trkpt>
      <trkpt lat="23.064186" lon="113.273654">
        <time>2026-09-09T23:04:21Z</time>
      </trkpt>
      <trkpt lat="23.064232" lon="113.273617">
        <time>2026-09-09T23:04:26Z</time>
      </trkpt>
      <trkpt lat="23.064275" lon="113.27358">
        <time>2026-09-09T23:04:31Z</time>
      </trkpt>
      <trkpt lat="23.064318" lon="113.273543">
        <time>2026-09-09T23:04:36Z</time>
      </trkpt>
      <trkpt lat="23.064364" lon="113.273505">
        <time>2026-09-09T23:04:41Z</time>
      </trkpt>
      <trkpt lat="23.064409" lon="113.273461">
        <time>2026-09-09T23:04:46Z</time>
      </trkpt>
      <trkpt lat="23.064454" lon="113.273414">
        <time>2026-09-09T23:04:51Z</time>
      </trkpt>
      <trkpt lat="23.064501" lon="113.273364">
        <time>2026-09-09T23:04:56Z</time>
      </trkpt>
      <trkpt lat="23.064538" lon="113.273316">
        <time>2026-09-09T23:05:01Z</time>
      </trkpt>
      <trkpt lat="23.064565" lon="113.273261">
        <time>2026-09-09T23:05:06Z</time>
      </trkpt>
      <trkpt lat="23.064586" lon="113.273206">
        <time>2026-09-09T23:05:11Z</time>
      </trkpt>
      <trkpt lat="23.064585" lon="113.273149">
        <time>2026-09-09T23:05:16Z</time>
      </trkpt>
      <trkpt lat="23.064574" lon="113.273088">
        <time>2026-09-09T23:05:21Z</time>
      </trkpt>
      <trkpt lat="23.064563" lon="113.273027">
        <time>2026-09-09T23:05:26Z</time>
      </trkpt>
      <trkpt lat="23.064549" lon="113.272968">
        <time>2026-09-09T23:05:31Z</time>
      </trkpt>
      <trkpt lat="23.064522" lon="113.272918">
        <time>2026-09-09T23:05:36Z</time>
      </trkpt>
      <trkpt lat="23.064495" lon="113.272868">
        <time>2026-09-09T23:05:41Z</time>
      </trkpt>
      <trkpt lat="23.064474" lon="113.272816">
        <time>2026-09-09T23:05:46Z</time>
      </trkpt>
      <trkpt lat="23.064459" lon="113.272756">
        <time>2026-09-09T23:05:51Z</time>
      </trkpt>
      <trkpt lat="23.064438" lon="113.272664">
        <time>2026-09-09T23:05:56Z</time>
      </trkpt>
      <trkpt lat="23.064454" lon="113.272548">
        <time>2026-09-09T23:06:01Z</time>
      </trkpt>
      <trkpt lat="23.064521" lon="113.272451">
        <time>2026-09-09T23:06:06Z</time>
      </trkpt>
      <trkpt lat="23.064628" lon="113.272445">
        <time>2026-09-09T23:06:11Z</time>
      </trkpt>
      <trkpt lat="23.064741" lon="113.272495">
        <time>2026-09-09T23:06:16Z</time>
      </trkpt>
      <trkpt lat="23.064848" lon="113.272529">
        <time>2026-09-09T23:06:21Z</time>
      </trkpt>
      <trkpt lat="23.064951" lon="113.272558">
        <time>2026-09-09T23:06:26Z</time>
      </trkpt>
      <trkpt lat="23.065061" lon="113.272564">
        <time>2026-09-09T23:06:31Z</time>
      </trkpt>
      <trkpt lat="23.065165" lon="113.272589">
        <time>2026-09-09T23:06:36Z</time>
      </trkpt>
      <trkpt lat="23.065262" lon="113.272626">
        <time>2026-09-09T23:06:41Z</time>
      </trkpt>
      <trkpt lat="23.065361" lon="113.27266">
        <time>2026-09-09T23:06:46Z</time>
      </trkpt>
      <trkpt lat="23.065465" lon="113.272673">
        <time>2026-09-09T23:06:51Z</time>
      </trkpt>
      <trkpt lat="23.065573" lon="113.272701">
        <time>2026-09-09T23:06:56Z</time>
      </trkpt>
      <trkpt lat="23.065688" lon="113.272744">
        <time>2026-09-09T23:07:01Z</time>
      </trkpt>
      <trkpt lat="23.065805" lon="113.272766">
        <time>2026-09-09T23:07:06Z</time>
      </trkpt>
      <trkpt lat="23.065904" lon="113.272791">
        <time>2026-09-09T23:07:11Z</time>
      </trkpt>
      <trkpt lat="23.066007" lon="113.272806">
        <time>2026-09-09T23:07:16Z</time>
      </trkpt>
      <trkpt lat="23.066118" lon="113.272798">
        <time>2026-09-09T23:07:21Z</time>
      </trkpt>
      <trkpt lat="23.066228" lon="113.272783">
        <time>2026-09-09T23:07:26Z</time>
      </trkpt>
      <trkpt lat="23.066324" lon="113.272753">
        <time>2026-09-09T23:07:31Z</time>
      </trkpt>
      <trkpt lat="23.066392" lon="113.272688">
        <time>2026-09-09T23:07:36Z</time>
      </trkpt>
      <trkpt lat="23.066399" lon="113.272557">
        <time>2026-09-09T23:07:41Z</time>
      </trkpt>
      <trkpt lat="23.066395" lon="113.272426">
        <time>2026-09-09T23:07:46Z</time>
      </trkpt>
      <trkpt lat="23.066393" lon="113.272305">
        <time>2026-09-09T23:07:51Z</time>
      </trkpt>
      <trkpt lat="23.066394" lon="113.272184">
        <time>2026-09-09T23:07:56Z</time>
      </trkpt>
      <trkpt lat="23.066398" lon="113.272066">
        <time>2026-09-09T23:08:01Z</time>
      </trkpt>
      <trkpt lat="23.066401" lon="113.271948">
        <time>2026-09-09T23:08:06Z</time>
      </trkpt>
      <trkpt lat="23.066411" lon="113.271828">
        <time>2026-09-09T23:08:11Z</time>
      </trkpt>
      <trkpt lat="23.066425" lon="113.271713">
        <time>2026-09-09T23:08:16Z</time>
      </trkpt>
      <trkpt lat="23.066432" lon="113.271597">
        <time>2026-09-09T23:08:21Z</time>
      </trkpt>
      <trkpt lat="23.066431" lon="113.271491">
        <time>2026-09-09T23:08:26Z</time>
      </trkpt>
      <trkpt lat="23.066347" lon="113.271415">
        <time>2026-09-09T23:08:31Z</time>
      </trkpt>
      <trkpt lat="23.066225" lon="113.271382">
        <time>2026-09-09T23:08:36Z</time>
      </trkpt>
      <trkpt lat="23.06611" lon="113.271348">
        <time>2026-09-09T23:08:41Z</time>
      </trkpt>
      <trkpt lat="23.065991" lon="113.271307">
        <time>2026-09-09T23:08:46Z</time>
      </trkpt>
      <trkpt lat="23.065886" lon="113.271262">
        <time>2026-09-09T23:08:51Z</time>
      </trkpt>
      <trkpt lat="23.065776" lon="113.271223">
        <time>2026-09-09T23:08:56Z</time>
      </trkpt>
      <trkpt lat="23.06566" lon="113.271195">
        <time>2026-09-09T23:09:01Z</time>
      </trkpt>
      <trkpt lat="23.065547" lon="113.271164">
        <time>2026-09-09T23:09:06Z</time>
      </trkpt>
      <trkpt lat="23.06544" lon="113.271139">
        <time>2026-09-09T23:09:11Z</time>
      </trkpt>
      <trkpt lat="23.065328" lon="113.271114">
        <time>2026-09-09T23:09:16Z</time>
      </trkpt>
      <trkpt lat="23.06525" lon="113.271001">
        <time>2026-09-09T23:09:21Z</time>
      </trkpt>
      <trkpt lat="23.065256" lon="113.27085">
        <time>2026-09-09T23:09:26Z</time>
      </trkpt>
      <trkpt lat="23.065303" lon="113.270729">
        <time>2026-09-09T23:09:31Z</time>
      </trkpt>
      <trkpt lat="23.065352" lon="113.270616">
        <time>2026-09-09T23:09:36Z</time>
      </trkpt>
      <trkpt lat="23.065401" lon="113.270508">
        <time>2026-09-09T23:09:41Z</time>
      </trkpt>
      <trkpt lat="23.065459" lon="113.270397">
        <time>2026-09-09T23:09:46Z</time>
      </trkpt>
      <trkpt lat="23.065516" lon="113.270289">
        <time>2026-09-09T23:09:51Z</time>
      </trkpt>
      <trkpt lat="23.065566" lon="113.270178">
        <time>2026-09-09T23:09:56Z</time>
      </trkpt>
      <trkpt lat="23.065606" lon="113.270069">
        <time>2026-09-09T23:10:01Z</time>
      </trkpt>
      <trkpt lat="23.06564" lon="113.269956">
        <time>2026-09-09T23:10:06Z</time>
      </trkpt>
      <trkpt lat="23.065671" lon="113.269843">
        <time>2026-09-09T23:10:11Z</time>
      </trkpt>
      <trkpt lat="23.065691" lon="113.269722">
        <time>2026-09-09T23:10:16Z</time>
      </trkpt>
      <trkpt lat="23.065711" lon="113.269596">
        <time>2026-09-09T23:10:21Z</time>
      </trkpt>
      <trkpt lat="23.065752" lon="113.269476">
        <time>2026-09-09T23:10:26Z</time>
      </trkpt>
      <trkpt lat="23.06577" lon="113.26935">
        <time>2026-09-09T23:10:31Z</time>
      </trkpt>
      <trkpt lat="23.065804" lon="113.269223">
        <time>2026-09-09T23:10:36Z</time>
      </trkpt>
      <trkpt lat="23.065835" lon="113.269098">
        <time>2026-09-09T23:10:41Z</time>
      </trkpt>
      <trkpt lat="23.065879" lon="113.268983">
        <time>2026-09-09T23:10:46Z</time>
      </trkpt>
      <trkpt lat="23.065935" lon="113.268878">
        <time>2026-09-09T23:10:51Z</time>
      </trkpt>
      <trkpt lat="23.065987" lon="113.268772">
        <time>2026-09-09T23:10:56Z</time>
      </trkpt>
      <trkpt lat="23.066041" lon="113.268667">
        <time>2026-09-09T23:11:01Z</time>
      </trkpt>
      <trkpt lat="23.066099" lon="113.26856">
        <time>2026-09-09T23:11:06Z</time>
      </trkpt>
      <trkpt lat="23.066168" lon="113.268453">
        <time>2026-09-09T23:11:11Z</time>
      </trkpt>
      <trkpt lat="23.066246" lon="113.268347">
        <time>2026-09-09T23:11:16Z</time>
      </trkpt>
      <trkpt lat="23.066325" lon="113.268243">
        <time>2026-09-09T23:11:21Z</time>
      </trkpt>
      <trkpt lat="23.066424" lon="113.26816">
        <time>2026-09-09T23:11:26Z</time>
      </trkpt>
      <trkpt lat="23.066539" lon="113.268137">
        <time>2026-09-09T23:11:31Z</time>
      </trkpt>
      <trkpt lat="23.066653" lon="113.268154">
        <time>2026-09-09T23:11:36Z</time>
      </trkpt>
      <trkpt lat="23.066772" lon="113.268157">
        <time>2026-09-09T23:11:41Z</time>
      </trkpt>
      <trkpt lat="23.066888" lon="113.268156">
        <time>2026-09-09T23:11:46Z</time>
      </trkpt>
      <trkpt lat="23.066999" lon="113.268182">
        <time>2026-09-09T23:11:51Z</time>
      </trkpt>
      <trkpt lat="23.067097" lon="113.26822">
        <time>2026-09-09T23:11:56Z</time>
      </trkpt>
      <trkpt lat="23.067191" lon="113.268281">
        <time>2026-09-09T23:12:01Z</time>
      </trkpt>
      <trkpt lat="23.067293" lon="113.268334">
        <time>2026-09-09T23:12:06Z</time>
      </trkpt>
      <trkpt lat="23.067383" lon="113.268385">
        <time>2026-09-09T23:12:11Z</time>
      </trkpt>
      <trkpt lat="23.067493" lon="113.268443">
        <time>2026-09-09T23:12:16Z</time>
      </trkpt>
      <trkpt lat="23.06761" lon="113.268503">
        <time>2026-09-09T23:12:21Z</time>
      </trkpt>
      <trkpt lat="23.067721" lon="113.268557">
        <time>2026-09-09T23:12:26Z</time>
      </trkpt>
      <trkpt lat="23.067833" lon="113.268619">
        <time>2026-09-09T23:12:31Z</time>
      </trkpt>
      <trkpt lat="23.067931" lon="113.268705">
        <time>2026-09-09T23:12:36Z</time>
      </trkpt>
      <trkpt lat="23.068024" lon="113.268775">
        <time>2026-09-09T23:12:41Z</time>
      </trkpt>
      <trkpt lat="23.068108" lon="113.2688">
        <time>2026-09-09T23:12:46Z</time>
      </trkpt>
      <trkpt lat="23.068205" lon="113.26883">
        <time>2026-09-09T23:12:51Z</time>
      </trkpt>
      <trkpt lat="23.068309" lon="113.268911">
        <time>2026-09-09T23:12:56Z</time>
      </trkpt>
      <trkpt lat="23.068415" lon="113.268999">
        <time>2026-09-09T23:13:01Z</time>
      </trkpt>
      <trkpt lat="23.06851" lon="113.269066">
        <time>2026-09-09T23:13:06Z</time>
      </trkpt>
      <trkpt lat="23.068614" lon="113.269141">
        <time>2026-09-09T23:13:11Z</time>
      </trkpt>
      <trkpt lat="23.068736" lon="113.269202">
        <time>2026-09-09T23:13:16Z</time>
      </trkpt>
      <trkpt lat="23.068869" lon="113.269241">
        <time>2026-09-09T23:13:21Z</time>
      </trkpt>
      <trkpt lat="23.068987" lon="113.269268">
        <time>2026-09-09T23:13:26Z</time>
      </trkpt>
      <trkpt lat="23.069113" lon="113.269302">
        <time>2026-09-09T23:13:31Z</time>
      </trkpt>
      <trkpt lat="23.069232" lon="113.269362">
        <time>2026-09-09T23:13:36Z</time>
      </trkpt>
      <trkpt lat="23.069358" lon="113.269418">
        <time>2026-09-09T23:13:41Z</time>
      </trkpt>
      <trkpt lat="23.069484" lon="113.26947">
        <time>2026-09-09T23:13:46Z</time>
      </trkpt>
      <trkpt lat="23.069606" lon="113.269523">
        <time>2026-09-09T23:13:51Z</time>
      </trkpt>
      <trkpt lat="23.069717" lon="113.269597">
        <time>2026-09-09T23:13:56Z</time>
      </trkpt>
      <trkpt lat="23.069824" lon="113.26967">
        <time>2026-09-09T23:14:01Z</time>
      </trkpt>
      <trkpt lat="23.069923" lon="113.269731">
        <time>2026-09-09T23:14:06Z</time>
      </trkpt>
      <trkpt lat="23.070023" lon="113.269783">
        <time>2026-09-09T23:14:11Z</time>
      </trkpt>
      <trkpt lat="23.070132" lon="113.269843">
        <time>2026-09-09T23:14:16Z</time>
      </trkpt>
      <trkpt lat="23.070245" lon="113.269896">
        <time>2026-09-09T23:14:21Z</time>
      </trkpt>
      <trkpt lat="23.07035" lon="113.269935">
        <time>2026-09-09T23:14:26Z</time>
      </trkpt>
      <trkpt lat="23.07047" lon="113.269941">
        <time>2026-09-09T23:14:31Z</time>
      </trkpt>
      <trkpt lat="23.070553" lon="113.269989">
        <time>2026-09-09T23:14:36Z</time>
      </trkpt>
      <trkpt lat="23.07065" lon="113.270002">
        <time>2026-09-09T23:14:41Z</time>
      </trkpt>
      <trkpt lat="23.070753" lon="113.270053">
        <time>2026-09-09T23:14:46Z</time>
      </trkpt>
      <trkpt lat="23.070867" lon="113.270103">
        <time>2026-09-09T23:14:51Z</time>
      </trkpt>
      <trkpt lat="23.070972" lon="113.270144">
        <time>2026-09-09T23:14:56Z</time>
      </trkpt>
      <trkpt lat="23.071072" lon="113.270198">
        <time>2026-09-09T23:15:01Z</time>
      </trkpt>
      <trkpt lat="23.071176" lon="113.270249">
        <time>2026-09-09T23:15:06Z</time>
      </trkpt>
      <trkpt lat="23.071271" lon="113.270319">
        <time>2026-09-09T23:15:11Z</time>
      </trkpt>
      <trkpt lat="23.071374" lon="113.270381">
        <time>2026-09-09T23:15:16Z</time>
      </trkpt>
      <trkpt lat="23.071475" lon="113.270444">
        <time>2026-09-09T23:15:21Z</time>
      </trkpt>
      <trkpt lat="23.071574" lon="113.270488">
        <time>2026-09-09T23:15:26Z</time>
      </trkpt>
      <trkpt lat="23.071665" lon="113.270534">
        <time>2026-09-09T23:15:31Z</time>
      </trkpt>
      <trkpt lat="23.071768" lon="113.270603">
        <time>2026-09-09T23:15:36Z</time>
      </trkpt>
      <trkpt lat="23.071877" lon="113.270665">
        <time>2026-09-09T23:15:41Z</time>
      </trkpt>
      <trkpt lat="23.071996" lon="113.270692">
        <time>2026-09-09T23:15:46Z</time>
      </trkpt>
      <trkpt lat="23.072093" lon="113.270749">
        <time>2026-09-09T23:15:51Z</time>
      </trkpt>
      <trkpt lat="23.072195" lon="113.270807">
        <time>2026-09-09T23:15:56Z</time>
      </trkpt>
      <trkpt lat="23.072298" lon="113.270846">
        <time>2026-09-09T23:16:01Z</time>
      </trkpt>
      <trkpt lat="23.072396" lon="113.270889">
        <time>2026-09-09T23:16:06Z</time>
      </trkpt>
      <trkpt lat="23.072507" lon="113.27094">
        <time>2026-09-09T23:16:11Z</time>
      </trkpt>
      <trkpt lat="23.072614" lon="113.271002">
        <time>2026-09-09T23:16:16Z</time>
      </trkpt>
      <trkpt lat="23.072722" lon="113.271055">
        <time>2026-09-09T23:16:21Z</time>
      </trkpt>
      <trkpt lat="23.072836" lon="113.271088">
        <time>2026-09-09T23:16:26Z</time>
      </trkpt>
      <trkpt lat="23.072952" lon="113.271133">
        <time>2026-09-09T23:16:31Z</time>
      </trkpt>
      <trkpt lat="23.073058" lon="113.271178">
        <time>2026-09-09T23:16:36Z</time>
      </trkpt>
      <trkpt lat="23.073156" lon="113.271207">
        <time>2026-09-09T23:16:41Z</time>
      </trkpt>
      <trkpt lat="23.073216" lon="113.271273">
        <time>2026-09-09T23:16:46Z</time>
      </trkpt>
      <trkpt lat="23.073307" lon="113.271319">
        <time>2026-09-09T23:16:51Z</time>
      </trkpt>
      <trkpt lat="23.073413" lon="113.271384">
        <time>2026-09-09T23:16:56Z</time>
      </trkpt>
      <trkpt lat="23.073499" lon="113.271474">
        <time>2026-09-09T23:17:01Z</time>
      </trkpt>
      <trkpt lat="23.073595" lon="113.271556">
        <time>2026-09-09T23:17:06Z</time>
      </trkpt>
      <trkpt lat="23.073718" lon="113.271602">
        <time>2026-09-09T23:17:11Z</time>
      </trkpt>
      <trkpt lat="23.073833" lon="113.271655">
        <time>2026-09-09T23:17:16Z</time>
      </trkpt>
      <trkpt lat="23.073923" lon="113.271716">
        <time>2026-09-09T23:17:21Z</time>
      </trkpt>
      <trkpt lat="23.073945" lon="113.27182">
        <time>2026-09-09T23:17:26Z</time>
      </trkpt>
      <trkpt lat="23.073899" lon="113.271911">
        <time>2026-09-09T23:17:31Z</time>
      </trkpt>
      <trkpt lat="23.073862" lon="113.271978">
        <time>2026-09-09T23:17:36Z</time>
      </trkpt>
      <trkpt lat="23.073862" lon="113.271996">
        <time>2026-09-09T23:17:41Z</time>
      </trkpt>
      <trkpt lat="23.073863" lon="113.272018">
        <time>2026-09-09T23:17:46Z</time>
      </trkpt>
      <trkpt lat="23.073894" lon="113.27208">
        <time>2026-09-09T23:17:51Z</time>
      </trkpt>
      <trkpt lat="23.073998" lon="113.272163">
        <time>2026-09-09T23:17:56Z</time>
      </trkpt>
      <trkpt lat="23.074124" lon="113.272226">
        <time>2026-09-09T23:18:01Z</time>
      </trkpt>
      <trkpt lat="23.074239" lon="113.272264">
        <time>2026-09-09T23:18:06Z</time>
      </trkpt>
      <trkpt lat="23.07432" lon="113.272246">
        <time>2026-09-09T23:18:11Z</time>
      </trkpt>
      <trkpt lat="23.074354" lon="113.272195">
        <time>2026-09-09T23:18:16Z</time>
      </trkpt>
      <trkpt lat="23.074378" lon="113.272142">
        <time>2026-09-09T23:18:21Z</time>
      </trkpt>
      <trkpt lat="23.074431" lon="113.272063">
        <time>2026-09-09T23:18:26Z</time>
      </trkpt>
      <trkpt lat="23.074531" lon="113.272017">
        <time>2026-09-09T23:18:31Z</time>
      </trkpt>
      <trkpt lat="23.074644" lon="113.272071">
        <time>2026-09-09T23:18:36Z</time>
      </trkpt>
      <trkpt lat="23.074744" lon="113.272133">
        <time>2026-09-09T23:18:41Z</time>
      </trkpt>
      <trkpt lat="23.074842" lon="113.272191">
        <time>2026-09-09T23:18:46Z</time>
      </trkpt>
      <trkpt lat="23.074941" lon="113.27225">
        <time>2026-09-09T23:18:51Z</time>
      </trkpt>
      <trkpt lat="23.075032" lon="113.272306">
        <time>2026-09-09T23:18:56Z</time>
      </trkpt>
      <trkpt lat="23.075133" lon="113.272363">
        <time>2026-09-09T23:19:01Z</time>
      </trkpt>
      <trkpt lat="23.075234" lon="113.272457">
        <time>2026-09-09T23:19:12Z</time>
      </trkpt>
    </trkseg>
  </trk>
</gpx>