<?xml version="1.0" encoding="UTF-8"?>
<gpx xmlns="http://www.topografix.com/GPX/1/1" xmlns:gpxtpx="http://www.garmin.com/xmlschemas/TrackPointExtension/v1" xmlns:xsi="http://www.w3.org/2001/XMLSchema-instance" xsi:schemaLocation="http://www.topografix.com/GPX/1/1 http://www.topografix.com/GPX/1/1/gpx.xsd" version="1.1" creator="gpx.py -- https://github.com/tkrajina/gpxpy">
  <trk>
    <name>gpx from joyrun</name>
    <trkseg>
      <trkpt lat="23.075993" lon="113.272828">
        <time>2026-09-12T23:32:45Z</time>
      </trkpt>
      <trkpt lat="23.075986" lon="113.272827">
        <time>2026-09-12T23:32:50Z</time>
      </trkpt>
      <trkpt lat="23.075884" lon="113.272759">
        <time>2026-09-12T23:32:55Z</time>
      </trkpt>
      <trkpt lat="23.075786" lon="113.272659">
        <time>2026-09-12T23:33:00Z</time>
      </trkpt>
      <trkpt lat="23.075661" lon="113.272647">
        <time>2026-09-12T23:33:05Z</time>
      </trkpt>
      <trkpt lat="23.075591" lon="113.272644">
        <time>2026-09-12T23:33:10Z</time>
      </trkpt>
      <trkpt lat="23.075514" lon="113.272577">
        <time>2026-09-12T23:33:15Z</time>
      </trkpt>
      <trkpt lat="23.075425" lon="113.272538">
        <time>2026-09-12T23:33:20Z</time>
      </trkpt>
      <trkpt lat="23.075331" lon="113.27248">
        <time>2026-09-12T23:33:25Z</time>
      </trkpt>
      <trkpt lat="23.075273" lon="113.272413">
        <time>2026-09-12T23:33:30Z</time>
      </trkpt>
      <trkpt lat="23.075284" lon="113.272279">
        <time>2026-09-12T23:33:35Z</time>
      </trkpt>
      <trkpt lat="23.07528" lon="113.27218">
        <time>2026-09-12T23:33:40Z</time>
      </trkpt>
      <trkpt lat="23.075315" lon="113.272124">
        <time>2026-09-12T23:33:45Z</time>
      </trkpt>
      <trkpt lat="23.075392" lon="113.272124">
        <time>2026-09-12T23:33:50Z</time>
      </trkpt>
      <trkpt lat="23.075474" lon="113.272176">
        <time>2026-09-12T23:33:55Z</time>
      </trkpt>
      <trkpt lat="23.075554" lon="113.272225">
        <time>2026-09-12T23:34:00Z</time>
      </trkpt>
      <trkpt lat="23.075624" lon="113.272282">
        <time>2026-09-12T23:34:05Z</time>
      </trkpt>
      <trkpt lat="23.075702" lon="113.272342">
        <time>2026-09-12T23:34:10Z</time>
      </trkpt>
      <trkpt lat="23.075793" lon="113.272407">
        <time>2026-09-12T23:34:15Z</time>
      </trkpt>
      <trkpt lat="23.075882" lon="113.272479">
        <time>2026-09-12T23:34:20Z</time>
      </trkpt>
      <trkpt lat="23.075958" lon="113.272539">
        <time>2026-09-12T23:34:25Z</time>
      </trkpt>
      <trkpt lat="23.076041" lon="113.27259">
        <time>2026-09-12T23:34:30Z</time>
      </trkpt>
      <trkpt lat="23.076115" lon="113.272655">
        <time>2026-09-12T23:34:35Z</time>
      </trkpt>
      <trkpt lat="23.076202" lon="113.272707">
        <time>2026-09-12T23:34:40Z</time>
      </trkpt>
      <trkpt lat="23.076299" lon="113.272749">
        <time>2026-09-12T23:34:45Z</time>
      </trkpt>
      <trkpt lat="23.076384" lon="113.272813">
        <time>2026-09-12T23:34:50Z</time>
      </trkpt>
      <trkpt lat="23.076458" lon="113.272894">
        <time>2026-09-12T23:34:55Z</time>
      </trkpt>
      <trkpt lat="23.076522" lon="113.272986">
        <time>2026-09-12T23:35:00Z</time>
      </trkpt>
      <trkpt lat="23.076538" lon="113.273088">
        <time>2026-09-12T23:35:05Z</time>
      </trkpt>
      <trkpt lat="23.076593" lon="113.27317">
        <time>2026-09-12T23:35:10Z</time>
      </trkpt>
      <trkpt lat="23.076678" lon="113.273225">
        <time>2026-09-12T23:35:15Z</time>
      </trkpt>
      <trkpt lat="23.07676" lon="113.273306">
        <time>2026-09-12T23:35:20Z</time>
      </trkpt>
      <trkpt lat="23.076821" lon="113.273421">
        <time>2026-09-12T23:35:25Z</time>
      </trkpt>
      <trkpt lat="23.076891" lon="113.273508">
        <time>2026-09-12T23:35:30Z</time>
      </trkpt>
      <trkpt lat="23.076976" lon="113.273579">
        <time>2026-09-12T23:35:35Z</time>
      </trkpt>
      <trkpt lat="23.077066" lon="113.27363">
        <time>2026-09-12T23:35:40Z</time>
      </trkpt>
      <trkpt lat="23.077155" lon="113.273653">
        <time>2026-09-12T23:35:45Z</time>
      </trkpt>
      <trkpt lat="23.07725" lon="113.273665">
        <time>2026-09-12T23:35:50Z</time>
      </trkpt>
      <trkpt lat="23.077351" lon="113.273646">
        <time>2026-09-12T23:35:55Z</time>
      </trkpt>
      <trkpt lat="23.077442" lon="113.273573">
        <time>2026-09-12T23:36:00Z</time>
      </trkpt>
      <trkpt lat="23.077525" lon="113.273487">
        <time>2026-09-12T23:36:05Z</time>
      </trkpt>
      <trkpt lat="23.07761" lon="113.273422">
        <time>2026-09-12T23:36:10Z</time>
      </trkpt>
      <trkpt lat="23.077695" lon="113.273363">
        <time>2026-09-12T23:36:15Z</time>
      </trkpt>
      <trkpt lat="23.077789" lon="113.273325">
        <time>2026-09-12T23:36:20Z</time>
      </trkpt>
      <trkpt lat="23.077895" lon="113.27332">
        <time>2026-09-12T23:36:25Z</time>
      </trkpt>
      <trkpt lat="23.078004" lon="113.273303">
        <time>2026-09-12T23:36:30Z</time>
      </trkpt>
      <trkpt lat="23.078106" lon="113.273247">
        <time>2026-09-12T23:36:35Z</time>
      </trkpt>
      <trkpt lat="23.078197" lon="113.273189">
        <time>2026-09-12T23:36:40Z</time>
      </trkpt>
      <trkpt lat="23.078265" lon="113.273115">
        <time>2026-09-12T23:36:45Z</time>
      </trkpt>
      <trkpt lat="23.078338" lon="113.273028">
        <time>2026-09-12T23:36:50Z</time>
      </trkpt>
      <trkpt lat="23.078413" lon="113.272944">
        <time>2026-09-12T23:36:55Z</time>
      </trkpt>
      <trkpt lat="23.078482" lon="113.272866">
        <time>2026-09-12T23:37:00Z</time>
      </trkpt>
      <trkpt lat="23.078543" lon="113.272794">
        <time>2026-09-12T23:37:05Z</time>
      </trkpt>
      <trkpt lat="23.078611" lon="113.272711">
        <time>2026-09-12T23:37:10Z</time>
      </trkpt>
      <trkpt lat="23.078699" lon="113.272619">
        <time>2026-09-12T23:37:15Z</time>
      </trkpt>
      <trkpt lat="23.078796" lon="113.27254">
        <time>2026-09-12T23:37:20Z</time>
      </trkpt>
      <trkpt lat="23.078889" lon="113.272471">
        <time>2026-09-12T23:37:25Z</time>
      </trkpt>
      <trkpt lat="23.078977" lon="113.272404">
        <time>2026-09-12T23:37:30Z</time>
      </trkpt>
      <trkpt lat="23.079057" lon="113.27233">
        <time>2026-09-12T23:37:35Z</time>
      </trkpt>
      <trkpt lat="23.079146" lon="113.27227">
        <time>2026-09-12T23:37:40Z</time>
      </trkpt>
      <trkpt lat="23.079239" lon="113.272203">
        <time>2026-09-12T23:37:45Z</time>
      </trkpt>
      <trkpt lat="23.079312" lon="113.272122">
        <time>2026-09-12T23:37:50Z</time>
      </trkpt>
      <trkpt lat="23.079381" lon="113.272081">
        <time>2026-09-12T23:37:55Z</time>
      </trkpt>
      <trkpt lat="23.079467" lon="113.272125">
        <time>2026-09-12T23:38:00Z</time>
      </trkpt>
      <trkpt lat="23.07957" lon="113.272175">
        <time>2026-09-12T23:38:05Z</time>
      </trkpt>
      <trkpt lat="23.079666" lon="113.272217">
        <time>2026-09-12T23:38:10Z</time>
      </trkpt>
      <trkpt lat="23.079751" lon="113.272265">
        <time>2026-09-12T23:38:15Z</time>
      </trkpt>
      <trkpt lat="23.079841" lon="113.272305">
        <time>2026-09-12T23:38:20Z</time>
      </trkpt>
      <trkpt lat="23.079931" lon="113.272343">
        <time>2026-09-12T23:38:25Z</time>
      </trkpt>
      <trkpt lat="23.080019" lon="113.272385">
        <time>2026-09-12T23:38:30Z</time>
      </trkpt>
      <trkpt lat="23.080102" lon="113.272437">
        <time>2026-09-12T23:38:35Z</time>
      </trkpt>
      <trkpt lat="23.080188" lon="113.272495">
        <time>2026-09-12T23:38:40Z</time>
      </trkpt>
      <trkpt lat="23.080281" lon="113.272532">
        <time>2026-09-12T23:38:45Z</time>
      </trkpt>
      <trkpt lat="23.080357" lon="113.272577">
        <time>2026-09-12T23:38:50Z</time>
      </trkpt>
      <trkpt lat="23.080446" lon="113.272621">
        <time>2026-09-12T23:38:55Z</time>
      </trkpt>
      <trkpt lat="23.080551" lon="113.272663">
        <time>2026-09-12T23:39:00Z</time>
      </trkpt>
      <trkpt lat="23.080672" lon="113.272699">
        <time>2026-09-12T23:39:05Z</time>
      </trkpt>
      <trkpt lat="23.08079" lon="113.272743">
        <time>2026-09-12T23:39:10Z</time>
      </trkpt>
      <trkpt lat="23.080911" lon="113.27278">
        <time>2026-09-12T23:39:15Z</time>
      </trkpt>
      <trkpt lat="23.081034" lon="113.272822">
        <time>2026-09-12T23:39:20Z</time>
      </trkpt>
      <trkpt lat="23.081157" lon="113.272874">
        <time>2026-09-12T23:39:25Z</time>
      </trkpt>
      <trkpt lat="23.081272" lon="113.272912">
        <time>2026-09-12T23:39:30Z</time>
      </trkpt>
      <trkpt lat="23.081378" lon="113.272953">
        <time>2026-09-12T23:39:35Z</time>
      </trkpt>
      <trkpt lat="23.081427" lon="113.272985">
        <time>2026-09-12T23:39:40Z</time>
      </trkpt>
      <trkpt lat="23.081379" lon="113.273069">
        <time>2026-09-12T23:39:45Z</time>
      </trkpt>
      <trkpt lat="23.081294" lon="113.273097">
        <time>2026-09-12T23:39:50Z</time>
      </trkpt>
      <trkpt lat="23.081194" lon="113.273041">
        <time>2026-09-12T23:39:55Z</time>
      </trkpt>
      <trkpt lat="23.08112" lon="113.272979">
        <time>2026-09-12T23:40:00Z</time>
      </trkpt>
      <trkpt lat="23.081043" lon="113.272921">
        <time>2026-09-12T23:40:05Z</time>
      </trkpt>
      <trkpt lat="23.080941" lon="113.272914">
        <time>2026-09-12T23:40:10Z</time>
      </trkpt>
      <trkpt lat="23.08087" lon="113.272942">
        <time>2026-09-12T23:40:15Z</time>
      </trkpt>
      <trkpt lat="23.080808" lon="113.272984">
        <time>2026-09-12T23:40:20Z</time>
      </trkpt>
      <trkpt lat="23.080731" lon="113.27307">
        <time>2026-09-12T23:40:25Z</time>
      </trkpt>
      <trkpt lat="23.08066" lon="113.273182">
        <time>2026-09-12T23:40:30Z</time>
      </trkpt>
      <trkpt lat="23.080592" lon="113.273296">
        <time>2026-09-12T23:40:35Z</time>
      </trkpt>
      <trkpt lat="23.080541" lon="113.27343">
        <time>2026-09-12T23:40:40Z</time>
      </trkpt>
      <trkpt lat="23.080553" lon="113.273593">
        <time>2026-09-12T23:40:45Z</time>
      </trkpt>
      <trkpt lat="23.0806" lon="113.273733">
        <time>2026-09-12T23:40:50Z</time>
      </trkpt>
      <trkpt lat="23.080702" lon="113.27383">
        <time>2026-09-12T23:40:55Z</time>
      </trkpt>
      <trkpt lat="23.080834" lon="113.273891">
        <time>2026-09-12T23:41:00Z</time>
      </trkpt>
      <trkpt lat="23.080944" lon="113.273935">
        <time>2026-09-12T23:41:05Z</time>
      </trkpt>
      <trkpt lat="23.081049" lon="113.273975">
        <time>2026-09-12T23:41:10Z</time>
      </trkpt>
      <trkpt lat="23.081158" lon="113.274015">
        <time>2026-09-12T23:41:15Z</time>
      </trkpt>
      <trkpt lat="23.081263" lon="113.274051">
        <time>2026-09-12T23:41:20Z</time>
      </trkpt>
      <trkpt lat="23.081358" lon="113.274084">
        <time>2026-09-12T23:41:25Z</time>
      </trkpt>
      <trkpt lat="23.081459" lon="113.274112">
        <time>2026-09-12T23:41:30Z</time>
      </trkpt>
      <trkpt lat="23.081561" lon="113.274142">
        <time>2026-09-12T23:41:35Z</time>
      </trkpt>
      <trkpt lat="23.081684" lon="113.274171">
        <time>2026-09-12T23:41:40Z</time>
      </trkpt>
      <trkpt lat="23.081795" lon="113.274166">
        <time>2026-09-12T23:41:45Z</time>
      </trkpt>
      <trkpt lat="23.081888" lon="113.274123">
        <time>2026-09-12T23:41:50Z</time>
      </trkpt>
      <trkpt lat="23.081973" lon="113.274055">
        <time>2026-09-12T23:41:55Z</time>
      </trkpt>
      <trkpt lat="23.082034" lon="113.273979">
        <time>2026-09-12T23:42:00Z</time>
      </trkpt>
      <trkpt lat="23.082077" lon="113.27389">
        <time>2026-09-12T23:42:05Z</time>
      </trkpt>
      <trkpt lat="23.082105" lon="113.273786">
        <time>2026-09-12T23:42:10Z</time>
      </trkpt>
      <trkpt lat="23.08211" lon="113.273676">
        <time>2026-09-12T23:42:15Z</time>
      </trkpt>
      <trkpt lat="23.08209" lon="113.273565">
        <time>2026-09-12T23:42:20Z</time>
      </trkpt>
      <trkpt lat="23.082036" lon="113.273453">
        <time>2026-09-12T23:42:25Z</time>
      </trkpt>
      <trkpt lat="23.081944" lon="113.273373">
        <time>2026-09-12T23:42:30Z</time>
      </trkpt>
      <trkpt lat="23.081837" lon="113.273332">
        <time>2026-09-12T23:42:35Z</time>
      </trkpt>
      <trkpt lat="23.081739" lon="113.273286">
        <time>2026-09-12T23:42:40Z</time>
      </trkpt>
      <trkpt lat="23.081651" lon="113.273235">
        <time>2026-09-12T23:42:45Z</time>
      </trkpt>
      <trkpt lat="23.081565" lon="113.273183">
        <time>2026-09-12T23:42:50Z</time>
      </trkpt>
      <trkpt lat="23.081472" lon="113.273127">
        <time>2026-09-12T23:42:55Z</time>
      </trkpt>
      <trkpt lat="23.081374" lon="113.27308">
        <time>2026-09-12T23:43:00Z</time>
      </trkpt>
      <trkpt lat="23.081253" lon="113.273051">
        <time>2026-09-12T23:43:05Z</time>
      </trkpt>
      <trkpt lat="23.081143" lon="113.273009">
        <time>2026-09-12T23:43:10Z</time>
      </trkpt>
      <trkpt lat="23.081041" lon="113.272965">
        <time>2026-09-12T23:43:15Z</time>
      </trkpt>
      <trkpt lat="23.080945" lon="113.272927">
        <time>2026-09-12T23:43:20Z</time>
      </trkpt>
      <trkpt lat="23.080848" lon="113.272954">
        <time>2026-09-12T23:43:25Z</time>
      </trkpt>
      <trkpt lat="23.08075" lon="113.273044">
        <time>2026-09-12T23:43:30Z</time>
      </trkpt>
      <trkpt lat="23.080656" lon="113.273188">
        <time>2026-09-12T23:43:35Z</time>
      </trkpt>
      <trkpt lat="23.080562" lon="113.273367">
        <time>2026-09-12T23:43:40Z</time>
      </trkpt>
      <trkpt lat="23.080537" lon="113.273518">
        <time>2026-09-12T23:43:45Z</time>
      </trkpt>
      <trkpt lat="23.080562" lon="113.273647">
        <time>2026-09-12T23:43:50Z</time>
      </trkpt>
      <trkpt lat="23.080619" lon="113.273759">
        <time>2026-09-12T23:43:55Z</time>
      </trkpt>
      <trkpt lat="23.080698" lon="113.273827">
        <time>2026-09-12T23:44:00Z</time>
      </trkpt>
      <trkpt lat="23.080809" lon="113.27388">
        <time>2026-09-12T23:44:05Z</time>
      </trkpt>
      <trkpt lat="23.080936" lon="113.273932">
        <time>2026-09-12T23:44:10Z</time>
      </trkpt>
      <trkpt lat="23.08106" lon="113.273979">
        <time>2026-09-12T23:44:15Z</time>
      </trkpt>
      <trkpt lat="23.081177" lon="113.27402">
        <time>2026-09-12T23:44:20Z</time>
      </trkpt>
      <trkpt lat="23.081288" lon="113.274059">
        <time>2026-09-12T23:44:25Z</time>
      </trkpt>
      <trkpt lat="23.081401" lon="113.274094">
        <time>2026-09-12T23:44:30Z</time>
      </trkpt>
      <trkpt lat="23.081516" lon="113.274129">
        <time>2026-09-12T23:44:35Z</time>
      </trkpt>
      <trkpt lat="23.08163" lon="113.274162">
        <time>2026-09-12T23:44:40Z</time>
      </trkpt>
      <trkpt lat="23.081753" lon="113.274176">
        <time>2026-09-12T23:44:45Z</time>
      </trkpt>
      <trkpt lat="23.081861" lon="113.274139">
        <time>2026-09-12T23:44:50Z</time>
      </trkpt>
      <trkpt lat="23.08195" lon="113.274076">
        <time>2026-09-12T23:44:55Z</time>
      </trkpt>
      <trkpt lat="23.082023" lon="113.273994">
        <time>2026-09-12T23:45:00Z</time>
      </trkpt>
      <trkpt lat="23.082077" lon="113.273893">
        <time>2026-09-12T23:45:05Z</time>
      </trkpt>
      <trkpt lat="23.082106" lon="113.273774">
        <time>2026-09-12T23:45:10Z</time>
      </trkpt>
      <trkpt lat="23.082111" lon="113.273665">
        <time>2026-09-12T23:45:15Z</time>
      </trkpt>
      <trkpt lat="23.082086" lon="113.27356">
        <time>2026-09-12T23:45:20Z</time>
      </trkpt>
      <trkpt lat="23.082034" lon="113.27345">
        <time>2026-09-12T23:45:25Z</time>
      </trkpt>
      <trkpt lat="23.081939" lon="113.273373">
        <time>2026-09-12T23:45:30Z</time>
      </trkpt>
      <trkpt lat="23.081828" lon="113.273323">
        <time>2026-09-12T23:45:35Z</time>
      </trkpt>
      <trkpt lat="23.081721" lon="113.273272">
        <time>2026-09-12T23:45:40Z</time>
      </trkpt>
      <trkpt lat="23.081618" lon="113.273216">
        <time>2026-09-12T23:45:45Z</time>
      </trkpt>
      <trkpt lat="23.081531" lon="113.273162">
        <time>2026-09-12T23:45:50Z</time>
      </trkpt>
      <trkpt lat="23.081432" lon="113.273106">
        <time>2026-09-12T23:45:55Z</time>
      </trkpt>
      <trkpt lat="23.081323" lon="113.273067">
        <time>2026-09-12T23:46:00Z</time>
      </trkpt>
      <trkpt lat="23.081215" lon="113.273038">
        <time>2026-09-12T23:46:05Z</time>
      </trkpt>
      <trkpt lat="23.08112" lon="113.273002">
        <time>2026-09-12T23:46:10Z</time>
      </trkpt>
      <trkpt lat="23.081032" lon="113.272959">
        <time>2026-09-12T23:46:15Z</time>
      </trkpt>
      <trkpt lat="23.080945" lon="113.272927">
        <time>2026-09-12T23:46:20Z</time>
      </trkpt>
      <trkpt lat="23.080854" lon="113.27295">
        <time>2026-09-12T23:46:25Z</time>
      </trkpt>
      <trkpt lat="23.080744" lon="113.273051">
        <time>2026-09-12T23:46:30Z</time>
      </trkpt>
      <trkpt lat="23.080646" lon="113.273204">
        <time>2026-09-12T23:46:35Z</time>
      </trkpt>
      <trkpt lat="23.080568" lon="113.273347">
        <time>2026-09-12T23:46:40Z</time>
      </trkpt>
      <trkpt lat="23.080536" lon="113.273486">
        <time>2026-09-12T23:46:45Z</time>
      </trkpt>
      <trkpt lat="23.080551" lon="113.273617">
        <time>2026-09-12T23:46:50Z</time>
      </trkpt>
      <trkpt lat="23.080604" lon="113.273739">
        <time>2026-09-12T23:46:55Z</time>
      </trkpt>
      <trkpt lat="23.080692" lon="113.273825">
        <time>2026-09-12T23:47:00Z</time>
      </trkpt>
      <trkpt lat="23.080813" lon="113.273882">
        <time>2026-09-12T23:47:05Z</time>
      </trkpt>
      <trkpt lat="23.080933" lon="113.273928">
        <time>2026-09-12T23:47:10Z</time>
      </trkpt>
      <trkpt lat="23.081042" lon="113.273972">
        <time>2026-09-12T23:47:15Z</time>
      </trkpt>
      <trkpt lat="23.081152" lon="113.274013">
        <time>2026-09-12T23:47:20Z</time>
      </trkpt>
      <trkpt lat="23.081257" lon="113.274051">
        <time>2026-09-12T23:47:25Z</time>
      </trkpt>
      <trkpt lat="23.081368" lon="113.274082">
        <time>2026-09-12T23:47:30Z</time>
      </trkpt>
      <trkpt lat="23.081473" lon="113.274115">
        <time>2026-09-12T23:47:35Z</time>
      </trkpt>
      <trkpt lat="23.08158" lon="113.274145">
        <time>2026-09-12T23:47:40Z</time>
      </trkpt>
      <trkpt lat="23.081695" lon="113.274173">
        <time>2026-09-12T23:47:45Z</time>
      </trkpt>
      <trkpt lat="23.081827" lon="113.274157">
        <time>2026-09-12T23:47:50Z</time>
      </trkpt>
      <trkpt lat="23.081928" lon="113.274091">
        <time>2026-09-12T23:47:55Z</time>
      </trkpt>
      <trkpt lat="23.082008" lon="113.274013">
        <time>2026-09-12T23:48:00Z</time>
      </trkpt>
      <trkpt lat="23.082068" lon="113.273911">
        <time>2026-09-12T23:48:05Z</time>
      </trkpt>
      <trkpt lat="23.0821" lon="113.273806">
        <time>2026-09-12T23:48:10Z</time>
      </trkpt>
      <trkpt lat="23.082111" lon="113.273683">
        <time>2026-09-12T23:48:15Z</time>
      </trkpt>
      <trkpt lat="23.082088" lon="113.273561">
        <time>2026-09-12T23:48:20Z</time>
      </trkpt>
      <trkpt lat="23.082029" lon="113.273437">
        <time>2026-09-12T23:48:25Z</time>
      </trkpt>
      <trkpt lat="23.081922" lon="113.273364">
        <time>2026-09-12T23:48:30Z</time>
      </trkpt>
      <trkpt lat="23.081812" lon="113.273322">
        <time>2026-09-12T23:48:35Z</time>
      </trkpt>
      <trkpt lat="23.081698" lon="113.273261">
        <time>2026-09-12T23:48:40Z</time>
      </trkpt>
      <trkpt lat="23.081594" lon="113.273199">
        <time>2026-09-12T23:48:45Z</time>
      </trkpt>
      <trkpt lat="23.081497" lon="113.273137">
        <time>2026-09-12T23:48:50Z</time>
      </trkpt>
      <trkpt lat="23.081392" lon="113.27309">
        <time>2026-09-12T23:48:55Z</time>
      </trkpt>
      <trkpt lat="23.081293" lon="113.273058">
        <time>2026-09-12T23:49:00Z</time>
      </trkpt>
      <trkpt lat="23.081188" lon="113.273027">
        <time>2026-09-12T23:49:05Z</time>
      </trkpt>
      <trkpt lat="23.081084" lon="113.272985">
        <time>2026-09-12T23:49:10Z</time>
      </trkpt>
      <trkpt lat="23.080986" lon="113.272942">
        <time>2026-09-12T23:49:15Z</time>
      </trkpt>
      <trkpt lat="23.080882" lon="113.272935">
        <time>2026-09-12T23:49:20Z</time>
      </trkpt>
      <trkpt lat="23.08077" lon="113.273022">
        <time>2026-09-12T23:49:25Z</time>
      </trkpt>
      <trkpt lat="23.080658" lon="113.273183">
        <time>2026-09-12T23:49:30Z</time>
      </trkpt>
      <trkpt lat="23.080576" lon="113.273328">
        <time>2026-09-12T23:49:35Z</time>
      </trkpt>
      <trkpt lat="23.08054" lon="113.273456">
        <time>2026-09-12T23:49:40Z</time>
      </trkpt>
      <trkpt lat="23.080546" lon="113.273591">
        <time>2026-09-12T23:49:45Z</time>
      </trkpt>
      <trkpt lat="23.080592" lon="113.273714">
        <time>2026-09-12T23:49:50Z</time>
      </trkpt>
      <trkpt lat="23.080662" lon="113.273803">
        <time>2026-09-12T23:49:55Z</time>
      </trkpt>
      <trkpt lat="23.080779" lon="113.273868">
        <time>2026-09-12T23:50:00Z</time>
      </trkpt>
      <trkpt lat="23.080919" lon="113.273924">
        <time>2026-09-12T23:50:05Z</time>
      </trkpt>
      <trkpt lat="23.081053" lon="113.273975">
        <time>2026-09-12T23:50:10Z</time>
      </trkpt>
      <trkpt lat="23.081172" lon="113.274022">
        <time>2026-09-12T23:50:15Z</time>
      </trkpt>
      <trkpt lat="23.08128" lon="113.274058">
        <time>2026-09-12T23:50:20Z</time>
      </trkpt>
      <trkpt lat="23.081387" lon="113.274088">
        <time>2026-09-12T23:50:25Z</time>
      </trkpt>
      <trkpt lat="23.081496" lon="113.274123">
        <time>2026-09-12T23:50:30Z</time>
      </trkpt>
      <trkpt lat="23.081608" lon="113.274154">
        <time>2026-09-12T23:50:35Z</time>
      </trkpt>
      <trkpt lat="23.081714" lon="113.274176">
        <time>2026-09-12T23:50:40Z</time>
      </trkpt>
      <trkpt lat="23.081825" lon="113.274156">
        <time>2026-09-12T23:50:45Z</time>
      </trkpt>
      <trkpt lat="23.081929" lon="113.274094">
        <time>2026-09-12T23:50:50Z</time>
      </trkpt>
      <trkpt lat="23.082017" lon="113.274002">
        <time>2026-09-12T23:50:55Z</time>
      </trkpt>
      <trkpt lat="23.082078" lon="113.27389">
        <time>2026-09-12T23:51:00Z</time>
      </trkpt>
      <trkpt lat="23.082106" lon="113.273766">
        <time>2026-09-12T23:51:05Z</time>
      </trkpt>
      <trkpt lat="23.082106" lon="113.273638">
        <time>2026-09-12T23:51:10Z</time>
      </trkpt>
      <trkpt lat="23.082072" lon="113.27352">
        <time>2026-09-12T23:51:15Z</time>
      </trkpt>
      <trkpt lat="23.082011" lon="113.273421">
        <time>2026-09-12T23:51:20Z</time>
      </trkpt>
      <trkpt lat="23.081918" lon="113.273363">
        <time>2026-09-12T23:51:25Z</time>
      </trkpt>
      <trkpt lat="23.081812" lon="113.273315">
        <time>2026-09-12T23:51:30Z</time>
      </trkpt>
      <trkpt lat="23.081706" lon="113.273268">
        <time>2026-09-12T23:51:35Z</time>
      </trkpt>
      <trkpt lat="23.081606" lon="113.273209">
        <time>2026-09-12T23:51:40Z</time>
      </trkpt>
      <trkpt lat="23.081506" lon="113.273148">
        <time>2026-09-12T23:51:45Z</time>
      </trkpt>
      <trkpt lat="23.081407" lon="113.273093">
        <time>2026-09-12T23:51:50Z</time>
      </trkpt>
      <trkpt lat="23.081299" lon="113.273067">
        <time>2026-09-12T23:51:55Z</time>
      </trkpt>
      <trkpt lat="23.081194" lon="113.27303">
        <time>2026-09-12T23:52:00Z</time>
      </trkpt>
      <trkpt lat="23.081091" lon="113.272989">
        <time>2026-09-12T23:52:05Z</time>
      </trkpt>
      <trkpt lat="23.080997" lon="113.272945">
        <time>2026-09-12T23:52:10Z</time>
      </trkpt>
      <trkpt lat="23.080878" lon="113.272937">
        <time>2026-09-12T23:52:15Z</time>
      </trkpt>
      <trkpt lat="23.080773" lon="113.273022">
        <time>2026-09-12T23:52:20Z</time>
      </trkpt>
      <trkpt lat="23.080676" lon="113.273156">
        <time>2026-09-12T23:52:25Z</time>
      </trkpt>
      <trkpt lat="23.080597" lon="113.273287">
        <time>2026-09-12T23:52:30Z</time>
      </trkpt>
      <trkpt lat="23.080549" lon="113.273408">
        <time>2026-09-12T23:52:35Z</time>
      </trkpt>
      <trkpt lat="23.080539" lon="113.273541">
        <time>2026-09-12T23:52:40Z</time>
      </trkpt>
      <trkpt lat="23.08057" lon="113.273664">
        <time>2026-09-12T23:52:45Z</time>
      </trkpt>
      <trkpt lat="23.080633" lon="113.273775">
        <time>2026-09-12T23:52:50Z</time>
      </trkpt>
      <trkpt lat="23.080737" lon="113.273851">
        <time>2026-09-12T23:52:55Z</time>
      </trkpt>
      <trkpt lat="23.080856" lon="113.2739">
        <time>2026-09-12T23:53:00Z</time>
      </trkpt>
      <trkpt lat="23.080969" lon="113.273944">
        <time>2026-09-12T23:53:05Z</time>
      </trkpt>
      <trkpt lat="23.081083" lon="113.273988">
        <time>2026-09-12T23:53:10Z</time>
      </trkpt>
      <trkpt lat="23.0812" lon="113.27403">
        <time>2026-09-12T23:53:15Z</time>
      </trkpt>
      <trkpt lat="23.081321" lon="113.274067">
        <time>2026-09-12T23:53:20Z</time>
      </trkpt>
      <trkpt lat="23.081432" lon="113.274103">
        <time>2026-09-12T23:53:25Z</time>
      </trkpt>
      <trkpt lat="23.081538" lon="113.274135">
        <time>2026-09-12T23:53:30Z</time>
      </trkpt>
      <trkpt lat="23.081648" lon="113.274164">
        <time>2026-09-12T23:53:35Z</time>
      </trkpt>
      <trkpt lat="23.081764" lon="113.274173">
        <time>2026-09-12T23:53:40Z</time>
      </trkpt>
      <trkpt lat="23.081862" lon="113.274139">
        <time>2026-09-12T23:53:45Z</time>
      </trkpt>
      <trkpt lat="23.081959" lon="113.274069">
        <time>2026-09-12T23:53:50Z</time>
      </trkpt>
      <trkpt lat="23.082044" lon="113.273961">
        <time>2026-09-12T23:53:55Z</time>
      </trkpt>
      <trkpt lat="23.082093" lon="113.273841">
        <time>2026-09-12T23:54:00Z</time>
      </trkpt>
      <trkpt lat="23.082112" lon="113.273719">
        <time>2026-09-12T23:54:05Z</time>
      </trkpt>
      <trkpt lat="23.082097" lon="113.273595">
        <time>2026-09-12T23:54:10Z</time>
      </trkpt>
      <trkpt lat="23.082056" lon="113.273486">
        <time>2026-09-12T23:54:15Z</time>
      </trkpt>
      <trkpt lat="23.081978" lon="113.273392">
        <time>2026-09-12T23:54:20Z</time>
      </trkpt>
      <trkpt lat="23.081868" lon="113.273347">
        <time>2026-09-12T23:54:25Z</time>
      </trkpt>
      <trkpt lat="23.081757" lon="113.27329">
        <time>2026-09-12T23:54:30Z</time>
      </trkpt>
      <trkpt lat="23.081648" lon="113.273231">
        <time>2026-09-12T23:54:35Z</time>
      </trkpt>
      <trkpt lat="23.081545" lon="113.273173">
        <time>2026-09-12T23:54:40Z</time>
      </trkpt>
      <trkpt lat="23.081451" lon="113.273112">
        <time>2026-09-12T23:54:45Z</time>
      </trkpt>
      <trkpt lat="23.081349" lon="113.273076">
        <time>2026-09-12T23:54:50Z</time>
      </trkpt>
      <trkpt lat="23.08124" lon="113.273047">
        <time>2026-09-12T23:54:55Z</time>
      </trkpt>
      <trkpt lat="23.081127" lon="113.273002">
        <time>2026-09-12T23:55:00Z</time>
      </trkpt>
      <trkpt lat="23.081015" lon="113.272957">
        <time>2026-09-12T23:55:05Z</time>
      </trkpt>
      <trkpt lat="23.080901" lon="113.272928">
        <time>2026-09-12T23:55:10Z</time>
      </trkpt>
      <trkpt lat="23.080769" lon="113.273024">
        <time>2026-09-12T23:55:15Z</time>
      </trkpt>
      <trkpt lat="23.080668" lon="113.273169">
        <time>2026-09-12T23:55:20Z</time>
      </trkpt>
      <trkpt lat="23.080592" lon="113.273292">
        <time>2026-09-12T23:55:25Z</time>
      </trkpt>
      <trkpt lat="23.080547" lon="113.273415">
        <time>2026-09-12T23:55:30Z</time>
      </trkpt>
      <trkpt lat="23.08054" lon="113.273545">
        <time>2026-09-12T23:55:35Z</time>
      </trkpt>
      <trkpt lat="23.080571" lon="113.273671">
        <time>2026-09-12T23:55:40Z</time>
      </trkpt>
      <trkpt lat="23.080646" lon="113.273789">
        <time>2026-09-12T23:55:45Z</time>
      </trkpt>
      <trkpt lat="23.080768" lon="113.273864">
        <time>2026-09-12T23:55:50Z</time>
      </trkpt>
      <trkpt lat="23.080893" lon="113.273915">
        <time>2026-09-12T23:55:55Z</time>
      </trkpt>
      <trkpt lat="23.081018" lon="113.273963">
        <time>2026-09-12T23:56:00Z</time>
      </trkpt>
      <trkpt lat="23.081141" lon="113.27401">
        <time>2026-09-12T23:56:05Z</time>
      </trkpt>
      <trkpt lat="23.081254" lon="113.274049">
        <time>2026-09-12T23:56:10Z</time>
      </trkpt>
      <trkpt lat="23.081372" lon="113.274083">
        <time>2026-09-12T23:56:15Z</time>
      </trkpt>
      <trkpt lat="23.081486" lon="113.274117">
        <time>2026-09-12T23:56:20Z</time>
      </trkpt>
      <trkpt lat="23.081595" lon="113.27415">
        <time>2026-09-12T23:56:25Z</time>
      </trkpt>
      <trkpt lat="23.081721" lon="113.274175">
        <time>2026-09-12T23:56:30Z</time>
      </trkpt>
      <trkpt lat="23.081852" lon="113.274145">
        <time>2026-09-12T23:56:35Z</time>
      </trkpt>
      <trkpt lat="23.081959" lon="113.274068">
        <time>2026-09-12T23:56:40Z</time>
      </trkpt>
      <trkpt lat="23.082043" lon="113.273963">
        <time>2026-09-12T23:56:45Z</time>
      </trkpt>
      <trkpt lat="23.082092" lon="113.27384">
        <time>2026-09-12T23:56:50Z</time>
      </trkpt>
      <trkpt lat="23.082111" lon="113.273711">
        <time>2026-09-12T23:56:55Z</time>
      </trkpt>
      <trkpt lat="23.082094" lon="113.273585">
        <time>2026-09-12T23:57:00Z</time>
      </trkpt>
      <trkpt lat="23.082045" lon="113.273466">
        <time>2026-09-12T23:57:05Z</time>
      </trkpt>
      <trkpt lat="23.081948" lon="113.273376">
        <time>2026-09-12T23:57:10Z</time>
      </trkpt>
      <trkpt lat="23.081833" lon="113.273326">
        <time>2026-09-12T23:57:15Z</time>
      </trkpt>
      <trkpt lat="23.081724" lon="113.273279">
        <time>2026-09-12T23:57:20Z</time>
      </trkpt>
      <trkpt lat="23.081623" lon="113.273216">
        <time>2026-09-12T23:57:25Z</time>
      </trkpt>
      <trkpt lat="23.081519" lon="113.273155">
        <time>2026-09-12T23:57:30Z</time>
      </trkpt>
      <trkpt lat="23.081419" lon="113.273098">
        <time>2026-09-12T23:57:35Z</time>
      </trkpt>
      <trkpt lat="23.081305" lon="113.273069">
        <time>2026-09-12T23:57:40Z</time>
      </trkpt>
      <trkpt lat="23.081192" lon="113.273026">
        <time>2026-09-12T23:57:45Z</time>
      </trkpt>
      <trkpt lat="23.081079" lon="113.272985">
        <time>2026-09-12T23:57:50Z</time>
      </trkpt>
      <trkpt lat="23.080975" lon="113.272936">
        <time>2026-09-12T23:57:55Z</time>
      </trkpt>
      <trkpt lat="23.080859" lon="113.272951">
        <time>2026-09-12T23:58:00Z</time>
      </trkpt>
      <trkpt lat="23.080733" lon="113.273071">
        <time>2026-09-12T23:58:05Z</time>
      </trkpt>
      <trkpt lat="23.080636" lon="113.27322">
        <time>2026-09-12T23:58:10Z</time>
      </trkpt>
      <trkpt lat="23.08057" lon="113.27334">
        <time>2026-09-12T23:58:15Z</time>
      </trkpt>
      <trkpt lat="23.080542" lon="113.27346">
        <time>2026-09-12T23:58:20Z</time>
      </trkpt>
      <trkpt lat="23.080549" lon="113.273588">
        <time>2026-09-12T23:58:25Z</time>
      </trkpt>
      <trkpt lat="23.080589" lon="113.273708">
        <time>2026-09-12T23:58:30Z</time>
      </trkpt>
      <trkpt lat="23.080676" lon="113.273812">
        <time>2026-09-12T23:58:35Z</time>
      </trkpt>
      <trkpt lat="23.080803" lon="113.273878">
        <time>2026-09-12T23:58:40Z</time>
      </trkpt>
      <trkpt lat="23.080936" lon="113.273929">
        <time>2026-09-12T23:58:45Z</time>
      </trkpt>
      <trkpt lat="23.081061" lon="113.273981">
        <time>2026-09-12T23:58:50Z</time>
      </trkpt>
      <trkpt lat="23.081183" lon="113.274024">
        <time>2026-09-12T23:58:55Z</time>
      </trkpt>
      <trkpt lat="23.081302" lon="113.274062">
        <time>2026-09-12T23:59:00Z</time>
      </trkpt>
      <trkpt lat="23.081405" lon="113.274097">
        <time>2026-09-12T23:59:05Z</time>
      </trkpt>
      <trkpt lat="23.081505" lon="113.274124">
        <time>2026-09-12T23:59:10Z</time>
      </trkpt>
      <trkpt lat="23.081605" lon="113.274152">
        <time>2026-09-12T23:59:15Z</time>
      </trkpt>
      <trkpt lat="23.08171" lon="113.274176">
        <time>2026-09-12T23:59:20Z</time>
      </trkpt>
      <trkpt lat="23.081814" lon="113.27416">
        <time>2026-09-12T23:59:25Z</time>
      </trkpt>
      <trkpt lat="23.081909" lon="113.274107">
        <time>2026-09-12T23:59:30Z</time>
      </trkpt>
      <trkpt lat="23.082004" lon="113.274021">
        <time>2026-09-12T23:59:35Z</time>
      </trkpt>
      <trkpt lat="23.082072" lon="113.2739">
        <time>2026-09-12T23:59:40Z</time>
      </trkpt>
      <trkpt lat="23.082104" lon="113.273781">
        <time>2026-09-12T23:59:45Z</time>
      </trkpt>
      <trkpt lat="23.082109" lon="113.273664">
        <time>2026-09-12T23:59:50Z</time>
      </trkpt>
      <trkpt lat="23.082084" lon="113.27355">
        <time>2026-09-12T23:59:55Z</time>
      </trkpt>
      <trkpt lat="23.082032" lon="113.273446">
        <time>2026-09-13T00:00:00Z</time>
      </trkpt>
      <trkpt lat="23.081947" lon="113.273376">
        <time>2026-09-13T00:00:05Z</time>
      </trkpt>
      <trkpt lat="23.081852" lon="113.273337">
        <time>2026-09-13T00:00:10Z</time>
      </trkpt>
      <trkpt lat="23.081754" lon="113.273291">
        <time>2026-09-13T00:00:15Z</time>
      </trkpt>
      <trkpt lat="23.081652" lon="113.273238">
        <time>2026-09-13T00:00:20Z</time>
      </trkpt>
      <trkpt lat="23.08156" lon="113.273178">
        <time>2026-09-13T00:00:25Z</time>
      </trkpt>
      <trkpt lat="23.081464" lon="113.273118">
        <time>2026-09-13T00:00:30Z</time>
      </trkpt>
      <trkpt lat="23.081361" lon="113.273085">
        <time>2026-09-13T00:00:35Z</time>
      </trkpt>
      <trkpt lat="23.081251" lon="113.273047">
        <time>2026-09-13T00:00:40Z</time>
      </trkpt>
      <trkpt lat="23.081143" lon="113.273009">
        <time>2026-09-13T00:00:45Z</time>
      </trkpt>
      <trkpt lat="23.081024" lon="113.272957">
        <time>2026-09-13T00:00:50Z</time>
      </trkpt>
      <trkpt lat="23.08087" lon="113.272941">
        <time>2026-09-13T00:00:55Z</time>
      </trkpt>
      <trkpt lat="23.080742" lon="113.27306">
        <time>2026-09-13T00:01:00Z</time>
      </trkpt>
      <trkpt lat="23.080642" lon="113.273207">
        <time>2026-09-13T00:01:05Z</time>
      </trkpt>
      <trkpt lat="23.080572" lon="113.27334">
        <time>2026-09-13T00:01:10Z</time>
      </trkpt>
      <trkpt lat="23.080542" lon="113.273477">
        <time>2026-09-13T00:01:15Z</time>
      </trkpt>
      <trkpt lat="23.080556" lon="113.273622">
        <time>2026-09-13T00:01:20Z</time>
      </trkpt>
      <trkpt lat="23.080609" lon="113.273744">
        <time>2026-09-13T00:01:25Z</time>
      </trkpt>
      <trkpt lat="23.08071" lon="113.273834">
        <time>2026-09-13T00:01:30Z</time>
      </trkpt>
      <trkpt lat="23.080834" lon="113.273892">
        <time>2026-09-13T00:01:35Z</time>
      </trkpt>
      <trkpt lat="23.080968" lon="113.273945">
        <time>2026-09-13T00:01:40Z</time>
      </trkpt>
      <trkpt lat="23.081093" lon="113.273992">
        <time>2026-09-13T00:01:45Z</time>
      </trkpt>
      <trkpt lat="23.081213" lon="113.274033">
        <time>2026-09-13T00:01:50Z</time>
      </trkpt>
      <trkpt lat="23.081326" lon="113.274071">
        <time>2026-09-13T00:01:55Z</time>
      </trkpt>
      <trkpt lat="23.081429" lon="113.274104">
        <time>2026-09-13T00:02:00Z</time>
      </trkpt>
      <trkpt lat="23.081533" lon="113.274132">
        <time>2026-09-13T00:02:05Z</time>
      </trkpt>
      <trkpt lat="23.081642" lon="113.274162">
        <time>2026-09-13T00:02:10Z</time>
      </trkpt>
      <trkpt lat="23.081751" lon="113.274174">
        <time>2026-09-13T00:02:15Z</time>
      </trkpt>
      <trkpt lat="23.081855" lon="113.274143">
        <time>2026-09-13T00:02:20Z</time>
      </trkpt>
      <trkpt lat="23.081948" lon="113.274077">
        <time>2026-09-13T00:02:25Z</time>
      </trkpt>
      <trkpt lat="23.082034" lon="113.273978">
        <time>2026-09-13T00:02:30Z</time>
      </trkpt>
      <trkpt lat="23.082085" lon="113.273862">
        <time>2026-09-13T00:02:35Z</time>
      </trkpt>
      <trkpt lat="23.082111" lon="113.273736">
        <time>2026-09-13T00:02:40Z</time>
      </trkpt>
      <trkpt lat="23.0821" lon="113.273603">
        <time>2026-09-13T00:02:45Z</time>
      </trkpt>
      <trkpt lat="23.08205" lon="113.273478">
        <time>2026-09-13T00:02:50Z</time>
      </trkpt>
      <trkpt lat="23.081966" lon="113.273387">
        <time>2026-09-13T00:02:55Z</time>
      </trkpt>
      <trkpt lat="23.081864" lon="113.273339">
        <time>2026-09-13T00:03:00Z</time>
      </trkpt>
      <trkpt lat="23.08177" lon="113.273297">
        <time>2026-09-13T00:03:05Z</time>
      </trkpt>
      <trkpt lat="23.081687" lon="113.273261">
        <time>2026-09-13T00:03:10Z</time>
      </trkpt>
      <trkpt lat="23.081596" lon="113.273201">
        <time>2026-09-13T00:03:15Z</time>
      </trkpt>
      <trkpt lat="23.081483" lon="113.27313">
        <time>2026-09-13T00:03:20Z</time>
      </trkpt>
      <trkpt lat="23.081381" lon="113.273088">
        <time>2026-09-13T00:03:25Z</time>
      </trkpt>
      <trkpt lat="23.081275" lon="113.273057">
        <time>2026-09-13T00:03:30Z</time>
      </trkpt>
      <trkpt lat="23.081154" lon="113.273015">
        <time>2026-09-13T00:03:35Z</time>
      </trkpt>
      <trkpt lat="23.081032" lon="113.272964">
        <time>2026-09-13T00:03:40Z</time>
      </trkpt>
      <trkpt lat="23.08088" lon="113.27294">
        <time>2026-09-13T00:03:45Z</time>
      </trkpt>
      <trkpt lat="23.080757" lon="113.273056">
        <time>2026-09-13T00:03:50Z</time>
      </trkpt>
      <trkpt lat="23.080649" lon="113.273195">
        <time>2026-09-13T00:03:55Z</time>
      </trkpt>
      <trkpt lat="23.080579" lon="113.273322">
        <time>2026-09-13T00:04:00Z</time>
      </trkpt>
      <trkpt lat="23.080542" lon="113.273451">
        <time>2026-09-13T00:04:05Z</time>
      </trkpt>
      <trkpt lat="23.080547" lon="113.273594">
        <time>2026-09-13T00:04:10Z</time>
      </trkpt>
      <trkpt lat="23.080598" lon="113.273718">
        <time>2026-09-13T00:04:15Z</time>
      </trkpt>
      <trkpt lat="23.080679" lon="113.273812">
        <time>2026-09-13T00:04:20Z</time>
      </trkpt>
      <trkpt lat="23.080796" lon="113.273873">
        <time>2026-09-13T00:04:25Z</time>
      </trkpt>
      <trkpt lat="23.080924" lon="113.273927">
        <time>2026-09-13T00:04:30Z</time>
      </trkpt>
      <trkpt lat="23.081055" lon="113.273975">
        <time>2026-09-13T00:04:35Z</time>
      </trkpt>
      <trkpt lat="23.081175" lon="113.274023">
        <time>2026-09-13T00:04:40Z</time>
      </trkpt>
      <trkpt lat="23.081288" lon="113.274059">
        <time>2026-09-13T00:04:45Z</time>
      </trkpt>
      <trkpt lat="23.081401" lon="113.274094">
        <time>2026-09-13T00:04:50Z</time>
      </trkpt>
      <trkpt lat="23.081515" lon="113.274128">
        <time>2026-09-13T00:04:55Z</time>
      </trkpt>
      <trkpt lat="23.081619" lon="113.274157">
        <time>2026-09-13T00:05:00Z</time>
      </trkpt>
      <trkpt lat="23.081718" lon="113.274177">
        <time>2026-09-13T00:05:05Z</time>
      </trkpt>
      <trkpt lat="23.081824" lon="113.274157">
        <time>2026-09-13T00:05:10Z</time>
      </trkpt>
      <trkpt lat="23.081923" lon="113.274095">
        <time>2026-09-13T00:05:15Z</time>
      </trkpt>
      <trkpt lat="23.082013" lon="113.274008">
        <time>2026-09-13T00:05:20Z</time>
      </trkpt>
      <trkpt lat="23.082073" lon="113.273899">
        <time>2026-09-13T00:05:25Z</time>
      </trkpt>
      <trkpt lat="23.082105" lon="113.273776">
        <time>2026-09-13T00:05:30Z</time>
      </trkpt>
      <trkpt lat="23.082108" lon="113.273645">
        <time>2026-09-13T00:05:35Z</time>
      </trkpt>
      <trkpt lat="23.082076" lon="113.273529">
        <time>2026-09-13T00:05:40Z</time>
      </trkpt>
      <trkpt lat="23.082019" lon="113.27343">
        <time>2026-09-13T00:05:45Z</time>
      </trkpt>
      <trkpt lat="23.081929" lon="113.273369">
        <time>2026-09-13T00:05:50Z</time>
      </trkpt>
      <trkpt lat="23.081831" lon="113.273324">
        <time>2026-09-13T00:05:55Z</time>
      </trkpt>
      <trkpt lat="23.081734" lon="113.273282">
        <time>2026-09-13T00:06:00Z</time>
      </trkpt>
      <trkpt lat="23.081638" lon="113.273229">
        <time>2026-09-13T00:06:05Z</time>
      </trkpt>
      <trkpt lat="23.08154" lon="113.273167">
        <time>2026-09-13T00:06:10Z</time>
      </trkpt>
      <trkpt lat="23.081432" lon="113.273108">
        <time>2026-09-13T00:06:15Z</time>
      </trkpt>
      <trkpt lat="23.081321" lon="113.273071">
        <time>2026-09-13T00:06:20Z</time>
      </trkpt>
      <trkpt lat="23.081207" lon="113.273034">
        <time>2026-09-13T00:06:25Z</time>
      </trkpt>
      <trkpt lat="23.081088" lon="113.272985">
        <time>2026-09-13T00:06:30Z</time>
      </trkpt>
      <trkpt lat="23.080961" lon="113.272934">
        <time>2026-09-13T00:06:35Z</time>
      </trkpt>
      <trkpt lat="23.080801" lon="113.272997">
        <time>2026-09-13T00:06:40Z</time>
      </trkpt>
      <trkpt lat="23.080684" lon="113.273143">
        <time>2026-09-13T00:06:45Z</time>
      </trkpt>
      <trkpt lat="23.080599" lon="113.273278">
        <time>2026-09-13T00:06:50Z</time>
      </trkpt>
      <trkpt lat="23.08055" lon="113.273408">
        <time>2026-09-13T00:06:55Z</time>
      </trkpt>
      <trkpt lat="23.080533" lon="113.273535">
        <time>2026-09-13T00:07:00Z</time>
      </trkpt>
      <trkpt lat="23.08057" lon="113.273663">
        <time>2026-09-13T00:07:05Z</time>
      </trkpt>
      <trkpt lat="23.08065" lon="113.27379">
        <time>2026-09-13T00:07:10Z</time>
      </trkpt>
      <trkpt lat="23.080778" lon="113.273867">
        <time>2026-09-13T00:07:15Z</time>
      </trkpt>
      <trkpt lat="23.080909" lon="113.273921">
        <time>2026-09-13T00:07:20Z</time>
      </trkpt>
      <trkpt lat="23.081028" lon="113.273966">
        <time>2026-09-13T00:07:25Z</time>
      </trkpt>
      <trkpt lat="23.081146" lon="113.274011">
        <time>2026-09-13T00:07:30Z</time>
      </trkpt>
      <trkpt lat="23.081254" lon="113.27405">
        <time>2026-09-13T00:07:35Z</time>
      </trkpt>
      <trkpt lat="23.081358" lon="113.274082">
        <time>2026-09-13T00:07:40Z</time>
      </trkpt>
      <trkpt lat="23.081473" lon="113.274113">
        <time>2026-09-13T00:07:45Z</time>
      </trkpt>
      <trkpt lat="23.081586" lon="113.274146">
        <time>2026-09-13T00:07:50Z</time>
      </trkpt>
      <trkpt lat="23.08169" lon="113.274173">
        <time>2026-09-13T00:07:55Z</time>
      </trkpt>
      <trkpt lat="23.081794" lon="113.274165">
        <time>2026-09-13T00:08:00Z</time>
      </trkpt>
      <trkpt lat="23.081888" lon="113.274122">
        <time>2026-09-13T00:08:05Z</time>
      </trkpt>
      <trkpt lat="23.081974" lon="113.274054">
        <time>2026-09-13T00:08:10Z</time>
      </trkpt>
      <trkpt lat="23.08205" lon="113.27395">
        <time>2026-09-13T00:08:15Z</time>
      </trkpt>
      <trkpt lat="23.082097" lon="113.273817">
        <time>2026-09-13T00:08:20Z</time>
      </trkpt>
      <trkpt lat="23.082109" lon="113.273676">
        <time>2026-09-13T00:08:25Z</time>
      </trkpt>
      <trkpt lat="23.082084" lon="113.273555">
        <time>2026-09-13T00:08:30Z</time>
      </trkpt>
      <trkpt lat="23.082041" lon="113.27346">
        <time>2026-09-13T00:08:35Z</time>
      </trkpt>
      <trkpt lat="23.081966" lon="113.273387">
        <time>2026-09-13T00:08:40Z</time>
      </trkpt>
      <trkpt lat="23.081863" lon="113.273339">
        <time>2026-09-13T00:08:45Z</time>
      </trkpt>
      <trkpt lat="23.081763" lon="113.273296">
        <time>2026-09-13T00:08:50Z</time>
      </trkpt>
      <trkpt lat="23.081665" lon="113.273245">
        <time>2026-09-13T00:08:55Z</time>
      </trkpt>
      <trkpt lat="23.081564" lon="113.27318">
        <time>2026-09-13T00:09:00Z</time>
      </trkpt>
      <trkpt lat="23.081462" lon="113.27312">
        <time>2026-09-13T00:09:05Z</time>
      </trkpt>
      <trkpt lat="23.081357" lon="113.273082">
        <time>2026-09-13T00:09:10Z</time>
      </trkpt>
      <trkpt lat="23.081257" lon="113.273052">
        <time>2026-09-13T00:09:15Z</time>
      </trkpt>
      <trkpt lat="23.081152" lon="113.273011">
        <time>2026-09-13T00:09:20Z</time>
      </trkpt>
      <trkpt lat="23.081017" lon="113.272953">
        <time>2026-09-13T00:09:25Z</time>
      </trkpt>
      <trkpt lat="23.080856" lon="113.27295">
        <time>2026-09-13T00:09:30Z</time>
      </trkpt>
      <trkpt lat="23.080733" lon="113.273081">
        <time>2026-09-13T00:09:35Z</time>
      </trkpt>
      <trkpt lat="23.080643" lon="113.273202">
        <time>2026-09-13T00:09:40Z</time>
      </trkpt>
      <trkpt lat="23.080579" lon="113.273324">
        <time>2026-09-13T00:09:45Z</time>
      </trkpt>
      <trkpt lat="23.080545" lon="113.273438">
        <time>2026-09-13T00:09:50Z</time>
      </trkpt>
      <trkpt lat="23.080536" lon="113.273558">
        <time>2026-09-13T00:09:55Z</time>
      </trkpt>
      <trkpt lat="23.080577" lon="113.273682">
        <time>2026-09-13T00:10:00Z</time>
      </trkpt>
      <trkpt lat="23.080644" lon="113.273785">
        <time>2026-09-13T00:10:05Z</time>
      </trkpt>
      <trkpt lat="23.080732" lon="113.273845">
        <time>2026-09-13T00:10:10Z</time>
      </trkpt>
      <trkpt lat="23.080864" lon="113.273899">
        <time>2026-09-13T00:10:15Z</time>
      </trkpt>
      <trkpt lat="23.080992" lon="113.273955">
        <time>2026-09-13T00:10:20Z</time>
      </trkpt>
      <trkpt lat="23.081113" lon="113.274003">
        <time>2026-09-13T00:10:25Z</time>
      </trkpt>
      <trkpt lat="23.081224" lon="113.274037">
        <time>2026-09-13T00:10:30Z</time>
      </trkpt>
      <trkpt lat="23.081331" lon="113.274072">
        <time>2026-09-13T00:10:35Z</time>
      </trkpt>
      <trkpt lat="23.081439" lon="113.274105">
        <time>2026-09-13T00:10:40Z</time>
      </trkpt>
      <trkpt lat="23.081545" lon="113.274136">
        <time>2026-09-13T00:10:45Z</time>
      </trkpt>
      <trkpt lat="23.081649" lon="113.274165">
        <time>2026-09-13T00:10:50Z</time>
      </trkpt>
      <trkpt lat="23.08174" lon="113.274175">
        <time>2026-09-13T00:10:55Z</time>
      </trkpt>
      <trkpt lat="23.081839" lon="113.27415">
        <time>2026-09-13T00:11:00Z</time>
      </trkpt>
      <trkpt lat="23.081927" lon="113.274094">
        <time>2026-09-13T00:11:05Z</time>
      </trkpt>
      <trkpt lat="23.082014" lon="113.274008">
        <time>2026-09-13T00:11:10Z</time>
      </trkpt>
      <trkpt lat="23.082077" lon="113.273887">
        <time>2026-09-13T00:11:15Z</time>
      </trkpt>
      <trkpt lat="23.082108" lon="113.273753">
        <time>2026-09-13T00:11:20Z</time>
      </trkpt>
      <trkpt lat="23.082102" lon="113.273624">
        <time>2026-09-13T00:11:25Z</time>
      </trkpt>
      <trkpt lat="23.082064" lon="113.273505">
        <time>2026-09-13T00:11:30Z</time>
      </trkpt>
      <trkpt lat="23.081994" lon="113.273407">
        <time>2026-09-13T00:11:35Z</time>
      </trkpt>
      <trkpt lat="23.08189" lon="113.273353">
        <time>2026-09-13T00:11:40Z</time>
      </trkpt>
      <trkpt lat="23.081784" lon="113.273302">
        <time>2026-09-13T00:11:45Z</time>
      </trkpt>
      <trkpt lat="23.081686" lon="113.27325">
        <time>2026-09-13T00:11:50Z</time>
      </trkpt>
      <trkpt lat="23.08159" lon="113.273196">
        <time>2026-09-13T00:11:55Z</time>
      </trkpt>
      <trkpt lat="23.081486" lon="113.273138">
        <time>2026-09-13T00:12:00Z</time>
      </trkpt>
      <trkpt lat="23.081375" lon="113.273082">
        <time>2026-09-13T00:12:05Z</time>
      </trkpt>
      <trkpt lat="23.081253" lon="113.273052">
        <time>2026-09-13T00:12:10Z</time>
      </trkpt>
      <trkpt lat="23.081163" lon="113.273021">
        <time>2026-09-13T00:12:15Z</time>
      </trkpt>
      <trkpt lat="23.081062" lon="113.272975">
        <time>2026-09-13T00:12:20Z</time>
      </trkpt>
      <trkpt lat="23.080944" lon="113.27293">
        <time>2026-09-13T00:12:25Z</time>
      </trkpt>
      <trkpt lat="23.080781" lon="113.273022">
        <time>2026-09-13T00:12:30Z</time>
      </trkpt>
      <trkpt lat="23.080669" lon="113.273166">
        <time>2026-09-13T00:12:35Z</time>
      </trkpt>
      <trkpt lat="23.080593" lon="113.273294">
        <time>2026-09-13T00:12:40Z</time>
      </trkpt>
      <trkpt lat="23.080548" lon="113.273423">
        <time>2026-09-13T00:12:45Z</time>
      </trkpt>
      <trkpt lat="23.080545" lon="113.273559">
        <time>2026-09-13T00:12:50Z</time>
      </trkpt>
      <trkpt lat="23.080581" lon="113.273691">
        <time>2026-09-13T00:12:55Z</time>
      </trkpt>
      <trkpt lat="23.080665" lon="113.273801">
        <time>2026-09-13T00:13:00Z</time>
      </trkpt>
      <trkpt lat="23.080771" lon="113.273859">
        <time>2026-09-13T00:13:05Z</time>
      </trkpt>
      <trkpt lat="23.080878" lon="113.273909">
        <time>2026-09-13T00:13:10Z</time>
      </trkpt>
      <trkpt lat="23.080997" lon="113.273958">
        <time>2026-09-13T00:13:15Z</time>
      </trkpt>
      <trkpt lat="23.081111" lon="113.273998">
        <time>2026-09-13T00:13:20Z</time>
      </trkpt>
      <trkpt lat="23.081219" lon="113.274034">
        <time>2026-09-13T00:13:25Z</time>
      </trkpt>
      <trkpt lat="23.081322" lon="113.274069">
        <time>2026-09-13T00:13:30Z</time>
      </trkpt>
      <trkpt lat="23.081422" lon="113.274103">
        <time>2026-09-13T00:13:35Z</time>
      </trkpt>
      <trkpt lat="23.08153" lon="113.274131">
        <time>2026-09-13T00:13:40Z</time>
      </trkpt>
      <trkpt lat="23.081637" lon="113.274161">
        <time>2026-09-13T00:13:45Z</time>
      </trkpt>
      <trkpt lat="23.081738" lon="113.274175">
        <time>2026-09-13T00:13:50Z</time>
      </trkpt>
      <trkpt lat="23.081838" lon="113.27415">
        <time>2026-09-13T00:13:55Z</time>
      </trkpt>
      <trkpt lat="23.081927" lon="113.274091">
        <time>2026-09-13T00:14:00Z</time>
      </trkpt>
      <trkpt lat="23.082013" lon="113.274006">
        <time>2026-09-13T00:14:05Z</time>
      </trkpt>
      <trkpt lat="23.082076" lon="113.273889">
        <time>2026-09-13T00:14:10Z</time>
      </trkpt>
      <trkpt lat="23.082107" lon="113.27375">
        <time>2026-09-13T00:14:15Z</time>
      </trkpt>
      <trkpt lat="23.082103" lon="113.273624">
        <time>2026-09-13T00:14:20Z</time>
      </trkpt>
      <trkpt lat="23.082066" lon="113.273509">
        <time>2026-09-13T00:14:25Z</time>
      </trkpt>
      <trkpt lat="23.081988" lon="113.273403">
        <time>2026-09-13T00:14:30Z</time>
      </trkpt>
      <trkpt lat="23.081876" lon="113.273346">
        <time>2026-09-13T00:14:35Z</time>
      </trkpt>
      <trkpt lat="23.081764" lon="113.273292">
        <time>2026-09-13T00:14:40Z</time>
      </trkpt>
      <trkpt lat="23.081658" lon="113.273241">
        <time>2026-09-13T00:14:45Z</time>
      </trkpt>
      <trkpt lat="23.081559" lon="113.27318">
        <time>2026-09-13T00:14:50Z</time>
      </trkpt>
      <trkpt lat="23.081457" lon="113.273117">
        <time>2026-09-13T00:14:55Z</time>
      </trkpt>
      <trkpt lat="23.081344" lon="113.273078">
        <time>2026-09-13T00:15:00Z</time>
      </trkpt>
      <trkpt lat="23.081239" lon="113.273043">
        <time>2026-09-13T00:15:05Z</time>
      </trkpt>
      <trkpt lat="23.081134" lon="113.273005">
        <time>2026-09-13T00:15:10Z</time>
      </trkpt>
      <trkpt lat="23.081018" lon="113.272954">
        <time>2026-09-13T00:15:15Z</time>
      </trkpt>
      <trkpt lat="23.080888" lon="113.272933">
        <time>2026-09-13T00:15:20Z</time>
      </trkpt>
      <trkpt lat="23.08075" lon="113.273054">
        <time>2026-09-13T00:15:25Z</time>
      </trkpt>
      <trkpt lat="23.080634" lon="113.27322">
        <time>2026-09-13T00:15:30Z</time>
      </trkpt>
      <trkpt lat="23.080571" lon="113.273344">
        <time>2026-09-13T00:15:35Z</time>
      </trkpt>
      <trkpt lat="23.080541" lon="113.273472">
        <time>2026-09-13T00:15:40Z</time>
      </trkpt>
      <trkpt lat="23.08055" lon="113.273605">
        <time>2026-09-13T00:15:45Z</time>
      </trkpt>
      <trkpt lat="23.080605" lon="113.273733">
        <time>2026-09-13T00:15:50Z</time>
      </trkpt>
      <trkpt lat="23.080707" lon="113.27383">
        <time>2026-09-13T00:15:55Z</time>
      </trkpt>
      <trkpt lat="23.080836" lon="113.273891">
        <time>2026-09-13T00:16:00Z</time>
      </trkpt>
      <trkpt lat="23.080961" lon="113.273943">
        <time>2026-09-13T00:16:05Z</time>
      </trkpt>
      <trkpt lat="23.08107" lon="113.273984">
        <time>2026-09-13T00:16:10Z</time>
      </trkpt>
      <trkpt lat="23.08118" lon="113.27402">
        <time>2026-09-13T00:16:15Z</time>
      </trkpt>
      <trkpt lat="23.081285" lon="113.274058">
        <time>2026-09-13T00:16:20Z</time>
      </trkpt>
      <trkpt lat="23.081385" lon="113.27409">
        <time>2026-09-13T00:16:25Z</time>
      </trkpt>
      <trkpt lat="23.081487" lon="113.274121">
        <time>2026-09-13T00:16:30Z</time>
      </trkpt>
      <trkpt lat="23.081597" lon="113.274148">
        <time>2026-09-13T00:16:35Z</time>
      </trkpt>
      <trkpt lat="23.081697" lon="113.274174">
        <time>2026-09-13T00:16:40Z</time>
      </trkpt>
      <trkpt lat="23.081803" lon="113.274165">
        <time>2026-09-13T00:16:45Z</time>
      </trkpt>
      <trkpt lat="23.081897" lon="113.274109">
        <time>2026-09-13T00:16:50Z</time>
      </trkpt>
      <trkpt lat="23.081993" lon="113.274031">
        <time>2026-09-13T00:16:55Z</time>
      </trkpt>
      <trkpt lat="23.082062" lon="113.273923">
        <time>2026-09-13T00:17:00Z</time>
      </trkpt>
      <trkpt lat="23.082094" lon="113.273797">
        <time>2026-09-13T00:17:05Z</time>
      </trkpt>
      <trkpt lat="23.082109" lon="113.273661">
        <time>2026-09-13T00:17:10Z</time>
      </trkpt>
      <trkpt lat="23.082081" lon="113.273545">
        <time>2026-09-13T00:17:15Z</time>
      </trkpt>
      <trkpt lat="23.082028" lon="113.273444">
        <time>2026-09-13T00:17:20Z</time>
      </trkpt>
      <trkpt lat="23.081943" lon="113.273375">
        <time>2026-09-13T00:17:25Z</time>
      </trkpt>
      <trkpt lat="23.081838" lon="113.27333">
        <time>2026-09-13T00:17:30Z</time>
      </trkpt>
      <trkpt lat="23.081729" lon="113.273277">
        <time>2026-09-13T00:17:35Z</time>
      </trkpt>
      <trkpt lat="23.081624" lon="113.273216">
        <time>2026-09-13T00:17:40Z</time>
      </trkpt>
      <trkpt lat="23.081523" lon="113.273157">
        <time>2026-09-13T00:17:45Z</time>
      </trkpt>
      <trkpt lat="23.081425" lon="113.273104">
        <time>2026-09-13T00:17:50Z</time>
      </trkpt>
      <trkpt lat="23.081317" lon="113.273071">
        <time>2026-09-13T00:17:55Z</time>
      </trkpt>
      <trkpt lat="23.081207" lon="113.273033">
        <time>2026-09-13T00:18:00Z</time>
      </trkpt>
      <trkpt lat="23.081108" lon="113.272992">
        <time>2026-09-13T00:18:05Z</time>
      </trkpt>
      <trkpt lat="23.081008" lon="113.272954">
        <time>2026-09-13T00:18:10Z</time>
      </trkpt>
      <trkpt lat="23.080907" lon="113.272928">
        <time>2026-09-13T00:18:15Z</time>
      </trkpt>
      <trkpt lat="23.080727" lon="113.273087">
        <time>2026-09-13T00:18:20Z</time>
      </trkpt>
      <trkpt lat="23.080632" lon="113.273236">
        <time>2026-09-13T00:18:25Z</time>
      </trkpt>
      <trkpt lat="23.080563" lon="113.273356">
        <time>2026-09-13T00:18:30Z</time>
      </trkpt>
      <trkpt lat="23.08054" lon="113.273485">
        <time>2026-09-13T00:18:35Z</time>
      </trkpt>
      <trkpt lat="23.080555" lon="113.273614">
        <time>2026-09-13T00:18:40Z</time>
      </trkpt>
      <trkpt lat="23.080601" lon="113.273729">
        <time>2026-09-13T00:18:45Z</time>
      </trkpt>
      <trkpt lat="23.080694" lon="113.273823">
        <time>2026-09-13T00:18:50Z</time>
      </trkpt>
      <trkpt lat="23.080818" lon="113.273883">
        <time>2026-09-13T00:18:55Z</time>
      </trkpt>
      <trkpt lat="23.080944" lon="113.273936">
        <time>2026-09-13T00:19:00Z</time>
      </trkpt>
      <trkpt lat="23.081065" lon="113.273979">
        <time>2026-09-13T00:19:05Z</time>
      </trkpt>
      <trkpt lat="23.081182" lon="113.274023">
        <time>2026-09-13T00:19:10Z</time>
      </trkpt>
      <trkpt lat="23.0813" lon="113.274059">
        <time>2026-09-13T00:19:15Z</time>
      </trkpt>
      <trkpt lat="23.08142" lon="113.274101">
        <time>2026-09-13T00:19:20Z</time>
      </trkpt>
      <trkpt lat="23.081537" lon="113.274133">
        <time>2026-09-13T00:19:25Z</time>
      </trkpt>
      <trkpt lat="23.08165" lon="113.274165">
        <time>2026-09-13T00:19:30Z</time>
      </trkpt>
      <trkpt lat="23.081757" lon="113.274173">
        <time>2026-09-13T00:19:35Z</time>
      </trkpt>
      <trkpt lat="23.081859" lon="113.274139">
        <time>2026-09-13T00:19:40Z</time>
      </trkpt>
      <trkpt lat="23.081948" lon="113.274077">
        <time>2026-09-13T00:19:45Z</time>
      </trkpt>
      <trkpt lat="23.08203" lon="113.273979">
        <time>2026-09-13T00:19:50Z</time>
      </trkpt>
      <trkpt lat="23.082085" lon="113.27386">
        <time>2026-09-13T00:19:55Z</time>
      </trkpt>
      <trkpt lat="23.082109" lon="113.273722">
        <time>2026-09-13T00:20:00Z</time>
      </trkpt>
      <trkpt lat="23.082093" lon="113.273586">
        <time>2026-09-13T00:20:05Z</time>
      </trkpt>
      <trkpt lat="23.082044" lon="113.273467">
        <time>2026-09-13T00:20:10Z</time>
      </trkpt>
      <trkpt lat="23.08195" lon="113.273381">
        <time>2026-09-13T00:20:15Z</time>
      </trkpt>
      <trkpt lat="23.081845" lon="113.273332">
        <time>2026-09-13T00:20:20Z</time>
      </trkpt>
      <trkpt lat="23.081724" lon="113.273276">
        <time>2026-09-13T00:20:25Z</time>
      </trkpt>
      <trkpt lat="23.081605" lon="113.273205">
        <time>2026-09-13T00:20:30Z</time>
      </trkpt>
      <trkpt lat="23.081501" lon="113.273142">
        <time>2026-09-13T00:20:35Z</time>
      </trkpt>
      <trkpt lat="23.081411" lon="113.273098">
        <time>2026-09-13T00:20:40Z</time>
      </trkpt>
      <trkpt lat="23.081308" lon="113.273065">
        <time>2026-09-13T00:20:45Z</time>
      </trkpt>
      <trkpt lat="23.081207" lon="113.273031">
        <time>2026-09-13T00:20:50Z</time>
      </trkpt>
      <trkpt lat="23.081108" lon="113.272993">
        <time>2026-09-13T00:20:55Z</time>
      </trkpt>
      <trkpt lat="23.081003" lon="113.272951">
        <time>2026-09-13T00:21:00Z</time>
      </trkpt>
      <trkpt lat="23.080888" lon="113.272936">
        <time>2026-09-13T00:21:05Z</time>
      </trkpt>
      <trkpt lat="23.080773" lon="113.273032">
        <time>2026-09-13T00:21:10Z</time>
      </trkpt>
      <trkpt lat="23.080658" lon="113.273185">
        <time>2026-09-13T00:21:15Z</time>
      </trkpt>
      <trkpt lat="23.080585" lon="113.273311">
        <time>2026-09-13T00:21:20Z</time>
      </trkpt>
      <trkpt lat="23.080546" lon="113.273434">
        <time>2026-09-13T00:21:25Z</time>
      </trkpt>
      <trkpt lat="23.080542" lon="113.273562">
        <time>2026-09-13T00:21:30Z</time>
      </trkpt>
      <trkpt lat="23.080584" lon="113.273696">
        <time>2026-09-13T00:21:35Z</time>
      </trkpt>
      <trkpt lat="23.080671" lon="113.273804">
        <time>2026-09-13T00:21:40Z</time>
      </trkpt>
      <trkpt lat="23.080791" lon="113.273872">
        <time>2026-09-13T00:21:45Z</time>
      </trkpt>
      <trkpt lat="23.080915" lon="113.273925">
        <time>2026-09-13T00:21:50Z</time>
      </trkpt>
      <trkpt lat="23.081032" lon="113.273966">
        <time>2026-09-13T00:21:55Z</time>
      </trkpt>
      <trkpt lat="23.081149" lon="113.27401">
        <time>2026-09-13T00:22:00Z</time>
      </trkpt>
      <trkpt lat="23.081263" lon="113.274049">
        <time>2026-09-13T00:22:05Z</time>
      </trkpt>
      <trkpt lat="23.081372" lon="113.274086">
        <time>2026-09-13T00:22:10Z</time>
      </trkpt>
      <trkpt lat="23.081483" lon="113.274118">
        <time>2026-09-13T00:22:15Z</time>
      </trkpt>
      <trkpt lat="23.081598" lon="113.27415">
        <time>2026-09-13T00:22:20Z</time>
      </trkpt>
      <trkpt lat="23.081704" lon="113.274174">
        <time>2026-09-13T00:22:25Z</time>
      </trkpt>
      <trkpt lat="23.081811" lon="113.27416">
        <time>2026-09-13T00:22:30Z</time>
      </trkpt>
      <trkpt lat="23.081908" lon="113.274107">
        <time>2026-09-13T00:22:35Z</time>
      </trkpt>
      <trkpt lat="23.081994" lon="113.27403">
        <time>2026-09-13T00:22:40Z</time>
      </trkpt>
      <trkpt lat="23.082061" lon="113.273924">
        <time>2026-09-13T00:22:45Z</time>
      </trkpt>
      <trkpt lat="23.0821" lon="113.273788">
        <time>2026-09-13T00:22:50Z</time>
      </trkpt>
      <trkpt lat="23.082105" lon="113.273644">
        <time>2026-09-13T00:22:55Z</time>
      </trkpt>
      <trkpt lat="23.082068" lon="113.273515">
        <time>2026-09-13T00:23:00Z</time>
      </trkpt>
      <trkpt lat="23.081995" lon="113.27341">
        <time>2026-09-13T00:23:05Z</time>
      </trkpt>
      <trkpt lat="23.081885" lon="113.273349">
        <time>2026-09-13T00:23:10Z</time>
      </trkpt>
      <trkpt lat="23.081781" lon="113.273299">
        <time>2026-09-13T00:23:15Z</time>
      </trkpt>
      <trkpt lat="23.08167" lon="113.273242">
        <time>2026-09-13T00:23:20Z</time>
      </trkpt>
      <trkpt lat="23.081564" lon="113.273183">
        <time>2026-09-13T00:23:25Z</time>
      </trkpt>
      <trkpt lat="23.081466" lon="113.273124">
        <time>2026-09-13T00:23:30Z</time>
      </trkpt>
      <trkpt lat="23.081362" lon="113.273084">
        <time>2026-09-13T00:23:35Z</time>
      </trkpt>
      <trkpt lat="23.081252" lon="113.273049">
        <time>2026-09-13T00:23:40Z</time>
      </trkpt>
      <trkpt lat="23.081138" lon="113.273005">
        <time>2026-09-13T00:23:45Z</time>
      </trkpt>
      <trkpt lat="23.081034" lon="113.272961">
        <time>2026-09-13T00:23:50Z</time>
      </trkpt>
      <trkpt lat="23.080932" lon="113.272929">
        <time>2026-09-13T00:23:55Z</time>
      </trkpt>
      <trkpt lat="23.080794" lon="113.273003">
        <time>2026-09-13T00:24:00Z</time>
      </trkpt>
      <trkpt lat="23.080675" lon="113.273161">
        <time>2026-09-13T00:24:05Z</time>
      </trkpt>
      <trkpt lat="23.0806" lon="113.273282">
        <time>2026-09-13T00:24:10Z</time>
      </trkpt>
      <trkpt lat="23.080551" lon="113.273407">
        <time>2026-09-13T00:24:15Z</time>
      </trkpt>
      <trkpt lat="23.080544" lon="113.273538">
        <time>2026-09-13T00:24:20Z</time>
      </trkpt>
      <trkpt lat="23.080568" lon="113.273658">
        <time>2026-09-13T00:24:25Z</time>
      </trkpt>
      <trkpt lat="23.080629" lon="113.273763">
        <time>2026-09-13T00:24:30Z</time>
      </trkpt>
      <trkpt lat="23.080727" lon="113.273841">
        <time>2026-09-13T00:24:35Z</time>
      </trkpt>
      <trkpt lat="23.080845" lon="113.273893">
        <time>2026-09-13T00:24:40Z</time>
      </trkpt>
      <trkpt lat="23.08097" lon="113.273946">
        <time>2026-09-13T00:24:45Z</time>
      </trkpt>
      <trkpt lat="23.08109" lon="113.273992">
        <time>2026-09-13T00:24:50Z</time>
      </trkpt>
      <trkpt lat="23.081202" lon="113.27403">
        <time>2026-09-13T00:24:55Z</time>
      </trkpt>
      <trkpt lat="23.081309" lon="113.274064">
        <time>2026-09-13T00:25:00Z</time>
      </trkpt>
      <trkpt lat="23.081415" lon="113.274099">
        <time>2026-09-13T00:25:05Z</time>
      </trkpt>
      <trkpt lat="23.081522" lon="113.274127">
        <time>2026-09-13T00:25:10Z</time>
      </trkpt>
      <trkpt lat="23.08163" lon="113.27416">
        <time>2026-09-13T00:25:15Z</time>
      </trkpt>
      <trkpt lat="23.081736" lon="113.274174">
        <time>2026-09-13T00:25:20Z</time>
      </trkpt>
      <trkpt lat="23.081845" lon="113.274146">
        <time>2026-09-13T00:25:25Z</time>
      </trkpt>
      <trkpt lat="23.081935" lon="113.274085">
        <time>2026-09-13T00:25:30Z</time>
      </trkpt>
      <trkpt lat="23.082018" lon="113.273999">
        <time>2026-09-13T00:25:35Z</time>
      </trkpt>
      <trkpt lat="23.082076" lon="113.273883">
        <time>2026-09-13T00:25:40Z</time>
      </trkpt>
      <trkpt lat="23.082106" lon="113.273752">
        <time>2026-09-13T00:25:45Z</time>
      </trkpt>
      <trkpt lat="23.0821" lon="113.273623">
        <time>2026-09-13T00:25:50Z</time>
      </trkpt>
      <trkpt lat="23.082064" lon="113.273505">
        <time>2026-09-13T00:25:55Z</time>
      </trkpt>
      <trkpt lat="23.081989" lon="113.273405">
        <time>2026-09-13T00:26:00Z</time>
      </trkpt>
      <trkpt lat="23.081878" lon="113.273347">
        <time>2026-09-13T00:26:05Z</time>
      </trkpt>
      <trkpt lat="23.081755" lon="113.273289">
        <time>2026-09-13T00:26:10Z</time>
      </trkpt>
      <trkpt lat="23.081645" lon="113.273228">
        <time>2026-09-13T00:26:15Z</time>
      </trkpt>
      <trkpt lat="23.081531" lon="113.273164">
        <time>2026-09-13T00:26:20Z</time>
      </trkpt>
      <trkpt lat="23.081426" lon="113.273104">
        <time>2026-09-13T00:26:25Z</time>
      </trkpt>
      <trkpt lat="23.081307" lon="113.273068">
        <time>2026-09-13T00:26:30Z</time>
      </trkpt>
      <trkpt lat="23.08119" lon="113.273024">
        <time>2026-09-13T00:26:35Z</time>
      </trkpt>
      <trkpt lat="23.081073" lon="113.272982">
        <time>2026-09-13T00:26:40Z</time>
      </trkpt>
      <trkpt lat="23.080967" lon="113.272941">
        <time>2026-09-13T00:26:45Z</time>
      </trkpt>
      <trkpt lat="23.080865" lon="113.272947">
        <time>2026-09-13T00:26:50Z</time>
      </trkpt>
      <trkpt lat="23.080723" lon="113.273089">
        <time>2026-09-13T00:26:55Z</time>
      </trkpt>
      <trkpt lat="23.080622" lon="113.273257">
        <time>2026-09-13T00:27:00Z</time>
      </trkpt>
      <trkpt lat="23.080571" lon="113.273391">
        <time>2026-09-13T00:27:05Z</time>
      </trkpt>
      <trkpt lat="23.080552" lon="113.273514">
        <time>2026-09-13T00:27:10Z</time>
      </trkpt>
      <trkpt lat="23.080587" lon="113.273627">
        <time>2026-09-13T00:27:15Z</time>
      </trkpt>
      <trkpt lat="23.080659" lon="113.273736">
        <time>2026-09-13T00:27:20Z</time>
      </trkpt>
      <trkpt lat="23.080753" lon="113.273824">
        <time>2026-09-13T00:27:25Z</time>
      </trkpt>
      <trkpt lat="23.080865" lon="113.273892">
        <time>2026-09-13T00:27:30Z</time>
      </trkpt>
      <trkpt lat="23.080974" lon="113.273963">
        <time>2026-09-13T00:27:35Z</time>
      </trkpt>
      <trkpt lat="23.081087" lon="113.274021">
        <time>2026-09-13T00:27:40Z</time>
      </trkpt>
      <trkpt lat="23.0812" lon="113.274057">
        <time>2026-09-13T00:27:45Z</time>
      </trkpt>
      <trkpt lat="23.081309" lon="113.274082">
        <time>2026-09-13T00:27:50Z</time>
      </trkpt>
      <trkpt lat="23.081413" lon="113.274129">
        <time>2026-09-13T00:27:55Z</time>
      </trkpt>
      <trkpt lat="23.081522" lon="113.274174">
        <time>2026-09-13T00:28:00Z</time>
      </trkpt>
      <trkpt lat="23.081632" lon="113.274204">
        <time>2026-09-13T00:28:05Z</time>
      </trkpt>
      <trkpt lat="23.081746" lon="113.2742">
        <time>2026-09-13T00:28:10Z</time>
      </trkpt>
      <trkpt lat="23.081859" lon="113.274162">
        <time>2026-09-13T00:28:15Z</time>
      </trkpt>
      <trkpt lat="23.081962" lon="113.27411">
        <time>2026-09-13T00:28:20Z</time>
      </trkpt>
      <trkpt lat="23.082037" lon="113.274016">
        <time>2026-09-13T00:28:25Z</time>
      </trkpt>
      <trkpt lat="23.082082" lon="113.273884">
        <time>2026-09-13T00:28:30Z</time>
      </trkpt>
      <trkpt lat="23.082094" lon="113.273757">
        <time>2026-09-13T00:28:35Z</time>
      </trkpt>
      <trkpt lat="23.082088" lon="113.273639">
        <time>2026-09-13T00:28:40Z</time>
      </trkpt>
      <trkpt lat="23.082064" lon="113.273529">
        <time>2026-09-13T00:28:45Z</time>
      </trkpt>
      <trkpt lat="23.082003" lon="113.273424">
        <time>2026-09-13T00:28:50Z</time>
      </trkpt>
      <trkpt lat="23.081902" lon="113.273345">
        <time>2026-09-13T00:28:55Z</time>
      </trkpt>
      <trkpt lat="23.081793" lon="113.273269">
        <time>2026-09-13T00:29:00Z</time>
      </trkpt>
      <trkpt lat="23.081678" lon="113.273214">
        <time>2026-09-13T00:29:05Z</time>
      </trkpt>
      <trkpt lat="23.081568" lon="113.273172">
        <time>2026-09-13T00:29:10Z</time>
      </trkpt>
      <trkpt lat="23.081484" lon="113.273112">
        <time>2026-09-13T00:29:15Z</time>
      </trkpt>
      <trkpt lat="23.081493" lon="113.273">
        <time>2026-09-13T00:29:20Z</time>
      </trkpt>
      <trkpt lat="23.081497" lon="113.272937">
        <time>2026-09-13T00:29:25Z</time>
      </trkpt>
      <trkpt lat="23.081416" lon="113.272903">
        <time>2026-09-13T00:29:30Z</time>
      </trkpt>
      <trkpt lat="23.081331" lon="113.272875">
        <time>2026-09-13T00:29:35Z</time>
      </trkpt>
      <trkpt lat="23.081238" lon="113.272814">
        <time>2026-09-13T00:29:40Z</time>
      </trkpt>
      <trkpt lat="23.081168" lon="113.272775">
        <time>2026-09-13T00:29:45Z</time>
      </trkpt>
      <trkpt lat="23.081087" lon="113.272743">
        <time>2026-09-13T00:29:50Z</time>
      </trkpt>
      <trkpt lat="23.080991" lon="113.272724">
        <time>2026-09-13T00:29:55Z</time>
      </trkpt>
      <trkpt lat="23.080882" lon="113.272683">
        <time>2026-09-13T00:30:00Z</time>
      </trkpt>
      <trkpt lat="23.080773" lon="113.272633">
        <time>2026-09-13T00:30:05Z</time>
      </trkpt>
      <trkpt lat="23.080663" lon="113.272588">
        <time>2026-09-13T00:30:10Z</time>
      </trkpt>
      <trkpt lat="23.08057" lon="113.272536">
        <time>2026-09-13T00:30:15Z</time>
      </trkpt>
      <trkpt lat="23.08046" lon="113.272497">
        <time>2026-09-13T00:30:20Z</time>
      </trkpt>
      <trkpt lat="23.080348" lon="113.272455">
        <time>2026-09-13T00:30:25Z</time>
      </trkpt>
      <trkpt lat="23.080265" lon="113.272419">
        <time>2026-09-13T00:30:30Z</time>
      </trkpt>
      <trkpt lat="23.080208" lon="113.272376">
        <time>2026-09-13T00:30:35Z</time>
      </trkpt>
      <trkpt lat="23.080139" lon="113.272374">
        <time>2026-09-13T00:30:40Z</time>
      </trkpt>
      <trkpt lat="23.080044" lon="113.272342">
        <time>2026-09-13T00:30:45Z</time>
      </trkpt>
      <trkpt lat="23.079941" lon="113.272284">
        <time>2026-09-13T00:30:50Z</time>
      </trkpt>
      <trkpt lat="23.079847" lon="113.272248">
        <time>2026-09-13T00:30:55Z</time>
      </trkpt>
      <trkpt lat="23.079777" lon="113.272229">
        <time>2026-09-13T00:31:00Z</time>
      </trkpt>
      <trkpt lat="23.079679" lon="113.272185">
        <time>2026-09-13T00:31:05Z</time>
      </trkpt>
      <trkpt lat="23.079575" lon="113.272146">
        <time>2026-09-13T00:31:10Z</time>
      </trkpt>
      <trkpt lat="23.079501" lon="113.272059">
        <time>2026-09-13T00:31:15Z</time>
      </trkpt>
      <trkpt lat="23.079381" lon="113.27201">
        <time>2026-09-13T00:31:20Z</time>
      </trkpt>
      <trkpt lat="23.07926" lon="113.272057">
        <time>2026-09-13T00:31:25Z</time>
      </trkpt>
      <trkpt lat="23.079155" lon="113.272132">
        <time>2026-09-13T00:31:30Z</time>
      </trkpt>
      <trkpt lat="23.079065" lon="113.272208">
        <time>2026-09-13T00:31:35Z</time>
      </trkpt>
      <trkpt lat="23.078984" lon="113.272291">
        <time>2026-09-13T00:31:40Z</time>
      </trkpt>
      <trkpt lat="23.078887" lon="113.272351">
        <time>2026-09-13T00:31:45Z</time>
      </trkpt>
      <trkpt lat="23.078786" lon="113.27241">
        <time>2026-09-13T00:31:50Z</time>
      </trkpt>
      <trkpt lat="23.078708" lon="113.2725">
        <time>2026-09-13T00:31:55Z</time>
      </trkpt>
      <trkpt lat="23.078626" lon="113.272569">
        <time>2026-09-13T00:32:00Z</time>
      </trkpt>
      <trkpt lat="23.078546" lon="113.272636">
        <time>2026-09-13T00:32:05Z</time>
      </trkpt>
      <trkpt lat="23.078464" lon="113.272707">
        <time>2026-09-13T00:32:10Z</time>
      </trkpt>
      <trkpt lat="23.078372" lon="113.27277">
        <time>2026-09-13T00:32:15Z</time>
      </trkpt>
      <trkpt lat="23.078288" lon="113.272838">
        <time>2026-09-13T00:32:20Z</time>
      </trkpt>
      <trkpt lat="23.078197" lon="113.272911">
        <time>2026-09-13T00:32:25Z</time>
      </trkpt>
      <trkpt lat="23.078124" lon="113.273002">
        <time>2026-09-13T00:32:30Z</time>
      </trkpt>
      <trkpt lat="23.078028" lon="113.273099">
        <time>2026-09-13T00:32:35Z</time>
      </trkpt>
      <trkpt lat="23.077946" lon="113.273186">
        <time>2026-09-13T00:32:40Z</time>
      </trkpt>
      <trkpt lat="23.077894" lon="113.273238">
        <time>2026-09-13T00:32:45Z</time>
      </trkpt>
      <trkpt lat="23.077834" lon="113.273274">
        <time>2026-09-13T00:32:50Z</time>
      </trkpt>
      <trkpt lat="23.077735" lon="113.273355">
        <time>2026-09-13T00:32:55Z</time>
      </trkpt>
      <trkpt lat="23.077609" lon="113.273421">
        <time>2026-09-13T00:33:00Z</time>
      </trkpt>
      <trkpt lat="23.077482" lon="113.273484">
        <time>2026-09-13T00:33:05Z</time>
      </trkpt>
      <trkpt lat="23.077389" lon="113.273529">
        <time>2026-09-13T00:33:10Z</time>
      </trkpt>
      <trkpt lat="23.077295" lon="113.273582">
        <time>2026-09-13T00:33:15Z</time>
      </trkpt>
      <trkpt lat="23.077189" lon="113.273582">
        <time>2026-09-13T00:33:20Z</time>
      </trkpt>
      <trkpt lat="23.077083" lon="113.273544">
        <time>2026-09-13T00:33:25Z</time>
      </trkpt>
      <trkpt lat="23.076981" lon="113.273482">
        <time>2026-09-13T00:33:30Z</time>
      </trkpt>
      <trkpt lat="23.076891" lon="113.273404">
        <time>2026-09-13T00:33:35Z</time>
      </trkpt>
      <trkpt lat="23.076836" lon="113.27332">
        <time>2026-09-13T00:33:40Z</time>
      </trkpt>
      <trkpt lat="23.076859" lon="113.273186">
        <time>2026-09-13T00:33:45Z</time>
      </trkpt>
      <trkpt lat="23.076807" lon="113.273101">
        <time>2026-09-13T00:33:50Z</time>
      </trkpt>
      <trkpt lat="23.076715" lon="113.273039">
        <time>2026-09-13T00:33:55Z</time>
      </trkpt>
      <trkpt lat="23.076625" lon="113.272952">
        <time>2026-09-13T00:34:00Z</time>
      </trkpt>
      <trkpt lat="23.076556" lon="113.272868">
        <time>2026-09-13T00:34:05Z</time>
      </trkpt>
      <trkpt lat="23.076487" lon="113.272801">
        <time>2026-09-13T00:34:10Z</time>
      </trkpt>
      <trkpt lat="23.076409" lon="113.27273">
        <time>2026-09-13T00:34:15Z</time>
      </trkpt>
      <trkpt lat="23.076335" lon="113.272664">
        <time>2026-09-13T00:34:20Z</time>
      </trkpt>
      <trkpt lat="23.07624" lon="113.272596">
        <time>2026-09-13T00:34:25Z</time>
      </trkpt>
      <trkpt lat="23.076138" lon="113.272484">
        <time>2026-09-13T00:34:30Z</time>
      </trkpt>
      <trkpt lat="23.076028" lon="113.272393">
        <time>2026-09-13T00:34:35Z</time>
      </trkpt>
      <trkpt lat="23.075938" lon="113.272321">
        <time>2026-09-13T00:34:40Z</time>
      </trkpt>
      <trkpt lat="23.075854" lon="113.272271">
        <time>2026-09-13T00:34:45Z</time>
      </trkpt>
      <trkpt lat="23.075763" lon="113.272206">
        <time>2026-09-13T00:34:50Z</time>
      </trkpt>
      <trkpt lat="23.075678" lon="113.272129">
        <time>2026-09-13T00:34:55Z</time>
      </trkpt>
      <trkpt lat="23.075575" lon="113.272104">
        <time>2026-09-13T00:35:00Z</time>
      </trkpt>
      <trkpt lat="23.075487" lon="113.272054">
        <time>2026-09-13T00:35:05Z</time>
      </trkpt>
      <trkpt lat="23.075412" lon="113.27199">
        <time>2026-09-13T00:35:10Z</time>
      </trkpt>
      <trkpt lat="23.07532" lon="113.271907">
        <time>2026-09-13T00:35:15Z</time>
      </trkpt>
      <trkpt lat="23.075269" lon="113.271933">
        <time>2026-09-13T00:35:20Z</time>
      </trkpt>
      <trkpt lat="23.075272" lon="113.272056">
        <time>2026-09-13T00:35:25Z</time>
      </trkpt>
      <trkpt lat="23.0753" lon="113.272176">
        <time>2026-09-13T00:35:30Z</time>
      </trkpt>
      <trkpt lat="23.075293" lon="113.27228">
        <time>2026-09-13T00:35:35Z</time>
      </trkpt>
      <trkpt lat="23.075263" lon="113.272403">
        <time>2026-09-13T00:35:40Z</time>
      </trkpt>
      <trkpt lat="23.07524" lon="113.272511">
        <time>2026-09-13T00:35:45Z</time>
      </trkpt>
      <trkpt lat="23.075259" lon="113.27261">
        <time>2026-09-13T00:35:50Z</time>
      </trkpt>
      <trkpt lat="23.075278" lon="113.272723">
        <time>2026-09-13T00:35:55Z</time>
      </trkpt>
      <trkpt lat="23.075278" lon="113.272849">
        <time>2026-09-13T00:36:00Z</time>
      </trkpt>
      <trkpt lat="23.075294" lon="113.272967">
        <time>2026-09-13T00:36:05Z</time>
      </trkpt>
      <trkpt lat="23.075345" lon="113.273065">
        <time>2026-09-13T00:36:10Z</time>
      </trkpt>
      <trkpt lat="23.075383" lon="113.273165">
        <time>2026-09-13T00:36:15Z</time>
      </trkpt>
      <trkpt lat="23.075403" lon="113.273286">
        <time>2026-09-13T00:36:20Z</time>
      </trkpt>
      <trkpt lat="23.075476" lon="113.273401">
        <time>2026-09-13T00:36:25Z</time>
      </trkpt>
      <trkpt lat="23.075586" lon="113.273424">
        <time>2026-09-13T00:36:30Z</time>
      </trkpt>
      <trkpt lat="23.075673" lon="113.273373">
        <time>2026-09-13T00:36:35Z</time>
      </trkpt>
      <trkpt lat="23.075722" lon="113.273264">
        <time>2026-09-13T00:36:40Z</time>
      </trkpt>
    </trkseg>
  </trk>
</gpx>