<?xml version="1.0" encoding="UTF-8"?>
<gpx xmlns="http://www.topografix.com/GPX/1/1" xmlns:gpxtpx="http://www.garmin.com/xmlschemas/TrackPointExtension/v1" xmlns:xsi="http://www.w3.org/2001/XMLSchema-instance" xsi:schemaLocation="http://www.topografix.com/GPX/1/1 http://www.topografix.com/GPX/1/1/gpx.xsd" version="1.1" creator="gpx.py -- https://github.com/tkrajina/gpxpy">
  <trk>
    <name>gpx from joyrun</name>
    <trkseg>
      <trkpt lat="23.075945" lon="113.272721">
        <time>2026-09-14T21:46:56Z</time>
      </trkpt>
      <trkpt lat="23.075942" lon="113.272721">
        <time>2026-09-14T21:47:01Z</time>
      </trkpt>
      <trkpt lat="23.075904" lon="113.272714">
        <time>2026-09-14T21:47:06Z</time>
      </trkpt>
      <trkpt lat="23.075832" lon="113.272702">
        <time>2026-09-14T21:47:11Z</time>
      </trkpt>
      <trkpt lat="23.075744" lon="113.272668">
        <time>2026-09-14T21:47:16Z</time>
      </trkpt>
      <trkpt lat="23.075658" lon="113.272612">
        <time>2026-09-14T21:47:21Z</time>
      </trkpt>
      <trkpt lat="23.075572" lon="113.272553">
        <time>2026-09-14T21:47:26Z</time>
      </trkpt>
      <trkpt lat="23.075476" lon="113.272512">
        <time>2026-09-14T21:47:31Z</time>
      </trkpt>
      <trkpt lat="23.075392" lon="113.272459">
        <time>2026-09-14T21:47:36Z</time>
      </trkpt>
      <trkpt lat="23.075294" lon="113.27241">
        <time>2026-09-14T21:47:41Z</time>
      </trkpt>
      <trkpt lat="23.075191" lon="113.272353">
        <time>2026-09-14T21:47:46Z</time>
      </trkpt>
      <trkpt lat="23.075085" lon="113.272308">
        <time>2026-09-14T21:47:51Z</time>
      </trkpt>
      <trkpt lat="23.074987" lon="113.272264">
        <time>2026-09-14T21:47:56Z</time>
      </trkpt>
      <trkpt lat="23.0749" lon="113.272195">
        <time>2026-09-14T21:48:01Z</time>
      </trkpt>
      <trkpt lat="23.074808" lon="113.272139">
        <time>2026-09-14T21:48:06Z</time>
      </trkpt>
      <trkpt lat="23.074698" lon="113.272116">
        <time>2026-09-14T21:48:11Z</time>
      </trkpt>
      <trkpt lat="23.074585" lon="113.272059">
        <time>2026-09-14T21:48:16Z</time>
      </trkpt>
      <trkpt lat="23.074485" lon="113.272016">
        <time>2026-09-14T21:48:21Z</time>
      </trkpt>
      <trkpt lat="23.074388" lon="113.272073">
        <time>2026-09-14T21:48:26Z</time>
      </trkpt>
      <trkpt lat="23.074321" lon="113.272209">
        <time>2026-09-14T21:48:31Z</time>
      </trkpt>
      <trkpt lat="23.074274" lon="113.272348">
        <time>2026-09-14T21:48:36Z</time>
      </trkpt>
      <trkpt lat="23.074204" lon="113.272466">
        <time>2026-09-14T21:48:41Z</time>
      </trkpt>
      <trkpt lat="23.074129" lon="113.272596">
        <time>2026-09-14T21:48:46Z</time>
      </trkpt>
      <trkpt lat="23.07407" lon="113.272737">
        <time>2026-09-14T21:48:51Z</time>
      </trkpt>
      <trkpt lat="23.073997" lon="113.272864">
        <time>2026-09-14T21:48:56Z</time>
      </trkpt>
      <trkpt lat="23.073874" lon="113.272947">
        <time>2026-09-14T21:49:01Z</time>
      </trkpt>
      <trkpt lat="23.073718" lon="113.272908">
        <time>2026-09-14T21:49:06Z</time>
      </trkpt>
      <trkpt lat="23.073663" lon="113.272798">
        <time>2026-09-14T21:49:11Z</time>
      </trkpt>
      <trkpt lat="23.073707" lon="113.272678">
        <time>2026-09-14T21:49:16Z</time>
      </trkpt>
      <trkpt lat="23.073758" lon="113.272568">
        <time>2026-09-14T21:49:21Z</time>
      </trkpt>
      <trkpt lat="23.073801" lon="113.27246">
        <time>2026-09-14T21:49:26Z</time>
      </trkpt>
      <trkpt lat="23.073833" lon="113.272353">
        <time>2026-09-14T21:49:31Z</time>
      </trkpt>
      <trkpt lat="23.073882" lon="113.272241">
        <time>2026-09-14T21:49:36Z</time>
      </trkpt>
      <trkpt lat="23.073923" lon="113.272135">
        <time>2026-09-14T21:49:41Z</time>
      </trkpt>
      <trkpt lat="23.073984" lon="113.272033">
        <time>2026-09-14T21:49:46Z</time>
      </trkpt>
      <trkpt lat="23.074046" lon="113.271936">
        <time>2026-09-14T21:49:51Z</time>
      </trkpt>
      <trkpt lat="23.074096" lon="113.271827">
        <time>2026-09-14T21:49:56Z</time>
      </trkpt>
      <trkpt lat="23.074055" lon="113.271731">
        <time>2026-09-14T21:50:01Z</time>
      </trkpt>
      <trkpt lat="23.07396" lon="113.271668">
        <time>2026-09-14T21:50:06Z</time>
      </trkpt>
      <trkpt lat="23.073862" lon="113.271615">
        <time>2026-09-14T21:50:11Z</time>
      </trkpt>
      <trkpt lat="23.073762" lon="113.27156">
        <time>2026-09-14T21:50:16Z</time>
      </trkpt>
      <trkpt lat="23.073656" lon="113.271518">
        <time>2026-09-14T21:50:21Z</time>
      </trkpt>
      <trkpt lat="23.073542" lon="113.271479">
        <time>2026-09-14T21:50:26Z</time>
      </trkpt>
      <trkpt lat="23.073429" lon="113.271439">
        <time>2026-09-14T21:50:31Z</time>
      </trkpt>
      <trkpt lat="23.073331" lon="113.271376">
        <time>2026-09-14T21:50:36Z</time>
      </trkpt>
      <trkpt lat="23.073279" lon="113.271309">
        <time>2026-09-14T21:50:41Z</time>
      </trkpt>
      <trkpt lat="23.073226" lon="113.271235">
        <time>2026-09-14T21:50:46Z</time>
      </trkpt>
      <trkpt lat="23.073138" lon="113.271182">
        <time>2026-09-14T21:50:51Z</time>
      </trkpt>
      <trkpt lat="23.073002" lon="113.271144">
        <time>2026-09-14T21:50:56Z</time>
      </trkpt>
      <trkpt lat="23.07289" lon="113.271094">
        <time>2026-09-14T21:51:01Z</time>
      </trkpt>
      <trkpt lat="23.072791" lon="113.271017">
        <time>2026-09-14T21:51:06Z</time>
      </trkpt>
      <trkpt lat="23.07268" lon="113.27094">
        <time>2026-09-14T21:51:11Z</time>
      </trkpt>
      <trkpt lat="23.072555" lon="113.270877">
        <time>2026-09-14T21:51:16Z</time>
      </trkpt>
      <trkpt lat="23.072443" lon="113.270837">
        <time>2026-09-14T21:51:21Z</time>
      </trkpt>
      <trkpt lat="23.072319" lon="113.270804">
        <time>2026-09-14T21:51:26Z</time>
      </trkpt>
      <trkpt lat="23.072188" lon="113.270747">
        <time>2026-09-14T21:51:31Z</time>
      </trkpt>
      <trkpt lat="23.072072" lon="113.27069">
        <time>2026-09-14T21:51:36Z</time>
      </trkpt>
      <trkpt lat="23.071963" lon="113.270638">
        <time>2026-09-14T21:51:41Z</time>
      </trkpt>
      <trkpt lat="23.071851" lon="113.270579">
        <time>2026-09-14T21:51:46Z</time>
      </trkpt>
      <trkpt lat="23.071749" lon="113.270503">
        <time>2026-09-14T21:51:51Z</time>
      </trkpt>
      <trkpt lat="23.071649" lon="113.270438">
        <time>2026-09-14T21:51:56Z</time>
      </trkpt>
      <trkpt lat="23.071552" lon="113.270377">
        <time>2026-09-14T21:52:01Z</time>
      </trkpt>
      <trkpt lat="23.071436" lon="113.270337">
        <time>2026-09-14T21:52:06Z</time>
      </trkpt>
      <trkpt lat="23.071316" lon="113.270283">
        <time>2026-09-14T21:52:11Z</time>
      </trkpt>
      <trkpt lat="23.071196" lon="113.270234">
        <time>2026-09-14T21:52:16Z</time>
      </trkpt>
      <trkpt lat="23.071075" lon="113.270183">
        <time>2026-09-14T21:52:21Z</time>
      </trkpt>
      <trkpt lat="23.070962" lon="113.27014">
        <time>2026-09-14T21:52:26Z</time>
      </trkpt>
      <trkpt lat="23.070844" lon="113.270092">
        <time>2026-09-14T21:52:31Z</time>
      </trkpt>
      <trkpt lat="23.070725" lon="113.270052">
        <time>2026-09-14T21:52:36Z</time>
      </trkpt>
      <trkpt lat="23.070615" lon="113.269973">
        <time>2026-09-14T21:52:41Z</time>
      </trkpt>
      <trkpt lat="23.070489" lon="113.269913">
        <time>2026-09-14T21:52:46Z</time>
      </trkpt>
      <trkpt lat="23.070363" lon="113.269863">
        <time>2026-09-14T21:52:51Z</time>
      </trkpt>
      <trkpt lat="23.070248" lon="113.269806">
        <time>2026-09-14T21:52:56Z</time>
      </trkpt>
      <trkpt lat="23.070135" lon="113.269769">
        <time>2026-09-14T21:53:01Z</time>
      </trkpt>
      <trkpt lat="23.070028" lon="113.269724">
        <time>2026-09-14T21:53:06Z</time>
      </trkpt>
      <trkpt lat="23.069921" lon="113.269654">
        <time>2026-09-14T21:53:11Z</time>
      </trkpt>
      <trkpt lat="23.069829" lon="113.269577">
        <time>2026-09-14T21:53:16Z</time>
      </trkpt>
      <trkpt lat="23.069731" lon="113.269521">
        <time>2026-09-14T21:53:21Z</time>
      </trkpt>
      <trkpt lat="23.069613" lon="113.269474">
        <time>2026-09-14T21:53:26Z</time>
      </trkpt>
      <trkpt lat="23.069499" lon="113.269419">
        <time>2026-09-14T21:53:31Z</time>
      </trkpt>
      <trkpt lat="23.069388" lon="113.269351">
        <time>2026-09-14T21:53:36Z</time>
      </trkpt>
      <trkpt lat="23.069283" lon="113.269293">
        <time>2026-09-14T21:53:41Z</time>
      </trkpt>
      <trkpt lat="23.069179" lon="113.269226">
        <time>2026-09-14T21:53:46Z</time>
      </trkpt>
      <trkpt lat="23.069061" lon="113.269183">
        <time>2026-09-14T21:53:51Z</time>
      </trkpt>
      <trkpt lat="23.068944" lon="113.269145">
        <time>2026-09-14T21:53:56Z</time>
      </trkpt>
      <trkpt lat="23.068828" lon="113.269096">
        <time>2026-09-14T21:54:01Z</time>
      </trkpt>
      <trkpt lat="23.068728" lon="113.269054">
        <time>2026-09-14T21:54:06Z</time>
      </trkpt>
      <trkpt lat="23.068617" lon="113.269012">
        <time>2026-09-14T21:54:11Z</time>
      </trkpt>
      <trkpt lat="23.068501" lon="113.268986">
        <time>2026-09-14T21:54:16Z</time>
      </trkpt>
      <trkpt lat="23.068375" lon="113.268964">
        <time>2026-09-14T21:54:21Z</time>
      </trkpt>
      <trkpt lat="23.068268" lon="113.268912">
        <time>2026-09-14T21:54:26Z</time>
      </trkpt>
      <trkpt lat="23.068163" lon="113.268857">
        <time>2026-09-14T21:54:31Z</time>
      </trkpt>
      <trkpt lat="23.068051" lon="113.268772">
        <time>2026-09-14T21:54:36Z</time>
      </trkpt>
      <trkpt lat="23.067923" lon="113.268648">
        <time>2026-09-14T21:54:41Z</time>
      </trkpt>
      <trkpt lat="23.067786" lon="113.268561">
        <time>2026-09-14T21:54:46Z</time>
      </trkpt>
      <trkpt lat="23.06768" lon="113.268481">
        <time>2026-09-14T21:54:51Z</time>
      </trkpt>
      <trkpt lat="23.067618" lon="113.268369">
        <time>2026-09-14T21:54:56Z</time>
      </trkpt>
      <trkpt lat="23.06751" lon="113.268308">
        <time>2026-09-14T21:55:01Z</time>
      </trkpt>
      <trkpt lat="23.06738" lon="113.268264">
        <time>2026-09-14T21:55:06Z</time>
      </trkpt>
      <trkpt lat="23.067255" lon="113.268211">
        <time>2026-09-14T21:55:11Z</time>
      </trkpt>
      <trkpt lat="23.067141" lon="113.268169">
        <time>2026-09-14T21:55:16Z</time>
      </trkpt>
      <trkpt lat="23.067026" lon="113.268118">
        <time>2026-09-14T21:55:21Z</time>
      </trkpt>
      <trkpt lat="23.066899" lon="113.268079">
        <time>2026-09-14T21:55:26Z</time>
      </trkpt>
      <trkpt lat="23.066768" lon="113.268043">
        <time>2026-09-14T21:55:31Z</time>
      </trkpt>
      <trkpt lat="23.066631" lon="113.268033">
        <time>2026-09-14T21:55:36Z</time>
      </trkpt>
      <trkpt lat="23.066499" lon="113.267994">
        <time>2026-09-14T21:55:41Z</time>
      </trkpt>
      <trkpt lat="23.066368" lon="113.267969">
        <time>2026-09-14T21:55:46Z</time>
      </trkpt>
      <trkpt lat="23.066246" lon="113.268015">
        <time>2026-09-14T21:55:51Z</time>
      </trkpt>
      <trkpt lat="23.06614" lon="113.268099">
        <time>2026-09-14T21:55:56Z</time>
      </trkpt>
      <trkpt lat="23.06604" lon="113.268199">
        <time>2026-09-14T21:56:01Z</time>
      </trkpt>
      <trkpt lat="23.065958" lon="113.268312">
        <time>2026-09-14T21:56:06Z</time>
      </trkpt>
      <trkpt lat="23.065879" lon="113.268431">
        <time>2026-09-14T21:56:11Z</time>
      </trkpt>
      <trkpt lat="23.065805" lon="113.268556">
        <time>2026-09-14T21:56:16Z</time>
      </trkpt>
      <trkpt lat="23.065745" lon="113.268687">
        <time>2026-09-14T21:56:21Z</time>
      </trkpt>
      <trkpt lat="23.065688" lon="113.268824">
        <time>2026-09-14T21:56:26Z</time>
      </trkpt>
      <trkpt lat="23.065637" lon="113.268967">
        <time>2026-09-14T21:56:31Z</time>
      </trkpt>
      <trkpt lat="23.065592" lon="113.269115">
        <time>2026-09-14T21:56:36Z</time>
      </trkpt>
      <trkpt lat="23.065553" lon="113.269263">
        <time>2026-09-14T21:56:41Z</time>
      </trkpt>
      <trkpt lat="23.065513" lon="113.269411">
        <time>2026-09-14T21:56:46Z</time>
      </trkpt>
      <trkpt lat="23.06548" lon="113.269554">
        <time>2026-09-14T21:56:51Z</time>
      </trkpt>
      <trkpt lat="23.065446" lon="113.269698">
        <time>2026-09-14T21:56:56Z</time>
      </trkpt>
      <trkpt lat="23.065399" lon="113.269844">
        <time>2026-09-14T21:57:01Z</time>
      </trkpt>
      <trkpt lat="23.065348" lon="113.269987">
        <time>2026-09-14T21:57:06Z</time>
      </trkpt>
      <trkpt lat="23.065297" lon="113.270127">
        <time>2026-09-14T21:57:11Z</time>
      </trkpt>
      <trkpt lat="23.065237" lon="113.27026">
        <time>2026-09-14T21:57:16Z</time>
      </trkpt>
      <trkpt lat="23.065171" lon="113.270392">
        <time>2026-09-14T21:57:21Z</time>
      </trkpt>
      <trkpt lat="23.065108" lon="113.270524">
        <time>2026-09-14T21:57:26Z</time>
      </trkpt>
      <trkpt lat="23.065053" lon="113.270653">
        <time>2026-09-14T21:57:31Z</time>
      </trkpt>
      <trkpt lat="23.065001" lon="113.270787">
        <time>2026-09-14T21:57:36Z</time>
      </trkpt>
      <trkpt lat="23.064944" lon="113.27092">
        <time>2026-09-14T21:57:41Z</time>
      </trkpt>
      <trkpt lat="23.064887" lon="113.271048">
        <time>2026-09-14T21:57:46Z</time>
      </trkpt>
      <trkpt lat="23.064828" lon="113.271176">
        <time>2026-09-14T21:57:51Z</time>
      </trkpt>
      <trkpt lat="23.064769" lon="113.271302">
        <time>2026-09-14T21:57:56Z</time>
      </trkpt>
      <trkpt lat="23.064708" lon="113.271424">
        <time>2026-09-14T21:58:01Z</time>
      </trkpt>
      <trkpt lat="23.064647" lon="113.271547">
        <time>2026-09-14T21:58:06Z</time>
      </trkpt>
      <trkpt lat="23.064588" lon="113.271666">
        <time>2026-09-14T21:58:11Z</time>
      </trkpt>
      <trkpt lat="23.064529" lon="113.271791">
        <time>2026-09-14T21:58:16Z</time>
      </trkpt>
      <trkpt lat="23.064474" lon="113.271918">
        <time>2026-09-14T21:58:21Z</time>
      </trkpt>
      <trkpt lat="23.064423" lon="113.272045">
        <time>2026-09-14T21:58:26Z</time>
      </trkpt>
      <trkpt lat="23.064382" lon="113.27218">
        <time>2026-09-14T21:58:31Z</time>
      </trkpt>
      <trkpt lat="23.064357" lon="113.272318">
        <time>2026-09-14T21:58:36Z</time>
      </trkpt>
      <trkpt lat="23.064332" lon="113.272453">
        <time>2026-09-14T21:58:41Z</time>
      </trkpt>
      <trkpt lat="23.064322" lon="113.27259">
        <time>2026-09-14T21:58:46Z</time>
      </trkpt>
      <trkpt lat="23.064346" lon="113.272722">
        <time>2026-09-14T21:58:51Z</time>
      </trkpt>
      <trkpt lat="23.064392" lon="113.27285">
        <time>2026-09-14T21:58:56Z</time>
      </trkpt>
      <trkpt lat="23.064431" lon="113.272975">
        <time>2026-09-14T21:59:01Z</time>
      </trkpt>
      <trkpt lat="23.064468" lon="113.2731">
        <time>2026-09-14T21:59:06Z</time>
      </trkpt>
      <trkpt lat="23.064469" lon="113.27323">
        <time>2026-09-14T21:59:11Z</time>
      </trkpt>
      <trkpt lat="23.064406" lon="113.273342">
        <time>2026-09-14T21:59:16Z</time>
      </trkpt>
      <trkpt lat="23.064299" lon="113.273422">
        <time>2026-09-14T21:59:21Z</time>
      </trkpt>
      <trkpt lat="23.064185" lon="113.273494">
        <time>2026-09-14T21:59:26Z</time>
      </trkpt>
      <trkpt lat="23.064081" lon="113.273571">
        <time>2026-09-14T21:59:31Z</time>
      </trkpt>
      <trkpt lat="23.063981" lon="113.273659">
        <time>2026-09-14T21:59:36Z</time>
      </trkpt>
      <trkpt lat="23.063896" lon="113.273766">
        <time>2026-09-14T21:59:41Z</time>
      </trkpt>
      <trkpt lat="23.063825" lon="113.27389">
        <time>2026-09-14T21:59:46Z</time>
      </trkpt>
      <trkpt lat="23.063757" lon="113.274015">
        <time>2026-09-14T21:59:51Z</time>
      </trkpt>
      <trkpt lat="23.063667" lon="113.274116">
        <time>2026-09-14T21:59:56Z</time>
      </trkpt>
      <trkpt lat="23.063548" lon="113.274195">
        <time>2026-09-14T22:00:01Z</time>
      </trkpt>
      <trkpt lat="23.063483" lon="113.27432">
        <time>2026-09-14T22:00:06Z</time>
      </trkpt>
      <trkpt lat="23.063433" lon="113.274469">
        <time>2026-09-14T22:00:11Z</time>
      </trkpt>
      <trkpt lat="23.063384" lon="113.27462">
        <time>2026-09-14T22:00:16Z</time>
      </trkpt>
      <trkpt lat="23.063335" lon="113.274766">
        <time>2026-09-14T22:00:21Z</time>
      </trkpt>
      <trkpt lat="23.063287" lon="113.274914">
        <time>2026-09-14T22:00:26Z</time>
      </trkpt>
      <trkpt lat="23.063228" lon="113.275059">
        <time>2026-09-14T22:00:31Z</time>
      </trkpt>
      <trkpt lat="23.063163" lon="113.275187">
        <time>2026-09-14T22:00:36Z</time>
      </trkpt>
      <trkpt lat="23.063097" lon="113.275308">
        <time>2026-09-14T22:00:41Z</time>
      </trkpt>
      <trkpt lat="23.063021" lon="113.275428">
        <time>2026-09-14T22:00:46Z</time>
      </trkpt>
      <trkpt lat="23.062935" lon="113.275545">
        <time>2026-09-14T22:00:51Z</time>
      </trkpt>
      <trkpt lat="23.062842" lon="113.275651">
        <time>2026-09-14T22:00:56Z</time>
      </trkpt>
      <trkpt lat="23.062745" lon="113.275743">
        <time>2026-09-14T22:01:01Z</time>
      </trkpt>
      <trkpt lat="23.06265" lon="113.275842">
        <time>2026-09-14T22:01:06Z</time>
      </trkpt>
      <trkpt lat="23.062565" lon="113.275951">
        <time>2026-09-14T22:01:11Z</time>
      </trkpt>
      <trkpt lat="23.062489" lon="113.276071">
        <time>2026-09-14T22:01:16Z</time>
      </trkpt>
      <trkpt lat="23.062425" lon="113.276199">
        <time>2026-09-14T22:01:21Z</time>
      </trkpt>
      <trkpt lat="23.062372" lon="113.276332">
        <time>2026-09-14T22:01:26Z</time>
      </trkpt>
      <trkpt lat="23.062326" lon="113.276468">
        <time>2026-09-14T22:01:31Z</time>
      </trkpt>
      <trkpt lat="23.062279" lon="113.276604">
        <time>2026-09-14T22:01:36Z</time>
      </trkpt>
      <trkpt lat="23.062234" lon="113.276736">
        <time>2026-09-14T22:01:41Z</time>
      </trkpt>
      <trkpt lat="23.062187" lon="113.276868">
        <time>2026-09-14T22:01:46Z</time>
      </trkpt>
      <trkpt lat="23.062135" lon="113.277">
        <time>2026-09-14T22:01:51Z</time>
      </trkpt>
      <trkpt lat="23.062088" lon="113.277135">
        <time>2026-09-14T22:01:56Z</time>
      </trkpt>
      <trkpt lat="23.062031" lon="113.27728">
        <time>2026-09-14T22:02:01Z</time>
      </trkpt>
      <trkpt lat="23.061976" lon="113.277419">
        <time>2026-09-14T22:02:06Z</time>
      </trkpt>
      <trkpt lat="23.061925" lon="113.277557">
        <time>2026-09-14T22:02:11Z</time>
      </trkpt>
      <trkpt lat="23.061874" lon="113.277699">
        <time>2026-09-14T22:02:16Z</time>
      </trkpt>
      <trkpt lat="23.061841" lon="113.277843">
        <time>2026-09-14T22:02:21Z</time>
      </trkpt>
      <trkpt lat="23.061834" lon="113.277988">
        <time>2026-09-14T22:02:26Z</time>
      </trkpt>
      <trkpt lat="23.06184" lon="113.278128">
        <time>2026-09-14T22:02:31Z</time>
      </trkpt>
      <trkpt lat="23.061849" lon="113.27827">
        <time>2026-09-14T22:02:36Z</time>
      </trkpt>
      <trkpt lat="23.061857" lon="113.278413">
        <time>2026-09-14T22:02:41Z</time>
      </trkpt>
      <trkpt lat="23.061867" lon="113.278553">
        <time>2026-09-14T22:02:46Z</time>
      </trkpt>
      <trkpt lat="23.061862" lon="113.27869">
        <time>2026-09-14T22:02:51Z</time>
      </trkpt>
      <trkpt lat="23.061815" lon="113.278824">
        <time>2026-09-14T22:02:56Z</time>
      </trkpt>
      <trkpt lat="23.061748" lon="113.278953">
        <time>2026-09-14T22:03:01Z</time>
      </trkpt>
      <trkpt lat="23.061678" lon="113.279075">
        <time>2026-09-14T22:03:06Z</time>
      </trkpt>
      <trkpt lat="23.061616" lon="113.279201">
        <time>2026-09-14T22:03:11Z</time>
      </trkpt>
      <trkpt lat="23.061558" lon="113.279328">
        <time>2026-09-14T22:03:16Z</time>
      </trkpt>
      <trkpt lat="23.061506" lon="113.279461">
        <time>2026-09-14T22:03:21Z</time>
      </trkpt>
      <trkpt lat="23.061446" lon="113.279599">
        <time>2026-09-14T22:03:26Z</time>
      </trkpt>
      <trkpt lat="23.061389" lon="113.27974">
        <time>2026-09-14T22:03:31Z</time>
      </trkpt>
      <trkpt lat="23.061334" lon="113.279879">
        <time>2026-09-14T22:03:36Z</time>
      </trkpt>
      <trkpt lat="23.061282" lon="113.280016">
        <time>2026-09-14T22:03:41Z</time>
      </trkpt>
      <trkpt lat="23.061228" lon="113.28015">
        <time>2026-09-14T22:03:46Z</time>
      </trkpt>
      <trkpt lat="23.061174" lon="113.280289">
        <time>2026-09-14T22:03:51Z</time>
      </trkpt>
      <trkpt lat="23.061111" lon="113.280433">
        <time>2026-09-14T22:03:56Z</time>
      </trkpt>
      <trkpt lat="23.061044" lon="113.280574">
        <time>2026-09-14T22:04:01Z</time>
      </trkpt>
      <trkpt lat="23.060976" lon="113.280708">
        <time>2026-09-14T22:04:06Z</time>
      </trkpt>
      <trkpt lat="23.060915" lon="113.28084">
        <time>2026-09-14T22:04:11Z</time>
      </trkpt>
      <trkpt lat="23.060854" lon="113.280969">
        <time>2026-09-14T22:04:16Z</time>
      </trkpt>
      <trkpt lat="23.060793" lon="113.281103">
        <time>2026-09-14T22:04:21Z</time>
      </trkpt>
      <trkpt lat="23.060733" lon="113.28124">
        <time>2026-09-14T22:04:26Z</time>
      </trkpt>
      <trkpt lat="23.060677" lon="113.281373">
        <time>2026-09-14T22:04:31Z</time>
      </trkpt>
      <trkpt lat="23.060623" lon="113.281507">
        <time>2026-09-14T22:04:36Z</time>
      </trkpt>
      <trkpt lat="23.06057" lon="113.281639">
        <time>2026-09-14T22:04:41Z</time>
      </trkpt>
      <trkpt lat="23.060522" lon="113.281771">
        <time>2026-09-14T22:04:46Z</time>
      </trkpt>
      <trkpt lat="23.06047" lon="113.281907">
        <time>2026-09-14T22:04:51Z</time>
      </trkpt>
      <trkpt lat="23.06041" lon="113.282045">
        <time>2026-09-14T22:04:56Z</time>
      </trkpt>
      <trkpt lat="23.060347" lon="113.282188">
        <time>2026-09-14T22:05:01Z</time>
      </trkpt>
      <trkpt lat="23.060278" lon="113.282327">
        <time>2026-09-14T22:05:06Z</time>
      </trkpt>
      <trkpt lat="23.060219" lon="113.282464">
        <time>2026-09-14T22:05:11Z</time>
      </trkpt>
      <trkpt lat="23.060165" lon="113.282604">
        <time>2026-09-14T22:05:16Z</time>
      </trkpt>
      <trkpt lat="23.060108" lon="113.282745">
        <time>2026-09-14T22:05:21Z</time>
      </trkpt>
      <trkpt lat="23.060053" lon="113.282878">
        <time>2026-09-14T22:05:26Z</time>
      </trkpt>
      <trkpt lat="23.059999" lon="113.283007">
        <time>2026-09-14T22:05:31Z</time>
      </trkpt>
      <trkpt lat="23.059937" lon="113.283139">
        <time>2026-09-14T22:05:36Z</time>
      </trkpt>
      <trkpt lat="23.059875" lon="113.283274">
        <time>2026-09-14T22:05:41Z</time>
      </trkpt>
      <trkpt lat="23.059809" lon="113.283424">
        <time>2026-09-14T22:05:46Z</time>
      </trkpt>
      <trkpt lat="23.059752" lon="113.283572">
        <time>2026-09-14T22:05:51Z</time>
      </trkpt>
      <trkpt lat="23.059695" lon="113.283717">
        <time>2026-09-14T22:05:56Z</time>
      </trkpt>
      <trkpt lat="23.05963" lon="113.283862">
        <time>2026-09-14T22:06:01Z</time>
      </trkpt>
      <trkpt lat="23.059565" lon="113.284002">
        <time>2026-09-14T22:06:06Z</time>
      </trkpt>
      <trkpt lat="23.059502" lon="113.284136">
        <time>2026-09-14T22:06:11Z</time>
      </trkpt>
      <trkpt lat="23.059442" lon="113.284273">
        <time>2026-09-14T22:06:16Z</time>
      </trkpt>
      <trkpt lat="23.05937" lon="113.284408">
        <time>2026-09-14T22:06:21Z</time>
      </trkpt>
      <trkpt lat="23.059308" lon="113.284547">
        <time>2026-09-14T22:06:26Z</time>
      </trkpt>
      <trkpt lat="23.059258" lon="113.28469">
        <time>2026-09-14T22:06:31Z</time>
      </trkpt>
      <trkpt lat="23.059204" lon="113.284837">
        <time>2026-09-14T22:06:36Z</time>
      </trkpt>
      <trkpt lat="23.059143" lon="113.284974">
        <time>2026-09-14T22:06:41Z</time>
      </trkpt>
      <trkpt lat="23.059087" lon="113.285106">
        <time>2026-09-14T22:06:46Z</time>
      </trkpt>
      <trkpt lat="23.059029" lon="113.28524">
        <time>2026-09-14T22:06:51Z</time>
      </trkpt>
      <trkpt lat="23.05896" lon="113.285388">
        <time>2026-09-14T22:06:56Z</time>
      </trkpt>
      <trkpt lat="23.058894" lon="113.285529">
        <time>2026-09-14T22:07:01Z</time>
      </trkpt>
      <trkpt lat="23.058834" lon="113.285664">
        <time>2026-09-14T22:07:06Z</time>
      </trkpt>
      <trkpt lat="23.058775" lon="113.285802">
        <time>2026-09-14T22:07:11Z</time>
      </trkpt>
      <trkpt lat="23.058719" lon="113.285939">
        <time>2026-09-14T22:07:16Z</time>
      </trkpt>
      <trkpt lat="23.058661" lon="113.286078">
        <time>2026-09-14T22:07:21Z</time>
      </trkpt>
      <trkpt lat="23.058608" lon="113.286216">
        <time>2026-09-14T22:07:26Z</time>
      </trkpt>
      <trkpt lat="23.058674" lon="113.286328">
        <time>2026-09-14T22:07:31Z</time>
      </trkpt>
      <trkpt lat="23.05881" lon="113.286364">
        <time>2026-09-14T22:07:36Z</time>
      </trkpt>
      <trkpt lat="23.058952" lon="113.28637">
        <time>2026-09-14T22:07:41Z</time>
      </trkpt>
      <trkpt lat="23.059092" lon="113.28639">
        <time>2026-09-14T22:07:46Z</time>
      </trkpt>
      <trkpt lat="23.05923" lon="113.286414">
        <time>2026-09-14T22:07:51Z</time>
      </trkpt>
      <trkpt lat="23.059363" lon="113.286426">
        <time>2026-09-14T22:07:56Z</time>
      </trkpt>
      <trkpt lat="23.059489" lon="113.286435">
        <time>2026-09-14T22:08:01Z</time>
      </trkpt>
      <trkpt lat="23.059611" lon="113.286445">
        <time>2026-09-14T22:08:06Z</time>
      </trkpt>
      <trkpt lat="23.059738" lon="113.286453">
        <time>2026-09-14T22:08:11Z</time>
      </trkpt>
      <trkpt lat="23.05986" lon="113.286461">
        <time>2026-09-14T22:08:16Z</time>
      </trkpt>
      <trkpt lat="23.05999" lon="113.286475">
        <time>2026-09-14T22:08:21Z</time>
      </trkpt>
      <trkpt lat="23.060096" lon="113.286546">
        <time>2026-09-14T22:08:26Z</time>
      </trkpt>
      <trkpt lat="23.060122" lon="113.286724">
        <time>2026-09-14T22:08:31Z</time>
      </trkpt>
      <trkpt lat="23.060125" lon="113.2869">
        <time>2026-09-14T22:08:36Z</time>
      </trkpt>
      <trkpt lat="23.060144" lon="113.287046">
        <time>2026-09-14T22:08:41Z</time>
      </trkpt>
      <trkpt lat="23.060165" lon="113.287186">
        <time>2026-09-14T22:08:46Z</time>
      </trkpt>
      <trkpt lat="23.060181" lon="113.287334">
        <time>2026-09-14T22:08:51Z</time>
      </trkpt>
      <trkpt lat="23.060185" lon="113.287488">
        <time>2026-09-14T22:08:56Z</time>
      </trkpt>
      <trkpt lat="23.060157" lon="113.287632">
        <time>2026-09-14T22:09:01Z</time>
      </trkpt>
      <trkpt lat="23.06015" lon="113.287765">
        <time>2026-09-14T22:09:06Z</time>
      </trkpt>
      <trkpt lat="23.06018" lon="113.287888">
        <time>2026-09-14T22:09:11Z</time>
      </trkpt>
      <trkpt lat="23.060276" lon="113.287901">
        <time>2026-09-14T22:09:16Z</time>
      </trkpt>
      <trkpt lat="23.060286" lon="113.287803">
        <time>2026-09-14T22:09:21Z</time>
      </trkpt>
      <trkpt lat="23.060271" lon="113.287685">
        <time>2026-09-14T22:09:26Z</time>
      </trkpt>
      <trkpt lat="23.060218" lon="113.287546">
        <time>2026-09-14T22:09:31Z</time>
      </trkpt>
      <trkpt lat="23.060158" lon="113.287391">
        <time>2026-09-14T22:09:36Z</time>
      </trkpt>
      <trkpt lat="23.060115" lon="113.287224">
        <time>2026-09-14T22:09:41Z</time>
      </trkpt>
      <trkpt lat="23.060089" lon="113.287072">
        <time>2026-09-14T22:09:46Z</time>
      </trkpt>
      <trkpt lat="23.060114" lon="113.286895">
        <time>2026-09-14T22:09:51Z</time>
      </trkpt>
      <trkpt lat="23.060204" lon="113.286689">
        <time>2026-09-14T22:09:56Z</time>
      </trkpt>
      <trkpt lat="23.060206" lon="113.286537">
        <time>2026-09-14T22:10:01Z</time>
      </trkpt>
      <trkpt lat="23.060143" lon="113.286422">
        <time>2026-09-14T22:10:06Z</time>
      </trkpt>
      <trkpt lat="23.060002" lon="113.286371">
        <time>2026-09-14T22:10:11Z</time>
      </trkpt>
      <trkpt lat="23.059863" lon="113.286322">
        <time>2026-09-14T22:10:16Z</time>
      </trkpt>
      <trkpt lat="23.05973" lon="113.286261">
        <time>2026-09-14T22:10:21Z</time>
      </trkpt>
      <trkpt lat="23.059596" lon="113.286209">
        <time>2026-09-14T22:10:26Z</time>
      </trkpt>
      <trkpt lat="23.059454" lon="113.286203">
        <time>2026-09-14T22:10:31Z</time>
      </trkpt>
      <trkpt lat="23.059315" lon="113.28621">
        <time>2026-09-14T22:10:36Z</time>
      </trkpt>
      <trkpt lat="23.059179" lon="113.286212">
        <time>2026-09-14T22:10:41Z</time>
      </trkpt>
      <trkpt lat="23.059042" lon="113.28622">
        <time>2026-09-14T22:10:46Z</time>
      </trkpt>
      <trkpt lat="23.058911" lon="113.286224">
        <time>2026-09-14T22:10:51Z</time>
      </trkpt>
      <trkpt lat="23.058773" lon="113.286196">
        <time>2026-09-14T22:10:56Z</time>
      </trkpt>
      <trkpt lat="23.058724" lon="113.286093">
        <time>2026-09-14T22:11:01Z</time>
      </trkpt>
      <trkpt lat="23.058794" lon="113.285962">
        <time>2026-09-14T22:11:06Z</time>
      </trkpt>
      <trkpt lat="23.058861" lon="113.285838">
        <time>2026-09-14T22:11:11Z</time>
      </trkpt>
      <trkpt lat="23.058921" lon="113.285713">
        <time>2026-09-14T22:11:16Z</time>
      </trkpt>
      <trkpt lat="23.058977" lon="113.285587">
        <time>2026-09-14T22:11:21Z</time>
      </trkpt>
      <trkpt lat="23.059031" lon="113.285457">
        <time>2026-09-14T22:11:26Z</time>
      </trkpt>
      <trkpt lat="23.059085" lon="113.285326">
        <time>2026-09-14T22:11:31Z</time>
      </trkpt>
      <trkpt lat="23.059141" lon="113.285199">
        <time>2026-09-14T22:11:36Z</time>
      </trkpt>
      <trkpt lat="23.059194" lon="113.285067">
        <time>2026-09-14T22:11:41Z</time>
      </trkpt>
      <trkpt lat="23.059254" lon="113.284933">
        <time>2026-09-14T22:11:46Z</time>
      </trkpt>
      <trkpt lat="23.059317" lon="113.284799">
        <time>2026-09-14T22:11:51Z</time>
      </trkpt>
      <trkpt lat="23.059375" lon="113.284666">
        <time>2026-09-14T22:11:56Z</time>
      </trkpt>
      <trkpt lat="23.059438" lon="113.28454">
        <time>2026-09-14T22:12:01Z</time>
      </trkpt>
      <trkpt lat="23.0595" lon="113.284407">
        <time>2026-09-14T22:12:06Z</time>
      </trkpt>
      <trkpt lat="23.059559" lon="113.284282">
        <time>2026-09-14T22:12:11Z</time>
      </trkpt>
      <trkpt lat="23.059621" lon="113.284158">
        <time>2026-09-14T22:12:16Z</time>
      </trkpt>
      <trkpt lat="23.059677" lon="113.284033">
        <time>2026-09-14T22:12:21Z</time>
      </trkpt>
      <trkpt lat="23.059734" lon="113.283912">
        <time>2026-09-14T22:12:26Z</time>
      </trkpt>
      <trkpt lat="23.059782" lon="113.283783">
        <time>2026-09-14T22:12:31Z</time>
      </trkpt>
      <trkpt lat="23.059828" lon="113.283652">
        <time>2026-09-14T22:12:36Z</time>
      </trkpt>
      <trkpt lat="23.059904" lon="113.283524">
        <time>2026-09-14T22:12:41Z</time>
      </trkpt>
      <trkpt lat="23.059963" lon="113.28339">
        <time>2026-09-14T22:12:46Z</time>
      </trkpt>
      <trkpt lat="23.060025" lon="113.283266">
        <time>2026-09-14T22:12:51Z</time>
      </trkpt>
      <trkpt lat="23.060091" lon="113.283139">
        <time>2026-09-14T22:12:56Z</time>
      </trkpt>
      <trkpt lat="23.060158" lon="113.283013">
        <time>2026-09-14T22:13:01Z</time>
      </trkpt>
      <trkpt lat="23.060225" lon="113.282899">
        <time>2026-09-14T22:13:06Z</time>
      </trkpt>
      <trkpt lat="23.060292" lon="113.282781">
        <time>2026-09-14T22:13:11Z</time>
      </trkpt>
      <trkpt lat="23.060353" lon="113.28265">
        <time>2026-09-14T22:13:16Z</time>
      </trkpt>
      <trkpt lat="23.060402" lon="113.282507">
        <time>2026-09-14T22:13:21Z</time>
      </trkpt>
      <trkpt lat="23.060443" lon="113.282369">
        <time>2026-09-14T22:13:26Z</time>
      </trkpt>
      <trkpt lat="23.060485" lon="113.282243">
        <time>2026-09-14T22:13:31Z</time>
      </trkpt>
      <trkpt lat="23.060526" lon="113.282125">
        <time>2026-09-14T22:13:36Z</time>
      </trkpt>
      <trkpt lat="23.060576" lon="113.282004">
        <time>2026-09-14T22:13:41Z</time>
      </trkpt>
      <trkpt lat="23.060636" lon="113.281886">
        <time>2026-09-14T22:13:46Z</time>
      </trkpt>
      <trkpt lat="23.060687" lon="113.281762">
        <time>2026-09-14T22:13:51Z</time>
      </trkpt>
      <trkpt lat="23.060732" lon="113.281635">
        <time>2026-09-14T22:13:56Z</time>
      </trkpt>
      <trkpt lat="23.060781" lon="113.281501">
        <time>2026-09-14T22:14:01Z</time>
      </trkpt>
      <trkpt lat="23.06083" lon="113.281362">
        <time>2026-09-14T22:14:06Z</time>
      </trkpt>
      <trkpt lat="23.060881" lon="113.281224">
        <time>2026-09-14T22:14:11Z</time>
      </trkpt>
      <trkpt lat="23.060933" lon="113.281092">
        <time>2026-09-14T22:14:16Z</time>
      </trkpt>
      <trkpt lat="23.060985" lon="113.280964">
        <time>2026-09-14T22:14:21Z</time>
      </trkpt>
      <trkpt lat="23.061038" lon="113.280842">
        <time>2026-09-14T22:14:26Z</time>
      </trkpt>
      <trkpt lat="23.061098" lon="113.28071">
        <time>2026-09-14T22:14:31Z</time>
      </trkpt>
      <trkpt lat="23.061157" lon="113.280569">
        <time>2026-09-14T22:14:36Z</time>
      </trkpt>
      <trkpt lat="23.061217" lon="113.280436">
        <time>2026-09-14T22:14:41Z</time>
      </trkpt>
      <trkpt lat="23.061279" lon="113.280317">
        <time>2026-09-14T22:14:46Z</time>
      </trkpt>
      <trkpt lat="23.061336" lon="113.2802">
        <time>2026-09-14T22:14:51Z</time>
      </trkpt>
      <trkpt lat="23.061393" lon="113.280087">
        <time>2026-09-14T22:14:56Z</time>
      </trkpt>
      <trkpt lat="23.061448" lon="113.279972">
        <time>2026-09-14T22:15:01Z</time>
      </trkpt>
      <trkpt lat="23.061508" lon="113.279855">
        <time>2026-09-14T22:15:06Z</time>
      </trkpt>
      <trkpt lat="23.061556" lon="113.279729">
        <time>2026-09-14T22:15:11Z</time>
      </trkpt>
      <trkpt lat="23.061603" lon="113.2796">
        <time>2026-09-14T22:15:16Z</time>
      </trkpt>
      <trkpt lat="23.061641" lon="113.279468">
        <time>2026-09-14T22:15:21Z</time>
      </trkpt>
      <trkpt lat="23.061695" lon="113.279335">
        <time>2026-09-14T22:15:26Z</time>
      </trkpt>
      <trkpt lat="23.061751" lon="113.279205">
        <time>2026-09-14T22:15:31Z</time>
      </trkpt>
      <trkpt lat="23.061809" lon="113.279084">
        <time>2026-09-14T22:15:36Z</time>
      </trkpt>
      <trkpt lat="23.061873" lon="113.278975">
        <time>2026-09-14T22:15:41Z</time>
      </trkpt>
      <trkpt lat="23.061931" lon="113.278861">
        <time>2026-09-14T22:15:46Z</time>
      </trkpt>
      <trkpt lat="23.061963" lon="113.278723">
        <time>2026-09-14T22:15:51Z</time>
      </trkpt>
      <trkpt lat="23.061961" lon="113.278576">
        <time>2026-09-14T22:15:56Z</time>
      </trkpt>
      <trkpt lat="23.061945" lon="113.278432">
        <time>2026-09-14T22:16:01Z</time>
      </trkpt>
      <trkpt lat="23.061941" lon="113.27829">
        <time>2026-09-14T22:16:06Z</time>
      </trkpt>
      <trkpt lat="23.061938" lon="113.278146">
        <time>2026-09-14T22:16:11Z</time>
      </trkpt>
      <trkpt lat="23.061935" lon="113.278">
        <time>2026-09-14T22:16:16Z</time>
      </trkpt>
      <trkpt lat="23.061931" lon="113.27786">
        <time>2026-09-14T22:16:21Z</time>
      </trkpt>
      <trkpt lat="23.061953" lon="113.277724">
        <time>2026-09-14T22:16:26Z</time>
      </trkpt>
      <trkpt lat="23.061999" lon="113.277581">
        <time>2026-09-14T22:16:31Z</time>
      </trkpt>
      <trkpt lat="23.062058" lon="113.277443">
        <time>2026-09-14T22:16:36Z</time>
      </trkpt>
      <trkpt lat="23.062109" lon="113.277309">
        <time>2026-09-14T22:16:41Z</time>
      </trkpt>
      <trkpt lat="23.062158" lon="113.27717">
        <time>2026-09-14T22:16:46Z</time>
      </trkpt>
      <trkpt lat="23.062205" lon="113.277036">
        <time>2026-09-14T22:16:51Z</time>
      </trkpt>
      <trkpt lat="23.062252" lon="113.276902">
        <time>2026-09-14T22:16:56Z</time>
      </trkpt>
      <trkpt lat="23.062297" lon="113.276773">
        <time>2026-09-14T22:17:01Z</time>
      </trkpt>
      <trkpt lat="23.062351" lon="113.276639">
        <time>2026-09-14T22:17:06Z</time>
      </trkpt>
      <trkpt lat="23.062407" lon="113.276504">
        <time>2026-09-14T22:17:11Z</time>
      </trkpt>
      <trkpt lat="23.062458" lon="113.276372">
        <time>2026-09-14T22:17:16Z</time>
      </trkpt>
      <trkpt lat="23.062521" lon="113.276242">
        <time>2026-09-14T22:17:21Z</time>
      </trkpt>
      <trkpt lat="23.062585" lon="113.276115">
        <time>2026-09-14T22:17:26Z</time>
      </trkpt>
      <trkpt lat="23.062651" lon="113.275998">
        <time>2026-09-14T22:17:31Z</time>
      </trkpt>
      <trkpt lat="23.062731" lon="113.275891">
        <time>2026-09-14T22:17:36Z</time>
      </trkpt>
      <trkpt lat="23.062817" lon="113.275793">
        <time>2026-09-14T22:17:41Z</time>
      </trkpt>
      <trkpt lat="23.062914" lon="113.275702">
        <time>2026-09-14T22:17:46Z</time>
      </trkpt>
      <trkpt lat="23.063009" lon="113.275596">
        <time>2026-09-14T22:17:51Z</time>
      </trkpt>
      <trkpt lat="23.06309" lon="113.275474">
        <time>2026-09-14T22:17:56Z</time>
      </trkpt>
      <trkpt lat="23.063162" lon="113.27535">
        <time>2026-09-14T22:18:01Z</time>
      </trkpt>
      <trkpt lat="23.063231" lon="113.275225">
        <time>2026-09-14T22:18:06Z</time>
      </trkpt>
      <trkpt lat="23.063312" lon="113.2751">
        <time>2026-09-14T22:18:11Z</time>
      </trkpt>
      <trkpt lat="23.063378" lon="113.274967">
        <time>2026-09-14T22:18:16Z</time>
      </trkpt>
      <trkpt lat="23.063411" lon="113.274834">
        <time>2026-09-14T22:18:21Z</time>
      </trkpt>
      <trkpt lat="23.063452" lon="113.274709">
        <time>2026-09-14T22:18:26Z</time>
      </trkpt>
      <trkpt lat="23.063497" lon="113.274579">
        <time>2026-09-14T22:18:31Z</time>
      </trkpt>
      <trkpt lat="23.063555" lon="113.274433">
        <time>2026-09-14T22:18:36Z</time>
      </trkpt>
      <trkpt lat="23.063635" lon="113.274298">
        <time>2026-09-14T22:18:41Z</time>
      </trkpt>
      <trkpt lat="23.063737" lon="113.274196">
        <time>2026-09-14T22:18:46Z</time>
      </trkpt>
      <trkpt lat="23.06384" lon="113.274087">
        <time>2026-09-14T22:18:51Z</time>
      </trkpt>
      <trkpt lat="23.063912" lon="113.273948">
        <time>2026-09-14T22:18:56Z</time>
      </trkpt>
      <trkpt lat="23.063987" lon="113.27381">
        <time>2026-09-14T22:19:01Z</time>
      </trkpt>
      <trkpt lat="23.064083" lon="113.27369">
        <time>2026-09-14T22:19:06Z</time>
      </trkpt>
      <trkpt lat="23.064195" lon="113.273604">
        <time>2026-09-14T22:19:11Z</time>
      </trkpt>
      <trkpt lat="23.064306" lon="113.27352">
        <time>2026-09-14T22:19:16Z</time>
      </trkpt>
      <trkpt lat="23.064411" lon="113.273437">
        <time>2026-09-14T22:19:21Z</time>
      </trkpt>
      <trkpt lat="23.064507" lon="113.27334">
        <time>2026-09-14T22:19:26Z</time>
      </trkpt>
      <trkpt lat="23.064577" lon="113.273212">
        <time>2026-09-14T22:19:31Z</time>
      </trkpt>
      <trkpt lat="23.06458" lon="113.273055">
        <time>2026-09-14T22:19:36Z</time>
      </trkpt>
      <trkpt lat="23.064521" lon="113.272902">
        <time>2026-09-14T22:19:41Z</time>
      </trkpt>
      <trkpt lat="23.064457" lon="113.272755">
        <time>2026-09-14T22:19:46Z</time>
      </trkpt>
      <trkpt lat="23.064418" lon="113.27262">
        <time>2026-09-14T22:19:51Z</time>
      </trkpt>
      <trkpt lat="23.06445" lon="113.272485">
        <time>2026-09-14T22:19:56Z</time>
      </trkpt>
      <trkpt lat="23.064526" lon="113.272349">
        <time>2026-09-14T22:20:01Z</time>
      </trkpt>
      <trkpt lat="23.064569" lon="113.272208">
        <time>2026-09-14T22:20:06Z</time>
      </trkpt>
      <trkpt lat="23.064629" lon="113.272074">
        <time>2026-09-14T22:20:11Z</time>
      </trkpt>
      <trkpt lat="23.064698" lon="113.271945">
        <time>2026-09-14T22:20:16Z</time>
      </trkpt>
      <trkpt lat="23.064766" lon="113.271822">
        <time>2026-09-14T22:20:21Z</time>
      </trkpt>
      <trkpt lat="23.064827" lon="113.2717">
        <time>2026-09-14T22:20:26Z</time>
      </trkpt>
      <trkpt lat="23.064884" lon="113.271568">
        <time>2026-09-14T22:20:31Z</time>
      </trkpt>
      <trkpt lat="23.064945" lon="113.271438">
        <time>2026-09-14T22:20:36Z</time>
      </trkpt>
      <trkpt lat="23.065008" lon="113.271311">
        <time>2026-09-14T22:20:41Z</time>
      </trkpt>
      <trkpt lat="23.065068" lon="113.271184">
        <time>2026-09-14T22:20:46Z</time>
      </trkpt>
      <trkpt lat="23.065138" lon="113.271055">
        <time>2026-09-14T22:20:51Z</time>
      </trkpt>
      <trkpt lat="23.065196" lon="113.270923">
        <time>2026-09-14T22:20:56Z</time>
      </trkpt>
      <trkpt lat="23.065249" lon="113.270792">
        <time>2026-09-14T22:21:01Z</time>
      </trkpt>
      <trkpt lat="23.065304" lon="113.270656">
        <time>2026-09-14T22:21:06Z</time>
      </trkpt>
      <trkpt lat="23.06536" lon="113.270519">
        <time>2026-09-14T22:21:11Z</time>
      </trkpt>
      <trkpt lat="23.06542" lon="113.270388">
        <time>2026-09-14T22:21:16Z</time>
      </trkpt>
      <trkpt lat="23.065479" lon="113.270255">
        <time>2026-09-14T22:21:21Z</time>
      </trkpt>
      <trkpt lat="23.065535" lon="113.270121">
        <time>2026-09-14T22:21:26Z</time>
      </trkpt>
      <trkpt lat="23.065583" lon="113.269992">
        <time>2026-09-14T22:21:31Z</time>
      </trkpt>
      <trkpt lat="23.065631" lon="113.269864">
        <time>2026-09-14T22:21:36Z</time>
      </trkpt>
      <trkpt lat="23.065667" lon="113.269721">
        <time>2026-09-14T22:21:41Z</time>
      </trkpt>
      <trkpt lat="23.065706" lon="113.269567">
        <time>2026-09-14T22:21:46Z</time>
      </trkpt>
      <trkpt lat="23.065746" lon="113.269421">
        <time>2026-09-14T22:21:51Z</time>
      </trkpt>
      <trkpt lat="23.065783" lon="113.269277">
        <time>2026-09-14T22:21:56Z</time>
      </trkpt>
      <trkpt lat="23.065829" lon="113.269135">
        <time>2026-09-14T22:22:01Z</time>
      </trkpt>
      <trkpt lat="23.065886" lon="113.268996">
        <time>2026-09-14T22:22:06Z</time>
      </trkpt>
      <trkpt lat="23.065956" lon="113.26886">
        <time>2026-09-14T22:22:11Z</time>
      </trkpt>
      <trkpt lat="23.066026" lon="113.268726">
        <time>2026-09-14T22:22:16Z</time>
      </trkpt>
      <trkpt lat="23.066095" lon="113.268593">
        <time>2026-09-14T22:22:21Z</time>
      </trkpt>
      <trkpt lat="23.066161" lon="113.268461">
        <time>2026-09-14T22:22:26Z</time>
      </trkpt>
      <trkpt lat="23.066235" lon="113.268344">
        <time>2026-09-14T22:22:31Z</time>
      </trkpt>
      <trkpt lat="23.066326" lon="113.268237">
        <time>2026-09-14T22:22:36Z</time>
      </trkpt>
      <trkpt lat="23.066433" lon="113.268152">
        <time>2026-09-14T22:22:41Z</time>
      </trkpt>
      <trkpt lat="23.066559" lon="113.268133">
        <time>2026-09-14T22:22:46Z</time>
      </trkpt>
      <trkpt lat="23.066678" lon="113.268126">
        <time>2026-09-14T22:22:51Z</time>
      </trkpt>
      <trkpt lat="23.066647" lon="113.268022">
        <time>2026-09-14T22:22:56Z</time>
      </trkpt>
      <trkpt lat="23.06649" lon="113.267972">
        <time>2026-09-14T22:23:01Z</time>
      </trkpt>
      <trkpt lat="23.066345" lon="113.267969">
        <time>2026-09-14T22:23:06Z</time>
      </trkpt>
      <trkpt lat="23.066226" lon="113.268018">
        <time>2026-09-14T22:23:11Z</time>
      </trkpt>
      <trkpt lat="23.066126" lon="113.268116">
        <time>2026-09-14T22:23:16Z</time>
      </trkpt>
      <trkpt lat="23.066033" lon="113.268223">
        <time>2026-09-14T22:23:21Z</time>
      </trkpt>
      <trkpt lat="23.065946" lon="113.268333">
        <time>2026-09-14T22:23:26Z</time>
      </trkpt>
      <trkpt lat="23.065866" lon="113.26845">
        <time>2026-09-14T22:23:31Z</time>
      </trkpt>
      <trkpt lat="23.065798" lon="113.268572">
        <time>2026-09-14T22:23:36Z</time>
      </trkpt>
      <trkpt lat="23.065739" lon="113.268698">
        <time>2026-09-14T22:23:41Z</time>
      </trkpt>
      <trkpt lat="23.065681" lon="113.268826">
        <time>2026-09-14T22:23:46Z</time>
      </trkpt>
      <trkpt lat="23.065629" lon="113.268954">
        <time>2026-09-14T22:23:51Z</time>
      </trkpt>
      <trkpt lat="23.065587" lon="113.269089">
        <time>2026-09-14T22:23:56Z</time>
      </trkpt>
      <trkpt lat="23.065559" lon="113.269225">
        <time>2026-09-14T22:24:01Z</time>
      </trkpt>
      <trkpt lat="23.065522" lon="113.269359">
        <time>2026-09-14T22:24:06Z</time>
      </trkpt>
      <trkpt lat="23.06549" lon="113.269503">
        <time>2026-09-14T22:24:11Z</time>
      </trkpt>
      <trkpt lat="23.065461" lon="113.269641">
        <time>2026-09-14T22:24:16Z</time>
      </trkpt>
      <trkpt lat="23.065428" lon="113.269774">
        <time>2026-09-14T22:24:21Z</time>
      </trkpt>
      <trkpt lat="23.065384" lon="113.269905">
        <time>2026-09-14T22:24:26Z</time>
      </trkpt>
      <trkpt lat="23.065336" lon="113.270034">
        <time>2026-09-14T22:24:31Z</time>
      </trkpt>
      <trkpt lat="23.065282" lon="113.270163">
        <time>2026-09-14T22:24:36Z</time>
      </trkpt>
      <trkpt lat="23.06522" lon="113.270291">
        <time>2026-09-14T22:24:41Z</time>
      </trkpt>
      <trkpt lat="23.065159" lon="113.270423">
        <time>2026-09-14T22:24:46Z</time>
      </trkpt>
      <trkpt lat="23.065097" lon="113.270556">
        <time>2026-09-14T22:24:51Z</time>
      </trkpt>
      <trkpt lat="23.06504" lon="113.270686">
        <time>2026-09-14T22:24:56Z</time>
      </trkpt>
      <trkpt lat="23.064982" lon="113.270811">
        <time>2026-09-14T22:25:01Z</time>
      </trkpt>
      <trkpt lat="23.064929" lon="113.270933">
        <time>2026-09-14T22:25:06Z</time>
      </trkpt>
      <trkpt lat="23.064873" lon="113.271054">
        <time>2026-09-14T22:25:11Z</time>
      </trkpt>
      <trkpt lat="23.064814" lon="113.271176">
        <time>2026-09-14T22:25:16Z</time>
      </trkpt>
      <trkpt lat="23.064753" lon="113.271303">
        <time>2026-09-14T22:25:21Z</time>
      </trkpt>
      <trkpt lat="23.064695" lon="113.27143">
        <time>2026-09-14T22:25:26Z</time>
      </trkpt>
      <trkpt lat="23.064635" lon="113.271559">
        <time>2026-09-14T22:25:31Z</time>
      </trkpt>
      <trkpt lat="23.064583" lon="113.27169">
        <time>2026-09-14T22:25:36Z</time>
      </trkpt>
      <trkpt lat="23.064529" lon="113.271817">
        <time>2026-09-14T22:25:41Z</time>
      </trkpt>
      <trkpt lat="23.064478" lon="113.271945">
        <time>2026-09-14T22:25:46Z</time>
      </trkpt>
      <trkpt lat="23.06442" lon="113.272074">
        <time>2026-09-14T22:25:51Z</time>
      </trkpt>
      <trkpt lat="23.064356" lon="113.27221">
        <time>2026-09-14T22:25:56Z</time>
      </trkpt>
      <trkpt lat="23.064336" lon="113.272356">
        <time>2026-09-14T22:26:01Z</time>
      </trkpt>
      <trkpt lat="23.064327" lon="113.272493">
        <time>2026-09-14T22:26:06Z</time>
      </trkpt>
      <trkpt lat="23.064323" lon="113.272634">
        <time>2026-09-14T22:26:11Z</time>
      </trkpt>
      <trkpt lat="23.064354" lon="113.272777">
        <time>2026-09-14T22:26:16Z</time>
      </trkpt>
      <trkpt lat="23.064398" lon="113.272911">
        <time>2026-09-14T22:26:21Z</time>
      </trkpt>
      <trkpt lat="23.064444" lon="113.273037">
        <time>2026-09-14T22:26:26Z</time>
      </trkpt>
      <trkpt lat="23.064468" lon="113.273169">
        <time>2026-09-14T22:26:31Z</time>
      </trkpt>
      <trkpt lat="23.064427" lon="113.273294">
        <time>2026-09-14T22:26:36Z</time>
      </trkpt>
      <trkpt lat="23.064329" lon="113.273382">
        <time>2026-09-14T22:26:41Z</time>
      </trkpt>
      <trkpt lat="23.064216" lon="113.273464">
        <time>2026-09-14T22:26:46Z</time>
      </trkpt>
      <trkpt lat="23.064107" lon="113.27354">
        <time>2026-09-14T22:26:51Z</time>
      </trkpt>
      <trkpt lat="23.064005" lon="113.273616">
        <time>2026-09-14T22:26:56Z</time>
      </trkpt>
      <trkpt lat="23.063916" lon="113.273709">
        <time>2026-09-14T22:27:01Z</time>
      </trkpt>
      <trkpt lat="23.063846" lon="113.273825">
        <time>2026-09-14T22:27:06Z</time>
      </trkpt>
      <trkpt lat="23.063778" lon="113.273952">
        <time>2026-09-14T22:27:11Z</time>
      </trkpt>
      <trkpt lat="23.063693" lon="113.274069">
        <time>2026-09-14T22:27:16Z</time>
      </trkpt>
      <trkpt lat="23.063591" lon="113.274157">
        <time>2026-09-14T22:27:21Z</time>
      </trkpt>
      <trkpt lat="23.063521" lon="113.274285">
        <time>2026-09-14T22:27:26Z</time>
      </trkpt>
      <trkpt lat="23.063461" lon="113.274429">
        <time>2026-09-14T22:27:31Z</time>
      </trkpt>
      <trkpt lat="23.063402" lon="113.274573">
        <time>2026-09-14T22:27:36Z</time>
      </trkpt>
      <trkpt lat="23.063346" lon="113.274714">
        <time>2026-09-14T22:27:41Z</time>
      </trkpt>
      <trkpt lat="23.063298" lon="113.274849">
        <time>2026-09-14T22:27:46Z</time>
      </trkpt>
      <trkpt lat="23.063248" lon="113.274987">
        <time>2026-09-14T22:27:51Z</time>
      </trkpt>
      <trkpt lat="23.063189" lon="113.27511">
        <time>2026-09-14T22:27:56Z</time>
      </trkpt>
      <trkpt lat="23.06312" lon="113.275222">
        <time>2026-09-14T22:28:01Z</time>
      </trkpt>
      <trkpt lat="23.063057" lon="113.27534">
        <time>2026-09-14T22:28:06Z</time>
      </trkpt>
      <trkpt lat="23.062989" lon="113.275458">
        <time>2026-09-14T22:28:11Z</time>
      </trkpt>
      <trkpt lat="23.062902" lon="113.27557">
        <time>2026-09-14T22:28:16Z</time>
      </trkpt>
      <trkpt lat="23.062804" lon="113.275681">
        <time>2026-09-14T22:28:21Z</time>
      </trkpt>
      <trkpt lat="23.062701" lon="113.275782">
        <time>2026-09-14T22:28:26Z</time>
      </trkpt>
      <trkpt lat="23.062608" lon="113.275887">
        <time>2026-09-14T22:28:31Z</time>
      </trkpt>
      <trkpt lat="23.062525" lon="113.276007">
        <time>2026-09-14T22:28:36Z</time>
      </trkpt>
      <trkpt lat="23.062457" lon="113.276135">
        <time>2026-09-14T22:28:41Z</time>
      </trkpt>
      <trkpt lat="23.0624" lon="113.276269">
        <time>2026-09-14T22:28:46Z</time>
      </trkpt>
      <trkpt lat="23.062353" lon="113.276407">
        <time>2026-09-14T22:28:51Z</time>
      </trkpt>
      <trkpt lat="23.062306" lon="113.276543">
        <time>2026-09-14T22:28:56Z</time>
      </trkpt>
      <trkpt lat="23.062257" lon="113.276671">
        <time>2026-09-14T22:29:01Z</time>
      </trkpt>
      <trkpt lat="23.062211" lon="113.276802">
        <time>2026-09-14T22:29:06Z</time>
      </trkpt>
      <trkpt lat="23.062165" lon="113.276935">
        <time>2026-09-14T22:29:11Z</time>
      </trkpt>
      <trkpt lat="23.062119" lon="113.27707">
        <time>2026-09-14T22:29:16Z</time>
      </trkpt>
      <trkpt lat="23.062067" lon="113.277209">
        <time>2026-09-14T22:29:21Z</time>
      </trkpt>
      <trkpt lat="23.062011" lon="113.277349">
        <time>2026-09-14T22:29:26Z</time>
      </trkpt>
      <trkpt lat="23.061958" lon="113.277484">
        <time>2026-09-14T22:29:31Z</time>
      </trkpt>
      <trkpt lat="23.061904" lon="113.277615">
        <time>2026-09-14T22:29:36Z</time>
      </trkpt>
      <trkpt lat="23.06186" lon="113.277757">
        <time>2026-09-14T22:29:41Z</time>
      </trkpt>
      <trkpt lat="23.061842" lon="113.277905">
        <time>2026-09-14T22:29:46Z</time>
      </trkpt>
      <trkpt lat="23.061847" lon="113.278049">
        <time>2026-09-14T22:29:51Z</time>
      </trkpt>
      <trkpt lat="23.061852" lon="113.278192">
        <time>2026-09-14T22:29:56Z</time>
      </trkpt>
      <trkpt lat="23.061855" lon="113.278332">
        <time>2026-09-14T22:30:01Z</time>
      </trkpt>
      <trkpt lat="23.061863" lon="113.278474">
        <time>2026-09-14T22:30:06Z</time>
      </trkpt>
      <trkpt lat="23.061871" lon="113.278613">
        <time>2026-09-14T22:30:11Z</time>
      </trkpt>
      <trkpt lat="23.061858" lon="113.27875">
        <time>2026-09-14T22:30:16Z</time>
      </trkpt>
      <trkpt lat="23.061811" lon="113.278877">
        <time>2026-09-14T22:30:21Z</time>
      </trkpt>
      <trkpt lat="23.061734" lon="113.278987">
        <time>2026-09-14T22:30:26Z</time>
      </trkpt>
      <trkpt lat="23.061656" lon="113.279103">
        <time>2026-09-14T22:30:31Z</time>
      </trkpt>
      <trkpt lat="23.0616" lon="113.279233">
        <time>2026-09-14T22:30:36Z</time>
      </trkpt>
      <trkpt lat="23.061545" lon="113.279355">
        <time>2026-09-14T22:30:41Z</time>
      </trkpt>
      <trkpt lat="23.061494" lon="113.279485">
        <time>2026-09-14T22:30:46Z</time>
      </trkpt>
      <trkpt lat="23.061446" lon="113.279615">
        <time>2026-09-14T22:30:51Z</time>
      </trkpt>
      <trkpt lat="23.061389" lon="113.279742">
        <time>2026-09-14T22:30:56Z</time>
      </trkpt>
      <trkpt lat="23.061332" lon="113.279872">
        <time>2026-09-14T22:31:01Z</time>
      </trkpt>
      <trkpt lat="23.061271" lon="113.28001">
        <time>2026-09-14T22:31:06Z</time>
      </trkpt>
      <trkpt lat="23.061212" lon="113.280147">
        <time>2026-09-14T22:31:11Z</time>
      </trkpt>
      <trkpt lat="23.061154" lon="113.280289">
        <time>2026-09-14T22:31:16Z</time>
      </trkpt>
      <trkpt lat="23.061098" lon="113.280423">
        <time>2026-09-14T22:31:21Z</time>
      </trkpt>
      <trkpt lat="23.06104" lon="113.280565">
        <time>2026-09-14T22:31:26Z</time>
      </trkpt>
      <trkpt lat="23.060981" lon="113.280701">
        <time>2026-09-14T22:31:31Z</time>
      </trkpt>
      <trkpt lat="23.060919" lon="113.280832">
        <time>2026-09-14T22:31:36Z</time>
      </trkpt>
      <trkpt lat="23.060863" lon="113.280966">
        <time>2026-09-14T22:31:41Z</time>
      </trkpt>
      <trkpt lat="23.060802" lon="113.281099">
        <time>2026-09-14T22:31:46Z</time>
      </trkpt>
      <trkpt lat="23.06074" lon="113.281228">
        <time>2026-09-14T22:31:51Z</time>
      </trkpt>
      <trkpt lat="23.06068" lon="113.281355">
        <time>2026-09-14T22:31:56Z</time>
      </trkpt>
      <trkpt lat="23.060619" lon="113.281488">
        <time>2026-09-14T22:32:01Z</time>
      </trkpt>
      <trkpt lat="23.060565" lon="113.281621">
        <time>2026-09-14T22:32:06Z</time>
      </trkpt>
      <trkpt lat="23.060513" lon="113.281754">
        <time>2026-09-14T22:32:11Z</time>
      </trkpt>
      <trkpt lat="23.060464" lon="113.281886">
        <time>2026-09-14T22:32:16Z</time>
      </trkpt>
      <trkpt lat="23.060408" lon="113.282022">
        <time>2026-09-14T22:32:21Z</time>
      </trkpt>
      <trkpt lat="23.060354" lon="113.282157">
        <time>2026-09-14T22:32:26Z</time>
      </trkpt>
      <trkpt lat="23.060299" lon="113.282296">
        <time>2026-09-14T22:32:31Z</time>
      </trkpt>
      <trkpt lat="23.060242" lon="113.282437">
        <time>2026-09-14T22:32:36Z</time>
      </trkpt>
      <trkpt lat="23.06018" lon="113.282568">
        <time>2026-09-14T22:32:41Z</time>
      </trkpt>
      <trkpt lat="23.060117" lon="113.282703">
        <time>2026-09-14T22:32:46Z</time>
      </trkpt>
      <trkpt lat="23.060058" lon="113.28283">
        <time>2026-09-14T22:32:51Z</time>
      </trkpt>
      <trkpt lat="23.060006" lon="113.282954">
        <time>2026-09-14T22:32:56Z</time>
      </trkpt>
      <trkpt lat="23.059947" lon="113.283094">
        <time>2026-09-14T22:33:01Z</time>
      </trkpt>
      <trkpt lat="23.059887" lon="113.283235">
        <time>2026-09-14T22:33:06Z</time>
      </trkpt>
      <trkpt lat="23.059807" lon="113.283358">
        <time>2026-09-14T22:33:11Z</time>
      </trkpt>
      <trkpt lat="23.059726" lon="113.28348">
        <time>2026-09-14T22:33:16Z</time>
      </trkpt>
      <trkpt lat="23.059672" lon="113.283613">
        <time>2026-09-14T22:33:21Z</time>
      </trkpt>
      <trkpt lat="23.059621" lon="113.283742">
        <time>2026-09-14T22:33:26Z</time>
      </trkpt>
      <trkpt lat="23.059561" lon="113.283873">
        <time>2026-09-14T22:33:31Z</time>
      </trkpt>
      <trkpt lat="23.059501" lon="113.284005">
        <time>2026-09-14T22:33:36Z</time>
      </trkpt>
      <trkpt lat="23.059435" lon="113.284134">
        <time>2026-09-14T22:33:41Z</time>
      </trkpt>
      <trkpt lat="23.059413" lon="113.284277">
        <time>2026-09-14T22:33:46Z</time>
      </trkpt>
      <trkpt lat="23.059381" lon="113.284411">
        <time>2026-09-14T22:33:51Z</time>
      </trkpt>
      <trkpt lat="23.059338" lon="113.284534">
        <time>2026-09-14T22:33:56Z</time>
      </trkpt>
      <trkpt lat="23.05929" lon="113.284654">
        <time>2026-09-14T22:34:01Z</time>
      </trkpt>
      <trkpt lat="23.059232" lon="113.284779">
        <time>2026-09-14T22:34:06Z</time>
      </trkpt>
      <trkpt lat="23.05917" lon="113.284909">
        <time>2026-09-14T22:34:11Z</time>
      </trkpt>
      <trkpt lat="23.059116" lon="113.285037">
        <time>2026-09-14T22:34:16Z</time>
      </trkpt>
      <trkpt lat="23.059061" lon="113.285167">
        <time>2026-09-14T22:34:21Z</time>
      </trkpt>
      <trkpt lat="23.059014" lon="113.285297">
        <time>2026-09-14T22:34:26Z</time>
      </trkpt>
      <trkpt lat="23.058955" lon="113.285428">
        <time>2026-09-14T22:34:31Z</time>
      </trkpt>
      <trkpt lat="23.0589" lon="113.285557">
        <time>2026-09-14T22:34:36Z</time>
      </trkpt>
      <trkpt lat="23.058845" lon="113.285687">
        <time>2026-09-14T22:34:41Z</time>
      </trkpt>
      <trkpt lat="23.058785" lon="113.285817">
        <time>2026-09-14T22:34:46Z</time>
      </trkpt>
      <trkpt lat="23.058724" lon="113.285947">
        <time>2026-09-14T22:34:51Z</time>
      </trkpt>
      <trkpt lat="23.058683" lon="113.286077">
        <time>2026-09-14T22:34:56Z</time>
      </trkpt>
      <trkpt lat="23.058766" lon="113.286079">
        <time>2026-09-14T22:35:01Z</time>
      </trkpt>
      <trkpt lat="23.058841" lon="113.28594">
        <time>2026-09-14T22:35:06Z</time>
      </trkpt>
      <trkpt lat="23.058899" lon="113.285802">
        <time>2026-09-14T22:35:11Z</time>
      </trkpt>
      <trkpt lat="23.058953" lon="113.285669">
        <time>2026-09-14T22:35:16Z</time>
      </trkpt>
      <trkpt lat="23.059014" lon="113.285538">
        <time>2026-09-14T22:35:21Z</time>
      </trkpt>
      <trkpt lat="23.05907" lon="113.285405">
        <time>2026-09-14T22:35:26Z</time>
      </trkpt>
      <trkpt lat="23.059123" lon="113.285275">
        <time>2026-09-14T22:35:31Z</time>
      </trkpt>
      <trkpt lat="23.05918" lon="113.285142">
        <time>2026-09-14T22:35:36Z</time>
      </trkpt>
      <trkpt lat="23.059234" lon="113.285006">
        <time>2026-09-14T22:35:41Z</time>
      </trkpt>
      <trkpt lat="23.05929" lon="113.284873">
        <time>2026-09-14T22:35:46Z</time>
      </trkpt>
      <trkpt lat="23.059346" lon="113.284741">
        <time>2026-09-14T22:35:51Z</time>
      </trkpt>
      <trkpt lat="23.059399" lon="113.28461">
        <time>2026-09-14T22:35:56Z</time>
      </trkpt>
      <trkpt lat="23.059454" lon="113.284487">
        <time>2026-09-14T22:36:01Z</time>
      </trkpt>
      <trkpt lat="23.059511" lon="113.284373">
        <time>2026-09-14T22:36:06Z</time>
      </trkpt>
      <trkpt lat="23.059553" lon="113.284279">
        <time>2026-09-14T22:36:11Z</time>
      </trkpt>
      <trkpt lat="23.059594" lon="113.284199">
        <time>2026-09-14T22:36:16Z</time>
      </trkpt>
      <trkpt lat="23.059681" lon="113.284195">
        <time>2026-09-14T22:36:21Z</time>
      </trkpt>
      <trkpt lat="23.059787" lon="113.284116">
        <time>2026-09-14T22:36:26Z</time>
      </trkpt>
      <trkpt lat="23.059851" lon="113.283969">
        <time>2026-09-14T22:36:31Z</time>
      </trkpt>
      <trkpt lat="23.059898" lon="113.283826">
        <time>2026-09-14T22:36:36Z</time>
      </trkpt>
      <trkpt lat="23.059905" lon="113.283681">
        <time>2026-09-14T22:36:41Z</time>
      </trkpt>
      <trkpt lat="23.059912" lon="113.283541">
        <time>2026-09-14T22:36:46Z</time>
      </trkpt>
      <trkpt lat="23.059952" lon="113.283409">
        <time>2026-09-14T22:36:51Z</time>
      </trkpt>
      <trkpt lat="23.060014" lon="113.283293">
        <time>2026-09-14T22:36:56Z</time>
      </trkpt>
      <trkpt lat="23.060082" lon="113.28318">
        <time>2026-09-14T22:37:01Z</time>
      </trkpt>
      <trkpt lat="23.060151" lon="113.283057">
        <time>2026-09-14T22:37:06Z</time>
      </trkpt>
      <trkpt lat="23.060209" lon="113.282934">
        <time>2026-09-14T22:37:11Z</time>
      </trkpt>
      <trkpt lat="23.060261" lon="113.282807">
        <time>2026-09-14T22:37:16Z</time>
      </trkpt>
      <trkpt lat="23.060324" lon="113.282681">
        <time>2026-09-14T22:37:21Z</time>
      </trkpt>
      <trkpt lat="23.060369" lon="113.282543">
        <time>2026-09-14T22:37:26Z</time>
      </trkpt>
      <trkpt lat="23.060407" lon="113.282409">
        <time>2026-09-14T22:37:31Z</time>
      </trkpt>
      <trkpt lat="23.060441" lon="113.282277">
        <time>2026-09-14T22:37:36Z</time>
      </trkpt>
      <trkpt lat="23.06047" lon="113.282142">
        <time>2026-09-14T22:37:41Z</time>
      </trkpt>
      <trkpt lat="23.060519" lon="113.282016">
        <time>2026-09-14T22:37:46Z</time>
      </trkpt>
      <trkpt lat="23.06058" lon="113.281893">
        <time>2026-09-14T22:37:51Z</time>
      </trkpt>
      <trkpt lat="23.060647" lon="113.281766">
        <time>2026-09-14T22:37:56Z</time>
      </trkpt>
      <trkpt lat="23.060709" lon="113.281641">
        <time>2026-09-14T22:38:01Z</time>
      </trkpt>
      <trkpt lat="23.06077" lon="113.281512">
        <time>2026-09-14T22:38:06Z</time>
      </trkpt>
      <trkpt lat="23.060819" lon="113.281379">
        <time>2026-09-14T22:38:11Z</time>
      </trkpt>
      <trkpt lat="23.060865" lon="113.281249">
        <time>2026-09-14T22:38:16Z</time>
      </trkpt>
      <trkpt lat="23.060917" lon="113.28112">
        <time>2026-09-14T22:38:21Z</time>
      </trkpt>
      <trkpt lat="23.060971" lon="113.280999">
        <time>2026-09-14T22:38:26Z</time>
      </trkpt>
      <trkpt lat="23.061026" lon="113.280879">
        <time>2026-09-14T22:38:31Z</time>
      </trkpt>
      <trkpt lat="23.061072" lon="113.280758">
        <time>2026-09-14T22:38:36Z</time>
      </trkpt>
      <trkpt lat="23.061123" lon="113.280629">
        <time>2026-09-14T22:38:41Z</time>
      </trkpt>
      <trkpt lat="23.061185" lon="113.280491">
        <time>2026-09-14T22:38:46Z</time>
      </trkpt>
      <trkpt lat="23.06125" lon="113.280359">
        <time>2026-09-14T22:38:51Z</time>
      </trkpt>
      <trkpt lat="23.061314" lon="113.280225">
        <time>2026-09-14T22:38:56Z</time>
      </trkpt>
      <trkpt lat="23.061382" lon="113.280104">
        <time>2026-09-14T22:39:01Z</time>
      </trkpt>
      <trkpt lat="23.061444" lon="113.279984">
        <time>2026-09-14T22:39:06Z</time>
      </trkpt>
      <trkpt lat="23.061507" lon="113.279876">
        <time>2026-09-14T22:39:11Z</time>
      </trkpt>
      <trkpt lat="23.061562" lon="113.279765">
        <time>2026-09-14T22:39:16Z</time>
      </trkpt>
      <trkpt lat="23.061609" lon="113.279633">
        <time>2026-09-14T22:39:21Z</time>
      </trkpt>
      <trkpt lat="23.061655" lon="113.27949">
        <time>2026-09-14T22:39:26Z</time>
      </trkpt>
      <trkpt lat="23.061701" lon="113.279344">
        <time>2026-09-14T22:39:31Z</time>
      </trkpt>
      <trkpt lat="23.061752" lon="113.27921">
        <time>2026-09-14T22:39:36Z</time>
      </trkpt>
      <trkpt lat="23.061811" lon="113.279089">
        <time>2026-09-14T22:39:41Z</time>
      </trkpt>
      <trkpt lat="23.061882" lon="113.278972">
        <time>2026-09-14T22:39:46Z</time>
      </trkpt>
      <trkpt lat="23.061954" lon="113.278846">
        <time>2026-09-14T22:39:51Z</time>
      </trkpt>
      <trkpt lat="23.062" lon="113.278714">
        <time>2026-09-14T22:39:56Z</time>
      </trkpt>
      <trkpt lat="23.06201" lon="113.278572">
        <time>2026-09-14T22:40:01Z</time>
      </trkpt>
      <trkpt lat="23.061992" lon="113.278426">
        <time>2026-09-14T22:40:06Z</time>
      </trkpt>
      <trkpt lat="23.061977" lon="113.278283">
        <time>2026-09-14T22:40:11Z</time>
      </trkpt>
      <trkpt lat="23.061964" lon="113.27814">
        <time>2026-09-14T22:40:16Z</time>
      </trkpt>
      <trkpt lat="23.061961" lon="113.277995">
        <time>2026-09-14T22:40:21Z</time>
      </trkpt>
      <trkpt lat="23.061958" lon="113.277843">
        <time>2026-09-14T22:40:26Z</time>
      </trkpt>
      <trkpt lat="23.061982" lon="113.277698">
        <time>2026-09-14T22:40:31Z</time>
      </trkpt>
      <trkpt lat="23.062022" lon="113.277554">
        <time>2026-09-14T22:40:36Z</time>
      </trkpt>
      <trkpt lat="23.06207" lon="113.277413">
        <time>2026-09-14T22:40:41Z</time>
      </trkpt>
      <trkpt lat="23.06212" lon="113.27728">
        <time>2026-09-14T22:40:46Z</time>
      </trkpt>
      <trkpt lat="23.062167" lon="113.277153">
        <time>2026-09-14T22:40:51Z</time>
      </trkpt>
      <trkpt lat="23.062219" lon="113.277023">
        <time>2026-09-14T22:40:56Z</time>
      </trkpt>
      <trkpt lat="23.062272" lon="113.276889">
        <time>2026-09-14T22:41:01Z</time>
      </trkpt>
      <trkpt lat="23.062326" lon="113.276762">
        <time>2026-09-14T22:41:06Z</time>
      </trkpt>
      <trkpt lat="23.062376" lon="113.276635">
        <time>2026-09-14T22:41:11Z</time>
      </trkpt>
      <trkpt lat="23.062423" lon="113.2765">
        <time>2026-09-14T22:41:16Z</time>
      </trkpt>
      <trkpt lat="23.06247" lon="113.276366">
        <time>2026-09-14T22:41:21Z</time>
      </trkpt>
      <trkpt lat="23.062526" lon="113.276238">
        <time>2026-09-14T22:41:26Z</time>
      </trkpt>
      <trkpt lat="23.062591" lon="113.276114">
        <time>2026-09-14T22:41:31Z</time>
      </trkpt>
      <trkpt lat="23.062659" lon="113.275998">
        <time>2026-09-14T22:41:36Z</time>
      </trkpt>
      <trkpt lat="23.062736" lon="113.275891">
        <time>2026-09-14T22:41:41Z</time>
      </trkpt>
      <trkpt lat="23.062828" lon="113.275796">
        <time>2026-09-14T22:41:46Z</time>
      </trkpt>
      <trkpt lat="23.062927" lon="113.275704">
        <time>2026-09-14T22:41:51Z</time>
      </trkpt>
      <trkpt lat="23.063025" lon="113.275598">
        <time>2026-09-14T22:41:56Z</time>
      </trkpt>
      <trkpt lat="23.063102" lon="113.275479">
        <time>2026-09-14T22:42:01Z</time>
      </trkpt>
      <trkpt lat="23.063167" lon="113.275356">
        <time>2026-09-14T22:42:06Z</time>
      </trkpt>
      <trkpt lat="23.06324" lon="113.275234">
        <time>2026-09-14T22:42:11Z</time>
      </trkpt>
      <trkpt lat="23.063315" lon="113.275113">
        <time>2026-09-14T22:42:16Z</time>
      </trkpt>
      <trkpt lat="23.063407" lon="113.274997">
        <time>2026-09-14T22:42:21Z</time>
      </trkpt>
      <trkpt lat="23.06346" lon="113.274865">
        <time>2026-09-14T22:42:26Z</time>
      </trkpt>
      <trkpt lat="23.063503" lon="113.274735">
        <time>2026-09-14T22:42:31Z</time>
      </trkpt>
      <trkpt lat="23.063539" lon="113.274614">
        <time>2026-09-14T22:42:36Z</time>
      </trkpt>
      <trkpt lat="23.063572" lon="113.274484">
        <time>2026-09-14T22:42:41Z</time>
      </trkpt>
      <trkpt lat="23.063655" lon="113.274357">
        <time>2026-09-14T22:42:46Z</time>
      </trkpt>
      <trkpt lat="23.063731" lon="113.274246">
        <time>2026-09-14T22:42:51Z</time>
      </trkpt>
      <trkpt lat="23.063827" lon="113.274154">
        <time>2026-09-14T22:42:56Z</time>
      </trkpt>
      <trkpt lat="23.063908" lon="113.274039">
        <time>2026-09-14T22:43:01Z</time>
      </trkpt>
      <trkpt lat="23.063976" lon="113.273918">
        <time>2026-09-14T22:43:06Z</time>
      </trkpt>
      <trkpt lat="23.064042" lon="113.273809">
        <time>2026-09-14T22:43:11Z</time>
      </trkpt>
      <trkpt lat="23.064128" lon="113.273709">
        <time>2026-09-14T22:43:16Z</time>
      </trkpt>
      <trkpt lat="23.064232" lon="113.273626">
        <time>2026-09-14T22:43:21Z</time>
      </trkpt>
      <trkpt lat="23.064337" lon="113.273542">
        <time>2026-09-14T22:43:26Z</time>
      </trkpt>
      <trkpt lat="23.064445" lon="113.273454">
        <time>2026-09-14T22:43:31Z</time>
      </trkpt>
      <trkpt lat="23.064535" lon="113.273356">
        <time>2026-09-14T22:43:36Z</time>
      </trkpt>
      <trkpt lat="23.064593" lon="113.273221">
        <time>2026-09-14T22:43:41Z</time>
      </trkpt>
      <trkpt lat="23.064585" lon="113.273058">
        <time>2026-09-14T22:43:46Z</time>
      </trkpt>
      <trkpt lat="23.064534" lon="113.2729">
        <time>2026-09-14T22:43:51Z</time>
      </trkpt>
      <trkpt lat="23.064485" lon="113.272744">
        <time>2026-09-14T22:43:56Z</time>
      </trkpt>
      <trkpt lat="23.06446" lon="113.272597">
        <time>2026-09-14T22:44:01Z</time>
      </trkpt>
      <trkpt lat="23.064525" lon="113.27246">
        <time>2026-09-14T22:44:06Z</time>
      </trkpt>
      <trkpt lat="23.064577" lon="113.272303">
        <time>2026-09-14T22:44:11Z</time>
      </trkpt>
      <trkpt lat="23.064606" lon="113.272152">
        <time>2026-09-14T22:44:16Z</time>
      </trkpt>
      <trkpt lat="23.064675" lon="113.272027">
        <time>2026-09-14T22:44:21Z</time>
      </trkpt>
      <trkpt lat="23.064744" lon="113.271902">
        <time>2026-09-14T22:44:26Z</time>
      </trkpt>
      <trkpt lat="23.064798" lon="113.271776">
        <time>2026-09-14T22:44:31Z</time>
      </trkpt>
      <trkpt lat="23.064864" lon="113.271644">
        <time>2026-09-14T22:44:36Z</time>
      </trkpt>
      <trkpt lat="23.064938" lon="113.271522">
        <time>2026-09-14T22:44:41Z</time>
      </trkpt>
      <trkpt lat="23.065012" lon="113.271401">
        <time>2026-09-14T22:44:46Z</time>
      </trkpt>
      <trkpt lat="23.065078" lon="113.271273">
        <time>2026-09-14T22:44:51Z</time>
      </trkpt>
      <trkpt lat="23.065133" lon="113.271129">
        <time>2026-09-14T22:44:56Z</time>
      </trkpt>
      <trkpt lat="23.065185" lon="113.270986">
        <time>2026-09-14T22:45:01Z</time>
      </trkpt>
      <trkpt lat="23.065239" lon="113.270848">
        <time>2026-09-14T22:45:06Z</time>
      </trkpt>
      <trkpt lat="23.065292" lon="113.270712">
        <time>2026-09-14T22:45:11Z</time>
      </trkpt>
      <trkpt lat="23.065348" lon="113.27058">
        <time>2026-09-14T22:45:16Z</time>
      </trkpt>
      <trkpt lat="23.065403" lon="113.270449">
        <time>2026-09-14T22:45:21Z</time>
      </trkpt>
      <trkpt lat="23.065467" lon="113.270318">
        <time>2026-09-14T22:45:26Z</time>
      </trkpt>
      <trkpt lat="23.065532" lon="113.27018">
        <time>2026-09-14T22:45:31Z</time>
      </trkpt>
      <trkpt lat="23.065585" lon="113.270044">
        <time>2026-09-14T22:45:36Z</time>
      </trkpt>
      <trkpt lat="23.065628" lon="113.269908">
        <time>2026-09-14T22:45:41Z</time>
      </trkpt>
      <trkpt lat="23.065659" lon="113.269772">
        <time>2026-09-14T22:45:46Z</time>
      </trkpt>
      <trkpt lat="23.065692" lon="113.269632">
        <time>2026-09-14T22:45:51Z</time>
      </trkpt>
      <trkpt lat="23.065728" lon="113.269499">
        <time>2026-09-14T22:45:56Z</time>
      </trkpt>
      <trkpt lat="23.065775" lon="113.269356">
        <time>2026-09-14T22:46:01Z</time>
      </trkpt>
      <trkpt lat="23.065821" lon="113.269205">
        <time>2026-09-14T22:46:06Z</time>
      </trkpt>
      <trkpt lat="23.065865" lon="113.269066">
        <time>2026-09-14T22:46:11Z</time>
      </trkpt>
      <trkpt lat="23.065915" lon="113.268936">
        <time>2026-09-14T22:46:16Z</time>
      </trkpt>
      <trkpt lat="23.065971" lon="113.268811">
        <time>2026-09-14T22:46:21Z</time>
      </trkpt>
      <trkpt lat="23.066037" lon="113.26868">
        <time>2026-09-14T22:46:26Z</time>
      </trkpt>
      <trkpt lat="23.0661" lon="113.268555">
        <time>2026-09-14T22:46:31Z</time>
      </trkpt>
      <trkpt lat="23.066171" lon="113.268439">
        <time>2026-09-14T22:46:36Z</time>
      </trkpt>
      <trkpt lat="23.06625" lon="113.268329">
        <time>2026-09-14T22:46:41Z</time>
      </trkpt>
      <trkpt lat="23.066347" lon="113.26822">
        <time>2026-09-14T22:46:46Z</time>
      </trkpt>
      <trkpt lat="23.066477" lon="113.268153">
        <time>2026-09-14T22:46:51Z</time>
      </trkpt>
      <trkpt lat="23.066611" lon="113.268146">
        <time>2026-09-14T22:46:56Z</time>
      </trkpt>
      <trkpt lat="23.066747" lon="113.268159">
        <time>2026-09-14T22:47:01Z</time>
      </trkpt>
      <trkpt lat="23.066886" lon="113.268157">
        <time>2026-09-14T22:47:06Z</time>
      </trkpt>
      <trkpt lat="23.067019" lon="113.268179">
        <time>2026-09-14T22:47:11Z</time>
      </trkpt>
      <trkpt lat="23.067131" lon="113.268229">
        <time>2026-09-14T22:47:16Z</time>
      </trkpt>
      <trkpt lat="23.067238" lon="113.268294">
        <time>2026-09-14T22:47:21Z</time>
      </trkpt>
      <trkpt lat="23.067345" lon="113.26835">
        <time>2026-09-14T22:47:26Z</time>
      </trkpt>
      <trkpt lat="23.06745" lon="113.268407">
        <time>2026-09-14T22:47:31Z</time>
      </trkpt>
      <trkpt lat="23.067575" lon="113.268475">
        <time>2026-09-14T22:47:36Z</time>
      </trkpt>
      <trkpt lat="23.067705" lon="113.26854">
        <time>2026-09-14T22:47:41Z</time>
      </trkpt>
      <trkpt lat="23.067823" lon="113.268604">
        <time>2026-09-14T22:47:46Z</time>
      </trkpt>
      <trkpt lat="23.06793" lon="113.268681">
        <time>2026-09-14T22:47:51Z</time>
      </trkpt>
      <trkpt lat="23.068022" lon="113.268771">
        <time>2026-09-14T22:47:56Z</time>
      </trkpt>
      <trkpt lat="23.068127" lon="113.268807">
        <time>2026-09-14T22:48:01Z</time>
      </trkpt>
      <trkpt lat="23.068237" lon="113.268833">
        <time>2026-09-14T22:48:06Z</time>
      </trkpt>
      <trkpt lat="23.068349" lon="113.268902">
        <time>2026-09-14T22:48:11Z</time>
      </trkpt>
      <trkpt lat="23.068456" lon="113.269">
        <time>2026-09-14T22:48:16Z</time>
      </trkpt>
      <trkpt lat="23.068544" lon="113.269106">
        <time>2026-09-14T22:48:21Z</time>
      </trkpt>
      <trkpt lat="23.068658" lon="113.26919">
        <time>2026-09-14T22:48:26Z</time>
      </trkpt>
      <trkpt lat="23.068791" lon="113.269253">
        <time>2026-09-14T22:48:31Z</time>
      </trkpt>
      <trkpt lat="23.068953" lon="113.269254">
        <time>2026-09-14T22:48:36Z</time>
      </trkpt>
      <trkpt lat="23.069084" lon="113.269279">
        <time>2026-09-14T22:48:41Z</time>
      </trkpt>
      <trkpt lat="23.069221" lon="113.269318">
        <time>2026-09-14T22:48:46Z</time>
      </trkpt>
      <trkpt lat="23.069341" lon="113.26938">
        <time>2026-09-14T22:48:51Z</time>
      </trkpt>
      <trkpt lat="23.069459" lon="113.269444">
        <time>2026-09-14T22:48:56Z</time>
      </trkpt>
      <trkpt lat="23.069572" lon="113.269502">
        <time>2026-09-14T22:49:01Z</time>
      </trkpt>
      <trkpt lat="23.069696" lon="113.26955">
        <time>2026-09-14T22:49:06Z</time>
      </trkpt>
      <trkpt lat="23.069818" lon="113.269608">
        <time>2026-09-14T22:49:11Z</time>
      </trkpt>
      <trkpt lat="23.069936" lon="113.269668">
        <time>2026-09-14T22:49:16Z</time>
      </trkpt>
      <trkpt lat="23.070053" lon="113.269738">
        <time>2026-09-14T22:49:21Z</time>
      </trkpt>
      <trkpt lat="23.070174" lon="113.269808">
        <time>2026-09-14T22:49:26Z</time>
      </trkpt>
      <trkpt lat="23.07029" lon="113.269876">
        <time>2026-09-14T22:49:31Z</time>
      </trkpt>
      <trkpt lat="23.070408" lon="113.269924">
        <time>2026-09-14T22:49:36Z</time>
      </trkpt>
      <trkpt lat="23.070502" lon="113.269957">
        <time>2026-09-14T22:49:41Z</time>
      </trkpt>
      <trkpt lat="23.070585" lon="113.269969">
        <time>2026-09-14T22:49:46Z</time>
      </trkpt>
      <trkpt lat="23.070702" lon="113.270025">
        <time>2026-09-14T22:49:51Z</time>
      </trkpt>
      <trkpt lat="23.070826" lon="113.270089">
        <time>2026-09-14T22:49:56Z</time>
      </trkpt>
      <trkpt lat="23.070955" lon="113.270145">
        <time>2026-09-14T22:50:01Z</time>
      </trkpt>
      <trkpt lat="23.071052" lon="113.270215">
        <time>2026-09-14T22:50:06Z</time>
      </trkpt>
      <trkpt lat="23.071153" lon="113.270277">
        <time>2026-09-14T22:50:11Z</time>
      </trkpt>
      <trkpt lat="23.071269" lon="113.270343">
        <time>2026-09-14T22:50:16Z</time>
      </trkpt>
      <trkpt lat="23.071387" lon="113.270396">
        <time>2026-09-14T22:50:21Z</time>
      </trkpt>
      <trkpt lat="23.071499" lon="113.270464">
        <time>2026-09-14T22:50:26Z</time>
      </trkpt>
      <trkpt lat="23.071604" lon="113.270535">
        <time>2026-09-14T22:50:31Z</time>
      </trkpt>
      <trkpt lat="23.071703" lon="113.270599">
        <time>2026-09-14T22:50:36Z</time>
      </trkpt>
      <trkpt lat="23.071825" lon="113.270639">
        <time>2026-09-14T22:50:41Z</time>
      </trkpt>
      <trkpt lat="23.071957" lon="113.270653">
        <time>2026-09-14T22:50:46Z</time>
      </trkpt>
      <trkpt lat="23.072075" lon="113.270704">
        <time>2026-09-14T22:50:51Z</time>
      </trkpt>
      <trkpt lat="23.072203" lon="113.270789">
        <time>2026-09-14T22:50:56Z</time>
      </trkpt>
      <trkpt lat="23.072324" lon="113.270844">
        <time>2026-09-14T22:51:01Z</time>
      </trkpt>
      <trkpt lat="23.072422" lon="113.270909">
        <time>2026-09-14T22:51:06Z</time>
      </trkpt>
      <trkpt lat="23.072541" lon="113.270986">
        <time>2026-09-14T22:51:11Z</time>
      </trkpt>
      <trkpt lat="23.072669" lon="113.271063">
        <time>2026-09-14T22:51:16Z</time>
      </trkpt>
      <trkpt lat="23.07278" lon="113.271124">
        <time>2026-09-14T22:51:21Z</time>
      </trkpt>
      <trkpt lat="23.072873" lon="113.271179">
        <time>2026-09-14T22:51:26Z</time>
      </trkpt>
      <trkpt lat="23.07299" lon="113.27122">
        <time>2026-09-14T22:51:31Z</time>
      </trkpt>
      <trkpt lat="23.07312" lon="113.271267">
        <time>2026-09-14T22:51:36Z</time>
      </trkpt>
      <trkpt lat="23.073257" lon="113.271319">
        <time>2026-09-14T22:51:41Z</time>
      </trkpt>
      <trkpt lat="23.073353" lon="113.271374">
        <time>2026-09-14T22:51:46Z</time>
      </trkpt>
      <trkpt lat="23.07345" lon="113.271432">
        <time>2026-09-14T22:51:51Z</time>
      </trkpt>
      <trkpt lat="23.073558" lon="113.271474">
        <time>2026-09-14T22:51:56Z</time>
      </trkpt>
      <trkpt lat="23.073657" lon="113.27151">
        <time>2026-09-14T22:52:01Z</time>
      </trkpt>
      <trkpt lat="23.073766" lon="113.271535">
        <time>2026-09-14T22:52:06Z</time>
      </trkpt>
      <trkpt lat="23.073878" lon="113.271561">
        <time>2026-09-14T22:52:11Z</time>
      </trkpt>
      <trkpt lat="23.073995" lon="113.27161">
        <time>2026-09-14T22:52:16Z</time>
      </trkpt>
      <trkpt lat="23.074107" lon="113.271677">
        <time>2026-09-14T22:52:21Z</time>
      </trkpt>
      <trkpt lat="23.074168" lon="113.271776">
        <time>2026-09-14T22:52:26Z</time>
      </trkpt>
      <trkpt lat="23.074129" lon="113.27188">
        <time>2026-09-14T22:52:31Z</time>
      </trkpt>
      <trkpt lat="23.074052" lon="113.271986">
        <time>2026-09-14T22:52:36Z</time>
      </trkpt>
      <trkpt lat="23.073989" lon="113.2721">
        <time>2026-09-14T22:52:41Z</time>
      </trkpt>
      <trkpt lat="23.073935" lon="113.272214">
        <time>2026-09-14T22:52:46Z</time>
      </trkpt>
      <trkpt lat="23.073874" lon="113.272331">
        <time>2026-09-14T22:52:51Z</time>
      </trkpt>
      <trkpt lat="23.073806" lon="113.272439">
        <time>2026-09-14T22:52:56Z</time>
      </trkpt>
      <trkpt lat="23.073731" lon="113.272546">
        <time>2026-09-14T22:53:01Z</time>
      </trkpt>
      <trkpt lat="23.073653" lon="113.272664">
        <time>2026-09-14T22:53:06Z</time>
      </trkpt>
      <trkpt lat="23.073606" lon="113.272792">
        <time>2026-09-14T22:53:11Z</time>
      </trkpt>
      <trkpt lat="23.07356" lon="113.272913">
        <time>2026-09-14T22:53:16Z</time>
      </trkpt>
      <trkpt lat="23.073561" lon="113.273004">
        <time>2026-09-14T22:53:21Z</time>
      </trkpt>
      <trkpt lat="23.073648" lon="113.272975">
        <time>2026-09-14T22:53:26Z</time>
      </trkpt>
      <trkpt lat="23.073749" lon="113.272939">
        <time>2026-09-14T22:53:31Z</time>
      </trkpt>
      <trkpt lat="23.073863" lon="113.272973">
        <time>2026-09-14T22:53:36Z</time>
      </trkpt>
      <trkpt lat="23.073982" lon="113.272994">
        <time>2026-09-14T22:53:41Z</time>
      </trkpt>
      <trkpt lat="23.074045" lon="113.272902">
        <time>2026-09-14T22:53:46Z</time>
      </trkpt>
      <trkpt lat="23.074094" lon="113.272759">
        <time>2026-09-14T22:53:51Z</time>
      </trkpt>
      <trkpt lat="23.074142" lon="113.27264">
        <time>2026-09-14T22:53:56Z</time>
      </trkpt>
      <trkpt lat="23.074191" lon="113.272522">
        <time>2026-09-14T22:54:01Z</time>
      </trkpt>
      <trkpt lat="23.074264" lon="113.27239">
        <time>2026-09-14T22:54:06Z</time>
      </trkpt>
      <trkpt lat="23.074339" lon="113.272267">
        <time>2026-09-14T22:54:11Z</time>
      </trkpt>
      <trkpt lat="23.074413" lon="113.272141">
        <time>2026-09-14T22:54:16Z</time>
      </trkpt>
      <trkpt lat="23.07448" lon="113.272026">
        <time>2026-09-14T22:54:21Z</time>
      </trkpt>
      <trkpt lat="23.074526" lon="113.271951">
        <time>2026-09-14T22:54:26Z</time>
      </trkpt>
      <trkpt lat="23.074594" lon="113.27199">
        <time>2026-09-14T22:54:31Z</time>
      </trkpt>
      <trkpt lat="23.074683" lon="113.27209">
        <time>2026-09-14T22:54:36Z</time>
      </trkpt>
      <trkpt lat="23.074788" lon="113.272153">
        <time>2026-09-14T22:54:41Z</time>
      </trkpt>
      <trkpt lat="23.074882" lon="113.272227">
        <time>2026-09-14T22:54:46Z</time>
      </trkpt>
      <trkpt lat="23.074978" lon="113.272317">
        <time>2026-09-14T22:54:51Z</time>
      </trkpt>
      <trkpt lat="23.075075" lon="113.272362">
        <time>2026-09-14T22:54:56Z</time>
      </trkpt>
      <trkpt lat="23.075159" lon="113.272435">
        <time>2026-09-14T22:55:01Z</time>
      </trkpt>
      <trkpt lat="23.075209" lon="113.272556">
        <time>2026-09-14T22:55:06Z</time>
      </trkpt>
      <trkpt lat="23.075246" lon="113.272703">
        <time>2026-09-14T22:55:11Z</time>
      </trkpt>
      <trkpt lat="23.07529" lon="113.272837">
        <time>2026-09-14T22:55:16Z</time>
      </trkpt>
      <trkpt lat="23.075334" lon="113.272958">
        <time>2026-09-14T22:55:21Z</time>
      </trkpt>
      <trkpt lat="23.075365" lon="113.273096">
        <time>2026-09-14T22:55:26Z</time>
      </trkpt>
      <trkpt lat="23.075423" lon="113.273225">
        <time>2026-09-14T22:55:31Z</time>
      </trkpt>
      <trkpt lat="23.075475" lon="113.273358">
        <time>2026-09-14T22:55:36Z</time>
      </trkpt>
      <trkpt lat="23.075565" lon="113.273447">
        <time>2026-09-14T22:55:41Z</time>
      </trkpt>
      <trkpt lat="23.075677" lon="113.273407">
        <time>2026-09-14T22:55:46Z</time>
      </trkpt>
      <trkpt lat="23.075766" lon="113.273221">
        <time>2026-09-14T22:55:46Z</time>
      </trkpt>
    </trkseg>
  </trk>
</gpx>