<?xml version="1.0" encoding="UTF-8"?>
<gpx xmlns="http://www.topografix.com/GPX/1/1" xmlns:gpxtpx="http://www.garmin.com/xmlschemas/TrackPointExtension/v1" xmlns:xsi="http://www.w3.org/2001/XMLSchema-instance" xsi:schemaLocation="http://www.topografix.com/GPX/1/1 http://www.topografix.com/GPX/1/1/gpx.xsd" version="1.1" creator="gpx.py -- https://github.com/tkrajina/gpxpy">
  <trk>
    <name>gpx from joyrun</name>
    <trkseg>
      <trkpt lat="23.076038" lon="113.272683">
        <time>2026-09-16T21:59:27Z</time>
      </trkpt>
      <trkpt lat="23.076014" lon="113.272682">
        <time>2026-09-16T21:59:32Z</time>
      </trkpt>
      <trkpt lat="23.075918" lon="113.272673">
        <time>2026-09-16T21:59:37Z</time>
      </trkpt>
      <trkpt lat="23.075802" lon="113.272609">
        <time>2026-09-16T21:59:42Z</time>
      </trkpt>
      <trkpt lat="23.075694" lon="113.272524">
        <time>2026-09-16T21:59:47Z</time>
      </trkpt>
      <trkpt lat="23.075591" lon="113.272432">
        <time>2026-09-16T21:59:52Z</time>
      </trkpt>
      <trkpt lat="23.075479" lon="113.272356">
        <time>2026-09-16T21:59:57Z</time>
      </trkpt>
      <trkpt lat="23.075352" lon="113.272294">
        <time>2026-09-16T22:00:02Z</time>
      </trkpt>
      <trkpt lat="23.075229" lon="113.272226">
        <time>2026-09-16T22:00:07Z</time>
      </trkpt>
      <trkpt lat="23.07513" lon="113.272164">
        <time>2026-09-16T22:00:12Z</time>
      </trkpt>
      <trkpt lat="23.075037" lon="113.272113">
        <time>2026-09-16T22:00:17Z</time>
      </trkpt>
      <trkpt lat="23.074932" lon="113.27207">
        <time>2026-09-16T22:00:22Z</time>
      </trkpt>
      <trkpt lat="23.07481" lon="113.272027">
        <time>2026-09-16T22:00:27Z</time>
      </trkpt>
      <trkpt lat="23.074689" lon="113.271979">
        <time>2026-09-16T22:00:32Z</time>
      </trkpt>
      <trkpt lat="23.07457" lon="113.271923">
        <time>2026-09-16T22:00:37Z</time>
      </trkpt>
      <trkpt lat="23.074456" lon="113.27192">
        <time>2026-09-16T22:00:42Z</time>
      </trkpt>
      <trkpt lat="23.074369" lon="113.272">
        <time>2026-09-16T22:00:47Z</time>
      </trkpt>
      <trkpt lat="23.074306" lon="113.272122">
        <time>2026-09-16T22:00:52Z</time>
      </trkpt>
      <trkpt lat="23.07427" lon="113.272255">
        <time>2026-09-16T22:00:57Z</time>
      </trkpt>
      <trkpt lat="23.074226" lon="113.272397">
        <time>2026-09-16T22:01:02Z</time>
      </trkpt>
      <trkpt lat="23.074162" lon="113.272526">
        <time>2026-09-16T22:01:07Z</time>
      </trkpt>
      <trkpt lat="23.074105" lon="113.272664">
        <time>2026-09-16T22:01:12Z</time>
      </trkpt>
      <trkpt lat="23.07405" lon="113.2728">
        <time>2026-09-16T22:01:17Z</time>
      </trkpt>
      <trkpt lat="23.073993" lon="113.272925">
        <time>2026-09-16T22:01:22Z</time>
      </trkpt>
      <trkpt lat="23.073932" lon="113.273047">
        <time>2026-09-16T22:01:27Z</time>
      </trkpt>
      <trkpt lat="23.073858" lon="113.273174">
        <time>2026-09-16T22:01:32Z</time>
      </trkpt>
      <trkpt lat="23.073804" lon="113.273307">
        <time>2026-09-16T22:01:37Z</time>
      </trkpt>
      <trkpt lat="23.073792" lon="113.273369">
        <time>2026-09-16T22:01:42Z</time>
      </trkpt>
      <trkpt lat="23.073835" lon="113.273276">
        <time>2026-09-16T22:01:47Z</time>
      </trkpt>
      <trkpt lat="23.073889" lon="113.273183">
        <time>2026-09-16T22:01:52Z</time>
      </trkpt>
      <trkpt lat="23.073928" lon="113.273069">
        <time>2026-09-16T22:01:57Z</time>
      </trkpt>
      <trkpt lat="23.07387" lon="113.272981">
        <time>2026-09-16T22:02:02Z</time>
      </trkpt>
      <trkpt lat="23.073756" lon="113.272934">
        <time>2026-09-16T22:02:07Z</time>
      </trkpt>
      <trkpt lat="23.073681" lon="113.272858">
        <time>2026-09-16T22:02:12Z</time>
      </trkpt>
      <trkpt lat="23.073705" lon="113.27274">
        <time>2026-09-16T22:02:17Z</time>
      </trkpt>
      <trkpt lat="23.073744" lon="113.272628">
        <time>2026-09-16T22:02:22Z</time>
      </trkpt>
      <trkpt lat="23.07379" lon="113.27252">
        <time>2026-09-16T22:02:27Z</time>
      </trkpt>
      <trkpt lat="23.073827" lon="113.27241">
        <time>2026-09-16T22:02:32Z</time>
      </trkpt>
      <trkpt lat="23.07387" lon="113.272293">
        <time>2026-09-16T22:02:37Z</time>
      </trkpt>
      <trkpt lat="23.073922" lon="113.272172">
        <time>2026-09-16T22:02:42Z</time>
      </trkpt>
      <trkpt lat="23.073966" lon="113.27205">
        <time>2026-09-16T22:02:47Z</time>
      </trkpt>
      <trkpt lat="23.074005" lon="113.271937">
        <time>2026-09-16T22:02:52Z</time>
      </trkpt>
      <trkpt lat="23.074043" lon="113.27183">
        <time>2026-09-16T22:02:57Z</time>
      </trkpt>
      <trkpt lat="23.074056" lon="113.271724">
        <time>2026-09-16T22:03:02Z</time>
      </trkpt>
      <trkpt lat="23.07396" lon="113.271663">
        <time>2026-09-16T22:03:07Z</time>
      </trkpt>
      <trkpt lat="23.073851" lon="113.271606">
        <time>2026-09-16T22:03:12Z</time>
      </trkpt>
      <trkpt lat="23.073735" lon="113.271547">
        <time>2026-09-16T22:03:17Z</time>
      </trkpt>
      <trkpt lat="23.073619" lon="113.271479">
        <time>2026-09-16T22:03:22Z</time>
      </trkpt>
      <trkpt lat="23.073514" lon="113.271415">
        <time>2026-09-16T22:03:27Z</time>
      </trkpt>
      <trkpt lat="23.073404" lon="113.271363">
        <time>2026-09-16T22:03:32Z</time>
      </trkpt>
      <trkpt lat="23.073305" lon="113.271306">
        <time>2026-09-16T22:03:37Z</time>
      </trkpt>
      <trkpt lat="23.07323" lon="113.271217">
        <time>2026-09-16T22:03:42Z</time>
      </trkpt>
      <trkpt lat="23.073136" lon="113.271134">
        <time>2026-09-16T22:03:47Z</time>
      </trkpt>
      <trkpt lat="23.073018" lon="113.271074">
        <time>2026-09-16T22:03:52Z</time>
      </trkpt>
      <trkpt lat="23.072903" lon="113.271015">
        <time>2026-09-16T22:03:57Z</time>
      </trkpt>
      <trkpt lat="23.072783" lon="113.270936">
        <time>2026-09-16T22:04:02Z</time>
      </trkpt>
      <trkpt lat="23.072662" lon="113.270878">
        <time>2026-09-16T22:04:07Z</time>
      </trkpt>
      <trkpt lat="23.072532" lon="113.270835">
        <time>2026-09-16T22:04:12Z</time>
      </trkpt>
      <trkpt lat="23.072398" lon="113.27077">
        <time>2026-09-16T22:04:17Z</time>
      </trkpt>
      <trkpt lat="23.07227" lon="113.270702">
        <time>2026-09-16T22:04:22Z</time>
      </trkpt>
      <trkpt lat="23.072153" lon="113.270657">
        <time>2026-09-16T22:04:27Z</time>
      </trkpt>
      <trkpt lat="23.072028" lon="113.270614">
        <time>2026-09-16T22:04:32Z</time>
      </trkpt>
      <trkpt lat="23.071895" lon="113.270566">
        <time>2026-09-16T22:04:37Z</time>
      </trkpt>
      <trkpt lat="23.071774" lon="113.270519">
        <time>2026-09-16T22:04:42Z</time>
      </trkpt>
      <trkpt lat="23.07166" lon="113.270457">
        <time>2026-09-16T22:04:47Z</time>
      </trkpt>
      <trkpt lat="23.071559" lon="113.270365">
        <time>2026-09-16T22:04:52Z</time>
      </trkpt>
      <trkpt lat="23.071455" lon="113.27028">
        <time>2026-09-16T22:04:57Z</time>
      </trkpt>
      <trkpt lat="23.071336" lon="113.27021">
        <time>2026-09-16T22:05:02Z</time>
      </trkpt>
      <trkpt lat="23.071211" lon="113.270166">
        <time>2026-09-16T22:05:07Z</time>
      </trkpt>
      <trkpt lat="23.071085" lon="113.270113">
        <time>2026-09-16T22:05:12Z</time>
      </trkpt>
      <trkpt lat="23.070959" lon="113.270057">
        <time>2026-09-16T22:05:17Z</time>
      </trkpt>
      <trkpt lat="23.070842" lon="113.270011">
        <time>2026-09-16T22:05:22Z</time>
      </trkpt>
      <trkpt lat="23.07072" lon="113.269965">
        <time>2026-09-16T22:05:27Z</time>
      </trkpt>
      <trkpt lat="23.070599" lon="113.269906">
        <time>2026-09-16T22:05:32Z</time>
      </trkpt>
      <trkpt lat="23.070467" lon="113.269856">
        <time>2026-09-16T22:05:37Z</time>
      </trkpt>
      <trkpt lat="23.070332" lon="113.269811">
        <time>2026-09-16T22:05:42Z</time>
      </trkpt>
      <trkpt lat="23.070205" lon="113.269762">
        <time>2026-09-16T22:05:47Z</time>
      </trkpt>
      <trkpt lat="23.070079" lon="113.269686">
        <time>2026-09-16T22:05:52Z</time>
      </trkpt>
      <trkpt lat="23.069964" lon="113.269618">
        <time>2026-09-16T22:05:57Z</time>
      </trkpt>
      <trkpt lat="23.069848" lon="113.269559">
        <time>2026-09-16T22:06:02Z</time>
      </trkpt>
      <trkpt lat="23.069732" lon="113.269507">
        <time>2026-09-16T22:06:07Z</time>
      </trkpt>
      <trkpt lat="23.069615" lon="113.269443">
        <time>2026-09-16T22:06:12Z</time>
      </trkpt>
      <trkpt lat="23.069502" lon="113.269379">
        <time>2026-09-16T22:06:17Z</time>
      </trkpt>
      <trkpt lat="23.069389" lon="113.269324">
        <time>2026-09-16T22:06:22Z</time>
      </trkpt>
      <trkpt lat="23.069266" lon="113.269245">
        <time>2026-09-16T22:06:27Z</time>
      </trkpt>
      <trkpt lat="23.069143" lon="113.269203">
        <time>2026-09-16T22:06:32Z</time>
      </trkpt>
      <trkpt lat="23.069029" lon="113.269187">
        <time>2026-09-16T22:06:37Z</time>
      </trkpt>
      <trkpt lat="23.068904" lon="113.269153">
        <time>2026-09-16T22:06:42Z</time>
      </trkpt>
      <trkpt lat="23.068774" lon="113.269106">
        <time>2026-09-16T22:06:47Z</time>
      </trkpt>
      <trkpt lat="23.068659" lon="113.269056">
        <time>2026-09-16T22:06:52Z</time>
      </trkpt>
      <trkpt lat="23.06854" lon="113.269001">
        <time>2026-09-16T22:06:57Z</time>
      </trkpt>
      <trkpt lat="23.068433" lon="113.268956">
        <time>2026-09-16T22:07:02Z</time>
      </trkpt>
      <trkpt lat="23.068331" lon="113.268896">
        <time>2026-09-16T22:07:07Z</time>
      </trkpt>
      <trkpt lat="23.068228" lon="113.26881">
        <time>2026-09-16T22:07:12Z</time>
      </trkpt>
      <trkpt lat="23.068126" lon="113.268726">
        <time>2026-09-16T22:07:17Z</time>
      </trkpt>
      <trkpt lat="23.068018" lon="113.268612">
        <time>2026-09-16T22:07:22Z</time>
      </trkpt>
      <trkpt lat="23.067918" lon="113.268481">
        <time>2026-09-16T22:07:27Z</time>
      </trkpt>
      <trkpt lat="23.067808" lon="113.26841">
        <time>2026-09-16T22:07:32Z</time>
      </trkpt>
      <trkpt lat="23.067681" lon="113.268351">
        <time>2026-09-16T22:07:37Z</time>
      </trkpt>
      <trkpt lat="23.067559" lon="113.268306">
        <time>2026-09-16T22:07:42Z</time>
      </trkpt>
      <trkpt lat="23.067432" lon="113.268248">
        <time>2026-09-16T22:07:47Z</time>
      </trkpt>
      <trkpt lat="23.06731" lon="113.268196">
        <time>2026-09-16T22:07:52Z</time>
      </trkpt>
      <trkpt lat="23.067195" lon="113.268142">
        <time>2026-09-16T22:07:57Z</time>
      </trkpt>
      <trkpt lat="23.06709" lon="113.268085">
        <time>2026-09-16T22:08:02Z</time>
      </trkpt>
      <trkpt lat="23.066983" lon="113.268037">
        <time>2026-09-16T22:08:07Z</time>
      </trkpt>
      <trkpt lat="23.066863" lon="113.268007">
        <time>2026-09-16T22:08:12Z</time>
      </trkpt>
      <trkpt lat="23.06672" lon="113.267998">
        <time>2026-09-16T22:08:17Z</time>
      </trkpt>
      <trkpt lat="23.066583" lon="113.267968">
        <time>2026-09-16T22:08:22Z</time>
      </trkpt>
      <trkpt lat="23.066462" lon="113.267929">
        <time>2026-09-16T22:08:27Z</time>
      </trkpt>
      <trkpt lat="23.066341" lon="113.267928">
        <time>2026-09-16T22:08:32Z</time>
      </trkpt>
      <trkpt lat="23.066231" lon="113.267982">
        <time>2026-09-16T22:08:37Z</time>
      </trkpt>
      <trkpt lat="23.066132" lon="113.268072">
        <time>2026-09-16T22:08:42Z</time>
      </trkpt>
      <trkpt lat="23.066044" lon="113.268177">
        <time>2026-09-16T22:08:47Z</time>
      </trkpt>
      <trkpt lat="23.065968" lon="113.268287">
        <time>2026-09-16T22:08:52Z</time>
      </trkpt>
      <trkpt lat="23.065887" lon="113.268393">
        <time>2026-09-16T22:08:57Z</time>
      </trkpt>
      <trkpt lat="23.065813" lon="113.268508">
        <time>2026-09-16T22:09:02Z</time>
      </trkpt>
      <trkpt lat="23.065754" lon="113.268635">
        <time>2026-09-16T22:09:07Z</time>
      </trkpt>
      <trkpt lat="23.065701" lon="113.268764">
        <time>2026-09-16T22:09:12Z</time>
      </trkpt>
      <trkpt lat="23.065651" lon="113.268887">
        <time>2026-09-16T22:09:17Z</time>
      </trkpt>
      <trkpt lat="23.065617" lon="113.269022">
        <time>2026-09-16T22:09:22Z</time>
      </trkpt>
      <trkpt lat="23.065592" lon="113.269168">
        <time>2026-09-16T22:09:27Z</time>
      </trkpt>
      <trkpt lat="23.065556" lon="113.269294">
        <time>2026-09-16T22:09:32Z</time>
      </trkpt>
      <trkpt lat="23.065511" lon="113.269422">
        <time>2026-09-16T22:09:37Z</time>
      </trkpt>
      <trkpt lat="23.06547" lon="113.269559">
        <time>2026-09-16T22:09:42Z</time>
      </trkpt>
      <trkpt lat="23.065435" lon="113.269695">
        <time>2026-09-16T22:09:47Z</time>
      </trkpt>
      <trkpt lat="23.065394" lon="113.269832">
        <time>2026-09-16T22:09:52Z</time>
      </trkpt>
      <trkpt lat="23.065351" lon="113.269973">
        <time>2026-09-16T22:09:57Z</time>
      </trkpt>
      <trkpt lat="23.065307" lon="113.270109">
        <time>2026-09-16T22:10:02Z</time>
      </trkpt>
      <trkpt lat="23.06525" lon="113.270238">
        <time>2026-09-16T22:10:07Z</time>
      </trkpt>
      <trkpt lat="23.065193" lon="113.270364">
        <time>2026-09-16T22:10:12Z</time>
      </trkpt>
      <trkpt lat="23.065135" lon="113.270493">
        <time>2026-09-16T22:10:17Z</time>
      </trkpt>
      <trkpt lat="23.065075" lon="113.27062">
        <time>2026-09-16T22:10:22Z</time>
      </trkpt>
      <trkpt lat="23.065018" lon="113.270749">
        <time>2026-09-16T22:10:27Z</time>
      </trkpt>
      <trkpt lat="23.064963" lon="113.27088">
        <time>2026-09-16T22:10:32Z</time>
      </trkpt>
      <trkpt lat="23.064905" lon="113.271007">
        <time>2026-09-16T22:10:37Z</time>
      </trkpt>
      <trkpt lat="23.064845" lon="113.271131">
        <time>2026-09-16T22:10:42Z</time>
      </trkpt>
      <trkpt lat="23.064784" lon="113.27126">
        <time>2026-09-16T22:10:47Z</time>
      </trkpt>
      <trkpt lat="23.064722" lon="113.271385">
        <time>2026-09-16T22:10:52Z</time>
      </trkpt>
      <trkpt lat="23.064666" lon="113.271509">
        <time>2026-09-16T22:10:57Z</time>
      </trkpt>
      <trkpt lat="23.064612" lon="113.271638">
        <time>2026-09-16T22:11:02Z</time>
      </trkpt>
      <trkpt lat="23.064552" lon="113.271766">
        <time>2026-09-16T22:11:07Z</time>
      </trkpt>
      <trkpt lat="23.064491" lon="113.271891">
        <time>2026-09-16T22:11:12Z</time>
      </trkpt>
      <trkpt lat="23.064431" lon="113.272025">
        <time>2026-09-16T22:11:17Z</time>
      </trkpt>
      <trkpt lat="23.064371" lon="113.272165">
        <time>2026-09-16T22:11:22Z</time>
      </trkpt>
      <trkpt lat="23.06434" lon="113.272322">
        <time>2026-09-16T22:11:27Z</time>
      </trkpt>
      <trkpt lat="23.064334" lon="113.272487">
        <time>2026-09-16T22:11:32Z</time>
      </trkpt>
      <trkpt lat="23.064347" lon="113.272652">
        <time>2026-09-16T22:11:37Z</time>
      </trkpt>
      <trkpt lat="23.064392" lon="113.272818">
        <time>2026-09-16T22:11:42Z</time>
      </trkpt>
      <trkpt lat="23.064441" lon="113.272981">
        <time>2026-09-16T22:11:47Z</time>
      </trkpt>
      <trkpt lat="23.064474" lon="113.273143">
        <time>2026-09-16T22:11:52Z</time>
      </trkpt>
      <trkpt lat="23.064436" lon="113.273296">
        <time>2026-09-16T22:11:57Z</time>
      </trkpt>
      <trkpt lat="23.064315" lon="113.273412">
        <time>2026-09-16T22:12:02Z</time>
      </trkpt>
      <trkpt lat="23.064174" lon="113.273519">
        <time>2026-09-16T22:12:07Z</time>
      </trkpt>
      <trkpt lat="23.064036" lon="113.273621">
        <time>2026-09-16T22:12:12Z</time>
      </trkpt>
      <trkpt lat="23.063914" lon="113.273735">
        <time>2026-09-16T22:12:17Z</time>
      </trkpt>
      <trkpt lat="23.063824" lon="113.273873">
        <time>2026-09-16T22:12:22Z</time>
      </trkpt>
      <trkpt lat="23.063736" lon="113.274023">
        <time>2026-09-16T22:12:27Z</time>
      </trkpt>
      <trkpt lat="23.063617" lon="113.274144">
        <time>2026-09-16T22:12:32Z</time>
      </trkpt>
      <trkpt lat="23.063496" lon="113.274268">
        <time>2026-09-16T22:12:37Z</time>
      </trkpt>
      <trkpt lat="23.063435" lon="113.274445">
        <time>2026-09-16T22:12:42Z</time>
      </trkpt>
      <trkpt lat="23.063385" lon="113.274626">
        <time>2026-09-16T22:12:47Z</time>
      </trkpt>
      <trkpt lat="23.063326" lon="113.274802">
        <time>2026-09-16T22:12:52Z</time>
      </trkpt>
      <trkpt lat="23.063269" lon="113.274982">
        <time>2026-09-16T22:12:57Z</time>
      </trkpt>
      <trkpt lat="23.06319" lon="113.27515">
        <time>2026-09-16T22:13:02Z</time>
      </trkpt>
      <trkpt lat="23.063096" lon="113.275305">
        <time>2026-09-16T22:13:07Z</time>
      </trkpt>
      <trkpt lat="23.063013" lon="113.275459">
        <time>2026-09-16T22:13:12Z</time>
      </trkpt>
      <trkpt lat="23.062911" lon="113.275597">
        <time>2026-09-16T22:13:17Z</time>
      </trkpt>
      <trkpt lat="23.062794" lon="113.275719">
        <time>2026-09-16T22:13:22Z</time>
      </trkpt>
      <trkpt lat="23.062675" lon="113.275835">
        <time>2026-09-16T22:13:27Z</time>
      </trkpt>
      <trkpt lat="23.062568" lon="113.275972">
        <time>2026-09-16T22:13:32Z</time>
      </trkpt>
      <trkpt lat="23.062478" lon="113.276121">
        <time>2026-09-16T22:13:37Z</time>
      </trkpt>
      <trkpt lat="23.06241" lon="113.276278">
        <time>2026-09-16T22:13:42Z</time>
      </trkpt>
      <trkpt lat="23.062352" lon="113.276436">
        <time>2026-09-16T22:13:47Z</time>
      </trkpt>
      <trkpt lat="23.062297" lon="113.276593">
        <time>2026-09-16T22:13:52Z</time>
      </trkpt>
      <trkpt lat="23.062243" lon="113.276751">
        <time>2026-09-16T22:13:57Z</time>
      </trkpt>
      <trkpt lat="23.062189" lon="113.276909">
        <time>2026-09-16T22:14:02Z</time>
      </trkpt>
      <trkpt lat="23.062125" lon="113.277067">
        <time>2026-09-16T22:14:07Z</time>
      </trkpt>
      <trkpt lat="23.062062" lon="113.277235">
        <time>2026-09-16T22:14:12Z</time>
      </trkpt>
      <trkpt lat="23.061999" lon="113.277405">
        <time>2026-09-16T22:14:17Z</time>
      </trkpt>
      <trkpt lat="23.061932" lon="113.277566">
        <time>2026-09-16T22:14:22Z</time>
      </trkpt>
      <trkpt lat="23.061872" lon="113.277729">
        <time>2026-09-16T22:14:27Z</time>
      </trkpt>
      <trkpt lat="23.061851" lon="113.277902">
        <time>2026-09-16T22:14:32Z</time>
      </trkpt>
      <trkpt lat="23.061859" lon="113.278072">
        <time>2026-09-16T22:14:37Z</time>
      </trkpt>
      <trkpt lat="23.06187" lon="113.278244">
        <time>2026-09-16T22:14:42Z</time>
      </trkpt>
      <trkpt lat="23.06188" lon="113.278412">
        <time>2026-09-16T22:14:47Z</time>
      </trkpt>
      <trkpt lat="23.061886" lon="113.278585">
        <time>2026-09-16T22:14:52Z</time>
      </trkpt>
      <trkpt lat="23.061863" lon="113.278755">
        <time>2026-09-16T22:14:57Z</time>
      </trkpt>
      <trkpt lat="23.06179" lon="113.278915">
        <time>2026-09-16T22:15:02Z</time>
      </trkpt>
      <trkpt lat="23.061696" lon="113.279065">
        <time>2026-09-16T22:15:07Z</time>
      </trkpt>
      <trkpt lat="23.061616" lon="113.279211">
        <time>2026-09-16T22:15:12Z</time>
      </trkpt>
      <trkpt lat="23.061552" lon="113.279361">
        <time>2026-09-16T22:15:17Z</time>
      </trkpt>
      <trkpt lat="23.061486" lon="113.279541">
        <time>2026-09-16T22:15:22Z</time>
      </trkpt>
      <trkpt lat="23.061417" lon="113.279722">
        <time>2026-09-16T22:15:27Z</time>
      </trkpt>
      <trkpt lat="23.061346" lon="113.279897">
        <time>2026-09-16T22:15:32Z</time>
      </trkpt>
      <trkpt lat="23.061275" lon="113.280068">
        <time>2026-09-16T22:15:37Z</time>
      </trkpt>
      <trkpt lat="23.0612" lon="113.280234">
        <time>2026-09-16T22:15:42Z</time>
      </trkpt>
      <trkpt lat="23.061132" lon="113.280399">
        <time>2026-09-16T22:15:47Z</time>
      </trkpt>
      <trkpt lat="23.061061" lon="113.280563">
        <time>2026-09-16T22:15:52Z</time>
      </trkpt>
      <trkpt lat="23.060989" lon="113.28073">
        <time>2026-09-16T22:15:57Z</time>
      </trkpt>
      <trkpt lat="23.060914" lon="113.280895">
        <time>2026-09-16T22:16:02Z</time>
      </trkpt>
      <trkpt lat="23.060848" lon="113.281063">
        <time>2026-09-16T22:16:07Z</time>
      </trkpt>
      <trkpt lat="23.060779" lon="113.281228">
        <time>2026-09-16T22:16:12Z</time>
      </trkpt>
      <trkpt lat="23.060708" lon="113.281388">
        <time>2026-09-16T22:16:17Z</time>
      </trkpt>
      <trkpt lat="23.060632" lon="113.281554">
        <time>2026-09-16T22:16:22Z</time>
      </trkpt>
      <trkpt lat="23.060561" lon="113.281721">
        <time>2026-09-16T22:16:27Z</time>
      </trkpt>
      <trkpt lat="23.060493" lon="113.281889">
        <time>2026-09-16T22:16:32Z</time>
      </trkpt>
      <trkpt lat="23.060423" lon="113.282053">
        <time>2026-09-16T22:16:37Z</time>
      </trkpt>
      <trkpt lat="23.060355" lon="113.282205">
        <time>2026-09-16T22:16:42Z</time>
      </trkpt>
      <trkpt lat="23.06028" lon="113.282364">
        <time>2026-09-16T22:16:47Z</time>
      </trkpt>
      <trkpt lat="23.060199" lon="113.282525">
        <time>2026-09-16T22:16:52Z</time>
      </trkpt>
      <trkpt lat="23.060132" lon="113.28269">
        <time>2026-09-16T22:16:57Z</time>
      </trkpt>
      <trkpt lat="23.060071" lon="113.282848">
        <time>2026-09-16T22:17:02Z</time>
      </trkpt>
      <trkpt lat="23.060009" lon="113.283004">
        <time>2026-09-16T22:17:07Z</time>
      </trkpt>
      <trkpt lat="23.059953" lon="113.283157">
        <time>2026-09-16T22:17:12Z</time>
      </trkpt>
      <trkpt lat="23.059889" lon="113.283315">
        <time>2026-09-16T22:17:17Z</time>
      </trkpt>
      <trkpt lat="23.059821" lon="113.28348">
        <time>2026-09-16T22:17:22Z</time>
      </trkpt>
      <trkpt lat="23.059756" lon="113.28364">
        <time>2026-09-16T22:17:27Z</time>
      </trkpt>
      <trkpt lat="23.059685" lon="113.283799">
        <time>2026-09-16T22:17:32Z</time>
      </trkpt>
      <trkpt lat="23.059613" lon="113.283958">
        <time>2026-09-16T22:17:37Z</time>
      </trkpt>
      <trkpt lat="23.059542" lon="113.284123">
        <time>2026-09-16T22:17:42Z</time>
      </trkpt>
      <trkpt lat="23.059467" lon="113.284289">
        <time>2026-09-16T22:17:47Z</time>
      </trkpt>
      <trkpt lat="23.059393" lon="113.284455">
        <time>2026-09-16T22:17:52Z</time>
      </trkpt>
      <trkpt lat="23.059317" lon="113.284616">
        <time>2026-09-16T22:17:57Z</time>
      </trkpt>
      <trkpt lat="23.059246" lon="113.284772">
        <time>2026-09-16T22:18:02Z</time>
      </trkpt>
      <trkpt lat="23.059179" lon="113.284929">
        <time>2026-09-16T22:18:07Z</time>
      </trkpt>
      <trkpt lat="23.059107" lon="113.285093">
        <time>2026-09-16T22:18:12Z</time>
      </trkpt>
      <trkpt lat="23.05903" lon="113.285259">
        <time>2026-09-16T22:18:17Z</time>
      </trkpt>
      <trkpt lat="23.058952" lon="113.285428">
        <time>2026-09-16T22:18:22Z</time>
      </trkpt>
      <trkpt lat="23.058879" lon="113.285592">
        <time>2026-09-16T22:18:27Z</time>
      </trkpt>
      <trkpt lat="23.05881" lon="113.285754">
        <time>2026-09-16T22:18:32Z</time>
      </trkpt>
      <trkpt lat="23.058749" lon="113.285913">
        <time>2026-09-16T22:18:37Z</time>
      </trkpt>
      <trkpt lat="23.058689" lon="113.286076">
        <time>2026-09-16T22:18:42Z</time>
      </trkpt>
      <trkpt lat="23.058689" lon="113.286252">
        <time>2026-09-16T22:18:47Z</time>
      </trkpt>
      <trkpt lat="23.058808" lon="113.286352">
        <time>2026-09-16T22:18:52Z</time>
      </trkpt>
      <trkpt lat="23.058976" lon="113.28638">
        <time>2026-09-16T22:18:57Z</time>
      </trkpt>
      <trkpt lat="23.059137" lon="113.286398">
        <time>2026-09-16T22:19:02Z</time>
      </trkpt>
      <trkpt lat="23.059287" lon="113.286429">
        <time>2026-09-16T22:19:07Z</time>
      </trkpt>
      <trkpt lat="23.059444" lon="113.286437">
        <time>2026-09-16T22:19:12Z</time>
      </trkpt>
      <trkpt lat="23.059603" lon="113.286433">
        <time>2026-09-16T22:19:17Z</time>
      </trkpt>
      <trkpt lat="23.059755" lon="113.286445">
        <time>2026-09-16T22:19:22Z</time>
      </trkpt>
      <trkpt lat="23.059907" lon="113.286463">
        <time>2026-09-16T22:19:27Z</time>
      </trkpt>
      <trkpt lat="23.060068" lon="113.286498">
        <time>2026-09-16T22:19:32Z</time>
      </trkpt>
      <trkpt lat="23.060165" lon="113.286619">
        <time>2026-09-16T22:19:37Z</time>
      </trkpt>
      <trkpt lat="23.060186" lon="113.286804">
        <time>2026-09-16T22:19:42Z</time>
      </trkpt>
      <trkpt lat="23.060214" lon="113.286974">
        <time>2026-09-16T22:19:47Z</time>
      </trkpt>
      <trkpt lat="23.060235" lon="113.287148">
        <time>2026-09-16T22:19:52Z</time>
      </trkpt>
      <trkpt lat="23.060254" lon="113.287355">
        <time>2026-09-16T22:19:57Z</time>
      </trkpt>
      <trkpt lat="23.0603" lon="113.287534">
        <time>2026-09-16T22:20:02Z</time>
      </trkpt>
      <trkpt lat="23.06032" lon="113.287695">
        <time>2026-09-16T22:20:07Z</time>
      </trkpt>
      <trkpt lat="23.060311" lon="113.287867">
        <time>2026-09-16T22:20:12Z</time>
      </trkpt>
      <trkpt lat="23.060386" lon="113.287852">
        <time>2026-09-16T22:20:17Z</time>
      </trkpt>
      <trkpt lat="23.060379" lon="113.287668">
        <time>2026-09-16T22:20:22Z</time>
      </trkpt>
      <trkpt lat="23.060353" lon="113.287518">
        <time>2026-09-16T22:20:27Z</time>
      </trkpt>
      <trkpt lat="23.060307" lon="113.287364">
        <time>2026-09-16T22:20:32Z</time>
      </trkpt>
      <trkpt lat="23.06027" lon="113.287193">
        <time>2026-09-16T22:20:37Z</time>
      </trkpt>
      <trkpt lat="23.06026" lon="113.287022">
        <time>2026-09-16T22:20:42Z</time>
      </trkpt>
      <trkpt lat="23.060273" lon="113.286808">
        <time>2026-09-16T22:20:47Z</time>
      </trkpt>
      <trkpt lat="23.060249" lon="113.286648">
        <time>2026-09-16T22:20:52Z</time>
      </trkpt>
      <trkpt lat="23.060139" lon="113.286495">
        <time>2026-09-16T22:20:57Z</time>
      </trkpt>
      <trkpt lat="23.05997" lon="113.286413">
        <time>2026-09-16T22:21:02Z</time>
      </trkpt>
      <trkpt lat="23.059801" lon="113.286375">
        <time>2026-09-16T22:21:07Z</time>
      </trkpt>
      <trkpt lat="23.059627" lon="113.286332">
        <time>2026-09-16T22:21:12Z</time>
      </trkpt>
      <trkpt lat="23.059455" lon="113.286288">
        <time>2026-09-16T22:21:17Z</time>
      </trkpt>
      <trkpt lat="23.059279" lon="113.286267">
        <time>2026-09-16T22:21:22Z</time>
      </trkpt>
      <trkpt lat="23.059091" lon="113.286256">
        <time>2026-09-16T22:21:27Z</time>
      </trkpt>
      <trkpt lat="23.058906" lon="113.286244">
        <time>2026-09-16T22:21:32Z</time>
      </trkpt>
      <trkpt lat="23.058754" lon="113.286161">
        <time>2026-09-16T22:21:37Z</time>
      </trkpt>
      <trkpt lat="23.058771" lon="113.285999">
        <time>2026-09-16T22:21:42Z</time>
      </trkpt>
      <trkpt lat="23.058854" lon="113.285828">
        <time>2026-09-16T22:21:47Z</time>
      </trkpt>
      <trkpt lat="23.058925" lon="113.285672">
        <time>2026-09-16T22:21:52Z</time>
      </trkpt>
      <trkpt lat="23.058993" lon="113.285513">
        <time>2026-09-16T22:21:57Z</time>
      </trkpt>
      <trkpt lat="23.059065" lon="113.285357">
        <time>2026-09-16T22:22:02Z</time>
      </trkpt>
      <trkpt lat="23.059134" lon="113.285199">
        <time>2026-09-16T22:22:07Z</time>
      </trkpt>
      <trkpt lat="23.059208" lon="113.285038">
        <time>2026-09-16T22:22:12Z</time>
      </trkpt>
      <trkpt lat="23.059283" lon="113.284878">
        <time>2026-09-16T22:22:17Z</time>
      </trkpt>
      <trkpt lat="23.059355" lon="113.284713">
        <time>2026-09-16T22:22:22Z</time>
      </trkpt>
      <trkpt lat="23.059423" lon="113.284552">
        <time>2026-09-16T22:22:27Z</time>
      </trkpt>
      <trkpt lat="23.0595" lon="113.284399">
        <time>2026-09-16T22:22:32Z</time>
      </trkpt>
      <trkpt lat="23.059567" lon="113.284256">
        <time>2026-09-16T22:22:37Z</time>
      </trkpt>
      <trkpt lat="23.059635" lon="113.284104">
        <time>2026-09-16T22:22:42Z</time>
      </trkpt>
      <trkpt lat="23.059713" lon="113.283948">
        <time>2026-09-16T22:22:47Z</time>
      </trkpt>
      <trkpt lat="23.059787" lon="113.283787">
        <time>2026-09-16T22:22:52Z</time>
      </trkpt>
      <trkpt lat="23.059862" lon="113.283621">
        <time>2026-09-16T22:22:57Z</time>
      </trkpt>
      <trkpt lat="23.059934" lon="113.283452">
        <time>2026-09-16T22:23:02Z</time>
      </trkpt>
      <trkpt lat="23.060005" lon="113.283291">
        <time>2026-09-16T22:23:07Z</time>
      </trkpt>
      <trkpt lat="23.060087" lon="113.283138">
        <time>2026-09-16T22:23:12Z</time>
      </trkpt>
      <trkpt lat="23.060169" lon="113.282982">
        <time>2026-09-16T22:23:17Z</time>
      </trkpt>
      <trkpt lat="23.060239" lon="113.282831">
        <time>2026-09-16T22:23:22Z</time>
      </trkpt>
      <trkpt lat="23.060318" lon="113.282683">
        <time>2026-09-16T22:23:27Z</time>
      </trkpt>
      <trkpt lat="23.060397" lon="113.282524">
        <time>2026-09-16T22:23:32Z</time>
      </trkpt>
      <trkpt lat="23.060467" lon="113.282364">
        <time>2026-09-16T22:23:37Z</time>
      </trkpt>
      <trkpt lat="23.060527" lon="113.282209">
        <time>2026-09-16T22:23:42Z</time>
      </trkpt>
      <trkpt lat="23.060583" lon="113.282053">
        <time>2026-09-16T22:23:47Z</time>
      </trkpt>
      <trkpt lat="23.060635" lon="113.281888">
        <time>2026-09-16T22:23:52Z</time>
      </trkpt>
      <trkpt lat="23.060691" lon="113.281726">
        <time>2026-09-16T22:23:57Z</time>
      </trkpt>
      <trkpt lat="23.060746" lon="113.281572">
        <time>2026-09-16T22:24:02Z</time>
      </trkpt>
      <trkpt lat="23.060799" lon="113.281418">
        <time>2026-09-16T22:24:07Z</time>
      </trkpt>
      <trkpt lat="23.060858" lon="113.281264">
        <time>2026-09-16T22:24:12Z</time>
      </trkpt>
      <trkpt lat="23.060918" lon="113.281115">
        <time>2026-09-16T22:24:17Z</time>
      </trkpt>
      <trkpt lat="23.060977" lon="113.280965">
        <time>2026-09-16T22:24:22Z</time>
      </trkpt>
      <trkpt lat="23.061039" lon="113.280807">
        <time>2026-09-16T22:24:27Z</time>
      </trkpt>
      <trkpt lat="23.061109" lon="113.280645">
        <time>2026-09-16T22:24:32Z</time>
      </trkpt>
      <trkpt lat="23.061173" lon="113.280481">
        <time>2026-09-16T22:24:37Z</time>
      </trkpt>
      <trkpt lat="23.061242" lon="113.280325">
        <time>2026-09-16T22:24:42Z</time>
      </trkpt>
      <trkpt lat="23.061318" lon="113.280168">
        <time>2026-09-16T22:24:47Z</time>
      </trkpt>
      <trkpt lat="23.061399" lon="113.280015">
        <time>2026-09-16T22:24:52Z</time>
      </trkpt>
      <trkpt lat="23.061465" lon="113.27987">
        <time>2026-09-16T22:24:57Z</time>
      </trkpt>
      <trkpt lat="23.061525" lon="113.279723">
        <time>2026-09-16T22:25:02Z</time>
      </trkpt>
      <trkpt lat="23.061593" lon="113.279571">
        <time>2026-09-16T22:25:07Z</time>
      </trkpt>
      <trkpt lat="23.061649" lon="113.279402">
        <time>2026-09-16T22:25:12Z</time>
      </trkpt>
      <trkpt lat="23.061712" lon="113.279234">
        <time>2026-09-16T22:25:17Z</time>
      </trkpt>
      <trkpt lat="23.061793" lon="113.279081">
        <time>2026-09-16T22:25:22Z</time>
      </trkpt>
      <trkpt lat="23.061882" lon="113.278936">
        <time>2026-09-16T22:25:27Z</time>
      </trkpt>
      <trkpt lat="23.06196" lon="113.278781">
        <time>2026-09-16T22:25:32Z</time>
      </trkpt>
      <trkpt lat="23.061986" lon="113.278608">
        <time>2026-09-16T22:25:37Z</time>
      </trkpt>
      <trkpt lat="23.06196" lon="113.278425">
        <time>2026-09-16T22:25:42Z</time>
      </trkpt>
      <trkpt lat="23.061944" lon="113.278242">
        <time>2026-09-16T22:25:47Z</time>
      </trkpt>
      <trkpt lat="23.061936" lon="113.278062">
        <time>2026-09-16T22:25:52Z</time>
      </trkpt>
      <trkpt lat="23.061929" lon="113.277888">
        <time>2026-09-16T22:25:57Z</time>
      </trkpt>
      <trkpt lat="23.061946" lon="113.27772">
        <time>2026-09-16T22:26:02Z</time>
      </trkpt>
      <trkpt lat="23.062" lon="113.277557">
        <time>2026-09-16T22:26:07Z</time>
      </trkpt>
      <trkpt lat="23.062065" lon="113.277406">
        <time>2026-09-16T22:26:12Z</time>
      </trkpt>
      <trkpt lat="23.062127" lon="113.277251">
        <time>2026-09-16T22:26:17Z</time>
      </trkpt>
      <trkpt lat="23.062179" lon="113.277095">
        <time>2026-09-16T22:26:22Z</time>
      </trkpt>
      <trkpt lat="23.062238" lon="113.276939">
        <time>2026-09-16T22:26:27Z</time>
      </trkpt>
      <trkpt lat="23.062299" lon="113.276782">
        <time>2026-09-16T22:26:32Z</time>
      </trkpt>
      <trkpt lat="23.062364" lon="113.276625">
        <time>2026-09-16T22:26:37Z</time>
      </trkpt>
      <trkpt lat="23.062423" lon="113.276467">
        <time>2026-09-16T22:26:42Z</time>
      </trkpt>
      <trkpt lat="23.062478" lon="113.276311">
        <time>2026-09-16T22:26:47Z</time>
      </trkpt>
      <trkpt lat="23.06254" lon="113.276154">
        <time>2026-09-16T22:26:52Z</time>
      </trkpt>
      <trkpt lat="23.062623" lon="113.276011">
        <time>2026-09-16T22:26:57Z</time>
      </trkpt>
      <trkpt lat="23.06273" lon="113.275881">
        <time>2026-09-16T22:27:02Z</time>
      </trkpt>
      <trkpt lat="23.062851" lon="113.275766">
        <time>2026-09-16T22:27:07Z</time>
      </trkpt>
      <trkpt lat="23.062974" lon="113.275651">
        <time>2026-09-16T22:27:12Z</time>
      </trkpt>
      <trkpt lat="23.063076" lon="113.275511">
        <time>2026-09-16T22:27:17Z</time>
      </trkpt>
      <trkpt lat="23.063165" lon="113.275352">
        <time>2026-09-16T22:27:22Z</time>
      </trkpt>
      <trkpt lat="23.06326" lon="113.275194">
        <time>2026-09-16T22:27:27Z</time>
      </trkpt>
      <trkpt lat="23.063352" lon="113.275042">
        <time>2026-09-16T22:27:32Z</time>
      </trkpt>
      <trkpt lat="23.063408" lon="113.274885">
        <time>2026-09-16T22:27:37Z</time>
      </trkpt>
      <trkpt lat="23.063456" lon="113.274739">
        <time>2026-09-16T22:27:42Z</time>
      </trkpt>
      <trkpt lat="23.063501" lon="113.274603">
        <time>2026-09-16T22:27:47Z</time>
      </trkpt>
      <trkpt lat="23.063557" lon="113.274455">
        <time>2026-09-16T22:27:52Z</time>
      </trkpt>
      <trkpt lat="23.063645" lon="113.274319">
        <time>2026-09-16T22:27:57Z</time>
      </trkpt>
      <trkpt lat="23.063744" lon="113.274201">
        <time>2026-09-16T22:28:02Z</time>
      </trkpt>
      <trkpt lat="23.063839" lon="113.274072">
        <time>2026-09-16T22:28:07Z</time>
      </trkpt>
      <trkpt lat="23.063922" lon="113.273924">
        <time>2026-09-16T22:28:12Z</time>
      </trkpt>
      <trkpt lat="23.064009" lon="113.273782">
        <time>2026-09-16T22:28:17Z</time>
      </trkpt>
      <trkpt lat="23.064123" lon="113.273667">
        <time>2026-09-16T22:28:22Z</time>
      </trkpt>
      <trkpt lat="23.06425" lon="113.273573">
        <time>2026-09-16T22:28:27Z</time>
      </trkpt>
      <trkpt lat="23.064375" lon="113.273474">
        <time>2026-09-16T22:28:32Z</time>
      </trkpt>
      <trkpt lat="23.064494" lon="113.273368">
        <time>2026-09-16T22:28:37Z</time>
      </trkpt>
      <trkpt lat="23.064575" lon="113.273232">
        <time>2026-09-16T22:28:42Z</time>
      </trkpt>
      <trkpt lat="23.064567" lon="113.273063">
        <time>2026-09-16T22:28:47Z</time>
      </trkpt>
      <trkpt lat="23.064498" lon="113.27289">
        <time>2026-09-16T22:28:52Z</time>
      </trkpt>
      <trkpt lat="23.064438" lon="113.272725">
        <time>2026-09-16T22:28:57Z</time>
      </trkpt>
      <trkpt lat="23.064429" lon="113.272557">
        <time>2026-09-16T22:29:02Z</time>
      </trkpt>
      <trkpt lat="23.064492" lon="113.272393">
        <time>2026-09-16T22:29:07Z</time>
      </trkpt>
      <trkpt lat="23.064549" lon="113.272229">
        <time>2026-09-16T22:29:12Z</time>
      </trkpt>
      <trkpt lat="23.064622" lon="113.272076">
        <time>2026-09-16T22:29:17Z</time>
      </trkpt>
      <trkpt lat="23.064695" lon="113.27193">
        <time>2026-09-16T22:29:22Z</time>
      </trkpt>
      <trkpt lat="23.064772" lon="113.271781">
        <time>2026-09-16T22:29:27Z</time>
      </trkpt>
      <trkpt lat="23.064861" lon="113.27163">
        <time>2026-09-16T22:29:32Z</time>
      </trkpt>
      <trkpt lat="23.064941" lon="113.271468">
        <time>2026-09-16T22:29:37Z</time>
      </trkpt>
      <trkpt lat="23.065013" lon="113.271322">
        <time>2026-09-16T22:29:42Z</time>
      </trkpt>
      <trkpt lat="23.065091" lon="113.271165">
        <time>2026-09-16T22:29:47Z</time>
      </trkpt>
      <trkpt lat="23.065162" lon="113.271">
        <time>2026-09-16T22:29:52Z</time>
      </trkpt>
      <trkpt lat="23.065234" lon="113.270835">
        <time>2026-09-16T22:29:57Z</time>
      </trkpt>
      <trkpt lat="23.065299" lon="113.270678">
        <time>2026-09-16T22:30:02Z</time>
      </trkpt>
      <trkpt lat="23.065368" lon="113.27052">
        <time>2026-09-16T22:30:07Z</time>
      </trkpt>
      <trkpt lat="23.065438" lon="113.270359">
        <time>2026-09-16T22:30:12Z</time>
      </trkpt>
      <trkpt lat="23.065514" lon="113.270203">
        <time>2026-09-16T22:30:17Z</time>
      </trkpt>
      <trkpt lat="23.065572" lon="113.270046">
        <time>2026-09-16T22:30:22Z</time>
      </trkpt>
      <trkpt lat="23.065616" lon="113.269877">
        <time>2026-09-16T22:30:27Z</time>
      </trkpt>
      <trkpt lat="23.065654" lon="113.269719">
        <time>2026-09-16T22:30:32Z</time>
      </trkpt>
      <trkpt lat="23.065693" lon="113.26957">
        <time>2026-09-16T22:30:37Z</time>
      </trkpt>
      <trkpt lat="23.065757" lon="113.269419">
        <time>2026-09-16T22:30:42Z</time>
      </trkpt>
      <trkpt lat="23.065799" lon="113.269254">
        <time>2026-09-16T22:30:47Z</time>
      </trkpt>
      <trkpt lat="23.065849" lon="113.269091">
        <time>2026-09-16T22:30:52Z</time>
      </trkpt>
      <trkpt lat="23.065913" lon="113.268936">
        <time>2026-09-16T22:30:57Z</time>
      </trkpt>
      <trkpt lat="23.065983" lon="113.268787">
        <time>2026-09-16T22:31:02Z</time>
      </trkpt>
      <trkpt lat="23.066051" lon="113.268643">
        <time>2026-09-16T22:31:07Z</time>
      </trkpt>
      <trkpt lat="23.066131" lon="113.268504">
        <time>2026-09-16T22:31:12Z</time>
      </trkpt>
      <trkpt lat="23.06622" lon="113.268372">
        <time>2026-09-16T22:31:17Z</time>
      </trkpt>
      <trkpt lat="23.066321" lon="113.268244">
        <time>2026-09-16T22:31:22Z</time>
      </trkpt>
      <trkpt lat="23.066452" lon="113.268156">
        <time>2026-09-16T22:31:27Z</time>
      </trkpt>
      <trkpt lat="23.066603" lon="113.268147">
        <time>2026-09-16T22:31:32Z</time>
      </trkpt>
      <trkpt lat="23.066687" lon="113.268093">
        <time>2026-09-16T22:31:37Z</time>
      </trkpt>
      <trkpt lat="23.066566" lon="113.267987">
        <time>2026-09-16T22:31:42Z</time>
      </trkpt>
      <trkpt lat="23.066403" lon="113.267947">
        <time>2026-09-16T22:31:47Z</time>
      </trkpt>
      <trkpt lat="23.066253" lon="113.26798">
        <time>2026-09-16T22:31:52Z</time>
      </trkpt>
      <trkpt lat="23.066132" lon="113.268089">
        <time>2026-09-16T22:31:57Z</time>
      </trkpt>
      <trkpt lat="23.066027" lon="113.268219">
        <time>2026-09-16T22:32:02Z</time>
      </trkpt>
      <trkpt lat="23.065936" lon="113.268346">
        <time>2026-09-16T22:32:07Z</time>
      </trkpt>
      <trkpt lat="23.065849" lon="113.268484">
        <time>2026-09-16T22:32:12Z</time>
      </trkpt>
      <trkpt lat="23.065765" lon="113.268628">
        <time>2026-09-16T22:32:17Z</time>
      </trkpt>
      <trkpt lat="23.065697" lon="113.268776">
        <time>2026-09-16T22:32:22Z</time>
      </trkpt>
      <trkpt lat="23.065635" lon="113.268937">
        <time>2026-09-16T22:32:27Z</time>
      </trkpt>
      <trkpt lat="23.065582" lon="113.269105">
        <time>2026-09-16T22:32:32Z</time>
      </trkpt>
      <trkpt lat="23.065536" lon="113.269276">
        <time>2026-09-16T22:32:37Z</time>
      </trkpt>
      <trkpt lat="23.065487" lon="113.269446">
        <time>2026-09-16T22:32:42Z</time>
      </trkpt>
      <trkpt lat="23.065447" lon="113.269609">
        <time>2026-09-16T22:32:47Z</time>
      </trkpt>
      <trkpt lat="23.065414" lon="113.26977">
        <time>2026-09-16T22:32:52Z</time>
      </trkpt>
      <trkpt lat="23.065371" lon="113.269925">
        <time>2026-09-16T22:32:57Z</time>
      </trkpt>
      <trkpt lat="23.065313" lon="113.270081">
        <time>2026-09-16T22:33:02Z</time>
      </trkpt>
      <trkpt lat="23.065246" lon="113.270239">
        <time>2026-09-16T22:33:07Z</time>
      </trkpt>
      <trkpt lat="23.065176" lon="113.270393">
        <time>2026-09-16T22:33:12Z</time>
      </trkpt>
      <trkpt lat="23.065109" lon="113.270552">
        <time>2026-09-16T22:33:17Z</time>
      </trkpt>
      <trkpt lat="23.065039" lon="113.270714">
        <time>2026-09-16T22:33:22Z</time>
      </trkpt>
      <trkpt lat="23.064964" lon="113.270868">
        <time>2026-09-16T22:33:27Z</time>
      </trkpt>
      <trkpt lat="23.06489" lon="113.271016">
        <time>2026-09-16T22:33:32Z</time>
      </trkpt>
      <trkpt lat="23.064821" lon="113.27117">
        <time>2026-09-16T22:33:37Z</time>
      </trkpt>
      <trkpt lat="23.064758" lon="113.271322">
        <time>2026-09-16T22:33:42Z</time>
      </trkpt>
      <trkpt lat="23.06469" lon="113.271472">
        <time>2026-09-16T22:33:47Z</time>
      </trkpt>
      <trkpt lat="23.064622" lon="113.271624">
        <time>2026-09-16T22:33:52Z</time>
      </trkpt>
      <trkpt lat="23.064551" lon="113.271781">
        <time>2026-09-16T22:33:57Z</time>
      </trkpt>
      <trkpt lat="23.064472" lon="113.271927">
        <time>2026-09-16T22:34:02Z</time>
      </trkpt>
      <trkpt lat="23.064396" lon="113.272086">
        <time>2026-09-16T22:34:07Z</time>
      </trkpt>
      <trkpt lat="23.064328" lon="113.272255">
        <time>2026-09-16T22:34:12Z</time>
      </trkpt>
      <trkpt lat="23.064302" lon="113.272425">
        <time>2026-09-16T22:34:17Z</time>
      </trkpt>
      <trkpt lat="23.064302" lon="113.272592">
        <time>2026-09-16T22:34:22Z</time>
      </trkpt>
      <trkpt lat="23.064339" lon="113.272758">
        <time>2026-09-16T22:34:27Z</time>
      </trkpt>
      <trkpt lat="23.064396" lon="113.272913">
        <time>2026-09-16T22:34:32Z</time>
      </trkpt>
      <trkpt lat="23.064454" lon="113.273063">
        <time>2026-09-16T22:34:37Z</time>
      </trkpt>
      <trkpt lat="23.064471" lon="113.273217">
        <time>2026-09-16T22:34:42Z</time>
      </trkpt>
      <trkpt lat="23.064394" lon="113.273349">
        <time>2026-09-16T22:34:47Z</time>
      </trkpt>
      <trkpt lat="23.064253" lon="113.273449">
        <time>2026-09-16T22:34:52Z</time>
      </trkpt>
      <trkpt lat="23.064115" lon="113.273544">
        <time>2026-09-16T22:34:57Z</time>
      </trkpt>
      <trkpt lat="23.063989" lon="113.273645">
        <time>2026-09-16T22:35:02Z</time>
      </trkpt>
      <trkpt lat="23.063889" lon="113.273767">
        <time>2026-09-16T22:35:07Z</time>
      </trkpt>
      <trkpt lat="23.063807" lon="113.273904">
        <time>2026-09-16T22:35:12Z</time>
      </trkpt>
      <trkpt lat="23.063727" lon="113.274036">
        <time>2026-09-16T22:35:17Z</time>
      </trkpt>
      <trkpt lat="23.063617" lon="113.274143">
        <time>2026-09-16T22:35:22Z</time>
      </trkpt>
      <trkpt lat="23.063521" lon="113.27426">
        <time>2026-09-16T22:35:27Z</time>
      </trkpt>
      <trkpt lat="23.063455" lon="113.27441">
        <time>2026-09-16T22:35:32Z</time>
      </trkpt>
      <trkpt lat="23.063394" lon="113.274569">
        <time>2026-09-16T22:35:37Z</time>
      </trkpt>
      <trkpt lat="23.063343" lon="113.27473">
        <time>2026-09-16T22:35:42Z</time>
      </trkpt>
      <trkpt lat="23.063286" lon="113.274894">
        <time>2026-09-16T22:35:47Z</time>
      </trkpt>
      <trkpt lat="23.063226" lon="113.275056">
        <time>2026-09-16T22:35:52Z</time>
      </trkpt>
      <trkpt lat="23.063143" lon="113.275203">
        <time>2026-09-16T22:35:57Z</time>
      </trkpt>
      <trkpt lat="23.06306" lon="113.275337">
        <time>2026-09-16T22:36:02Z</time>
      </trkpt>
      <trkpt lat="23.062976" lon="113.275472">
        <time>2026-09-16T22:36:07Z</time>
      </trkpt>
      <trkpt lat="23.062875" lon="113.2756">
        <time>2026-09-16T22:36:12Z</time>
      </trkpt>
      <trkpt lat="23.062761" lon="113.275711">
        <time>2026-09-16T22:36:17Z</time>
      </trkpt>
      <trkpt lat="23.062648" lon="113.275828">
        <time>2026-09-16T22:36:22Z</time>
      </trkpt>
      <trkpt lat="23.062555" lon="113.275957">
        <time>2026-09-16T22:36:27Z</time>
      </trkpt>
      <trkpt lat="23.062474" lon="113.2761">
        <time>2026-09-16T22:36:32Z</time>
      </trkpt>
      <trkpt lat="23.062405" lon="113.276253">
        <time>2026-09-16T22:36:37Z</time>
      </trkpt>
      <trkpt lat="23.06235" lon="113.276408">
        <time>2026-09-16T22:36:42Z</time>
      </trkpt>
      <trkpt lat="23.062298" lon="113.276566">
        <time>2026-09-16T22:36:47Z</time>
      </trkpt>
      <trkpt lat="23.062239" lon="113.276721">
        <time>2026-09-16T22:36:52Z</time>
      </trkpt>
      <trkpt lat="23.062168" lon="113.27687">
        <time>2026-09-16T22:36:57Z</time>
      </trkpt>
      <trkpt lat="23.062108" lon="113.277021">
        <time>2026-09-16T22:37:02Z</time>
      </trkpt>
      <trkpt lat="23.062054" lon="113.277169">
        <time>2026-09-16T22:37:07Z</time>
      </trkpt>
      <trkpt lat="23.06199" lon="113.27733">
        <time>2026-09-16T22:37:12Z</time>
      </trkpt>
      <trkpt lat="23.061918" lon="113.277488">
        <time>2026-09-16T22:37:17Z</time>
      </trkpt>
      <trkpt lat="23.061875" lon="113.277657">
        <time>2026-09-16T22:37:22Z</time>
      </trkpt>
      <trkpt lat="23.061845" lon="113.277826">
        <time>2026-09-16T22:37:27Z</time>
      </trkpt>
      <trkpt lat="23.061841" lon="113.277994">
        <time>2026-09-16T22:37:32Z</time>
      </trkpt>
      <trkpt lat="23.061851" lon="113.278159">
        <time>2026-09-16T22:37:37Z</time>
      </trkpt>
      <trkpt lat="23.061856" lon="113.278322">
        <time>2026-09-16T22:37:42Z</time>
      </trkpt>
      <trkpt lat="23.061862" lon="113.278487">
        <time>2026-09-16T22:37:47Z</time>
      </trkpt>
      <trkpt lat="23.061862" lon="113.278655">
        <time>2026-09-16T22:37:52Z</time>
      </trkpt>
      <trkpt lat="23.061826" lon="113.278813">
        <time>2026-09-16T22:37:57Z</time>
      </trkpt>
      <trkpt lat="23.061754" lon="113.278955">
        <time>2026-09-16T22:38:02Z</time>
      </trkpt>
      <trkpt lat="23.061676" lon="113.279089">
        <time>2026-09-16T22:38:07Z</time>
      </trkpt>
      <trkpt lat="23.061608" lon="113.279233">
        <time>2026-09-16T22:38:12Z</time>
      </trkpt>
      <trkpt lat="23.061552" lon="113.279378">
        <time>2026-09-16T22:38:17Z</time>
      </trkpt>
      <trkpt lat="23.061491" lon="113.279523">
        <time>2026-09-16T22:38:22Z</time>
      </trkpt>
      <trkpt lat="23.061428" lon="113.279675">
        <time>2026-09-16T22:38:27Z</time>
      </trkpt>
      <trkpt lat="23.061354" lon="113.279828">
        <time>2026-09-16T22:38:32Z</time>
      </trkpt>
      <trkpt lat="23.061286" lon="113.279985">
        <time>2026-09-16T22:38:37Z</time>
      </trkpt>
      <trkpt lat="23.061217" lon="113.280146">
        <time>2026-09-16T22:38:42Z</time>
      </trkpt>
      <trkpt lat="23.061154" lon="113.280305">
        <time>2026-09-16T22:38:47Z</time>
      </trkpt>
      <trkpt lat="23.061084" lon="113.280463">
        <time>2026-09-16T22:38:52Z</time>
      </trkpt>
      <trkpt lat="23.061011" lon="113.280623">
        <time>2026-09-16T22:38:57Z</time>
      </trkpt>
      <trkpt lat="23.060943" lon="113.280784">
        <time>2026-09-16T22:39:02Z</time>
      </trkpt>
      <trkpt lat="23.060877" lon="113.280941">
        <time>2026-09-16T22:39:07Z</time>
      </trkpt>
      <trkpt lat="23.060812" lon="113.281092">
        <time>2026-09-16T22:39:12Z</time>
      </trkpt>
      <trkpt lat="23.060744" lon="113.281243">
        <time>2026-09-16T22:39:17Z</time>
      </trkpt>
      <trkpt lat="23.060675" lon="113.281394">
        <time>2026-09-16T22:39:22Z</time>
      </trkpt>
      <trkpt lat="23.060607" lon="113.281549">
        <time>2026-09-16T22:39:27Z</time>
      </trkpt>
      <trkpt lat="23.060542" lon="113.281702">
        <time>2026-09-16T22:39:32Z</time>
      </trkpt>
      <trkpt lat="23.060478" lon="113.281858">
        <time>2026-09-16T22:39:37Z</time>
      </trkpt>
      <trkpt lat="23.06041" lon="113.282015">
        <time>2026-09-16T22:39:42Z</time>
      </trkpt>
      <trkpt lat="23.060349" lon="113.282168">
        <time>2026-09-16T22:39:47Z</time>
      </trkpt>
      <trkpt lat="23.060285" lon="113.282325">
        <time>2026-09-16T22:39:52Z</time>
      </trkpt>
      <trkpt lat="23.060225" lon="113.282481">
        <time>2026-09-16T22:39:57Z</time>
      </trkpt>
      <trkpt lat="23.060165" lon="113.282635">
        <time>2026-09-16T22:40:02Z</time>
      </trkpt>
      <trkpt lat="23.060099" lon="113.282785">
        <time>2026-09-16T22:40:07Z</time>
      </trkpt>
      <trkpt lat="23.060041" lon="113.282934">
        <time>2026-09-16T22:40:12Z</time>
      </trkpt>
      <trkpt lat="23.059975" lon="113.283083">
        <time>2026-09-16T22:40:17Z</time>
      </trkpt>
      <trkpt lat="23.059911" lon="113.283231">
        <time>2026-09-16T22:40:22Z</time>
      </trkpt>
      <trkpt lat="23.059837" lon="113.283386">
        <time>2026-09-16T22:40:27Z</time>
      </trkpt>
      <trkpt lat="23.059767" lon="113.283544">
        <time>2026-09-16T22:40:32Z</time>
      </trkpt>
      <trkpt lat="23.059705" lon="113.283692">
        <time>2026-09-16T22:40:37Z</time>
      </trkpt>
      <trkpt lat="23.059638" lon="113.28384">
        <time>2026-09-16T22:40:42Z</time>
      </trkpt>
      <trkpt lat="23.059563" lon="113.283999">
        <time>2026-09-16T22:40:47Z</time>
      </trkpt>
      <trkpt lat="23.059487" lon="113.284158">
        <time>2026-09-16T22:40:52Z</time>
      </trkpt>
      <trkpt lat="23.059421" lon="113.284307">
        <time>2026-09-16T22:40:57Z</time>
      </trkpt>
      <trkpt lat="23.059362" lon="113.284456">
        <time>2026-09-16T22:41:02Z</time>
      </trkpt>
      <trkpt lat="23.059305" lon="113.284606">
        <time>2026-09-16T22:41:07Z</time>
      </trkpt>
      <trkpt lat="23.059245" lon="113.284756">
        <time>2026-09-16T22:41:12Z</time>
      </trkpt>
      <trkpt lat="23.059178" lon="113.284916">
        <time>2026-09-16T22:41:17Z</time>
      </trkpt>
      <trkpt lat="23.059112" lon="113.285072">
        <time>2026-09-16T22:41:22Z</time>
      </trkpt>
      <trkpt lat="23.059047" lon="113.285221">
        <time>2026-09-16T22:41:27Z</time>
      </trkpt>
      <trkpt lat="23.058977" lon="113.285376">
        <time>2026-09-16T22:41:32Z</time>
      </trkpt>
      <trkpt lat="23.05891" lon="113.285533">
        <time>2026-09-16T22:41:37Z</time>
      </trkpt>
      <trkpt lat="23.05884" lon="113.285691">
        <time>2026-09-16T22:41:42Z</time>
      </trkpt>
      <trkpt lat="23.058775" lon="113.285847">
        <time>2026-09-16T22:41:47Z</time>
      </trkpt>
      <trkpt lat="23.058723" lon="113.286004">
        <time>2026-09-16T22:41:52Z</time>
      </trkpt>
      <trkpt lat="23.058679" lon="113.286179">
        <time>2026-09-16T22:41:57Z</time>
      </trkpt>
      <trkpt lat="23.058743" lon="113.286319">
        <time>2026-09-16T22:42:02Z</time>
      </trkpt>
      <trkpt lat="23.058884" lon="113.286389">
        <time>2026-09-16T22:42:07Z</time>
      </trkpt>
      <trkpt lat="23.059041" lon="113.286411">
        <time>2026-09-16T22:42:12Z</time>
      </trkpt>
      <trkpt lat="23.059198" lon="113.286422">
        <time>2026-09-16T22:42:17Z</time>
      </trkpt>
      <trkpt lat="23.059354" lon="113.286435">
        <time>2026-09-16T22:42:22Z</time>
      </trkpt>
      <trkpt lat="23.059509" lon="113.28645">
        <time>2026-09-16T22:42:27Z</time>
      </trkpt>
      <trkpt lat="23.059662" lon="113.286464">
        <time>2026-09-16T22:42:32Z</time>
      </trkpt>
      <trkpt lat="23.059812" lon="113.286471">
        <time>2026-09-16T22:42:37Z</time>
      </trkpt>
      <trkpt lat="23.059961" lon="113.286485">
        <time>2026-09-16T22:42:42Z</time>
      </trkpt>
      <trkpt lat="23.060084" lon="113.286563">
        <time>2026-09-16T22:42:47Z</time>
      </trkpt>
      <trkpt lat="23.060122" lon="113.286749">
        <time>2026-09-16T22:42:52Z</time>
      </trkpt>
      <trkpt lat="23.060131" lon="113.286925">
        <time>2026-09-16T22:42:57Z</time>
      </trkpt>
      <trkpt lat="23.060156" lon="113.287097">
        <time>2026-09-16T22:43:02Z</time>
      </trkpt>
      <trkpt lat="23.060167" lon="113.287281">
        <time>2026-09-16T22:43:07Z</time>
      </trkpt>
      <trkpt lat="23.060195" lon="113.287451">
        <time>2026-09-16T22:43:12Z</time>
      </trkpt>
      <trkpt lat="23.060214" lon="113.287591">
        <time>2026-09-16T22:43:17Z</time>
      </trkpt>
      <trkpt lat="23.060214" lon="113.287749">
        <time>2026-09-16T22:43:22Z</time>
      </trkpt>
      <trkpt lat="23.060276" lon="113.287878">
        <time>2026-09-16T22:43:27Z</time>
      </trkpt>
      <trkpt lat="23.060352" lon="113.287835">
        <time>2026-09-16T22:43:32Z</time>
      </trkpt>
      <trkpt lat="23.060343" lon="113.287664">
        <time>2026-09-16T22:43:37Z</time>
      </trkpt>
      <trkpt lat="23.060321" lon="113.287518">
        <time>2026-09-16T22:43:42Z</time>
      </trkpt>
      <trkpt lat="23.060291" lon="113.287371">
        <time>2026-09-16T22:43:47Z</time>
      </trkpt>
      <trkpt lat="23.060232" lon="113.287223">
        <time>2026-09-16T22:43:52Z</time>
      </trkpt>
      <trkpt lat="23.060178" lon="113.287077">
        <time>2026-09-16T22:43:57Z</time>
      </trkpt>
      <trkpt lat="23.060107" lon="113.286936">
        <time>2026-09-16T22:44:02Z</time>
      </trkpt>
      <trkpt lat="23.060175" lon="113.286756">
        <time>2026-09-16T22:44:07Z</time>
      </trkpt>
      <trkpt lat="23.060211" lon="113.286616">
        <time>2026-09-16T22:44:12Z</time>
      </trkpt>
      <trkpt lat="23.060142" lon="113.286514">
        <time>2026-09-16T22:44:17Z</time>
      </trkpt>
      <trkpt lat="23.059983" lon="113.28646">
        <time>2026-09-16T22:44:22Z</time>
      </trkpt>
      <trkpt lat="23.059828" lon="113.286415">
        <time>2026-09-16T22:44:27Z</time>
      </trkpt>
      <trkpt lat="23.059693" lon="113.286348">
        <time>2026-09-16T22:44:32Z</time>
      </trkpt>
      <trkpt lat="23.059557" lon="113.286292">
        <time>2026-09-16T22:44:37Z</time>
      </trkpt>
      <trkpt lat="23.0594" lon="113.286281">
        <time>2026-09-16T22:44:42Z</time>
      </trkpt>
      <trkpt lat="23.059253" lon="113.286277">
        <time>2026-09-16T22:44:47Z</time>
      </trkpt>
      <trkpt lat="23.059124" lon="113.286254">
        <time>2026-09-16T22:44:52Z</time>
      </trkpt>
      <trkpt lat="23.058989" lon="113.28624">
        <time>2026-09-16T22:44:57Z</time>
      </trkpt>
      <trkpt lat="23.058842" lon="113.286217">
        <time>2026-09-16T22:45:02Z</time>
      </trkpt>
      <trkpt lat="23.058753" lon="113.286128">
        <time>2026-09-16T22:45:07Z</time>
      </trkpt>
      <trkpt lat="23.058802" lon="113.285989">
        <time>2026-09-16T22:45:12Z</time>
      </trkpt>
      <trkpt lat="23.058872" lon="113.285859">
        <time>2026-09-16T22:45:17Z</time>
      </trkpt>
      <trkpt lat="23.058937" lon="113.285722">
        <time>2026-09-16T22:45:22Z</time>
      </trkpt>
      <trkpt lat="23.05899" lon="113.285572">
        <time>2026-09-16T22:45:27Z</time>
      </trkpt>
      <trkpt lat="23.059045" lon="113.285425">
        <time>2026-09-16T22:45:32Z</time>
      </trkpt>
      <trkpt lat="23.059101" lon="113.285282">
        <time>2026-09-16T22:45:37Z</time>
      </trkpt>
      <trkpt lat="23.059159" lon="113.285136">
        <time>2026-09-16T22:45:42Z</time>
      </trkpt>
      <trkpt lat="23.059227" lon="113.284984">
        <time>2026-09-16T22:45:47Z</time>
      </trkpt>
      <trkpt lat="23.059303" lon="113.284836">
        <time>2026-09-16T22:45:52Z</time>
      </trkpt>
      <trkpt lat="23.05937" lon="113.284682">
        <time>2026-09-16T22:45:57Z</time>
      </trkpt>
      <trkpt lat="23.059431" lon="113.284533">
        <time>2026-09-16T22:46:02Z</time>
      </trkpt>
      <trkpt lat="23.059496" lon="113.284388">
        <time>2026-09-16T22:46:07Z</time>
      </trkpt>
      <trkpt lat="23.059552" lon="113.284241">
        <time>2026-09-16T22:46:12Z</time>
      </trkpt>
      <trkpt lat="23.059619" lon="113.284089">
        <time>2026-09-16T22:46:17Z</time>
      </trkpt>
      <trkpt lat="23.059685" lon="113.283945">
        <time>2026-09-16T22:46:22Z</time>
      </trkpt>
      <trkpt lat="23.059747" lon="113.283796">
        <time>2026-09-16T22:46:27Z</time>
      </trkpt>
      <trkpt lat="23.059824" lon="113.28365">
        <time>2026-09-16T22:46:32Z</time>
      </trkpt>
      <trkpt lat="23.059897" lon="113.283498">
        <time>2026-09-16T22:46:37Z</time>
      </trkpt>
      <trkpt lat="23.059961" lon="113.283354">
        <time>2026-09-16T22:46:42Z</time>
      </trkpt>
      <trkpt lat="23.060032" lon="113.283219">
        <time>2026-09-16T22:46:47Z</time>
      </trkpt>
      <trkpt lat="23.060103" lon="113.283081">
        <time>2026-09-16T22:46:52Z</time>
      </trkpt>
      <trkpt lat="23.060174" lon="113.28294">
        <time>2026-09-16T22:46:57Z</time>
      </trkpt>
      <trkpt lat="23.060242" lon="113.282804">
        <time>2026-09-16T22:47:02Z</time>
      </trkpt>
      <trkpt lat="23.0603" lon="113.282655">
        <time>2026-09-16T22:47:07Z</time>
      </trkpt>
      <trkpt lat="23.060351" lon="113.282496">
        <time>2026-09-16T22:47:12Z</time>
      </trkpt>
      <trkpt lat="23.060409" lon="113.282339">
        <time>2026-09-16T22:47:17Z</time>
      </trkpt>
      <trkpt lat="23.060473" lon="113.282198">
        <time>2026-09-16T22:47:22Z</time>
      </trkpt>
      <trkpt lat="23.060531" lon="113.282057">
        <time>2026-09-16T22:47:27Z</time>
      </trkpt>
      <trkpt lat="23.060592" lon="113.281909">
        <time>2026-09-16T22:47:32Z</time>
      </trkpt>
      <trkpt lat="23.060651" lon="113.281761">
        <time>2026-09-16T22:47:37Z</time>
      </trkpt>
      <trkpt lat="23.060706" lon="113.281619">
        <time>2026-09-16T22:47:42Z</time>
      </trkpt>
      <trkpt lat="23.060763" lon="113.281482">
        <time>2026-09-16T22:47:47Z</time>
      </trkpt>
      <trkpt lat="23.060813" lon="113.281345">
        <time>2026-09-16T22:47:52Z</time>
      </trkpt>
      <trkpt lat="23.060878" lon="113.281203">
        <time>2026-09-16T22:47:57Z</time>
      </trkpt>
      <trkpt lat="23.060947" lon="113.281058">
        <time>2026-09-16T22:48:02Z</time>
      </trkpt>
      <trkpt lat="23.061009" lon="113.280908">
        <time>2026-09-16T22:48:07Z</time>
      </trkpt>
      <trkpt lat="23.061071" lon="113.280758">
        <time>2026-09-16T22:48:12Z</time>
      </trkpt>
      <trkpt lat="23.061144" lon="113.280599">
        <time>2026-09-16T22:48:17Z</time>
      </trkpt>
      <trkpt lat="23.061211" lon="113.280444">
        <time>2026-09-16T22:48:22Z</time>
      </trkpt>
      <trkpt lat="23.061279" lon="113.2803">
        <time>2026-09-16T22:48:27Z</time>
      </trkpt>
      <trkpt lat="23.061345" lon="113.280166">
        <time>2026-09-16T22:48:32Z</time>
      </trkpt>
      <trkpt lat="23.061409" lon="113.28004">
        <time>2026-09-16T22:48:37Z</time>
      </trkpt>
      <trkpt lat="23.061469" lon="113.279901">
        <time>2026-09-16T22:48:42Z</time>
      </trkpt>
      <trkpt lat="23.061526" lon="113.279759">
        <time>2026-09-16T22:48:47Z</time>
      </trkpt>
      <trkpt lat="23.061578" lon="113.279621">
        <time>2026-09-16T22:48:52Z</time>
      </trkpt>
      <trkpt lat="23.061634" lon="113.279471">
        <time>2026-09-16T22:48:57Z</time>
      </trkpt>
      <trkpt lat="23.061683" lon="113.279317">
        <time>2026-09-16T22:49:02Z</time>
      </trkpt>
      <trkpt lat="23.061735" lon="113.279173">
        <time>2026-09-16T22:49:07Z</time>
      </trkpt>
      <trkpt lat="23.061806" lon="113.279038">
        <time>2026-09-16T22:49:12Z</time>
      </trkpt>
      <trkpt lat="23.061891" lon="113.278903">
        <time>2026-09-16T22:49:17Z</time>
      </trkpt>
      <trkpt lat="23.061952" lon="113.278756">
        <time>2026-09-16T22:49:22Z</time>
      </trkpt>
      <trkpt lat="23.061965" lon="113.278601">
        <time>2026-09-16T22:49:27Z</time>
      </trkpt>
      <trkpt lat="23.061976" lon="113.278503">
        <time>2026-09-16T22:49:32Z</time>
      </trkpt>
      <trkpt lat="23.061981" lon="113.278446">
        <time>2026-09-16T22:49:37Z</time>
      </trkpt>
      <trkpt lat="23.061983" lon="113.278389">
        <time>2026-09-16T22:49:42Z</time>
      </trkpt>
      <trkpt lat="23.061979" lon="113.278329">
        <time>2026-09-16T22:49:47Z</time>
      </trkpt>
      <trkpt lat="23.06197" lon="113.278266">
        <time>2026-09-16T22:49:52Z</time>
      </trkpt>
      <trkpt lat="23.061962" lon="113.278201">
        <time>2026-09-16T22:49:57Z</time>
      </trkpt>
      <trkpt lat="23.061959" lon="113.278142">
        <time>2026-09-16T22:50:02Z</time>
      </trkpt>
      <trkpt lat="23.061964" lon="113.278091">
        <time>2026-09-16T22:50:07Z</time>
      </trkpt>
      <trkpt lat="23.061968" lon="113.278043">
        <time>2026-09-16T22:50:12Z</time>
      </trkpt>
      <trkpt lat="23.061968" lon="113.277996">
        <time>2026-09-16T22:50:17Z</time>
      </trkpt>
      <trkpt lat="23.061968" lon="113.277952">
        <time>2026-09-16T22:50:22Z</time>
      </trkpt>
      <trkpt lat="23.061966" lon="113.277911">
        <time>2026-09-16T22:50:27Z</time>
      </trkpt>
      <trkpt lat="23.061967" lon="113.277873">
        <time>2026-09-16T22:50:32Z</time>
      </trkpt>
      <trkpt lat="23.061974" lon="113.277839">
        <time>2026-09-16T22:50:37Z</time>
      </trkpt>
      <trkpt lat="23.061978" lon="113.277803">
        <time>2026-09-16T22:50:42Z</time>
      </trkpt>
      <trkpt lat="23.061986" lon="113.277771">
        <time>2026-09-16T22:50:47Z</time>
      </trkpt>
      <trkpt lat="23.061994" lon="113.27774">
        <time>2026-09-16T22:50:52Z</time>
      </trkpt>
      <trkpt lat="23.061995" lon="113.277707">
        <time>2026-09-16T22:50:57Z</time>
      </trkpt>
      <trkpt lat="23.062001" lon="113.277675">
        <time>2026-09-16T22:51:02Z</time>
      </trkpt>
      <trkpt lat="23.062011" lon="113.277639">
        <time>2026-09-16T22:51:07Z</time>
      </trkpt>
      <trkpt lat="23.062021" lon="113.277598">
        <time>2026-09-16T22:51:12Z</time>
      </trkpt>
      <trkpt lat="23.062029" lon="113.277559">
        <time>2026-09-16T22:51:17Z</time>
      </trkpt>
      <trkpt lat="23.062041" lon="113.277519">
        <time>2026-09-16T22:51:22Z</time>
      </trkpt>
      <trkpt lat="23.062066" lon="113.277456">
        <time>2026-09-16T22:51:27Z</time>
      </trkpt>
      <trkpt lat="23.062103" lon="113.277361">
        <time>2026-09-16T22:51:32Z</time>
      </trkpt>
      <trkpt lat="23.06214" lon="113.277251">
        <time>2026-09-16T22:51:37Z</time>
      </trkpt>
      <trkpt lat="23.062175" lon="113.277142">
        <time>2026-09-16T22:51:42Z</time>
      </trkpt>
      <trkpt lat="23.062229" lon="113.277046">
        <time>2026-09-16T22:51:47Z</time>
      </trkpt>
      <trkpt lat="23.062275" lon="113.276939">
        <time>2026-09-16T22:51:52Z</time>
      </trkpt>
      <trkpt lat="23.062315" lon="113.276826">
        <time>2026-09-16T22:51:57Z</time>
      </trkpt>
      <trkpt lat="23.062357" lon="113.276718">
        <time>2026-09-16T22:52:02Z</time>
      </trkpt>
      <trkpt lat="23.062401" lon="113.276613">
        <time>2026-09-16T22:52:07Z</time>
      </trkpt>
      <trkpt lat="23.062443" lon="113.276508">
        <time>2026-09-16T22:52:12Z</time>
      </trkpt>
      <trkpt lat="23.062482" lon="113.276398">
        <time>2026-09-16T22:52:17Z</time>
      </trkpt>
      <trkpt lat="23.062522" lon="113.276285">
        <time>2026-09-16T22:52:22Z</time>
      </trkpt>
      <trkpt lat="23.062567" lon="113.276184">
        <time>2026-09-16T22:52:27Z</time>
      </trkpt>
      <trkpt lat="23.062628" lon="113.27608">
        <time>2026-09-16T22:52:32Z</time>
      </trkpt>
      <trkpt lat="23.062697" lon="113.275975">
        <time>2026-09-16T22:52:37Z</time>
      </trkpt>
      <trkpt lat="23.062769" lon="113.275885">
        <time>2026-09-16T22:52:42Z</time>
      </trkpt>
      <trkpt lat="23.062845" lon="113.275798">
        <time>2026-09-16T22:52:47Z</time>
      </trkpt>
      <trkpt lat="23.062926" lon="113.275705">
        <time>2026-09-16T22:52:52Z</time>
      </trkpt>
      <trkpt lat="23.063006" lon="113.275611">
        <time>2026-09-16T22:52:57Z</time>
      </trkpt>
      <trkpt lat="23.063075" lon="113.27552">
        <time>2026-09-16T22:53:02Z</time>
      </trkpt>
      <trkpt lat="23.063132" lon="113.27542">
        <time>2026-09-16T22:53:07Z</time>
      </trkpt>
      <trkpt lat="23.063188" lon="113.27532">
        <time>2026-09-16T22:53:12Z</time>
      </trkpt>
      <trkpt lat="23.063252" lon="113.275223">
        <time>2026-09-16T22:53:17Z</time>
      </trkpt>
      <trkpt lat="23.06332" lon="113.275129">
        <time>2026-09-16T22:53:22Z</time>
      </trkpt>
      <trkpt lat="23.06337" lon="113.27503">
        <time>2026-09-16T22:53:27Z</time>
      </trkpt>
      <trkpt lat="23.063401" lon="113.274928">
        <time>2026-09-16T22:53:32Z</time>
      </trkpt>
      <trkpt lat="23.063431" lon="113.274817">
        <time>2026-09-16T22:53:37Z</time>
      </trkpt>
      <trkpt lat="23.063463" lon="113.274717">
        <time>2026-09-16T22:53:42Z</time>
      </trkpt>
      <trkpt lat="23.063491" lon="113.274631">
        <time>2026-09-16T22:53:47Z</time>
      </trkpt>
      <trkpt lat="23.063519" lon="113.274538">
        <time>2026-09-16T22:53:52Z</time>
      </trkpt>
      <trkpt lat="23.063556" lon="113.274447">
        <time>2026-09-16T22:53:57Z</time>
      </trkpt>
      <trkpt lat="23.063633" lon="113.274354">
        <time>2026-09-16T22:54:02Z</time>
      </trkpt>
      <trkpt lat="23.063716" lon="113.274283">
        <time>2026-09-16T22:54:07Z</time>
      </trkpt>
      <trkpt lat="23.06379" lon="113.274215">
        <time>2026-09-16T22:54:12Z</time>
      </trkpt>
      <trkpt lat="23.063854" lon="113.274121">
        <time>2026-09-16T22:54:17Z</time>
      </trkpt>
      <trkpt lat="23.063913" lon="113.274015">
        <time>2026-09-16T22:54:22Z</time>
      </trkpt>
      <trkpt lat="23.063968" lon="113.273912">
        <time>2026-09-16T22:54:27Z</time>
      </trkpt>
      <trkpt lat="23.064023" lon="113.273818">
        <time>2026-09-16T22:54:32Z</time>
      </trkpt>
      <trkpt lat="23.064093" lon="113.273722">
        <time>2026-09-16T22:54:37Z</time>
      </trkpt>
      <trkpt lat="23.064177" lon="113.273644">
        <time>2026-09-16T22:54:42Z</time>
      </trkpt>
      <trkpt lat="23.06426" lon="113.273577">
        <time>2026-09-16T22:54:47Z</time>
      </trkpt>
      <trkpt lat="23.064337" lon="113.273517">
        <time>2026-09-16T22:54:52Z</time>
      </trkpt>
      <trkpt lat="23.064416" lon="113.273452">
        <time>2026-09-16T22:54:57Z</time>
      </trkpt>
      <trkpt lat="23.064494" lon="113.273376">
        <time>2026-09-16T22:55:02Z</time>
      </trkpt>
      <trkpt lat="23.064558" lon="113.273284">
        <time>2026-09-16T22:55:07Z</time>
      </trkpt>
      <trkpt lat="23.064589" lon="113.273168">
        <time>2026-09-16T22:55:12Z</time>
      </trkpt>
      <trkpt lat="23.064577" lon="113.273046">
        <time>2026-09-16T22:55:17Z</time>
      </trkpt>
      <trkpt lat="23.064539" lon="113.272931">
        <time>2026-09-16T22:55:22Z</time>
      </trkpt>
      <trkpt lat="23.064498" lon="113.272813">
        <time>2026-09-16T22:55:27Z</time>
      </trkpt>
      <trkpt lat="23.064469" lon="113.27269">
        <time>2026-09-16T22:55:32Z</time>
      </trkpt>
      <trkpt lat="23.06447" lon="113.27257">
        <time>2026-09-16T22:55:37Z</time>
      </trkpt>
      <trkpt lat="23.064525" lon="113.272473">
        <time>2026-09-16T22:55:42Z</time>
      </trkpt>
      <trkpt lat="23.064574" lon="113.272366">
        <time>2026-09-16T22:55:47Z</time>
      </trkpt>
      <trkpt lat="23.064586" lon="113.272251">
        <time>2026-09-16T22:55:52Z</time>
      </trkpt>
      <trkpt lat="23.064614" lon="113.272147">
        <time>2026-09-16T22:55:57Z</time>
      </trkpt>
      <trkpt lat="23.064671" lon="113.272052">
        <time>2026-09-16T22:56:02Z</time>
      </trkpt>
      <trkpt lat="23.064724" lon="113.271953">
        <time>2026-09-16T22:56:07Z</time>
      </trkpt>
      <trkpt lat="23.064764" lon="113.271859">
        <time>2026-09-16T22:56:12Z</time>
      </trkpt>
      <trkpt lat="23.064805" lon="113.271753">
        <time>2026-09-16T22:56:17Z</time>
      </trkpt>
      <trkpt lat="23.06485" lon="113.27164">
        <time>2026-09-16T22:56:22Z</time>
      </trkpt>
      <trkpt lat="23.064899" lon="113.271533">
        <time>2026-09-16T22:56:27Z</time>
      </trkpt>
      <trkpt lat="23.064939" lon="113.271436">
        <time>2026-09-16T22:56:32Z</time>
      </trkpt>
      <trkpt lat="23.06498" lon="113.271334">
        <time>2026-09-16T22:56:37Z</time>
      </trkpt>
      <trkpt lat="23.065045" lon="113.27123">
        <time>2026-09-16T22:56:42Z</time>
      </trkpt>
      <trkpt lat="23.065117" lon="113.271123">
        <time>2026-09-16T22:56:47Z</time>
      </trkpt>
      <trkpt lat="23.065168" lon="113.271007">
        <time>2026-09-16T22:56:52Z</time>
      </trkpt>
      <trkpt lat="23.0652" lon="113.270882">
        <time>2026-09-16T22:56:57Z</time>
      </trkpt>
      <trkpt lat="23.06524" lon="113.270765">
        <time>2026-09-16T22:57:02Z</time>
      </trkpt>
      <trkpt lat="23.065287" lon="113.270656">
        <time>2026-09-16T22:57:07Z</time>
      </trkpt>
      <trkpt lat="23.065335" lon="113.270547">
        <time>2026-09-16T22:57:12Z</time>
      </trkpt>
      <trkpt lat="23.065383" lon="113.27044">
        <time>2026-09-16T22:57:17Z</time>
      </trkpt>
      <trkpt lat="23.065434" lon="113.270338">
        <time>2026-09-16T22:57:22Z</time>
      </trkpt>
      <trkpt lat="23.065476" lon="113.270232">
        <time>2026-09-16T22:57:27Z</time>
      </trkpt>
      <trkpt lat="23.065519" lon="113.270122">
        <time>2026-09-16T22:57:32Z</time>
      </trkpt>
      <trkpt lat="23.065558" lon="113.270018">
        <time>2026-09-16T22:57:37Z</time>
      </trkpt>
      <trkpt lat="23.06559" lon="113.269909">
        <time>2026-09-16T22:57:42Z</time>
      </trkpt>
      <trkpt lat="23.065621" lon="113.269803">
        <time>2026-09-16T22:57:47Z</time>
      </trkpt>
      <trkpt lat="23.065667" lon="113.269698">
        <time>2026-09-16T22:57:52Z</time>
      </trkpt>
      <trkpt lat="23.065726" lon="113.269586">
        <time>2026-09-16T22:57:57Z</time>
      </trkpt>
      <trkpt lat="23.065765" lon="113.269462">
        <time>2026-09-16T22:58:02Z</time>
      </trkpt>
      <trkpt lat="23.065784" lon="113.26933">
        <time>2026-09-16T22:58:07Z</time>
      </trkpt>
      <trkpt lat="23.065812" lon="113.269203">
        <time>2026-09-16T22:58:12Z</time>
      </trkpt>
      <trkpt lat="23.065854" lon="113.269085">
        <time>2026-09-16T22:58:17Z</time>
      </trkpt>
      <trkpt lat="23.065902" lon="113.268975">
        <time>2026-09-16T22:58:22Z</time>
      </trkpt>
      <trkpt lat="23.065952" lon="113.268869">
        <time>2026-09-16T22:58:27Z</time>
      </trkpt>
      <trkpt lat="23.066003" lon="113.268761">
        <time>2026-09-16T22:58:32Z</time>
      </trkpt>
      <trkpt lat="23.066061" lon="113.268647">
        <time>2026-09-16T22:58:37Z</time>
      </trkpt>
      <trkpt lat="23.066124" lon="113.268538">
        <time>2026-09-16T22:58:42Z</time>
      </trkpt>
      <trkpt lat="23.066185" lon="113.268435">
        <time>2026-09-16T22:58:47Z</time>
      </trkpt>
      <trkpt lat="23.06626" lon="113.268345">
        <time>2026-09-16T22:58:52Z</time>
      </trkpt>
      <trkpt lat="23.066335" lon="113.268253">
        <time>2026-09-16T22:58:57Z</time>
      </trkpt>
      <trkpt lat="23.066429" lon="113.268178">
        <time>2026-09-16T22:59:02Z</time>
      </trkpt>
      <trkpt lat="23.066543" lon="113.268147">
        <time>2026-09-16T22:59:07Z</time>
      </trkpt>
      <trkpt lat="23.066648" lon="113.26816">
        <time>2026-09-16T22:59:12Z</time>
      </trkpt>
      <trkpt lat="23.066756" lon="113.268169">
        <time>2026-09-16T22:59:17Z</time>
      </trkpt>
      <trkpt lat="23.066873" lon="113.268159">
        <time>2026-09-16T22:59:22Z</time>
      </trkpt>
      <trkpt lat="23.066984" lon="113.268172">
        <time>2026-09-16T22:59:27Z</time>
      </trkpt>
      <trkpt lat="23.067076" lon="113.268229">
        <time>2026-09-16T22:59:32Z</time>
      </trkpt>
      <trkpt lat="23.067173" lon="113.268286">
        <time>2026-09-16T22:59:37Z</time>
      </trkpt>
      <trkpt lat="23.067261" lon="113.26834">
        <time>2026-09-16T22:59:42Z</time>
      </trkpt>
      <trkpt lat="23.067346" lon="113.268388">
        <time>2026-09-16T22:59:47Z</time>
      </trkpt>
      <trkpt lat="23.067438" lon="113.268446">
        <time>2026-09-16T22:59:52Z</time>
      </trkpt>
      <trkpt lat="23.067565" lon="113.268498">
        <time>2026-09-16T22:59:57Z</time>
      </trkpt>
      <trkpt lat="23.067691" lon="113.268552">
        <time>2026-09-16T23:00:02Z</time>
      </trkpt>
      <trkpt lat="23.067813" lon="113.268602">
        <time>2026-09-16T23:00:07Z</time>
      </trkpt>
      <trkpt lat="23.067927" lon="113.268654">
        <time>2026-09-16T23:00:12Z</time>
      </trkpt>
      <trkpt lat="23.068034" lon="113.268704">
        <time>2026-09-16T23:00:17Z</time>
      </trkpt>
      <trkpt lat="23.068131" lon="113.268746">
        <time>2026-09-16T23:00:22Z</time>
      </trkpt>
      <trkpt lat="23.068225" lon="113.268783">
        <time>2026-09-16T23:00:27Z</time>
      </trkpt>
      <trkpt lat="23.068329" lon="113.268836">
        <time>2026-09-16T23:00:32Z</time>
      </trkpt>
      <trkpt lat="23.068424" lon="113.2689">
        <time>2026-09-16T23:00:37Z</time>
      </trkpt>
      <trkpt lat="23.068526" lon="113.268941">
        <time>2026-09-16T23:00:42Z</time>
      </trkpt>
      <trkpt lat="23.068648" lon="113.268956">
        <time>2026-09-16T23:00:47Z</time>
      </trkpt>
      <trkpt lat="23.068752" lon="113.269025">
        <time>2026-09-16T23:00:52Z</time>
      </trkpt>
      <trkpt lat="23.068859" lon="113.269077">
        <time>2026-09-16T23:00:57Z</time>
      </trkpt>
      <trkpt lat="23.068968" lon="113.269113">
        <time>2026-09-16T23:01:02Z</time>
      </trkpt>
      <trkpt lat="23.069085" lon="113.269154">
        <time>2026-09-16T23:01:07Z</time>
      </trkpt>
      <trkpt lat="23.069209" lon="113.269191">
        <time>2026-09-16T23:01:12Z</time>
      </trkpt>
      <trkpt lat="23.069318" lon="113.269264">
        <time>2026-09-16T23:01:17Z</time>
      </trkpt>
      <trkpt lat="23.069416" lon="113.269345">
        <time>2026-09-16T23:01:22Z</time>
      </trkpt>
      <trkpt lat="23.069516" lon="113.269419">
        <time>2026-09-16T23:01:27Z</time>
      </trkpt>
      <trkpt lat="23.069612" lon="113.269483">
        <time>2026-09-16T23:01:32Z</time>
      </trkpt>
      <trkpt lat="23.069714" lon="113.269535">
        <time>2026-09-16T23:01:37Z</time>
      </trkpt>
      <trkpt lat="23.069817" lon="113.269602">
        <time>2026-09-16T23:01:42Z</time>
      </trkpt>
      <trkpt lat="23.069927" lon="113.269672">
        <time>2026-09-16T23:01:47Z</time>
      </trkpt>
      <trkpt lat="23.070045" lon="113.26972">
        <time>2026-09-16T23:01:52Z</time>
      </trkpt>
      <trkpt lat="23.070153" lon="113.26977">
        <time>2026-09-16T23:01:57Z</time>
      </trkpt>
      <trkpt lat="23.070251" lon="113.26982">
        <time>2026-09-16T23:02:02Z</time>
      </trkpt>
      <trkpt lat="23.070351" lon="113.269866">
        <time>2026-09-16T23:02:07Z</time>
      </trkpt>
      <trkpt lat="23.070457" lon="113.269919">
        <time>2026-09-16T23:02:12Z</time>
      </trkpt>
      <trkpt lat="23.070572" lon="113.269956">
        <time>2026-09-16T23:02:17Z</time>
      </trkpt>
      <trkpt lat="23.070668" lon="113.269998">
        <time>2026-09-16T23:02:22Z</time>
      </trkpt>
      <trkpt lat="23.070768" lon="113.270031">
        <time>2026-09-16T23:02:27Z</time>
      </trkpt>
      <trkpt lat="23.070888" lon="113.270079">
        <time>2026-09-16T23:02:32Z</time>
      </trkpt>
      <trkpt lat="23.070979" lon="113.270155">
        <time>2026-09-16T23:02:37Z</time>
      </trkpt>
      <trkpt lat="23.071039" lon="113.270193">
        <time>2026-09-16T23:02:42Z</time>
      </trkpt>
      <trkpt lat="23.071137" lon="113.27022">
        <time>2026-09-16T23:02:47Z</time>
      </trkpt>
      <trkpt lat="23.071252" lon="113.270283">
        <time>2026-09-16T23:02:52Z</time>
      </trkpt>
      <trkpt lat="23.071359" lon="113.27035">
        <time>2026-09-16T23:02:57Z</time>
      </trkpt>
      <trkpt lat="23.071471" lon="113.27039">
        <time>2026-09-16T23:03:02Z</time>
      </trkpt>
      <trkpt lat="23.071568" lon="113.270436">
        <time>2026-09-16T23:03:07Z</time>
      </trkpt>
      <trkpt lat="23.071663" lon="113.270475">
        <time>2026-09-16T23:03:12Z</time>
      </trkpt>
      <trkpt lat="23.07177" lon="113.270505">
        <time>2026-09-16T23:03:17Z</time>
      </trkpt>
      <trkpt lat="23.071869" lon="113.270554">
        <time>2026-09-16T23:03:22Z</time>
      </trkpt>
      <trkpt lat="23.071987" lon="113.270568">
        <time>2026-09-16T23:03:27Z</time>
      </trkpt>
      <trkpt lat="23.072114" lon="113.270612">
        <time>2026-09-16T23:03:32Z</time>
      </trkpt>
      <trkpt lat="23.072221" lon="113.270679">
        <time>2026-09-16T23:03:37Z</time>
      </trkpt>
      <trkpt lat="23.072317" lon="113.270733">
        <time>2026-09-16T23:03:42Z</time>
      </trkpt>
      <trkpt lat="23.072401" lon="113.270779">
        <time>2026-09-16T23:03:47Z</time>
      </trkpt>
      <trkpt lat="23.072497" lon="113.270828">
        <time>2026-09-16T23:03:52Z</time>
      </trkpt>
      <trkpt lat="23.072588" lon="113.270906">
        <time>2026-09-16T23:03:57Z</time>
      </trkpt>
      <trkpt lat="23.07268" lon="113.270981">
        <time>2026-09-16T23:04:02Z</time>
      </trkpt>
      <trkpt lat="23.072773" lon="113.271034">
        <time>2026-09-16T23:04:07Z</time>
      </trkpt>
      <trkpt lat="23.072862" lon="113.271089">
        <time>2026-09-16T23:04:12Z</time>
      </trkpt>
      <trkpt lat="23.072956" lon="113.271141">
        <time>2026-09-16T23:04:17Z</time>
      </trkpt>
      <trkpt lat="23.073061" lon="113.27119">
        <time>2026-09-16T23:04:22Z</time>
      </trkpt>
      <trkpt lat="23.073168" lon="113.271236">
        <time>2026-09-16T23:04:27Z</time>
      </trkpt>
      <trkpt lat="23.073249" lon="113.271311">
        <time>2026-09-16T23:04:32Z</time>
      </trkpt>
      <trkpt lat="23.073345" lon="113.271376">
        <time>2026-09-16T23:04:37Z</time>
      </trkpt>
      <trkpt lat="23.073452" lon="113.271462">
        <time>2026-09-16T23:04:42Z</time>
      </trkpt>
      <trkpt lat="23.073559" lon="113.271552">
        <time>2026-09-16T23:04:47Z</time>
      </trkpt>
      <trkpt lat="23.073675" lon="113.271617">
        <time>2026-09-16T23:04:52Z</time>
      </trkpt>
      <trkpt lat="23.073785" lon="113.271663">
        <time>2026-09-16T23:04:57Z</time>
      </trkpt>
      <trkpt lat="23.073897" lon="113.271701">
        <time>2026-09-16T23:05:02Z</time>
      </trkpt>
      <trkpt lat="23.073961" lon="113.271776">
        <time>2026-09-16T23:05:07Z</time>
      </trkpt>
      <trkpt lat="23.073936" lon="113.271883">
        <time>2026-09-16T23:05:12Z</time>
      </trkpt>
      <trkpt lat="23.073883" lon="113.271972">
        <time>2026-09-16T23:05:17Z</time>
      </trkpt>
      <trkpt lat="23.073885" lon="113.272034">
        <time>2026-09-16T23:05:22Z</time>
      </trkpt>
      <trkpt lat="23.073873" lon="113.272088">
        <time>2026-09-16T23:05:27Z</time>
      </trkpt>
      <trkpt lat="23.073942" lon="113.272146">
        <time>2026-09-16T23:05:32Z</time>
      </trkpt>
      <trkpt lat="23.074076" lon="113.272194">
        <time>2026-09-16T23:05:37Z</time>
      </trkpt>
      <trkpt lat="23.074199" lon="113.272245">
        <time>2026-09-16T23:05:42Z</time>
      </trkpt>
      <trkpt lat="23.0743" lon="113.272283">
        <time>2026-09-16T23:05:47Z</time>
      </trkpt>
      <trkpt lat="23.074341" lon="113.272242">
        <time>2026-09-16T23:05:52Z</time>
      </trkpt>
      <trkpt lat="23.074368" lon="113.272179">
        <time>2026-09-16T23:05:59Z</time>
      </trkpt>
    </trkseg>
  </trk>
</gpx>