<?xml version="1.0" encoding="UTF-8"?>
<gpx xmlns="http://www.topografix.com/GPX/1/1" xmlns:gpxtpx="http://www.garmin.com/xmlschemas/TrackPointExtension/v1" xmlns:xsi="http://www.w3.org/2001/XMLSchema-instance" xsi:schemaLocation="http://www.topografix.com/GPX/1/1 http://www.topografix.com/GPX/1/1/gpx.xsd" version="1.1" creator="gpx.py -- https://github.com/tkrajina/gpxpy">
  <trk>
    <name>gpx from joyrun</name>
    <trkseg>
      <trkpt lat="23.076124" lon="113.272698">
        <time>2026-09-19T21:59:37Z</time>
      </trkpt>
      <trkpt lat="23.076118" lon="113.272712">
        <time>2026-09-19T21:59:42Z</time>
      </trkpt>
      <trkpt lat="23.07608" lon="113.272757">
        <time>2026-09-19T21:59:47Z</time>
      </trkpt>
      <trkpt lat="23.075984" lon="113.27274">
        <time>2026-09-19T21:59:52Z</time>
      </trkpt>
      <trkpt lat="23.075881" lon="113.272689">
        <time>2026-09-19T21:59:57Z</time>
      </trkpt>
      <trkpt lat="23.075783" lon="113.27264">
        <time>2026-09-19T22:00:02Z</time>
      </trkpt>
      <trkpt lat="23.075691" lon="113.272585">
        <time>2026-09-19T22:00:07Z</time>
      </trkpt>
      <trkpt lat="23.075594" lon="113.272527">
        <time>2026-09-19T22:00:12Z</time>
      </trkpt>
      <trkpt lat="23.075468" lon="113.272503">
        <time>2026-09-19T22:00:17Z</time>
      </trkpt>
      <trkpt lat="23.075332" lon="113.272499">
        <time>2026-09-19T22:00:22Z</time>
      </trkpt>
      <trkpt lat="23.07522" lon="113.272449">
        <time>2026-09-19T22:00:27Z</time>
      </trkpt>
      <trkpt lat="23.075124" lon="113.272388">
        <time>2026-09-19T22:00:32Z</time>
      </trkpt>
      <trkpt lat="23.075031" lon="113.272339">
        <time>2026-09-19T22:00:37Z</time>
      </trkpt>
      <trkpt lat="23.074934" lon="113.272293">
        <time>2026-09-19T22:00:42Z</time>
      </trkpt>
      <trkpt lat="23.074836" lon="113.27226">
        <time>2026-09-19T22:00:47Z</time>
      </trkpt>
      <trkpt lat="23.074738" lon="113.272215">
        <time>2026-09-19T22:00:52Z</time>
      </trkpt>
      <trkpt lat="23.074651" lon="113.272145">
        <time>2026-09-19T22:00:57Z</time>
      </trkpt>
      <trkpt lat="23.074559" lon="113.272082">
        <time>2026-09-19T22:01:02Z</time>
      </trkpt>
      <trkpt lat="23.074461" lon="113.272067">
        <time>2026-09-19T22:01:07Z</time>
      </trkpt>
      <trkpt lat="23.07438" lon="113.272133">
        <time>2026-09-19T22:01:12Z</time>
      </trkpt>
      <trkpt lat="23.074338" lon="113.272238">
        <time>2026-09-19T22:01:17Z</time>
      </trkpt>
      <trkpt lat="23.074303" lon="113.272345">
        <time>2026-09-19T22:01:22Z</time>
      </trkpt>
      <trkpt lat="23.074258" lon="113.272438">
        <time>2026-09-19T22:01:27Z</time>
      </trkpt>
      <trkpt lat="23.074203" lon="113.272534">
        <time>2026-09-19T22:01:32Z</time>
      </trkpt>
      <trkpt lat="23.07415" lon="113.272637">
        <time>2026-09-19T22:01:37Z</time>
      </trkpt>
      <trkpt lat="23.07409" lon="113.272738">
        <time>2026-09-19T22:01:42Z</time>
      </trkpt>
      <trkpt lat="23.074029" lon="113.272861">
        <time>2026-09-19T22:01:47Z</time>
      </trkpt>
      <trkpt lat="23.073981" lon="113.27296">
        <time>2026-09-19T22:01:52Z</time>
      </trkpt>
      <trkpt lat="23.073939" lon="113.273056">
        <time>2026-09-19T22:01:57Z</time>
      </trkpt>
      <trkpt lat="23.073894" lon="113.27315">
        <time>2026-09-19T22:02:02Z</time>
      </trkpt>
      <trkpt lat="23.073846" lon="113.273245">
        <time>2026-09-19T22:02:07Z</time>
      </trkpt>
      <trkpt lat="23.073796" lon="113.273336">
        <time>2026-09-19T22:02:12Z</time>
      </trkpt>
      <trkpt lat="23.073819" lon="113.273321">
        <time>2026-09-19T22:02:17Z</time>
      </trkpt>
      <trkpt lat="23.073867" lon="113.273248">
        <time>2026-09-19T22:02:22Z</time>
      </trkpt>
      <trkpt lat="23.073912" lon="113.273169">
        <time>2026-09-19T22:02:27Z</time>
      </trkpt>
      <trkpt lat="23.073952" lon="113.273089">
        <time>2026-09-19T22:02:32Z</time>
      </trkpt>
      <trkpt lat="23.073978" lon="113.273006">
        <time>2026-09-19T22:02:37Z</time>
      </trkpt>
      <trkpt lat="23.073987" lon="113.272953">
        <time>2026-09-19T22:02:42Z</time>
      </trkpt>
      <trkpt lat="23.074" lon="113.272888">
        <time>2026-09-19T22:02:47Z</time>
      </trkpt>
      <trkpt lat="23.073965" lon="113.272938">
        <time>2026-09-19T22:02:52Z</time>
      </trkpt>
      <trkpt lat="23.073924" lon="113.272989">
        <time>2026-09-19T22:02:57Z</time>
      </trkpt>
      <trkpt lat="23.073859" lon="113.272965">
        <time>2026-09-19T22:03:02Z</time>
      </trkpt>
      <trkpt lat="23.073751" lon="113.272901">
        <time>2026-09-19T22:03:07Z</time>
      </trkpt>
      <trkpt lat="23.07367" lon="113.272839">
        <time>2026-09-19T22:03:12Z</time>
      </trkpt>
      <trkpt lat="23.073691" lon="113.272759">
        <time>2026-09-19T22:03:17Z</time>
      </trkpt>
      <trkpt lat="23.073746" lon="113.272645">
        <time>2026-09-19T22:03:22Z</time>
      </trkpt>
      <trkpt lat="23.073796" lon="113.272529">
        <time>2026-09-19T22:03:27Z</time>
      </trkpt>
      <trkpt lat="23.073841" lon="113.272418">
        <time>2026-09-19T22:03:32Z</time>
      </trkpt>
      <trkpt lat="23.073883" lon="113.272316">
        <time>2026-09-19T22:03:37Z</time>
      </trkpt>
      <trkpt lat="23.073916" lon="113.272213">
        <time>2026-09-19T22:03:42Z</time>
      </trkpt>
      <trkpt lat="23.073956" lon="113.272113">
        <time>2026-09-19T22:03:47Z</time>
      </trkpt>
      <trkpt lat="23.074008" lon="113.272015">
        <time>2026-09-19T22:03:52Z</time>
      </trkpt>
      <trkpt lat="23.07407" lon="113.271915">
        <time>2026-09-19T22:03:57Z</time>
      </trkpt>
      <trkpt lat="23.074126" lon="113.271808">
        <time>2026-09-19T22:04:02Z</time>
      </trkpt>
      <trkpt lat="23.074095" lon="113.271724">
        <time>2026-09-19T22:04:07Z</time>
      </trkpt>
      <trkpt lat="23.073997" lon="113.271656">
        <time>2026-09-19T22:04:12Z</time>
      </trkpt>
      <trkpt lat="23.073905" lon="113.271601">
        <time>2026-09-19T22:04:17Z</time>
      </trkpt>
      <trkpt lat="23.073809" lon="113.271557">
        <time>2026-09-19T22:04:22Z</time>
      </trkpt>
      <trkpt lat="23.073718" lon="113.271514">
        <time>2026-09-19T22:04:27Z</time>
      </trkpt>
      <trkpt lat="23.073619" lon="113.271486">
        <time>2026-09-19T22:04:32Z</time>
      </trkpt>
      <trkpt lat="23.073516" lon="113.271459">
        <time>2026-09-19T22:04:37Z</time>
      </trkpt>
      <trkpt lat="23.07341" lon="113.271431">
        <time>2026-09-19T22:04:42Z</time>
      </trkpt>
      <trkpt lat="23.07331" lon="113.271411">
        <time>2026-09-19T22:04:47Z</time>
      </trkpt>
      <trkpt lat="23.073224" lon="113.271354">
        <time>2026-09-19T22:04:52Z</time>
      </trkpt>
      <trkpt lat="23.073159" lon="113.271251">
        <time>2026-09-19T22:04:57Z</time>
      </trkpt>
      <trkpt lat="23.073071" lon="113.271193">
        <time>2026-09-19T22:05:02Z</time>
      </trkpt>
      <trkpt lat="23.072971" lon="113.271144">
        <time>2026-09-19T22:05:07Z</time>
      </trkpt>
      <trkpt lat="23.072874" lon="113.271089">
        <time>2026-09-19T22:05:12Z</time>
      </trkpt>
      <trkpt lat="23.072768" lon="113.271032">
        <time>2026-09-19T22:05:17Z</time>
      </trkpt>
      <trkpt lat="23.072665" lon="113.270978">
        <time>2026-09-19T22:05:22Z</time>
      </trkpt>
      <trkpt lat="23.07256" lon="113.270922">
        <time>2026-09-19T22:05:27Z</time>
      </trkpt>
      <trkpt lat="23.072445" lon="113.270887">
        <time>2026-09-19T22:05:32Z</time>
      </trkpt>
      <trkpt lat="23.072338" lon="113.270855">
        <time>2026-09-19T22:05:37Z</time>
      </trkpt>
      <trkpt lat="23.072238" lon="113.270808">
        <time>2026-09-19T22:05:42Z</time>
      </trkpt>
      <trkpt lat="23.072136" lon="113.27077">
        <time>2026-09-19T22:05:47Z</time>
      </trkpt>
      <trkpt lat="23.072041" lon="113.270726">
        <time>2026-09-19T22:05:52Z</time>
      </trkpt>
      <trkpt lat="23.071938" lon="113.27068">
        <time>2026-09-19T22:05:57Z</time>
      </trkpt>
      <trkpt lat="23.07183" lon="113.270639">
        <time>2026-09-19T22:06:02Z</time>
      </trkpt>
      <trkpt lat="23.071729" lon="113.270582">
        <time>2026-09-19T22:06:07Z</time>
      </trkpt>
      <trkpt lat="23.071634" lon="113.270516">
        <time>2026-09-19T22:06:12Z</time>
      </trkpt>
      <trkpt lat="23.071542" lon="113.270473">
        <time>2026-09-19T22:06:17Z</time>
      </trkpt>
      <trkpt lat="23.071456" lon="113.270418">
        <time>2026-09-19T22:06:22Z</time>
      </trkpt>
      <trkpt lat="23.071365" lon="113.270364">
        <time>2026-09-19T22:06:27Z</time>
      </trkpt>
      <trkpt lat="23.071273" lon="113.270322">
        <time>2026-09-19T22:06:32Z</time>
      </trkpt>
      <trkpt lat="23.07117" lon="113.270288">
        <time>2026-09-19T22:06:37Z</time>
      </trkpt>
      <trkpt lat="23.071069" lon="113.270245">
        <time>2026-09-19T22:06:42Z</time>
      </trkpt>
      <trkpt lat="23.070969" lon="113.270198">
        <time>2026-09-19T22:06:47Z</time>
      </trkpt>
      <trkpt lat="23.07087" lon="113.270178">
        <time>2026-09-19T22:06:52Z</time>
      </trkpt>
      <trkpt lat="23.070769" lon="113.270148">
        <time>2026-09-19T22:06:57Z</time>
      </trkpt>
      <trkpt lat="23.070673" lon="113.270088">
        <time>2026-09-19T22:07:02Z</time>
      </trkpt>
      <trkpt lat="23.070587" lon="113.270017">
        <time>2026-09-19T22:07:07Z</time>
      </trkpt>
      <trkpt lat="23.070511" lon="113.269992">
        <time>2026-09-19T22:07:12Z</time>
      </trkpt>
      <trkpt lat="23.07042" lon="113.269951">
        <time>2026-09-19T22:07:17Z</time>
      </trkpt>
      <trkpt lat="23.070305" lon="113.269912">
        <time>2026-09-19T22:07:22Z</time>
      </trkpt>
      <trkpt lat="23.070195" lon="113.269863">
        <time>2026-09-19T22:07:27Z</time>
      </trkpt>
      <trkpt lat="23.07009" lon="113.269799">
        <time>2026-09-19T22:07:32Z</time>
      </trkpt>
      <trkpt lat="23.070025" lon="113.269736">
        <time>2026-09-19T22:07:37Z</time>
      </trkpt>
      <trkpt lat="23.069937" lon="113.26967">
        <time>2026-09-19T22:07:42Z</time>
      </trkpt>
      <trkpt lat="23.069841" lon="113.26962">
        <time>2026-09-19T22:07:47Z</time>
      </trkpt>
      <trkpt lat="23.069735" lon="113.269561">
        <time>2026-09-19T22:07:52Z</time>
      </trkpt>
      <trkpt lat="23.069624" lon="113.269493">
        <time>2026-09-19T22:07:57Z</time>
      </trkpt>
      <trkpt lat="23.06952" lon="113.269434">
        <time>2026-09-19T22:08:02Z</time>
      </trkpt>
      <trkpt lat="23.069425" lon="113.269384">
        <time>2026-09-19T22:08:07Z</time>
      </trkpt>
      <trkpt lat="23.069335" lon="113.269318">
        <time>2026-09-19T22:08:12Z</time>
      </trkpt>
      <trkpt lat="23.069241" lon="113.26925">
        <time>2026-09-19T22:08:17Z</time>
      </trkpt>
      <trkpt lat="23.069147" lon="113.269197">
        <time>2026-09-19T22:08:22Z</time>
      </trkpt>
      <trkpt lat="23.069051" lon="113.269147">
        <time>2026-09-19T22:08:27Z</time>
      </trkpt>
      <trkpt lat="23.068961" lon="113.269104">
        <time>2026-09-19T22:08:32Z</time>
      </trkpt>
      <trkpt lat="23.06887" lon="113.269044">
        <time>2026-09-19T22:08:37Z</time>
      </trkpt>
      <trkpt lat="23.068776" lon="113.268992">
        <time>2026-09-19T22:08:42Z</time>
      </trkpt>
      <trkpt lat="23.068705" lon="113.268917">
        <time>2026-09-19T22:08:47Z</time>
      </trkpt>
      <trkpt lat="23.068627" lon="113.268861">
        <time>2026-09-19T22:08:52Z</time>
      </trkpt>
      <trkpt lat="23.068531" lon="113.268826">
        <time>2026-09-19T22:08:57Z</time>
      </trkpt>
      <trkpt lat="23.068427" lon="113.268785">
        <time>2026-09-19T22:09:02Z</time>
      </trkpt>
      <trkpt lat="23.068334" lon="113.26874">
        <time>2026-09-19T22:09:07Z</time>
      </trkpt>
      <trkpt lat="23.068232" lon="113.268695">
        <time>2026-09-19T22:09:12Z</time>
      </trkpt>
      <trkpt lat="23.068128" lon="113.268636">
        <time>2026-09-19T22:09:17Z</time>
      </trkpt>
      <trkpt lat="23.068013" lon="113.268574">
        <time>2026-09-19T22:09:22Z</time>
      </trkpt>
      <trkpt lat="23.067892" lon="113.268526">
        <time>2026-09-19T22:09:27Z</time>
      </trkpt>
      <trkpt lat="23.067785" lon="113.268477">
        <time>2026-09-19T22:09:32Z</time>
      </trkpt>
      <trkpt lat="23.067692" lon="113.268424">
        <time>2026-09-19T22:09:37Z</time>
      </trkpt>
      <trkpt lat="23.067595" lon="113.268372">
        <time>2026-09-19T22:09:42Z</time>
      </trkpt>
      <trkpt lat="23.067495" lon="113.268326">
        <time>2026-09-19T22:09:47Z</time>
      </trkpt>
      <trkpt lat="23.067396" lon="113.268286">
        <time>2026-09-19T22:09:52Z</time>
      </trkpt>
      <trkpt lat="23.067305" lon="113.26824">
        <time>2026-09-19T22:09:57Z</time>
      </trkpt>
      <trkpt lat="23.067214" lon="113.268192">
        <time>2026-09-19T22:10:02Z</time>
      </trkpt>
      <trkpt lat="23.067122" lon="113.268146">
        <time>2026-09-19T22:10:07Z</time>
      </trkpt>
      <trkpt lat="23.067029" lon="113.268103">
        <time>2026-09-19T22:10:12Z</time>
      </trkpt>
      <trkpt lat="23.066932" lon="113.268062">
        <time>2026-09-19T22:10:17Z</time>
      </trkpt>
      <trkpt lat="23.066828" lon="113.268045">
        <time>2026-09-19T22:10:22Z</time>
      </trkpt>
      <trkpt lat="23.066723" lon="113.268034">
        <time>2026-09-19T22:10:27Z</time>
      </trkpt>
      <trkpt lat="23.06662" lon="113.268023">
        <time>2026-09-19T22:10:32Z</time>
      </trkpt>
      <trkpt lat="23.066529" lon="113.267985">
        <time>2026-09-19T22:10:37Z</time>
      </trkpt>
      <trkpt lat="23.066433" lon="113.267942">
        <time>2026-09-19T22:10:42Z</time>
      </trkpt>
      <trkpt lat="23.066331" lon="113.26794">
        <time>2026-09-19T22:10:47Z</time>
      </trkpt>
      <trkpt lat="23.066233" lon="113.267982">
        <time>2026-09-19T22:10:52Z</time>
      </trkpt>
      <trkpt lat="23.066155" lon="113.268068">
        <time>2026-09-19T22:10:57Z</time>
      </trkpt>
      <trkpt lat="23.06609" lon="113.268157">
        <time>2026-09-19T22:11:02Z</time>
      </trkpt>
      <trkpt lat="23.066015" lon="113.268232">
        <time>2026-09-19T22:11:07Z</time>
      </trkpt>
      <trkpt lat="23.06595" lon="113.268313">
        <time>2026-09-19T22:11:12Z</time>
      </trkpt>
      <trkpt lat="23.065891" lon="113.268401">
        <time>2026-09-19T22:11:17Z</time>
      </trkpt>
      <trkpt lat="23.065834" lon="113.268496">
        <time>2026-09-19T22:11:22Z</time>
      </trkpt>
      <trkpt lat="23.06578" lon="113.268586">
        <time>2026-09-19T22:11:27Z</time>
      </trkpt>
      <trkpt lat="23.065735" lon="113.268685">
        <time>2026-09-19T22:11:32Z</time>
      </trkpt>
      <trkpt lat="23.065695" lon="113.268787">
        <time>2026-09-19T22:11:37Z</time>
      </trkpt>
      <trkpt lat="23.065658" lon="113.268885">
        <time>2026-09-19T22:11:42Z</time>
      </trkpt>
      <trkpt lat="23.065625" lon="113.268986">
        <time>2026-09-19T22:11:47Z</time>
      </trkpt>
      <trkpt lat="23.065596" lon="113.269088">
        <time>2026-09-19T22:11:52Z</time>
      </trkpt>
      <trkpt lat="23.065565" lon="113.269185">
        <time>2026-09-19T22:11:57Z</time>
      </trkpt>
      <trkpt lat="23.065535" lon="113.269289">
        <time>2026-09-19T22:12:02Z</time>
      </trkpt>
      <trkpt lat="23.065509" lon="113.269416">
        <time>2026-09-19T22:12:07Z</time>
      </trkpt>
      <trkpt lat="23.06548" lon="113.269531">
        <time>2026-09-19T22:12:12Z</time>
      </trkpt>
      <trkpt lat="23.065453" lon="113.269633">
        <time>2026-09-19T22:12:17Z</time>
      </trkpt>
      <trkpt lat="23.065428" lon="113.269736">
        <time>2026-09-19T22:12:22Z</time>
      </trkpt>
      <trkpt lat="23.065399" lon="113.269836">
        <time>2026-09-19T22:12:27Z</time>
      </trkpt>
      <trkpt lat="23.065365" lon="113.269943">
        <time>2026-09-19T22:12:32Z</time>
      </trkpt>
      <trkpt lat="23.065335" lon="113.270046">
        <time>2026-09-19T22:12:37Z</time>
      </trkpt>
      <trkpt lat="23.065298" lon="113.270143">
        <time>2026-09-19T22:12:42Z</time>
      </trkpt>
      <trkpt lat="23.065251" lon="113.270242">
        <time>2026-09-19T22:12:47Z</time>
      </trkpt>
      <trkpt lat="23.065204" lon="113.270341">
        <time>2026-09-19T22:12:52Z</time>
      </trkpt>
      <trkpt lat="23.065153" lon="113.270437">
        <time>2026-09-19T22:12:57Z</time>
      </trkpt>
      <trkpt lat="23.065105" lon="113.270535">
        <time>2026-09-19T22:13:02Z</time>
      </trkpt>
      <trkpt lat="23.065061" lon="113.270634">
        <time>2026-09-19T22:13:07Z</time>
      </trkpt>
      <trkpt lat="23.065017" lon="113.270735">
        <time>2026-09-19T22:13:12Z</time>
      </trkpt>
      <trkpt lat="23.064967" lon="113.270831">
        <time>2026-09-19T22:13:17Z</time>
      </trkpt>
      <trkpt lat="23.06492" lon="113.270927">
        <time>2026-09-19T22:13:22Z</time>
      </trkpt>
      <trkpt lat="23.064878" lon="113.271029">
        <time>2026-09-19T22:13:27Z</time>
      </trkpt>
      <trkpt lat="23.06483" lon="113.27113">
        <time>2026-09-19T22:13:32Z</time>
      </trkpt>
      <trkpt lat="23.064781" lon="113.271229">
        <time>2026-09-19T22:13:37Z</time>
      </trkpt>
      <trkpt lat="23.064736" lon="113.271326">
        <time>2026-09-19T22:13:42Z</time>
      </trkpt>
      <trkpt lat="23.064691" lon="113.271427">
        <time>2026-09-19T22:13:47Z</time>
      </trkpt>
      <trkpt lat="23.064645" lon="113.271529">
        <time>2026-09-19T22:13:52Z</time>
      </trkpt>
      <trkpt lat="23.064599" lon="113.27163">
        <time>2026-09-19T22:13:57Z</time>
      </trkpt>
      <trkpt lat="23.064554" lon="113.271732">
        <time>2026-09-19T22:14:02Z</time>
      </trkpt>
      <trkpt lat="23.064503" lon="113.271834">
        <time>2026-09-19T22:14:07Z</time>
      </trkpt>
      <trkpt lat="23.064453" lon="113.271937">
        <time>2026-09-19T22:14:12Z</time>
      </trkpt>
      <trkpt lat="23.064404" lon="113.272042">
        <time>2026-09-19T22:14:17Z</time>
      </trkpt>
      <trkpt lat="23.064343" lon="113.272144">
        <time>2026-09-19T22:14:22Z</time>
      </trkpt>
      <trkpt lat="23.064296" lon="113.27225">
        <time>2026-09-19T22:14:27Z</time>
      </trkpt>
      <trkpt lat="23.064295" lon="113.272365">
        <time>2026-09-19T22:14:32Z</time>
      </trkpt>
      <trkpt lat="23.06429" lon="113.272478">
        <time>2026-09-19T22:14:37Z</time>
      </trkpt>
      <trkpt lat="23.064294" lon="113.272595">
        <time>2026-09-19T22:14:42Z</time>
      </trkpt>
      <trkpt lat="23.064318" lon="113.272715">
        <time>2026-09-19T22:14:47Z</time>
      </trkpt>
      <trkpt lat="23.064358" lon="113.272827">
        <time>2026-09-19T22:14:52Z</time>
      </trkpt>
      <trkpt lat="23.064395" lon="113.272932">
        <time>2026-09-19T22:14:57Z</time>
      </trkpt>
      <trkpt lat="23.064429" lon="113.273037">
        <time>2026-09-19T22:15:02Z</time>
      </trkpt>
      <trkpt lat="23.064462" lon="113.273144">
        <time>2026-09-19T22:15:07Z</time>
      </trkpt>
      <trkpt lat="23.064446" lon="113.273252">
        <time>2026-09-19T22:15:12Z</time>
      </trkpt>
      <trkpt lat="23.064372" lon="113.273341">
        <time>2026-09-19T22:15:17Z</time>
      </trkpt>
      <trkpt lat="23.064269" lon="113.273415">
        <time>2026-09-19T22:15:22Z</time>
      </trkpt>
      <trkpt lat="23.064174" lon="113.273488">
        <time>2026-09-19T22:15:27Z</time>
      </trkpt>
      <trkpt lat="23.064086" lon="113.273556">
        <time>2026-09-19T22:15:32Z</time>
      </trkpt>
      <trkpt lat="23.063998" lon="113.273629">
        <time>2026-09-19T22:15:37Z</time>
      </trkpt>
      <trkpt lat="23.063919" lon="113.273716">
        <time>2026-09-19T22:15:42Z</time>
      </trkpt>
      <trkpt lat="23.063853" lon="113.273808">
        <time>2026-09-19T22:15:47Z</time>
      </trkpt>
      <trkpt lat="23.063795" lon="113.273907">
        <time>2026-09-19T22:15:52Z</time>
      </trkpt>
      <trkpt lat="23.063736" lon="113.274004">
        <time>2026-09-19T22:15:57Z</time>
      </trkpt>
      <trkpt lat="23.063661" lon="113.27409">
        <time>2026-09-19T22:16:02Z</time>
      </trkpt>
      <trkpt lat="23.063571" lon="113.274133">
        <time>2026-09-19T22:16:07Z</time>
      </trkpt>
      <trkpt lat="23.063477" lon="113.274094">
        <time>2026-09-19T22:16:12Z</time>
      </trkpt>
      <trkpt lat="23.063392" lon="113.27414">
        <time>2026-09-19T22:16:17Z</time>
      </trkpt>
      <trkpt lat="23.063343" lon="113.27426">
        <time>2026-09-19T22:16:22Z</time>
      </trkpt>
      <trkpt lat="23.063298" lon="113.274379">
        <time>2026-09-19T22:16:27Z</time>
      </trkpt>
      <trkpt lat="23.063261" lon="113.274491">
        <time>2026-09-19T22:16:32Z</time>
      </trkpt>
      <trkpt lat="23.063221" lon="113.274599">
        <time>2026-09-19T22:16:37Z</time>
      </trkpt>
      <trkpt lat="23.063178" lon="113.274701">
        <time>2026-09-19T22:16:42Z</time>
      </trkpt>
      <trkpt lat="23.063134" lon="113.274812">
        <time>2026-09-19T22:16:47Z</time>
      </trkpt>
      <trkpt lat="23.063095" lon="113.274932">
        <time>2026-09-19T22:16:52Z</time>
      </trkpt>
      <trkpt lat="23.063061" lon="113.275055">
        <time>2026-09-19T22:16:57Z</time>
      </trkpt>
      <trkpt lat="23.062999" lon="113.275151">
        <time>2026-09-19T22:17:02Z</time>
      </trkpt>
      <trkpt lat="23.062909" lon="113.275224">
        <time>2026-09-19T22:17:07Z</time>
      </trkpt>
      <trkpt lat="23.062901" lon="113.27534">
        <time>2026-09-19T22:17:12Z</time>
      </trkpt>
      <trkpt lat="23.062932" lon="113.275457">
        <time>2026-09-19T22:17:17Z</time>
      </trkpt>
      <trkpt lat="23.062895" lon="113.275561">
        <time>2026-09-19T22:17:22Z</time>
      </trkpt>
      <trkpt lat="23.062814" lon="113.275644">
        <time>2026-09-19T22:17:27Z</time>
      </trkpt>
      <trkpt lat="23.062734" lon="113.275737">
        <time>2026-09-19T22:17:32Z</time>
      </trkpt>
      <trkpt lat="23.06265" lon="113.275832">
        <time>2026-09-19T22:17:37Z</time>
      </trkpt>
      <trkpt lat="23.062576" lon="113.275926">
        <time>2026-09-19T22:17:42Z</time>
      </trkpt>
      <trkpt lat="23.062509" lon="113.276028">
        <time>2026-09-19T22:17:47Z</time>
      </trkpt>
      <trkpt lat="23.062454" lon="113.27613">
        <time>2026-09-19T22:17:52Z</time>
      </trkpt>
      <trkpt lat="23.062407" lon="113.276235">
        <time>2026-09-19T22:17:57Z</time>
      </trkpt>
      <trkpt lat="23.062371" lon="113.276344">
        <time>2026-09-19T22:18:02Z</time>
      </trkpt>
      <trkpt lat="23.062334" lon="113.276459">
        <time>2026-09-19T22:18:07Z</time>
      </trkpt>
      <trkpt lat="23.062292" lon="113.276572">
        <time>2026-09-19T22:18:12Z</time>
      </trkpt>
      <trkpt lat="23.062251" lon="113.276682">
        <time>2026-09-19T22:18:17Z</time>
      </trkpt>
      <trkpt lat="23.06221" lon="113.27679">
        <time>2026-09-19T22:18:22Z</time>
      </trkpt>
      <trkpt lat="23.062169" lon="113.2769">
        <time>2026-09-19T22:18:27Z</time>
      </trkpt>
      <trkpt lat="23.062129" lon="113.277008">
        <time>2026-09-19T22:18:32Z</time>
      </trkpt>
      <trkpt lat="23.062097" lon="113.277115">
        <time>2026-09-19T22:18:37Z</time>
      </trkpt>
      <trkpt lat="23.062059" lon="113.277225">
        <time>2026-09-19T22:18:42Z</time>
      </trkpt>
      <trkpt lat="23.062011" lon="113.277336">
        <time>2026-09-19T22:18:47Z</time>
      </trkpt>
      <trkpt lat="23.061966" lon="113.277449">
        <time>2026-09-19T22:18:52Z</time>
      </trkpt>
      <trkpt lat="23.061925" lon="113.277558">
        <time>2026-09-19T22:18:57Z</time>
      </trkpt>
      <trkpt lat="23.061889" lon="113.277669">
        <time>2026-09-19T22:19:02Z</time>
      </trkpt>
      <trkpt lat="23.061861" lon="113.277784">
        <time>2026-09-19T22:19:07Z</time>
      </trkpt>
      <trkpt lat="23.061848" lon="113.277904">
        <time>2026-09-19T22:19:12Z</time>
      </trkpt>
      <trkpt lat="23.06185" lon="113.278018">
        <time>2026-09-19T22:19:17Z</time>
      </trkpt>
      <trkpt lat="23.061857" lon="113.278126">
        <time>2026-09-19T22:19:22Z</time>
      </trkpt>
      <trkpt lat="23.061858" lon="113.278238">
        <time>2026-09-19T22:19:27Z</time>
      </trkpt>
      <trkpt lat="23.061853" lon="113.278353">
        <time>2026-09-19T22:19:32Z</time>
      </trkpt>
      <trkpt lat="23.061849" lon="113.278472">
        <time>2026-09-19T22:19:37Z</time>
      </trkpt>
      <trkpt lat="23.061854" lon="113.278589">
        <time>2026-09-19T22:19:42Z</time>
      </trkpt>
      <trkpt lat="23.061848" lon="113.278707">
        <time>2026-09-19T22:19:47Z</time>
      </trkpt>
      <trkpt lat="23.061809" lon="113.278823">
        <time>2026-09-19T22:19:52Z</time>
      </trkpt>
      <trkpt lat="23.061755" lon="113.278926">
        <time>2026-09-19T22:19:57Z</time>
      </trkpt>
      <trkpt lat="23.061699" lon="113.279025">
        <time>2026-09-19T22:20:02Z</time>
      </trkpt>
      <trkpt lat="23.061637" lon="113.279129">
        <time>2026-09-19T22:20:07Z</time>
      </trkpt>
      <trkpt lat="23.061586" lon="113.279235">
        <time>2026-09-19T22:20:12Z</time>
      </trkpt>
      <trkpt lat="23.061547" lon="113.279342">
        <time>2026-09-19T22:20:17Z</time>
      </trkpt>
      <trkpt lat="23.061509" lon="113.279455">
        <time>2026-09-19T22:20:22Z</time>
      </trkpt>
      <trkpt lat="23.061468" lon="113.279561">
        <time>2026-09-19T22:20:27Z</time>
      </trkpt>
      <trkpt lat="23.061427" lon="113.279663">
        <time>2026-09-19T22:20:32Z</time>
      </trkpt>
      <trkpt lat="23.061385" lon="113.279769">
        <time>2026-09-19T22:20:37Z</time>
      </trkpt>
      <trkpt lat="23.061335" lon="113.279874">
        <time>2026-09-19T22:20:42Z</time>
      </trkpt>
      <trkpt lat="23.061293" lon="113.279984">
        <time>2026-09-19T22:20:47Z</time>
      </trkpt>
      <trkpt lat="23.061247" lon="113.280097">
        <time>2026-09-19T22:20:52Z</time>
      </trkpt>
      <trkpt lat="23.061198" lon="113.280208">
        <time>2026-09-19T22:20:57Z</time>
      </trkpt>
      <trkpt lat="23.061149" lon="113.280321">
        <time>2026-09-19T22:21:02Z</time>
      </trkpt>
      <trkpt lat="23.061102" lon="113.280434">
        <time>2026-09-19T22:21:07Z</time>
      </trkpt>
      <trkpt lat="23.061055" lon="113.28055">
        <time>2026-09-19T22:21:12Z</time>
      </trkpt>
      <trkpt lat="23.061" lon="113.280664">
        <time>2026-09-19T22:21:17Z</time>
      </trkpt>
      <trkpt lat="23.060925" lon="113.280762">
        <time>2026-09-19T22:21:22Z</time>
      </trkpt>
      <trkpt lat="23.06087" lon="113.280865">
        <time>2026-09-19T22:21:27Z</time>
      </trkpt>
      <trkpt lat="23.060828" lon="113.280969">
        <time>2026-09-19T22:21:32Z</time>
      </trkpt>
      <trkpt lat="23.060791" lon="113.281075">
        <time>2026-09-19T22:21:37Z</time>
      </trkpt>
      <trkpt lat="23.06074" lon="113.281178">
        <time>2026-09-19T22:21:42Z</time>
      </trkpt>
      <trkpt lat="23.060689" lon="113.281283">
        <time>2026-09-19T22:21:47Z</time>
      </trkpt>
      <trkpt lat="23.060643" lon="113.281387">
        <time>2026-09-19T22:21:52Z</time>
      </trkpt>
      <trkpt lat="23.060596" lon="113.281487">
        <time>2026-09-19T22:21:57Z</time>
      </trkpt>
      <trkpt lat="23.060553" lon="113.28159">
        <time>2026-09-19T22:22:02Z</time>
      </trkpt>
      <trkpt lat="23.060513" lon="113.28169">
        <time>2026-09-19T22:22:07Z</time>
      </trkpt>
      <trkpt lat="23.060471" lon="113.281792">
        <time>2026-09-19T22:22:12Z</time>
      </trkpt>
      <trkpt lat="23.060427" lon="113.281905">
        <time>2026-09-19T22:22:17Z</time>
      </trkpt>
      <trkpt lat="23.060375" lon="113.282015">
        <time>2026-09-19T22:22:22Z</time>
      </trkpt>
      <trkpt lat="23.060325" lon="113.282123">
        <time>2026-09-19T22:22:27Z</time>
      </trkpt>
      <trkpt lat="23.060281" lon="113.282231">
        <time>2026-09-19T22:22:32Z</time>
      </trkpt>
      <trkpt lat="23.060241" lon="113.282333">
        <time>2026-09-19T22:22:37Z</time>
      </trkpt>
      <trkpt lat="23.060195" lon="113.282435">
        <time>2026-09-19T22:22:42Z</time>
      </trkpt>
      <trkpt lat="23.06015" lon="113.282534">
        <time>2026-09-19T22:22:47Z</time>
      </trkpt>
      <trkpt lat="23.060106" lon="113.282637">
        <time>2026-09-19T22:22:52Z</time>
      </trkpt>
      <trkpt lat="23.060066" lon="113.282739">
        <time>2026-09-19T22:22:57Z</time>
      </trkpt>
      <trkpt lat="23.060024" lon="113.282841">
        <time>2026-09-19T22:23:02Z</time>
      </trkpt>
      <trkpt lat="23.059984" lon="113.282946">
        <time>2026-09-19T22:23:07Z</time>
      </trkpt>
      <trkpt lat="23.059942" lon="113.283047">
        <time>2026-09-19T22:23:12Z</time>
      </trkpt>
      <trkpt lat="23.059893" lon="113.283146">
        <time>2026-09-19T22:23:17Z</time>
      </trkpt>
      <trkpt lat="23.05985" lon="113.28325">
        <time>2026-09-19T22:23:22Z</time>
      </trkpt>
      <trkpt lat="23.059851" lon="113.283348">
        <time>2026-09-19T22:23:27Z</time>
      </trkpt>
      <trkpt lat="23.059935" lon="113.283344">
        <time>2026-09-19T22:23:32Z</time>
      </trkpt>
      <trkpt lat="23.060003" lon="113.283263">
        <time>2026-09-19T22:23:37Z</time>
      </trkpt>
      <trkpt lat="23.060059" lon="113.283173">
        <time>2026-09-19T22:23:42Z</time>
      </trkpt>
      <trkpt lat="23.060121" lon="113.283077">
        <time>2026-09-19T22:23:47Z</time>
      </trkpt>
      <trkpt lat="23.060168" lon="113.282966">
        <time>2026-09-19T22:23:52Z</time>
      </trkpt>
      <trkpt lat="23.060212" lon="113.282863">
        <time>2026-09-19T22:23:57Z</time>
      </trkpt>
      <trkpt lat="23.060264" lon="113.282764">
        <time>2026-09-19T22:24:02Z</time>
      </trkpt>
      <trkpt lat="23.060308" lon="113.282665">
        <time>2026-09-19T22:24:07Z</time>
      </trkpt>
      <trkpt lat="23.060353" lon="113.282552">
        <time>2026-09-19T22:24:12Z</time>
      </trkpt>
      <trkpt lat="23.060393" lon="113.282436">
        <time>2026-09-19T22:24:17Z</time>
      </trkpt>
      <trkpt lat="23.060432" lon="113.28233">
        <time>2026-09-19T22:24:22Z</time>
      </trkpt>
      <trkpt lat="23.060467" lon="113.28222">
        <time>2026-09-19T22:24:27Z</time>
      </trkpt>
      <trkpt lat="23.060498" lon="113.282107">
        <time>2026-09-19T22:24:32Z</time>
      </trkpt>
      <trkpt lat="23.06054" lon="113.282014">
        <time>2026-09-19T22:24:37Z</time>
      </trkpt>
      <trkpt lat="23.06058" lon="113.281921">
        <time>2026-09-19T22:24:42Z</time>
      </trkpt>
      <trkpt lat="23.060618" lon="113.28182">
        <time>2026-09-19T22:24:47Z</time>
      </trkpt>
      <trkpt lat="23.06066" lon="113.281711">
        <time>2026-09-19T22:24:52Z</time>
      </trkpt>
      <trkpt lat="23.060699" lon="113.281606">
        <time>2026-09-19T22:24:57Z</time>
      </trkpt>
      <trkpt lat="23.060742" lon="113.281507">
        <time>2026-09-19T22:25:02Z</time>
      </trkpt>
      <trkpt lat="23.060787" lon="113.281402">
        <time>2026-09-19T22:25:07Z</time>
      </trkpt>
      <trkpt lat="23.060835" lon="113.281291">
        <time>2026-09-19T22:25:12Z</time>
      </trkpt>
      <trkpt lat="23.06088" lon="113.281188">
        <time>2026-09-19T22:25:17Z</time>
      </trkpt>
      <trkpt lat="23.06093" lon="113.281078">
        <time>2026-09-19T22:25:22Z</time>
      </trkpt>
      <trkpt lat="23.060981" lon="113.280968">
        <time>2026-09-19T22:25:27Z</time>
      </trkpt>
      <trkpt lat="23.061024" lon="113.280864">
        <time>2026-09-19T22:25:32Z</time>
      </trkpt>
      <trkpt lat="23.061063" lon="113.280763">
        <time>2026-09-19T22:25:37Z</time>
      </trkpt>
      <trkpt lat="23.061109" lon="113.280656">
        <time>2026-09-19T22:25:42Z</time>
      </trkpt>
      <trkpt lat="23.061158" lon="113.280549">
        <time>2026-09-19T22:25:47Z</time>
      </trkpt>
      <trkpt lat="23.061206" lon="113.28044">
        <time>2026-09-19T22:25:52Z</time>
      </trkpt>
      <trkpt lat="23.061252" lon="113.280333">
        <time>2026-09-19T22:25:57Z</time>
      </trkpt>
      <trkpt lat="23.061301" lon="113.280234">
        <time>2026-09-19T22:26:02Z</time>
      </trkpt>
      <trkpt lat="23.061356" lon="113.28014">
        <time>2026-09-19T22:26:07Z</time>
      </trkpt>
      <trkpt lat="23.061401" lon="113.280044">
        <time>2026-09-19T22:26:12Z</time>
      </trkpt>
      <trkpt lat="23.061439" lon="113.279946">
        <time>2026-09-19T22:26:17Z</time>
      </trkpt>
      <trkpt lat="23.061473" lon="113.279841">
        <time>2026-09-19T22:26:22Z</time>
      </trkpt>
      <trkpt lat="23.061514" lon="113.279739">
        <time>2026-09-19T22:26:27Z</time>
      </trkpt>
      <trkpt lat="23.061563" lon="113.279641">
        <time>2026-09-19T22:26:32Z</time>
      </trkpt>
      <trkpt lat="23.061613" lon="113.279535">
        <time>2026-09-19T22:26:37Z</time>
      </trkpt>
      <trkpt lat="23.061657" lon="113.279423">
        <time>2026-09-19T22:26:42Z</time>
      </trkpt>
      <trkpt lat="23.061697" lon="113.279313">
        <time>2026-09-19T22:26:47Z</time>
      </trkpt>
      <trkpt lat="23.061736" lon="113.279198">
        <time>2026-09-19T22:26:52Z</time>
      </trkpt>
      <trkpt lat="23.061784" lon="113.279093">
        <time>2026-09-19T22:26:57Z</time>
      </trkpt>
      <trkpt lat="23.061843" lon="113.278996">
        <time>2026-09-19T22:27:02Z</time>
      </trkpt>
      <trkpt lat="23.061904" lon="113.2789">
        <time>2026-09-19T22:27:07Z</time>
      </trkpt>
      <trkpt lat="23.061963" lon="113.278794">
        <time>2026-09-19T22:27:12Z</time>
      </trkpt>
      <trkpt lat="23.061987" lon="113.278676">
        <time>2026-09-19T22:27:17Z</time>
      </trkpt>
      <trkpt lat="23.061988" lon="113.278556">
        <time>2026-09-19T22:27:22Z</time>
      </trkpt>
      <trkpt lat="23.061989" lon="113.278433">
        <time>2026-09-19T22:27:27Z</time>
      </trkpt>
      <trkpt lat="23.061976" lon="113.278313">
        <time>2026-09-19T22:27:32Z</time>
      </trkpt>
      <trkpt lat="23.061964" lon="113.278194">
        <time>2026-09-19T22:27:37Z</time>
      </trkpt>
      <trkpt lat="23.061957" lon="113.278076">
        <time>2026-09-19T22:27:42Z</time>
      </trkpt>
      <trkpt lat="23.061948" lon="113.277957">
        <time>2026-09-19T22:27:47Z</time>
      </trkpt>
      <trkpt lat="23.061945" lon="113.277833">
        <time>2026-09-19T22:27:52Z</time>
      </trkpt>
      <trkpt lat="23.061969" lon="113.277715">
        <time>2026-09-19T22:27:57Z</time>
      </trkpt>
      <trkpt lat="23.061998" lon="113.277596">
        <time>2026-09-19T22:28:02Z</time>
      </trkpt>
      <trkpt lat="23.062034" lon="113.277481">
        <time>2026-09-19T22:28:07Z</time>
      </trkpt>
      <trkpt lat="23.062081" lon="113.277372">
        <time>2026-09-19T22:28:12Z</time>
      </trkpt>
      <trkpt lat="23.062128" lon="113.277261">
        <time>2026-09-19T22:28:17Z</time>
      </trkpt>
      <trkpt lat="23.062165" lon="113.277154">
        <time>2026-09-19T22:28:22Z</time>
      </trkpt>
      <trkpt lat="23.062202" lon="113.27705">
        <time>2026-09-19T22:28:27Z</time>
      </trkpt>
      <trkpt lat="23.062251" lon="113.276939">
        <time>2026-09-19T22:28:32Z</time>
      </trkpt>
      <trkpt lat="23.062287" lon="113.276829">
        <time>2026-09-19T22:28:37Z</time>
      </trkpt>
      <trkpt lat="23.062323" lon="113.276722">
        <time>2026-09-19T22:28:42Z</time>
      </trkpt>
      <trkpt lat="23.062368" lon="113.276615">
        <time>2026-09-19T22:28:47Z</time>
      </trkpt>
      <trkpt lat="23.06241" lon="113.276508">
        <time>2026-09-19T22:28:52Z</time>
      </trkpt>
      <trkpt lat="23.062451" lon="113.276402">
        <time>2026-09-19T22:28:57Z</time>
      </trkpt>
      <trkpt lat="23.06249" lon="113.276292">
        <time>2026-09-19T22:29:02Z</time>
      </trkpt>
      <trkpt lat="23.062541" lon="113.276185">
        <time>2026-09-19T22:29:07Z</time>
      </trkpt>
      <trkpt lat="23.062595" lon="113.276083">
        <time>2026-09-19T22:29:12Z</time>
      </trkpt>
      <trkpt lat="23.062655" lon="113.275991">
        <time>2026-09-19T22:29:17Z</time>
      </trkpt>
      <trkpt lat="23.062726" lon="113.275899">
        <time>2026-09-19T22:29:22Z</time>
      </trkpt>
      <trkpt lat="23.0628" lon="113.275815">
        <time>2026-09-19T22:29:27Z</time>
      </trkpt>
      <trkpt lat="23.062881" lon="113.275738">
        <time>2026-09-19T22:29:32Z</time>
      </trkpt>
      <trkpt lat="23.062965" lon="113.275657">
        <time>2026-09-19T22:29:37Z</time>
      </trkpt>
      <trkpt lat="23.063037" lon="113.275564">
        <time>2026-09-19T22:29:42Z</time>
      </trkpt>
      <trkpt lat="23.063097" lon="113.275468">
        <time>2026-09-19T22:29:47Z</time>
      </trkpt>
      <trkpt lat="23.063153" lon="113.275371">
        <time>2026-09-19T22:29:52Z</time>
      </trkpt>
      <trkpt lat="23.063211" lon="113.275278">
        <time>2026-09-19T22:29:57Z</time>
      </trkpt>
      <trkpt lat="23.06327" lon="113.275177">
        <time>2026-09-19T22:30:02Z</time>
      </trkpt>
      <trkpt lat="23.063332" lon="113.275075">
        <time>2026-09-19T22:30:07Z</time>
      </trkpt>
      <trkpt lat="23.063382" lon="113.274978">
        <time>2026-09-19T22:30:12Z</time>
      </trkpt>
      <trkpt lat="23.063434" lon="113.274893">
        <time>2026-09-19T22:30:17Z</time>
      </trkpt>
      <trkpt lat="23.06347" lon="113.274789">
        <time>2026-09-19T22:30:22Z</time>
      </trkpt>
      <trkpt lat="23.063495" lon="113.274695">
        <time>2026-09-19T22:30:27Z</time>
      </trkpt>
      <trkpt lat="23.063513" lon="113.274598">
        <time>2026-09-19T22:30:32Z</time>
      </trkpt>
      <trkpt lat="23.063568" lon="113.274466">
        <time>2026-09-19T22:30:37Z</time>
      </trkpt>
      <trkpt lat="23.063647" lon="113.274362">
        <time>2026-09-19T22:30:42Z</time>
      </trkpt>
      <trkpt lat="23.063705" lon="113.274269">
        <time>2026-09-19T22:30:47Z</time>
      </trkpt>
      <trkpt lat="23.063783" lon="113.274187">
        <time>2026-09-19T22:30:52Z</time>
      </trkpt>
      <trkpt lat="23.063855" lon="113.274095">
        <time>2026-09-19T22:30:57Z</time>
      </trkpt>
      <trkpt lat="23.063911" lon="113.273979">
        <time>2026-09-19T22:31:02Z</time>
      </trkpt>
      <trkpt lat="23.063968" lon="113.273864">
        <time>2026-09-19T22:31:07Z</time>
      </trkpt>
      <trkpt lat="23.064038" lon="113.273763">
        <time>2026-09-19T22:31:12Z</time>
      </trkpt>
      <trkpt lat="23.064126" lon="113.273683">
        <time>2026-09-19T22:31:17Z</time>
      </trkpt>
      <trkpt lat="23.064213" lon="113.273612">
        <time>2026-09-19T22:31:22Z</time>
      </trkpt>
      <trkpt lat="23.064305" lon="113.27354">
        <time>2026-09-19T22:31:27Z</time>
      </trkpt>
      <trkpt lat="23.064394" lon="113.27346">
        <time>2026-09-19T22:31:32Z</time>
      </trkpt>
      <trkpt lat="23.064481" lon="113.273384">
        <time>2026-09-19T22:31:37Z</time>
      </trkpt>
      <trkpt lat="23.064558" lon="113.273294">
        <time>2026-09-19T22:31:42Z</time>
      </trkpt>
      <trkpt lat="23.064593" lon="113.273171">
        <time>2026-09-19T22:31:47Z</time>
      </trkpt>
      <trkpt lat="23.064566" lon="113.273036">
        <time>2026-09-19T22:31:52Z</time>
      </trkpt>
      <trkpt lat="23.064517" lon="113.27291">
        <time>2026-09-19T22:31:57Z</time>
      </trkpt>
      <trkpt lat="23.064474" lon="113.272788">
        <time>2026-09-19T22:32:02Z</time>
      </trkpt>
      <trkpt lat="23.064434" lon="113.272667">
        <time>2026-09-19T22:32:07Z</time>
      </trkpt>
      <trkpt lat="23.064429" lon="113.272548">
        <time>2026-09-19T22:32:12Z</time>
      </trkpt>
      <trkpt lat="23.064477" lon="113.272433">
        <time>2026-09-19T22:32:17Z</time>
      </trkpt>
      <trkpt lat="23.064531" lon="113.272317">
        <time>2026-09-19T22:32:22Z</time>
      </trkpt>
      <trkpt lat="23.064566" lon="113.272196">
        <time>2026-09-19T22:32:27Z</time>
      </trkpt>
      <trkpt lat="23.064611" lon="113.272091">
        <time>2026-09-19T22:32:32Z</time>
      </trkpt>
      <trkpt lat="23.064662" lon="113.271985">
        <time>2026-09-19T22:32:37Z</time>
      </trkpt>
      <trkpt lat="23.064712" lon="113.271876">
        <time>2026-09-19T22:32:42Z</time>
      </trkpt>
      <trkpt lat="23.064763" lon="113.271773">
        <time>2026-09-19T22:32:47Z</time>
      </trkpt>
      <trkpt lat="23.064822" lon="113.271661">
        <time>2026-09-19T22:32:52Z</time>
      </trkpt>
      <trkpt lat="23.064886" lon="113.271542">
        <time>2026-09-19T22:32:57Z</time>
      </trkpt>
      <trkpt lat="23.064945" lon="113.271433">
        <time>2026-09-19T22:33:02Z</time>
      </trkpt>
      <trkpt lat="23.064995" lon="113.271325">
        <time>2026-09-19T22:33:07Z</time>
      </trkpt>
      <trkpt lat="23.065045" lon="113.271214">
        <time>2026-09-19T22:33:12Z</time>
      </trkpt>
      <trkpt lat="23.065098" lon="113.271097">
        <time>2026-09-19T22:33:17Z</time>
      </trkpt>
      <trkpt lat="23.06515" lon="113.270982">
        <time>2026-09-19T22:33:22Z</time>
      </trkpt>
      <trkpt lat="23.065191" lon="113.270866">
        <time>2026-09-19T22:33:27Z</time>
      </trkpt>
      <trkpt lat="23.06524" lon="113.270751">
        <time>2026-09-19T22:33:32Z</time>
      </trkpt>
      <trkpt lat="23.065292" lon="113.27065">
        <time>2026-09-19T22:33:37Z</time>
      </trkpt>
      <trkpt lat="23.065348" lon="113.270553">
        <time>2026-09-19T22:33:42Z</time>
      </trkpt>
      <trkpt lat="23.065399" lon="113.270444">
        <time>2026-09-19T22:33:47Z</time>
      </trkpt>
      <trkpt lat="23.065444" lon="113.270333">
        <time>2026-09-19T22:33:52Z</time>
      </trkpt>
      <trkpt lat="23.065486" lon="113.270222">
        <time>2026-09-19T22:33:57Z</time>
      </trkpt>
      <trkpt lat="23.065527" lon="113.270116">
        <time>2026-09-19T22:34:02Z</time>
      </trkpt>
      <trkpt lat="23.065563" lon="113.270019">
        <time>2026-09-19T22:34:07Z</time>
      </trkpt>
      <trkpt lat="23.065596" lon="113.269916">
        <time>2026-09-19T22:34:12Z</time>
      </trkpt>
      <trkpt lat="23.065621" lon="113.26981">
        <time>2026-09-19T22:34:17Z</time>
      </trkpt>
      <trkpt lat="23.065647" lon="113.269706">
        <time>2026-09-19T22:34:22Z</time>
      </trkpt>
      <trkpt lat="23.065686" lon="113.269584">
        <time>2026-09-19T22:34:27Z</time>
      </trkpt>
      <trkpt lat="23.065718" lon="113.269458">
        <time>2026-09-19T22:34:32Z</time>
      </trkpt>
      <trkpt lat="23.065749" lon="113.269332">
        <time>2026-09-19T22:34:37Z</time>
      </trkpt>
      <trkpt lat="23.065792" lon="113.269213">
        <time>2026-09-19T22:34:42Z</time>
      </trkpt>
      <trkpt lat="23.065831" lon="113.2691">
        <time>2026-09-19T22:34:47Z</time>
      </trkpt>
      <trkpt lat="23.065872" lon="113.268997">
        <time>2026-09-19T22:34:52Z</time>
      </trkpt>
      <trkpt lat="23.065914" lon="113.268892">
        <time>2026-09-19T22:34:57Z</time>
      </trkpt>
      <trkpt lat="23.065962" lon="113.268782">
        <time>2026-09-19T22:35:02Z</time>
      </trkpt>
      <trkpt lat="23.066009" lon="113.268672">
        <time>2026-09-19T22:35:07Z</time>
      </trkpt>
      <trkpt lat="23.066061" lon="113.268571">
        <time>2026-09-19T22:35:12Z</time>
      </trkpt>
      <trkpt lat="23.06612" lon="113.268474">
        <time>2026-09-19T22:35:17Z</time>
      </trkpt>
      <trkpt lat="23.066188" lon="113.26838">
        <time>2026-09-19T22:35:22Z</time>
      </trkpt>
      <trkpt lat="23.066264" lon="113.268288">
        <time>2026-09-19T22:35:27Z</time>
      </trkpt>
      <trkpt lat="23.06635" lon="113.268201">
        <time>2026-09-19T22:35:32Z</time>
      </trkpt>
      <trkpt lat="23.066451" lon="113.268149">
        <time>2026-09-19T22:35:37Z</time>
      </trkpt>
      <trkpt lat="23.06656" lon="113.268148">
        <time>2026-09-19T22:35:42Z</time>
      </trkpt>
      <trkpt lat="23.06667" lon="113.268182">
        <time>2026-09-19T22:35:47Z</time>
      </trkpt>
      <trkpt lat="23.066783" lon="113.268174">
        <time>2026-09-19T22:35:52Z</time>
      </trkpt>
      <trkpt lat="23.06678" lon="113.268075">
        <time>2026-09-19T22:35:57Z</time>
      </trkpt>
      <trkpt lat="23.066673" lon="113.268019">
        <time>2026-09-19T22:36:02Z</time>
      </trkpt>
      <trkpt lat="23.066562" lon="113.267992">
        <time>2026-09-19T22:36:07Z</time>
      </trkpt>
      <trkpt lat="23.066456" lon="113.267959">
        <time>2026-09-19T22:36:12Z</time>
      </trkpt>
      <trkpt lat="23.066351" lon="113.267953">
        <time>2026-09-19T22:36:17Z</time>
      </trkpt>
      <trkpt lat="23.066248" lon="113.267981">
        <time>2026-09-19T22:36:22Z</time>
      </trkpt>
      <trkpt lat="23.066167" lon="113.268057">
        <time>2026-09-19T22:36:27Z</time>
      </trkpt>
      <trkpt lat="23.066084" lon="113.268155">
        <time>2026-09-19T22:36:32Z</time>
      </trkpt>
      <trkpt lat="23.066" lon="113.268254">
        <time>2026-09-19T22:36:37Z</time>
      </trkpt>
      <trkpt lat="23.065917" lon="113.268344">
        <time>2026-09-19T22:36:42Z</time>
      </trkpt>
      <trkpt lat="23.065847" lon="113.268448">
        <time>2026-09-19T22:36:47Z</time>
      </trkpt>
      <trkpt lat="23.065786" lon="113.268562">
        <time>2026-09-19T22:36:52Z</time>
      </trkpt>
      <trkpt lat="23.065733" lon="113.268674">
        <time>2026-09-19T22:36:57Z</time>
      </trkpt>
      <trkpt lat="23.065683" lon="113.26879">
        <time>2026-09-19T22:37:02Z</time>
      </trkpt>
      <trkpt lat="23.065638" lon="113.268901">
        <time>2026-09-19T22:37:07Z</time>
      </trkpt>
      <trkpt lat="23.065595" lon="113.269021">
        <time>2026-09-19T22:37:12Z</time>
      </trkpt>
      <trkpt lat="23.065559" lon="113.26914">
        <time>2026-09-19T22:37:17Z</time>
      </trkpt>
      <trkpt lat="23.065532" lon="113.269257">
        <time>2026-09-19T22:37:22Z</time>
      </trkpt>
      <trkpt lat="23.065503" lon="113.269377">
        <time>2026-09-19T22:37:27Z</time>
      </trkpt>
      <trkpt lat="23.065475" lon="113.269498">
        <time>2026-09-19T22:37:32Z</time>
      </trkpt>
      <trkpt lat="23.06545" lon="113.269618">
        <time>2026-09-19T22:37:37Z</time>
      </trkpt>
      <trkpt lat="23.065421" lon="113.269735">
        <time>2026-09-19T22:37:42Z</time>
      </trkpt>
      <trkpt lat="23.065389" lon="113.269856">
        <time>2026-09-19T22:37:47Z</time>
      </trkpt>
      <trkpt lat="23.065342" lon="113.269974">
        <time>2026-09-19T22:37:52Z</time>
      </trkpt>
      <trkpt lat="23.065299" lon="113.270087">
        <time>2026-09-19T22:37:57Z</time>
      </trkpt>
      <trkpt lat="23.065253" lon="113.270199">
        <time>2026-09-19T22:38:02Z</time>
      </trkpt>
      <trkpt lat="23.065205" lon="113.270306">
        <time>2026-09-19T22:38:07Z</time>
      </trkpt>
      <trkpt lat="23.065153" lon="113.270412">
        <time>2026-09-19T22:38:12Z</time>
      </trkpt>
      <trkpt lat="23.065106" lon="113.27052">
        <time>2026-09-19T22:38:17Z</time>
      </trkpt>
      <trkpt lat="23.065057" lon="113.270632">
        <time>2026-09-19T22:38:22Z</time>
      </trkpt>
      <trkpt lat="23.065009" lon="113.27074">
        <time>2026-09-19T22:38:27Z</time>
      </trkpt>
      <trkpt lat="23.064959" lon="113.270847">
        <time>2026-09-19T22:38:32Z</time>
      </trkpt>
      <trkpt lat="23.064912" lon="113.270957">
        <time>2026-09-19T22:38:37Z</time>
      </trkpt>
      <trkpt lat="23.064853" lon="113.271068">
        <time>2026-09-19T22:38:42Z</time>
      </trkpt>
      <trkpt lat="23.064805" lon="113.271179">
        <time>2026-09-19T22:38:47Z</time>
      </trkpt>
      <trkpt lat="23.064758" lon="113.271287">
        <time>2026-09-19T22:38:52Z</time>
      </trkpt>
      <trkpt lat="23.064706" lon="113.271389">
        <time>2026-09-19T22:38:57Z</time>
      </trkpt>
      <trkpt lat="23.064651" lon="113.271493">
        <time>2026-09-19T22:39:02Z</time>
      </trkpt>
      <trkpt lat="23.064599" lon="113.271601">
        <time>2026-09-19T22:39:07Z</time>
      </trkpt>
      <trkpt lat="23.064547" lon="113.271712">
        <time>2026-09-19T22:39:12Z</time>
      </trkpt>
      <trkpt lat="23.064494" lon="113.271828">
        <time>2026-09-19T22:39:17Z</time>
      </trkpt>
      <trkpt lat="23.064439" lon="113.271944">
        <time>2026-09-19T22:39:22Z</time>
      </trkpt>
      <trkpt lat="23.064385" lon="113.272056">
        <time>2026-09-19T22:39:27Z</time>
      </trkpt>
      <trkpt lat="23.064337" lon="113.27217">
        <time>2026-09-19T22:39:32Z</time>
      </trkpt>
      <trkpt lat="23.064317" lon="113.272293">
        <time>2026-09-19T22:39:37Z</time>
      </trkpt>
      <trkpt lat="23.064312" lon="113.27242">
        <time>2026-09-19T22:39:42Z</time>
      </trkpt>
      <trkpt lat="23.064304" lon="113.272541">
        <time>2026-09-19T22:39:47Z</time>
      </trkpt>
      <trkpt lat="23.064305" lon="113.272666">
        <time>2026-09-19T22:39:52Z</time>
      </trkpt>
      <trkpt lat="23.064336" lon="113.272784">
        <time>2026-09-19T22:39:57Z</time>
      </trkpt>
      <trkpt lat="23.064381" lon="113.27289">
        <time>2026-09-19T22:40:02Z</time>
      </trkpt>
      <trkpt lat="23.064423" lon="113.272993">
        <time>2026-09-19T22:40:07Z</time>
      </trkpt>
      <trkpt lat="23.064452" lon="113.273101">
        <time>2026-09-19T22:40:12Z</time>
      </trkpt>
      <trkpt lat="23.064444" lon="113.273215">
        <time>2026-09-19T22:40:17Z</time>
      </trkpt>
      <trkpt lat="23.064387" lon="113.273304">
        <time>2026-09-19T22:40:22Z</time>
      </trkpt>
      <trkpt lat="23.064298" lon="113.273365">
        <time>2026-09-19T22:40:27Z</time>
      </trkpt>
      <trkpt lat="23.064208" lon="113.273433">
        <time>2026-09-19T22:40:32Z</time>
      </trkpt>
      <trkpt lat="23.064119" lon="113.273501">
        <time>2026-09-19T22:40:37Z</time>
      </trkpt>
      <trkpt lat="23.064028" lon="113.273574">
        <time>2026-09-19T22:40:42Z</time>
      </trkpt>
      <trkpt lat="23.06394" lon="113.27365">
        <time>2026-09-19T22:40:47Z</time>
      </trkpt>
      <trkpt lat="23.063864" lon="113.273735">
        <time>2026-09-19T22:40:52Z</time>
      </trkpt>
      <trkpt lat="23.063806" lon="113.273836">
        <time>2026-09-19T22:40:57Z</time>
      </trkpt>
      <trkpt lat="23.063753" lon="113.273935">
        <time>2026-09-19T22:41:02Z</time>
      </trkpt>
      <trkpt lat="23.063691" lon="113.274027">
        <time>2026-09-19T22:41:07Z</time>
      </trkpt>
      <trkpt lat="23.063614" lon="113.274097">
        <time>2026-09-19T22:41:12Z</time>
      </trkpt>
      <trkpt lat="23.063535" lon="113.27411">
        <time>2026-09-19T22:41:17Z</time>
      </trkpt>
      <trkpt lat="23.063443" lon="113.274082">
        <time>2026-09-19T22:41:22Z</time>
      </trkpt>
      <trkpt lat="23.063361" lon="113.274169">
        <time>2026-09-19T22:41:27Z</time>
      </trkpt>
      <trkpt lat="23.063309" lon="113.274292">
        <time>2026-09-19T22:41:32Z</time>
      </trkpt>
      <trkpt lat="23.063265" lon="113.274411">
        <time>2026-09-19T22:41:37Z</time>
      </trkpt>
      <trkpt lat="23.063227" lon="113.274525">
        <time>2026-09-19T22:41:42Z</time>
      </trkpt>
      <trkpt lat="23.063191" lon="113.274639">
        <time>2026-09-19T22:41:47Z</time>
      </trkpt>
      <trkpt lat="23.063157" lon="113.274751">
        <time>2026-09-19T22:41:52Z</time>
      </trkpt>
      <trkpt lat="23.063114" lon="113.274854">
        <time>2026-09-19T22:41:57Z</time>
      </trkpt>
      <trkpt lat="23.063083" lon="113.274962">
        <time>2026-09-19T22:42:02Z</time>
      </trkpt>
      <trkpt lat="23.063053" lon="113.275081">
        <time>2026-09-19T22:42:07Z</time>
      </trkpt>
      <trkpt lat="23.062987" lon="113.275151">
        <time>2026-09-19T22:42:12Z</time>
      </trkpt>
      <trkpt lat="23.06291" lon="113.275231">
        <time>2026-09-19T22:42:17Z</time>
      </trkpt>
      <trkpt lat="23.06291" lon="113.275361">
        <time>2026-09-19T22:42:22Z</time>
      </trkpt>
      <trkpt lat="23.062929" lon="113.275486">
        <time>2026-09-19T22:42:27Z</time>
      </trkpt>
      <trkpt lat="23.062879" lon="113.275588">
        <time>2026-09-19T22:42:32Z</time>
      </trkpt>
      <trkpt lat="23.062791" lon="113.27567">
        <time>2026-09-19T22:42:37Z</time>
      </trkpt>
      <trkpt lat="23.062698" lon="113.275745">
        <time>2026-09-19T22:42:42Z</time>
      </trkpt>
      <trkpt lat="23.06261" lon="113.275838">
        <time>2026-09-19T22:42:47Z</time>
      </trkpt>
      <trkpt lat="23.06253" lon="113.275942">
        <time>2026-09-19T22:42:52Z</time>
      </trkpt>
      <trkpt lat="23.062463" lon="113.276056">
        <time>2026-09-19T22:42:57Z</time>
      </trkpt>
      <trkpt lat="23.062402" lon="113.276173">
        <time>2026-09-19T22:43:02Z</time>
      </trkpt>
      <trkpt lat="23.062354" lon="113.276295">
        <time>2026-09-19T22:43:07Z</time>
      </trkpt>
      <trkpt lat="23.062319" lon="113.276414">
        <time>2026-09-19T22:43:12Z</time>
      </trkpt>
      <trkpt lat="23.062283" lon="113.276529">
        <time>2026-09-19T22:43:17Z</time>
      </trkpt>
      <trkpt lat="23.062241" lon="113.276641">
        <time>2026-09-19T22:43:22Z</time>
      </trkpt>
      <trkpt lat="23.062206" lon="113.276751">
        <time>2026-09-19T22:43:27Z</time>
      </trkpt>
      <trkpt lat="23.062168" lon="113.27686">
        <time>2026-09-19T22:43:32Z</time>
      </trkpt>
      <trkpt lat="23.062123" lon="113.276966">
        <time>2026-09-19T22:43:37Z</time>
      </trkpt>
      <trkpt lat="23.062079" lon="113.277074">
        <time>2026-09-19T22:43:42Z</time>
      </trkpt>
      <trkpt lat="23.062027" lon="113.2772">
        <time>2026-09-19T22:43:47Z</time>
      </trkpt>
      <trkpt lat="23.06198" lon="113.277332">
        <time>2026-09-19T22:43:52Z</time>
      </trkpt>
      <trkpt lat="23.061932" lon="113.27745">
        <time>2026-09-19T22:43:57Z</time>
      </trkpt>
      <trkpt lat="23.061896" lon="113.277566">
        <time>2026-09-19T22:44:02Z</time>
      </trkpt>
      <trkpt lat="23.061865" lon="113.277688">
        <time>2026-09-19T22:44:07Z</time>
      </trkpt>
      <trkpt lat="23.061838" lon="113.277808">
        <time>2026-09-19T22:44:12Z</time>
      </trkpt>
      <trkpt lat="23.06183" lon="113.277925">
        <time>2026-09-19T22:44:17Z</time>
      </trkpt>
      <trkpt lat="23.061838" lon="113.278041">
        <time>2026-09-19T22:44:22Z</time>
      </trkpt>
      <trkpt lat="23.061846" lon="113.278157">
        <time>2026-09-19T22:44:27Z</time>
      </trkpt>
      <trkpt lat="23.061854" lon="113.278276">
        <time>2026-09-19T22:44:32Z</time>
      </trkpt>
      <trkpt lat="23.061861" lon="113.27839">
        <time>2026-09-19T22:44:37Z</time>
      </trkpt>
      <trkpt lat="23.061865" lon="113.27851">
        <time>2026-09-19T22:44:42Z</time>
      </trkpt>
      <trkpt lat="23.061865" lon="113.278627">
        <time>2026-09-19T22:44:47Z</time>
      </trkpt>
      <trkpt lat="23.06184" lon="113.278744">
        <time>2026-09-19T22:44:52Z</time>
      </trkpt>
      <trkpt lat="23.061788" lon="113.278853">
        <time>2026-09-19T22:44:57Z</time>
      </trkpt>
      <trkpt lat="23.061728" lon="113.278956">
        <time>2026-09-19T22:45:02Z</time>
      </trkpt>
      <trkpt lat="23.06167" lon="113.279058">
        <time>2026-09-19T22:45:07Z</time>
      </trkpt>
      <trkpt lat="23.061612" lon="113.27916">
        <time>2026-09-19T22:45:12Z</time>
      </trkpt>
      <trkpt lat="23.061567" lon="113.279267">
        <time>2026-09-19T22:45:17Z</time>
      </trkpt>
      <trkpt lat="23.061523" lon="113.27938">
        <time>2026-09-19T22:45:22Z</time>
      </trkpt>
      <trkpt lat="23.061473" lon="113.279493">
        <time>2026-09-19T22:45:27Z</time>
      </trkpt>
      <trkpt lat="23.061427" lon="113.279607">
        <time>2026-09-19T22:45:32Z</time>
      </trkpt>
      <trkpt lat="23.061386" lon="113.27972">
        <time>2026-09-19T22:45:37Z</time>
      </trkpt>
      <trkpt lat="23.061342" lon="113.27984">
        <time>2026-09-19T22:45:42Z</time>
      </trkpt>
      <trkpt lat="23.061295" lon="113.279961">
        <time>2026-09-19T22:45:47Z</time>
      </trkpt>
      <trkpt lat="23.061248" lon="113.280082">
        <time>2026-09-19T22:45:52Z</time>
      </trkpt>
      <trkpt lat="23.061197" lon="113.280198">
        <time>2026-09-19T22:45:57Z</time>
      </trkpt>
      <trkpt lat="23.061146" lon="113.280318">
        <time>2026-09-19T22:46:02Z</time>
      </trkpt>
      <trkpt lat="23.061091" lon="113.280439">
        <time>2026-09-19T22:46:07Z</time>
      </trkpt>
      <trkpt lat="23.061018" lon="113.280547">
        <time>2026-09-19T22:46:12Z</time>
      </trkpt>
      <trkpt lat="23.060957" lon="113.280654">
        <time>2026-09-19T22:46:17Z</time>
      </trkpt>
      <trkpt lat="23.0609" lon="113.280767">
        <time>2026-09-19T22:46:22Z</time>
      </trkpt>
      <trkpt lat="23.060851" lon="113.280881">
        <time>2026-09-19T22:46:27Z</time>
      </trkpt>
      <trkpt lat="23.060804" lon="113.280992">
        <time>2026-09-19T22:46:32Z</time>
      </trkpt>
      <trkpt lat="23.060758" lon="113.281099">
        <time>2026-09-19T22:46:37Z</time>
      </trkpt>
      <trkpt lat="23.060705" lon="113.281206">
        <time>2026-09-19T22:46:42Z</time>
      </trkpt>
      <trkpt lat="23.060655" lon="113.281313">
        <time>2026-09-19T22:46:47Z</time>
      </trkpt>
      <trkpt lat="23.06061" lon="113.281421">
        <time>2026-09-19T22:46:52Z</time>
      </trkpt>
      <trkpt lat="23.060564" lon="113.281531">
        <time>2026-09-19T22:46:57Z</time>
      </trkpt>
      <trkpt lat="23.060517" lon="113.281646">
        <time>2026-09-19T22:47:02Z</time>
      </trkpt>
      <trkpt lat="23.060477" lon="113.281761">
        <time>2026-09-19T22:47:07Z</time>
      </trkpt>
      <trkpt lat="23.060435" lon="113.281874">
        <time>2026-09-19T22:47:12Z</time>
      </trkpt>
      <trkpt lat="23.060387" lon="113.281988">
        <time>2026-09-19T22:47:17Z</time>
      </trkpt>
      <trkpt lat="23.06034" lon="113.282101">
        <time>2026-09-19T22:47:22Z</time>
      </trkpt>
      <trkpt lat="23.060291" lon="113.282213">
        <time>2026-09-19T22:47:27Z</time>
      </trkpt>
      <trkpt lat="23.06024" lon="113.28232">
        <time>2026-09-19T22:47:32Z</time>
      </trkpt>
      <trkpt lat="23.06019" lon="113.282431">
        <time>2026-09-19T22:47:37Z</time>
      </trkpt>
      <trkpt lat="23.06014" lon="113.282543">
        <time>2026-09-19T22:47:42Z</time>
      </trkpt>
      <trkpt lat="23.060092" lon="113.282653">
        <time>2026-09-19T22:47:47Z</time>
      </trkpt>
      <trkpt lat="23.060048" lon="113.282761">
        <time>2026-09-19T22:47:52Z</time>
      </trkpt>
      <trkpt lat="23.060004" lon="113.282871">
        <time>2026-09-19T22:47:57Z</time>
      </trkpt>
      <trkpt lat="23.059961" lon="113.282979">
        <time>2026-09-19T22:48:02Z</time>
      </trkpt>
      <trkpt lat="23.059912" lon="113.283086">
        <time>2026-09-19T22:48:07Z</time>
      </trkpt>
      <trkpt lat="23.05986" lon="113.283189">
        <time>2026-09-19T22:48:12Z</time>
      </trkpt>
      <trkpt lat="23.059824" lon="113.283299">
        <time>2026-09-19T22:48:17Z</time>
      </trkpt>
      <trkpt lat="23.059867" lon="113.283381">
        <time>2026-09-19T22:48:22Z</time>
      </trkpt>
      <trkpt lat="23.059956" lon="113.283339">
        <time>2026-09-19T22:48:27Z</time>
      </trkpt>
      <trkpt lat="23.060023" lon="113.283239">
        <time>2026-09-19T22:48:32Z</time>
      </trkpt>
      <trkpt lat="23.060083" lon="113.283124">
        <time>2026-09-19T22:48:37Z</time>
      </trkpt>
      <trkpt lat="23.060142" lon="113.283008">
        <time>2026-09-19T22:48:42Z</time>
      </trkpt>
      <trkpt lat="23.060209" lon="113.282901">
        <time>2026-09-19T22:48:47Z</time>
      </trkpt>
      <trkpt lat="23.060255" lon="113.282793">
        <time>2026-09-19T22:48:52Z</time>
      </trkpt>
      <trkpt lat="23.060293" lon="113.282678">
        <time>2026-09-19T22:48:57Z</time>
      </trkpt>
      <trkpt lat="23.060323" lon="113.282564">
        <time>2026-09-19T22:49:02Z</time>
      </trkpt>
      <trkpt lat="23.060361" lon="113.282449">
        <time>2026-09-19T22:49:07Z</time>
      </trkpt>
      <trkpt lat="23.0604" lon="113.282342">
        <time>2026-09-19T22:49:12Z</time>
      </trkpt>
      <trkpt lat="23.060447" lon="113.282234">
        <time>2026-09-19T22:49:17Z</time>
      </trkpt>
      <trkpt lat="23.060478" lon="113.282125">
        <time>2026-09-19T22:49:22Z</time>
      </trkpt>
      <trkpt lat="23.060523" lon="113.282025">
        <time>2026-09-19T22:49:27Z</time>
      </trkpt>
      <trkpt lat="23.060567" lon="113.281927">
        <time>2026-09-19T22:49:32Z</time>
      </trkpt>
      <trkpt lat="23.060603" lon="113.281824">
        <time>2026-09-19T22:49:37Z</time>
      </trkpt>
      <trkpt lat="23.060637" lon="113.281723">
        <time>2026-09-19T22:49:42Z</time>
      </trkpt>
      <trkpt lat="23.060681" lon="113.281623">
        <time>2026-09-19T22:49:47Z</time>
      </trkpt>
      <trkpt lat="23.06073" lon="113.281523">
        <time>2026-09-19T22:49:52Z</time>
      </trkpt>
      <trkpt lat="23.060782" lon="113.281417">
        <time>2026-09-19T22:49:57Z</time>
      </trkpt>
      <trkpt lat="23.060835" lon="113.281304">
        <time>2026-09-19T22:50:02Z</time>
      </trkpt>
      <trkpt lat="23.060878" lon="113.281198">
        <time>2026-09-19T22:50:07Z</time>
      </trkpt>
      <trkpt lat="23.06092" lon="113.281095">
        <time>2026-09-19T22:50:12Z</time>
      </trkpt>
      <trkpt lat="23.060965" lon="113.28099">
        <time>2026-09-19T22:50:17Z</time>
      </trkpt>
      <trkpt lat="23.061008" lon="113.280883">
        <time>2026-09-19T22:50:22Z</time>
      </trkpt>
      <trkpt lat="23.061056" lon="113.280777">
        <time>2026-09-19T22:50:27Z</time>
      </trkpt>
      <trkpt lat="23.061111" lon="113.280667">
        <time>2026-09-19T22:50:32Z</time>
      </trkpt>
      <trkpt lat="23.061168" lon="113.280552">
        <time>2026-09-19T22:50:37Z</time>
      </trkpt>
      <trkpt lat="23.061219" lon="113.280446">
        <time>2026-09-19T22:50:42Z</time>
      </trkpt>
      <trkpt lat="23.061255" lon="113.280341">
        <time>2026-09-19T22:50:47Z</time>
      </trkpt>
      <trkpt lat="23.061293" lon="113.280241">
        <time>2026-09-19T22:50:52Z</time>
      </trkpt>
      <trkpt lat="23.061345" lon="113.280147">
        <time>2026-09-19T22:50:57Z</time>
      </trkpt>
      <trkpt lat="23.061396" lon="113.280052">
        <time>2026-09-19T22:51:02Z</time>
      </trkpt>
      <trkpt lat="23.06144" lon="113.279956">
        <time>2026-09-19T22:51:07Z</time>
      </trkpt>
      <trkpt lat="23.061485" lon="113.279859">
        <time>2026-09-19T22:51:12Z</time>
      </trkpt>
      <trkpt lat="23.061523" lon="113.279756">
        <time>2026-09-19T22:51:17Z</time>
      </trkpt>
      <trkpt lat="23.06156" lon="113.279648">
        <time>2026-09-19T22:51:22Z</time>
      </trkpt>
      <trkpt lat="23.061602" lon="113.279536">
        <time>2026-09-19T22:51:27Z</time>
      </trkpt>
      <trkpt lat="23.061642" lon="113.279419">
        <time>2026-09-19T22:51:32Z</time>
      </trkpt>
      <trkpt lat="23.061685" lon="113.279307">
        <time>2026-09-19T22:51:37Z</time>
      </trkpt>
      <trkpt lat="23.061741" lon="113.2792">
        <time>2026-09-19T22:51:42Z</time>
      </trkpt>
      <trkpt lat="23.061796" lon="113.279094">
        <time>2026-09-19T22:51:47Z</time>
      </trkpt>
      <trkpt lat="23.06186" lon="113.278992">
        <time>2026-09-19T22:51:52Z</time>
      </trkpt>
      <trkpt lat="23.06193" lon="113.278891">
        <time>2026-09-19T22:51:57Z</time>
      </trkpt>
      <trkpt lat="23.06197" lon="113.278777">
        <time>2026-09-19T22:52:02Z</time>
      </trkpt>
      <trkpt lat="23.061978" lon="113.278652">
        <time>2026-09-19T22:52:07Z</time>
      </trkpt>
      <trkpt lat="23.061966" lon="113.278528">
        <time>2026-09-19T22:52:12Z</time>
      </trkpt>
      <trkpt lat="23.061958" lon="113.278405">
        <time>2026-09-19T22:52:17Z</time>
      </trkpt>
      <trkpt lat="23.061955" lon="113.278279">
        <time>2026-09-19T22:52:22Z</time>
      </trkpt>
      <trkpt lat="23.06195" lon="113.278157">
        <time>2026-09-19T22:52:27Z</time>
      </trkpt>
      <trkpt lat="23.061946" lon="113.278033">
        <time>2026-09-19T22:52:32Z</time>
      </trkpt>
      <trkpt lat="23.061941" lon="113.277912">
        <time>2026-09-19T22:52:37Z</time>
      </trkpt>
      <trkpt lat="23.061948" lon="113.277788">
        <time>2026-09-19T22:52:42Z</time>
      </trkpt>
      <trkpt lat="23.061972" lon="113.27767">
        <time>2026-09-19T22:52:47Z</time>
      </trkpt>
      <trkpt lat="23.062014" lon="113.277558">
        <time>2026-09-19T22:52:52Z</time>
      </trkpt>
      <trkpt lat="23.062061" lon="113.277443">
        <time>2026-09-19T22:52:57Z</time>
      </trkpt>
      <trkpt lat="23.062103" lon="113.277331">
        <time>2026-09-19T22:53:02Z</time>
      </trkpt>
      <trkpt lat="23.062144" lon="113.277222">
        <time>2026-09-19T22:53:07Z</time>
      </trkpt>
      <trkpt lat="23.06218" lon="113.277115">
        <time>2026-09-19T22:53:12Z</time>
      </trkpt>
      <trkpt lat="23.062225" lon="113.277015">
        <time>2026-09-19T22:53:17Z</time>
      </trkpt>
      <trkpt lat="23.062269" lon="113.276909">
        <time>2026-09-19T22:53:22Z</time>
      </trkpt>
      <trkpt lat="23.062313" lon="113.276799">
        <time>2026-09-19T22:53:27Z</time>
      </trkpt>
      <trkpt lat="23.062349" lon="113.276688">
        <time>2026-09-19T22:53:32Z</time>
      </trkpt>
      <trkpt lat="23.062387" lon="113.27658">
        <time>2026-09-19T22:53:37Z</time>
      </trkpt>
      <trkpt lat="23.062425" lon="113.276471">
        <time>2026-09-19T22:53:42Z</time>
      </trkpt>
      <trkpt lat="23.062461" lon="113.276361">
        <time>2026-09-19T22:53:47Z</time>
      </trkpt>
      <trkpt lat="23.062501" lon="113.276255">
        <time>2026-09-19T22:53:52Z</time>
      </trkpt>
      <trkpt lat="23.062554" lon="113.276147">
        <time>2026-09-19T22:53:57Z</time>
      </trkpt>
      <trkpt lat="23.062613" lon="113.276048">
        <time>2026-09-19T22:54:02Z</time>
      </trkpt>
      <trkpt lat="23.062683" lon="113.275955">
        <time>2026-09-19T22:54:07Z</time>
      </trkpt>
      <trkpt lat="23.062758" lon="113.275865">
        <time>2026-09-19T22:54:12Z</time>
      </trkpt>
      <trkpt lat="23.062839" lon="113.275783">
        <time>2026-09-19T22:54:17Z</time>
      </trkpt>
      <trkpt lat="23.062924" lon="113.275704">
        <time>2026-09-19T22:54:22Z</time>
      </trkpt>
      <trkpt lat="23.062992" lon="113.275614">
        <time>2026-09-19T22:54:27Z</time>
      </trkpt>
      <trkpt lat="23.063062" lon="113.275525">
        <time>2026-09-19T22:54:32Z</time>
      </trkpt>
      <trkpt lat="23.063119" lon="113.275422">
        <time>2026-09-19T22:54:37Z</time>
      </trkpt>
      <trkpt lat="23.063183" lon="113.275316">
        <time>2026-09-19T22:54:42Z</time>
      </trkpt>
      <trkpt lat="23.063255" lon="113.275218">
        <time>2026-09-19T22:54:47Z</time>
      </trkpt>
      <trkpt lat="23.063328" lon="113.27513">
        <time>2026-09-19T22:54:52Z</time>
      </trkpt>
      <trkpt lat="23.063377" lon="113.27503">
        <time>2026-09-19T22:54:57Z</time>
      </trkpt>
      <trkpt lat="23.063418" lon="113.274925">
        <time>2026-09-19T22:55:02Z</time>
      </trkpt>
      <trkpt lat="23.06345" lon="113.27482">
        <time>2026-09-19T22:55:07Z</time>
      </trkpt>
      <trkpt lat="23.063479" lon="113.274718">
        <time>2026-09-19T22:55:12Z</time>
      </trkpt>
      <trkpt lat="23.063505" lon="113.274608">
        <time>2026-09-19T22:55:17Z</time>
      </trkpt>
      <trkpt lat="23.063525" lon="113.274499">
        <time>2026-09-19T22:55:22Z</time>
      </trkpt>
      <trkpt lat="23.063575" lon="113.274397">
        <time>2026-09-19T22:55:27Z</time>
      </trkpt>
      <trkpt lat="23.063655" lon="113.274313">
        <time>2026-09-19T22:55:32Z</time>
      </trkpt>
      <trkpt lat="23.063754" lon="113.274221">
        <time>2026-09-19T22:55:37Z</time>
      </trkpt>
      <trkpt lat="23.063832" lon="113.274132">
        <time>2026-09-19T22:55:42Z</time>
      </trkpt>
      <trkpt lat="23.063889" lon="113.274029">
        <time>2026-09-19T22:55:47Z</time>
      </trkpt>
      <trkpt lat="23.063946" lon="113.273915">
        <time>2026-09-19T22:55:52Z</time>
      </trkpt>
      <trkpt lat="23.064005" lon="113.273814">
        <time>2026-09-19T22:55:57Z</time>
      </trkpt>
      <trkpt lat="23.064081" lon="113.273721">
        <time>2026-09-19T22:56:02Z</time>
      </trkpt>
      <trkpt lat="23.064168" lon="113.273646">
        <time>2026-09-19T22:56:07Z</time>
      </trkpt>
      <trkpt lat="23.06426" lon="113.273576">
        <time>2026-09-19T22:56:12Z</time>
      </trkpt>
      <trkpt lat="23.06435" lon="113.273499">
        <time>2026-09-19T22:56:17Z</time>
      </trkpt>
      <trkpt lat="23.064437" lon="113.273417">
        <time>2026-09-19T22:56:22Z</time>
      </trkpt>
      <trkpt lat="23.064516" lon="113.273333">
        <time>2026-09-19T22:56:27Z</time>
      </trkpt>
      <trkpt lat="23.064573" lon="113.273234">
        <time>2026-09-19T22:56:32Z</time>
      </trkpt>
      <trkpt lat="23.064581" lon="113.273117">
        <time>2026-09-19T22:56:37Z</time>
      </trkpt>
      <trkpt lat="23.064552" lon="113.273004">
        <time>2026-09-19T22:56:42Z</time>
      </trkpt>
      <trkpt lat="23.064507" lon="113.272889">
        <time>2026-09-19T22:56:47Z</time>
      </trkpt>
      <trkpt lat="23.064462" lon="113.272767">
        <time>2026-09-19T22:56:52Z</time>
      </trkpt>
      <trkpt lat="23.06444" lon="113.272639">
        <time>2026-09-19T22:56:57Z</time>
      </trkpt>
      <trkpt lat="23.064469" lon="113.272528">
        <time>2026-09-19T22:57:02Z</time>
      </trkpt>
      <trkpt lat="23.064538" lon="113.272422">
        <time>2026-09-19T22:57:07Z</time>
      </trkpt>
      <trkpt lat="23.064562" lon="113.272299">
        <time>2026-09-19T22:57:12Z</time>
      </trkpt>
      <trkpt lat="23.064578" lon="113.272185">
        <time>2026-09-19T22:57:17Z</time>
      </trkpt>
      <trkpt lat="23.064621" lon="113.272085">
        <time>2026-09-19T22:57:22Z</time>
      </trkpt>
      <trkpt lat="23.064674" lon="113.271982">
        <time>2026-09-19T22:57:27Z</time>
      </trkpt>
      <trkpt lat="23.064729" lon="113.271882">
        <time>2026-09-19T22:57:32Z</time>
      </trkpt>
      <trkpt lat="23.064785" lon="113.271769">
        <time>2026-09-19T22:57:37Z</time>
      </trkpt>
      <trkpt lat="23.06484" lon="113.27165">
        <time>2026-09-19T22:57:42Z</time>
      </trkpt>
      <trkpt lat="23.064895" lon="113.271533">
        <time>2026-09-19T22:57:47Z</time>
      </trkpt>
      <trkpt lat="23.064944" lon="113.271429">
        <time>2026-09-19T22:57:52Z</time>
      </trkpt>
      <trkpt lat="23.06499" lon="113.271326">
        <time>2026-09-19T22:57:57Z</time>
      </trkpt>
      <trkpt lat="23.065032" lon="113.271209">
        <time>2026-09-19T22:58:02Z</time>
      </trkpt>
      <trkpt lat="23.065083" lon="113.271092">
        <time>2026-09-19T22:58:07Z</time>
      </trkpt>
      <trkpt lat="23.065142" lon="113.270983">
        <time>2026-09-19T22:58:12Z</time>
      </trkpt>
      <trkpt lat="23.06519" lon="113.270876">
        <time>2026-09-19T22:58:17Z</time>
      </trkpt>
      <trkpt lat="23.065246" lon="113.270772">
        <time>2026-09-19T22:58:22Z</time>
      </trkpt>
      <trkpt lat="23.065298" lon="113.270662">
        <time>2026-09-19T22:58:27Z</time>
      </trkpt>
      <trkpt lat="23.065347" lon="113.270544">
        <time>2026-09-19T22:58:32Z</time>
      </trkpt>
      <trkpt lat="23.065395" lon="113.270426">
        <time>2026-09-19T22:58:37Z</time>
      </trkpt>
      <trkpt lat="23.065446" lon="113.270316">
        <time>2026-09-19T22:58:42Z</time>
      </trkpt>
      <trkpt lat="23.065494" lon="113.270208">
        <time>2026-09-19T22:58:47Z</time>
      </trkpt>
      <trkpt lat="23.065538" lon="113.270096">
        <time>2026-09-19T22:58:52Z</time>
      </trkpt>
      <trkpt lat="23.065571" lon="113.269991">
        <time>2026-09-19T22:58:57Z</time>
      </trkpt>
      <trkpt lat="23.065602" lon="113.269872">
        <time>2026-09-19T22:59:02Z</time>
      </trkpt>
      <trkpt lat="23.06564" lon="113.26975">
        <time>2026-09-19T22:59:07Z</time>
      </trkpt>
      <trkpt lat="23.065674" lon="113.269631">
        <time>2026-09-19T22:59:12Z</time>
      </trkpt>
      <trkpt lat="23.065702" lon="113.269507">
        <time>2026-09-19T22:59:17Z</time>
      </trkpt>
      <trkpt lat="23.065734" lon="113.269384">
        <time>2026-09-19T22:59:22Z</time>
      </trkpt>
      <trkpt lat="23.065772" lon="113.269263">
        <time>2026-09-19T22:59:27Z</time>
      </trkpt>
      <trkpt lat="23.06581" lon="113.269142">
        <time>2026-09-19T22:59:32Z</time>
      </trkpt>
      <trkpt lat="23.065847" lon="113.269021">
        <time>2026-09-19T22:59:37Z</time>
      </trkpt>
      <trkpt lat="23.065899" lon="113.268913">
        <time>2026-09-19T22:59:42Z</time>
      </trkpt>
      <trkpt lat="23.065953" lon="113.268809">
        <time>2026-09-19T22:59:47Z</time>
      </trkpt>
      <trkpt lat="23.06601" lon="113.268702">
        <time>2026-09-19T22:59:52Z</time>
      </trkpt>
      <trkpt lat="23.066077" lon="113.268598">
        <time>2026-09-19T22:59:57Z</time>
      </trkpt>
      <trkpt lat="23.066144" lon="113.268497">
        <time>2026-09-19T23:00:02Z</time>
      </trkpt>
      <trkpt lat="23.06621" lon="113.268396">
        <time>2026-09-19T23:00:07Z</time>
      </trkpt>
      <trkpt lat="23.066282" lon="113.268294">
        <time>2026-09-19T23:00:12Z</time>
      </trkpt>
      <trkpt lat="23.066363" lon="113.268203">
        <time>2026-09-19T23:00:17Z</time>
      </trkpt>
      <trkpt lat="23.066466" lon="113.268147">
        <time>2026-09-19T23:00:22Z</time>
      </trkpt>
      <trkpt lat="23.066579" lon="113.268144">
        <time>2026-09-19T23:00:27Z</time>
      </trkpt>
      <trkpt lat="23.066694" lon="113.268171">
        <time>2026-09-19T23:00:32Z</time>
      </trkpt>
      <trkpt lat="23.066809" lon="113.268183">
        <time>2026-09-19T23:00:37Z</time>
      </trkpt>
      <trkpt lat="23.066924" lon="113.268176">
        <time>2026-09-19T23:00:42Z</time>
      </trkpt>
      <trkpt lat="23.067032" lon="113.2682">
        <time>2026-09-19T23:00:47Z</time>
      </trkpt>
      <trkpt lat="23.067127" lon="113.268254">
        <time>2026-09-19T23:00:52Z</time>
      </trkpt>
      <trkpt lat="23.067218" lon="113.268295">
        <time>2026-09-19T23:00:57Z</time>
      </trkpt>
      <trkpt lat="23.067316" lon="113.268339">
        <time>2026-09-19T23:01:02Z</time>
      </trkpt>
      <trkpt lat="23.067404" lon="113.268395">
        <time>2026-09-19T23:01:07Z</time>
      </trkpt>
      <trkpt lat="23.067499" lon="113.268458">
        <time>2026-09-19T23:01:12Z</time>
      </trkpt>
      <trkpt lat="23.067618" lon="113.268527">
        <time>2026-09-19T23:01:17Z</time>
      </trkpt>
      <trkpt lat="23.067734" lon="113.268582">
        <time>2026-09-19T23:01:22Z</time>
      </trkpt>
      <trkpt lat="23.067842" lon="113.268632">
        <time>2026-09-19T23:01:27Z</time>
      </trkpt>
      <trkpt lat="23.06794" lon="113.2687">
        <time>2026-09-19T23:01:32Z</time>
      </trkpt>
      <trkpt lat="23.068021" lon="113.268766">
        <time>2026-09-19T23:01:37Z</time>
      </trkpt>
      <trkpt lat="23.068101" lon="113.268808">
        <time>2026-09-19T23:01:42Z</time>
      </trkpt>
      <trkpt lat="23.068193" lon="113.268835">
        <time>2026-09-19T23:01:47Z</time>
      </trkpt>
      <trkpt lat="23.068291" lon="113.268875">
        <time>2026-09-19T23:01:52Z</time>
      </trkpt>
      <trkpt lat="23.068391" lon="113.268949">
        <time>2026-09-19T23:01:57Z</time>
      </trkpt>
      <trkpt lat="23.06852" lon="113.269029">
        <time>2026-09-19T23:02:02Z</time>
      </trkpt>
      <trkpt lat="23.06864" lon="113.2691">
        <time>2026-09-19T23:02:07Z</time>
      </trkpt>
      <trkpt lat="23.068746" lon="113.269151">
        <time>2026-09-19T23:02:12Z</time>
      </trkpt>
      <trkpt lat="23.068866" lon="113.269162">
        <time>2026-09-19T23:02:17Z</time>
      </trkpt>
      <trkpt lat="23.06897" lon="113.269184">
        <time>2026-09-19T23:02:22Z</time>
      </trkpt>
      <trkpt lat="23.069074" lon="113.269223">
        <time>2026-09-19T23:02:27Z</time>
      </trkpt>
      <trkpt lat="23.0692" lon="113.269278">
        <time>2026-09-19T23:02:32Z</time>
      </trkpt>
      <trkpt lat="23.069332" lon="113.269332">
        <time>2026-09-19T23:02:37Z</time>
      </trkpt>
      <trkpt lat="23.069445" lon="113.269392">
        <time>2026-09-19T23:02:42Z</time>
      </trkpt>
      <trkpt lat="23.069547" lon="113.269466">
        <time>2026-09-19T23:02:47Z</time>
      </trkpt>
      <trkpt lat="23.069653" lon="113.269525">
        <time>2026-09-19T23:02:52Z</time>
      </trkpt>
      <trkpt lat="23.069759" lon="113.26959">
        <time>2026-09-19T23:02:57Z</time>
      </trkpt>
      <trkpt lat="23.069868" lon="113.269639">
        <time>2026-09-19T23:03:02Z</time>
      </trkpt>
      <trkpt lat="23.069975" lon="113.26969">
        <time>2026-09-19T23:03:07Z</time>
      </trkpt>
      <trkpt lat="23.070078" lon="113.269746">
        <time>2026-09-19T23:03:12Z</time>
      </trkpt>
      <trkpt lat="23.070181" lon="113.269791">
        <time>2026-09-19T23:03:17Z</time>
      </trkpt>
      <trkpt lat="23.070288" lon="113.26984">
        <time>2026-09-19T23:03:22Z</time>
      </trkpt>
      <trkpt lat="23.070391" lon="113.26989">
        <time>2026-09-19T23:03:27Z</time>
      </trkpt>
      <trkpt lat="23.070512" lon="113.269923">
        <time>2026-09-19T23:03:32Z</time>
      </trkpt>
      <trkpt lat="23.070628" lon="113.269953">
        <time>2026-09-19T23:03:37Z</time>
      </trkpt>
      <trkpt lat="23.070721" lon="113.269999">
        <time>2026-09-19T23:03:42Z</time>
      </trkpt>
      <trkpt lat="23.070819" lon="113.270053">
        <time>2026-09-19T23:03:47Z</time>
      </trkpt>
      <trkpt lat="23.070918" lon="113.270125">
        <time>2026-09-19T23:03:52Z</time>
      </trkpt>
      <trkpt lat="23.071031" lon="113.270164">
        <time>2026-09-19T23:03:57Z</time>
      </trkpt>
      <trkpt lat="23.071131" lon="113.270205">
        <time>2026-09-19T23:04:02Z</time>
      </trkpt>
      <trkpt lat="23.071225" lon="113.270253">
        <time>2026-09-19T23:04:07Z</time>
      </trkpt>
      <trkpt lat="23.071327" lon="113.270305">
        <time>2026-09-19T23:04:12Z</time>
      </trkpt>
      <trkpt lat="23.071433" lon="113.270367">
        <time>2026-09-19T23:04:17Z</time>
      </trkpt>
      <trkpt lat="23.071537" lon="113.270443">
        <time>2026-09-19T23:04:22Z</time>
      </trkpt>
      <trkpt lat="23.071634" lon="113.270507">
        <time>2026-09-19T23:04:27Z</time>
      </trkpt>
      <trkpt lat="23.07173" lon="113.270557">
        <time>2026-09-19T23:04:32Z</time>
      </trkpt>
      <trkpt lat="23.071844" lon="113.270589">
        <time>2026-09-19T23:04:37Z</time>
      </trkpt>
      <trkpt lat="23.071957" lon="113.270639">
        <time>2026-09-19T23:04:42Z</time>
      </trkpt>
      <trkpt lat="23.072078" lon="113.270686">
        <time>2026-09-19T23:04:47Z</time>
      </trkpt>
      <trkpt lat="23.072178" lon="113.27075">
        <time>2026-09-19T23:04:52Z</time>
      </trkpt>
      <trkpt lat="23.072275" lon="113.270803">
        <time>2026-09-19T23:04:57Z</time>
      </trkpt>
      <trkpt lat="23.072373" lon="113.270848">
        <time>2026-09-19T23:05:02Z</time>
      </trkpt>
      <trkpt lat="23.072468" lon="113.270903">
        <time>2026-09-19T23:05:07Z</time>
      </trkpt>
      <trkpt lat="23.072566" lon="113.27096">
        <time>2026-09-19T23:05:12Z</time>
      </trkpt>
      <trkpt lat="23.072665" lon="113.27101">
        <time>2026-09-19T23:05:17Z</time>
      </trkpt>
      <trkpt lat="23.072755" lon="113.271047">
        <time>2026-09-19T23:05:22Z</time>
      </trkpt>
      <trkpt lat="23.072846" lon="113.271081">
        <time>2026-09-19T23:05:27Z</time>
      </trkpt>
      <trkpt lat="23.072938" lon="113.271109">
        <time>2026-09-19T23:05:32Z</time>
      </trkpt>
      <trkpt lat="23.073037" lon="113.271138">
        <time>2026-09-19T23:05:37Z</time>
      </trkpt>
      <trkpt lat="23.073146" lon="113.271175">
        <time>2026-09-19T23:05:42Z</time>
      </trkpt>
      <trkpt lat="23.073212" lon="113.271247">
        <time>2026-09-19T23:05:47Z</time>
      </trkpt>
      <trkpt lat="23.07329" lon="113.271313">
        <time>2026-09-19T23:05:52Z</time>
      </trkpt>
      <trkpt lat="23.073388" lon="113.271376">
        <time>2026-09-19T23:05:57Z</time>
      </trkpt>
      <trkpt lat="23.073475" lon="113.271441">
        <time>2026-09-19T23:06:02Z</time>
      </trkpt>
      <trkpt lat="23.073559" lon="113.271512">
        <time>2026-09-19T23:06:07Z</time>
      </trkpt>
      <trkpt lat="23.07364" lon="113.271582">
        <time>2026-09-19T23:06:12Z</time>
      </trkpt>
      <trkpt lat="23.073741" lon="113.271627">
        <time>2026-09-19T23:06:17Z</time>
      </trkpt>
      <trkpt lat="23.073851" lon="113.271666">
        <time>2026-09-19T23:06:22Z</time>
      </trkpt>
      <trkpt lat="23.073946" lon="113.27172">
        <time>2026-09-19T23:06:27Z</time>
      </trkpt>
      <trkpt lat="23.074039" lon="113.271766">
        <time>2026-09-19T23:06:32Z</time>
      </trkpt>
      <trkpt lat="23.074093" lon="113.271798">
        <time>2026-09-19T23:06:37Z</time>
      </trkpt>
      <trkpt lat="23.074044" lon="113.271885">
        <time>2026-09-19T23:06:42Z</time>
      </trkpt>
      <trkpt lat="23.073991" lon="113.27199">
        <time>2026-09-19T23:06:47Z</time>
      </trkpt>
      <trkpt lat="23.073948" lon="113.272097">
        <time>2026-09-19T23:06:52Z</time>
      </trkpt>
      <trkpt lat="23.073906" lon="113.272204">
        <time>2026-09-19T23:06:57Z</time>
      </trkpt>
      <trkpt lat="23.073856" lon="113.272322">
        <time>2026-09-19T23:07:02Z</time>
      </trkpt>
      <trkpt lat="23.073804" lon="113.272446">
        <time>2026-09-19T23:07:07Z</time>
      </trkpt>
      <trkpt lat="23.073754" lon="113.272578">
        <time>2026-09-19T23:07:12Z</time>
      </trkpt>
      <trkpt lat="23.073705" lon="113.272702">
        <time>2026-09-19T23:07:17Z</time>
      </trkpt>
      <trkpt lat="23.073677" lon="113.272821">
        <time>2026-09-19T23:07:22Z</time>
      </trkpt>
      <trkpt lat="23.073741" lon="113.272924">
        <time>2026-09-19T23:07:27Z</time>
      </trkpt>
      <trkpt lat="23.073862" lon="113.272984">
        <time>2026-09-19T23:07:32Z</time>
      </trkpt>
      <trkpt lat="23.073974" lon="113.273003">
        <time>2026-09-19T23:07:37Z</time>
      </trkpt>
      <trkpt lat="23.074042" lon="113.272903">
        <time>2026-09-19T23:07:42Z</time>
      </trkpt>
      <trkpt lat="23.074091" lon="113.272788">
        <time>2026-09-19T23:07:47Z</time>
      </trkpt>
      <trkpt lat="23.074132" lon="113.272683">
        <time>2026-09-19T23:07:52Z</time>
      </trkpt>
      <trkpt lat="23.074159" lon="113.272593">
        <time>2026-09-19T23:07:57Z</time>
      </trkpt>
      <trkpt lat="23.074198" lon="113.272494">
        <time>2026-09-19T23:08:02Z</time>
      </trkpt>
      <trkpt lat="23.074253" lon="113.272391">
        <time>2026-09-19T23:08:09Z</time>
      </trkpt>
    </trkseg>
  </trk>
</gpx>