<?xml version="1.0" encoding="UTF-8"?>
<gpx xmlns="http://www.topografix.com/GPX/1/1" xmlns:gpxtpx="http://www.garmin.com/xmlschemas/TrackPointExtension/v1" xmlns:xsi="http://www.w3.org/2001/XMLSchema-instance" xsi:schemaLocation="http://www.topografix.com/GPX/1/1 http://www.topografix.com/GPX/1/1/gpx.xsd" version="1.1" creator="gpx.py -- https://github.com/tkrajina/gpxpy">
  <trk>
    <name>gpx from joyrun</name>
    <trkseg>
      <trkpt lat="23.076035" lon="113.272693">
        <time>2026-09-21T21:59:21Z</time>
      </trkpt>
      <trkpt lat="23.076014" lon="113.272695">
        <time>2026-09-21T21:59:26Z</time>
      </trkpt>
      <trkpt lat="23.075927" lon="113.272726">
        <time>2026-09-21T21:59:31Z</time>
      </trkpt>
      <trkpt lat="23.075809" lon="113.2727">
        <time>2026-09-21T21:59:36Z</time>
      </trkpt>
      <trkpt lat="23.07569" lon="113.272654">
        <time>2026-09-21T21:59:41Z</time>
      </trkpt>
      <trkpt lat="23.075582" lon="113.272599">
        <time>2026-09-21T21:59:46Z</time>
      </trkpt>
      <trkpt lat="23.075482" lon="113.272551">
        <time>2026-09-21T21:59:51Z</time>
      </trkpt>
      <trkpt lat="23.075386" lon="113.272504">
        <time>2026-09-21T21:59:56Z</time>
      </trkpt>
      <trkpt lat="23.075274" lon="113.272468">
        <time>2026-09-21T22:00:01Z</time>
      </trkpt>
      <trkpt lat="23.075166" lon="113.27242">
        <time>2026-09-21T22:00:06Z</time>
      </trkpt>
      <trkpt lat="23.075069" lon="113.272355">
        <time>2026-09-21T22:00:11Z</time>
      </trkpt>
      <trkpt lat="23.074971" lon="113.272298">
        <time>2026-09-21T22:00:16Z</time>
      </trkpt>
      <trkpt lat="23.074873" lon="113.27223">
        <time>2026-09-21T22:00:21Z</time>
      </trkpt>
      <trkpt lat="23.074775" lon="113.272156">
        <time>2026-09-21T22:00:26Z</time>
      </trkpt>
      <trkpt lat="23.074674" lon="113.272085">
        <time>2026-09-21T22:00:31Z</time>
      </trkpt>
      <trkpt lat="23.074572" lon="113.272017">
        <time>2026-09-21T22:00:36Z</time>
      </trkpt>
      <trkpt lat="23.074455" lon="113.271986">
        <time>2026-09-21T22:00:41Z</time>
      </trkpt>
      <trkpt lat="23.074356" lon="113.272021">
        <time>2026-09-21T22:00:46Z</time>
      </trkpt>
      <trkpt lat="23.0743" lon="113.272119">
        <time>2026-09-21T22:00:51Z</time>
      </trkpt>
      <trkpt lat="23.074267" lon="113.272236">
        <time>2026-09-21T22:00:56Z</time>
      </trkpt>
      <trkpt lat="23.074248" lon="113.27236">
        <time>2026-09-21T22:01:01Z</time>
      </trkpt>
      <trkpt lat="23.074206" lon="113.272477">
        <time>2026-09-21T22:01:06Z</time>
      </trkpt>
      <trkpt lat="23.074153" lon="113.272602">
        <time>2026-09-21T22:01:11Z</time>
      </trkpt>
      <trkpt lat="23.074112" lon="113.272727">
        <time>2026-09-21T22:01:16Z</time>
      </trkpt>
      <trkpt lat="23.074067" lon="113.272844">
        <time>2026-09-21T22:01:21Z</time>
      </trkpt>
      <trkpt lat="23.073981" lon="113.272939">
        <time>2026-09-21T22:01:26Z</time>
      </trkpt>
      <trkpt lat="23.073861" lon="113.272958">
        <time>2026-09-21T22:01:31Z</time>
      </trkpt>
      <trkpt lat="23.073737" lon="113.272914">
        <time>2026-09-21T22:01:36Z</time>
      </trkpt>
      <trkpt lat="23.073682" lon="113.27282">
        <time>2026-09-21T22:01:41Z</time>
      </trkpt>
      <trkpt lat="23.073706" lon="113.272711">
        <time>2026-09-21T22:01:46Z</time>
      </trkpt>
      <trkpt lat="23.07374" lon="113.272608">
        <time>2026-09-21T22:01:51Z</time>
      </trkpt>
      <trkpt lat="23.073769" lon="113.272512">
        <time>2026-09-21T22:01:56Z</time>
      </trkpt>
      <trkpt lat="23.073794" lon="113.272415">
        <time>2026-09-21T22:02:01Z</time>
      </trkpt>
      <trkpt lat="23.07384" lon="113.272311">
        <time>2026-09-21T22:02:06Z</time>
      </trkpt>
      <trkpt lat="23.073898" lon="113.272202">
        <time>2026-09-21T22:02:11Z</time>
      </trkpt>
      <trkpt lat="23.073948" lon="113.2721">
        <time>2026-09-21T22:02:16Z</time>
      </trkpt>
      <trkpt lat="23.073991" lon="113.272">
        <time>2026-09-21T22:02:21Z</time>
      </trkpt>
      <trkpt lat="23.07403" lon="113.271903">
        <time>2026-09-21T22:02:26Z</time>
      </trkpt>
      <trkpt lat="23.074072" lon="113.271806">
        <time>2026-09-21T22:02:31Z</time>
      </trkpt>
      <trkpt lat="23.074072" lon="113.271718">
        <time>2026-09-21T22:02:36Z</time>
      </trkpt>
      <trkpt lat="23.07399" lon="113.271659">
        <time>2026-09-21T22:02:41Z</time>
      </trkpt>
      <trkpt lat="23.073892" lon="113.271612">
        <time>2026-09-21T22:02:46Z</time>
      </trkpt>
      <trkpt lat="23.073797" lon="113.271563">
        <time>2026-09-21T22:02:51Z</time>
      </trkpt>
      <trkpt lat="23.073707" lon="113.271518">
        <time>2026-09-21T22:02:56Z</time>
      </trkpt>
      <trkpt lat="23.073603" lon="113.271482">
        <time>2026-09-21T22:03:01Z</time>
      </trkpt>
      <trkpt lat="23.073493" lon="113.271454">
        <time>2026-09-21T22:03:06Z</time>
      </trkpt>
      <trkpt lat="23.073384" lon="113.271415">
        <time>2026-09-21T22:03:11Z</time>
      </trkpt>
      <trkpt lat="23.073278" lon="113.271346">
        <time>2026-09-21T22:03:16Z</time>
      </trkpt>
      <trkpt lat="23.073192" lon="113.271248">
        <time>2026-09-21T22:03:21Z</time>
      </trkpt>
      <trkpt lat="23.073089" lon="113.271194">
        <time>2026-09-21T22:03:26Z</time>
      </trkpt>
      <trkpt lat="23.072985" lon="113.271134">
        <time>2026-09-21T22:03:31Z</time>
      </trkpt>
      <trkpt lat="23.07289" lon="113.271066">
        <time>2026-09-21T22:03:36Z</time>
      </trkpt>
      <trkpt lat="23.072788" lon="113.271009">
        <time>2026-09-21T22:03:41Z</time>
      </trkpt>
      <trkpt lat="23.072677" lon="113.270957">
        <time>2026-09-21T22:03:46Z</time>
      </trkpt>
      <trkpt lat="23.072566" lon="113.270894">
        <time>2026-09-21T22:03:51Z</time>
      </trkpt>
      <trkpt lat="23.072447" lon="113.270842">
        <time>2026-09-21T22:03:56Z</time>
      </trkpt>
      <trkpt lat="23.072325" lon="113.27079">
        <time>2026-09-21T22:04:01Z</time>
      </trkpt>
      <trkpt lat="23.072207" lon="113.270723">
        <time>2026-09-21T22:04:06Z</time>
      </trkpt>
      <trkpt lat="23.072102" lon="113.270656">
        <time>2026-09-21T22:04:11Z</time>
      </trkpt>
      <trkpt lat="23.071985" lon="113.270592">
        <time>2026-09-21T22:04:16Z</time>
      </trkpt>
      <trkpt lat="23.071874" lon="113.270507">
        <time>2026-09-21T22:04:21Z</time>
      </trkpt>
      <trkpt lat="23.071768" lon="113.270437">
        <time>2026-09-21T22:04:26Z</time>
      </trkpt>
      <trkpt lat="23.071661" lon="113.270391">
        <time>2026-09-21T22:04:31Z</time>
      </trkpt>
      <trkpt lat="23.071548" lon="113.270368">
        <time>2026-09-21T22:04:36Z</time>
      </trkpt>
      <trkpt lat="23.071432" lon="113.270341">
        <time>2026-09-21T22:04:41Z</time>
      </trkpt>
      <trkpt lat="23.071312" lon="113.270304">
        <time>2026-09-21T22:04:46Z</time>
      </trkpt>
      <trkpt lat="23.071198" lon="113.270257">
        <time>2026-09-21T22:04:51Z</time>
      </trkpt>
      <trkpt lat="23.07109" lon="113.270193">
        <time>2026-09-21T22:04:56Z</time>
      </trkpt>
      <trkpt lat="23.07097" lon="113.270144">
        <time>2026-09-21T22:05:01Z</time>
      </trkpt>
      <trkpt lat="23.070866" lon="113.270093">
        <time>2026-09-21T22:05:06Z</time>
      </trkpt>
      <trkpt lat="23.070753" lon="113.270048">
        <time>2026-09-21T22:05:11Z</time>
      </trkpt>
      <trkpt lat="23.070632" lon="113.269998">
        <time>2026-09-21T22:05:16Z</time>
      </trkpt>
      <trkpt lat="23.070515" lon="113.269933">
        <time>2026-09-21T22:05:21Z</time>
      </trkpt>
      <trkpt lat="23.070393" lon="113.269898">
        <time>2026-09-21T22:05:26Z</time>
      </trkpt>
      <trkpt lat="23.070269" lon="113.26987">
        <time>2026-09-21T22:05:31Z</time>
      </trkpt>
      <trkpt lat="23.070156" lon="113.269816">
        <time>2026-09-21T22:05:36Z</time>
      </trkpt>
      <trkpt lat="23.07005" lon="113.269744">
        <time>2026-09-21T22:05:41Z</time>
      </trkpt>
      <trkpt lat="23.069942" lon="113.269676">
        <time>2026-09-21T22:05:46Z</time>
      </trkpt>
      <trkpt lat="23.069832" lon="113.269624">
        <time>2026-09-21T22:05:51Z</time>
      </trkpt>
      <trkpt lat="23.069719" lon="113.269583">
        <time>2026-09-21T22:05:56Z</time>
      </trkpt>
      <trkpt lat="23.069602" lon="113.269531">
        <time>2026-09-21T22:06:01Z</time>
      </trkpt>
      <trkpt lat="23.069494" lon="113.269474">
        <time>2026-09-21T22:06:06Z</time>
      </trkpt>
      <trkpt lat="23.069392" lon="113.269426">
        <time>2026-09-21T22:06:11Z</time>
      </trkpt>
      <trkpt lat="23.069284" lon="113.269356">
        <time>2026-09-21T22:06:16Z</time>
      </trkpt>
      <trkpt lat="23.069173" lon="113.269292">
        <time>2026-09-21T22:06:21Z</time>
      </trkpt>
      <trkpt lat="23.069057" lon="113.269251">
        <time>2026-09-21T22:06:26Z</time>
      </trkpt>
      <trkpt lat="23.06895" lon="113.269201">
        <time>2026-09-21T22:06:31Z</time>
      </trkpt>
      <trkpt lat="23.068838" lon="113.269145">
        <time>2026-09-21T22:06:36Z</time>
      </trkpt>
      <trkpt lat="23.06872" lon="113.269099">
        <time>2026-09-21T22:06:41Z</time>
      </trkpt>
      <trkpt lat="23.068611" lon="113.269055">
        <time>2026-09-21T22:06:46Z</time>
      </trkpt>
      <trkpt lat="23.068502" lon="113.269018">
        <time>2026-09-21T22:06:51Z</time>
      </trkpt>
      <trkpt lat="23.068394" lon="113.268976">
        <time>2026-09-21T22:06:56Z</time>
      </trkpt>
      <trkpt lat="23.068304" lon="113.268916">
        <time>2026-09-21T22:07:01Z</time>
      </trkpt>
      <trkpt lat="23.068209" lon="113.268852">
        <time>2026-09-21T22:07:06Z</time>
      </trkpt>
      <trkpt lat="23.0681" lon="113.2688">
        <time>2026-09-21T22:07:11Z</time>
      </trkpt>
      <trkpt lat="23.068004" lon="113.268709">
        <time>2026-09-21T22:07:16Z</time>
      </trkpt>
      <trkpt lat="23.067898" lon="113.268592">
        <time>2026-09-21T22:07:21Z</time>
      </trkpt>
      <trkpt lat="23.067807" lon="113.268486">
        <time>2026-09-21T22:07:26Z</time>
      </trkpt>
      <trkpt lat="23.067697" lon="113.268423">
        <time>2026-09-21T22:07:31Z</time>
      </trkpt>
      <trkpt lat="23.067582" lon="113.268361">
        <time>2026-09-21T22:07:36Z</time>
      </trkpt>
      <trkpt lat="23.067469" lon="113.268299">
        <time>2026-09-21T22:07:41Z</time>
      </trkpt>
      <trkpt lat="23.067352" lon="113.26825">
        <time>2026-09-21T22:07:46Z</time>
      </trkpt>
      <trkpt lat="23.067236" lon="113.268207">
        <time>2026-09-21T22:07:51Z</time>
      </trkpt>
      <trkpt lat="23.067135" lon="113.268153">
        <time>2026-09-21T22:07:56Z</time>
      </trkpt>
      <trkpt lat="23.067045" lon="113.268101">
        <time>2026-09-21T22:08:01Z</time>
      </trkpt>
      <trkpt lat="23.066941" lon="113.268055">
        <time>2026-09-21T22:08:06Z</time>
      </trkpt>
      <trkpt lat="23.066827" lon="113.268021">
        <time>2026-09-21T22:08:11Z</time>
      </trkpt>
      <trkpt lat="23.066706" lon="113.268003">
        <time>2026-09-21T22:08:16Z</time>
      </trkpt>
      <trkpt lat="23.066587" lon="113.267977">
        <time>2026-09-21T22:08:21Z</time>
      </trkpt>
      <trkpt lat="23.066471" lon="113.26794">
        <time>2026-09-21T22:08:26Z</time>
      </trkpt>
      <trkpt lat="23.066359" lon="113.26793">
        <time>2026-09-21T22:08:31Z</time>
      </trkpt>
      <trkpt lat="23.066251" lon="113.26797">
        <time>2026-09-21T22:08:36Z</time>
      </trkpt>
      <trkpt lat="23.066163" lon="113.268066">
        <time>2026-09-21T22:08:41Z</time>
      </trkpt>
      <trkpt lat="23.066079" lon="113.268171">
        <time>2026-09-21T22:08:46Z</time>
      </trkpt>
      <trkpt lat="23.066" lon="113.268275">
        <time>2026-09-21T22:08:51Z</time>
      </trkpt>
      <trkpt lat="23.065918" lon="113.268373">
        <time>2026-09-21T22:08:56Z</time>
      </trkpt>
      <trkpt lat="23.065845" lon="113.268484">
        <time>2026-09-21T22:09:01Z</time>
      </trkpt>
      <trkpt lat="23.065774" lon="113.268598">
        <time>2026-09-21T22:09:06Z</time>
      </trkpt>
      <trkpt lat="23.065713" lon="113.268716">
        <time>2026-09-21T22:09:11Z</time>
      </trkpt>
      <trkpt lat="23.065658" lon="113.268834">
        <time>2026-09-21T22:09:16Z</time>
      </trkpt>
      <trkpt lat="23.065613" lon="113.268953">
        <time>2026-09-21T22:09:21Z</time>
      </trkpt>
      <trkpt lat="23.065577" lon="113.269074">
        <time>2026-09-21T22:09:26Z</time>
      </trkpt>
      <trkpt lat="23.065542" lon="113.269197">
        <time>2026-09-21T22:09:31Z</time>
      </trkpt>
      <trkpt lat="23.065509" lon="113.269323">
        <time>2026-09-21T22:09:36Z</time>
      </trkpt>
      <trkpt lat="23.065483" lon="113.269452">
        <time>2026-09-21T22:09:41Z</time>
      </trkpt>
      <trkpt lat="23.065457" lon="113.269578">
        <time>2026-09-21T22:09:46Z</time>
      </trkpt>
      <trkpt lat="23.065429" lon="113.269705">
        <time>2026-09-21T22:09:51Z</time>
      </trkpt>
      <trkpt lat="23.06539" lon="113.269835">
        <time>2026-09-21T22:09:56Z</time>
      </trkpt>
      <trkpt lat="23.065347" lon="113.269962">
        <time>2026-09-21T22:10:01Z</time>
      </trkpt>
      <trkpt lat="23.065305" lon="113.270088">
        <time>2026-09-21T22:10:06Z</time>
      </trkpt>
      <trkpt lat="23.065252" lon="113.270212">
        <time>2026-09-21T22:10:11Z</time>
      </trkpt>
      <trkpt lat="23.065198" lon="113.27033">
        <time>2026-09-21T22:10:16Z</time>
      </trkpt>
      <trkpt lat="23.065139" lon="113.270446">
        <time>2026-09-21T22:10:21Z</time>
      </trkpt>
      <trkpt lat="23.065083" lon="113.27056">
        <time>2026-09-21T22:10:26Z</time>
      </trkpt>
      <trkpt lat="23.065032" lon="113.270673">
        <time>2026-09-21T22:10:31Z</time>
      </trkpt>
      <trkpt lat="23.064984" lon="113.270791">
        <time>2026-09-21T22:10:36Z</time>
      </trkpt>
      <trkpt lat="23.064925" lon="113.270911">
        <time>2026-09-21T22:10:41Z</time>
      </trkpt>
      <trkpt lat="23.06487" lon="113.271038">
        <time>2026-09-21T22:10:46Z</time>
      </trkpt>
      <trkpt lat="23.064817" lon="113.271164">
        <time>2026-09-21T22:10:51Z</time>
      </trkpt>
      <trkpt lat="23.064755" lon="113.271289">
        <time>2026-09-21T22:10:56Z</time>
      </trkpt>
      <trkpt lat="23.064694" lon="113.271411">
        <time>2026-09-21T22:11:01Z</time>
      </trkpt>
      <trkpt lat="23.064641" lon="113.271536">
        <time>2026-09-21T22:11:06Z</time>
      </trkpt>
      <trkpt lat="23.064589" lon="113.271662">
        <time>2026-09-21T22:11:11Z</time>
      </trkpt>
      <trkpt lat="23.064533" lon="113.271785">
        <time>2026-09-21T22:11:16Z</time>
      </trkpt>
      <trkpt lat="23.064479" lon="113.271905">
        <time>2026-09-21T22:11:21Z</time>
      </trkpt>
      <trkpt lat="23.06442" lon="113.272034">
        <time>2026-09-21T22:11:26Z</time>
      </trkpt>
      <trkpt lat="23.064361" lon="113.272162">
        <time>2026-09-21T22:11:31Z</time>
      </trkpt>
      <trkpt lat="23.064334" lon="113.272296">
        <time>2026-09-21T22:11:36Z</time>
      </trkpt>
      <trkpt lat="23.064324" lon="113.272429">
        <time>2026-09-21T22:11:41Z</time>
      </trkpt>
      <trkpt lat="23.064324" lon="113.272562">
        <time>2026-09-21T22:11:46Z</time>
      </trkpt>
      <trkpt lat="23.064343" lon="113.272702">
        <time>2026-09-21T22:11:51Z</time>
      </trkpt>
      <trkpt lat="23.064382" lon="113.272835">
        <time>2026-09-21T22:11:56Z</time>
      </trkpt>
      <trkpt lat="23.064419" lon="113.272962">
        <time>2026-09-21T22:12:01Z</time>
      </trkpt>
      <trkpt lat="23.064449" lon="113.273092">
        <time>2026-09-21T22:12:06Z</time>
      </trkpt>
      <trkpt lat="23.06445" lon="113.273221">
        <time>2026-09-21T22:12:11Z</time>
      </trkpt>
      <trkpt lat="23.064398" lon="113.273325">
        <time>2026-09-21T22:12:16Z</time>
      </trkpt>
      <trkpt lat="23.064302" lon="113.273406">
        <time>2026-09-21T22:12:21Z</time>
      </trkpt>
      <trkpt lat="23.064196" lon="113.273485">
        <time>2026-09-21T22:12:26Z</time>
      </trkpt>
      <trkpt lat="23.064085" lon="113.273569">
        <time>2026-09-21T22:12:31Z</time>
      </trkpt>
      <trkpt lat="23.063969" lon="113.27367">
        <time>2026-09-21T22:12:36Z</time>
      </trkpt>
      <trkpt lat="23.063884" lon="113.273788">
        <time>2026-09-21T22:12:41Z</time>
      </trkpt>
      <trkpt lat="23.063814" lon="113.273911">
        <time>2026-09-21T22:12:46Z</time>
      </trkpt>
      <trkpt lat="23.063744" lon="113.27403">
        <time>2026-09-21T22:12:51Z</time>
      </trkpt>
      <trkpt lat="23.063644" lon="113.274125">
        <time>2026-09-21T22:12:56Z</time>
      </trkpt>
      <trkpt lat="23.063542" lon="113.27422">
        <time>2026-09-21T22:13:01Z</time>
      </trkpt>
      <trkpt lat="23.063476" lon="113.274351">
        <time>2026-09-21T22:13:06Z</time>
      </trkpt>
      <trkpt lat="23.063426" lon="113.274506">
        <time>2026-09-21T22:13:11Z</time>
      </trkpt>
      <trkpt lat="23.06337" lon="113.274662">
        <time>2026-09-21T22:13:16Z</time>
      </trkpt>
      <trkpt lat="23.063319" lon="113.274808">
        <time>2026-09-21T22:13:21Z</time>
      </trkpt>
      <trkpt lat="23.063275" lon="113.274952">
        <time>2026-09-21T22:13:26Z</time>
      </trkpt>
      <trkpt lat="23.063217" lon="113.27509">
        <time>2026-09-21T22:13:31Z</time>
      </trkpt>
      <trkpt lat="23.063149" lon="113.275214">
        <time>2026-09-21T22:13:36Z</time>
      </trkpt>
      <trkpt lat="23.063083" lon="113.275324">
        <time>2026-09-21T22:13:41Z</time>
      </trkpt>
      <trkpt lat="23.063015" lon="113.275438">
        <time>2026-09-21T22:13:46Z</time>
      </trkpt>
      <trkpt lat="23.062933" lon="113.275552">
        <time>2026-09-21T22:13:51Z</time>
      </trkpt>
      <trkpt lat="23.062839" lon="113.275656">
        <time>2026-09-21T22:13:56Z</time>
      </trkpt>
      <trkpt lat="23.062742" lon="113.275752">
        <time>2026-09-21T22:14:01Z</time>
      </trkpt>
      <trkpt lat="23.062646" lon="113.275853">
        <time>2026-09-21T22:14:06Z</time>
      </trkpt>
      <trkpt lat="23.062562" lon="113.275969">
        <time>2026-09-21T22:14:11Z</time>
      </trkpt>
      <trkpt lat="23.062493" lon="113.276092">
        <time>2026-09-21T22:14:16Z</time>
      </trkpt>
      <trkpt lat="23.062432" lon="113.276221">
        <time>2026-09-21T22:14:21Z</time>
      </trkpt>
      <trkpt lat="23.062378" lon="113.276351">
        <time>2026-09-21T22:14:26Z</time>
      </trkpt>
      <trkpt lat="23.062332" lon="113.276484">
        <time>2026-09-21T22:14:31Z</time>
      </trkpt>
      <trkpt lat="23.062286" lon="113.27662">
        <time>2026-09-21T22:14:36Z</time>
      </trkpt>
      <trkpt lat="23.062241" lon="113.276749">
        <time>2026-09-21T22:14:41Z</time>
      </trkpt>
      <trkpt lat="23.062193" lon="113.276878">
        <time>2026-09-21T22:14:46Z</time>
      </trkpt>
      <trkpt lat="23.062146" lon="113.277009">
        <time>2026-09-21T22:14:51Z</time>
      </trkpt>
      <trkpt lat="23.0621" lon="113.277139">
        <time>2026-09-21T22:14:56Z</time>
      </trkpt>
      <trkpt lat="23.062046" lon="113.277275">
        <time>2026-09-21T22:15:01Z</time>
      </trkpt>
      <trkpt lat="23.061991" lon="113.277408">
        <time>2026-09-21T22:15:06Z</time>
      </trkpt>
      <trkpt lat="23.061941" lon="113.27754">
        <time>2026-09-21T22:15:11Z</time>
      </trkpt>
      <trkpt lat="23.061881" lon="113.277671">
        <time>2026-09-21T22:15:16Z</time>
      </trkpt>
      <trkpt lat="23.061845" lon="113.277813">
        <time>2026-09-21T22:15:21Z</time>
      </trkpt>
      <trkpt lat="23.061838" lon="113.277954">
        <time>2026-09-21T22:15:26Z</time>
      </trkpt>
      <trkpt lat="23.061841" lon="113.278085">
        <time>2026-09-21T22:15:31Z</time>
      </trkpt>
      <trkpt lat="23.061849" lon="113.278214">
        <time>2026-09-21T22:15:36Z</time>
      </trkpt>
      <trkpt lat="23.061854" lon="113.278346">
        <time>2026-09-21T22:15:41Z</time>
      </trkpt>
      <trkpt lat="23.061861" lon="113.278484">
        <time>2026-09-21T22:15:46Z</time>
      </trkpt>
      <trkpt lat="23.061857" lon="113.278621">
        <time>2026-09-21T22:15:51Z</time>
      </trkpt>
      <trkpt lat="23.061833" lon="113.278735">
        <time>2026-09-21T22:15:56Z</time>
      </trkpt>
      <trkpt lat="23.061745" lon="113.278788">
        <time>2026-09-21T22:16:01Z</time>
      </trkpt>
      <trkpt lat="23.061693" lon="113.278908">
        <time>2026-09-21T22:16:06Z</time>
      </trkpt>
      <trkpt lat="23.061645" lon="113.279039">
        <time>2026-09-21T22:16:11Z</time>
      </trkpt>
      <trkpt lat="23.061595" lon="113.279163">
        <time>2026-09-21T22:16:16Z</time>
      </trkpt>
      <trkpt lat="23.061539" lon="113.27929">
        <time>2026-09-21T22:16:21Z</time>
      </trkpt>
      <trkpt lat="23.061485" lon="113.279425">
        <time>2026-09-21T22:16:26Z</time>
      </trkpt>
      <trkpt lat="23.061433" lon="113.279562">
        <time>2026-09-21T22:16:31Z</time>
      </trkpt>
      <trkpt lat="23.061377" lon="113.279698">
        <time>2026-09-21T22:16:36Z</time>
      </trkpt>
      <trkpt lat="23.061324" lon="113.279838">
        <time>2026-09-21T22:16:41Z</time>
      </trkpt>
      <trkpt lat="23.061265" lon="113.279979">
        <time>2026-09-21T22:16:46Z</time>
      </trkpt>
      <trkpt lat="23.061202" lon="113.280116">
        <time>2026-09-21T22:16:51Z</time>
      </trkpt>
      <trkpt lat="23.061142" lon="113.280253">
        <time>2026-09-21T22:16:56Z</time>
      </trkpt>
      <trkpt lat="23.061084" lon="113.280388">
        <time>2026-09-21T22:17:01Z</time>
      </trkpt>
      <trkpt lat="23.061022" lon="113.280523">
        <time>2026-09-21T22:17:06Z</time>
      </trkpt>
      <trkpt lat="23.060964" lon="113.280656">
        <time>2026-09-21T22:17:11Z</time>
      </trkpt>
      <trkpt lat="23.0609" lon="113.280791">
        <time>2026-09-21T22:17:16Z</time>
      </trkpt>
      <trkpt lat="23.060843" lon="113.280925">
        <time>2026-09-21T22:17:21Z</time>
      </trkpt>
      <trkpt lat="23.06079" lon="113.281047">
        <time>2026-09-21T22:17:26Z</time>
      </trkpt>
      <trkpt lat="23.060744" lon="113.281168">
        <time>2026-09-21T22:17:31Z</time>
      </trkpt>
      <trkpt lat="23.060692" lon="113.281289">
        <time>2026-09-21T22:17:36Z</time>
      </trkpt>
      <trkpt lat="23.060634" lon="113.28141">
        <time>2026-09-21T22:17:41Z</time>
      </trkpt>
      <trkpt lat="23.060583" lon="113.281531">
        <time>2026-09-21T22:17:46Z</time>
      </trkpt>
      <trkpt lat="23.060538" lon="113.281649">
        <time>2026-09-21T22:17:51Z</time>
      </trkpt>
      <trkpt lat="23.060493" lon="113.281775">
        <time>2026-09-21T22:17:56Z</time>
      </trkpt>
      <trkpt lat="23.060439" lon="113.281896">
        <time>2026-09-21T22:18:01Z</time>
      </trkpt>
      <trkpt lat="23.060393" lon="113.282016">
        <time>2026-09-21T22:18:06Z</time>
      </trkpt>
      <trkpt lat="23.060344" lon="113.282139">
        <time>2026-09-21T22:18:11Z</time>
      </trkpt>
      <trkpt lat="23.060292" lon="113.282264">
        <time>2026-09-21T22:18:16Z</time>
      </trkpt>
      <trkpt lat="23.06024" lon="113.282385">
        <time>2026-09-21T22:18:21Z</time>
      </trkpt>
      <trkpt lat="23.060186" lon="113.282508">
        <time>2026-09-21T22:18:26Z</time>
      </trkpt>
      <trkpt lat="23.060126" lon="113.282629">
        <time>2026-09-21T22:18:31Z</time>
      </trkpt>
      <trkpt lat="23.060076" lon="113.282748">
        <time>2026-09-21T22:18:36Z</time>
      </trkpt>
      <trkpt lat="23.06002" lon="113.28287">
        <time>2026-09-21T22:18:41Z</time>
      </trkpt>
      <trkpt lat="23.059971" lon="113.282988">
        <time>2026-09-21T22:18:46Z</time>
      </trkpt>
      <trkpt lat="23.059917" lon="113.283108">
        <time>2026-09-21T22:18:51Z</time>
      </trkpt>
      <trkpt lat="23.059855" lon="113.28323">
        <time>2026-09-21T22:18:56Z</time>
      </trkpt>
      <trkpt lat="23.059798" lon="113.28336">
        <time>2026-09-21T22:19:01Z</time>
      </trkpt>
      <trkpt lat="23.059738" lon="113.283492">
        <time>2026-09-21T22:19:06Z</time>
      </trkpt>
      <trkpt lat="23.059685" lon="113.28362">
        <time>2026-09-21T22:19:11Z</time>
      </trkpt>
      <trkpt lat="23.059637" lon="113.283753">
        <time>2026-09-21T22:19:16Z</time>
      </trkpt>
      <trkpt lat="23.059582" lon="113.283884">
        <time>2026-09-21T22:19:21Z</time>
      </trkpt>
      <trkpt lat="23.05953" lon="113.284014">
        <time>2026-09-21T22:19:26Z</time>
      </trkpt>
      <trkpt lat="23.059487" lon="113.284153">
        <time>2026-09-21T22:19:31Z</time>
      </trkpt>
      <trkpt lat="23.059436" lon="113.284291">
        <time>2026-09-21T22:19:36Z</time>
      </trkpt>
      <trkpt lat="23.059374" lon="113.284415">
        <time>2026-09-21T22:19:41Z</time>
      </trkpt>
      <trkpt lat="23.059322" lon="113.284535">
        <time>2026-09-21T22:19:46Z</time>
      </trkpt>
      <trkpt lat="23.059275" lon="113.284659">
        <time>2026-09-21T22:19:51Z</time>
      </trkpt>
      <trkpt lat="23.059231" lon="113.284795">
        <time>2026-09-21T22:19:56Z</time>
      </trkpt>
      <trkpt lat="23.059178" lon="113.28492">
        <time>2026-09-21T22:20:01Z</time>
      </trkpt>
      <trkpt lat="23.059124" lon="113.285046">
        <time>2026-09-21T22:20:06Z</time>
      </trkpt>
      <trkpt lat="23.059068" lon="113.285176">
        <time>2026-09-21T22:20:11Z</time>
      </trkpt>
      <trkpt lat="23.059012" lon="113.285309">
        <time>2026-09-21T22:20:16Z</time>
      </trkpt>
      <trkpt lat="23.058953" lon="113.285441">
        <time>2026-09-21T22:20:21Z</time>
      </trkpt>
      <trkpt lat="23.058899" lon="113.285575">
        <time>2026-09-21T22:20:26Z</time>
      </trkpt>
      <trkpt lat="23.058844" lon="113.285709">
        <time>2026-09-21T22:20:31Z</time>
      </trkpt>
      <trkpt lat="23.058786" lon="113.285838">
        <time>2026-09-21T22:20:36Z</time>
      </trkpt>
      <trkpt lat="23.058728" lon="113.285976">
        <time>2026-09-21T22:20:41Z</time>
      </trkpt>
      <trkpt lat="23.058684" lon="113.286119">
        <time>2026-09-21T22:20:46Z</time>
      </trkpt>
      <trkpt lat="23.058678" lon="113.28626">
        <time>2026-09-21T22:20:51Z</time>
      </trkpt>
      <trkpt lat="23.058775" lon="113.286341">
        <time>2026-09-21T22:20:56Z</time>
      </trkpt>
      <trkpt lat="23.058915" lon="113.286361">
        <time>2026-09-21T22:21:01Z</time>
      </trkpt>
      <trkpt lat="23.059051" lon="113.286369">
        <time>2026-09-21T22:21:06Z</time>
      </trkpt>
      <trkpt lat="23.059188" lon="113.286382">
        <time>2026-09-21T22:21:11Z</time>
      </trkpt>
      <trkpt lat="23.059319" lon="113.286396">
        <time>2026-09-21T22:21:16Z</time>
      </trkpt>
      <trkpt lat="23.059443" lon="113.286413">
        <time>2026-09-21T22:21:21Z</time>
      </trkpt>
      <trkpt lat="23.059571" lon="113.28643">
        <time>2026-09-21T22:21:26Z</time>
      </trkpt>
      <trkpt lat="23.059696" lon="113.286435">
        <time>2026-09-21T22:21:31Z</time>
      </trkpt>
      <trkpt lat="23.059821" lon="113.286432">
        <time>2026-09-21T22:21:36Z</time>
      </trkpt>
      <trkpt lat="23.059874" lon="113.28638">
        <time>2026-09-21T22:21:41Z</time>
      </trkpt>
      <trkpt lat="23.059758" lon="113.286305">
        <time>2026-09-21T22:21:46Z</time>
      </trkpt>
      <trkpt lat="23.059617" lon="113.286263">
        <time>2026-09-21T22:21:51Z</time>
      </trkpt>
      <trkpt lat="23.059466" lon="113.286248">
        <time>2026-09-21T22:21:56Z</time>
      </trkpt>
      <trkpt lat="23.059323" lon="113.286236">
        <time>2026-09-21T22:22:01Z</time>
      </trkpt>
      <trkpt lat="23.059194" lon="113.286236">
        <time>2026-09-21T22:22:06Z</time>
      </trkpt>
      <trkpt lat="23.059065" lon="113.286226">
        <time>2026-09-21T22:22:11Z</time>
      </trkpt>
      <trkpt lat="23.058927" lon="113.286213">
        <time>2026-09-21T22:22:16Z</time>
      </trkpt>
      <trkpt lat="23.0588" lon="113.286178">
        <time>2026-09-21T22:22:21Z</time>
      </trkpt>
      <trkpt lat="23.058745" lon="113.286087">
        <time>2026-09-21T22:22:26Z</time>
      </trkpt>
      <trkpt lat="23.058793" lon="113.285965">
        <time>2026-09-21T22:22:31Z</time>
      </trkpt>
      <trkpt lat="23.058857" lon="113.28585">
        <time>2026-09-21T22:22:36Z</time>
      </trkpt>
      <trkpt lat="23.058917" lon="113.28573">
        <time>2026-09-21T22:22:41Z</time>
      </trkpt>
      <trkpt lat="23.058974" lon="113.285608">
        <time>2026-09-21T22:22:46Z</time>
      </trkpt>
      <trkpt lat="23.059032" lon="113.285481">
        <time>2026-09-21T22:22:51Z</time>
      </trkpt>
      <trkpt lat="23.059089" lon="113.285349">
        <time>2026-09-21T22:22:56Z</time>
      </trkpt>
      <trkpt lat="23.059147" lon="113.285216">
        <time>2026-09-21T22:23:01Z</time>
      </trkpt>
      <trkpt lat="23.059208" lon="113.285082">
        <time>2026-09-21T22:23:06Z</time>
      </trkpt>
      <trkpt lat="23.059269" lon="113.284952">
        <time>2026-09-21T22:23:11Z</time>
      </trkpt>
      <trkpt lat="23.059328" lon="113.284819">
        <time>2026-09-21T22:23:16Z</time>
      </trkpt>
      <trkpt lat="23.059386" lon="113.284687">
        <time>2026-09-21T22:23:21Z</time>
      </trkpt>
      <trkpt lat="23.059441" lon="113.284559">
        <time>2026-09-21T22:23:26Z</time>
      </trkpt>
      <trkpt lat="23.059497" lon="113.284432">
        <time>2026-09-21T22:23:31Z</time>
      </trkpt>
      <trkpt lat="23.059555" lon="113.284313">
        <time>2026-09-21T22:23:36Z</time>
      </trkpt>
      <trkpt lat="23.059611" lon="113.284191">
        <time>2026-09-21T22:23:41Z</time>
      </trkpt>
      <trkpt lat="23.059663" lon="113.284062">
        <time>2026-09-21T22:23:46Z</time>
      </trkpt>
      <trkpt lat="23.059719" lon="113.283935">
        <time>2026-09-21T22:23:51Z</time>
      </trkpt>
      <trkpt lat="23.059778" lon="113.283803">
        <time>2026-09-21T22:23:56Z</time>
      </trkpt>
      <trkpt lat="23.059835" lon="113.283672">
        <time>2026-09-21T22:24:01Z</time>
      </trkpt>
      <trkpt lat="23.059898" lon="113.283541">
        <time>2026-09-21T22:24:06Z</time>
      </trkpt>
      <trkpt lat="23.059944" lon="113.283408">
        <time>2026-09-21T22:24:11Z</time>
      </trkpt>
      <trkpt lat="23.059995" lon="113.283283">
        <time>2026-09-21T22:24:16Z</time>
      </trkpt>
      <trkpt lat="23.06007" lon="113.283173">
        <time>2026-09-21T22:24:21Z</time>
      </trkpt>
      <trkpt lat="23.06014" lon="113.283055">
        <time>2026-09-21T22:24:26Z</time>
      </trkpt>
      <trkpt lat="23.060211" lon="113.282938">
        <time>2026-09-21T22:24:31Z</time>
      </trkpt>
      <trkpt lat="23.060262" lon="113.282817">
        <time>2026-09-21T22:24:36Z</time>
      </trkpt>
      <trkpt lat="23.060306" lon="113.28269">
        <time>2026-09-21T22:24:41Z</time>
      </trkpt>
      <trkpt lat="23.060351" lon="113.282555">
        <time>2026-09-21T22:24:46Z</time>
      </trkpt>
      <trkpt lat="23.060397" lon="113.282423">
        <time>2026-09-21T22:24:51Z</time>
      </trkpt>
      <trkpt lat="23.060447" lon="113.282291">
        <time>2026-09-21T22:24:56Z</time>
      </trkpt>
      <trkpt lat="23.060499" lon="113.282163">
        <time>2026-09-21T22:25:01Z</time>
      </trkpt>
      <trkpt lat="23.060547" lon="113.282029">
        <time>2026-09-21T22:25:06Z</time>
      </trkpt>
      <trkpt lat="23.060592" lon="113.281893">
        <time>2026-09-21T22:25:11Z</time>
      </trkpt>
      <trkpt lat="23.060644" lon="113.28175">
        <time>2026-09-21T22:25:16Z</time>
      </trkpt>
      <trkpt lat="23.060709" lon="113.281626">
        <time>2026-09-21T22:25:21Z</time>
      </trkpt>
      <trkpt lat="23.060763" lon="113.28151">
        <time>2026-09-21T22:25:26Z</time>
      </trkpt>
      <trkpt lat="23.060823" lon="113.281376">
        <time>2026-09-21T22:25:31Z</time>
      </trkpt>
      <trkpt lat="23.060889" lon="113.281233">
        <time>2026-09-21T22:25:36Z</time>
      </trkpt>
      <trkpt lat="23.060944" lon="113.281097">
        <time>2026-09-21T22:25:41Z</time>
      </trkpt>
      <trkpt lat="23.060997" lon="113.280967">
        <time>2026-09-21T22:25:46Z</time>
      </trkpt>
      <trkpt lat="23.061051" lon="113.28084">
        <time>2026-09-21T22:25:51Z</time>
      </trkpt>
      <trkpt lat="23.0611" lon="113.280706">
        <time>2026-09-21T22:25:56Z</time>
      </trkpt>
      <trkpt lat="23.061163" lon="113.280565">
        <time>2026-09-21T22:26:01Z</time>
      </trkpt>
      <trkpt lat="23.061223" lon="113.280424">
        <time>2026-09-21T22:26:06Z</time>
      </trkpt>
      <trkpt lat="23.061279" lon="113.28029">
        <time>2026-09-21T22:26:11Z</time>
      </trkpt>
      <trkpt lat="23.061342" lon="113.280161">
        <time>2026-09-21T22:26:16Z</time>
      </trkpt>
      <trkpt lat="23.061404" lon="113.28003">
        <time>2026-09-21T22:26:21Z</time>
      </trkpt>
      <trkpt lat="23.061452" lon="113.279902">
        <time>2026-09-21T22:26:26Z</time>
      </trkpt>
      <trkpt lat="23.061498" lon="113.279781">
        <time>2026-09-21T22:26:31Z</time>
      </trkpt>
      <trkpt lat="23.061544" lon="113.279658">
        <time>2026-09-21T22:26:36Z</time>
      </trkpt>
      <trkpt lat="23.061591" lon="113.279523">
        <time>2026-09-21T22:26:41Z</time>
      </trkpt>
      <trkpt lat="23.061651" lon="113.279393">
        <time>2026-09-21T22:26:46Z</time>
      </trkpt>
      <trkpt lat="23.061709" lon="113.279262">
        <time>2026-09-21T22:26:51Z</time>
      </trkpt>
      <trkpt lat="23.061777" lon="113.279131">
        <time>2026-09-21T22:26:56Z</time>
      </trkpt>
      <trkpt lat="23.061859" lon="113.279003">
        <time>2026-09-21T22:27:01Z</time>
      </trkpt>
      <trkpt lat="23.061936" lon="113.278877">
        <time>2026-09-21T22:27:06Z</time>
      </trkpt>
      <trkpt lat="23.061983" lon="113.27874">
        <time>2026-09-21T22:27:11Z</time>
      </trkpt>
      <trkpt lat="23.061987" lon="113.278596">
        <time>2026-09-21T22:27:16Z</time>
      </trkpt>
      <trkpt lat="23.061973" lon="113.278457">
        <time>2026-09-21T22:27:21Z</time>
      </trkpt>
      <trkpt lat="23.061964" lon="113.278316">
        <time>2026-09-21T22:27:26Z</time>
      </trkpt>
      <trkpt lat="23.061955" lon="113.278172">
        <time>2026-09-21T22:27:31Z</time>
      </trkpt>
      <trkpt lat="23.061948" lon="113.278026">
        <time>2026-09-21T22:27:36Z</time>
      </trkpt>
      <trkpt lat="23.061944" lon="113.277881">
        <time>2026-09-21T22:27:41Z</time>
      </trkpt>
      <trkpt lat="23.061957" lon="113.277733">
        <time>2026-09-21T22:27:46Z</time>
      </trkpt>
      <trkpt lat="23.061999" lon="113.277592">
        <time>2026-09-21T22:27:51Z</time>
      </trkpt>
      <trkpt lat="23.062056" lon="113.277455">
        <time>2026-09-21T22:27:56Z</time>
      </trkpt>
      <trkpt lat="23.062108" lon="113.277325">
        <time>2026-09-21T22:28:01Z</time>
      </trkpt>
      <trkpt lat="23.062154" lon="113.277193">
        <time>2026-09-21T22:28:06Z</time>
      </trkpt>
      <trkpt lat="23.062191" lon="113.277057">
        <time>2026-09-21T22:28:11Z</time>
      </trkpt>
      <trkpt lat="23.062246" lon="113.276932">
        <time>2026-09-21T22:28:16Z</time>
      </trkpt>
      <trkpt lat="23.062297" lon="113.276807">
        <time>2026-09-21T22:28:21Z</time>
      </trkpt>
      <trkpt lat="23.062349" lon="113.276685">
        <time>2026-09-21T22:28:26Z</time>
      </trkpt>
      <trkpt lat="23.062402" lon="113.276558">
        <time>2026-09-21T22:28:31Z</time>
      </trkpt>
      <trkpt lat="23.062449" lon="113.276426">
        <time>2026-09-21T22:28:36Z</time>
      </trkpt>
      <trkpt lat="23.062495" lon="113.276296">
        <time>2026-09-21T22:28:41Z</time>
      </trkpt>
      <trkpt lat="23.06255" lon="113.276171">
        <time>2026-09-21T22:28:46Z</time>
      </trkpt>
      <trkpt lat="23.062618" lon="113.276053">
        <time>2026-09-21T22:28:51Z</time>
      </trkpt>
      <trkpt lat="23.062702" lon="113.27594">
        <time>2026-09-21T22:28:56Z</time>
      </trkpt>
      <trkpt lat="23.062794" lon="113.275831">
        <time>2026-09-21T22:29:01Z</time>
      </trkpt>
      <trkpt lat="23.062897" lon="113.275733">
        <time>2026-09-21T22:29:06Z</time>
      </trkpt>
      <trkpt lat="23.062993" lon="113.275635">
        <time>2026-09-21T22:29:11Z</time>
      </trkpt>
      <trkpt lat="23.063069" lon="113.275536">
        <time>2026-09-21T22:29:16Z</time>
      </trkpt>
      <trkpt lat="23.063136" lon="113.275424">
        <time>2026-09-21T22:29:21Z</time>
      </trkpt>
      <trkpt lat="23.063208" lon="113.275307">
        <time>2026-09-21T22:29:26Z</time>
      </trkpt>
      <trkpt lat="23.063283" lon="113.275189">
        <time>2026-09-21T22:29:31Z</time>
      </trkpt>
      <trkpt lat="23.063352" lon="113.275067">
        <time>2026-09-21T22:29:36Z</time>
      </trkpt>
      <trkpt lat="23.063409" lon="113.274939">
        <time>2026-09-21T22:29:41Z</time>
      </trkpt>
      <trkpt lat="23.063445" lon="113.274812">
        <time>2026-09-21T22:29:46Z</time>
      </trkpt>
      <trkpt lat="23.06348" lon="113.274693">
        <time>2026-09-21T22:29:51Z</time>
      </trkpt>
      <trkpt lat="23.063513" lon="113.27457">
        <time>2026-09-21T22:29:56Z</time>
      </trkpt>
      <trkpt lat="23.063558" lon="113.274441">
        <time>2026-09-21T22:30:01Z</time>
      </trkpt>
      <trkpt lat="23.063622" lon="113.274324">
        <time>2026-09-21T22:30:06Z</time>
      </trkpt>
      <trkpt lat="23.063694" lon="113.274223">
        <time>2026-09-21T22:30:11Z</time>
      </trkpt>
      <trkpt lat="23.063778" lon="113.274142">
        <time>2026-09-21T22:30:16Z</time>
      </trkpt>
      <trkpt lat="23.063865" lon="113.274039">
        <time>2026-09-21T22:30:21Z</time>
      </trkpt>
      <trkpt lat="23.063948" lon="113.273908">
        <time>2026-09-21T22:30:26Z</time>
      </trkpt>
      <trkpt lat="23.064026" lon="113.273782">
        <time>2026-09-21T22:30:31Z</time>
      </trkpt>
      <trkpt lat="23.064118" lon="113.273682">
        <time>2026-09-21T22:30:36Z</time>
      </trkpt>
      <trkpt lat="23.064229" lon="113.273604">
        <time>2026-09-21T22:30:41Z</time>
      </trkpt>
      <trkpt lat="23.064338" lon="113.27352">
        <time>2026-09-21T22:30:46Z</time>
      </trkpt>
      <trkpt lat="23.064443" lon="113.273429">
        <time>2026-09-21T22:30:51Z</time>
      </trkpt>
      <trkpt lat="23.064535" lon="113.273323">
        <time>2026-09-21T22:30:56Z</time>
      </trkpt>
      <trkpt lat="23.064589" lon="113.273195">
        <time>2026-09-21T22:31:01Z</time>
      </trkpt>
      <trkpt lat="23.064577" lon="113.273049">
        <time>2026-09-21T22:31:06Z</time>
      </trkpt>
      <trkpt lat="23.064526" lon="113.272907">
        <time>2026-09-21T22:31:11Z</time>
      </trkpt>
      <trkpt lat="23.064473" lon="113.272766">
        <time>2026-09-21T22:31:16Z</time>
      </trkpt>
      <trkpt lat="23.064438" lon="113.272626">
        <time>2026-09-21T22:31:21Z</time>
      </trkpt>
      <trkpt lat="23.064465" lon="113.272489">
        <time>2026-09-21T22:31:26Z</time>
      </trkpt>
      <trkpt lat="23.064525" lon="113.272352">
        <time>2026-09-21T22:31:31Z</time>
      </trkpt>
      <trkpt lat="23.06456" lon="113.272212">
        <time>2026-09-21T22:31:36Z</time>
      </trkpt>
      <trkpt lat="23.064618" lon="113.272088">
        <time>2026-09-21T22:31:41Z</time>
      </trkpt>
      <trkpt lat="23.064679" lon="113.271966">
        <time>2026-09-21T22:31:46Z</time>
      </trkpt>
      <trkpt lat="23.064736" lon="113.271847">
        <time>2026-09-21T22:31:51Z</time>
      </trkpt>
      <trkpt lat="23.064807" lon="113.271725">
        <time>2026-09-21T22:31:56Z</time>
      </trkpt>
      <trkpt lat="23.064883" lon="113.271601">
        <time>2026-09-21T22:32:01Z</time>
      </trkpt>
      <trkpt lat="23.064945" lon="113.271478">
        <time>2026-09-21T22:32:06Z</time>
      </trkpt>
      <trkpt lat="23.064995" lon="113.271362">
        <time>2026-09-21T22:32:11Z</time>
      </trkpt>
      <trkpt lat="23.065046" lon="113.271239">
        <time>2026-09-21T22:32:16Z</time>
      </trkpt>
      <trkpt lat="23.065117" lon="113.271107">
        <time>2026-09-21T22:32:21Z</time>
      </trkpt>
      <trkpt lat="23.065182" lon="113.270965">
        <time>2026-09-21T22:32:26Z</time>
      </trkpt>
      <trkpt lat="23.065231" lon="113.270828">
        <time>2026-09-21T22:32:31Z</time>
      </trkpt>
      <trkpt lat="23.065289" lon="113.270698">
        <time>2026-09-21T22:32:36Z</time>
      </trkpt>
      <trkpt lat="23.065343" lon="113.27057">
        <time>2026-09-21T22:32:41Z</time>
      </trkpt>
      <trkpt lat="23.0654" lon="113.270441">
        <time>2026-09-21T22:32:46Z</time>
      </trkpt>
      <trkpt lat="23.065462" lon="113.270316">
        <time>2026-09-21T22:32:51Z</time>
      </trkpt>
      <trkpt lat="23.065512" lon="113.270188">
        <time>2026-09-21T22:32:56Z</time>
      </trkpt>
      <trkpt lat="23.06556" lon="113.270058">
        <time>2026-09-21T22:33:01Z</time>
      </trkpt>
      <trkpt lat="23.065607" lon="113.269931">
        <time>2026-09-21T22:33:06Z</time>
      </trkpt>
      <trkpt lat="23.065643" lon="113.269795">
        <time>2026-09-21T22:33:11Z</time>
      </trkpt>
      <trkpt lat="23.065676" lon="113.269663">
        <time>2026-09-21T22:33:16Z</time>
      </trkpt>
      <trkpt lat="23.065719" lon="113.269522">
        <time>2026-09-21T22:33:21Z</time>
      </trkpt>
      <trkpt lat="23.065761" lon="113.269377">
        <time>2026-09-21T22:33:26Z</time>
      </trkpt>
      <trkpt lat="23.065797" lon="113.26923">
        <time>2026-09-21T22:33:31Z</time>
      </trkpt>
      <trkpt lat="23.065835" lon="113.269089">
        <time>2026-09-21T22:33:36Z</time>
      </trkpt>
      <trkpt lat="23.065885" lon="113.268958">
        <time>2026-09-21T22:33:41Z</time>
      </trkpt>
      <trkpt lat="23.065942" lon="113.268834">
        <time>2026-09-21T22:33:46Z</time>
      </trkpt>
      <trkpt lat="23.066005" lon="113.268706">
        <time>2026-09-21T22:33:51Z</time>
      </trkpt>
      <trkpt lat="23.066077" lon="113.268585">
        <time>2026-09-21T22:33:56Z</time>
      </trkpt>
      <trkpt lat="23.066161" lon="113.268463">
        <time>2026-09-21T22:34:01Z</time>
      </trkpt>
      <trkpt lat="23.066258" lon="113.268334">
        <time>2026-09-21T22:34:06Z</time>
      </trkpt>
      <trkpt lat="23.066361" lon="113.268216">
        <time>2026-09-21T22:34:11Z</time>
      </trkpt>
      <trkpt lat="23.066489" lon="113.26815">
        <time>2026-09-21T22:34:16Z</time>
      </trkpt>
      <trkpt lat="23.06662" lon="113.268149">
        <time>2026-09-21T22:34:21Z</time>
      </trkpt>
      <trkpt lat="23.066747" lon="113.268167">
        <time>2026-09-21T22:34:26Z</time>
      </trkpt>
      <trkpt lat="23.066877" lon="113.268155">
        <time>2026-09-21T22:34:31Z</time>
      </trkpt>
      <trkpt lat="23.067001" lon="113.268168">
        <time>2026-09-21T22:34:36Z</time>
      </trkpt>
      <trkpt lat="23.067109" lon="113.268215">
        <time>2026-09-21T22:34:41Z</time>
      </trkpt>
      <trkpt lat="23.067222" lon="113.268268">
        <time>2026-09-21T22:34:46Z</time>
      </trkpt>
      <trkpt lat="23.067331" lon="113.268338">
        <time>2026-09-21T22:34:51Z</time>
      </trkpt>
      <trkpt lat="23.067427" lon="113.268402">
        <time>2026-09-21T22:34:56Z</time>
      </trkpt>
      <trkpt lat="23.067534" lon="113.268464">
        <time>2026-09-21T22:35:01Z</time>
      </trkpt>
      <trkpt lat="23.067653" lon="113.268534">
        <time>2026-09-21T22:35:06Z</time>
      </trkpt>
      <trkpt lat="23.067771" lon="113.268598">
        <time>2026-09-21T22:35:11Z</time>
      </trkpt>
      <trkpt lat="23.067859" lon="113.268573">
        <time>2026-09-21T22:35:16Z</time>
      </trkpt>
      <trkpt lat="23.067787" lon="113.268473">
        <time>2026-09-21T22:35:21Z</time>
      </trkpt>
      <trkpt lat="23.067666" lon="113.268398">
        <time>2026-09-21T22:35:26Z</time>
      </trkpt>
      <trkpt lat="23.067541" lon="113.268328">
        <time>2026-09-21T22:35:31Z</time>
      </trkpt>
      <trkpt lat="23.067413" lon="113.268271">
        <time>2026-09-21T22:35:36Z</time>
      </trkpt>
      <trkpt lat="23.067279" lon="113.26822">
        <time>2026-09-21T22:35:41Z</time>
      </trkpt>
      <trkpt lat="23.067156" lon="113.268172">
        <time>2026-09-21T22:35:46Z</time>
      </trkpt>
      <trkpt lat="23.067042" lon="113.2681">
        <time>2026-09-21T22:35:51Z</time>
      </trkpt>
      <trkpt lat="23.066924" lon="113.26804">
        <time>2026-09-21T22:35:56Z</time>
      </trkpt>
      <trkpt lat="23.066781" lon="113.26802">
        <time>2026-09-21T22:36:01Z</time>
      </trkpt>
      <trkpt lat="23.066641" lon="113.268002">
        <time>2026-09-21T22:36:06Z</time>
      </trkpt>
      <trkpt lat="23.066508" lon="113.267954">
        <time>2026-09-21T22:36:11Z</time>
      </trkpt>
      <trkpt lat="23.066375" lon="113.267938">
        <time>2026-09-21T22:36:16Z</time>
      </trkpt>
      <trkpt lat="23.066246" lon="113.267972">
        <time>2026-09-21T22:36:21Z</time>
      </trkpt>
      <trkpt lat="23.066146" lon="113.268068">
        <time>2026-09-21T22:36:26Z</time>
      </trkpt>
      <trkpt lat="23.066054" lon="113.268185">
        <time>2026-09-21T22:36:31Z</time>
      </trkpt>
      <trkpt lat="23.065965" lon="113.268305">
        <time>2026-09-21T22:36:36Z</time>
      </trkpt>
      <trkpt lat="23.065885" lon="113.268429">
        <time>2026-09-21T22:36:41Z</time>
      </trkpt>
      <trkpt lat="23.065815" lon="113.268555">
        <time>2026-09-21T22:36:46Z</time>
      </trkpt>
      <trkpt lat="23.065752" lon="113.268681">
        <time>2026-09-21T22:36:51Z</time>
      </trkpt>
      <trkpt lat="23.065696" lon="113.268812">
        <time>2026-09-21T22:36:56Z</time>
      </trkpt>
      <trkpt lat="23.065647" lon="113.268949">
        <time>2026-09-21T22:37:01Z</time>
      </trkpt>
      <trkpt lat="23.065595" lon="113.269085">
        <time>2026-09-21T22:37:06Z</time>
      </trkpt>
      <trkpt lat="23.065561" lon="113.269218">
        <time>2026-09-21T22:37:11Z</time>
      </trkpt>
      <trkpt lat="23.065522" lon="113.269354">
        <time>2026-09-21T22:37:16Z</time>
      </trkpt>
      <trkpt lat="23.065483" lon="113.269495">
        <time>2026-09-21T22:37:21Z</time>
      </trkpt>
      <trkpt lat="23.06545" lon="113.269635">
        <time>2026-09-21T22:37:26Z</time>
      </trkpt>
      <trkpt lat="23.065413" lon="113.269771">
        <time>2026-09-21T22:37:31Z</time>
      </trkpt>
      <trkpt lat="23.065368" lon="113.269906">
        <time>2026-09-21T22:37:36Z</time>
      </trkpt>
      <trkpt lat="23.065325" lon="113.270045">
        <time>2026-09-21T22:37:41Z</time>
      </trkpt>
      <trkpt lat="23.065275" lon="113.270178">
        <time>2026-09-21T22:37:46Z</time>
      </trkpt>
      <trkpt lat="23.065214" lon="113.270311">
        <time>2026-09-21T22:37:51Z</time>
      </trkpt>
      <trkpt lat="23.065157" lon="113.270442">
        <time>2026-09-21T22:37:56Z</time>
      </trkpt>
      <trkpt lat="23.065097" lon="113.270575">
        <time>2026-09-21T22:38:01Z</time>
      </trkpt>
      <trkpt lat="23.065037" lon="113.270712">
        <time>2026-09-21T22:38:06Z</time>
      </trkpt>
      <trkpt lat="23.064976" lon="113.270844">
        <time>2026-09-21T22:38:11Z</time>
      </trkpt>
      <trkpt lat="23.064918" lon="113.270975">
        <time>2026-09-21T22:38:16Z</time>
      </trkpt>
      <trkpt lat="23.064856" lon="113.271107">
        <time>2026-09-21T22:38:21Z</time>
      </trkpt>
      <trkpt lat="23.064792" lon="113.271236">
        <time>2026-09-21T22:38:26Z</time>
      </trkpt>
      <trkpt lat="23.064735" lon="113.271365">
        <time>2026-09-21T22:38:31Z</time>
      </trkpt>
      <trkpt lat="23.064682" lon="113.2715">
        <time>2026-09-21T22:38:36Z</time>
      </trkpt>
      <trkpt lat="23.064615" lon="113.271629">
        <time>2026-09-21T22:38:41Z</time>
      </trkpt>
      <trkpt lat="23.064545" lon="113.271757">
        <time>2026-09-21T22:38:46Z</time>
      </trkpt>
      <trkpt lat="23.064483" lon="113.271882">
        <time>2026-09-21T22:38:51Z</time>
      </trkpt>
      <trkpt lat="23.064431" lon="113.272013">
        <time>2026-09-21T22:38:56Z</time>
      </trkpt>
      <trkpt lat="23.064369" lon="113.272141">
        <time>2026-09-21T22:39:01Z</time>
      </trkpt>
      <trkpt lat="23.064323" lon="113.272277">
        <time>2026-09-21T22:39:06Z</time>
      </trkpt>
      <trkpt lat="23.064316" lon="113.27242">
        <time>2026-09-21T22:39:11Z</time>
      </trkpt>
      <trkpt lat="23.064314" lon="113.272564">
        <time>2026-09-21T22:39:16Z</time>
      </trkpt>
      <trkpt lat="23.064336" lon="113.272709">
        <time>2026-09-21T22:39:21Z</time>
      </trkpt>
      <trkpt lat="23.06438" lon="113.272839">
        <time>2026-09-21T22:39:26Z</time>
      </trkpt>
      <trkpt lat="23.064421" lon="113.272971">
        <time>2026-09-21T22:39:31Z</time>
      </trkpt>
      <trkpt lat="23.064461" lon="113.273104">
        <time>2026-09-21T22:39:36Z</time>
      </trkpt>
      <trkpt lat="23.064455" lon="113.27324">
        <time>2026-09-21T22:39:41Z</time>
      </trkpt>
      <trkpt lat="23.064387" lon="113.273352">
        <time>2026-09-21T22:39:46Z</time>
      </trkpt>
      <trkpt lat="23.064274" lon="113.273439">
        <time>2026-09-21T22:39:51Z</time>
      </trkpt>
      <trkpt lat="23.064161" lon="113.273518">
        <time>2026-09-21T22:39:56Z</time>
      </trkpt>
      <trkpt lat="23.064047" lon="113.273602">
        <time>2026-09-21T22:40:01Z</time>
      </trkpt>
      <trkpt lat="23.063945" lon="113.273694">
        <time>2026-09-21T22:40:06Z</time>
      </trkpt>
      <trkpt lat="23.063858" lon="113.273807">
        <time>2026-09-21T22:40:11Z</time>
      </trkpt>
      <trkpt lat="23.063786" lon="113.273933">
        <time>2026-09-21T22:40:16Z</time>
      </trkpt>
      <trkpt lat="23.063717" lon="113.27405">
        <time>2026-09-21T22:40:21Z</time>
      </trkpt>
      <trkpt lat="23.063622" lon="113.27413">
        <time>2026-09-21T22:40:26Z</time>
      </trkpt>
      <trkpt lat="23.063534" lon="113.274223">
        <time>2026-09-21T22:40:31Z</time>
      </trkpt>
      <trkpt lat="23.063473" lon="113.274362">
        <time>2026-09-21T22:40:36Z</time>
      </trkpt>
      <trkpt lat="23.063425" lon="113.274501">
        <time>2026-09-21T22:40:41Z</time>
      </trkpt>
      <trkpt lat="23.063387" lon="113.274633">
        <time>2026-09-21T22:40:46Z</time>
      </trkpt>
      <trkpt lat="23.063335" lon="113.274771">
        <time>2026-09-21T22:40:51Z</time>
      </trkpt>
      <trkpt lat="23.063281" lon="113.274914">
        <time>2026-09-21T22:40:56Z</time>
      </trkpt>
      <trkpt lat="23.063225" lon="113.275053">
        <time>2026-09-21T22:41:01Z</time>
      </trkpt>
      <trkpt lat="23.063157" lon="113.27518">
        <time>2026-09-21T22:41:06Z</time>
      </trkpt>
      <trkpt lat="23.063087" lon="113.275301">
        <time>2026-09-21T22:41:11Z</time>
      </trkpt>
      <trkpt lat="23.063018" lon="113.275424">
        <time>2026-09-21T22:41:16Z</time>
      </trkpt>
      <trkpt lat="23.062933" lon="113.275543">
        <time>2026-09-21T22:41:21Z</time>
      </trkpt>
      <trkpt lat="23.062836" lon="113.275646">
        <time>2026-09-21T22:41:26Z</time>
      </trkpt>
      <trkpt lat="23.062737" lon="113.275741">
        <time>2026-09-21T22:41:31Z</time>
      </trkpt>
      <trkpt lat="23.062631" lon="113.275837">
        <time>2026-09-21T22:41:36Z</time>
      </trkpt>
      <trkpt lat="23.062543" lon="113.275949">
        <time>2026-09-21T22:41:41Z</time>
      </trkpt>
      <trkpt lat="23.062474" lon="113.276068">
        <time>2026-09-21T22:41:46Z</time>
      </trkpt>
      <trkpt lat="23.062417" lon="113.276194">
        <time>2026-09-21T22:41:51Z</time>
      </trkpt>
      <trkpt lat="23.062364" lon="113.276323">
        <time>2026-09-21T22:41:56Z</time>
      </trkpt>
      <trkpt lat="23.06232" lon="113.276458">
        <time>2026-09-21T22:42:01Z</time>
      </trkpt>
      <trkpt lat="23.062271" lon="113.276592">
        <time>2026-09-21T22:42:06Z</time>
      </trkpt>
      <trkpt lat="23.06222" lon="113.276726">
        <time>2026-09-21T22:42:11Z</time>
      </trkpt>
      <trkpt lat="23.06217" lon="113.276861">
        <time>2026-09-21T22:42:16Z</time>
      </trkpt>
      <trkpt lat="23.06212" lon="113.276992">
        <time>2026-09-21T22:42:21Z</time>
      </trkpt>
      <trkpt lat="23.062063" lon="113.277129">
        <time>2026-09-21T22:42:26Z</time>
      </trkpt>
      <trkpt lat="23.061998" lon="113.277276">
        <time>2026-09-21T22:42:31Z</time>
      </trkpt>
      <trkpt lat="23.061939" lon="113.277425">
        <time>2026-09-21T22:42:36Z</time>
      </trkpt>
      <trkpt lat="23.061888" lon="113.277571">
        <time>2026-09-21T22:42:41Z</time>
      </trkpt>
      <trkpt lat="23.061844" lon="113.277715">
        <time>2026-09-21T22:42:46Z</time>
      </trkpt>
      <trkpt lat="23.061828" lon="113.277861">
        <time>2026-09-21T22:42:51Z</time>
      </trkpt>
      <trkpt lat="23.061825" lon="113.278005">
        <time>2026-09-21T22:42:56Z</time>
      </trkpt>
      <trkpt lat="23.061828" lon="113.278148">
        <time>2026-09-21T22:43:01Z</time>
      </trkpt>
      <trkpt lat="23.061837" lon="113.278287">
        <time>2026-09-21T22:43:06Z</time>
      </trkpt>
      <trkpt lat="23.061844" lon="113.278421">
        <time>2026-09-21T22:43:11Z</time>
      </trkpt>
      <trkpt lat="23.06185" lon="113.278558">
        <time>2026-09-21T22:43:16Z</time>
      </trkpt>
      <trkpt lat="23.061844" lon="113.278698">
        <time>2026-09-21T22:43:21Z</time>
      </trkpt>
      <trkpt lat="23.061818" lon="113.278841">
        <time>2026-09-21T22:43:26Z</time>
      </trkpt>
      <trkpt lat="23.061746" lon="113.278967">
        <time>2026-09-21T22:43:31Z</time>
      </trkpt>
      <trkpt lat="23.061662" lon="113.279089">
        <time>2026-09-21T22:43:36Z</time>
      </trkpt>
      <trkpt lat="23.061597" lon="113.279219">
        <time>2026-09-21T22:43:41Z</time>
      </trkpt>
      <trkpt lat="23.06155" lon="113.279349">
        <time>2026-09-21T22:43:46Z</time>
      </trkpt>
      <trkpt lat="23.061509" lon="113.279485">
        <time>2026-09-21T22:43:51Z</time>
      </trkpt>
      <trkpt lat="23.061454" lon="113.279631">
        <time>2026-09-21T22:43:56Z</time>
      </trkpt>
      <trkpt lat="23.061393" lon="113.279784">
        <time>2026-09-21T22:44:01Z</time>
      </trkpt>
      <trkpt lat="23.061325" lon="113.279931">
        <time>2026-09-21T22:44:06Z</time>
      </trkpt>
      <trkpt lat="23.061264" lon="113.280069">
        <time>2026-09-21T22:44:11Z</time>
      </trkpt>
      <trkpt lat="23.061204" lon="113.280208">
        <time>2026-09-21T22:44:16Z</time>
      </trkpt>
      <trkpt lat="23.061151" lon="113.280351">
        <time>2026-09-21T22:44:21Z</time>
      </trkpt>
      <trkpt lat="23.061087" lon="113.280495">
        <time>2026-09-21T22:44:26Z</time>
      </trkpt>
      <trkpt lat="23.061026" lon="113.280632">
        <time>2026-09-21T22:44:31Z</time>
      </trkpt>
      <trkpt lat="23.060966" lon="113.28076">
        <time>2026-09-21T22:44:36Z</time>
      </trkpt>
      <trkpt lat="23.060906" lon="113.280892">
        <time>2026-09-21T22:44:41Z</time>
      </trkpt>
      <trkpt lat="23.060849" lon="113.281024">
        <time>2026-09-21T22:44:46Z</time>
      </trkpt>
      <trkpt lat="23.060794" lon="113.281152">
        <time>2026-09-21T22:44:51Z</time>
      </trkpt>
      <trkpt lat="23.060739" lon="113.281275">
        <time>2026-09-21T22:44:56Z</time>
      </trkpt>
      <trkpt lat="23.060685" lon="113.281401">
        <time>2026-09-21T22:45:01Z</time>
      </trkpt>
      <trkpt lat="23.060629" lon="113.281531">
        <time>2026-09-21T22:45:06Z</time>
      </trkpt>
      <trkpt lat="23.060575" lon="113.281663">
        <time>2026-09-21T22:45:11Z</time>
      </trkpt>
      <trkpt lat="23.06052" lon="113.281791">
        <time>2026-09-21T22:45:16Z</time>
      </trkpt>
      <trkpt lat="23.060464" lon="113.281917">
        <time>2026-09-21T22:45:21Z</time>
      </trkpt>
      <trkpt lat="23.060406" lon="113.282045">
        <time>2026-09-21T22:45:26Z</time>
      </trkpt>
      <trkpt lat="23.060349" lon="113.282175">
        <time>2026-09-21T22:45:31Z</time>
      </trkpt>
      <trkpt lat="23.060292" lon="113.282305">
        <time>2026-09-21T22:45:36Z</time>
      </trkpt>
      <trkpt lat="23.060234" lon="113.282435">
        <time>2026-09-21T22:45:41Z</time>
      </trkpt>
      <trkpt lat="23.060173" lon="113.282566">
        <time>2026-09-21T22:45:46Z</time>
      </trkpt>
      <trkpt lat="23.06012" lon="113.282694">
        <time>2026-09-21T22:45:51Z</time>
      </trkpt>
      <trkpt lat="23.060068" lon="113.28282">
        <time>2026-09-21T22:45:56Z</time>
      </trkpt>
      <trkpt lat="23.060018" lon="113.282945">
        <time>2026-09-21T22:46:01Z</time>
      </trkpt>
      <trkpt lat="23.059969" lon="113.283069">
        <time>2026-09-21T22:46:06Z</time>
      </trkpt>
      <trkpt lat="23.059915" lon="113.283198">
        <time>2026-09-21T22:46:11Z</time>
      </trkpt>
      <trkpt lat="23.059859" lon="113.28333">
        <time>2026-09-21T22:46:16Z</time>
      </trkpt>
      <trkpt lat="23.0598" lon="113.283468">
        <time>2026-09-21T22:46:21Z</time>
      </trkpt>
      <trkpt lat="23.059741" lon="113.283605">
        <time>2026-09-21T22:46:26Z</time>
      </trkpt>
      <trkpt lat="23.059686" lon="113.283742">
        <time>2026-09-21T22:46:31Z</time>
      </trkpt>
      <trkpt lat="23.05963" lon="113.283869">
        <time>2026-09-21T22:46:36Z</time>
      </trkpt>
      <trkpt lat="23.059572" lon="113.283995">
        <time>2026-09-21T22:46:41Z</time>
      </trkpt>
      <trkpt lat="23.059513" lon="113.284124">
        <time>2026-09-21T22:46:46Z</time>
      </trkpt>
      <trkpt lat="23.059452" lon="113.284252">
        <time>2026-09-21T22:46:51Z</time>
      </trkpt>
      <trkpt lat="23.059396" lon="113.284383">
        <time>2026-09-21T22:46:56Z</time>
      </trkpt>
      <trkpt lat="23.059342" lon="113.284512">
        <time>2026-09-21T22:47:01Z</time>
      </trkpt>
      <trkpt lat="23.059283" lon="113.284638">
        <time>2026-09-21T22:47:06Z</time>
      </trkpt>
      <trkpt lat="23.059224" lon="113.284764">
        <time>2026-09-21T22:47:11Z</time>
      </trkpt>
      <trkpt lat="23.059166" lon="113.28489">
        <time>2026-09-21T22:47:16Z</time>
      </trkpt>
      <trkpt lat="23.059107" lon="113.285023">
        <time>2026-09-21T22:47:21Z</time>
      </trkpt>
      <trkpt lat="23.059048" lon="113.285153">
        <time>2026-09-21T22:47:26Z</time>
      </trkpt>
      <trkpt lat="23.058996" lon="113.285285">
        <time>2026-09-21T22:47:31Z</time>
      </trkpt>
      <trkpt lat="23.058936" lon="113.28542">
        <time>2026-09-21T22:47:36Z</time>
      </trkpt>
      <trkpt lat="23.058882" lon="113.285551">
        <time>2026-09-21T22:47:41Z</time>
      </trkpt>
      <trkpt lat="23.058826" lon="113.285681">
        <time>2026-09-21T22:47:46Z</time>
      </trkpt>
      <trkpt lat="23.058773" lon="113.285814">
        <time>2026-09-21T22:47:51Z</time>
      </trkpt>
      <trkpt lat="23.058723" lon="113.285941">
        <time>2026-09-21T22:47:56Z</time>
      </trkpt>
      <trkpt lat="23.058686" lon="113.286066">
        <time>2026-09-21T22:48:01Z</time>
      </trkpt>
      <trkpt lat="23.058765" lon="113.286067">
        <time>2026-09-21T22:48:06Z</time>
      </trkpt>
      <trkpt lat="23.058838" lon="113.285944">
        <time>2026-09-21T22:48:11Z</time>
      </trkpt>
      <trkpt lat="23.058885" lon="113.285816">
        <time>2026-09-21T22:48:16Z</time>
      </trkpt>
      <trkpt lat="23.05894" lon="113.28569">
        <time>2026-09-21T22:48:21Z</time>
      </trkpt>
      <trkpt lat="23.058997" lon="113.285562">
        <time>2026-09-21T22:48:26Z</time>
      </trkpt>
      <trkpt lat="23.059055" lon="113.285433">
        <time>2026-09-21T22:48:31Z</time>
      </trkpt>
      <trkpt lat="23.059111" lon="113.285304">
        <time>2026-09-21T22:48:36Z</time>
      </trkpt>
      <trkpt lat="23.05916" lon="113.285177">
        <time>2026-09-21T22:48:41Z</time>
      </trkpt>
      <trkpt lat="23.05921" lon="113.285054">
        <time>2026-09-21T22:48:46Z</time>
      </trkpt>
      <trkpt lat="23.059264" lon="113.284936">
        <time>2026-09-21T22:48:51Z</time>
      </trkpt>
      <trkpt lat="23.059323" lon="113.284815">
        <time>2026-09-21T22:48:56Z</time>
      </trkpt>
      <trkpt lat="23.059378" lon="113.284694">
        <time>2026-09-21T22:49:01Z</time>
      </trkpt>
      <trkpt lat="23.059431" lon="113.284579">
        <time>2026-09-21T22:49:06Z</time>
      </trkpt>
      <trkpt lat="23.059485" lon="113.28446">
        <time>2026-09-21T22:49:11Z</time>
      </trkpt>
      <trkpt lat="23.059536" lon="113.284343">
        <time>2026-09-21T22:49:16Z</time>
      </trkpt>
      <trkpt lat="23.059586" lon="113.284228">
        <time>2026-09-21T22:49:21Z</time>
      </trkpt>
      <trkpt lat="23.059638" lon="113.284105">
        <time>2026-09-21T22:49:26Z</time>
      </trkpt>
      <trkpt lat="23.059688" lon="113.283991">
        <time>2026-09-21T22:49:31Z</time>
      </trkpt>
      <trkpt lat="23.059743" lon="113.283871">
        <time>2026-09-21T22:49:36Z</time>
      </trkpt>
      <trkpt lat="23.059793" lon="113.283744">
        <time>2026-09-21T22:49:41Z</time>
      </trkpt>
      <trkpt lat="23.059851" lon="113.283621">
        <time>2026-09-21T22:49:46Z</time>
      </trkpt>
      <trkpt lat="23.059904" lon="113.283502">
        <time>2026-09-21T22:49:51Z</time>
      </trkpt>
      <trkpt lat="23.059965" lon="113.283391">
        <time>2026-09-21T22:49:56Z</time>
      </trkpt>
      <trkpt lat="23.060022" lon="113.283288">
        <time>2026-09-21T22:50:01Z</time>
      </trkpt>
      <trkpt lat="23.060081" lon="113.283187">
        <time>2026-09-21T22:50:06Z</time>
      </trkpt>
      <trkpt lat="23.060143" lon="113.283068">
        <time>2026-09-21T22:50:11Z</time>
      </trkpt>
      <trkpt lat="23.06019" lon="113.282947">
        <time>2026-09-21T22:50:16Z</time>
      </trkpt>
      <trkpt lat="23.060219" lon="113.282813">
        <time>2026-09-21T22:50:21Z</time>
      </trkpt>
      <trkpt lat="23.060259" lon="113.282675">
        <time>2026-09-21T22:50:26Z</time>
      </trkpt>
      <trkpt lat="23.060314" lon="113.282542">
        <time>2026-09-21T22:50:31Z</time>
      </trkpt>
      <trkpt lat="23.060366" lon="113.282411">
        <time>2026-09-21T22:50:36Z</time>
      </trkpt>
      <trkpt lat="23.060422" lon="113.282297">
        <time>2026-09-21T22:50:41Z</time>
      </trkpt>
      <trkpt lat="23.060471" lon="113.282177">
        <time>2026-09-21T22:50:46Z</time>
      </trkpt>
      <trkpt lat="23.060517" lon="113.28205">
        <time>2026-09-21T22:50:51Z</time>
      </trkpt>
      <trkpt lat="23.060565" lon="113.281925">
        <time>2026-09-21T22:50:56Z</time>
      </trkpt>
      <trkpt lat="23.060615" lon="113.281795">
        <time>2026-09-21T22:51:01Z</time>
      </trkpt>
      <trkpt lat="23.060666" lon="113.281671">
        <time>2026-09-21T22:51:06Z</time>
      </trkpt>
      <trkpt lat="23.06072" lon="113.281552">
        <time>2026-09-21T22:51:11Z</time>
      </trkpt>
      <trkpt lat="23.060777" lon="113.281424">
        <time>2026-09-21T22:51:16Z</time>
      </trkpt>
      <trkpt lat="23.060836" lon="113.281284">
        <time>2026-09-21T22:51:21Z</time>
      </trkpt>
      <trkpt lat="23.060886" lon="113.281151">
        <time>2026-09-21T22:51:26Z</time>
      </trkpt>
      <trkpt lat="23.060935" lon="113.281026">
        <time>2026-09-21T22:51:31Z</time>
      </trkpt>
      <trkpt lat="23.060984" lon="113.280904">
        <time>2026-09-21T22:51:36Z</time>
      </trkpt>
      <trkpt lat="23.061037" lon="113.28077">
        <time>2026-09-21T22:51:41Z</time>
      </trkpt>
      <trkpt lat="23.061101" lon="113.280624">
        <time>2026-09-21T22:51:46Z</time>
      </trkpt>
      <trkpt lat="23.061168" lon="113.280491">
        <time>2026-09-21T22:51:51Z</time>
      </trkpt>
      <trkpt lat="23.061231" lon="113.280369">
        <time>2026-09-21T22:51:56Z</time>
      </trkpt>
      <trkpt lat="23.061299" lon="113.280247">
        <time>2026-09-21T22:52:01Z</time>
      </trkpt>
      <trkpt lat="23.061365" lon="113.28013">
        <time>2026-09-21T22:52:06Z</time>
      </trkpt>
      <trkpt lat="23.061415" lon="113.280014">
        <time>2026-09-21T22:52:11Z</time>
      </trkpt>
      <trkpt lat="23.061454" lon="113.279887">
        <time>2026-09-21T22:52:16Z</time>
      </trkpt>
      <trkpt lat="23.061492" lon="113.279759">
        <time>2026-09-21T22:52:21Z</time>
      </trkpt>
      <trkpt lat="23.061541" lon="113.279629">
        <time>2026-09-21T22:52:26Z</time>
      </trkpt>
      <trkpt lat="23.061592" lon="113.279493">
        <time>2026-09-21T22:52:31Z</time>
      </trkpt>
      <trkpt lat="23.061646" lon="113.27936">
        <time>2026-09-21T22:52:36Z</time>
      </trkpt>
      <trkpt lat="23.061706" lon="113.279226">
        <time>2026-09-21T22:52:41Z</time>
      </trkpt>
      <trkpt lat="23.061775" lon="113.279096">
        <time>2026-09-21T22:52:46Z</time>
      </trkpt>
      <trkpt lat="23.061853" lon="113.278984">
        <time>2026-09-21T22:52:51Z</time>
      </trkpt>
      <trkpt lat="23.061929" lon="113.278871">
        <time>2026-09-21T22:52:56Z</time>
      </trkpt>
      <trkpt lat="23.061973" lon="113.27874">
        <time>2026-09-21T22:53:01Z</time>
      </trkpt>
      <trkpt lat="23.061973" lon="113.278593">
        <time>2026-09-21T22:53:06Z</time>
      </trkpt>
      <trkpt lat="23.061959" lon="113.278442">
        <time>2026-09-21T22:53:11Z</time>
      </trkpt>
      <trkpt lat="23.06195" lon="113.278293">
        <time>2026-09-21T22:53:16Z</time>
      </trkpt>
      <trkpt lat="23.061943" lon="113.278148">
        <time>2026-09-21T22:53:21Z</time>
      </trkpt>
      <trkpt lat="23.061934" lon="113.278003">
        <time>2026-09-21T22:53:26Z</time>
      </trkpt>
      <trkpt lat="23.061935" lon="113.277854">
        <time>2026-09-21T22:53:31Z</time>
      </trkpt>
      <trkpt lat="23.061959" lon="113.27771">
        <time>2026-09-21T22:53:36Z</time>
      </trkpt>
      <trkpt lat="23.062004" lon="113.277576">
        <time>2026-09-21T22:53:41Z</time>
      </trkpt>
      <trkpt lat="23.062062" lon="113.27745">
        <time>2026-09-21T22:53:46Z</time>
      </trkpt>
      <trkpt lat="23.06211" lon="113.277323">
        <time>2026-09-21T22:53:51Z</time>
      </trkpt>
      <trkpt lat="23.062148" lon="113.277176">
        <time>2026-09-21T22:53:56Z</time>
      </trkpt>
      <trkpt lat="23.062201" lon="113.277056">
        <time>2026-09-21T22:54:01Z</time>
      </trkpt>
      <trkpt lat="23.062255" lon="113.276938">
        <time>2026-09-21T22:54:06Z</time>
      </trkpt>
      <trkpt lat="23.062299" lon="113.276816">
        <time>2026-09-21T22:54:11Z</time>
      </trkpt>
      <trkpt lat="23.062344" lon="113.27669">
        <time>2026-09-21T22:54:16Z</time>
      </trkpt>
      <trkpt lat="23.062391" lon="113.276563">
        <time>2026-09-21T22:54:21Z</time>
      </trkpt>
      <trkpt lat="23.062438" lon="113.276432">
        <time>2026-09-21T22:54:26Z</time>
      </trkpt>
      <trkpt lat="23.062489" lon="113.276294">
        <time>2026-09-21T22:54:31Z</time>
      </trkpt>
      <trkpt lat="23.062549" lon="113.276156">
        <time>2026-09-21T22:54:36Z</time>
      </trkpt>
      <trkpt lat="23.062628" lon="113.276036">
        <time>2026-09-21T22:54:41Z</time>
      </trkpt>
      <trkpt lat="23.062714" lon="113.275923">
        <time>2026-09-21T22:54:46Z</time>
      </trkpt>
      <trkpt lat="23.062805" lon="113.275818">
        <time>2026-09-21T22:54:51Z</time>
      </trkpt>
      <trkpt lat="23.062905" lon="113.27571">
        <time>2026-09-21T22:54:56Z</time>
      </trkpt>
      <trkpt lat="23.063001" lon="113.275619">
        <time>2026-09-21T22:55:01Z</time>
      </trkpt>
      <trkpt lat="23.063075" lon="113.275525">
        <time>2026-09-21T22:55:06Z</time>
      </trkpt>
      <trkpt lat="23.063134" lon="113.275428">
        <time>2026-09-21T22:55:11Z</time>
      </trkpt>
      <trkpt lat="23.063191" lon="113.275325">
        <time>2026-09-21T22:55:16Z</time>
      </trkpt>
      <trkpt lat="23.063253" lon="113.275225">
        <time>2026-09-21T22:55:21Z</time>
      </trkpt>
      <trkpt lat="23.06332" lon="113.275135">
        <time>2026-09-21T22:55:26Z</time>
      </trkpt>
      <trkpt lat="23.063367" lon="113.275029">
        <time>2026-09-21T22:55:31Z</time>
      </trkpt>
      <trkpt lat="23.063396" lon="113.274923">
        <time>2026-09-21T22:55:36Z</time>
      </trkpt>
      <trkpt lat="23.063427" lon="113.27481">
        <time>2026-09-21T22:55:41Z</time>
      </trkpt>
      <trkpt lat="23.063457" lon="113.274698">
        <time>2026-09-21T22:55:46Z</time>
      </trkpt>
      <trkpt lat="23.063484" lon="113.274593">
        <time>2026-09-21T22:55:51Z</time>
      </trkpt>
      <trkpt lat="23.063523" lon="113.274483">
        <time>2026-09-21T22:55:56Z</time>
      </trkpt>
      <trkpt lat="23.063575" lon="113.274376">
        <time>2026-09-21T22:56:01Z</time>
      </trkpt>
      <trkpt lat="23.063661" lon="113.274292">
        <time>2026-09-21T22:56:06Z</time>
      </trkpt>
      <trkpt lat="23.063763" lon="113.274208">
        <time>2026-09-21T22:56:11Z</time>
      </trkpt>
      <trkpt lat="23.063858" lon="113.274104">
        <time>2026-09-21T22:56:16Z</time>
      </trkpt>
      <trkpt lat="23.063918" lon="113.273978">
        <time>2026-09-21T22:56:21Z</time>
      </trkpt>
      <trkpt lat="23.063976" lon="113.273853">
        <time>2026-09-21T22:56:26Z</time>
      </trkpt>
      <trkpt lat="23.06405" lon="113.273735">
        <time>2026-09-21T22:56:31Z</time>
      </trkpt>
      <trkpt lat="23.064146" lon="113.273646">
        <time>2026-09-21T22:56:36Z</time>
      </trkpt>
      <trkpt lat="23.064253" lon="113.273573">
        <time>2026-09-21T22:56:41Z</time>
      </trkpt>
      <trkpt lat="23.064354" lon="113.273498">
        <time>2026-09-21T22:56:46Z</time>
      </trkpt>
      <trkpt lat="23.064444" lon="113.273417">
        <time>2026-09-21T22:56:51Z</time>
      </trkpt>
      <trkpt lat="23.064527" lon="113.273323">
        <time>2026-09-21T22:56:56Z</time>
      </trkpt>
      <trkpt lat="23.064579" lon="113.273198">
        <time>2026-09-21T22:57:01Z</time>
      </trkpt>
      <trkpt lat="23.064567" lon="113.273057">
        <time>2026-09-21T22:57:06Z</time>
      </trkpt>
      <trkpt lat="23.064517" lon="113.272921">
        <time>2026-09-21T22:57:11Z</time>
      </trkpt>
      <trkpt lat="23.064469" lon="113.272783">
        <time>2026-09-21T22:57:16Z</time>
      </trkpt>
      <trkpt lat="23.064431" lon="113.272642">
        <time>2026-09-21T22:57:21Z</time>
      </trkpt>
      <trkpt lat="23.064443" lon="113.272505">
        <time>2026-09-21T22:57:26Z</time>
      </trkpt>
      <trkpt lat="23.064498" lon="113.272363">
        <time>2026-09-21T22:57:31Z</time>
      </trkpt>
      <trkpt lat="23.064548" lon="113.272222">
        <time>2026-09-21T22:57:36Z</time>
      </trkpt>
      <trkpt lat="23.0646" lon="113.272096">
        <time>2026-09-21T22:57:41Z</time>
      </trkpt>
      <trkpt lat="23.064654" lon="113.271977">
        <time>2026-09-21T22:57:46Z</time>
      </trkpt>
      <trkpt lat="23.064702" lon="113.271861">
        <time>2026-09-21T22:57:51Z</time>
      </trkpt>
      <trkpt lat="23.064755" lon="113.271745">
        <time>2026-09-21T22:57:56Z</time>
      </trkpt>
      <trkpt lat="23.064813" lon="113.271629">
        <time>2026-09-21T22:58:01Z</time>
      </trkpt>
      <trkpt lat="23.064877" lon="113.271513">
        <time>2026-09-21T22:58:06Z</time>
      </trkpt>
      <trkpt lat="23.064933" lon="113.271397">
        <time>2026-09-21T22:58:11Z</time>
      </trkpt>
      <trkpt lat="23.06498" lon="113.271285">
        <time>2026-09-21T22:58:16Z</time>
      </trkpt>
      <trkpt lat="23.065033" lon="113.271169">
        <time>2026-09-21T22:58:21Z</time>
      </trkpt>
      <trkpt lat="23.065089" lon="113.27105">
        <time>2026-09-21T22:58:26Z</time>
      </trkpt>
      <trkpt lat="23.065155" lon="113.270946">
        <time>2026-09-21T22:58:31Z</time>
      </trkpt>
      <trkpt lat="23.065203" lon="113.270821">
        <time>2026-09-21T22:58:36Z</time>
      </trkpt>
      <trkpt lat="23.065253" lon="113.270701">
        <time>2026-09-21T22:58:41Z</time>
      </trkpt>
      <trkpt lat="23.065307" lon="113.270582">
        <time>2026-09-21T22:58:46Z</time>
      </trkpt>
      <trkpt lat="23.065366" lon="113.270468">
        <time>2026-09-21T22:58:51Z</time>
      </trkpt>
      <trkpt lat="23.06542" lon="113.270357">
        <time>2026-09-21T22:58:56Z</time>
      </trkpt>
      <trkpt lat="23.065471" lon="113.270241">
        <time>2026-09-21T22:59:01Z</time>
      </trkpt>
      <trkpt lat="23.065515" lon="113.270118">
        <time>2026-09-21T22:59:06Z</time>
      </trkpt>
      <trkpt lat="23.065554" lon="113.270005">
        <time>2026-09-21T22:59:11Z</time>
      </trkpt>
      <trkpt lat="23.065592" lon="113.269888">
        <time>2026-09-21T22:59:16Z</time>
      </trkpt>
      <trkpt lat="23.06563" lon="113.269767">
        <time>2026-09-21T22:59:21Z</time>
      </trkpt>
      <trkpt lat="23.06567" lon="113.269643">
        <time>2026-09-21T22:59:26Z</time>
      </trkpt>
      <trkpt lat="23.065701" lon="113.269508">
        <time>2026-09-21T22:59:31Z</time>
      </trkpt>
      <trkpt lat="23.065735" lon="113.269379">
        <time>2026-09-21T22:59:36Z</time>
      </trkpt>
      <trkpt lat="23.065775" lon="113.269253">
        <time>2026-09-21T22:59:41Z</time>
      </trkpt>
      <trkpt lat="23.065811" lon="113.269126">
        <time>2026-09-21T22:59:46Z</time>
      </trkpt>
      <trkpt lat="23.065847" lon="113.269008">
        <time>2026-09-21T22:59:51Z</time>
      </trkpt>
      <trkpt lat="23.065897" lon="113.268891">
        <time>2026-09-21T22:59:56Z</time>
      </trkpt>
      <trkpt lat="23.065946" lon="113.268775">
        <time>2026-09-21T23:00:01Z</time>
      </trkpt>
      <trkpt lat="23.066006" lon="113.268662">
        <time>2026-09-21T23:00:06Z</time>
      </trkpt>
      <trkpt lat="23.066073" lon="113.268547">
        <time>2026-09-21T23:00:11Z</time>
      </trkpt>
      <trkpt lat="23.066145" lon="113.268435">
        <time>2026-09-21T23:00:16Z</time>
      </trkpt>
      <trkpt lat="23.066217" lon="113.26833">
        <time>2026-09-21T23:00:21Z</time>
      </trkpt>
      <trkpt lat="23.066302" lon="113.268225">
        <time>2026-09-21T23:00:26Z</time>
      </trkpt>
      <trkpt lat="23.066403" lon="113.268149">
        <time>2026-09-21T23:00:31Z</time>
      </trkpt>
      <trkpt lat="23.066519" lon="113.268121">
        <time>2026-09-21T23:00:36Z</time>
      </trkpt>
      <trkpt lat="23.066646" lon="113.26814">
        <time>2026-09-21T23:00:41Z</time>
      </trkpt>
      <trkpt lat="23.066771" lon="113.268159">
        <time>2026-09-21T23:00:46Z</time>
      </trkpt>
      <trkpt lat="23.066899" lon="113.268149">
        <time>2026-09-21T23:00:51Z</time>
      </trkpt>
      <trkpt lat="23.067018" lon="113.268168">
        <time>2026-09-21T23:00:56Z</time>
      </trkpt>
      <trkpt lat="23.067117" lon="113.268229">
        <time>2026-09-21T23:01:01Z</time>
      </trkpt>
      <trkpt lat="23.067226" lon="113.268298">
        <time>2026-09-21T23:01:06Z</time>
      </trkpt>
      <trkpt lat="23.067325" lon="113.268364">
        <time>2026-09-21T23:01:11Z</time>
      </trkpt>
      <trkpt lat="23.067412" lon="113.268421">
        <time>2026-09-21T23:01:16Z</time>
      </trkpt>
      <trkpt lat="23.0675" lon="113.268472">
        <time>2026-09-21T23:01:21Z</time>
      </trkpt>
      <trkpt lat="23.067617" lon="113.26853">
        <time>2026-09-21T23:01:26Z</time>
      </trkpt>
      <trkpt lat="23.067751" lon="113.26859">
        <time>2026-09-21T23:01:31Z</time>
      </trkpt>
      <trkpt lat="23.067875" lon="113.268646">
        <time>2026-09-21T23:01:36Z</time>
      </trkpt>
      <trkpt lat="23.067982" lon="113.268718">
        <time>2026-09-21T23:01:41Z</time>
      </trkpt>
      <trkpt lat="23.068068" lon="113.268786">
        <time>2026-09-21T23:01:46Z</time>
      </trkpt>
      <trkpt lat="23.068158" lon="113.268805">
        <time>2026-09-21T23:01:51Z</time>
      </trkpt>
      <trkpt lat="23.068251" lon="113.268833">
        <time>2026-09-21T23:01:56Z</time>
      </trkpt>
      <trkpt lat="23.068365" lon="113.268889">
        <time>2026-09-21T23:02:01Z</time>
      </trkpt>
      <trkpt lat="23.068482" lon="113.268954">
        <time>2026-09-21T23:02:06Z</time>
      </trkpt>
      <trkpt lat="23.068601" lon="113.269009">
        <time>2026-09-21T23:02:11Z</time>
      </trkpt>
      <trkpt lat="23.068721" lon="113.269076">
        <time>2026-09-21T23:02:16Z</time>
      </trkpt>
      <trkpt lat="23.068844" lon="113.269126">
        <time>2026-09-21T23:02:21Z</time>
      </trkpt>
      <trkpt lat="23.068961" lon="113.269157">
        <time>2026-09-21T23:02:26Z</time>
      </trkpt>
      <trkpt lat="23.069062" lon="113.269194">
        <time>2026-09-21T23:02:31Z</time>
      </trkpt>
      <trkpt lat="23.069177" lon="113.269248">
        <time>2026-09-21T23:02:36Z</time>
      </trkpt>
      <trkpt lat="23.069285" lon="113.269311">
        <time>2026-09-21T23:02:41Z</time>
      </trkpt>
      <trkpt lat="23.069407" lon="113.269355">
        <time>2026-09-21T23:02:46Z</time>
      </trkpt>
      <trkpt lat="23.069513" lon="113.269414">
        <time>2026-09-21T23:02:51Z</time>
      </trkpt>
      <trkpt lat="23.06962" lon="113.269486">
        <time>2026-09-21T23:02:56Z</time>
      </trkpt>
      <trkpt lat="23.069734" lon="113.269551">
        <time>2026-09-21T23:03:01Z</time>
      </trkpt>
      <trkpt lat="23.069845" lon="113.269618">
        <time>2026-09-21T23:03:06Z</time>
      </trkpt>
      <trkpt lat="23.069952" lon="113.269695">
        <time>2026-09-21T23:03:11Z</time>
      </trkpt>
      <trkpt lat="23.070057" lon="113.269775">
        <time>2026-09-21T23:03:16Z</time>
      </trkpt>
      <trkpt lat="23.070174" lon="113.269842">
        <time>2026-09-21T23:03:21Z</time>
      </trkpt>
      <trkpt lat="23.070298" lon="113.269895">
        <time>2026-09-21T23:03:26Z</time>
      </trkpt>
      <trkpt lat="23.070423" lon="113.269941">
        <time>2026-09-21T23:03:31Z</time>
      </trkpt>
      <trkpt lat="23.070562" lon="113.269972">
        <time>2026-09-21T23:03:36Z</time>
      </trkpt>
      <trkpt lat="23.070671" lon="113.270007">
        <time>2026-09-21T23:03:41Z</time>
      </trkpt>
      <trkpt lat="23.070759" lon="113.270067">
        <time>2026-09-21T23:03:46Z</time>
      </trkpt>
      <trkpt lat="23.070848" lon="113.270117">
        <time>2026-09-21T23:03:51Z</time>
      </trkpt>
      <trkpt lat="23.070938" lon="113.270158">
        <time>2026-09-21T23:03:56Z</time>
      </trkpt>
      <trkpt lat="23.071042" lon="113.270191">
        <time>2026-09-21T23:04:01Z</time>
      </trkpt>
      <trkpt lat="23.071148" lon="113.270244">
        <time>2026-09-21T23:04:06Z</time>
      </trkpt>
      <trkpt lat="23.071262" lon="113.270299">
        <time>2026-09-21T23:04:11Z</time>
      </trkpt>
      <trkpt lat="23.071372" lon="113.270324">
        <time>2026-09-21T23:04:16Z</time>
      </trkpt>
      <trkpt lat="23.071474" lon="113.270352">
        <time>2026-09-21T23:04:21Z</time>
      </trkpt>
      <trkpt lat="23.071584" lon="113.27041">
        <time>2026-09-21T23:04:26Z</time>
      </trkpt>
      <trkpt lat="23.071689" lon="113.270479">
        <time>2026-09-21T23:04:31Z</time>
      </trkpt>
      <trkpt lat="23.071798" lon="113.270555">
        <time>2026-09-21T23:04:36Z</time>
      </trkpt>
      <trkpt lat="23.071913" lon="113.270623">
        <time>2026-09-21T23:04:41Z</time>
      </trkpt>
      <trkpt lat="23.072037" lon="113.270675">
        <time>2026-09-21T23:04:46Z</time>
      </trkpt>
      <trkpt lat="23.072145" lon="113.270724">
        <time>2026-09-21T23:04:51Z</time>
      </trkpt>
      <trkpt lat="23.072254" lon="113.270781">
        <time>2026-09-21T23:04:56Z</time>
      </trkpt>
      <trkpt lat="23.072356" lon="113.270849">
        <time>2026-09-21T23:05:01Z</time>
      </trkpt>
      <trkpt lat="23.072449" lon="113.270919">
        <time>2026-09-21T23:05:06Z</time>
      </trkpt>
      <trkpt lat="23.072549" lon="113.270996">
        <time>2026-09-21T23:05:11Z</time>
      </trkpt>
      <trkpt lat="23.072661" lon="113.271056">
        <time>2026-09-21T23:05:16Z</time>
      </trkpt>
      <trkpt lat="23.072773" lon="113.271095">
        <time>2026-09-21T23:05:21Z</time>
      </trkpt>
      <trkpt lat="23.072868" lon="113.271148">
        <time>2026-09-21T23:05:26Z</time>
      </trkpt>
      <trkpt lat="23.072968" lon="113.271199">
        <time>2026-09-21T23:05:31Z</time>
      </trkpt>
      <trkpt lat="23.073118" lon="113.271221">
        <time>2026-09-21T23:05:36Z</time>
      </trkpt>
      <trkpt lat="23.073214" lon="113.271281">
        <time>2026-09-21T23:05:41Z</time>
      </trkpt>
      <trkpt lat="23.073303" lon="113.27134">
        <time>2026-09-21T23:05:46Z</time>
      </trkpt>
      <trkpt lat="23.073436" lon="113.271412">
        <time>2026-09-21T23:05:51Z</time>
      </trkpt>
      <trkpt lat="23.073562" lon="113.271482">
        <time>2026-09-21T23:05:56Z</time>
      </trkpt>
      <trkpt lat="23.073683" lon="113.271568">
        <time>2026-09-21T23:06:01Z</time>
      </trkpt>
      <trkpt lat="23.073797" lon="113.271634">
        <time>2026-09-21T23:06:06Z</time>
      </trkpt>
      <trkpt lat="23.073895" lon="113.271683">
        <time>2026-09-21T23:06:11Z</time>
      </trkpt>
      <trkpt lat="23.074001" lon="113.271734">
        <time>2026-09-21T23:06:16Z</time>
      </trkpt>
      <trkpt lat="23.074094" lon="113.271784">
        <time>2026-09-21T23:06:21Z</time>
      </trkpt>
      <trkpt lat="23.074069" lon="113.27187">
        <time>2026-09-21T23:06:26Z</time>
      </trkpt>
      <trkpt lat="23.074008" lon="113.271976">
        <time>2026-09-21T23:06:31Z</time>
      </trkpt>
      <trkpt lat="23.073954" lon="113.272089">
        <time>2026-09-21T23:06:36Z</time>
      </trkpt>
      <trkpt lat="23.073901" lon="113.272203">
        <time>2026-09-21T23:06:41Z</time>
      </trkpt>
      <trkpt lat="23.073848" lon="113.272315">
        <time>2026-09-21T23:06:46Z</time>
      </trkpt>
      <trkpt lat="23.073801" lon="113.272425">
        <time>2026-09-21T23:06:51Z</time>
      </trkpt>
      <trkpt lat="23.073763" lon="113.272535">
        <time>2026-09-21T23:06:56Z</time>
      </trkpt>
      <trkpt lat="23.073722" lon="113.272654">
        <time>2026-09-21T23:07:01Z</time>
      </trkpt>
      <trkpt lat="23.073684" lon="113.27278">
        <time>2026-09-21T23:07:06Z</time>
      </trkpt>
      <trkpt lat="23.07363" lon="113.272894">
        <time>2026-09-21T23:07:11Z</time>
      </trkpt>
      <trkpt lat="23.073576" lon="113.273004">
        <time>2026-09-21T23:07:16Z</time>
      </trkpt>
      <trkpt lat="23.07352" lon="113.273128">
        <time>2026-09-21T23:07:21Z</time>
      </trkpt>
      <trkpt lat="23.073476" lon="113.273218">
        <time>2026-09-21T23:07:26Z</time>
      </trkpt>
      <trkpt lat="23.073492" lon="113.273141">
        <time>2026-09-21T23:07:31Z</time>
      </trkpt>
      <trkpt lat="23.073568" lon="113.273034">
        <time>2026-09-21T23:07:36Z</time>
      </trkpt>
      <trkpt lat="23.073682" lon="113.272967">
        <time>2026-09-21T23:07:41Z</time>
      </trkpt>
      <trkpt lat="23.0738" lon="113.272951">
        <time>2026-09-21T23:07:46Z</time>
      </trkpt>
      <trkpt lat="23.073918" lon="113.272981">
        <time>2026-09-21T23:07:51Z</time>
      </trkpt>
      <trkpt lat="23.074022" lon="113.272981">
        <time>2026-09-21T23:07:56Z</time>
      </trkpt>
      <trkpt lat="23.074074" lon="113.272877">
        <time>2026-09-21T23:08:01Z</time>
      </trkpt>
      <trkpt lat="23.074104" lon="113.272746">
        <time>2026-09-21T23:08:06Z</time>
      </trkpt>
      <trkpt lat="23.074142" lon="113.27264">
        <time>2026-09-21T23:08:11Z</time>
      </trkpt>
      <trkpt lat="23.074198" lon="113.272545">
        <time>2026-09-21T23:08:16Z</time>
      </trkpt>
      <trkpt lat="23.074251" lon="113.272414">
        <time>2026-09-21T23:08:21Z</time>
      </trkpt>
      <trkpt lat="23.074294" lon="113.2723">
        <time>2026-09-21T23:08:26Z</time>
      </trkpt>
      <trkpt lat="23.074318" lon="113.272197">
        <time>2026-09-21T23:08:31Z</time>
      </trkpt>
      <trkpt lat="23.07438" lon="113.272104">
        <time>2026-09-21T23:08:36Z</time>
      </trkpt>
      <trkpt lat="23.074469" lon="113.272031">
        <time>2026-09-21T23:08:41Z</time>
      </trkpt>
      <trkpt lat="23.074542" lon="113.272001">
        <time>2026-09-21T23:08:46Z</time>
      </trkpt>
      <trkpt lat="23.074649" lon="113.272062">
        <time>2026-09-21T23:08:51Z</time>
      </trkpt>
      <trkpt lat="23.074749" lon="113.272124">
        <time>2026-09-21T23:08:56Z</time>
      </trkpt>
      <trkpt lat="23.074852" lon="113.27216">
        <time>2026-09-21T23:09:01Z</time>
      </trkpt>
      <trkpt lat="23.074954" lon="113.272204">
        <time>2026-09-21T23:09:06Z</time>
      </trkpt>
      <trkpt lat="23.075059" lon="113.272278">
        <time>2026-09-21T23:09:11Z</time>
      </trkpt>
      <trkpt lat="23.075164" lon="113.272358">
        <time>2026-09-21T23:09:16Z</time>
      </trkpt>
      <trkpt lat="23.075232" lon="113.272455">
        <time>2026-09-21T23:09:21Z</time>
      </trkpt>
      <trkpt lat="23.075262" lon="113.272572">
        <time>2026-09-21T23:09:26Z</time>
      </trkpt>
      <trkpt lat="23.075281" lon="113.272725">
        <time>2026-09-21T23:09:31Z</time>
      </trkpt>
      <trkpt lat="23.075326" lon="113.272842">
        <time>2026-09-21T23:09:36Z</time>
      </trkpt>
      <trkpt lat="23.075363" lon="113.272946">
        <time>2026-09-21T23:09:41Z</time>
      </trkpt>
      <trkpt lat="23.075427" lon="113.273059">
        <time>2026-09-21T23:09:46Z</time>
      </trkpt>
      <trkpt lat="23.075504" lon="113.273169">
        <time>2026-09-21T23:09:51Z</time>
      </trkpt>
      <trkpt lat="23.075569" lon="113.273284">
        <time>2026-09-21T23:09:56Z</time>
      </trkpt>
      <trkpt lat="23.075613" lon="113.273405">
        <time>2026-09-21T23:10:01Z</time>
      </trkpt>
      <trkpt lat="23.075708" lon="113.273425">
        <time>2026-09-21T23:10:06Z</time>
      </trkpt>
      <trkpt lat="23.07579" lon="113.273358">
        <time>2026-09-21T23:10:11Z</time>
      </trkpt>
      <trkpt lat="23.075853" lon="113.273211">
        <time>2026-09-21T23:10:16Z</time>
      </trkpt>
      <trkpt lat="23.075891" lon="113.273061">
        <time>2026-09-21T23:10:23Z</time>
      </trkpt>
    </trkseg>
  </trk>
</gpx>