<?xml version="1.0" encoding="UTF-8"?>
<gpx xmlns="http://www.topografix.com/GPX/1/1" xmlns:gpxtpx="http://www.garmin.com/xmlschemas/TrackPointExtension/v1" xmlns:xsi="http://www.w3.org/2001/XMLSchema-instance" xsi:schemaLocation="http://www.topografix.com/GPX/1/1 http://www.topografix.com/GPX/1/1/gpx.xsd" version="1.1" creator="gpx.py -- https://github.com/tkrajina/gpxpy">
  <trk>
    <name>gpx from joyrun</name>
    <trkseg>
      <trkpt lat="23.075879" lon="113.272999">
        <time>2026-09-26T23:36:21Z</time>
      </trkpt>
      <trkpt lat="23.07587" lon="113.272895">
        <time>2026-09-26T23:36:26Z</time>
      </trkpt>
      <trkpt lat="23.075824" lon="113.272775">
        <time>2026-09-26T23:36:31Z</time>
      </trkpt>
      <trkpt lat="23.075723" lon="113.272712">
        <time>2026-09-26T23:36:36Z</time>
      </trkpt>
      <trkpt lat="23.07562" lon="113.27261">
        <time>2026-09-26T23:36:41Z</time>
      </trkpt>
      <trkpt lat="23.075517" lon="113.272509">
        <time>2026-09-26T23:36:46Z</time>
      </trkpt>
      <trkpt lat="23.075398" lon="113.272426">
        <time>2026-09-26T23:36:51Z</time>
      </trkpt>
      <trkpt lat="23.075266" lon="113.27238">
        <time>2026-09-26T23:36:56Z</time>
      </trkpt>
      <trkpt lat="23.075156" lon="113.272326">
        <time>2026-09-26T23:37:01Z</time>
      </trkpt>
      <trkpt lat="23.07507" lon="113.272283">
        <time>2026-09-26T23:37:06Z</time>
      </trkpt>
      <trkpt lat="23.074964" lon="113.272239">
        <time>2026-09-26T23:37:11Z</time>
      </trkpt>
      <trkpt lat="23.074849" lon="113.272148">
        <time>2026-09-26T23:37:16Z</time>
      </trkpt>
      <trkpt lat="23.074722" lon="113.272054">
        <time>2026-09-26T23:37:21Z</time>
      </trkpt>
      <trkpt lat="23.074604" lon="113.271971">
        <time>2026-09-26T23:37:26Z</time>
      </trkpt>
      <trkpt lat="23.074488" lon="113.271916">
        <time>2026-09-26T23:37:31Z</time>
      </trkpt>
      <trkpt lat="23.074381" lon="113.271996">
        <time>2026-09-26T23:37:36Z</time>
      </trkpt>
      <trkpt lat="23.074338" lon="113.272146">
        <time>2026-09-26T23:37:41Z</time>
      </trkpt>
      <trkpt lat="23.074295" lon="113.272287">
        <time>2026-09-26T23:37:46Z</time>
      </trkpt>
      <trkpt lat="23.074232" lon="113.272415">
        <time>2026-09-26T23:37:51Z</time>
      </trkpt>
      <trkpt lat="23.074177" lon="113.272539">
        <time>2026-09-26T23:37:56Z</time>
      </trkpt>
      <trkpt lat="23.074127" lon="113.272653">
        <time>2026-09-26T23:38:01Z</time>
      </trkpt>
      <trkpt lat="23.074083" lon="113.272765">
        <time>2026-09-26T23:38:06Z</time>
      </trkpt>
      <trkpt lat="23.074039" lon="113.272875">
        <time>2026-09-26T23:38:11Z</time>
      </trkpt>
      <trkpt lat="23.073995" lon="113.272997">
        <time>2026-09-26T23:38:16Z</time>
      </trkpt>
      <trkpt lat="23.073942" lon="113.273119">
        <time>2026-09-26T23:38:21Z</time>
      </trkpt>
      <trkpt lat="23.073888" lon="113.273246">
        <time>2026-09-26T23:38:26Z</time>
      </trkpt>
      <trkpt lat="23.073831" lon="113.273358">
        <time>2026-09-26T23:38:31Z</time>
      </trkpt>
      <trkpt lat="23.073819" lon="113.273316">
        <time>2026-09-26T23:38:36Z</time>
      </trkpt>
      <trkpt lat="23.073856" lon="113.273227">
        <time>2026-09-26T23:38:41Z</time>
      </trkpt>
      <trkpt lat="23.073914" lon="113.273144">
        <time>2026-09-26T23:38:46Z</time>
      </trkpt>
      <trkpt lat="23.07397" lon="113.273056">
        <time>2026-09-26T23:38:51Z</time>
      </trkpt>
      <trkpt lat="23.074003" lon="113.272969">
        <time>2026-09-26T23:38:56Z</time>
      </trkpt>
      <trkpt lat="23.074024" lon="113.272887">
        <time>2026-09-26T23:39:01Z</time>
      </trkpt>
      <trkpt lat="23.073991" lon="113.272924">
        <time>2026-09-26T23:39:06Z</time>
      </trkpt>
      <trkpt lat="23.073957" lon="113.27301">
        <time>2026-09-26T23:39:11Z</time>
      </trkpt>
      <trkpt lat="23.073924" lon="113.273025">
        <time>2026-09-26T23:39:16Z</time>
      </trkpt>
      <trkpt lat="23.073874" lon="113.272987">
        <time>2026-09-26T23:39:21Z</time>
      </trkpt>
      <trkpt lat="23.073768" lon="113.272923">
        <time>2026-09-26T23:39:26Z</time>
      </trkpt>
      <trkpt lat="23.073675" lon="113.272864">
        <time>2026-09-26T23:39:31Z</time>
      </trkpt>
      <trkpt lat="23.073687" lon="113.272766">
        <time>2026-09-26T23:39:36Z</time>
      </trkpt>
      <trkpt lat="23.07373" lon="113.272658">
        <time>2026-09-26T23:39:41Z</time>
      </trkpt>
      <trkpt lat="23.07377" lon="113.272557">
        <time>2026-09-26T23:39:46Z</time>
      </trkpt>
      <trkpt lat="23.073808" lon="113.272453">
        <time>2026-09-26T23:39:51Z</time>
      </trkpt>
      <trkpt lat="23.073853" lon="113.27235">
        <time>2026-09-26T23:39:56Z</time>
      </trkpt>
      <trkpt lat="23.073895" lon="113.272245">
        <time>2026-09-26T23:40:01Z</time>
      </trkpt>
      <trkpt lat="23.073938" lon="113.272138">
        <time>2026-09-26T23:40:06Z</time>
      </trkpt>
      <trkpt lat="23.073975" lon="113.272033">
        <time>2026-09-26T23:40:11Z</time>
      </trkpt>
      <trkpt lat="23.074013" lon="113.271933">
        <time>2026-09-26T23:40:16Z</time>
      </trkpt>
      <trkpt lat="23.074053" lon="113.271835">
        <time>2026-09-26T23:40:21Z</time>
      </trkpt>
      <trkpt lat="23.074047" lon="113.271747">
        <time>2026-09-26T23:40:26Z</time>
      </trkpt>
      <trkpt lat="23.073971" lon="113.271674">
        <time>2026-09-26T23:40:31Z</time>
      </trkpt>
      <trkpt lat="23.073895" lon="113.271611">
        <time>2026-09-26T23:40:36Z</time>
      </trkpt>
      <trkpt lat="23.073814" lon="113.27157">
        <time>2026-09-26T23:40:41Z</time>
      </trkpt>
      <trkpt lat="23.073733" lon="113.271512">
        <time>2026-09-26T23:40:46Z</time>
      </trkpt>
      <trkpt lat="23.073628" lon="113.271465">
        <time>2026-09-26T23:40:51Z</time>
      </trkpt>
      <trkpt lat="23.073517" lon="113.271419">
        <time>2026-09-26T23:40:56Z</time>
      </trkpt>
      <trkpt lat="23.073412" lon="113.271369">
        <time>2026-09-26T23:41:01Z</time>
      </trkpt>
      <trkpt lat="23.073314" lon="113.271322">
        <time>2026-09-26T23:41:06Z</time>
      </trkpt>
      <trkpt lat="23.073227" lon="113.27124">
        <time>2026-09-26T23:41:11Z</time>
      </trkpt>
      <trkpt lat="23.073132" lon="113.271168">
        <time>2026-09-26T23:41:16Z</time>
      </trkpt>
      <trkpt lat="23.073028" lon="113.271121">
        <time>2026-09-26T23:41:21Z</time>
      </trkpt>
      <trkpt lat="23.07292" lon="113.27106">
        <time>2026-09-26T23:41:26Z</time>
      </trkpt>
      <trkpt lat="23.072822" lon="113.270985">
        <time>2026-09-26T23:41:31Z</time>
      </trkpt>
      <trkpt lat="23.072708" lon="113.270919">
        <time>2026-09-26T23:41:36Z</time>
      </trkpt>
      <trkpt lat="23.072592" lon="113.270882">
        <time>2026-09-26T23:41:41Z</time>
      </trkpt>
      <trkpt lat="23.072482" lon="113.270856">
        <time>2026-09-26T23:41:46Z</time>
      </trkpt>
      <trkpt lat="23.072365" lon="113.270822">
        <time>2026-09-26T23:41:51Z</time>
      </trkpt>
      <trkpt lat="23.072265" lon="113.27076">
        <time>2026-09-26T23:41:56Z</time>
      </trkpt>
      <trkpt lat="23.07216" lon="113.270708">
        <time>2026-09-26T23:42:01Z</time>
      </trkpt>
      <trkpt lat="23.072067" lon="113.270649">
        <time>2026-09-26T23:42:06Z</time>
      </trkpt>
      <trkpt lat="23.071981" lon="113.270564">
        <time>2026-09-26T23:42:11Z</time>
      </trkpt>
      <trkpt lat="23.071892" lon="113.270506">
        <time>2026-09-26T23:42:16Z</time>
      </trkpt>
      <trkpt lat="23.071791" lon="113.270467">
        <time>2026-09-26T23:42:21Z</time>
      </trkpt>
      <trkpt lat="23.071696" lon="113.270407">
        <time>2026-09-26T23:42:26Z</time>
      </trkpt>
      <trkpt lat="23.071596" lon="113.270355">
        <time>2026-09-26T23:42:31Z</time>
      </trkpt>
      <trkpt lat="23.071481" lon="113.270289">
        <time>2026-09-26T23:42:36Z</time>
      </trkpt>
      <trkpt lat="23.071369" lon="113.270248">
        <time>2026-09-26T23:42:41Z</time>
      </trkpt>
      <trkpt lat="23.071255" lon="113.270217">
        <time>2026-09-26T23:42:46Z</time>
      </trkpt>
      <trkpt lat="23.071152" lon="113.270178">
        <time>2026-09-26T23:42:51Z</time>
      </trkpt>
      <trkpt lat="23.07104" lon="113.270141">
        <time>2026-09-26T23:42:56Z</time>
      </trkpt>
      <trkpt lat="23.070921" lon="113.270101">
        <time>2026-09-26T23:43:01Z</time>
      </trkpt>
      <trkpt lat="23.070817" lon="113.270052">
        <time>2026-09-26T23:43:06Z</time>
      </trkpt>
      <trkpt lat="23.070716" lon="113.269997">
        <time>2026-09-26T23:43:11Z</time>
      </trkpt>
      <trkpt lat="23.070614" lon="113.269929">
        <time>2026-09-26T23:43:16Z</time>
      </trkpt>
      <trkpt lat="23.070501" lon="113.269869">
        <time>2026-09-26T23:43:21Z</time>
      </trkpt>
      <trkpt lat="23.070391" lon="113.269831">
        <time>2026-09-26T23:43:26Z</time>
      </trkpt>
      <trkpt lat="23.070284" lon="113.269782">
        <time>2026-09-26T23:43:31Z</time>
      </trkpt>
      <trkpt lat="23.070176" lon="113.269732">
        <time>2026-09-26T23:43:36Z</time>
      </trkpt>
      <trkpt lat="23.070071" lon="113.269675">
        <time>2026-09-26T23:43:41Z</time>
      </trkpt>
      <trkpt lat="23.069974" lon="113.269616">
        <time>2026-09-26T23:43:46Z</time>
      </trkpt>
      <trkpt lat="23.069877" lon="113.269546">
        <time>2026-09-26T23:43:51Z</time>
      </trkpt>
      <trkpt lat="23.069767" lon="113.269514">
        <time>2026-09-26T23:43:56Z</time>
      </trkpt>
      <trkpt lat="23.069662" lon="113.269472">
        <time>2026-09-26T23:44:01Z</time>
      </trkpt>
      <trkpt lat="23.069564" lon="113.269402">
        <time>2026-09-26T23:44:06Z</time>
      </trkpt>
      <trkpt lat="23.069467" lon="113.269348">
        <time>2026-09-26T23:44:11Z</time>
      </trkpt>
      <trkpt lat="23.069363" lon="113.269306">
        <time>2026-09-26T23:44:16Z</time>
      </trkpt>
      <trkpt lat="23.069252" lon="113.269256">
        <time>2026-09-26T23:44:21Z</time>
      </trkpt>
      <trkpt lat="23.069151" lon="113.269209">
        <time>2026-09-26T23:44:26Z</time>
      </trkpt>
      <trkpt lat="23.069053" lon="113.269178">
        <time>2026-09-26T23:44:31Z</time>
      </trkpt>
      <trkpt lat="23.068962" lon="113.269128">
        <time>2026-09-26T23:44:36Z</time>
      </trkpt>
      <trkpt lat="23.068862" lon="113.269066">
        <time>2026-09-26T23:44:41Z</time>
      </trkpt>
      <trkpt lat="23.06876" lon="113.269016">
        <time>2026-09-26T23:44:46Z</time>
      </trkpt>
      <trkpt lat="23.068648" lon="113.268988">
        <time>2026-09-26T23:44:51Z</time>
      </trkpt>
      <trkpt lat="23.06854" lon="113.268958">
        <time>2026-09-26T23:44:56Z</time>
      </trkpt>
      <trkpt lat="23.06844" lon="113.268931">
        <time>2026-09-26T23:45:01Z</time>
      </trkpt>
      <trkpt lat="23.068328" lon="113.268894">
        <time>2026-09-26T23:45:06Z</time>
      </trkpt>
      <trkpt lat="23.068223" lon="113.268839">
        <time>2026-09-26T23:45:11Z</time>
      </trkpt>
      <trkpt lat="23.068126" lon="113.26879">
        <time>2026-09-26T23:45:16Z</time>
      </trkpt>
      <trkpt lat="23.068014" lon="113.268722">
        <time>2026-09-26T23:45:21Z</time>
      </trkpt>
      <trkpt lat="23.067899" lon="113.268638">
        <time>2026-09-26T23:45:26Z</time>
      </trkpt>
      <trkpt lat="23.067785" lon="113.268564">
        <time>2026-09-26T23:45:31Z</time>
      </trkpt>
      <trkpt lat="23.067672" lon="113.268508">
        <time>2026-09-26T23:45:36Z</time>
      </trkpt>
      <trkpt lat="23.067566" lon="113.268461">
        <time>2026-09-26T23:45:41Z</time>
      </trkpt>
      <trkpt lat="23.067472" lon="113.268408">
        <time>2026-09-26T23:45:46Z</time>
      </trkpt>
      <trkpt lat="23.067376" lon="113.268359">
        <time>2026-09-26T23:45:51Z</time>
      </trkpt>
      <trkpt lat="23.06727" lon="113.268305">
        <time>2026-09-26T23:45:56Z</time>
      </trkpt>
      <trkpt lat="23.067167" lon="113.268248">
        <time>2026-09-26T23:46:01Z</time>
      </trkpt>
      <trkpt lat="23.067068" lon="113.268192">
        <time>2026-09-26T23:46:06Z</time>
      </trkpt>
      <trkpt lat="23.066971" lon="113.26813">
        <time>2026-09-26T23:46:11Z</time>
      </trkpt>
      <trkpt lat="23.066856" lon="113.268115">
        <time>2026-09-26T23:46:16Z</time>
      </trkpt>
      <trkpt lat="23.066737" lon="113.268107">
        <time>2026-09-26T23:46:21Z</time>
      </trkpt>
      <trkpt lat="23.066619" lon="113.268061">
        <time>2026-09-26T23:46:26Z</time>
      </trkpt>
      <trkpt lat="23.066499" lon="113.268031">
        <time>2026-09-26T23:46:31Z</time>
      </trkpt>
      <trkpt lat="23.066391" lon="113.268045">
        <time>2026-09-26T23:46:36Z</time>
      </trkpt>
      <trkpt lat="23.066286" lon="113.268078">
        <time>2026-09-26T23:46:41Z</time>
      </trkpt>
      <trkpt lat="23.066189" lon="113.268143">
        <time>2026-09-26T23:46:46Z</time>
      </trkpt>
      <trkpt lat="23.06611" lon="113.268223">
        <time>2026-09-26T23:46:51Z</time>
      </trkpt>
      <trkpt lat="23.066034" lon="113.268313">
        <time>2026-09-26T23:46:56Z</time>
      </trkpt>
      <trkpt lat="23.065959" lon="113.268409">
        <time>2026-09-26T23:47:01Z</time>
      </trkpt>
      <trkpt lat="23.065888" lon="113.268504">
        <time>2026-09-26T23:47:06Z</time>
      </trkpt>
      <trkpt lat="23.065829" lon="113.26861">
        <time>2026-09-26T23:47:11Z</time>
      </trkpt>
      <trkpt lat="23.065775" lon="113.268719">
        <time>2026-09-26T23:47:16Z</time>
      </trkpt>
      <trkpt lat="23.065733" lon="113.26883">
        <time>2026-09-26T23:47:21Z</time>
      </trkpt>
      <trkpt lat="23.065691" lon="113.268941">
        <time>2026-09-26T23:47:26Z</time>
      </trkpt>
      <trkpt lat="23.065644" lon="113.269054">
        <time>2026-09-26T23:47:31Z</time>
      </trkpt>
      <trkpt lat="23.06561" lon="113.26917">
        <time>2026-09-26T23:47:36Z</time>
      </trkpt>
      <trkpt lat="23.065591" lon="113.269288">
        <time>2026-09-26T23:47:41Z</time>
      </trkpt>
      <trkpt lat="23.065571" lon="113.269407">
        <time>2026-09-26T23:47:46Z</time>
      </trkpt>
      <trkpt lat="23.065549" lon="113.269528">
        <time>2026-09-26T23:47:51Z</time>
      </trkpt>
      <trkpt lat="23.065513" lon="113.269643">
        <time>2026-09-26T23:47:56Z</time>
      </trkpt>
      <trkpt lat="23.065475" lon="113.269757">
        <time>2026-09-26T23:48:01Z</time>
      </trkpt>
      <trkpt lat="23.065438" lon="113.269864">
        <time>2026-09-26T23:48:06Z</time>
      </trkpt>
      <trkpt lat="23.065402" lon="113.269974">
        <time>2026-09-26T23:48:11Z</time>
      </trkpt>
      <trkpt lat="23.065358" lon="113.270084">
        <time>2026-09-26T23:48:16Z</time>
      </trkpt>
      <trkpt lat="23.065311" lon="113.270193">
        <time>2026-09-26T23:48:21Z</time>
      </trkpt>
      <trkpt lat="23.065261" lon="113.2703">
        <time>2026-09-26T23:48:26Z</time>
      </trkpt>
      <trkpt lat="23.065211" lon="113.270409">
        <time>2026-09-26T23:48:31Z</time>
      </trkpt>
      <trkpt lat="23.065163" lon="113.270518">
        <time>2026-09-26T23:48:36Z</time>
      </trkpt>
      <trkpt lat="23.065116" lon="113.270629">
        <time>2026-09-26T23:48:41Z</time>
      </trkpt>
      <trkpt lat="23.065069" lon="113.27074">
        <time>2026-09-26T23:48:46Z</time>
      </trkpt>
      <trkpt lat="23.065023" lon="113.270853">
        <time>2026-09-26T23:48:51Z</time>
      </trkpt>
      <trkpt lat="23.064975" lon="113.270961">
        <time>2026-09-26T23:48:56Z</time>
      </trkpt>
      <trkpt lat="23.064932" lon="113.271064">
        <time>2026-09-26T23:49:01Z</time>
      </trkpt>
      <trkpt lat="23.064888" lon="113.271172">
        <time>2026-09-26T23:49:06Z</time>
      </trkpt>
      <trkpt lat="23.06484" lon="113.271282">
        <time>2026-09-26T23:49:11Z</time>
      </trkpt>
      <trkpt lat="23.064789" lon="113.271399">
        <time>2026-09-26T23:49:16Z</time>
      </trkpt>
      <trkpt lat="23.064733" lon="113.271511">
        <time>2026-09-26T23:49:21Z</time>
      </trkpt>
      <trkpt lat="23.06468" lon="113.271618">
        <time>2026-09-26T23:49:26Z</time>
      </trkpt>
      <trkpt lat="23.064629" lon="113.271722">
        <time>2026-09-26T23:49:31Z</time>
      </trkpt>
      <trkpt lat="23.064549" lon="113.271804">
        <time>2026-09-26T23:49:36Z</time>
      </trkpt>
      <trkpt lat="23.064477" lon="113.271901">
        <time>2026-09-26T23:49:41Z</time>
      </trkpt>
      <trkpt lat="23.064422" lon="113.27201">
        <time>2026-09-26T23:49:46Z</time>
      </trkpt>
      <trkpt lat="23.064367" lon="113.272116">
        <time>2026-09-26T23:49:51Z</time>
      </trkpt>
      <trkpt lat="23.064306" lon="113.27221">
        <time>2026-09-26T23:49:56Z</time>
      </trkpt>
      <trkpt lat="23.064297" lon="113.27232">
        <time>2026-09-26T23:50:01Z</time>
      </trkpt>
      <trkpt lat="23.064296" lon="113.272439">
        <time>2026-09-26T23:50:06Z</time>
      </trkpt>
      <trkpt lat="23.064295" lon="113.272555">
        <time>2026-09-26T23:50:11Z</time>
      </trkpt>
      <trkpt lat="23.064309" lon="113.272665">
        <time>2026-09-26T23:50:16Z</time>
      </trkpt>
      <trkpt lat="23.06434" lon="113.272772">
        <time>2026-09-26T23:50:21Z</time>
      </trkpt>
      <trkpt lat="23.064373" lon="113.272872">
        <time>2026-09-26T23:50:26Z</time>
      </trkpt>
      <trkpt lat="23.064407" lon="113.272977">
        <time>2026-09-26T23:50:31Z</time>
      </trkpt>
      <trkpt lat="23.06444" lon="113.273092">
        <time>2026-09-26T23:50:36Z</time>
      </trkpt>
      <trkpt lat="23.064444" lon="113.273203">
        <time>2026-09-26T23:50:41Z</time>
      </trkpt>
      <trkpt lat="23.064399" lon="113.273297">
        <time>2026-09-26T23:50:46Z</time>
      </trkpt>
      <trkpt lat="23.064311" lon="113.27337">
        <time>2026-09-26T23:50:51Z</time>
      </trkpt>
      <trkpt lat="23.064211" lon="113.273436">
        <time>2026-09-26T23:50:56Z</time>
      </trkpt>
      <trkpt lat="23.064118" lon="113.273504">
        <time>2026-09-26T23:51:01Z</time>
      </trkpt>
      <trkpt lat="23.064028" lon="113.273573">
        <time>2026-09-26T23:51:06Z</time>
      </trkpt>
      <trkpt lat="23.063943" lon="113.273653">
        <time>2026-09-26T23:51:11Z</time>
      </trkpt>
      <trkpt lat="23.063872" lon="113.273745">
        <time>2026-09-26T23:51:16Z</time>
      </trkpt>
      <trkpt lat="23.063815" lon="113.273841">
        <time>2026-09-26T23:51:21Z</time>
      </trkpt>
      <trkpt lat="23.063763" lon="113.273938">
        <time>2026-09-26T23:51:26Z</time>
      </trkpt>
      <trkpt lat="23.063716" lon="113.274029">
        <time>2026-09-26T23:51:31Z</time>
      </trkpt>
      <trkpt lat="23.063646" lon="113.274097">
        <time>2026-09-26T23:51:36Z</time>
      </trkpt>
      <trkpt lat="23.063553" lon="113.274115">
        <time>2026-09-26T23:51:41Z</time>
      </trkpt>
      <trkpt lat="23.06345" lon="113.274085">
        <time>2026-09-26T23:51:46Z</time>
      </trkpt>
      <trkpt lat="23.063376" lon="113.274161">
        <time>2026-09-26T23:51:51Z</time>
      </trkpt>
      <trkpt lat="23.063338" lon="113.274292">
        <time>2026-09-26T23:51:56Z</time>
      </trkpt>
      <trkpt lat="23.063301" lon="113.274408">
        <time>2026-09-26T23:52:01Z</time>
      </trkpt>
      <trkpt lat="23.063256" lon="113.274515">
        <time>2026-09-26T23:52:06Z</time>
      </trkpt>
      <trkpt lat="23.063216" lon="113.274631">
        <time>2026-09-26T23:52:11Z</time>
      </trkpt>
      <trkpt lat="23.063177" lon="113.274745">
        <time>2026-09-26T23:52:16Z</time>
      </trkpt>
      <trkpt lat="23.063129" lon="113.274857">
        <time>2026-09-26T23:52:21Z</time>
      </trkpt>
      <trkpt lat="23.06309" lon="113.274973">
        <time>2026-09-26T23:52:26Z</time>
      </trkpt>
      <trkpt lat="23.063062" lon="113.275085">
        <time>2026-09-26T23:52:31Z</time>
      </trkpt>
      <trkpt lat="23.063015" lon="113.275176">
        <time>2026-09-26T23:52:36Z</time>
      </trkpt>
      <trkpt lat="23.062923" lon="113.275225">
        <time>2026-09-26T23:52:41Z</time>
      </trkpt>
      <trkpt lat="23.062878" lon="113.275318">
        <time>2026-09-26T23:52:46Z</time>
      </trkpt>
      <trkpt lat="23.062913" lon="113.27543">
        <time>2026-09-26T23:52:51Z</time>
      </trkpt>
      <trkpt lat="23.062909" lon="113.27554">
        <time>2026-09-26T23:52:56Z</time>
      </trkpt>
      <trkpt lat="23.062833" lon="113.27563">
        <time>2026-09-26T23:53:01Z</time>
      </trkpt>
      <trkpt lat="23.062751" lon="113.275708">
        <time>2026-09-26T23:53:06Z</time>
      </trkpt>
      <trkpt lat="23.062672" lon="113.27579">
        <time>2026-09-26T23:53:11Z</time>
      </trkpt>
      <trkpt lat="23.062595" lon="113.27588">
        <time>2026-09-26T23:53:16Z</time>
      </trkpt>
      <trkpt lat="23.062524" lon="113.275973">
        <time>2026-09-26T23:53:21Z</time>
      </trkpt>
      <trkpt lat="23.062465" lon="113.276071">
        <time>2026-09-26T23:53:26Z</time>
      </trkpt>
      <trkpt lat="23.062386" lon="113.276164">
        <time>2026-09-26T23:53:31Z</time>
      </trkpt>
      <trkpt lat="23.062331" lon="113.276265">
        <time>2026-09-26T23:53:36Z</time>
      </trkpt>
      <trkpt lat="23.062291" lon="113.27637">
        <time>2026-09-26T23:53:41Z</time>
      </trkpt>
      <trkpt lat="23.062255" lon="113.276477">
        <time>2026-09-26T23:53:46Z</time>
      </trkpt>
      <trkpt lat="23.062214" lon="113.276588">
        <time>2026-09-26T23:53:51Z</time>
      </trkpt>
      <trkpt lat="23.062177" lon="113.276694">
        <time>2026-09-26T23:53:56Z</time>
      </trkpt>
      <trkpt lat="23.062146" lon="113.276811">
        <time>2026-09-26T23:54:01Z</time>
      </trkpt>
      <trkpt lat="23.062115" lon="113.276918">
        <time>2026-09-26T23:54:06Z</time>
      </trkpt>
      <trkpt lat="23.062086" lon="113.277033">
        <time>2026-09-26T23:54:11Z</time>
      </trkpt>
      <trkpt lat="23.062055" lon="113.277159">
        <time>2026-09-26T23:54:16Z</time>
      </trkpt>
      <trkpt lat="23.062016" lon="113.277278">
        <time>2026-09-26T23:54:21Z</time>
      </trkpt>
      <trkpt lat="23.06197" lon="113.277389">
        <time>2026-09-26T23:54:26Z</time>
      </trkpt>
      <trkpt lat="23.061925" lon="113.2775">
        <time>2026-09-26T23:54:31Z</time>
      </trkpt>
      <trkpt lat="23.061884" lon="113.27761">
        <time>2026-09-26T23:54:36Z</time>
      </trkpt>
      <trkpt lat="23.061843" lon="113.277725">
        <time>2026-09-26T23:54:41Z</time>
      </trkpt>
      <trkpt lat="23.061821" lon="113.277838">
        <time>2026-09-26T23:54:46Z</time>
      </trkpt>
      <trkpt lat="23.061822" lon="113.277953">
        <time>2026-09-26T23:54:51Z</time>
      </trkpt>
      <trkpt lat="23.061828" lon="113.278064">
        <time>2026-09-26T23:54:56Z</time>
      </trkpt>
      <trkpt lat="23.061833" lon="113.278172">
        <time>2026-09-26T23:55:01Z</time>
      </trkpt>
      <trkpt lat="23.061832" lon="113.278284">
        <time>2026-09-26T23:55:06Z</time>
      </trkpt>
      <trkpt lat="23.06184" lon="113.278397">
        <time>2026-09-26T23:55:11Z</time>
      </trkpt>
      <trkpt lat="23.061848" lon="113.278516">
        <time>2026-09-26T23:55:16Z</time>
      </trkpt>
      <trkpt lat="23.061849" lon="113.278627">
        <time>2026-09-26T23:55:21Z</time>
      </trkpt>
      <trkpt lat="23.061821" lon="113.278729">
        <time>2026-09-26T23:55:26Z</time>
      </trkpt>
      <trkpt lat="23.061741" lon="113.278767">
        <time>2026-09-26T23:55:31Z</time>
      </trkpt>
      <trkpt lat="23.061691" lon="113.278866">
        <time>2026-09-26T23:55:36Z</time>
      </trkpt>
      <trkpt lat="23.061656" lon="113.278988">
        <time>2026-09-26T23:55:41Z</time>
      </trkpt>
      <trkpt lat="23.061615" lon="113.279107">
        <time>2026-09-26T23:55:46Z</time>
      </trkpt>
      <trkpt lat="23.061566" lon="113.279219">
        <time>2026-09-26T23:55:51Z</time>
      </trkpt>
      <trkpt lat="23.061512" lon="113.279324">
        <time>2026-09-26T23:55:56Z</time>
      </trkpt>
      <trkpt lat="23.061469" lon="113.279438">
        <time>2026-09-26T23:56:01Z</time>
      </trkpt>
      <trkpt lat="23.061429" lon="113.279551">
        <time>2026-09-26T23:56:06Z</time>
      </trkpt>
      <trkpt lat="23.06139" lon="113.279662">
        <time>2026-09-26T23:56:11Z</time>
      </trkpt>
      <trkpt lat="23.061347" lon="113.279774">
        <time>2026-09-26T23:56:16Z</time>
      </trkpt>
      <trkpt lat="23.061302" lon="113.279889">
        <time>2026-09-26T23:56:21Z</time>
      </trkpt>
      <trkpt lat="23.061247" lon="113.280003">
        <time>2026-09-26T23:56:26Z</time>
      </trkpt>
      <trkpt lat="23.061194" lon="113.280115">
        <time>2026-09-26T23:56:31Z</time>
      </trkpt>
      <trkpt lat="23.061144" lon="113.280227">
        <time>2026-09-26T23:56:36Z</time>
      </trkpt>
      <trkpt lat="23.061095" lon="113.280333">
        <time>2026-09-26T23:56:41Z</time>
      </trkpt>
      <trkpt lat="23.061045" lon="113.280445">
        <time>2026-09-26T23:56:46Z</time>
      </trkpt>
      <trkpt lat="23.060993" lon="113.280559">
        <time>2026-09-26T23:56:51Z</time>
      </trkpt>
      <trkpt lat="23.060945" lon="113.280672">
        <time>2026-09-26T23:56:56Z</time>
      </trkpt>
      <trkpt lat="23.0609" lon="113.280782">
        <time>2026-09-26T23:57:01Z</time>
      </trkpt>
      <trkpt lat="23.060857" lon="113.280889">
        <time>2026-09-26T23:57:06Z</time>
      </trkpt>
      <trkpt lat="23.060812" lon="113.280996">
        <time>2026-09-26T23:57:11Z</time>
      </trkpt>
      <trkpt lat="23.060765" lon="113.281104">
        <time>2026-09-26T23:57:16Z</time>
      </trkpt>
      <trkpt lat="23.060724" lon="113.281208">
        <time>2026-09-26T23:57:21Z</time>
      </trkpt>
      <trkpt lat="23.060686" lon="113.281314">
        <time>2026-09-26T23:57:26Z</time>
      </trkpt>
      <trkpt lat="23.060639" lon="113.281416">
        <time>2026-09-26T23:57:31Z</time>
      </trkpt>
      <trkpt lat="23.06059" lon="113.281526">
        <time>2026-09-26T23:57:36Z</time>
      </trkpt>
      <trkpt lat="23.060542" lon="113.281639">
        <time>2026-09-26T23:57:41Z</time>
      </trkpt>
      <trkpt lat="23.060492" lon="113.281746">
        <time>2026-09-26T23:57:46Z</time>
      </trkpt>
      <trkpt lat="23.060445" lon="113.281849">
        <time>2026-09-26T23:57:51Z</time>
      </trkpt>
      <trkpt lat="23.060404" lon="113.281956">
        <time>2026-09-26T23:57:56Z</time>
      </trkpt>
      <trkpt lat="23.060364" lon="113.282062">
        <time>2026-09-26T23:58:01Z</time>
      </trkpt>
      <trkpt lat="23.060318" lon="113.28217">
        <time>2026-09-26T23:58:06Z</time>
      </trkpt>
      <trkpt lat="23.060271" lon="113.282274">
        <time>2026-09-26T23:58:11Z</time>
      </trkpt>
      <trkpt lat="23.060225" lon="113.28238">
        <time>2026-09-26T23:58:16Z</time>
      </trkpt>
      <trkpt lat="23.060178" lon="113.282492">
        <time>2026-09-26T23:58:21Z</time>
      </trkpt>
      <trkpt lat="23.060139" lon="113.282594">
        <time>2026-09-26T23:58:26Z</time>
      </trkpt>
      <trkpt lat="23.06009" lon="113.282696">
        <time>2026-09-26T23:58:31Z</time>
      </trkpt>
      <trkpt lat="23.060041" lon="113.282805">
        <time>2026-09-26T23:58:36Z</time>
      </trkpt>
      <trkpt lat="23.06" lon="113.282911">
        <time>2026-09-26T23:58:41Z</time>
      </trkpt>
      <trkpt lat="23.059956" lon="113.28302">
        <time>2026-09-26T23:58:46Z</time>
      </trkpt>
      <trkpt lat="23.059911" lon="113.283125">
        <time>2026-09-26T23:58:51Z</time>
      </trkpt>
      <trkpt lat="23.05986" lon="113.28322">
        <time>2026-09-26T23:58:56Z</time>
      </trkpt>
      <trkpt lat="23.059807" lon="113.283316">
        <time>2026-09-26T23:59:01Z</time>
      </trkpt>
      <trkpt lat="23.059751" lon="113.283413">
        <time>2026-09-26T23:59:06Z</time>
      </trkpt>
      <trkpt lat="23.05971" lon="113.283517">
        <time>2026-09-26T23:59:11Z</time>
      </trkpt>
      <trkpt lat="23.059662" lon="113.283616">
        <time>2026-09-26T23:59:16Z</time>
      </trkpt>
      <trkpt lat="23.059617" lon="113.283718">
        <time>2026-09-26T23:59:21Z</time>
      </trkpt>
      <trkpt lat="23.059587" lon="113.28383">
        <time>2026-09-26T23:59:26Z</time>
      </trkpt>
      <trkpt lat="23.059545" lon="113.283943">
        <time>2026-09-26T23:59:31Z</time>
      </trkpt>
      <trkpt lat="23.059499" lon="113.284048">
        <time>2026-09-26T23:59:36Z</time>
      </trkpt>
      <trkpt lat="23.059465" lon="113.284161">
        <time>2026-09-26T23:59:41Z</time>
      </trkpt>
      <trkpt lat="23.059422" lon="113.284272">
        <time>2026-09-26T23:59:46Z</time>
      </trkpt>
      <trkpt lat="23.059373" lon="113.284376">
        <time>2026-09-26T23:59:51Z</time>
      </trkpt>
      <trkpt lat="23.05932" lon="113.28448">
        <time>2026-09-26T23:59:56Z</time>
      </trkpt>
      <trkpt lat="23.059272" lon="113.284588">
        <time>2026-09-27T00:00:01Z</time>
      </trkpt>
      <trkpt lat="23.059239" lon="113.2847">
        <time>2026-09-27T00:00:06Z</time>
      </trkpt>
      <trkpt lat="23.0592" lon="113.284815">
        <time>2026-09-27T00:00:11Z</time>
      </trkpt>
      <trkpt lat="23.059154" lon="113.28492">
        <time>2026-09-27T00:00:16Z</time>
      </trkpt>
      <trkpt lat="23.05911" lon="113.285019">
        <time>2026-09-27T00:00:21Z</time>
      </trkpt>
      <trkpt lat="23.059069" lon="113.285123">
        <time>2026-09-27T00:00:26Z</time>
      </trkpt>
      <trkpt lat="23.059023" lon="113.285223">
        <time>2026-09-27T00:00:31Z</time>
      </trkpt>
      <trkpt lat="23.058977" lon="113.28533">
        <time>2026-09-27T00:00:36Z</time>
      </trkpt>
      <trkpt lat="23.058934" lon="113.285433">
        <time>2026-09-27T00:00:41Z</time>
      </trkpt>
      <trkpt lat="23.058892" lon="113.285532">
        <time>2026-09-27T00:00:46Z</time>
      </trkpt>
      <trkpt lat="23.058849" lon="113.285639">
        <time>2026-09-27T00:00:51Z</time>
      </trkpt>
      <trkpt lat="23.058801" lon="113.285747">
        <time>2026-09-27T00:00:56Z</time>
      </trkpt>
      <trkpt lat="23.058755" lon="113.285851">
        <time>2026-09-27T00:01:01Z</time>
      </trkpt>
      <trkpt lat="23.058712" lon="113.285955">
        <time>2026-09-27T00:01:06Z</time>
      </trkpt>
      <trkpt lat="23.058667" lon="113.286059">
        <time>2026-09-27T00:01:11Z</time>
      </trkpt>
      <trkpt lat="23.058628" lon="113.286162">
        <time>2026-09-27T00:01:16Z</time>
      </trkpt>
      <trkpt lat="23.05864" lon="113.28627">
        <time>2026-09-27T00:01:21Z</time>
      </trkpt>
      <trkpt lat="23.058708" lon="113.286352">
        <time>2026-09-27T00:01:26Z</time>
      </trkpt>
      <trkpt lat="23.058803" lon="113.286398">
        <time>2026-09-27T00:01:31Z</time>
      </trkpt>
      <trkpt lat="23.058903" lon="113.286415">
        <time>2026-09-27T00:01:36Z</time>
      </trkpt>
      <trkpt lat="23.059" lon="113.286429">
        <time>2026-09-27T00:01:41Z</time>
      </trkpt>
      <trkpt lat="23.059109" lon="113.286436">
        <time>2026-09-27T00:01:46Z</time>
      </trkpt>
      <trkpt lat="23.059212" lon="113.286437">
        <time>2026-09-27T00:01:51Z</time>
      </trkpt>
      <trkpt lat="23.059315" lon="113.286443">
        <time>2026-09-27T00:01:56Z</time>
      </trkpt>
      <trkpt lat="23.059417" lon="113.286455">
        <time>2026-09-27T00:02:01Z</time>
      </trkpt>
      <trkpt lat="23.059512" lon="113.286461">
        <time>2026-09-27T00:02:06Z</time>
      </trkpt>
      <trkpt lat="23.059607" lon="113.286476">
        <time>2026-09-27T00:02:11Z</time>
      </trkpt>
      <trkpt lat="23.059696" lon="113.286476">
        <time>2026-09-27T00:02:16Z</time>
      </trkpt>
      <trkpt lat="23.059792" lon="113.286487">
        <time>2026-09-27T00:02:21Z</time>
      </trkpt>
      <trkpt lat="23.059895" lon="113.286503">
        <time>2026-09-27T00:02:26Z</time>
      </trkpt>
      <trkpt lat="23.059995" lon="113.286543">
        <time>2026-09-27T00:02:31Z</time>
      </trkpt>
      <trkpt lat="23.06007" lon="113.286628">
        <time>2026-09-27T00:02:36Z</time>
      </trkpt>
      <trkpt lat="23.060101" lon="113.28673">
        <time>2026-09-27T00:02:41Z</time>
      </trkpt>
      <trkpt lat="23.060105" lon="113.286823">
        <time>2026-09-27T00:02:46Z</time>
      </trkpt>
      <trkpt lat="23.060128" lon="113.286938">
        <time>2026-09-27T00:02:51Z</time>
      </trkpt>
      <trkpt lat="23.06016" lon="113.287027">
        <time>2026-09-27T00:02:56Z</time>
      </trkpt>
      <trkpt lat="23.060183" lon="113.287128">
        <time>2026-09-27T00:03:01Z</time>
      </trkpt>
      <trkpt lat="23.060193" lon="113.287232">
        <time>2026-09-27T00:03:06Z</time>
      </trkpt>
      <trkpt lat="23.060199" lon="113.287331">
        <time>2026-09-27T00:03:11Z</time>
      </trkpt>
      <trkpt lat="23.060244" lon="113.287473">
        <time>2026-09-27T00:03:16Z</time>
      </trkpt>
      <trkpt lat="23.060234" lon="113.287611">
        <time>2026-09-27T00:03:21Z</time>
      </trkpt>
      <trkpt lat="23.060202" lon="113.28772">
        <time>2026-09-27T00:03:26Z</time>
      </trkpt>
      <trkpt lat="23.060146" lon="113.287833">
        <time>2026-09-27T00:03:31Z</time>
      </trkpt>
      <trkpt lat="23.060108" lon="113.287933">
        <time>2026-09-27T00:03:36Z</time>
      </trkpt>
      <trkpt lat="23.060012" lon="113.287984">
        <time>2026-09-27T00:03:41Z</time>
      </trkpt>
      <trkpt lat="23.059897" lon="113.288001">
        <time>2026-09-27T00:03:46Z</time>
      </trkpt>
      <trkpt lat="23.05979" lon="113.288025">
        <time>2026-09-27T00:03:51Z</time>
      </trkpt>
      <trkpt lat="23.059696" lon="113.288051">
        <time>2026-09-27T00:03:56Z</time>
      </trkpt>
      <trkpt lat="23.059602" lon="113.288078">
        <time>2026-09-27T00:04:01Z</time>
      </trkpt>
      <trkpt lat="23.059503" lon="113.288104">
        <time>2026-09-27T00:04:06Z</time>
      </trkpt>
      <trkpt lat="23.0594" lon="113.288112">
        <time>2026-09-27T00:04:11Z</time>
      </trkpt>
      <trkpt lat="23.059289" lon="113.288107">
        <time>2026-09-27T00:04:16Z</time>
      </trkpt>
      <trkpt lat="23.059171" lon="113.28809">
        <time>2026-09-27T00:04:21Z</time>
      </trkpt>
      <trkpt lat="23.059056" lon="113.288089">
        <time>2026-09-27T00:04:26Z</time>
      </trkpt>
      <trkpt lat="23.058944" lon="113.288091">
        <time>2026-09-27T00:04:31Z</time>
      </trkpt>
      <trkpt lat="23.058838" lon="113.288105">
        <time>2026-09-27T00:04:36Z</time>
      </trkpt>
      <trkpt lat="23.05874" lon="113.288121">
        <time>2026-09-27T00:04:41Z</time>
      </trkpt>
      <trkpt lat="23.058757" lon="113.288147">
        <time>2026-09-27T00:04:46Z</time>
      </trkpt>
      <trkpt lat="23.058875" lon="113.288155">
        <time>2026-09-27T00:04:51Z</time>
      </trkpt>
      <trkpt lat="23.058991" lon="113.288165">
        <time>2026-09-27T00:04:56Z</time>
      </trkpt>
      <trkpt lat="23.059105" lon="113.288165">
        <time>2026-09-27T00:05:01Z</time>
      </trkpt>
      <trkpt lat="23.059209" lon="113.288159">
        <time>2026-09-27T00:05:06Z</time>
      </trkpt>
      <trkpt lat="23.059308" lon="113.288159">
        <time>2026-09-27T00:05:11Z</time>
      </trkpt>
      <trkpt lat="23.059414" lon="113.28815">
        <time>2026-09-27T00:05:16Z</time>
      </trkpt>
      <trkpt lat="23.059516" lon="113.288134">
        <time>2026-09-27T00:05:21Z</time>
      </trkpt>
      <trkpt lat="23.059621" lon="113.288121">
        <time>2026-09-27T00:05:26Z</time>
      </trkpt>
      <trkpt lat="23.059738" lon="113.288127">
        <time>2026-09-27T00:05:31Z</time>
      </trkpt>
      <trkpt lat="23.059854" lon="113.288133">
        <time>2026-09-27T00:05:36Z</time>
      </trkpt>
      <trkpt lat="23.059966" lon="113.288127">
        <time>2026-09-27T00:05:41Z</time>
      </trkpt>
      <trkpt lat="23.060077" lon="113.288099">
        <time>2026-09-27T00:05:46Z</time>
      </trkpt>
      <trkpt lat="23.060188" lon="113.288059">
        <time>2026-09-27T00:05:51Z</time>
      </trkpt>
      <trkpt lat="23.060267" lon="113.287981">
        <time>2026-09-27T00:05:56Z</time>
      </trkpt>
      <trkpt lat="23.06027" lon="113.287877">
        <time>2026-09-27T00:06:01Z</time>
      </trkpt>
      <trkpt lat="23.060258" lon="113.287767">
        <time>2026-09-27T00:06:06Z</time>
      </trkpt>
      <trkpt lat="23.060242" lon="113.287629">
        <time>2026-09-27T00:06:11Z</time>
      </trkpt>
      <trkpt lat="23.060211" lon="113.287481">
        <time>2026-09-27T00:06:16Z</time>
      </trkpt>
      <trkpt lat="23.060172" lon="113.287358">
        <time>2026-09-27T00:06:21Z</time>
      </trkpt>
      <trkpt lat="23.060142" lon="113.287251">
        <time>2026-09-27T00:06:26Z</time>
      </trkpt>
      <trkpt lat="23.060118" lon="113.287155">
        <time>2026-09-27T00:06:31Z</time>
      </trkpt>
      <trkpt lat="23.060113" lon="113.28705">
        <time>2026-09-27T00:06:36Z</time>
      </trkpt>
      <trkpt lat="23.060142" lon="113.286918">
        <time>2026-09-27T00:06:41Z</time>
      </trkpt>
      <trkpt lat="23.060169" lon="113.286806">
        <time>2026-09-27T00:06:46Z</time>
      </trkpt>
      <trkpt lat="23.060159" lon="113.286722">
        <time>2026-09-27T00:06:51Z</time>
      </trkpt>
      <trkpt lat="23.060158" lon="113.286648">
        <time>2026-09-27T00:06:56Z</time>
      </trkpt>
      <trkpt lat="23.060207" lon="113.286583">
        <time>2026-09-27T00:07:01Z</time>
      </trkpt>
      <trkpt lat="23.060264" lon="113.286512">
        <time>2026-09-27T00:07:06Z</time>
      </trkpt>
      <trkpt lat="23.060277" lon="113.286403">
        <time>2026-09-27T00:07:11Z</time>
      </trkpt>
      <trkpt lat="23.060298" lon="113.286284">
        <time>2026-09-27T00:07:16Z</time>
      </trkpt>
      <trkpt lat="23.060315" lon="113.28616">
        <time>2026-09-27T00:07:21Z</time>
      </trkpt>
      <trkpt lat="23.060318" lon="113.286039">
        <time>2026-09-27T00:07:26Z</time>
      </trkpt>
      <trkpt lat="23.060319" lon="113.285929">
        <time>2026-09-27T00:07:31Z</time>
      </trkpt>
      <trkpt lat="23.060323" lon="113.285828">
        <time>2026-09-27T00:07:36Z</time>
      </trkpt>
      <trkpt lat="23.060325" lon="113.285732">
        <time>2026-09-27T00:07:41Z</time>
      </trkpt>
      <trkpt lat="23.060342" lon="113.285635">
        <time>2026-09-27T00:07:46Z</time>
      </trkpt>
      <trkpt lat="23.060383" lon="113.285545">
        <time>2026-09-27T00:07:51Z</time>
      </trkpt>
      <trkpt lat="23.060427" lon="113.285451">
        <time>2026-09-27T00:07:56Z</time>
      </trkpt>
      <trkpt lat="23.060453" lon="113.285337">
        <time>2026-09-27T00:08:01Z</time>
      </trkpt>
      <trkpt lat="23.060472" lon="113.285223">
        <time>2026-09-27T00:08:06Z</time>
      </trkpt>
      <trkpt lat="23.060482" lon="113.285119">
        <time>2026-09-27T00:08:11Z</time>
      </trkpt>
      <trkpt lat="23.060489" lon="113.285011">
        <time>2026-09-27T00:08:16Z</time>
      </trkpt>
      <trkpt lat="23.060504" lon="113.284906">
        <time>2026-09-27T00:08:21Z</time>
      </trkpt>
      <trkpt lat="23.060528" lon="113.284798">
        <time>2026-09-27T00:08:26Z</time>
      </trkpt>
      <trkpt lat="23.060519" lon="113.284692">
        <time>2026-09-27T00:08:31Z</time>
      </trkpt>
      <trkpt lat="23.060525" lon="113.284592">
        <time>2026-09-27T00:08:36Z</time>
      </trkpt>
      <trkpt lat="23.060542" lon="113.284483">
        <time>2026-09-27T00:08:41Z</time>
      </trkpt>
      <trkpt lat="23.060558" lon="113.284367">
        <time>2026-09-27T00:08:46Z</time>
      </trkpt>
      <trkpt lat="23.060561" lon="113.284239">
        <time>2026-09-27T00:08:51Z</time>
      </trkpt>
      <trkpt lat="23.060486" lon="113.284106">
        <time>2026-09-27T00:08:56Z</time>
      </trkpt>
      <trkpt lat="23.060468" lon="113.283998">
        <time>2026-09-27T00:09:01Z</time>
      </trkpt>
      <trkpt lat="23.060485" lon="113.283872">
        <time>2026-09-27T00:09:06Z</time>
      </trkpt>
      <trkpt lat="23.060444" lon="113.28372">
        <time>2026-09-27T00:09:11Z</time>
      </trkpt>
      <trkpt lat="23.060393" lon="113.283615">
        <time>2026-09-27T00:09:16Z</time>
      </trkpt>
      <trkpt lat="23.060335" lon="113.283609">
        <time>2026-09-27T00:09:21Z</time>
      </trkpt>
      <trkpt lat="23.060241" lon="113.283594">
        <time>2026-09-27T00:09:26Z</time>
      </trkpt>
      <trkpt lat="23.060158" lon="113.283535">
        <time>2026-09-27T00:09:31Z</time>
      </trkpt>
      <trkpt lat="23.060068" lon="113.283468">
        <time>2026-09-27T00:09:36Z</time>
      </trkpt>
      <trkpt lat="23.059987" lon="113.283409">
        <time>2026-09-27T00:09:41Z</time>
      </trkpt>
      <trkpt lat="23.059979" lon="113.283321">
        <time>2026-09-27T00:09:46Z</time>
      </trkpt>
      <trkpt lat="23.060044" lon="113.28323">
        <time>2026-09-27T00:09:51Z</time>
      </trkpt>
      <trkpt lat="23.060104" lon="113.283138">
        <time>2026-09-27T00:09:56Z</time>
      </trkpt>
      <trkpt lat="23.060155" lon="113.283047">
        <time>2026-09-27T00:10:01Z</time>
      </trkpt>
      <trkpt lat="23.060186" lon="113.282944">
        <time>2026-09-27T00:10:06Z</time>
      </trkpt>
      <trkpt lat="23.060222" lon="113.282839">
        <time>2026-09-27T00:10:11Z</time>
      </trkpt>
      <trkpt lat="23.060261" lon="113.282736">
        <time>2026-09-27T00:10:16Z</time>
      </trkpt>
      <trkpt lat="23.060302" lon="113.282639">
        <time>2026-09-27T00:10:21Z</time>
      </trkpt>
      <trkpt lat="23.060337" lon="113.282534">
        <time>2026-09-27T00:10:26Z</time>
      </trkpt>
      <trkpt lat="23.060369" lon="113.282425">
        <time>2026-09-27T00:10:31Z</time>
      </trkpt>
      <trkpt lat="23.060404" lon="113.28232">
        <time>2026-09-27T00:10:36Z</time>
      </trkpt>
      <trkpt lat="23.060434" lon="113.282211">
        <time>2026-09-27T00:10:41Z</time>
      </trkpt>
      <trkpt lat="23.060473" lon="113.282104">
        <time>2026-09-27T00:10:46Z</time>
      </trkpt>
      <trkpt lat="23.060512" lon="113.282004">
        <time>2026-09-27T00:10:51Z</time>
      </trkpt>
      <trkpt lat="23.060553" lon="113.281898">
        <time>2026-09-27T00:10:56Z</time>
      </trkpt>
      <trkpt lat="23.060599" lon="113.281794">
        <time>2026-09-27T00:11:01Z</time>
      </trkpt>
      <trkpt lat="23.060642" lon="113.281695">
        <time>2026-09-27T00:11:06Z</time>
      </trkpt>
      <trkpt lat="23.060682" lon="113.281598">
        <time>2026-09-27T00:11:11Z</time>
      </trkpt>
      <trkpt lat="23.060734" lon="113.281499">
        <time>2026-09-27T00:11:16Z</time>
      </trkpt>
      <trkpt lat="23.060778" lon="113.281399">
        <time>2026-09-27T00:11:21Z</time>
      </trkpt>
      <trkpt lat="23.060815" lon="113.281301">
        <time>2026-09-27T00:11:26Z</time>
      </trkpt>
      <trkpt lat="23.060858" lon="113.2812">
        <time>2026-09-27T00:11:31Z</time>
      </trkpt>
      <trkpt lat="23.060901" lon="113.281103">
        <time>2026-09-27T00:11:36Z</time>
      </trkpt>
      <trkpt lat="23.060943" lon="113.281002">
        <time>2026-09-27T00:11:41Z</time>
      </trkpt>
      <trkpt lat="23.06098" lon="113.280899">
        <time>2026-09-27T00:11:46Z</time>
      </trkpt>
      <trkpt lat="23.061018" lon="113.28079">
        <time>2026-09-27T00:11:51Z</time>
      </trkpt>
      <trkpt lat="23.061072" lon="113.280673">
        <time>2026-09-27T00:11:56Z</time>
      </trkpt>
      <trkpt lat="23.061126" lon="113.280553">
        <time>2026-09-27T00:12:01Z</time>
      </trkpt>
      <trkpt lat="23.061184" lon="113.280445">
        <time>2026-09-27T00:12:06Z</time>
      </trkpt>
      <trkpt lat="23.061233" lon="113.280346">
        <time>2026-09-27T00:12:11Z</time>
      </trkpt>
      <trkpt lat="23.06128" lon="113.28024">
        <time>2026-09-27T00:12:16Z</time>
      </trkpt>
      <trkpt lat="23.061332" lon="113.280138">
        <time>2026-09-27T00:12:21Z</time>
      </trkpt>
      <trkpt lat="23.061374" lon="113.280031">
        <time>2026-09-27T00:12:26Z</time>
      </trkpt>
      <trkpt lat="23.061415" lon="113.279928">
        <time>2026-09-27T00:12:31Z</time>
      </trkpt>
      <trkpt lat="23.061458" lon="113.279824">
        <time>2026-09-27T00:12:36Z</time>
      </trkpt>
      <trkpt lat="23.061504" lon="113.279713">
        <time>2026-09-27T00:12:41Z</time>
      </trkpt>
      <trkpt lat="23.061543" lon="113.279601">
        <time>2026-09-27T00:12:46Z</time>
      </trkpt>
      <trkpt lat="23.061581" lon="113.2795">
        <time>2026-09-27T00:12:51Z</time>
      </trkpt>
      <trkpt lat="23.061622" lon="113.279396">
        <time>2026-09-27T00:12:56Z</time>
      </trkpt>
      <trkpt lat="23.06166" lon="113.279287">
        <time>2026-09-27T00:13:01Z</time>
      </trkpt>
      <trkpt lat="23.06171" lon="113.279177">
        <time>2026-09-27T00:13:06Z</time>
      </trkpt>
      <trkpt lat="23.061774" lon="113.279076">
        <time>2026-09-27T00:13:11Z</time>
      </trkpt>
      <trkpt lat="23.061843" lon="113.27898">
        <time>2026-09-27T00:13:16Z</time>
      </trkpt>
      <trkpt lat="23.061913" lon="113.278882">
        <time>2026-09-27T00:13:21Z</time>
      </trkpt>
      <trkpt lat="23.061955" lon="113.278765">
        <time>2026-09-27T00:13:26Z</time>
      </trkpt>
      <trkpt lat="23.061967" lon="113.278642">
        <time>2026-09-27T00:13:31Z</time>
      </trkpt>
      <trkpt lat="23.061965" lon="113.278519">
        <time>2026-09-27T00:13:36Z</time>
      </trkpt>
      <trkpt lat="23.061966" lon="113.278393">
        <time>2026-09-27T00:13:41Z</time>
      </trkpt>
      <trkpt lat="23.061962" lon="113.278267">
        <time>2026-09-27T00:13:46Z</time>
      </trkpt>
      <trkpt lat="23.061956" lon="113.278144">
        <time>2026-09-27T00:13:51Z</time>
      </trkpt>
      <trkpt lat="23.061957" lon="113.278019">
        <time>2026-09-27T00:13:56Z</time>
      </trkpt>
      <trkpt lat="23.061955" lon="113.277893">
        <time>2026-09-27T00:14:01Z</time>
      </trkpt>
      <trkpt lat="23.06196" lon="113.277775">
        <time>2026-09-27T00:14:06Z</time>
      </trkpt>
      <trkpt lat="23.06199" lon="113.27766">
        <time>2026-09-27T00:14:11Z</time>
      </trkpt>
      <trkpt lat="23.062026" lon="113.277547">
        <time>2026-09-27T00:14:16Z</time>
      </trkpt>
      <trkpt lat="23.062065" lon="113.277435">
        <time>2026-09-27T00:14:21Z</time>
      </trkpt>
      <trkpt lat="23.0621" lon="113.277326">
        <time>2026-09-27T00:14:26Z</time>
      </trkpt>
      <trkpt lat="23.062141" lon="113.277207">
        <time>2026-09-27T00:14:31Z</time>
      </trkpt>
      <trkpt lat="23.062174" lon="113.277081">
        <time>2026-09-27T00:14:36Z</time>
      </trkpt>
      <trkpt lat="23.062219" lon="113.276966">
        <time>2026-09-27T00:14:41Z</time>
      </trkpt>
      <trkpt lat="23.062274" lon="113.276856">
        <time>2026-09-27T00:14:46Z</time>
      </trkpt>
      <trkpt lat="23.062329" lon="113.276749">
        <time>2026-09-27T00:14:51Z</time>
      </trkpt>
      <trkpt lat="23.062372" lon="113.276635">
        <time>2026-09-27T00:14:56Z</time>
      </trkpt>
      <trkpt lat="23.062408" lon="113.276524">
        <time>2026-09-27T00:15:01Z</time>
      </trkpt>
      <trkpt lat="23.062446" lon="113.276418">
        <time>2026-09-27T00:15:06Z</time>
      </trkpt>
      <trkpt lat="23.062481" lon="113.276306">
        <time>2026-09-27T00:15:11Z</time>
      </trkpt>
      <trkpt lat="23.062523" lon="113.276195">
        <time>2026-09-27T00:15:16Z</time>
      </trkpt>
      <trkpt lat="23.062582" lon="113.276098">
        <time>2026-09-27T00:15:21Z</time>
      </trkpt>
      <trkpt lat="23.062645" lon="113.275999">
        <time>2026-09-27T00:15:26Z</time>
      </trkpt>
      <trkpt lat="23.06272" lon="113.275906">
        <time>2026-09-27T00:15:31Z</time>
      </trkpt>
      <trkpt lat="23.062795" lon="113.275811">
        <time>2026-09-27T00:15:36Z</time>
      </trkpt>
      <trkpt lat="23.06288" lon="113.275714">
        <time>2026-09-27T00:15:41Z</time>
      </trkpt>
      <trkpt lat="23.062969" lon="113.275623">
        <time>2026-09-27T00:15:46Z</time>
      </trkpt>
      <trkpt lat="23.063042" lon="113.275532">
        <time>2026-09-27T00:15:51Z</time>
      </trkpt>
      <trkpt lat="23.063098" lon="113.27543">
        <time>2026-09-27T00:15:56Z</time>
      </trkpt>
      <trkpt lat="23.063158" lon="113.275325">
        <time>2026-09-27T00:16:01Z</time>
      </trkpt>
      <trkpt lat="23.063221" lon="113.27522">
        <time>2026-09-27T00:16:06Z</time>
      </trkpt>
      <trkpt lat="23.063279" lon="113.27512">
        <time>2026-09-27T00:16:11Z</time>
      </trkpt>
      <trkpt lat="23.063334" lon="113.275017">
        <time>2026-09-27T00:16:16Z</time>
      </trkpt>
      <trkpt lat="23.063384" lon="113.274921">
        <time>2026-09-27T00:16:21Z</time>
      </trkpt>
      <trkpt lat="23.063422" lon="113.274824">
        <time>2026-09-27T00:16:26Z</time>
      </trkpt>
      <trkpt lat="23.063474" lon="113.274739">
        <time>2026-09-27T00:16:31Z</time>
      </trkpt>
      <trkpt lat="23.063508" lon="113.274631">
        <time>2026-09-27T00:16:36Z</time>
      </trkpt>
      <trkpt lat="23.063525" lon="113.274512">
        <time>2026-09-27T00:16:41Z</time>
      </trkpt>
      <trkpt lat="23.063556" lon="113.274395">
        <time>2026-09-27T00:16:46Z</time>
      </trkpt>
      <trkpt lat="23.063608" lon="113.274294">
        <time>2026-09-27T00:16:51Z</time>
      </trkpt>
      <trkpt lat="23.063679" lon="113.274209">
        <time>2026-09-27T00:16:56Z</time>
      </trkpt>
      <trkpt lat="23.063771" lon="113.274138">
        <time>2026-09-27T00:17:01Z</time>
      </trkpt>
      <trkpt lat="23.063845" lon="113.274047">
        <time>2026-09-27T00:17:06Z</time>
      </trkpt>
      <trkpt lat="23.063904" lon="113.273946">
        <time>2026-09-27T00:17:11Z</time>
      </trkpt>
      <trkpt lat="23.063964" lon="113.27384">
        <time>2026-09-27T00:17:16Z</time>
      </trkpt>
      <trkpt lat="23.064042" lon="113.273744">
        <time>2026-09-27T00:17:21Z</time>
      </trkpt>
      <trkpt lat="23.064128" lon="113.27368">
        <time>2026-09-27T00:17:26Z</time>
      </trkpt>
      <trkpt lat="23.064212" lon="113.273622">
        <time>2026-09-27T00:17:31Z</time>
      </trkpt>
      <trkpt lat="23.064294" lon="113.273549">
        <time>2026-09-27T00:17:36Z</time>
      </trkpt>
      <trkpt lat="23.064382" lon="113.273469">
        <time>2026-09-27T00:17:41Z</time>
      </trkpt>
      <trkpt lat="23.064466" lon="113.273394">
        <time>2026-09-27T00:17:46Z</time>
      </trkpt>
      <trkpt lat="23.064533" lon="113.273301">
        <time>2026-09-27T00:17:51Z</time>
      </trkpt>
      <trkpt lat="23.064562" lon="113.27319">
        <time>2026-09-27T00:17:56Z</time>
      </trkpt>
      <trkpt lat="23.064551" lon="113.27307">
        <time>2026-09-27T00:18:01Z</time>
      </trkpt>
      <trkpt lat="23.064516" lon="113.27295">
        <time>2026-09-27T00:18:06Z</time>
      </trkpt>
      <trkpt lat="23.064479" lon="113.272831">
        <time>2026-09-27T00:18:11Z</time>
      </trkpt>
      <trkpt lat="23.064447" lon="113.272712">
        <time>2026-09-27T00:18:16Z</time>
      </trkpt>
      <trkpt lat="23.064439" lon="113.272594">
        <time>2026-09-27T00:18:21Z</time>
      </trkpt>
      <trkpt lat="23.064493" lon="113.272491">
        <time>2026-09-27T00:18:26Z</time>
      </trkpt>
      <trkpt lat="23.064547" lon="113.27238">
        <time>2026-09-27T00:18:31Z</time>
      </trkpt>
      <trkpt lat="23.064556" lon="113.27226">
        <time>2026-09-27T00:18:36Z</time>
      </trkpt>
      <trkpt lat="23.06458" lon="113.272148">
        <time>2026-09-27T00:18:41Z</time>
      </trkpt>
      <trkpt lat="23.064633" lon="113.272051">
        <time>2026-09-27T00:18:46Z</time>
      </trkpt>
      <trkpt lat="23.064677" lon="113.271961">
        <time>2026-09-27T00:18:51Z</time>
      </trkpt>
      <trkpt lat="23.064722" lon="113.271867">
        <time>2026-09-27T00:18:56Z</time>
      </trkpt>
      <trkpt lat="23.064772" lon="113.271767">
        <time>2026-09-27T00:19:01Z</time>
      </trkpt>
      <trkpt lat="23.064823" lon="113.271667">
        <time>2026-09-27T00:19:06Z</time>
      </trkpt>
      <trkpt lat="23.064869" lon="113.27157">
        <time>2026-09-27T00:19:11Z</time>
      </trkpt>
      <trkpt lat="23.064916" lon="113.271478">
        <time>2026-09-27T00:19:16Z</time>
      </trkpt>
      <trkpt lat="23.064959" lon="113.27138">
        <time>2026-09-27T00:19:21Z</time>
      </trkpt>
      <trkpt lat="23.064997" lon="113.271275">
        <time>2026-09-27T00:19:26Z</time>
      </trkpt>
      <trkpt lat="23.06507" lon="113.271188">
        <time>2026-09-27T00:19:31Z</time>
      </trkpt>
      <trkpt lat="23.065166" lon="113.271148">
        <time>2026-09-27T00:19:36Z</time>
      </trkpt>
      <trkpt lat="23.065241" lon="113.271086">
        <time>2026-09-27T00:19:41Z</time>
      </trkpt>
      <trkpt lat="23.065253" lon="113.270963">
        <time>2026-09-27T00:19:46Z</time>
      </trkpt>
      <trkpt lat="23.065278" lon="113.270859">
        <time>2026-09-27T00:19:51Z</time>
      </trkpt>
      <trkpt lat="23.065314" lon="113.270758">
        <time>2026-09-27T00:19:56Z</time>
      </trkpt>
      <trkpt lat="23.065332" lon="113.270657">
        <time>2026-09-27T00:20:01Z</time>
      </trkpt>
      <trkpt lat="23.065376" lon="113.270556">
        <time>2026-09-27T00:20:06Z</time>
      </trkpt>
      <trkpt lat="23.065427" lon="113.270459">
        <time>2026-09-27T00:20:11Z</time>
      </trkpt>
      <trkpt lat="23.065473" lon="113.270351">
        <time>2026-09-27T00:20:16Z</time>
      </trkpt>
      <trkpt lat="23.065515" lon="113.270247">
        <time>2026-09-27T00:20:21Z</time>
      </trkpt>
      <trkpt lat="23.065547" lon="113.270139">
        <time>2026-09-27T00:20:26Z</time>
      </trkpt>
      <trkpt lat="23.065583" lon="113.270035">
        <time>2026-09-27T00:20:31Z</time>
      </trkpt>
      <trkpt lat="23.065617" lon="113.269931">
        <time>2026-09-27T00:20:36Z</time>
      </trkpt>
      <trkpt lat="23.065644" lon="113.269825">
        <time>2026-09-27T00:20:41Z</time>
      </trkpt>
      <trkpt lat="23.065666" lon="113.269715">
        <time>2026-09-27T00:20:46Z</time>
      </trkpt>
      <trkpt lat="23.065697" lon="113.269607">
        <time>2026-09-27T00:20:51Z</time>
      </trkpt>
      <trkpt lat="23.065728" lon="113.269499">
        <time>2026-09-27T00:20:56Z</time>
      </trkpt>
      <trkpt lat="23.065741" lon="113.269382">
        <time>2026-09-27T00:21:01Z</time>
      </trkpt>
      <trkpt lat="23.065772" lon="113.269271">
        <time>2026-09-27T00:21:06Z</time>
      </trkpt>
      <trkpt lat="23.065803" lon="113.269165">
        <time>2026-09-27T00:21:11Z</time>
      </trkpt>
      <trkpt lat="23.065836" lon="113.269063">
        <time>2026-09-27T00:21:16Z</time>
      </trkpt>
      <trkpt lat="23.065881" lon="113.268971">
        <time>2026-09-27T00:21:21Z</time>
      </trkpt>
      <trkpt lat="23.065921" lon="113.268875">
        <time>2026-09-27T00:21:26Z</time>
      </trkpt>
      <trkpt lat="23.065965" lon="113.268777">
        <time>2026-09-27T00:21:31Z</time>
      </trkpt>
      <trkpt lat="23.06601" lon="113.268666">
        <time>2026-09-27T00:21:36Z</time>
      </trkpt>
      <trkpt lat="23.066072" lon="113.268558">
        <time>2026-09-27T00:21:41Z</time>
      </trkpt>
      <trkpt lat="23.066137" lon="113.268451">
        <time>2026-09-27T00:21:46Z</time>
      </trkpt>
      <trkpt lat="23.066201" lon="113.268351">
        <time>2026-09-27T00:21:51Z</time>
      </trkpt>
      <trkpt lat="23.066272" lon="113.268255">
        <time>2026-09-27T00:21:56Z</time>
      </trkpt>
      <trkpt lat="23.066357" lon="113.268177">
        <time>2026-09-27T00:22:01Z</time>
      </trkpt>
      <trkpt lat="23.066456" lon="113.268136">
        <time>2026-09-27T00:22:06Z</time>
      </trkpt>
      <trkpt lat="23.066562" lon="113.268137">
        <time>2026-09-27T00:22:11Z</time>
      </trkpt>
      <trkpt lat="23.066666" lon="113.268173">
        <time>2026-09-27T00:22:16Z</time>
      </trkpt>
      <trkpt lat="23.066774" lon="113.268182">
        <time>2026-09-27T00:22:21Z</time>
      </trkpt>
      <trkpt lat="23.066881" lon="113.268181">
        <time>2026-09-27T00:22:26Z</time>
      </trkpt>
      <trkpt lat="23.066985" lon="113.268198">
        <time>2026-09-27T00:22:31Z</time>
      </trkpt>
      <trkpt lat="23.067067" lon="113.268241">
        <time>2026-09-27T00:22:36Z</time>
      </trkpt>
      <trkpt lat="23.067148" lon="113.268293">
        <time>2026-09-27T00:22:41Z</time>
      </trkpt>
      <trkpt lat="23.067235" lon="113.268353">
        <time>2026-09-27T00:22:46Z</time>
      </trkpt>
      <trkpt lat="23.067337" lon="113.2684">
        <time>2026-09-27T00:22:51Z</time>
      </trkpt>
      <trkpt lat="23.067427" lon="113.268437">
        <time>2026-09-27T00:22:56Z</time>
      </trkpt>
      <trkpt lat="23.067528" lon="113.268489">
        <time>2026-09-27T00:23:01Z</time>
      </trkpt>
      <trkpt lat="23.067637" lon="113.268542">
        <time>2026-09-27T00:23:06Z</time>
      </trkpt>
      <trkpt lat="23.067739" lon="113.268601">
        <time>2026-09-27T00:23:11Z</time>
      </trkpt>
      <trkpt lat="23.067839" lon="113.26866">
        <time>2026-09-27T00:23:16Z</time>
      </trkpt>
      <trkpt lat="23.067935" lon="113.268724">
        <time>2026-09-27T00:23:21Z</time>
      </trkpt>
      <trkpt lat="23.068031" lon="113.268763">
        <time>2026-09-27T00:23:26Z</time>
      </trkpt>
      <trkpt lat="23.068123" lon="113.268801">
        <time>2026-09-27T00:23:31Z</time>
      </trkpt>
      <trkpt lat="23.068219" lon="113.268838">
        <time>2026-09-27T00:23:36Z</time>
      </trkpt>
      <trkpt lat="23.068319" lon="113.268868">
        <time>2026-09-27T00:23:41Z</time>
      </trkpt>
      <trkpt lat="23.068415" lon="113.26892">
        <time>2026-09-27T00:23:46Z</time>
      </trkpt>
      <trkpt lat="23.068506" lon="113.268975">
        <time>2026-09-27T00:23:51Z</time>
      </trkpt>
      <trkpt lat="23.0686" lon="113.269033">
        <time>2026-09-27T00:23:56Z</time>
      </trkpt>
      <trkpt lat="23.068697" lon="113.269095">
        <time>2026-09-27T00:24:01Z</time>
      </trkpt>
      <trkpt lat="23.068789" lon="113.269148">
        <time>2026-09-27T00:24:06Z</time>
      </trkpt>
      <trkpt lat="23.068891" lon="113.269185">
        <time>2026-09-27T00:24:11Z</time>
      </trkpt>
      <trkpt lat="23.069008" lon="113.26921">
        <time>2026-09-27T00:24:16Z</time>
      </trkpt>
      <trkpt lat="23.069107" lon="113.269248">
        <time>2026-09-27T00:24:21Z</time>
      </trkpt>
      <trkpt lat="23.069188" lon="113.269324">
        <time>2026-09-27T00:24:26Z</time>
      </trkpt>
      <trkpt lat="23.06926" lon="113.26942">
        <time>2026-09-27T00:24:31Z</time>
      </trkpt>
      <trkpt lat="23.069376" lon="113.269465">
        <time>2026-09-27T00:24:36Z</time>
      </trkpt>
      <trkpt lat="23.069487" lon="113.269512">
        <time>2026-09-27T00:24:41Z</time>
      </trkpt>
      <trkpt lat="23.069588" lon="113.269553">
        <time>2026-09-27T00:24:46Z</time>
      </trkpt>
      <trkpt lat="23.069686" lon="113.269588">
        <time>2026-09-27T00:24:51Z</time>
      </trkpt>
      <trkpt lat="23.069779" lon="113.269631">
        <time>2026-09-27T00:24:56Z</time>
      </trkpt>
      <trkpt lat="23.069867" lon="113.269689">
        <time>2026-09-27T00:25:01Z</time>
      </trkpt>
      <trkpt lat="23.06995" lon="113.269765">
        <time>2026-09-27T00:25:06Z</time>
      </trkpt>
      <trkpt lat="23.070038" lon="113.26983">
        <time>2026-09-27T00:25:11Z</time>
      </trkpt>
      <trkpt lat="23.070127" lon="113.269883">
        <time>2026-09-27T00:25:16Z</time>
      </trkpt>
      <trkpt lat="23.070223" lon="113.269918">
        <time>2026-09-27T00:25:21Z</time>
      </trkpt>
      <trkpt lat="23.070315" lon="113.269942">
        <time>2026-09-27T00:25:26Z</time>
      </trkpt>
      <trkpt lat="23.070425" lon="113.269944">
        <time>2026-09-27T00:25:31Z</time>
      </trkpt>
      <trkpt lat="23.070504" lon="113.269968">
        <time>2026-09-27T00:25:36Z</time>
      </trkpt>
      <trkpt lat="23.070575" lon="113.269999">
        <time>2026-09-27T00:25:41Z</time>
      </trkpt>
      <trkpt lat="23.070669" lon="113.270042">
        <time>2026-09-27T00:25:46Z</time>
      </trkpt>
      <trkpt lat="23.070753" lon="113.270098">
        <time>2026-09-27T00:25:51Z</time>
      </trkpt>
      <trkpt lat="23.07083" lon="113.270177">
        <time>2026-09-27T00:25:56Z</time>
      </trkpt>
      <trkpt lat="23.070904" lon="113.27024">
        <time>2026-09-27T00:26:01Z</time>
      </trkpt>
      <trkpt lat="23.070992" lon="113.270266">
        <time>2026-09-27T00:26:06Z</time>
      </trkpt>
      <trkpt lat="23.071092" lon="113.270302">
        <time>2026-09-27T00:26:11Z</time>
      </trkpt>
      <trkpt lat="23.071184" lon="113.270363">
        <time>2026-09-27T00:26:16Z</time>
      </trkpt>
      <trkpt lat="23.071259" lon="113.270414">
        <time>2026-09-27T00:26:21Z</time>
      </trkpt>
      <trkpt lat="23.071335" lon="113.270467">
        <time>2026-09-27T00:26:26Z</time>
      </trkpt>
      <trkpt lat="23.071417" lon="113.270519">
        <time>2026-09-27T00:26:31Z</time>
      </trkpt>
      <trkpt lat="23.071512" lon="113.27055">
        <time>2026-09-27T00:26:36Z</time>
      </trkpt>
      <trkpt lat="23.0716" lon="113.27058">
        <time>2026-09-27T00:26:41Z</time>
      </trkpt>
      <trkpt lat="23.071696" lon="113.27061">
        <time>2026-09-27T00:26:46Z</time>
      </trkpt>
      <trkpt lat="23.071796" lon="113.270654">
        <time>2026-09-27T00:26:51Z</time>
      </trkpt>
      <trkpt lat="23.071885" lon="113.270732">
        <time>2026-09-27T00:26:56Z</time>
      </trkpt>
      <trkpt lat="23.071971" lon="113.270789">
        <time>2026-09-27T00:27:01Z</time>
      </trkpt>
      <trkpt lat="23.072063" lon="113.270826">
        <time>2026-09-27T00:27:06Z</time>
      </trkpt>
      <trkpt lat="23.072161" lon="113.270863">
        <time>2026-09-27T00:27:11Z</time>
      </trkpt>
      <trkpt lat="23.072239" lon="113.270914">
        <time>2026-09-27T00:27:16Z</time>
      </trkpt>
      <trkpt lat="23.072309" lon="113.270951">
        <time>2026-09-27T00:27:21Z</time>
      </trkpt>
      <trkpt lat="23.072416" lon="113.270966">
        <time>2026-09-27T00:27:26Z</time>
      </trkpt>
      <trkpt lat="23.07253" lon="113.270991">
        <time>2026-09-27T00:27:31Z</time>
      </trkpt>
      <trkpt lat="23.072616" lon="113.271038">
        <time>2026-09-27T00:27:36Z</time>
      </trkpt>
      <trkpt lat="23.072699" lon="113.27108">
        <time>2026-09-27T00:27:41Z</time>
      </trkpt>
      <trkpt lat="23.072788" lon="113.271114">
        <time>2026-09-27T00:27:46Z</time>
      </trkpt>
      <trkpt lat="23.072893" lon="113.271139">
        <time>2026-09-27T00:27:51Z</time>
      </trkpt>
      <trkpt lat="23.07301" lon="113.271185">
        <time>2026-09-27T00:27:56Z</time>
      </trkpt>
      <trkpt lat="23.073128" lon="113.271227">
        <time>2026-09-27T00:28:01Z</time>
      </trkpt>
      <trkpt lat="23.073224" lon="113.271283">
        <time>2026-09-27T00:28:06Z</time>
      </trkpt>
      <trkpt lat="23.073341" lon="113.271313">
        <time>2026-09-27T00:28:11Z</time>
      </trkpt>
      <trkpt lat="23.073439" lon="113.271348">
        <time>2026-09-27T00:28:16Z</time>
      </trkpt>
      <trkpt lat="23.073522" lon="113.271401">
        <time>2026-09-27T00:28:21Z</time>
      </trkpt>
      <trkpt lat="23.0736" lon="113.271455">
        <time>2026-09-27T00:28:26Z</time>
      </trkpt>
      <trkpt lat="23.073675" lon="113.27152">
        <time>2026-09-27T00:28:31Z</time>
      </trkpt>
      <trkpt lat="23.073763" lon="113.271569">
        <time>2026-09-27T00:28:36Z</time>
      </trkpt>
      <trkpt lat="23.073854" lon="113.271613">
        <time>2026-09-27T00:28:41Z</time>
      </trkpt>
      <trkpt lat="23.073949" lon="113.271635">
        <time>2026-09-27T00:28:46Z</time>
      </trkpt>
      <trkpt lat="23.074038" lon="113.271675">
        <time>2026-09-27T00:28:51Z</time>
      </trkpt>
      <trkpt lat="23.074104" lon="113.271749">
        <time>2026-09-27T00:28:56Z</time>
      </trkpt>
      <trkpt lat="23.074098" lon="113.271831">
        <time>2026-09-27T00:29:01Z</time>
      </trkpt>
      <trkpt lat="23.074049" lon="113.271921">
        <time>2026-09-27T00:29:06Z</time>
      </trkpt>
      <trkpt lat="23.073999" lon="113.272016">
        <time>2026-09-27T00:29:11Z</time>
      </trkpt>
      <trkpt lat="23.073958" lon="113.272106">
        <time>2026-09-27T00:29:16Z</time>
      </trkpt>
      <trkpt lat="23.073921" lon="113.272201">
        <time>2026-09-27T00:29:21Z</time>
      </trkpt>
      <trkpt lat="23.073878" lon="113.272301">
        <time>2026-09-27T00:29:26Z</time>
      </trkpt>
      <trkpt lat="23.073837" lon="113.272404">
        <time>2026-09-27T00:29:31Z</time>
      </trkpt>
      <trkpt lat="23.073801" lon="113.272505">
        <time>2026-09-27T00:29:36Z</time>
      </trkpt>
      <trkpt lat="23.073763" lon="113.272591">
        <time>2026-09-27T00:29:41Z</time>
      </trkpt>
      <trkpt lat="23.073719" lon="113.27268">
        <time>2026-09-27T00:29:46Z</time>
      </trkpt>
      <trkpt lat="23.073673" lon="113.27277">
        <time>2026-09-27T00:29:51Z</time>
      </trkpt>
      <trkpt lat="23.073643" lon="113.272864">
        <time>2026-09-27T00:29:56Z</time>
      </trkpt>
      <trkpt lat="23.073603" lon="113.272939">
        <time>2026-09-27T00:30:01Z</time>
      </trkpt>
      <trkpt lat="23.073583" lon="113.272964">
        <time>2026-09-27T00:30:06Z</time>
      </trkpt>
      <trkpt lat="23.073624" lon="113.272904">
        <time>2026-09-27T00:30:11Z</time>
      </trkpt>
      <trkpt lat="23.073658" lon="113.272848">
        <time>2026-09-27T00:30:16Z</time>
      </trkpt>
      <trkpt lat="23.073677" lon="113.27286">
        <time>2026-09-27T00:30:21Z</time>
      </trkpt>
      <trkpt lat="23.073749" lon="113.272929">
        <time>2026-09-27T00:30:26Z</time>
      </trkpt>
      <trkpt lat="23.073857" lon="113.272981">
        <time>2026-09-27T00:30:31Z</time>
      </trkpt>
      <trkpt lat="23.073957" lon="113.27301">
        <time>2026-09-27T00:30:36Z</time>
      </trkpt>
      <trkpt lat="23.074027" lon="113.272945">
        <time>2026-09-27T00:30:41Z</time>
      </trkpt>
      <trkpt lat="23.074062" lon="113.272844">
        <time>2026-09-27T00:30:46Z</time>
      </trkpt>
      <trkpt lat="23.074099" lon="113.272736">
        <time>2026-09-27T00:30:51Z</time>
      </trkpt>
      <trkpt lat="23.074139" lon="113.272654">
        <time>2026-09-27T00:30:56Z</time>
      </trkpt>
      <trkpt lat="23.074175" lon="113.272563">
        <time>2026-09-27T00:31:01Z</time>
      </trkpt>
      <trkpt lat="23.074214" lon="113.27245">
        <time>2026-09-27T00:31:06Z</time>
      </trkpt>
      <trkpt lat="23.074268" lon="113.27234">
        <time>2026-09-27T00:31:11Z</time>
      </trkpt>
      <trkpt lat="23.074303" lon="113.272251">
        <time>2026-09-27T00:31:16Z</time>
      </trkpt>
      <trkpt lat="23.074313" lon="113.272167">
        <time>2026-09-27T00:31:21Z</time>
      </trkpt>
      <trkpt lat="23.074362" lon="113.272081">
        <time>2026-09-27T00:31:26Z</time>
      </trkpt>
      <trkpt lat="23.074458" lon="113.272032">
        <time>2026-09-27T00:31:31Z</time>
      </trkpt>
      <trkpt lat="23.074574" lon="113.272067">
        <time>2026-09-27T00:31:36Z</time>
      </trkpt>
      <trkpt lat="23.074674" lon="113.272122">
        <time>2026-09-27T00:31:41Z</time>
      </trkpt>
      <trkpt lat="23.07476" lon="113.272169">
        <time>2026-09-27T00:31:46Z</time>
      </trkpt>
      <trkpt lat="23.074838" lon="113.272224">
        <time>2026-09-27T00:31:51Z</time>
      </trkpt>
      <trkpt lat="23.074922" lon="113.272284">
        <time>2026-09-27T00:31:56Z</time>
      </trkpt>
      <trkpt lat="23.075009" lon="113.272346">
        <time>2026-09-27T00:32:01Z</time>
      </trkpt>
      <trkpt lat="23.0751" lon="113.272399">
        <time>2026-09-27T00:32:06Z</time>
      </trkpt>
      <trkpt lat="23.075189" lon="113.272431">
        <time>2026-09-27T00:32:11Z</time>
      </trkpt>
      <trkpt lat="23.075281" lon="113.272495">
        <time>2026-09-27T00:32:16Z</time>
      </trkpt>
      <trkpt lat="23.075366" lon="113.272522">
        <time>2026-09-27T00:32:21Z</time>
      </trkpt>
    </trkseg>
  </trk>
</gpx>