<?xml version="1.0" encoding="UTF-8"?>
<gpx xmlns="http://www.topografix.com/GPX/1/1" xmlns:gpxtpx="http://www.garmin.com/xmlschemas/TrackPointExtension/v1" xmlns:xsi="http://www.w3.org/2001/XMLSchema-instance" xsi:schemaLocation="http://www.topografix.com/GPX/1/1 http://www.topografix.com/GPX/1/1/gpx.xsd" version="1.1" creator="gpx.py -- https://github.com/tkrajina/gpxpy">
  <trk>
    <name>gpx from joyrun</name>
    <trkseg>
      <trkpt lat="23.076119" lon="113.272991">
        <time>2026-09-30T22:19:19Z</time>
      </trkpt>
      <trkpt lat="23.076123" lon="113.272943">
        <time>2026-09-30T22:19:24Z</time>
      </trkpt>
      <trkpt lat="23.076054" lon="113.272834">
        <time>2026-09-30T22:19:29Z</time>
      </trkpt>
      <trkpt lat="23.075911" lon="113.272731">
        <time>2026-09-30T22:19:34Z</time>
      </trkpt>
      <trkpt lat="23.075789" lon="113.272643">
        <time>2026-09-30T22:19:39Z</time>
      </trkpt>
      <trkpt lat="23.075683" lon="113.272565">
        <time>2026-09-30T22:19:44Z</time>
      </trkpt>
      <trkpt lat="23.075581" lon="113.272504">
        <time>2026-09-30T22:19:49Z</time>
      </trkpt>
      <trkpt lat="23.075462" lon="113.272461">
        <time>2026-09-30T22:19:54Z</time>
      </trkpt>
      <trkpt lat="23.07534" lon="113.272425">
        <time>2026-09-30T22:19:59Z</time>
      </trkpt>
      <trkpt lat="23.075224" lon="113.272389">
        <time>2026-09-30T22:20:04Z</time>
      </trkpt>
      <trkpt lat="23.07513" lon="113.272345">
        <time>2026-09-30T22:20:09Z</time>
      </trkpt>
      <trkpt lat="23.075042" lon="113.272287">
        <time>2026-09-30T22:20:14Z</time>
      </trkpt>
      <trkpt lat="23.074954" lon="113.27221">
        <time>2026-09-30T22:20:19Z</time>
      </trkpt>
      <trkpt lat="23.074857" lon="113.272141">
        <time>2026-09-30T22:20:24Z</time>
      </trkpt>
      <trkpt lat="23.074754" lon="113.272089">
        <time>2026-09-30T22:20:29Z</time>
      </trkpt>
      <trkpt lat="23.074647" lon="113.27204">
        <time>2026-09-30T22:20:34Z</time>
      </trkpt>
      <trkpt lat="23.074535" lon="113.271999">
        <time>2026-09-30T22:20:39Z</time>
      </trkpt>
      <trkpt lat="23.074425" lon="113.271993">
        <time>2026-09-30T22:20:44Z</time>
      </trkpt>
      <trkpt lat="23.074344" lon="113.272089">
        <time>2026-09-30T22:20:49Z</time>
      </trkpt>
      <trkpt lat="23.074295" lon="113.272213">
        <time>2026-09-30T22:20:54Z</time>
      </trkpt>
      <trkpt lat="23.07427" lon="113.27234">
        <time>2026-09-30T22:20:59Z</time>
      </trkpt>
      <trkpt lat="23.074224" lon="113.272463">
        <time>2026-09-30T22:21:04Z</time>
      </trkpt>
      <trkpt lat="23.074163" lon="113.272594">
        <time>2026-09-30T22:21:09Z</time>
      </trkpt>
      <trkpt lat="23.074101" lon="113.272735">
        <time>2026-09-30T22:21:14Z</time>
      </trkpt>
      <trkpt lat="23.07403" lon="113.272866">
        <time>2026-09-30T22:21:19Z</time>
      </trkpt>
      <trkpt lat="23.073916" lon="113.27294">
        <time>2026-09-30T22:21:24Z</time>
      </trkpt>
      <trkpt lat="23.073786" lon="113.272919">
        <time>2026-09-30T22:21:29Z</time>
      </trkpt>
      <trkpt lat="23.073694" lon="113.272839">
        <time>2026-09-30T22:21:34Z</time>
      </trkpt>
      <trkpt lat="23.073709" lon="113.272721">
        <time>2026-09-30T22:21:39Z</time>
      </trkpt>
      <trkpt lat="23.073751" lon="113.2726">
        <time>2026-09-30T22:21:44Z</time>
      </trkpt>
      <trkpt lat="23.073805" lon="113.272501">
        <time>2026-09-30T22:21:49Z</time>
      </trkpt>
      <trkpt lat="23.073841" lon="113.272402">
        <time>2026-09-30T22:21:54Z</time>
      </trkpt>
      <trkpt lat="23.073891" lon="113.272304">
        <time>2026-09-30T22:21:59Z</time>
      </trkpt>
      <trkpt lat="23.073947" lon="113.272198">
        <time>2026-09-30T22:22:04Z</time>
      </trkpt>
      <trkpt lat="23.073988" lon="113.272077">
        <time>2026-09-30T22:22:09Z</time>
      </trkpt>
      <trkpt lat="23.074039" lon="113.271969">
        <time>2026-09-30T22:22:14Z</time>
      </trkpt>
      <trkpt lat="23.074078" lon="113.271865">
        <time>2026-09-30T22:22:19Z</time>
      </trkpt>
      <trkpt lat="23.0741" lon="113.271781">
        <time>2026-09-30T22:22:24Z</time>
      </trkpt>
      <trkpt lat="23.074026" lon="113.271702">
        <time>2026-09-30T22:22:29Z</time>
      </trkpt>
      <trkpt lat="23.073918" lon="113.271648">
        <time>2026-09-30T22:22:34Z</time>
      </trkpt>
      <trkpt lat="23.073817" lon="113.271584">
        <time>2026-09-30T22:22:39Z</time>
      </trkpt>
      <trkpt lat="23.073722" lon="113.271513">
        <time>2026-09-30T22:22:44Z</time>
      </trkpt>
      <trkpt lat="23.07361" lon="113.271471">
        <time>2026-09-30T22:22:49Z</time>
      </trkpt>
      <trkpt lat="23.073508" lon="113.271427">
        <time>2026-09-30T22:22:54Z</time>
      </trkpt>
      <trkpt lat="23.07341" lon="113.271386">
        <time>2026-09-30T22:22:59Z</time>
      </trkpt>
      <trkpt lat="23.073306" lon="113.271332">
        <time>2026-09-30T22:23:04Z</time>
      </trkpt>
      <trkpt lat="23.073208" lon="113.271209">
        <time>2026-09-30T22:23:09Z</time>
      </trkpt>
      <trkpt lat="23.073087" lon="113.271131">
        <time>2026-09-30T22:23:14Z</time>
      </trkpt>
      <trkpt lat="23.072968" lon="113.271072">
        <time>2026-09-30T22:23:19Z</time>
      </trkpt>
      <trkpt lat="23.072865" lon="113.270996">
        <time>2026-09-30T22:23:24Z</time>
      </trkpt>
      <trkpt lat="23.072753" lon="113.270929">
        <time>2026-09-30T22:23:29Z</time>
      </trkpt>
      <trkpt lat="23.072625" lon="113.270868">
        <time>2026-09-30T22:23:34Z</time>
      </trkpt>
      <trkpt lat="23.072495" lon="113.270801">
        <time>2026-09-30T22:23:39Z</time>
      </trkpt>
      <trkpt lat="23.072376" lon="113.270756">
        <time>2026-09-30T22:23:44Z</time>
      </trkpt>
      <trkpt lat="23.072264" lon="113.27071">
        <time>2026-09-30T22:23:49Z</time>
      </trkpt>
      <trkpt lat="23.07215" lon="113.270649">
        <time>2026-09-30T22:23:54Z</time>
      </trkpt>
      <trkpt lat="23.072039" lon="113.270561">
        <time>2026-09-30T22:23:59Z</time>
      </trkpt>
      <trkpt lat="23.071932" lon="113.270483">
        <time>2026-09-30T22:24:04Z</time>
      </trkpt>
      <trkpt lat="23.071818" lon="113.270424">
        <time>2026-09-30T22:24:09Z</time>
      </trkpt>
      <trkpt lat="23.071703" lon="113.270376">
        <time>2026-09-30T22:24:14Z</time>
      </trkpt>
      <trkpt lat="23.071586" lon="113.270336">
        <time>2026-09-30T22:24:19Z</time>
      </trkpt>
      <trkpt lat="23.071464" lon="113.270285">
        <time>2026-09-30T22:24:24Z</time>
      </trkpt>
      <trkpt lat="23.071342" lon="113.270232">
        <time>2026-09-30T22:24:29Z</time>
      </trkpt>
      <trkpt lat="23.071224" lon="113.270176">
        <time>2026-09-30T22:24:34Z</time>
      </trkpt>
      <trkpt lat="23.071109" lon="113.270124">
        <time>2026-09-30T22:24:39Z</time>
      </trkpt>
      <trkpt lat="23.070985" lon="113.270074">
        <time>2026-09-30T22:24:44Z</time>
      </trkpt>
      <trkpt lat="23.070873" lon="113.270036">
        <time>2026-09-30T22:24:49Z</time>
      </trkpt>
      <trkpt lat="23.070766" lon="113.269983">
        <time>2026-09-30T22:24:54Z</time>
      </trkpt>
      <trkpt lat="23.070647" lon="113.269938">
        <time>2026-09-30T22:24:59Z</time>
      </trkpt>
      <trkpt lat="23.070515" lon="113.269895">
        <time>2026-09-30T22:25:04Z</time>
      </trkpt>
      <trkpt lat="23.070393" lon="113.269845">
        <time>2026-09-30T22:25:09Z</time>
      </trkpt>
      <trkpt lat="23.070284" lon="113.269773">
        <time>2026-09-30T22:25:14Z</time>
      </trkpt>
      <trkpt lat="23.070174" lon="113.269729">
        <time>2026-09-30T22:25:19Z</time>
      </trkpt>
      <trkpt lat="23.070058" lon="113.269676">
        <time>2026-09-30T22:25:24Z</time>
      </trkpt>
      <trkpt lat="23.069943" lon="113.269605">
        <time>2026-09-30T22:25:29Z</time>
      </trkpt>
      <trkpt lat="23.069832" lon="113.269533">
        <time>2026-09-30T22:25:34Z</time>
      </trkpt>
      <trkpt lat="23.06971" lon="113.269476">
        <time>2026-09-30T22:25:39Z</time>
      </trkpt>
      <trkpt lat="23.069584" lon="113.269405">
        <time>2026-09-30T22:25:44Z</time>
      </trkpt>
      <trkpt lat="23.069463" lon="113.269346">
        <time>2026-09-30T22:25:49Z</time>
      </trkpt>
      <trkpt lat="23.069335" lon="113.269298">
        <time>2026-09-30T22:25:54Z</time>
      </trkpt>
      <trkpt lat="23.069215" lon="113.269236">
        <time>2026-09-30T22:25:59Z</time>
      </trkpt>
      <trkpt lat="23.069109" lon="113.269157">
        <time>2026-09-30T22:26:04Z</time>
      </trkpt>
      <trkpt lat="23.069" lon="113.269104">
        <time>2026-09-30T22:26:09Z</time>
      </trkpt>
      <trkpt lat="23.068877" lon="113.269062">
        <time>2026-09-30T22:26:14Z</time>
      </trkpt>
      <trkpt lat="23.068763" lon="113.269015">
        <time>2026-09-30T22:26:19Z</time>
      </trkpt>
      <trkpt lat="23.068655" lon="113.268971">
        <time>2026-09-30T22:26:24Z</time>
      </trkpt>
      <trkpt lat="23.068546" lon="113.268933">
        <time>2026-09-30T22:26:29Z</time>
      </trkpt>
      <trkpt lat="23.068436" lon="113.268887">
        <time>2026-09-30T22:26:34Z</time>
      </trkpt>
      <trkpt lat="23.068322" lon="113.268835">
        <time>2026-09-30T22:26:39Z</time>
      </trkpt>
      <trkpt lat="23.068222" lon="113.268803">
        <time>2026-09-30T22:26:44Z</time>
      </trkpt>
      <trkpt lat="23.068124" lon="113.268761">
        <time>2026-09-30T22:26:49Z</time>
      </trkpt>
      <trkpt lat="23.068034" lon="113.268637">
        <time>2026-09-30T22:26:54Z</time>
      </trkpt>
      <trkpt lat="23.067941" lon="113.268526">
        <time>2026-09-30T22:26:59Z</time>
      </trkpt>
      <trkpt lat="23.067817" lon="113.268462">
        <time>2026-09-30T22:27:04Z</time>
      </trkpt>
      <trkpt lat="23.06769" lon="113.268393">
        <time>2026-09-30T22:27:09Z</time>
      </trkpt>
      <trkpt lat="23.067568" lon="113.268329">
        <time>2026-09-30T22:27:14Z</time>
      </trkpt>
      <trkpt lat="23.067446" lon="113.268276">
        <time>2026-09-30T22:27:19Z</time>
      </trkpt>
      <trkpt lat="23.067328" lon="113.268223">
        <time>2026-09-30T22:27:24Z</time>
      </trkpt>
      <trkpt lat="23.067225" lon="113.268166">
        <time>2026-09-30T22:27:29Z</time>
      </trkpt>
      <trkpt lat="23.067123" lon="113.26812">
        <time>2026-09-30T22:27:34Z</time>
      </trkpt>
      <trkpt lat="23.06701" lon="113.268069">
        <time>2026-09-30T22:27:39Z</time>
      </trkpt>
      <trkpt lat="23.066881" lon="113.268023">
        <time>2026-09-30T22:27:44Z</time>
      </trkpt>
      <trkpt lat="23.066743" lon="113.267997">
        <time>2026-09-30T22:27:49Z</time>
      </trkpt>
      <trkpt lat="23.0666" lon="113.267979">
        <time>2026-09-30T22:27:54Z</time>
      </trkpt>
      <trkpt lat="23.066463" lon="113.267944">
        <time>2026-09-30T22:27:59Z</time>
      </trkpt>
      <trkpt lat="23.066335" lon="113.267954">
        <time>2026-09-30T22:28:04Z</time>
      </trkpt>
      <trkpt lat="23.066214" lon="113.26802">
        <time>2026-09-30T22:28:09Z</time>
      </trkpt>
      <trkpt lat="23.066112" lon="113.268123">
        <time>2026-09-30T22:28:14Z</time>
      </trkpt>
      <trkpt lat="23.066023" lon="113.268237">
        <time>2026-09-30T22:28:19Z</time>
      </trkpt>
      <trkpt lat="23.065938" lon="113.268356">
        <time>2026-09-30T22:28:24Z</time>
      </trkpt>
      <trkpt lat="23.065858" lon="113.268477">
        <time>2026-09-30T22:28:29Z</time>
      </trkpt>
      <trkpt lat="23.06579" lon="113.268606">
        <time>2026-09-30T22:28:34Z</time>
      </trkpt>
      <trkpt lat="23.065725" lon="113.268728">
        <time>2026-09-30T22:28:39Z</time>
      </trkpt>
      <trkpt lat="23.065675" lon="113.268856">
        <time>2026-09-30T22:28:44Z</time>
      </trkpt>
      <trkpt lat="23.065628" lon="113.268979">
        <time>2026-09-30T22:28:49Z</time>
      </trkpt>
      <trkpt lat="23.065589" lon="113.269106">
        <time>2026-09-30T22:28:54Z</time>
      </trkpt>
      <trkpt lat="23.06555" lon="113.269234">
        <time>2026-09-30T22:28:59Z</time>
      </trkpt>
      <trkpt lat="23.065518" lon="113.269363">
        <time>2026-09-30T22:29:04Z</time>
      </trkpt>
      <trkpt lat="23.065488" lon="113.269498">
        <time>2026-09-30T22:29:09Z</time>
      </trkpt>
      <trkpt lat="23.065458" lon="113.269632">
        <time>2026-09-30T22:29:14Z</time>
      </trkpt>
      <trkpt lat="23.065425" lon="113.269761">
        <time>2026-09-30T22:29:19Z</time>
      </trkpt>
      <trkpt lat="23.065384" lon="113.269891">
        <time>2026-09-30T22:29:24Z</time>
      </trkpt>
      <trkpt lat="23.065345" lon="113.270019">
        <time>2026-09-30T22:29:29Z</time>
      </trkpt>
      <trkpt lat="23.065304" lon="113.270139">
        <time>2026-09-30T22:29:34Z</time>
      </trkpt>
      <trkpt lat="23.06525" lon="113.270259">
        <time>2026-09-30T22:29:39Z</time>
      </trkpt>
      <trkpt lat="23.06519" lon="113.270381">
        <time>2026-09-30T22:29:44Z</time>
      </trkpt>
      <trkpt lat="23.06513" lon="113.270506">
        <time>2026-09-30T22:29:49Z</time>
      </trkpt>
      <trkpt lat="23.065076" lon="113.27063">
        <time>2026-09-30T22:29:54Z</time>
      </trkpt>
      <trkpt lat="23.065023" lon="113.270749">
        <time>2026-09-30T22:29:59Z</time>
      </trkpt>
      <trkpt lat="23.064969" lon="113.270872">
        <time>2026-09-30T22:30:04Z</time>
      </trkpt>
      <trkpt lat="23.064913" lon="113.27099">
        <time>2026-09-30T22:30:09Z</time>
      </trkpt>
      <trkpt lat="23.064855" lon="113.271106">
        <time>2026-09-30T22:30:14Z</time>
      </trkpt>
      <trkpt lat="23.064799" lon="113.271229">
        <time>2026-09-30T22:30:19Z</time>
      </trkpt>
      <trkpt lat="23.064741" lon="113.271349">
        <time>2026-09-30T22:30:24Z</time>
      </trkpt>
      <trkpt lat="23.064688" lon="113.271467">
        <time>2026-09-30T22:30:29Z</time>
      </trkpt>
      <trkpt lat="23.06463" lon="113.271586">
        <time>2026-09-30T22:30:34Z</time>
      </trkpt>
      <trkpt lat="23.064571" lon="113.27171">
        <time>2026-09-30T22:30:39Z</time>
      </trkpt>
      <trkpt lat="23.064516" lon="113.271835">
        <time>2026-09-30T22:30:44Z</time>
      </trkpt>
      <trkpt lat="23.06446" lon="113.271959">
        <time>2026-09-30T22:30:49Z</time>
      </trkpt>
      <trkpt lat="23.064403" lon="113.272081">
        <time>2026-09-30T22:30:54Z</time>
      </trkpt>
      <trkpt lat="23.064352" lon="113.272209">
        <time>2026-09-30T22:30:59Z</time>
      </trkpt>
      <trkpt lat="23.064332" lon="113.272345">
        <time>2026-09-30T22:31:04Z</time>
      </trkpt>
      <trkpt lat="23.064326" lon="113.272486">
        <time>2026-09-30T22:31:09Z</time>
      </trkpt>
      <trkpt lat="23.064336" lon="113.272626">
        <time>2026-09-30T22:31:14Z</time>
      </trkpt>
      <trkpt lat="23.064373" lon="113.272762">
        <time>2026-09-30T22:31:19Z</time>
      </trkpt>
      <trkpt lat="23.064425" lon="113.2729">
        <time>2026-09-30T22:31:24Z</time>
      </trkpt>
      <trkpt lat="23.064479" lon="113.273064">
        <time>2026-09-30T22:31:29Z</time>
      </trkpt>
      <trkpt lat="23.06448" lon="113.273248">
        <time>2026-09-30T22:31:34Z</time>
      </trkpt>
      <trkpt lat="23.064369" lon="113.27339">
        <time>2026-09-30T22:31:39Z</time>
      </trkpt>
      <trkpt lat="23.064207" lon="113.273499">
        <time>2026-09-30T22:31:44Z</time>
      </trkpt>
      <trkpt lat="23.064051" lon="113.273615">
        <time>2026-09-30T22:31:49Z</time>
      </trkpt>
      <trkpt lat="23.063921" lon="113.273756">
        <time>2026-09-30T22:31:54Z</time>
      </trkpt>
      <trkpt lat="23.063818" lon="113.273911">
        <time>2026-09-30T22:31:59Z</time>
      </trkpt>
      <trkpt lat="23.063724" lon="113.274058">
        <time>2026-09-30T22:32:04Z</time>
      </trkpt>
      <trkpt lat="23.063605" lon="113.274166">
        <time>2026-09-30T22:32:09Z</time>
      </trkpt>
      <trkpt lat="23.063504" lon="113.274277">
        <time>2026-09-30T22:32:14Z</time>
      </trkpt>
      <trkpt lat="23.063444" lon="113.274447">
        <time>2026-09-30T22:32:19Z</time>
      </trkpt>
      <trkpt lat="23.063389" lon="113.274629">
        <time>2026-09-30T22:32:24Z</time>
      </trkpt>
      <trkpt lat="23.063325" lon="113.274805">
        <time>2026-09-30T22:32:29Z</time>
      </trkpt>
      <trkpt lat="23.063264" lon="113.274982">
        <time>2026-09-30T22:32:34Z</time>
      </trkpt>
      <trkpt lat="23.06318" lon="113.275148">
        <time>2026-09-30T22:32:39Z</time>
      </trkpt>
      <trkpt lat="23.063091" lon="113.275303">
        <time>2026-09-30T22:32:44Z</time>
      </trkpt>
      <trkpt lat="23.063004" lon="113.275444">
        <time>2026-09-30T22:32:49Z</time>
      </trkpt>
      <trkpt lat="23.062901" lon="113.275579">
        <time>2026-09-30T22:32:54Z</time>
      </trkpt>
      <trkpt lat="23.062783" lon="113.275705">
        <time>2026-09-30T22:32:59Z</time>
      </trkpt>
      <trkpt lat="23.062662" lon="113.275831">
        <time>2026-09-30T22:33:04Z</time>
      </trkpt>
      <trkpt lat="23.062557" lon="113.275967">
        <time>2026-09-30T22:33:09Z</time>
      </trkpt>
      <trkpt lat="23.062474" lon="113.27612">
        <time>2026-09-30T22:33:14Z</time>
      </trkpt>
      <trkpt lat="23.062412" lon="113.27628">
        <time>2026-09-30T22:33:19Z</time>
      </trkpt>
      <trkpt lat="23.062357" lon="113.276445">
        <time>2026-09-30T22:33:24Z</time>
      </trkpt>
      <trkpt lat="23.06229" lon="113.276608">
        <time>2026-09-30T22:33:29Z</time>
      </trkpt>
      <trkpt lat="23.062234" lon="113.276766">
        <time>2026-09-30T22:33:34Z</time>
      </trkpt>
      <trkpt lat="23.062179" lon="113.276922">
        <time>2026-09-30T22:33:39Z</time>
      </trkpt>
      <trkpt lat="23.062124" lon="113.277077">
        <time>2026-09-30T22:33:44Z</time>
      </trkpt>
      <trkpt lat="23.062061" lon="113.277242">
        <time>2026-09-30T22:33:49Z</time>
      </trkpt>
      <trkpt lat="23.061996" lon="113.277407">
        <time>2026-09-30T22:33:54Z</time>
      </trkpt>
      <trkpt lat="23.061939" lon="113.277574">
        <time>2026-09-30T22:33:59Z</time>
      </trkpt>
      <trkpt lat="23.06188" lon="113.277739">
        <time>2026-09-30T22:34:04Z</time>
      </trkpt>
      <trkpt lat="23.061854" lon="113.277909">
        <time>2026-09-30T22:34:09Z</time>
      </trkpt>
      <trkpt lat="23.061857" lon="113.278079">
        <time>2026-09-30T22:34:14Z</time>
      </trkpt>
      <trkpt lat="23.061865" lon="113.278244">
        <time>2026-09-30T22:34:19Z</time>
      </trkpt>
      <trkpt lat="23.061871" lon="113.278405">
        <time>2026-09-30T22:34:24Z</time>
      </trkpt>
      <trkpt lat="23.061878" lon="113.278566">
        <time>2026-09-30T22:34:29Z</time>
      </trkpt>
      <trkpt lat="23.061861" lon="113.278728">
        <time>2026-09-30T22:34:34Z</time>
      </trkpt>
      <trkpt lat="23.061802" lon="113.278876">
        <time>2026-09-30T22:34:39Z</time>
      </trkpt>
      <trkpt lat="23.061725" lon="113.279015">
        <time>2026-09-30T22:34:44Z</time>
      </trkpt>
      <trkpt lat="23.061646" lon="113.27915">
        <time>2026-09-30T22:34:49Z</time>
      </trkpt>
      <trkpt lat="23.06158" lon="113.279292">
        <time>2026-09-30T22:34:54Z</time>
      </trkpt>
      <trkpt lat="23.061521" lon="113.279441">
        <time>2026-09-30T22:34:59Z</time>
      </trkpt>
      <trkpt lat="23.061464" lon="113.279593">
        <time>2026-09-30T22:35:04Z</time>
      </trkpt>
      <trkpt lat="23.061405" lon="113.279744">
        <time>2026-09-30T22:35:09Z</time>
      </trkpt>
      <trkpt lat="23.061344" lon="113.279904">
        <time>2026-09-30T22:35:14Z</time>
      </trkpt>
      <trkpt lat="23.061277" lon="113.280064">
        <time>2026-09-30T22:35:19Z</time>
      </trkpt>
      <trkpt lat="23.061203" lon="113.280221">
        <time>2026-09-30T22:35:24Z</time>
      </trkpt>
      <trkpt lat="23.061105" lon="113.280371">
        <time>2026-09-30T22:35:29Z</time>
      </trkpt>
      <trkpt lat="23.061018" lon="113.28054">
        <time>2026-09-30T22:35:34Z</time>
      </trkpt>
      <trkpt lat="23.060943" lon="113.28071">
        <time>2026-09-30T22:35:39Z</time>
      </trkpt>
      <trkpt lat="23.060873" lon="113.280874">
        <time>2026-09-30T22:35:44Z</time>
      </trkpt>
      <trkpt lat="23.060803" lon="113.28103">
        <time>2026-09-30T22:35:49Z</time>
      </trkpt>
      <trkpt lat="23.060734" lon="113.281185">
        <time>2026-09-30T22:35:54Z</time>
      </trkpt>
      <trkpt lat="23.060671" lon="113.281341">
        <time>2026-09-30T22:35:59Z</time>
      </trkpt>
      <trkpt lat="23.060607" lon="113.281497">
        <time>2026-09-30T22:36:04Z</time>
      </trkpt>
      <trkpt lat="23.060542" lon="113.28166">
        <time>2026-09-30T22:36:09Z</time>
      </trkpt>
      <trkpt lat="23.060473" lon="113.281818">
        <time>2026-09-30T22:36:14Z</time>
      </trkpt>
      <trkpt lat="23.060404" lon="113.281971">
        <time>2026-09-30T22:36:19Z</time>
      </trkpt>
      <trkpt lat="23.060338" lon="113.282119">
        <time>2026-09-30T22:36:24Z</time>
      </trkpt>
      <trkpt lat="23.060274" lon="113.282272">
        <time>2026-09-30T22:36:29Z</time>
      </trkpt>
      <trkpt lat="23.060208" lon="113.282425">
        <time>2026-09-30T22:36:34Z</time>
      </trkpt>
      <trkpt lat="23.060143" lon="113.282576">
        <time>2026-09-30T22:36:39Z</time>
      </trkpt>
      <trkpt lat="23.060086" lon="113.282726">
        <time>2026-09-30T22:36:44Z</time>
      </trkpt>
      <trkpt lat="23.060031" lon="113.282879">
        <time>2026-09-30T22:36:49Z</time>
      </trkpt>
      <trkpt lat="23.059964" lon="113.283038">
        <time>2026-09-30T22:36:54Z</time>
      </trkpt>
      <trkpt lat="23.059896" lon="113.283197">
        <time>2026-09-30T22:36:59Z</time>
      </trkpt>
      <trkpt lat="23.059809" lon="113.283345">
        <time>2026-09-30T22:37:04Z</time>
      </trkpt>
      <trkpt lat="23.059731" lon="113.283505">
        <time>2026-09-30T22:37:09Z</time>
      </trkpt>
      <trkpt lat="23.059658" lon="113.283662">
        <time>2026-09-30T22:37:14Z</time>
      </trkpt>
      <trkpt lat="23.059598" lon="113.283824">
        <time>2026-09-30T22:37:19Z</time>
      </trkpt>
      <trkpt lat="23.059532" lon="113.283988">
        <time>2026-09-30T22:37:24Z</time>
      </trkpt>
      <trkpt lat="23.059469" lon="113.284156">
        <time>2026-09-30T22:37:29Z</time>
      </trkpt>
      <trkpt lat="23.0594" lon="113.284321">
        <time>2026-09-30T22:37:34Z</time>
      </trkpt>
      <trkpt lat="23.059343" lon="113.284479">
        <time>2026-09-30T22:37:39Z</time>
      </trkpt>
      <trkpt lat="23.059293" lon="113.284633">
        <time>2026-09-30T22:37:44Z</time>
      </trkpt>
      <trkpt lat="23.059235" lon="113.284784">
        <time>2026-09-30T22:37:49Z</time>
      </trkpt>
      <trkpt lat="23.059169" lon="113.28493">
        <time>2026-09-30T22:37:54Z</time>
      </trkpt>
      <trkpt lat="23.059107" lon="113.285076">
        <time>2026-09-30T22:37:59Z</time>
      </trkpt>
      <trkpt lat="23.059039" lon="113.285228">
        <time>2026-09-30T22:38:04Z</time>
      </trkpt>
      <trkpt lat="23.05897" lon="113.285388">
        <time>2026-09-30T22:38:09Z</time>
      </trkpt>
      <trkpt lat="23.058906" lon="113.285544">
        <time>2026-09-30T22:38:14Z</time>
      </trkpt>
      <trkpt lat="23.058841" lon="113.285704">
        <time>2026-09-30T22:38:19Z</time>
      </trkpt>
      <trkpt lat="23.058775" lon="113.285865">
        <time>2026-09-30T22:38:24Z</time>
      </trkpt>
      <trkpt lat="23.058707" lon="113.286032">
        <time>2026-09-30T22:38:29Z</time>
      </trkpt>
      <trkpt lat="23.05867" lon="113.286207">
        <time>2026-09-30T22:38:34Z</time>
      </trkpt>
      <trkpt lat="23.058764" lon="113.286335">
        <time>2026-09-30T22:38:39Z</time>
      </trkpt>
      <trkpt lat="23.058925" lon="113.286374">
        <time>2026-09-30T22:38:44Z</time>
      </trkpt>
      <trkpt lat="23.059086" lon="113.286396">
        <time>2026-09-30T22:38:49Z</time>
      </trkpt>
      <trkpt lat="23.059241" lon="113.286413">
        <time>2026-09-30T22:38:54Z</time>
      </trkpt>
      <trkpt lat="23.059394" lon="113.28643">
        <time>2026-09-30T22:38:59Z</time>
      </trkpt>
      <trkpt lat="23.059549" lon="113.286437">
        <time>2026-09-30T22:39:04Z</time>
      </trkpt>
      <trkpt lat="23.059701" lon="113.286447">
        <time>2026-09-30T22:39:09Z</time>
      </trkpt>
      <trkpt lat="23.059849" lon="113.286451">
        <time>2026-09-30T22:39:14Z</time>
      </trkpt>
      <trkpt lat="23.059999" lon="113.286451">
        <time>2026-09-30T22:39:19Z</time>
      </trkpt>
      <trkpt lat="23.059954" lon="113.286375">
        <time>2026-09-30T22:39:24Z</time>
      </trkpt>
      <trkpt lat="23.059768" lon="113.286293">
        <time>2026-09-30T22:39:29Z</time>
      </trkpt>
      <trkpt lat="23.059603" lon="113.286251">
        <time>2026-09-30T22:39:34Z</time>
      </trkpt>
      <trkpt lat="23.059444" lon="113.286236">
        <time>2026-09-30T22:39:39Z</time>
      </trkpt>
      <trkpt lat="23.059282" lon="113.28622">
        <time>2026-09-30T22:39:44Z</time>
      </trkpt>
      <trkpt lat="23.059122" lon="113.286192">
        <time>2026-09-30T22:39:49Z</time>
      </trkpt>
      <trkpt lat="23.058956" lon="113.286184">
        <time>2026-09-30T22:39:54Z</time>
      </trkpt>
      <trkpt lat="23.058802" lon="113.286155">
        <time>2026-09-30T22:39:59Z</time>
      </trkpt>
      <trkpt lat="23.058756" lon="113.286034">
        <time>2026-09-30T22:40:04Z</time>
      </trkpt>
      <trkpt lat="23.058829" lon="113.285877">
        <time>2026-09-30T22:40:09Z</time>
      </trkpt>
      <trkpt lat="23.058913" lon="113.285727">
        <time>2026-09-30T22:40:14Z</time>
      </trkpt>
      <trkpt lat="23.058988" lon="113.285568">
        <time>2026-09-30T22:40:19Z</time>
      </trkpt>
      <trkpt lat="23.059061" lon="113.2854">
        <time>2026-09-30T22:40:24Z</time>
      </trkpt>
      <trkpt lat="23.059129" lon="113.285236">
        <time>2026-09-30T22:40:29Z</time>
      </trkpt>
      <trkpt lat="23.059191" lon="113.285072">
        <time>2026-09-30T22:40:34Z</time>
      </trkpt>
      <trkpt lat="23.059264" lon="113.284903">
        <time>2026-09-30T22:40:39Z</time>
      </trkpt>
      <trkpt lat="23.059328" lon="113.284785">
        <time>2026-09-30T22:40:44Z</time>
      </trkpt>
      <trkpt lat="23.059369" lon="113.284741">
        <time>2026-09-30T22:40:49Z</time>
      </trkpt>
      <trkpt lat="23.059413" lon="113.284708">
        <time>2026-09-30T22:40:54Z</time>
      </trkpt>
      <trkpt lat="23.05946" lon="113.284673">
        <time>2026-09-30T22:40:59Z</time>
      </trkpt>
      <trkpt lat="23.059504" lon="113.28463">
        <time>2026-09-30T22:41:04Z</time>
      </trkpt>
      <trkpt lat="23.059533" lon="113.284572">
        <time>2026-09-30T22:41:09Z</time>
      </trkpt>
      <trkpt lat="23.059553" lon="113.284514">
        <time>2026-09-30T22:41:14Z</time>
      </trkpt>
      <trkpt lat="23.059578" lon="113.284463">
        <time>2026-09-30T22:41:19Z</time>
      </trkpt>
      <trkpt lat="23.0596" lon="113.28441">
        <time>2026-09-30T22:41:24Z</time>
      </trkpt>
      <trkpt lat="23.059607" lon="113.28434">
        <time>2026-09-30T22:41:29Z</time>
      </trkpt>
      <trkpt lat="23.059612" lon="113.284273">
        <time>2026-09-30T22:41:34Z</time>
      </trkpt>
      <trkpt lat="23.059614" lon="113.284203">
        <time>2026-09-30T22:41:39Z</time>
      </trkpt>
      <trkpt lat="23.059608" lon="113.284134">
        <time>2026-09-30T22:41:44Z</time>
      </trkpt>
      <trkpt lat="23.059637" lon="113.284072">
        <time>2026-09-30T22:41:49Z</time>
      </trkpt>
      <trkpt lat="23.059666" lon="113.284016">
        <time>2026-09-30T22:41:54Z</time>
      </trkpt>
      <trkpt lat="23.059694" lon="113.283961">
        <time>2026-09-30T22:41:59Z</time>
      </trkpt>
      <trkpt lat="23.059722" lon="113.283897">
        <time>2026-09-30T22:42:04Z</time>
      </trkpt>
      <trkpt lat="23.059767" lon="113.283794">
        <time>2026-09-30T22:42:09Z</time>
      </trkpt>
      <trkpt lat="23.059814" lon="113.283678">
        <time>2026-09-30T22:42:14Z</time>
      </trkpt>
      <trkpt lat="23.059854" lon="113.283572">
        <time>2026-09-30T22:42:19Z</time>
      </trkpt>
      <trkpt lat="23.059891" lon="113.283464">
        <time>2026-09-30T22:42:24Z</time>
      </trkpt>
      <trkpt lat="23.059934" lon="113.283348">
        <time>2026-09-30T22:42:29Z</time>
      </trkpt>
      <trkpt lat="23.059979" lon="113.283237">
        <time>2026-09-30T22:42:34Z</time>
      </trkpt>
      <trkpt lat="23.060041" lon="113.283127">
        <time>2026-09-30T22:42:39Z</time>
      </trkpt>
      <trkpt lat="23.060102" lon="113.283">
        <time>2026-09-30T22:42:44Z</time>
      </trkpt>
      <trkpt lat="23.060152" lon="113.282842">
        <time>2026-09-30T22:42:49Z</time>
      </trkpt>
      <trkpt lat="23.060216" lon="113.282681">
        <time>2026-09-30T22:42:54Z</time>
      </trkpt>
      <trkpt lat="23.060283" lon="113.282522">
        <time>2026-09-30T22:42:59Z</time>
      </trkpt>
      <trkpt lat="23.060356" lon="113.282365">
        <time>2026-09-30T22:43:04Z</time>
      </trkpt>
      <trkpt lat="23.060421" lon="113.282205">
        <time>2026-09-30T22:43:09Z</time>
      </trkpt>
      <trkpt lat="23.060483" lon="113.282043">
        <time>2026-09-30T22:43:14Z</time>
      </trkpt>
      <trkpt lat="23.060557" lon="113.28189">
        <time>2026-09-30T22:43:19Z</time>
      </trkpt>
      <trkpt lat="23.060624" lon="113.281741">
        <time>2026-09-30T22:43:24Z</time>
      </trkpt>
      <trkpt lat="23.060685" lon="113.281606">
        <time>2026-09-30T22:43:29Z</time>
      </trkpt>
      <trkpt lat="23.060747" lon="113.281452">
        <time>2026-09-30T22:43:34Z</time>
      </trkpt>
      <trkpt lat="23.060834" lon="113.281296">
        <time>2026-09-30T22:43:39Z</time>
      </trkpt>
      <trkpt lat="23.060893" lon="113.281143">
        <time>2026-09-30T22:43:44Z</time>
      </trkpt>
      <trkpt lat="23.06095" lon="113.280999">
        <time>2026-09-30T22:43:49Z</time>
      </trkpt>
      <trkpt lat="23.061011" lon="113.280853">
        <time>2026-09-30T22:43:54Z</time>
      </trkpt>
      <trkpt lat="23.061075" lon="113.280703">
        <time>2026-09-30T22:43:59Z</time>
      </trkpt>
      <trkpt lat="23.061143" lon="113.28055">
        <time>2026-09-30T22:44:04Z</time>
      </trkpt>
      <trkpt lat="23.061206" lon="113.280396">
        <time>2026-09-30T22:44:09Z</time>
      </trkpt>
      <trkpt lat="23.06127" lon="113.280244">
        <time>2026-09-30T22:44:14Z</time>
      </trkpt>
      <trkpt lat="23.061342" lon="113.280097">
        <time>2026-09-30T22:44:19Z</time>
      </trkpt>
      <trkpt lat="23.061407" lon="113.279951">
        <time>2026-09-30T22:44:24Z</time>
      </trkpt>
      <trkpt lat="23.061467" lon="113.279807">
        <time>2026-09-30T22:44:29Z</time>
      </trkpt>
      <trkpt lat="23.061524" lon="113.279655">
        <time>2026-09-30T22:44:34Z</time>
      </trkpt>
      <trkpt lat="23.061586" lon="113.279495">
        <time>2026-09-30T22:44:39Z</time>
      </trkpt>
      <trkpt lat="23.061652" lon="113.27933">
        <time>2026-09-30T22:44:44Z</time>
      </trkpt>
      <trkpt lat="23.061721" lon="113.279167">
        <time>2026-09-30T22:44:49Z</time>
      </trkpt>
      <trkpt lat="23.061806" lon="113.279024">
        <time>2026-09-30T22:44:54Z</time>
      </trkpt>
      <trkpt lat="23.061897" lon="113.278879">
        <time>2026-09-30T22:44:59Z</time>
      </trkpt>
      <trkpt lat="23.061962" lon="113.278715">
        <time>2026-09-30T22:45:04Z</time>
      </trkpt>
      <trkpt lat="23.061971" lon="113.278535">
        <time>2026-09-30T22:45:09Z</time>
      </trkpt>
      <trkpt lat="23.061951" lon="113.278362">
        <time>2026-09-30T22:45:14Z</time>
      </trkpt>
      <trkpt lat="23.061935" lon="113.278181">
        <time>2026-09-30T22:45:19Z</time>
      </trkpt>
      <trkpt lat="23.061932" lon="113.277997">
        <time>2026-09-30T22:45:24Z</time>
      </trkpt>
      <trkpt lat="23.061935" lon="113.277815">
        <time>2026-09-30T22:45:29Z</time>
      </trkpt>
      <trkpt lat="23.061969" lon="113.277635">
        <time>2026-09-30T22:45:34Z</time>
      </trkpt>
      <trkpt lat="23.062027" lon="113.27747">
        <time>2026-09-30T22:45:39Z</time>
      </trkpt>
      <trkpt lat="23.062086" lon="113.277311">
        <time>2026-09-30T22:45:44Z</time>
      </trkpt>
      <trkpt lat="23.062144" lon="113.277147">
        <time>2026-09-30T22:45:49Z</time>
      </trkpt>
      <trkpt lat="23.0622" lon="113.276984">
        <time>2026-09-30T22:45:54Z</time>
      </trkpt>
      <trkpt lat="23.062254" lon="113.276821">
        <time>2026-09-30T22:45:59Z</time>
      </trkpt>
      <trkpt lat="23.062317" lon="113.276662">
        <time>2026-09-30T22:46:04Z</time>
      </trkpt>
      <trkpt lat="23.062385" lon="113.276498">
        <time>2026-09-30T22:46:09Z</time>
      </trkpt>
      <trkpt lat="23.062447" lon="113.276334">
        <time>2026-09-30T22:46:14Z</time>
      </trkpt>
      <trkpt lat="23.062519" lon="113.276176">
        <time>2026-09-30T22:46:19Z</time>
      </trkpt>
      <trkpt lat="23.062604" lon="113.276021">
        <time>2026-09-30T22:46:24Z</time>
      </trkpt>
      <trkpt lat="23.062708" lon="113.275883">
        <time>2026-09-30T22:46:29Z</time>
      </trkpt>
      <trkpt lat="23.062834" lon="113.27576">
        <time>2026-09-30T22:46:34Z</time>
      </trkpt>
      <trkpt lat="23.062959" lon="113.275639">
        <time>2026-09-30T22:46:39Z</time>
      </trkpt>
      <trkpt lat="23.063064" lon="113.275506">
        <time>2026-09-30T22:46:44Z</time>
      </trkpt>
      <trkpt lat="23.063142" lon="113.275358">
        <time>2026-09-30T22:46:49Z</time>
      </trkpt>
      <trkpt lat="23.063228" lon="113.275209">
        <time>2026-09-30T22:46:54Z</time>
      </trkpt>
      <trkpt lat="23.063317" lon="113.275061">
        <time>2026-09-30T22:46:59Z</time>
      </trkpt>
      <trkpt lat="23.063376" lon="113.274904">
        <time>2026-09-30T22:47:04Z</time>
      </trkpt>
      <trkpt lat="23.06342" lon="113.274745">
        <time>2026-09-30T22:47:09Z</time>
      </trkpt>
      <trkpt lat="23.063472" lon="113.274587">
        <time>2026-09-30T22:47:14Z</time>
      </trkpt>
      <trkpt lat="23.063524" lon="113.274437">
        <time>2026-09-30T22:47:19Z</time>
      </trkpt>
      <trkpt lat="23.063612" lon="113.274299">
        <time>2026-09-30T22:47:24Z</time>
      </trkpt>
      <trkpt lat="23.06373" lon="113.274185">
        <time>2026-09-30T22:47:29Z</time>
      </trkpt>
      <trkpt lat="23.063837" lon="113.274055">
        <time>2026-09-30T22:47:34Z</time>
      </trkpt>
      <trkpt lat="23.063915" lon="113.273898">
        <time>2026-09-30T22:47:39Z</time>
      </trkpt>
      <trkpt lat="23.064014" lon="113.273747">
        <time>2026-09-30T22:47:44Z</time>
      </trkpt>
      <trkpt lat="23.064148" lon="113.273629">
        <time>2026-09-30T22:47:49Z</time>
      </trkpt>
      <trkpt lat="23.064284" lon="113.273524">
        <time>2026-09-30T22:47:54Z</time>
      </trkpt>
      <trkpt lat="23.06441" lon="113.273419">
        <time>2026-09-30T22:47:59Z</time>
      </trkpt>
      <trkpt lat="23.064521" lon="113.273297">
        <time>2026-09-30T22:48:04Z</time>
      </trkpt>
      <trkpt lat="23.06457" lon="113.273128">
        <time>2026-09-30T22:48:09Z</time>
      </trkpt>
      <trkpt lat="23.064535" lon="113.272951">
        <time>2026-09-30T22:48:14Z</time>
      </trkpt>
      <trkpt lat="23.064475" lon="113.272786">
        <time>2026-09-30T22:48:19Z</time>
      </trkpt>
      <trkpt lat="23.064434" lon="113.27262">
        <time>2026-09-30T22:48:24Z</time>
      </trkpt>
      <trkpt lat="23.064475" lon="113.272466">
        <time>2026-09-30T22:48:29Z</time>
      </trkpt>
      <trkpt lat="23.064627" lon="113.272459">
        <time>2026-09-30T22:48:34Z</time>
      </trkpt>
      <trkpt lat="23.064795" lon="113.272528">
        <time>2026-09-30T22:48:39Z</time>
      </trkpt>
      <trkpt lat="23.064953" lon="113.272584">
        <time>2026-09-30T22:48:44Z</time>
      </trkpt>
      <trkpt lat="23.065106" lon="113.272626">
        <time>2026-09-30T22:48:49Z</time>
      </trkpt>
      <trkpt lat="23.06526" lon="113.272668">
        <time>2026-09-30T22:48:54Z</time>
      </trkpt>
      <trkpt lat="23.065416" lon="113.272717">
        <time>2026-09-30T22:48:59Z</time>
      </trkpt>
      <trkpt lat="23.065571" lon="113.272764">
        <time>2026-09-30T22:49:04Z</time>
      </trkpt>
      <trkpt lat="23.065735" lon="113.272819">
        <time>2026-09-30T22:49:09Z</time>
      </trkpt>
      <trkpt lat="23.0659" lon="113.272835">
        <time>2026-09-30T22:49:14Z</time>
      </trkpt>
      <trkpt lat="23.066064" lon="113.272822">
        <time>2026-09-30T22:49:19Z</time>
      </trkpt>
      <trkpt lat="23.066226" lon="113.272789">
        <time>2026-09-30T22:49:24Z</time>
      </trkpt>
      <trkpt lat="23.066372" lon="113.272738">
        <time>2026-09-30T22:49:29Z</time>
      </trkpt>
      <trkpt lat="23.06652" lon="113.272718">
        <time>2026-09-30T22:49:34Z</time>
      </trkpt>
      <trkpt lat="23.066681" lon="113.272738">
        <time>2026-09-30T22:49:39Z</time>
      </trkpt>
      <trkpt lat="23.066838" lon="113.272708">
        <time>2026-09-30T22:49:44Z</time>
      </trkpt>
      <trkpt lat="23.066969" lon="113.272614">
        <time>2026-09-30T22:49:49Z</time>
      </trkpt>
      <trkpt lat="23.067077" lon="113.272507">
        <time>2026-09-30T22:49:54Z</time>
      </trkpt>
      <trkpt lat="23.067179" lon="113.272403">
        <time>2026-09-30T22:49:59Z</time>
      </trkpt>
      <trkpt lat="23.06722" lon="113.272329">
        <time>2026-09-30T22:50:04Z</time>
      </trkpt>
      <trkpt lat="23.067114" lon="113.272393">
        <time>2026-09-30T22:50:09Z</time>
      </trkpt>
      <trkpt lat="23.066973" lon="113.272508">
        <time>2026-09-30T22:50:14Z</time>
      </trkpt>
      <trkpt lat="23.066825" lon="113.272592">
        <time>2026-09-30T22:50:19Z</time>
      </trkpt>
      <trkpt lat="23.066683" lon="113.272633">
        <time>2026-09-30T22:50:24Z</time>
      </trkpt>
      <trkpt lat="23.066535" lon="113.272603">
        <time>2026-09-30T22:50:29Z</time>
      </trkpt>
      <trkpt lat="23.066442" lon="113.272493">
        <time>2026-09-30T22:50:34Z</time>
      </trkpt>
      <trkpt lat="23.066412" lon="113.272329">
        <time>2026-09-30T22:50:39Z</time>
      </trkpt>
      <trkpt lat="23.066398" lon="113.272158">
        <time>2026-09-30T22:50:44Z</time>
      </trkpt>
      <trkpt lat="23.066401" lon="113.271991">
        <time>2026-09-30T22:50:49Z</time>
      </trkpt>
      <trkpt lat="23.066408" lon="113.271813">
        <time>2026-09-30T22:50:54Z</time>
      </trkpt>
      <trkpt lat="23.06642" lon="113.271646">
        <time>2026-09-30T22:50:59Z</time>
      </trkpt>
      <trkpt lat="23.066402" lon="113.271482">
        <time>2026-09-30T22:51:04Z</time>
      </trkpt>
      <trkpt lat="23.066267" lon="113.2714">
        <time>2026-09-30T22:51:09Z</time>
      </trkpt>
      <trkpt lat="23.066105" lon="113.271366">
        <time>2026-09-30T22:51:14Z</time>
      </trkpt>
      <trkpt lat="23.065943" lon="113.271307">
        <time>2026-09-30T22:51:19Z</time>
      </trkpt>
      <trkpt lat="23.065763" lon="113.271275">
        <time>2026-09-30T22:51:24Z</time>
      </trkpt>
      <trkpt lat="23.06559" lon="113.271246">
        <time>2026-09-30T22:51:29Z</time>
      </trkpt>
      <trkpt lat="23.065436" lon="113.271205">
        <time>2026-09-30T22:51:34Z</time>
      </trkpt>
      <trkpt lat="23.065287" lon="113.271145">
        <time>2026-09-30T22:51:39Z</time>
      </trkpt>
      <trkpt lat="23.065169" lon="113.271024">
        <time>2026-09-30T22:51:44Z</time>
      </trkpt>
      <trkpt lat="23.065167" lon="113.270844">
        <time>2026-09-30T22:51:49Z</time>
      </trkpt>
      <trkpt lat="23.065237" lon="113.270676">
        <time>2026-09-30T22:51:54Z</time>
      </trkpt>
      <trkpt lat="23.06531" lon="113.270509">
        <time>2026-09-30T22:51:59Z</time>
      </trkpt>
      <trkpt lat="23.065396" lon="113.270351">
        <time>2026-09-30T22:52:04Z</time>
      </trkpt>
      <trkpt lat="23.06547" lon="113.270195">
        <time>2026-09-30T22:52:09Z</time>
      </trkpt>
      <trkpt lat="23.065525" lon="113.270039">
        <time>2026-09-30T22:52:14Z</time>
      </trkpt>
      <trkpt lat="23.065579" lon="113.269912">
        <time>2026-09-30T22:52:19Z</time>
      </trkpt>
      <trkpt lat="23.065601" lon="113.269854">
        <time>2026-09-30T22:52:24Z</time>
      </trkpt>
      <trkpt lat="23.065615" lon="113.269799">
        <time>2026-09-30T22:52:29Z</time>
      </trkpt>
      <trkpt lat="23.065641" lon="113.269744">
        <time>2026-09-30T22:52:34Z</time>
      </trkpt>
      <trkpt lat="23.065665" lon="113.269685">
        <time>2026-09-30T22:52:39Z</time>
      </trkpt>
      <trkpt lat="23.065684" lon="113.269626">
        <time>2026-09-30T22:52:44Z</time>
      </trkpt>
      <trkpt lat="23.065707" lon="113.269565">
        <time>2026-09-30T22:52:49Z</time>
      </trkpt>
      <trkpt lat="23.065722" lon="113.269504">
        <time>2026-09-30T22:52:54Z</time>
      </trkpt>
      <trkpt lat="23.065727" lon="113.269442">
        <time>2026-09-30T22:52:59Z</time>
      </trkpt>
      <trkpt lat="23.065735" lon="113.269386">
        <time>2026-09-30T22:53:04Z</time>
      </trkpt>
      <trkpt lat="23.065754" lon="113.26933">
        <time>2026-09-30T22:53:09Z</time>
      </trkpt>
      <trkpt lat="23.065776" lon="113.269278">
        <time>2026-09-30T22:53:14Z</time>
      </trkpt>
      <trkpt lat="23.065789" lon="113.269226">
        <time>2026-09-30T22:53:19Z</time>
      </trkpt>
      <trkpt lat="23.065797" lon="113.269169">
        <time>2026-09-30T22:53:24Z</time>
      </trkpt>
      <trkpt lat="23.065811" lon="113.269112">
        <time>2026-09-30T22:53:29Z</time>
      </trkpt>
      <trkpt lat="23.065833" lon="113.269055">
        <time>2026-09-30T22:53:34Z</time>
      </trkpt>
      <trkpt lat="23.065855" lon="113.269002">
        <time>2026-09-30T22:53:39Z</time>
      </trkpt>
      <trkpt lat="23.065877" lon="113.26895">
        <time>2026-09-30T22:53:44Z</time>
      </trkpt>
      <trkpt lat="23.065897" lon="113.268904">
        <time>2026-09-30T22:53:49Z</time>
      </trkpt>
      <trkpt lat="23.065914" lon="113.268851">
        <time>2026-09-30T22:53:54Z</time>
      </trkpt>
      <trkpt lat="23.065936" lon="113.268792">
        <time>2026-09-30T22:53:59Z</time>
      </trkpt>
      <trkpt lat="23.065975" lon="113.268714">
        <time>2026-09-30T22:54:04Z</time>
      </trkpt>
      <trkpt lat="23.066059" lon="113.268563">
        <time>2026-09-30T22:54:09Z</time>
      </trkpt>
      <trkpt lat="23.066163" lon="113.268398">
        <time>2026-09-30T22:54:14Z</time>
      </trkpt>
      <trkpt lat="23.066269" lon="113.268247">
        <time>2026-09-30T22:54:19Z</time>
      </trkpt>
      <trkpt lat="23.066407" lon="113.26814">
        <time>2026-09-30T22:54:24Z</time>
      </trkpt>
      <trkpt lat="23.066575" lon="113.268124">
        <time>2026-09-30T22:54:29Z</time>
      </trkpt>
      <trkpt lat="23.066745" lon="113.268142">
        <time>2026-09-30T22:54:34Z</time>
      </trkpt>
      <trkpt lat="23.06691" lon="113.268152">
        <time>2026-09-30T22:54:39Z</time>
      </trkpt>
      <trkpt lat="23.067062" lon="113.268204">
        <time>2026-09-30T22:54:44Z</time>
      </trkpt>
      <trkpt lat="23.067209" lon="113.268282">
        <time>2026-09-30T22:54:49Z</time>
      </trkpt>
      <trkpt lat="23.067353" lon="113.268361">
        <time>2026-09-30T22:54:54Z</time>
      </trkpt>
      <trkpt lat="23.067499" lon="113.268437">
        <time>2026-09-30T22:54:59Z</time>
      </trkpt>
      <trkpt lat="23.067657" lon="113.268513">
        <time>2026-09-30T22:55:04Z</time>
      </trkpt>
      <trkpt lat="23.067818" lon="113.268583">
        <time>2026-09-30T22:55:09Z</time>
      </trkpt>
      <trkpt lat="23.067974" lon="113.268666">
        <time>2026-09-30T22:55:14Z</time>
      </trkpt>
      <trkpt lat="23.068122" lon="113.268751">
        <time>2026-09-30T22:55:19Z</time>
      </trkpt>
      <trkpt lat="23.068265" lon="113.268823">
        <time>2026-09-30T22:55:24Z</time>
      </trkpt>
      <trkpt lat="23.068405" lon="113.268896">
        <time>2026-09-30T22:55:29Z</time>
      </trkpt>
      <trkpt lat="23.068555" lon="113.268962">
        <time>2026-09-30T22:55:34Z</time>
      </trkpt>
      <trkpt lat="23.068714" lon="113.269025">
        <time>2026-09-30T22:55:39Z</time>
      </trkpt>
      <trkpt lat="23.068862" lon="113.269088">
        <time>2026-09-30T22:55:44Z</time>
      </trkpt>
      <trkpt lat="23.069011" lon="113.269147">
        <time>2026-09-30T22:55:49Z</time>
      </trkpt>
      <trkpt lat="23.069075" lon="113.269116">
        <time>2026-09-30T22:55:54Z</time>
      </trkpt>
      <trkpt lat="23.06896" lon="113.269025">
        <time>2026-09-30T22:55:59Z</time>
      </trkpt>
      <trkpt lat="23.068822" lon="113.268944">
        <time>2026-09-30T22:56:04Z</time>
      </trkpt>
      <trkpt lat="23.068686" lon="113.268862">
        <time>2026-09-30T22:56:09Z</time>
      </trkpt>
      <trkpt lat="23.068558" lon="113.268791">
        <time>2026-09-30T22:56:14Z</time>
      </trkpt>
      <trkpt lat="23.068436" lon="113.268734">
        <time>2026-09-30T22:56:19Z</time>
      </trkpt>
      <trkpt lat="23.068307" lon="113.268666">
        <time>2026-09-30T22:56:24Z</time>
      </trkpt>
      <trkpt lat="23.068168" lon="113.268599">
        <time>2026-09-30T22:56:29Z</time>
      </trkpt>
      <trkpt lat="23.068063" lon="113.268545">
        <time>2026-09-30T22:56:34Z</time>
      </trkpt>
      <trkpt lat="23.067907" lon="113.268492">
        <time>2026-09-30T22:56:39Z</time>
      </trkpt>
      <trkpt lat="23.067747" lon="113.268416">
        <time>2026-09-30T22:56:44Z</time>
      </trkpt>
      <trkpt lat="23.067599" lon="113.268332">
        <time>2026-09-30T22:56:49Z</time>
      </trkpt>
      <trkpt lat="23.067451" lon="113.268261">
        <time>2026-09-30T22:56:54Z</time>
      </trkpt>
      <trkpt lat="23.067297" lon="113.268195">
        <time>2026-09-30T22:56:59Z</time>
      </trkpt>
      <trkpt lat="23.067163" lon="113.268135">
        <time>2026-09-30T22:57:04Z</time>
      </trkpt>
      <trkpt lat="23.067034" lon="113.268068">
        <time>2026-09-30T22:57:09Z</time>
      </trkpt>
      <trkpt lat="23.066879" lon="113.268008">
        <time>2026-09-30T22:57:14Z</time>
      </trkpt>
      <trkpt lat="23.066714" lon="113.267996">
        <time>2026-09-30T22:57:19Z</time>
      </trkpt>
      <trkpt lat="23.066563" lon="113.267964">
        <time>2026-09-30T22:57:24Z</time>
      </trkpt>
      <trkpt lat="23.06641" lon="113.267938">
        <time>2026-09-30T22:57:29Z</time>
      </trkpt>
      <trkpt lat="23.066255" lon="113.267973">
        <time>2026-09-30T22:57:34Z</time>
      </trkpt>
      <trkpt lat="23.066128" lon="113.268085">
        <time>2026-09-30T22:57:39Z</time>
      </trkpt>
      <trkpt lat="23.066018" lon="113.26822">
        <time>2026-09-30T22:57:44Z</time>
      </trkpt>
      <trkpt lat="23.06592" lon="113.268358">
        <time>2026-09-30T22:57:49Z</time>
      </trkpt>
      <trkpt lat="23.065828" lon="113.2685">
        <time>2026-09-30T22:57:54Z</time>
      </trkpt>
      <trkpt lat="23.065748" lon="113.268645">
        <time>2026-09-30T22:57:59Z</time>
      </trkpt>
      <trkpt lat="23.065683" lon="113.2688">
        <time>2026-09-30T22:58:04Z</time>
      </trkpt>
      <trkpt lat="23.065631" lon="113.268965">
        <time>2026-09-30T22:58:09Z</time>
      </trkpt>
      <trkpt lat="23.065576" lon="113.269137">
        <time>2026-09-30T22:58:14Z</time>
      </trkpt>
      <trkpt lat="23.065524" lon="113.269307">
        <time>2026-09-30T22:58:19Z</time>
      </trkpt>
      <trkpt lat="23.065482" lon="113.269482">
        <time>2026-09-30T22:58:24Z</time>
      </trkpt>
      <trkpt lat="23.065435" lon="113.269648">
        <time>2026-09-30T22:58:29Z</time>
      </trkpt>
      <trkpt lat="23.065394" lon="113.269814">
        <time>2026-09-30T22:58:34Z</time>
      </trkpt>
      <trkpt lat="23.065345" lon="113.269978">
        <time>2026-09-30T22:58:39Z</time>
      </trkpt>
      <trkpt lat="23.065282" lon="113.27014">
        <time>2026-09-30T22:58:44Z</time>
      </trkpt>
      <trkpt lat="23.065211" lon="113.270298">
        <time>2026-09-30T22:58:49Z</time>
      </trkpt>
      <trkpt lat="23.065141" lon="113.270454">
        <time>2026-09-30T22:58:54Z</time>
      </trkpt>
      <trkpt lat="23.065075" lon="113.270615">
        <time>2026-09-30T22:58:59Z</time>
      </trkpt>
      <trkpt lat="23.065013" lon="113.270773">
        <time>2026-09-30T22:59:04Z</time>
      </trkpt>
      <trkpt lat="23.064943" lon="113.27092">
        <time>2026-09-30T22:59:09Z</time>
      </trkpt>
      <trkpt lat="23.064864" lon="113.27107">
        <time>2026-09-30T22:59:14Z</time>
      </trkpt>
      <trkpt lat="23.064784" lon="113.271224">
        <time>2026-09-30T22:59:19Z</time>
      </trkpt>
      <trkpt lat="23.06471" lon="113.27138">
        <time>2026-09-30T22:59:24Z</time>
      </trkpt>
      <trkpt lat="23.064632" lon="113.271529">
        <time>2026-09-30T22:59:29Z</time>
      </trkpt>
      <trkpt lat="23.064559" lon="113.271676">
        <time>2026-09-30T22:59:34Z</time>
      </trkpt>
      <trkpt lat="23.064493" lon="113.271826">
        <time>2026-09-30T22:59:39Z</time>
      </trkpt>
      <trkpt lat="23.064426" lon="113.271986">
        <time>2026-09-30T22:59:44Z</time>
      </trkpt>
      <trkpt lat="23.064356" lon="113.272153">
        <time>2026-09-30T22:59:49Z</time>
      </trkpt>
      <trkpt lat="23.064311" lon="113.272322">
        <time>2026-09-30T22:59:54Z</time>
      </trkpt>
      <trkpt lat="23.064302" lon="113.272487">
        <time>2026-09-30T22:59:59Z</time>
      </trkpt>
      <trkpt lat="23.06432" lon="113.27265">
        <time>2026-09-30T23:00:04Z</time>
      </trkpt>
      <trkpt lat="23.064371" lon="113.272806">
        <time>2026-09-30T23:00:09Z</time>
      </trkpt>
      <trkpt lat="23.064425" lon="113.272961">
        <time>2026-09-30T23:00:14Z</time>
      </trkpt>
      <trkpt lat="23.064467" lon="113.273116">
        <time>2026-09-30T23:00:19Z</time>
      </trkpt>
      <trkpt lat="23.064443" lon="113.273275">
        <time>2026-09-30T23:00:24Z</time>
      </trkpt>
      <trkpt lat="23.064334" lon="113.273402">
        <time>2026-09-30T23:00:29Z</time>
      </trkpt>
      <trkpt lat="23.064198" lon="113.273501">
        <time>2026-09-30T23:00:34Z</time>
      </trkpt>
      <trkpt lat="23.064064" lon="113.273596">
        <time>2026-09-30T23:00:39Z</time>
      </trkpt>
      <trkpt lat="23.063943" lon="113.273703">
        <time>2026-09-30T23:00:44Z</time>
      </trkpt>
      <trkpt lat="23.063842" lon="113.273828">
        <time>2026-09-30T23:00:49Z</time>
      </trkpt>
      <trkpt lat="23.063758" lon="113.273964">
        <time>2026-09-30T23:00:54Z</time>
      </trkpt>
      <trkpt lat="23.063676" lon="113.274096">
        <time>2026-09-30T23:00:59Z</time>
      </trkpt>
      <trkpt lat="23.063557" lon="113.274197">
        <time>2026-09-30T23:01:04Z</time>
      </trkpt>
      <trkpt lat="23.063465" lon="113.274347">
        <time>2026-09-30T23:01:09Z</time>
      </trkpt>
      <trkpt lat="23.063399" lon="113.274512">
        <time>2026-09-30T23:01:14Z</time>
      </trkpt>
      <trkpt lat="23.063348" lon="113.274667">
        <time>2026-09-30T23:01:19Z</time>
      </trkpt>
      <trkpt lat="23.063292" lon="113.274821">
        <time>2026-09-30T23:01:24Z</time>
      </trkpt>
      <trkpt lat="23.063237" lon="113.274994">
        <time>2026-09-30T23:01:29Z</time>
      </trkpt>
      <trkpt lat="23.063164" lon="113.275151">
        <time>2026-09-30T23:01:34Z</time>
      </trkpt>
      <trkpt lat="23.063076" lon="113.275295">
        <time>2026-09-30T23:01:39Z</time>
      </trkpt>
      <trkpt lat="23.063006" lon="113.275436">
        <time>2026-09-30T23:01:44Z</time>
      </trkpt>
      <trkpt lat="23.062917" lon="113.275572">
        <time>2026-09-30T23:01:49Z</time>
      </trkpt>
      <trkpt lat="23.062799" lon="113.275686">
        <time>2026-09-30T23:01:54Z</time>
      </trkpt>
      <trkpt lat="23.062679" lon="113.2758">
        <time>2026-09-30T23:01:59Z</time>
      </trkpt>
      <trkpt lat="23.062575" lon="113.275923">
        <time>2026-09-30T23:02:04Z</time>
      </trkpt>
      <trkpt lat="23.062484" lon="113.276059">
        <time>2026-09-30T23:02:09Z</time>
      </trkpt>
      <trkpt lat="23.062416" lon="113.276218">
        <time>2026-09-30T23:02:14Z</time>
      </trkpt>
      <trkpt lat="23.062353" lon="113.276379">
        <time>2026-09-30T23:02:19Z</time>
      </trkpt>
      <trkpt lat="23.062296" lon="113.276538">
        <time>2026-09-30T23:02:24Z</time>
      </trkpt>
      <trkpt lat="23.06224" lon="113.276689">
        <time>2026-09-30T23:02:29Z</time>
      </trkpt>
      <trkpt lat="23.062187" lon="113.276838">
        <time>2026-09-30T23:02:34Z</time>
      </trkpt>
      <trkpt lat="23.062129" lon="113.276996">
        <time>2026-09-30T23:02:39Z</time>
      </trkpt>
      <trkpt lat="23.06207" lon="113.277158">
        <time>2026-09-30T23:02:44Z</time>
      </trkpt>
      <trkpt lat="23.062013" lon="113.277318">
        <time>2026-09-30T23:02:49Z</time>
      </trkpt>
      <trkpt lat="23.061952" lon="113.277474">
        <time>2026-09-30T23:02:54Z</time>
      </trkpt>
      <trkpt lat="23.061893" lon="113.277633">
        <time>2026-09-30T23:02:59Z</time>
      </trkpt>
      <trkpt lat="23.061845" lon="113.2778">
        <time>2026-09-30T23:03:04Z</time>
      </trkpt>
      <trkpt lat="23.061829" lon="113.277971">
        <time>2026-09-30T23:03:09Z</time>
      </trkpt>
      <trkpt lat="23.061841" lon="113.278136">
        <time>2026-09-30T23:03:14Z</time>
      </trkpt>
      <trkpt lat="23.061848" lon="113.278299">
        <time>2026-09-30T23:03:19Z</time>
      </trkpt>
      <trkpt lat="23.061854" lon="113.278462">
        <time>2026-09-30T23:03:24Z</time>
      </trkpt>
      <trkpt lat="23.061859" lon="113.278631">
        <time>2026-09-30T23:03:29Z</time>
      </trkpt>
      <trkpt lat="23.061827" lon="113.278789">
        <time>2026-09-30T23:03:34Z</time>
      </trkpt>
      <trkpt lat="23.061782" lon="113.278874">
        <time>2026-09-30T23:03:39Z</time>
      </trkpt>
      <trkpt lat="23.061753" lon="113.278923">
        <time>2026-09-30T23:03:44Z</time>
      </trkpt>
      <trkpt lat="23.061723" lon="113.278976">
        <time>2026-09-30T23:03:49Z</time>
      </trkpt>
      <trkpt lat="23.06169" lon="113.279028">
        <time>2026-09-30T23:03:54Z</time>
      </trkpt>
      <trkpt lat="23.061658" lon="113.279083">
        <time>2026-09-30T23:03:59Z</time>
      </trkpt>
      <trkpt lat="23.061625" lon="113.279136">
        <time>2026-09-30T23:04:04Z</time>
      </trkpt>
      <trkpt lat="23.0616" lon="113.279194">
        <time>2026-09-30T23:04:09Z</time>
      </trkpt>
      <trkpt lat="23.061578" lon="113.279245">
        <time>2026-09-30T23:04:14Z</time>
      </trkpt>
      <trkpt lat="23.061552" lon="113.279292">
        <time>2026-09-30T23:04:19Z</time>
      </trkpt>
      <trkpt lat="23.061527" lon="113.279343">
        <time>2026-09-30T23:04:24Z</time>
      </trkpt>
      <trkpt lat="23.061503" lon="113.279399">
        <time>2026-09-30T23:04:29Z</time>
      </trkpt>
      <trkpt lat="23.061487" lon="113.279458">
        <time>2026-09-30T23:04:34Z</time>
      </trkpt>
      <trkpt lat="23.061463" lon="113.279512">
        <time>2026-09-30T23:04:39Z</time>
      </trkpt>
      <trkpt lat="23.061439" lon="113.279569">
        <time>2026-09-30T23:04:44Z</time>
      </trkpt>
      <trkpt lat="23.061416" lon="113.279628">
        <time>2026-09-30T23:04:49Z</time>
      </trkpt>
      <trkpt lat="23.061394" lon="113.279686">
        <time>2026-09-30T23:04:54Z</time>
      </trkpt>
      <trkpt lat="23.061373" lon="113.27974">
        <time>2026-09-30T23:04:59Z</time>
      </trkpt>
      <trkpt lat="23.06135" lon="113.279793">
        <time>2026-09-30T23:05:04Z</time>
      </trkpt>
      <trkpt lat="23.061327" lon="113.279848">
        <time>2026-09-30T23:05:09Z</time>
      </trkpt>
      <trkpt lat="23.061304" lon="113.279906">
        <time>2026-09-30T23:05:14Z</time>
      </trkpt>
      <trkpt lat="23.061283" lon="113.279964">
        <time>2026-09-30T23:05:19Z</time>
      </trkpt>
      <trkpt lat="23.06126" lon="113.280021">
        <time>2026-09-30T23:05:24Z</time>
      </trkpt>
      <trkpt lat="23.061238" lon="113.280078">
        <time>2026-09-30T23:05:29Z</time>
      </trkpt>
      <trkpt lat="23.061198" lon="113.28019">
        <time>2026-09-30T23:05:34Z</time>
      </trkpt>
      <trkpt lat="23.061133" lon="113.280364">
        <time>2026-09-30T23:05:39Z</time>
      </trkpt>
      <trkpt lat="23.061051" lon="113.280539">
        <time>2026-09-30T23:05:44Z</time>
      </trkpt>
      <trkpt lat="23.060977" lon="113.280692">
        <time>2026-09-30T23:05:49Z</time>
      </trkpt>
      <trkpt lat="23.060916" lon="113.280843">
        <time>2026-09-30T23:05:54Z</time>
      </trkpt>
      <trkpt lat="23.060853" lon="113.281002">
        <time>2026-09-30T23:05:59Z</time>
      </trkpt>
      <trkpt lat="23.060784" lon="113.281162">
        <time>2026-09-30T23:06:04Z</time>
      </trkpt>
      <trkpt lat="23.06071" lon="113.281319">
        <time>2026-09-30T23:06:09Z</time>
      </trkpt>
      <trkpt lat="23.060641" lon="113.281468">
        <time>2026-09-30T23:06:14Z</time>
      </trkpt>
      <trkpt lat="23.060571" lon="113.281617">
        <time>2026-09-30T23:06:19Z</time>
      </trkpt>
      <trkpt lat="23.060505" lon="113.281773">
        <time>2026-09-30T23:06:24Z</time>
      </trkpt>
      <trkpt lat="23.060439" lon="113.281928">
        <time>2026-09-30T23:06:29Z</time>
      </trkpt>
      <trkpt lat="23.060375" lon="113.282086">
        <time>2026-09-30T23:06:34Z</time>
      </trkpt>
      <trkpt lat="23.060317" lon="113.282242">
        <time>2026-09-30T23:06:39Z</time>
      </trkpt>
      <trkpt lat="23.060248" lon="113.282394">
        <time>2026-09-30T23:06:44Z</time>
      </trkpt>
      <trkpt lat="23.060174" lon="113.28254">
        <time>2026-09-30T23:06:49Z</time>
      </trkpt>
      <trkpt lat="23.060111" lon="113.282692">
        <time>2026-09-30T23:06:54Z</time>
      </trkpt>
      <trkpt lat="23.060048" lon="113.282844">
        <time>2026-09-30T23:06:59Z</time>
      </trkpt>
      <trkpt lat="23.05999" lon="113.282998">
        <time>2026-09-30T23:07:04Z</time>
      </trkpt>
      <trkpt lat="23.059927" lon="113.283148">
        <time>2026-09-30T23:07:09Z</time>
      </trkpt>
      <trkpt lat="23.059886" lon="113.283295">
        <time>2026-09-30T23:07:14Z</time>
      </trkpt>
      <trkpt lat="23.059958" lon="113.283314">
        <time>2026-09-30T23:07:19Z</time>
      </trkpt>
      <trkpt lat="23.060043" lon="113.283174">
        <time>2026-09-30T23:07:24Z</time>
      </trkpt>
      <trkpt lat="23.060115" lon="113.283026">
        <time>2026-09-30T23:07:29Z</time>
      </trkpt>
      <trkpt lat="23.060183" lon="113.282881">
        <time>2026-09-30T23:07:34Z</time>
      </trkpt>
      <trkpt lat="23.060242" lon="113.282726">
        <time>2026-09-30T23:07:39Z</time>
      </trkpt>
      <trkpt lat="23.060288" lon="113.282571">
        <time>2026-09-30T23:07:44Z</time>
      </trkpt>
      <trkpt lat="23.060344" lon="113.282417">
        <time>2026-09-30T23:07:49Z</time>
      </trkpt>
      <trkpt lat="23.060408" lon="113.28227">
        <time>2026-09-30T23:07:54Z</time>
      </trkpt>
      <trkpt lat="23.060475" lon="113.282126">
        <time>2026-09-30T23:07:59Z</time>
      </trkpt>
      <trkpt lat="23.060541" lon="113.281972">
        <time>2026-09-30T23:08:04Z</time>
      </trkpt>
      <trkpt lat="23.060591" lon="113.281817">
        <time>2026-09-30T23:08:09Z</time>
      </trkpt>
      <trkpt lat="23.060657" lon="113.281676">
        <time>2026-09-30T23:08:14Z</time>
      </trkpt>
      <trkpt lat="23.060717" lon="113.281534">
        <time>2026-09-30T23:08:19Z</time>
      </trkpt>
      <trkpt lat="23.060784" lon="113.281383">
        <time>2026-09-30T23:08:24Z</time>
      </trkpt>
      <trkpt lat="23.06085" lon="113.281228">
        <time>2026-09-30T23:08:29Z</time>
      </trkpt>
      <trkpt lat="23.060913" lon="113.281068">
        <time>2026-09-30T23:08:34Z</time>
      </trkpt>
      <trkpt lat="23.060977" lon="113.280917">
        <time>2026-09-30T23:08:39Z</time>
      </trkpt>
      <trkpt lat="23.06104" lon="113.280763">
        <time>2026-09-30T23:08:44Z</time>
      </trkpt>
      <trkpt lat="23.06111" lon="113.280604">
        <time>2026-09-30T23:08:49Z</time>
      </trkpt>
      <trkpt lat="23.06119" lon="113.280446">
        <time>2026-09-30T23:08:54Z</time>
      </trkpt>
      <trkpt lat="23.061254" lon="113.280294">
        <time>2026-09-30T23:08:59Z</time>
      </trkpt>
      <trkpt lat="23.061324" lon="113.280144">
        <time>2026-09-30T23:09:04Z</time>
      </trkpt>
      <trkpt lat="23.061389" lon="113.279993">
        <time>2026-09-30T23:09:09Z</time>
      </trkpt>
      <trkpt lat="23.061454" lon="113.279839">
        <time>2026-09-30T23:09:14Z</time>
      </trkpt>
      <trkpt lat="23.061515" lon="113.279681">
        <time>2026-09-30T23:09:19Z</time>
      </trkpt>
      <trkpt lat="23.061574" lon="113.279519">
        <time>2026-09-30T23:09:24Z</time>
      </trkpt>
      <trkpt lat="23.061635" lon="113.279357">
        <time>2026-09-30T23:09:29Z</time>
      </trkpt>
      <trkpt lat="23.061696" lon="113.279198">
        <time>2026-09-30T23:09:34Z</time>
      </trkpt>
      <trkpt lat="23.06177" lon="113.279042">
        <time>2026-09-30T23:09:39Z</time>
      </trkpt>
      <trkpt lat="23.061873" lon="113.278906">
        <time>2026-09-30T23:09:44Z</time>
      </trkpt>
      <trkpt lat="23.061946" lon="113.278754">
        <time>2026-09-30T23:09:49Z</time>
      </trkpt>
      <trkpt lat="23.061964" lon="113.278584">
        <time>2026-09-30T23:09:54Z</time>
      </trkpt>
      <trkpt lat="23.061957" lon="113.278412">
        <time>2026-09-30T23:09:59Z</time>
      </trkpt>
      <trkpt lat="23.061946" lon="113.278244">
        <time>2026-09-30T23:10:04Z</time>
      </trkpt>
      <trkpt lat="23.061929" lon="113.278074">
        <time>2026-09-30T23:10:09Z</time>
      </trkpt>
      <trkpt lat="23.061918" lon="113.2779">
        <time>2026-09-30T23:10:14Z</time>
      </trkpt>
      <trkpt lat="23.061936" lon="113.277726">
        <time>2026-09-30T23:10:19Z</time>
      </trkpt>
      <trkpt lat="23.061993" lon="113.27755">
        <time>2026-09-30T23:10:24Z</time>
      </trkpt>
      <trkpt lat="23.06206" lon="113.277382">
        <time>2026-09-30T23:10:29Z</time>
      </trkpt>
      <trkpt lat="23.062122" lon="113.277222">
        <time>2026-09-30T23:10:34Z</time>
      </trkpt>
      <trkpt lat="23.06218" lon="113.277068">
        <time>2026-09-30T23:10:39Z</time>
      </trkpt>
      <trkpt lat="23.062239" lon="113.276911">
        <time>2026-09-30T23:10:44Z</time>
      </trkpt>
      <trkpt lat="23.062302" lon="113.276747">
        <time>2026-09-30T23:10:49Z</time>
      </trkpt>
      <trkpt lat="23.062368" lon="113.276582">
        <time>2026-09-30T23:10:54Z</time>
      </trkpt>
      <trkpt lat="23.062428" lon="113.276417">
        <time>2026-09-30T23:10:59Z</time>
      </trkpt>
      <trkpt lat="23.062482" lon="113.276256">
        <time>2026-09-30T23:11:04Z</time>
      </trkpt>
      <trkpt lat="23.062556" lon="113.276097">
        <time>2026-09-30T23:11:09Z</time>
      </trkpt>
      <trkpt lat="23.062655" lon="113.275948">
        <time>2026-09-30T23:11:14Z</time>
      </trkpt>
      <trkpt lat="23.062765" lon="113.275819">
        <time>2026-09-30T23:11:19Z</time>
      </trkpt>
      <trkpt lat="23.062886" lon="113.275699">
        <time>2026-09-30T23:11:24Z</time>
      </trkpt>
      <trkpt lat="23.063009" lon="113.275574">
        <time>2026-09-30T23:11:29Z</time>
      </trkpt>
      <trkpt lat="23.063104" lon="113.275426">
        <time>2026-09-30T23:11:34Z</time>
      </trkpt>
      <trkpt lat="23.063193" lon="113.275278">
        <time>2026-09-30T23:11:39Z</time>
      </trkpt>
      <trkpt lat="23.063275" lon="113.275128">
        <time>2026-09-30T23:11:44Z</time>
      </trkpt>
      <trkpt lat="23.063353" lon="113.27497">
        <time>2026-09-30T23:11:49Z</time>
      </trkpt>
      <trkpt lat="23.063408" lon="113.274807">
        <time>2026-09-30T23:11:54Z</time>
      </trkpt>
      <trkpt lat="23.063458" lon="113.274645">
        <time>2026-09-30T23:11:59Z</time>
      </trkpt>
      <trkpt lat="23.063509" lon="113.27448">
        <time>2026-09-30T23:12:04Z</time>
      </trkpt>
      <trkpt lat="23.063571" lon="113.274324">
        <time>2026-09-30T23:12:09Z</time>
      </trkpt>
      <trkpt lat="23.063667" lon="113.274197">
        <time>2026-09-30T23:12:14Z</time>
      </trkpt>
      <trkpt lat="23.06379" lon="113.27409">
        <time>2026-09-30T23:12:19Z</time>
      </trkpt>
      <trkpt lat="23.063881" lon="113.27395">
        <time>2026-09-30T23:12:24Z</time>
      </trkpt>
      <trkpt lat="23.063965" lon="113.273801">
        <time>2026-09-30T23:12:29Z</time>
      </trkpt>
      <trkpt lat="23.064075" lon="113.273678">
        <time>2026-09-30T23:12:34Z</time>
      </trkpt>
      <trkpt lat="23.064213" lon="113.273576">
        <time>2026-09-30T23:12:39Z</time>
      </trkpt>
      <trkpt lat="23.064345" lon="113.273476">
        <time>2026-09-30T23:12:44Z</time>
      </trkpt>
      <trkpt lat="23.064473" lon="113.273371">
        <time>2026-09-30T23:12:49Z</time>
      </trkpt>
      <trkpt lat="23.064553" lon="113.273215">
        <time>2026-09-30T23:12:54Z</time>
      </trkpt>
      <trkpt lat="23.064545" lon="113.273026">
        <time>2026-09-30T23:12:59Z</time>
      </trkpt>
      <trkpt lat="23.06449" lon="113.272843">
        <time>2026-09-30T23:13:04Z</time>
      </trkpt>
      <trkpt lat="23.064439" lon="113.272675">
        <time>2026-09-30T23:13:09Z</time>
      </trkpt>
      <trkpt lat="23.06445" lon="113.272508">
        <time>2026-09-30T23:13:14Z</time>
      </trkpt>
      <trkpt lat="23.064583" lon="113.272445">
        <time>2026-09-30T23:13:19Z</time>
      </trkpt>
      <trkpt lat="23.064754" lon="113.272507">
        <time>2026-09-30T23:13:24Z</time>
      </trkpt>
      <trkpt lat="23.06492" lon="113.272561">
        <time>2026-09-30T23:13:29Z</time>
      </trkpt>
      <trkpt lat="23.06508" lon="113.272616">
        <time>2026-09-30T23:13:34Z</time>
      </trkpt>
      <trkpt lat="23.065237" lon="113.272666">
        <time>2026-09-30T23:13:39Z</time>
      </trkpt>
      <trkpt lat="23.065393" lon="113.272704">
        <time>2026-09-30T23:13:44Z</time>
      </trkpt>
      <trkpt lat="23.065557" lon="113.272745">
        <time>2026-09-30T23:13:49Z</time>
      </trkpt>
      <trkpt lat="23.065729" lon="113.272794">
        <time>2026-09-30T23:13:54Z</time>
      </trkpt>
      <trkpt lat="23.065895" lon="113.272823">
        <time>2026-09-30T23:13:59Z</time>
      </trkpt>
      <trkpt lat="23.066058" lon="113.272824">
        <time>2026-09-30T23:14:04Z</time>
      </trkpt>
      <trkpt lat="23.066216" lon="113.272795">
        <time>2026-09-30T23:14:09Z</time>
      </trkpt>
      <trkpt lat="23.066362" lon="113.272749">
        <time>2026-09-30T23:14:14Z</time>
      </trkpt>
      <trkpt lat="23.066504" lon="113.272726">
        <time>2026-09-30T23:14:19Z</time>
      </trkpt>
      <trkpt lat="23.066658" lon="113.272749">
        <time>2026-09-30T23:14:24Z</time>
      </trkpt>
      <trkpt lat="23.066819" lon="113.27272">
        <time>2026-09-30T23:14:29Z</time>
      </trkpt>
      <trkpt lat="23.066958" lon="113.272631">
        <time>2026-09-30T23:14:34Z</time>
      </trkpt>
      <trkpt lat="23.067074" lon="113.272528">
        <time>2026-09-30T23:14:39Z</time>
      </trkpt>
      <trkpt lat="23.067182" lon="113.272421">
        <time>2026-09-30T23:14:44Z</time>
      </trkpt>
      <trkpt lat="23.067304" lon="113.272326">
        <time>2026-09-30T23:14:49Z</time>
      </trkpt>
      <trkpt lat="23.067422" lon="113.272204">
        <time>2026-09-30T23:14:54Z</time>
      </trkpt>
      <trkpt lat="23.067545" lon="113.272096">
        <time>2026-09-30T23:14:59Z</time>
      </trkpt>
      <trkpt lat="23.06763" lon="113.272021">
        <time>2026-09-30T23:15:04Z</time>
      </trkpt>
      <trkpt lat="23.067595" lon="113.272011">
        <time>2026-09-30T23:15:09Z</time>
      </trkpt>
      <trkpt lat="23.067529" lon="113.272034">
        <time>2026-09-30T23:15:14Z</time>
      </trkpt>
      <trkpt lat="23.067473" lon="113.272068">
        <time>2026-09-30T23:15:19Z</time>
      </trkpt>
      <trkpt lat="23.067426" lon="113.272104">
        <time>2026-09-30T23:15:24Z</time>
      </trkpt>
      <trkpt lat="23.06738" lon="113.272142">
        <time>2026-09-30T23:15:29Z</time>
      </trkpt>
      <trkpt lat="23.067333" lon="113.272172">
        <time>2026-09-30T23:15:34Z</time>
      </trkpt>
      <trkpt lat="23.067291" lon="113.272204">
        <time>2026-09-30T23:15:39Z</time>
      </trkpt>
      <trkpt lat="23.067258" lon="113.272234">
        <time>2026-09-30T23:15:44Z</time>
      </trkpt>
      <trkpt lat="23.067222" lon="113.272265">
        <time>2026-09-30T23:15:49Z</time>
      </trkpt>
      <trkpt lat="23.06718" lon="113.272293">
        <time>2026-09-30T23:15:54Z</time>
      </trkpt>
      <trkpt lat="23.067138" lon="113.272317">
        <time>2026-09-30T23:15:59Z</time>
      </trkpt>
      <trkpt lat="23.067097" lon="113.272344">
        <time>2026-09-30T23:16:04Z</time>
      </trkpt>
      <trkpt lat="23.067062" lon="113.272357">
        <time>2026-09-30T23:16:09Z</time>
      </trkpt>
      <trkpt lat="23.067025" lon="113.272377">
        <time>2026-09-30T23:16:14Z</time>
      </trkpt>
      <trkpt lat="23.066987" lon="113.272406">
        <time>2026-09-30T23:16:19Z</time>
      </trkpt>
      <trkpt lat="23.066939" lon="113.272424">
        <time>2026-09-30T23:16:24Z</time>
      </trkpt>
      <trkpt lat="23.066894" lon="113.272456">
        <time>2026-09-30T23:16:29Z</time>
      </trkpt>
      <trkpt lat="23.066845" lon="113.272485">
        <time>2026-09-30T23:16:34Z</time>
      </trkpt>
      <trkpt lat="23.066804" lon="113.272532">
        <time>2026-09-30T23:16:39Z</time>
      </trkpt>
      <trkpt lat="23.066769" lon="113.272581">
        <time>2026-09-30T23:16:44Z</time>
      </trkpt>
      <trkpt lat="23.066729" lon="113.272615">
        <time>2026-09-30T23:16:49Z</time>
      </trkpt>
      <trkpt lat="23.066682" lon="113.272647">
        <time>2026-09-30T23:16:54Z</time>
      </trkpt>
      <trkpt lat="23.066627" lon="113.272657">
        <time>2026-09-30T23:16:59Z</time>
      </trkpt>
      <trkpt lat="23.066569" lon="113.272654">
        <time>2026-09-30T23:17:04Z</time>
      </trkpt>
      <trkpt lat="23.066506" lon="113.272662">
        <time>2026-09-30T23:17:09Z</time>
      </trkpt>
      <trkpt lat="23.066449" lon="113.272661">
        <time>2026-09-30T23:17:14Z</time>
      </trkpt>
      <trkpt lat="23.066395" lon="113.272674">
        <time>2026-09-30T23:17:19Z</time>
      </trkpt>
      <trkpt lat="23.066325" lon="113.272706">
        <time>2026-09-30T23:17:24Z</time>
      </trkpt>
      <trkpt lat="23.066235" lon="113.272739">
        <time>2026-09-30T23:17:29Z</time>
      </trkpt>
      <trkpt lat="23.066135" lon="113.272756">
        <time>2026-09-30T23:17:34Z</time>
      </trkpt>
      <trkpt lat="23.066031" lon="113.272765">
        <time>2026-09-30T23:17:39Z</time>
      </trkpt>
      <trkpt lat="23.065938" lon="113.272778">
        <time>2026-09-30T23:17:44Z</time>
      </trkpt>
      <trkpt lat="23.065857" lon="113.272779">
        <time>2026-09-30T23:17:49Z</time>
      </trkpt>
      <trkpt lat="23.065783" lon="113.272762">
        <time>2026-09-30T23:17:54Z</time>
      </trkpt>
      <trkpt lat="23.065703" lon="113.272748">
        <time>2026-09-30T23:17:59Z</time>
      </trkpt>
      <trkpt lat="23.065644" lon="113.272725">
        <time>2026-09-30T23:18:04Z</time>
      </trkpt>
      <trkpt lat="23.065595" lon="113.2727">
        <time>2026-09-30T23:18:09Z</time>
      </trkpt>
      <trkpt lat="23.065547" lon="113.272675">
        <time>2026-09-30T23:18:14Z</time>
      </trkpt>
      <trkpt lat="23.065488" lon="113.272657">
        <time>2026-09-30T23:18:19Z</time>
      </trkpt>
      <trkpt lat="23.065434" lon="113.272635">
        <time>2026-09-30T23:18:24Z</time>
      </trkpt>
      <trkpt lat="23.065379" lon="113.272614">
        <time>2026-09-30T23:18:29Z</time>
      </trkpt>
      <trkpt lat="23.065323" lon="113.272593">
        <time>2026-09-30T23:18:34Z</time>
      </trkpt>
      <trkpt lat="23.06527" lon="113.272574">
        <time>2026-09-30T23:18:39Z</time>
      </trkpt>
      <trkpt lat="23.065222" lon="113.272543">
        <time>2026-09-30T23:18:44Z</time>
      </trkpt>
      <trkpt lat="23.065173" lon="113.272523">
        <time>2026-09-30T23:18:49Z</time>
      </trkpt>
      <trkpt lat="23.065124" lon="113.272526">
        <time>2026-09-30T23:18:54Z</time>
      </trkpt>
      <trkpt lat="23.065085" lon="113.272507">
        <time>2026-09-30T23:18:59Z</time>
      </trkpt>
      <trkpt lat="23.065039" lon="113.272486">
        <time>2026-09-30T23:19:04Z</time>
      </trkpt>
      <trkpt lat="23.064976" lon="113.272484">
        <time>2026-09-30T23:19:09Z</time>
      </trkpt>
      <trkpt lat="23.064914" lon="113.272478">
        <time>2026-09-30T23:19:14Z</time>
      </trkpt>
      <trkpt lat="23.064838" lon="113.272464">
        <time>2026-09-30T23:19:19Z</time>
      </trkpt>
      <trkpt lat="23.064728" lon="113.272441">
        <time>2026-09-30T23:19:24Z</time>
      </trkpt>
      <trkpt lat="23.064641" lon="113.272381">
        <time>2026-09-30T23:19:29Z</time>
      </trkpt>
      <trkpt lat="23.064612" lon="113.272275">
        <time>2026-09-30T23:19:34Z</time>
      </trkpt>
      <trkpt lat="23.064636" lon="113.272171">
        <time>2026-09-30T23:19:39Z</time>
      </trkpt>
      <trkpt lat="23.064679" lon="113.272074">
        <time>2026-09-30T23:19:44Z</time>
      </trkpt>
      <trkpt lat="23.064712" lon="113.272007">
        <time>2026-09-30T23:19:49Z</time>
      </trkpt>
      <trkpt lat="23.064738" lon="113.271949">
        <time>2026-09-30T23:19:54Z</time>
      </trkpt>
      <trkpt lat="23.064773" lon="113.271897">
        <time>2026-09-30T23:19:59Z</time>
      </trkpt>
      <trkpt lat="23.064811" lon="113.271853">
        <time>2026-09-30T23:20:04Z</time>
      </trkpt>
      <trkpt lat="23.064837" lon="113.2718">
        <time>2026-09-30T23:20:09Z</time>
      </trkpt>
      <trkpt lat="23.064863" lon="113.271741">
        <time>2026-09-30T23:20:14Z</time>
      </trkpt>
      <trkpt lat="23.064885" lon="113.271683">
        <time>2026-09-30T23:20:19Z</time>
      </trkpt>
      <trkpt lat="23.064916" lon="113.271626">
        <time>2026-09-30T23:20:24Z</time>
      </trkpt>
      <trkpt lat="23.064939" lon="113.271567">
        <time>2026-09-30T23:20:29Z</time>
      </trkpt>
      <trkpt lat="23.064962" lon="113.271515">
        <time>2026-09-30T23:20:34Z</time>
      </trkpt>
      <trkpt lat="23.064979" lon="113.27147">
        <time>2026-09-30T23:20:39Z</time>
      </trkpt>
      <trkpt lat="23.065002" lon="113.271419">
        <time>2026-09-30T23:20:44Z</time>
      </trkpt>
      <trkpt lat="23.065031" lon="113.271358">
        <time>2026-09-30T23:20:49Z</time>
      </trkpt>
      <trkpt lat="23.065069" lon="113.271272">
        <time>2026-09-30T23:20:54Z</time>
      </trkpt>
      <trkpt lat="23.065106" lon="113.271175">
        <time>2026-09-30T23:20:59Z</time>
      </trkpt>
      <trkpt lat="23.065173" lon="113.271125">
        <time>2026-09-30T23:21:04Z</time>
      </trkpt>
      <trkpt lat="23.065241" lon="113.271059">
        <time>2026-09-30T23:21:09Z</time>
      </trkpt>
      <trkpt lat="23.06526" lon="113.270949">
        <time>2026-09-30T23:21:14Z</time>
      </trkpt>
      <trkpt lat="23.065282" lon="113.270845">
        <time>2026-09-30T23:21:19Z</time>
      </trkpt>
      <trkpt lat="23.065306" lon="113.270741">
        <time>2026-09-30T23:21:24Z</time>
      </trkpt>
      <trkpt lat="23.065335" lon="113.27064">
        <time>2026-09-30T23:21:29Z</time>
      </trkpt>
      <trkpt lat="23.06538" lon="113.270545">
        <time>2026-09-30T23:21:34Z</time>
      </trkpt>
      <trkpt lat="23.06542" lon="113.27045">
        <time>2026-09-30T23:21:39Z</time>
      </trkpt>
      <trkpt lat="23.065464" lon="113.270353">
        <time>2026-09-30T23:21:44Z</time>
      </trkpt>
      <trkpt lat="23.065513" lon="113.270257">
        <time>2026-09-30T23:21:49Z</time>
      </trkpt>
      <trkpt lat="23.065553" lon="113.270159">
        <time>2026-09-30T23:21:54Z</time>
      </trkpt>
      <trkpt lat="23.065584" lon="113.27006">
        <time>2026-09-30T23:21:59Z</time>
      </trkpt>
      <trkpt lat="23.065622" lon="113.26996">
        <time>2026-09-30T23:22:04Z</time>
      </trkpt>
      <trkpt lat="23.065655" lon="113.269857">
        <time>2026-09-30T23:22:09Z</time>
      </trkpt>
      <trkpt lat="23.065662" lon="113.269755">
        <time>2026-09-30T23:22:14Z</time>
      </trkpt>
      <trkpt lat="23.065671" lon="113.269652">
        <time>2026-09-30T23:22:19Z</time>
      </trkpt>
      <trkpt lat="23.065708" lon="113.269547">
        <time>2026-09-30T23:22:24Z</time>
      </trkpt>
      <trkpt lat="23.065722" lon="113.269434">
        <time>2026-09-30T23:22:29Z</time>
      </trkpt>
      <trkpt lat="23.065734" lon="113.269329">
        <time>2026-09-30T23:22:34Z</time>
      </trkpt>
      <trkpt lat="23.065771" lon="113.269234">
        <time>2026-09-30T23:22:39Z</time>
      </trkpt>
      <trkpt lat="23.065805" lon="113.269133">
        <time>2026-09-30T23:22:44Z</time>
      </trkpt>
      <trkpt lat="23.065831" lon="113.269065">
        <time>2026-09-30T23:22:49Z</time>
      </trkpt>
      <trkpt lat="23.065859" lon="113.269006">
        <time>2026-09-30T23:22:54Z</time>
      </trkpt>
      <trkpt lat="23.065881" lon="113.268955">
        <time>2026-09-30T23:22:59Z</time>
      </trkpt>
      <trkpt lat="23.065903" lon="113.268904">
        <time>2026-09-30T23:23:04Z</time>
      </trkpt>
      <trkpt lat="23.065929" lon="113.268846">
        <time>2026-09-30T23:23:09Z</time>
      </trkpt>
      <trkpt lat="23.065957" lon="113.268782">
        <time>2026-09-30T23:23:14Z</time>
      </trkpt>
      <trkpt lat="23.065984" lon="113.26872">
        <time>2026-09-30T23:23:19Z</time>
      </trkpt>
      <trkpt lat="23.066014" lon="113.268659">
        <time>2026-09-30T23:23:24Z</time>
      </trkpt>
      <trkpt lat="23.066045" lon="113.268614">
        <time>2026-09-30T23:23:29Z</time>
      </trkpt>
      <trkpt lat="23.066071" lon="113.268569">
        <time>2026-09-30T23:23:34Z</time>
      </trkpt>
      <trkpt lat="23.066106" lon="113.268514">
        <time>2026-09-30T23:23:39Z</time>
      </trkpt>
      <trkpt lat="23.066142" lon="113.268454">
        <time>2026-09-30T23:23:44Z</time>
      </trkpt>
      <trkpt lat="23.066182" lon="113.268404">
        <time>2026-09-30T23:23:49Z</time>
      </trkpt>
      <trkpt lat="23.066218" lon="113.268359">
        <time>2026-09-30T23:23:54Z</time>
      </trkpt>
      <trkpt lat="23.066256" lon="113.268311">
        <time>2026-09-30T23:23:59Z</time>
      </trkpt>
      <trkpt lat="23.066296" lon="113.268262">
        <time>2026-09-30T23:24:04Z</time>
      </trkpt>
      <trkpt lat="23.06634" lon="113.268215">
        <time>2026-09-30T23:24:09Z</time>
      </trkpt>
      <trkpt lat="23.066391" lon="113.268178">
        <time>2026-09-30T23:24:14Z</time>
      </trkpt>
      <trkpt lat="23.066448" lon="113.268154">
        <time>2026-09-30T23:24:19Z</time>
      </trkpt>
      <trkpt lat="23.066508" lon="113.268146">
        <time>2026-09-30T23:24:24Z</time>
      </trkpt>
      <trkpt lat="23.066562" lon="113.268147">
        <time>2026-09-30T23:24:29Z</time>
      </trkpt>
      <trkpt lat="23.066619" lon="113.268159">
        <time>2026-09-30T23:24:34Z</time>
      </trkpt>
      <trkpt lat="23.066677" lon="113.268163">
        <time>2026-09-30T23:24:39Z</time>
      </trkpt>
      <trkpt lat="23.06673" lon="113.268158">
        <time>2026-09-30T23:24:44Z</time>
      </trkpt>
      <trkpt lat="23.066785" lon="113.26815">
        <time>2026-09-30T23:24:49Z</time>
      </trkpt>
      <trkpt lat="23.066841" lon="113.268152">
        <time>2026-09-30T23:24:54Z</time>
      </trkpt>
      <trkpt lat="23.066902" lon="113.268159">
        <time>2026-09-30T23:24:59Z</time>
      </trkpt>
      <trkpt lat="23.066963" lon="113.268171">
        <time>2026-09-30T23:25:04Z</time>
      </trkpt>
      <trkpt lat="23.067017" lon="113.268186">
        <time>2026-09-30T23:25:09Z</time>
      </trkpt>
      <trkpt lat="23.067065" lon="113.268212">
        <time>2026-09-30T23:25:14Z</time>
      </trkpt>
      <trkpt lat="23.067109" lon="113.268236">
        <time>2026-09-30T23:25:19Z</time>
      </trkpt>
      <trkpt lat="23.067152" lon="113.268259">
        <time>2026-09-30T23:25:24Z</time>
      </trkpt>
      <trkpt lat="23.067201" lon="113.268305">
        <time>2026-09-30T23:25:29Z</time>
      </trkpt>
      <trkpt lat="23.067259" lon="113.268335">
        <time>2026-09-30T23:25:34Z</time>
      </trkpt>
      <trkpt lat="23.067312" lon="113.268361">
        <time>2026-09-30T23:25:39Z</time>
      </trkpt>
      <trkpt lat="23.067356" lon="113.268382">
        <time>2026-09-30T23:25:44Z</time>
      </trkpt>
      <trkpt lat="23.067426" lon="113.268414">
        <time>2026-09-30T23:25:49Z</time>
      </trkpt>
      <trkpt lat="23.067521" lon="113.268476">
        <time>2026-09-30T23:25:54Z</time>
      </trkpt>
      <trkpt lat="23.067622" lon="113.268537">
        <time>2026-09-30T23:25:59Z</time>
      </trkpt>
      <trkpt lat="23.067733" lon="113.268583">
        <time>2026-09-30T23:26:04Z</time>
      </trkpt>
      <trkpt lat="23.067826" lon="113.268626">
        <time>2026-09-30T23:26:09Z</time>
      </trkpt>
      <trkpt lat="23.067899" lon="113.268687">
        <time>2026-09-30T23:26:14Z</time>
      </trkpt>
      <trkpt lat="23.06798" lon="113.268741">
        <time>2026-09-30T23:26:19Z</time>
      </trkpt>
      <trkpt lat="23.068061" lon="113.268766">
        <time>2026-09-30T23:26:24Z</time>
      </trkpt>
      <trkpt lat="23.068125" lon="113.268791">
        <time>2026-09-30T23:26:29Z</time>
      </trkpt>
      <trkpt lat="23.068166" lon="113.268823">
        <time>2026-09-30T23:26:34Z</time>
      </trkpt>
      <trkpt lat="23.068217" lon="113.268855">
        <time>2026-09-30T23:26:39Z</time>
      </trkpt>
      <trkpt lat="23.068277" lon="113.268889">
        <time>2026-09-30T23:26:44Z</time>
      </trkpt>
      <trkpt lat="23.068333" lon="113.268926">
        <time>2026-09-30T23:26:49Z</time>
      </trkpt>
      <trkpt lat="23.068386" lon="113.268972">
        <time>2026-09-30T23:26:54Z</time>
      </trkpt>
      <trkpt lat="23.068443" lon="113.269039">
        <time>2026-09-30T23:26:59Z</time>
      </trkpt>
      <trkpt lat="23.068509" lon="113.269079">
        <time>2026-09-30T23:27:04Z</time>
      </trkpt>
      <trkpt lat="23.06857" lon="113.2691">
        <time>2026-09-30T23:27:09Z</time>
      </trkpt>
      <trkpt lat="23.068628" lon="113.269119">
        <time>2026-09-30T23:27:14Z</time>
      </trkpt>
      <trkpt lat="23.068689" lon="113.269129">
        <time>2026-09-30T23:27:19Z</time>
      </trkpt>
      <trkpt lat="23.068756" lon="113.26915">
        <time>2026-09-30T23:27:24Z</time>
      </trkpt>
      <trkpt lat="23.068824" lon="113.269172">
        <time>2026-09-30T23:27:29Z</time>
      </trkpt>
      <trkpt lat="23.068885" lon="113.269192">
        <time>2026-09-30T23:27:34Z</time>
      </trkpt>
      <trkpt lat="23.068944" lon="113.269207">
        <time>2026-09-30T23:27:39Z</time>
      </trkpt>
      <trkpt lat="23.069005" lon="113.269213">
        <time>2026-09-30T23:27:44Z</time>
      </trkpt>
      <trkpt lat="23.069051" lon="113.269213">
        <time>2026-09-30T23:27:49Z</time>
      </trkpt>
      <trkpt lat="23.069106" lon="113.269238">
        <time>2026-09-30T23:27:54Z</time>
      </trkpt>
      <trkpt lat="23.069172" lon="113.269273">
        <time>2026-09-30T23:27:59Z</time>
      </trkpt>
      <trkpt lat="23.069234" lon="113.26931">
        <time>2026-09-30T23:28:04Z</time>
      </trkpt>
      <trkpt lat="23.069301" lon="113.269343">
        <time>2026-09-30T23:28:09Z</time>
      </trkpt>
      <trkpt lat="23.069394" lon="113.269375">
        <time>2026-09-30T23:28:14Z</time>
      </trkpt>
      <trkpt lat="23.069497" lon="113.269419">
        <time>2026-09-30T23:28:19Z</time>
      </trkpt>
      <trkpt lat="23.069587" lon="113.269479">
        <time>2026-09-30T23:28:24Z</time>
      </trkpt>
      <trkpt lat="23.069673" lon="113.269538">
        <time>2026-09-30T23:28:29Z</time>
      </trkpt>
      <trkpt lat="23.069768" lon="113.269582">
        <time>2026-09-30T23:28:34Z</time>
      </trkpt>
      <trkpt lat="23.069856" lon="113.269634">
        <time>2026-09-30T23:28:39Z</time>
      </trkpt>
      <trkpt lat="23.069939" lon="113.269694">
        <time>2026-09-30T23:28:44Z</time>
      </trkpt>
      <trkpt lat="23.070008" lon="113.269741">
        <time>2026-09-30T23:28:49Z</time>
      </trkpt>
      <trkpt lat="23.070059" lon="113.269778">
        <time>2026-09-30T23:28:54Z</time>
      </trkpt>
      <trkpt lat="23.070109" lon="113.269814">
        <time>2026-09-30T23:28:59Z</time>
      </trkpt>
      <trkpt lat="23.070158" lon="113.269842">
        <time>2026-09-30T23:29:04Z</time>
      </trkpt>
      <trkpt lat="23.070209" lon="113.269865">
        <time>2026-09-30T23:29:09Z</time>
      </trkpt>
      <trkpt lat="23.070258" lon="113.269885">
        <time>2026-09-30T23:29:14Z</time>
      </trkpt>
      <trkpt lat="23.070307" lon="113.269905">
        <time>2026-09-30T23:29:19Z</time>
      </trkpt>
      <trkpt lat="23.07036" lon="113.269924">
        <time>2026-09-30T23:29:24Z</time>
      </trkpt>
      <trkpt lat="23.070415" lon="113.269944">
        <time>2026-09-30T23:29:29Z</time>
      </trkpt>
      <trkpt lat="23.070471" lon="113.269959">
        <time>2026-09-30T23:29:34Z</time>
      </trkpt>
      <trkpt lat="23.070536" lon="113.269969">
        <time>2026-09-30T23:29:39Z</time>
      </trkpt>
      <trkpt lat="23.070598" lon="113.26999">
        <time>2026-09-30T23:29:44Z</time>
      </trkpt>
      <trkpt lat="23.070651" lon="113.270016">
        <time>2026-09-30T23:29:49Z</time>
      </trkpt>
      <trkpt lat="23.070696" lon="113.270045">
        <time>2026-09-30T23:29:54Z</time>
      </trkpt>
      <trkpt lat="23.070743" lon="113.270071">
        <time>2026-09-30T23:29:59Z</time>
      </trkpt>
      <trkpt lat="23.070824" lon="113.270102">
        <time>2026-09-30T23:30:04Z</time>
      </trkpt>
      <trkpt lat="23.070922" lon="113.270138">
        <time>2026-09-30T23:30:09Z</time>
      </trkpt>
      <trkpt lat="23.07102" lon="113.270169">
        <time>2026-09-30T23:30:14Z</time>
      </trkpt>
      <trkpt lat="23.071084" lon="113.27021">
        <time>2026-09-30T23:30:19Z</time>
      </trkpt>
      <trkpt lat="23.071168" lon="113.270258">
        <time>2026-09-30T23:30:24Z</time>
      </trkpt>
      <trkpt lat="23.07125" lon="113.270312">
        <time>2026-09-30T23:30:29Z</time>
      </trkpt>
      <trkpt lat="23.07134" lon="113.270359">
        <time>2026-09-30T23:30:34Z</time>
      </trkpt>
      <trkpt lat="23.07144" lon="113.270398">
        <time>2026-09-30T23:30:39Z</time>
      </trkpt>
      <trkpt lat="23.071526" lon="113.270436">
        <time>2026-09-30T23:30:44Z</time>
      </trkpt>
      <trkpt lat="23.071586" lon="113.270474">
        <time>2026-09-30T23:30:49Z</time>
      </trkpt>
      <trkpt lat="23.071632" lon="113.270506">
        <time>2026-09-30T23:30:54Z</time>
      </trkpt>
      <trkpt lat="23.071682" lon="113.270539">
        <time>2026-09-30T23:30:59Z</time>
      </trkpt>
      <trkpt lat="23.071742" lon="113.270558">
        <time>2026-09-30T23:31:04Z</time>
      </trkpt>
      <trkpt lat="23.071797" lon="113.270586">
        <time>2026-09-30T23:31:09Z</time>
      </trkpt>
      <trkpt lat="23.071857" lon="113.270624">
        <time>2026-09-30T23:31:14Z</time>
      </trkpt>
      <trkpt lat="23.071913" lon="113.270659">
        <time>2026-09-30T23:31:19Z</time>
      </trkpt>
      <trkpt lat="23.071966" lon="113.270689">
        <time>2026-09-30T23:31:24Z</time>
      </trkpt>
      <trkpt lat="23.072023" lon="113.270706">
        <time>2026-09-30T23:31:29Z</time>
      </trkpt>
      <trkpt lat="23.072075" lon="113.270753">
        <time>2026-09-30T23:31:34Z</time>
      </trkpt>
      <trkpt lat="23.072125" lon="113.270788">
        <time>2026-09-30T23:31:39Z</time>
      </trkpt>
      <trkpt lat="23.072187" lon="113.270835">
        <time>2026-09-30T23:31:44Z</time>
      </trkpt>
      <trkpt lat="23.072286" lon="113.270881">
        <time>2026-09-30T23:31:49Z</time>
      </trkpt>
      <trkpt lat="23.072386" lon="113.270914">
        <time>2026-09-30T23:31:54Z</time>
      </trkpt>
      <trkpt lat="23.07248" lon="113.270957">
        <time>2026-09-30T23:31:59Z</time>
      </trkpt>
      <trkpt lat="23.072551" lon="113.270982">
        <time>2026-09-30T23:32:04Z</time>
      </trkpt>
      <trkpt lat="23.072624" lon="113.270997">
        <time>2026-09-30T23:32:09Z</time>
      </trkpt>
      <trkpt lat="23.072725" lon="113.271035">
        <time>2026-09-30T23:32:14Z</time>
      </trkpt>
      <trkpt lat="23.072826" lon="113.271078">
        <time>2026-09-30T23:32:19Z</time>
      </trkpt>
      <trkpt lat="23.072909" lon="113.27113">
        <time>2026-09-30T23:32:24Z</time>
      </trkpt>
      <trkpt lat="23.072995" lon="113.271182">
        <time>2026-09-30T23:32:29Z</time>
      </trkpt>
      <trkpt lat="23.07309" lon="113.271243">
        <time>2026-09-30T23:32:34Z</time>
      </trkpt>
      <trkpt lat="23.073222" lon="113.271262">
        <time>2026-09-30T23:32:39Z</time>
      </trkpt>
      <trkpt lat="23.073331" lon="113.271285">
        <time>2026-09-30T23:32:44Z</time>
      </trkpt>
      <trkpt lat="23.073411" lon="113.271331">
        <time>2026-09-30T23:32:49Z</time>
      </trkpt>
      <trkpt lat="23.073492" lon="113.271385">
        <time>2026-09-30T23:32:54Z</time>
      </trkpt>
      <trkpt lat="23.073568" lon="113.271443">
        <time>2026-09-30T23:32:59Z</time>
      </trkpt>
      <trkpt lat="23.073647" lon="113.271495">
        <time>2026-09-30T23:33:04Z</time>
      </trkpt>
      <trkpt lat="23.073705" lon="113.271525">
        <time>2026-09-30T23:33:09Z</time>
      </trkpt>
      <trkpt lat="23.073758" lon="113.271543">
        <time>2026-09-30T23:33:14Z</time>
      </trkpt>
      <trkpt lat="23.073814" lon="113.271561">
        <time>2026-09-30T23:33:19Z</time>
      </trkpt>
      <trkpt lat="23.073877" lon="113.271577">
        <time>2026-09-30T23:33:24Z</time>
      </trkpt>
      <trkpt lat="23.073935" lon="113.271596">
        <time>2026-09-30T23:33:29Z</time>
      </trkpt>
      <trkpt lat="23.073992" lon="113.271629">
        <time>2026-09-30T23:33:34Z</time>
      </trkpt>
      <trkpt lat="23.074039" lon="113.271681">
        <time>2026-09-30T23:33:39Z</time>
      </trkpt>
      <trkpt lat="23.074076" lon="113.271734">
        <time>2026-09-30T23:33:44Z</time>
      </trkpt>
      <trkpt lat="23.074103" lon="113.271781">
        <time>2026-09-30T23:33:49Z</time>
      </trkpt>
      <trkpt lat="23.074084" lon="113.271827">
        <time>2026-09-30T23:33:54Z</time>
      </trkpt>
      <trkpt lat="23.074051" lon="113.271884">
        <time>2026-09-30T23:33:59Z</time>
      </trkpt>
      <trkpt lat="23.074022" lon="113.271944">
        <time>2026-09-30T23:34:04Z</time>
      </trkpt>
      <trkpt lat="23.073992" lon="113.272009">
        <time>2026-09-30T23:34:09Z</time>
      </trkpt>
      <trkpt lat="23.073969" lon="113.272073">
        <time>2026-09-30T23:34:14Z</time>
      </trkpt>
      <trkpt lat="23.073951" lon="113.272132">
        <time>2026-09-30T23:34:19Z</time>
      </trkpt>
      <trkpt lat="23.07394" lon="113.272196">
        <time>2026-09-30T23:34:24Z</time>
      </trkpt>
      <trkpt lat="23.073927" lon="113.272244">
        <time>2026-09-30T23:34:29Z</time>
      </trkpt>
      <trkpt lat="23.073898" lon="113.272312">
        <time>2026-09-30T23:34:34Z</time>
      </trkpt>
      <trkpt lat="23.073845" lon="113.272426">
        <time>2026-09-30T23:34:39Z</time>
      </trkpt>
      <trkpt lat="23.073767" lon="113.272607">
        <time>2026-09-30T23:34:44Z</time>
      </trkpt>
      <trkpt lat="23.073699" lon="113.272772">
        <time>2026-09-30T23:34:49Z</time>
      </trkpt>
      <trkpt lat="23.073719" lon="113.272896">
        <time>2026-09-30T23:34:54Z</time>
      </trkpt>
      <trkpt lat="23.073845" lon="113.272957">
        <time>2026-09-30T23:34:59Z</time>
      </trkpt>
      <trkpt lat="23.073974" lon="113.272995">
        <time>2026-09-30T23:35:04Z</time>
      </trkpt>
      <trkpt lat="23.074018" lon="113.272958">
        <time>2026-09-30T23:35:09Z</time>
      </trkpt>
      <trkpt lat="23.074032" lon="113.272896">
        <time>2026-09-30T23:35:14Z</time>
      </trkpt>
      <trkpt lat="23.074046" lon="113.272833">
        <time>2026-09-30T23:35:19Z</time>
      </trkpt>
      <trkpt lat="23.074063" lon="113.272762">
        <time>2026-09-30T23:35:24Z</time>
      </trkpt>
      <trkpt lat="23.074098" lon="113.272708">
        <time>2026-09-30T23:35:29Z</time>
      </trkpt>
      <trkpt lat="23.074121" lon="113.272668">
        <time>2026-09-30T23:35:34Z</time>
      </trkpt>
      <trkpt lat="23.074141" lon="113.272621">
        <time>2026-09-30T23:35:39Z</time>
      </trkpt>
      <trkpt lat="23.074162" lon="113.272575">
        <time>2026-09-30T23:35:44Z</time>
      </trkpt>
      <trkpt lat="23.074199" lon="113.272516">
        <time>2026-09-30T23:35:49Z</time>
      </trkpt>
      <trkpt lat="23.074239" lon="113.272444">
        <time>2026-09-30T23:35:54Z</time>
      </trkpt>
      <trkpt lat="23.074274" lon="113.272378">
        <time>2026-09-30T23:35:59Z</time>
      </trkpt>
      <trkpt lat="23.074299" lon="113.272324">
        <time>2026-09-30T23:36:04Z</time>
      </trkpt>
      <trkpt lat="23.074305" lon="113.272262">
        <time>2026-09-30T23:36:09Z</time>
      </trkpt>
      <trkpt lat="23.074304" lon="113.272186">
        <time>2026-09-30T23:36:14Z</time>
      </trkpt>
      <trkpt lat="23.074366" lon="113.272128">
        <time>2026-09-30T23:36:19Z</time>
      </trkpt>
      <trkpt lat="23.074415" lon="113.272089">
        <time>2026-09-30T23:36:24Z</time>
      </trkpt>
      <trkpt lat="23.074468" lon="113.272053">
        <time>2026-09-30T23:36:29Z</time>
      </trkpt>
      <trkpt lat="23.074528" lon="113.272037">
        <time>2026-09-30T23:36:34Z</time>
      </trkpt>
      <trkpt lat="23.074597" lon="113.272046">
        <time>2026-09-30T23:36:39Z</time>
      </trkpt>
      <trkpt lat="23.074677" lon="113.272082">
        <time>2026-09-30T23:36:44Z</time>
      </trkpt>
      <trkpt lat="23.074777" lon="113.272135">
        <time>2026-09-30T23:36:49Z</time>
      </trkpt>
      <trkpt lat="23.074874" lon="113.272196">
        <time>2026-09-30T23:36:55Z</time>
      </trkpt>
    </trkseg>
  </trk>
</gpx>