<?xml version="1.0" encoding="UTF-8"?>
<gpx xmlns="http://www.topografix.com/GPX/1/1" xmlns:gpxtpx="http://www.garmin.com/xmlschemas/TrackPointExtension/v1" xmlns:xsi="http://www.w3.org/2001/XMLSchema-instance" xsi:schemaLocation="http://www.topografix.com/GPX/1/1 http://www.topografix.com/GPX/1/1/gpx.xsd" version="1.1" creator="gpx.py -- https://github.com/tkrajina/gpxpy">
  <trk>
    <name>gpx from joyrun</name>
    <trkseg>
      <trkpt lat="23.136415" lon="113.257921">
        <time>2026-10-03T02:46:14Z</time>
      </trkpt>
      <trkpt lat="23.13642" lon="113.257949">
        <time>2026-10-03T02:46:19Z</time>
      </trkpt>
      <trkpt lat="23.136445" lon="113.258007">
        <time>2026-10-03T02:46:24Z</time>
      </trkpt>
      <trkpt lat="23.136459" lon="113.258016">
        <time>2026-10-03T02:46:29Z</time>
      </trkpt>
      <trkpt lat="23.136478" lon="113.258025">
        <time>2026-10-03T02:46:34Z</time>
      </trkpt>
      <trkpt lat="23.136511" lon="113.258042">
        <time>2026-10-03T02:46:39Z</time>
      </trkpt>
      <trkpt lat="23.136538" lon="113.258068">
        <time>2026-10-03T02:46:44Z</time>
      </trkpt>
      <trkpt lat="23.136563" lon="113.258091">
        <time>2026-10-03T02:46:49Z</time>
      </trkpt>
      <trkpt lat="23.136595" lon="113.258119">
        <time>2026-10-03T02:46:54Z</time>
      </trkpt>
      <trkpt lat="23.136636" lon="113.258138">
        <time>2026-10-03T02:46:59Z</time>
      </trkpt>
      <trkpt lat="23.13668" lon="113.258137">
        <time>2026-10-03T02:47:04Z</time>
      </trkpt>
      <trkpt lat="23.136723" lon="113.258133">
        <time>2026-10-03T02:47:09Z</time>
      </trkpt>
      <trkpt lat="23.136761" lon="113.258112">
        <time>2026-10-03T02:47:14Z</time>
      </trkpt>
      <trkpt lat="23.136795" lon="113.25807">
        <time>2026-10-03T02:47:19Z</time>
      </trkpt>
      <trkpt lat="23.136821" lon="113.258037">
        <time>2026-10-03T02:47:24Z</time>
      </trkpt>
      <trkpt lat="23.13684" lon="113.258007">
        <time>2026-10-03T02:47:29Z</time>
      </trkpt>
      <trkpt lat="23.13684" lon="113.258007">
        <time>2026-10-03T02:47:34Z</time>
      </trkpt>
      <trkpt lat="23.13684" lon="113.258007">
        <time>2026-10-03T02:47:39Z</time>
      </trkpt>
      <trkpt lat="23.136843" lon="113.257999">
        <time>2026-10-03T02:47:44Z</time>
      </trkpt>
      <trkpt lat="23.136847" lon="113.257966">
        <time>2026-10-03T02:47:49Z</time>
      </trkpt>
      <trkpt lat="23.136858" lon="113.257937">
        <time>2026-10-03T02:47:54Z</time>
      </trkpt>
      <trkpt lat="23.13688" lon="113.257914">
        <time>2026-10-03T02:47:59Z</time>
      </trkpt>
      <trkpt lat="23.136893" lon="113.257885">
        <time>2026-10-03T02:48:04Z</time>
      </trkpt>
      <trkpt lat="23.136899" lon="113.257843">
        <time>2026-10-03T02:48:09Z</time>
      </trkpt>
      <trkpt lat="23.136907" lon="113.257799">
        <time>2026-10-03T02:48:14Z</time>
      </trkpt>
      <trkpt lat="23.136916" lon="113.257759">
        <time>2026-10-03T02:48:19Z</time>
      </trkpt>
      <trkpt lat="23.136941" lon="113.257703">
        <time>2026-10-03T02:48:24Z</time>
      </trkpt>
      <trkpt lat="23.13699" lon="113.257643">
        <time>2026-10-03T02:48:29Z</time>
      </trkpt>
      <trkpt lat="23.137011" lon="113.257633">
        <time>2026-10-03T02:48:34Z</time>
      </trkpt>
      <trkpt lat="23.137011" lon="113.257633">
        <time>2026-10-03T02:48:39Z</time>
      </trkpt>
      <trkpt lat="23.13703" lon="113.257616">
        <time>2026-10-03T02:48:44Z</time>
      </trkpt>
      <trkpt lat="23.137054" lon="113.257599">
        <time>2026-10-03T02:48:49Z</time>
      </trkpt>
      <trkpt lat="23.137064" lon="113.25755">
        <time>2026-10-03T02:48:54Z</time>
      </trkpt>
      <trkpt lat="23.137072" lon="113.257462">
        <time>2026-10-03T02:48:59Z</time>
      </trkpt>
      <trkpt lat="23.137083" lon="113.257398">
        <time>2026-10-03T02:49:04Z</time>
      </trkpt>
      <trkpt lat="23.137083" lon="113.257353">
        <time>2026-10-03T02:49:09Z</time>
      </trkpt>
      <trkpt lat="23.13709" lon="113.25731">
        <time>2026-10-03T02:49:14Z</time>
      </trkpt>
      <trkpt lat="23.137103" lon="113.257266">
        <time>2026-10-03T02:49:19Z</time>
      </trkpt>
      <trkpt lat="23.137119" lon="113.257222">
        <time>2026-10-03T02:49:24Z</time>
      </trkpt>
      <trkpt lat="23.137139" lon="113.257184">
        <time>2026-10-03T02:49:29Z</time>
      </trkpt>
      <trkpt lat="23.137158" lon="113.257145">
        <time>2026-10-03T02:49:34Z</time>
      </trkpt>
      <trkpt lat="23.1372" lon="113.257086">
        <time>2026-10-03T02:49:39Z</time>
      </trkpt>
      <trkpt lat="23.137195" lon="113.257041">
        <time>2026-10-03T02:49:44Z</time>
      </trkpt>
      <trkpt lat="23.137183" lon="113.257008">
        <time>2026-10-03T02:49:49Z</time>
      </trkpt>
      <trkpt lat="23.137193" lon="113.256953">
        <time>2026-10-03T02:49:54Z</time>
      </trkpt>
      <trkpt lat="23.137242" lon="113.256884">
        <time>2026-10-03T02:49:59Z</time>
      </trkpt>
      <trkpt lat="23.137284" lon="113.256821">
        <time>2026-10-03T02:50:04Z</time>
      </trkpt>
      <trkpt lat="23.137313" lon="113.256771">
        <time>2026-10-03T02:50:09Z</time>
      </trkpt>
      <trkpt lat="23.137333" lon="113.256736">
        <time>2026-10-03T02:50:14Z</time>
      </trkpt>
      <trkpt lat="23.137357" lon="113.256719">
        <time>2026-10-03T02:50:19Z</time>
      </trkpt>
      <trkpt lat="23.137382" lon="113.256716">
        <time>2026-10-03T02:50:24Z</time>
      </trkpt>
      <trkpt lat="23.137406" lon="113.256716">
        <time>2026-10-03T02:50:29Z</time>
      </trkpt>
      <trkpt lat="23.137434" lon="113.25671">
        <time>2026-10-03T02:50:34Z</time>
      </trkpt>
      <trkpt lat="23.137462" lon="113.256704">
        <time>2026-10-03T02:50:39Z</time>
      </trkpt>
      <trkpt lat="23.137493" lon="113.256704">
        <time>2026-10-03T02:50:44Z</time>
      </trkpt>
      <trkpt lat="23.137525" lon="113.256701">
        <time>2026-10-03T02:50:49Z</time>
      </trkpt>
      <trkpt lat="23.137563" lon="113.256716">
        <time>2026-10-03T02:50:54Z</time>
      </trkpt>
      <trkpt lat="23.137597" lon="113.256734">
        <time>2026-10-03T02:50:59Z</time>
      </trkpt>
      <trkpt lat="23.137621" lon="113.25674">
        <time>2026-10-03T02:51:04Z</time>
      </trkpt>
      <trkpt lat="23.13765" lon="113.256756">
        <time>2026-10-03T02:51:09Z</time>
      </trkpt>
      <trkpt lat="23.13765" lon="113.256756">
        <time>2026-10-03T02:51:14Z</time>
      </trkpt>
      <trkpt lat="23.13767" lon="113.25676">
        <time>2026-10-03T02:51:19Z</time>
      </trkpt>
      <trkpt lat="23.137705" lon="113.256761">
        <time>2026-10-03T02:51:24Z</time>
      </trkpt>
      <trkpt lat="23.137745" lon="113.256742">
        <time>2026-10-03T02:51:29Z</time>
      </trkpt>
      <trkpt lat="23.137796" lon="113.25671">
        <time>2026-10-03T02:51:34Z</time>
      </trkpt>
      <trkpt lat="23.137858" lon="113.256697">
        <time>2026-10-03T02:51:39Z</time>
      </trkpt>
      <trkpt lat="23.137904" lon="113.256715">
        <time>2026-10-03T02:51:44Z</time>
      </trkpt>
      <trkpt lat="23.137943" lon="113.256725">
        <time>2026-10-03T02:51:49Z</time>
      </trkpt>
      <trkpt lat="23.137986" lon="113.25671">
        <time>2026-10-03T02:51:54Z</time>
      </trkpt>
      <trkpt lat="23.138029" lon="113.256684">
        <time>2026-10-03T02:51:59Z</time>
      </trkpt>
      <trkpt lat="23.138075" lon="113.256666">
        <time>2026-10-03T02:52:04Z</time>
      </trkpt>
      <trkpt lat="23.138115" lon="113.256643">
        <time>2026-10-03T02:52:09Z</time>
      </trkpt>
      <trkpt lat="23.138148" lon="113.256638">
        <time>2026-10-03T02:52:14Z</time>
      </trkpt>
      <trkpt lat="23.138174" lon="113.256637">
        <time>2026-10-03T02:52:19Z</time>
      </trkpt>
      <trkpt lat="23.138205" lon="113.256629">
        <time>2026-10-03T02:52:24Z</time>
      </trkpt>
      <trkpt lat="23.138229" lon="113.256603">
        <time>2026-10-03T02:52:29Z</time>
      </trkpt>
      <trkpt lat="23.138261" lon="113.256584">
        <time>2026-10-03T02:52:34Z</time>
      </trkpt>
      <trkpt lat="23.138302" lon="113.256585">
        <time>2026-10-03T02:52:39Z</time>
      </trkpt>
      <trkpt lat="23.138335" lon="113.256569">
        <time>2026-10-03T02:52:44Z</time>
      </trkpt>
      <trkpt lat="23.138376" lon="113.25655">
        <time>2026-10-03T02:52:49Z</time>
      </trkpt>
      <trkpt lat="23.138431" lon="113.256549">
        <time>2026-10-03T02:52:54Z</time>
      </trkpt>
      <trkpt lat="23.138474" lon="113.256559">
        <time>2026-10-03T02:52:59Z</time>
      </trkpt>
      <trkpt lat="23.138508" lon="113.25657">
        <time>2026-10-03T02:53:04Z</time>
      </trkpt>
      <trkpt lat="23.13854" lon="113.256574">
        <time>2026-10-03T02:53:09Z</time>
      </trkpt>
      <trkpt lat="23.138574" lon="113.256582">
        <time>2026-10-03T02:53:14Z</time>
      </trkpt>
      <trkpt lat="23.138613" lon="113.256592">
        <time>2026-10-03T02:53:19Z</time>
      </trkpt>
      <trkpt lat="23.138651" lon="113.256609">
        <time>2026-10-03T02:53:24Z</time>
      </trkpt>
      <trkpt lat="23.138696" lon="113.256621">
        <time>2026-10-03T02:53:29Z</time>
      </trkpt>
      <trkpt lat="23.13874" lon="113.25664">
        <time>2026-10-03T02:53:34Z</time>
      </trkpt>
      <trkpt lat="23.138774" lon="113.256663">
        <time>2026-10-03T02:53:39Z</time>
      </trkpt>
      <trkpt lat="23.138809" lon="113.256691">
        <time>2026-10-03T02:53:44Z</time>
      </trkpt>
      <trkpt lat="23.138851" lon="113.25671">
        <time>2026-10-03T02:53:49Z</time>
      </trkpt>
      <trkpt lat="23.138888" lon="113.256724">
        <time>2026-10-03T02:53:54Z</time>
      </trkpt>
      <trkpt lat="23.138919" lon="113.256735">
        <time>2026-10-03T02:53:59Z</time>
      </trkpt>
      <trkpt lat="23.138948" lon="113.256751">
        <time>2026-10-03T02:54:04Z</time>
      </trkpt>
      <trkpt lat="23.13896" lon="113.256756">
        <time>2026-10-03T02:54:09Z</time>
      </trkpt>
      <trkpt lat="23.138977" lon="113.256762">
        <time>2026-10-03T02:54:14Z</time>
      </trkpt>
      <trkpt lat="23.139009" lon="113.256771">
        <time>2026-10-03T02:54:19Z</time>
      </trkpt>
      <trkpt lat="23.139033" lon="113.256807">
        <time>2026-10-03T02:54:24Z</time>
      </trkpt>
      <trkpt lat="23.13905" lon="113.256834">
        <time>2026-10-03T02:54:29Z</time>
      </trkpt>
      <trkpt lat="23.139061" lon="113.256844">
        <time>2026-10-03T02:54:34Z</time>
      </trkpt>
      <trkpt lat="23.139075" lon="113.256858">
        <time>2026-10-03T02:54:39Z</time>
      </trkpt>
      <trkpt lat="23.139099" lon="113.256882">
        <time>2026-10-03T02:54:44Z</time>
      </trkpt>
      <trkpt lat="23.139099" lon="113.256882">
        <time>2026-10-03T02:54:49Z</time>
      </trkpt>
      <trkpt lat="23.139112" lon="113.256899">
        <time>2026-10-03T02:54:54Z</time>
      </trkpt>
      <trkpt lat="23.139127" lon="113.25693">
        <time>2026-10-03T02:54:59Z</time>
      </trkpt>
      <trkpt lat="23.139132" lon="113.256974">
        <time>2026-10-03T02:55:04Z</time>
      </trkpt>
      <trkpt lat="23.13914" lon="113.257023">
        <time>2026-10-03T02:55:09Z</time>
      </trkpt>
      <trkpt lat="23.139164" lon="113.257073">
        <time>2026-10-03T02:55:14Z</time>
      </trkpt>
      <trkpt lat="23.139198" lon="113.257108">
        <time>2026-10-03T02:55:19Z</time>
      </trkpt>
      <trkpt lat="23.139221" lon="113.257122">
        <time>2026-10-03T02:55:24Z</time>
      </trkpt>
      <trkpt lat="23.139243" lon="113.257146">
        <time>2026-10-03T02:55:29Z</time>
      </trkpt>
      <trkpt lat="23.139253" lon="113.257175">
        <time>2026-10-03T02:55:34Z</time>
      </trkpt>
      <trkpt lat="23.139256" lon="113.257207">
        <time>2026-10-03T02:55:39Z</time>
      </trkpt>
      <trkpt lat="23.139264" lon="113.257246">
        <time>2026-10-03T02:55:44Z</time>
      </trkpt>
      <trkpt lat="23.139283" lon="113.25728">
        <time>2026-10-03T02:55:49Z</time>
      </trkpt>
      <trkpt lat="23.139291" lon="113.257323">
        <time>2026-10-03T02:55:54Z</time>
      </trkpt>
      <trkpt lat="23.1393" lon="113.257359">
        <time>2026-10-03T02:55:59Z</time>
      </trkpt>
      <trkpt lat="23.139308" lon="113.257391">
        <time>2026-10-03T02:56:04Z</time>
      </trkpt>
      <trkpt lat="23.13931" lon="113.257434">
        <time>2026-10-03T02:56:09Z</time>
      </trkpt>
      <trkpt lat="23.139297" lon="113.257494">
        <time>2026-10-03T02:56:14Z</time>
      </trkpt>
      <trkpt lat="23.139295" lon="113.257548">
        <time>2026-10-03T02:56:19Z</time>
      </trkpt>
      <trkpt lat="23.139305" lon="113.257598">
        <time>2026-10-03T02:56:24Z</time>
      </trkpt>
      <trkpt lat="23.139316" lon="113.257636">
        <time>2026-10-03T02:56:29Z</time>
      </trkpt>
      <trkpt lat="23.139328" lon="113.257664">
        <time>2026-10-03T02:56:34Z</time>
      </trkpt>
      <trkpt lat="23.139333" lon="113.257668">
        <time>2026-10-03T02:56:39Z</time>
      </trkpt>
      <trkpt lat="23.139357" lon="113.257683">
        <time>2026-10-03T02:56:44Z</time>
      </trkpt>
      <trkpt lat="23.139389" lon="113.257691">
        <time>2026-10-03T02:56:49Z</time>
      </trkpt>
      <trkpt lat="23.139424" lon="113.257695">
        <time>2026-10-03T02:56:54Z</time>
      </trkpt>
      <trkpt lat="23.139466" lon="113.257693">
        <time>2026-10-03T02:56:59Z</time>
      </trkpt>
      <trkpt lat="23.13951" lon="113.257687">
        <time>2026-10-03T02:57:04Z</time>
      </trkpt>
      <trkpt lat="23.139548" lon="113.257678">
        <time>2026-10-03T02:57:09Z</time>
      </trkpt>
      <trkpt lat="23.139589" lon="113.257682">
        <time>2026-10-03T02:57:14Z</time>
      </trkpt>
      <trkpt lat="23.139599" lon="113.257686">
        <time>2026-10-03T02:57:19Z</time>
      </trkpt>
      <trkpt lat="23.1396" lon="113.2577">
        <time>2026-10-03T02:57:24Z</time>
      </trkpt>
      <trkpt lat="23.1396" lon="113.2577">
        <time>2026-10-03T02:57:29Z</time>
      </trkpt>
      <trkpt lat="23.139589" lon="113.257715">
        <time>2026-10-03T02:57:34Z</time>
      </trkpt>
      <trkpt lat="23.139581" lon="113.257726">
        <time>2026-10-03T02:57:39Z</time>
      </trkpt>
      <trkpt lat="23.139572" lon="113.257765">
        <time>2026-10-03T02:57:44Z</time>
      </trkpt>
      <trkpt lat="23.139587" lon="113.257808">
        <time>2026-10-03T02:57:49Z</time>
      </trkpt>
      <trkpt lat="23.139599" lon="113.257848">
        <time>2026-10-03T02:57:54Z</time>
      </trkpt>
      <trkpt lat="23.139603" lon="113.257869">
        <time>2026-10-03T02:57:59Z</time>
      </trkpt>
      <trkpt lat="23.139619" lon="113.257902">
        <time>2026-10-03T02:58:04Z</time>
      </trkpt>
      <trkpt lat="23.139635" lon="113.257907">
        <time>2026-10-03T02:58:09Z</time>
      </trkpt>
      <trkpt lat="23.139646" lon="113.257911">
        <time>2026-10-03T02:58:14Z</time>
      </trkpt>
      <trkpt lat="23.139682" lon="113.257917">
        <time>2026-10-03T02:58:19Z</time>
      </trkpt>
      <trkpt lat="23.139709" lon="113.257919">
        <time>2026-10-03T02:58:24Z</time>
      </trkpt>
      <trkpt lat="23.139723" lon="113.25792">
        <time>2026-10-03T02:58:29Z</time>
      </trkpt>
      <trkpt lat="23.139742" lon="113.257916">
        <time>2026-10-03T02:58:34Z</time>
      </trkpt>
      <trkpt lat="23.139781" lon="113.257908">
        <time>2026-10-03T02:58:39Z</time>
      </trkpt>
      <trkpt lat="23.139815" lon="113.257902">
        <time>2026-10-03T02:58:44Z</time>
      </trkpt>
      <trkpt lat="23.139842" lon="113.257893">
        <time>2026-10-03T02:58:49Z</time>
      </trkpt>
      <trkpt lat="23.139875" lon="113.257884">
        <time>2026-10-03T02:58:54Z</time>
      </trkpt>
      <trkpt lat="23.139908" lon="113.257875">
        <time>2026-10-03T02:58:59Z</time>
      </trkpt>
      <trkpt lat="23.139937" lon="113.257868">
        <time>2026-10-03T02:59:04Z</time>
      </trkpt>
      <trkpt lat="23.139967" lon="113.257855">
        <time>2026-10-03T02:59:09Z</time>
      </trkpt>
      <trkpt lat="23.140002" lon="113.257846">
        <time>2026-10-03T02:59:14Z</time>
      </trkpt>
      <trkpt lat="23.140023" lon="113.25784">
        <time>2026-10-03T02:59:19Z</time>
      </trkpt>
      <trkpt lat="23.140038" lon="113.257829">
        <time>2026-10-03T02:59:24Z</time>
      </trkpt>
      <trkpt lat="23.140052" lon="113.257789">
        <time>2026-10-03T02:59:29Z</time>
      </trkpt>
      <trkpt lat="23.140073" lon="113.257747">
        <time>2026-10-03T02:59:34Z</time>
      </trkpt>
      <trkpt lat="23.140073" lon="113.257747">
        <time>2026-10-03T02:59:39Z</time>
      </trkpt>
      <trkpt lat="23.140106" lon="113.257737">
        <time>2026-10-03T02:59:44Z</time>
      </trkpt>
      <trkpt lat="23.14015" lon="113.257727">
        <time>2026-10-03T02:59:49Z</time>
      </trkpt>
      <trkpt lat="23.140165" lon="113.257721">
        <time>2026-10-03T02:59:54Z</time>
      </trkpt>
      <trkpt lat="23.140183" lon="113.257711">
        <time>2026-10-03T02:59:59Z</time>
      </trkpt>
      <trkpt lat="23.140183" lon="113.257711">
        <time>2026-10-03T03:00:04Z</time>
      </trkpt>
      <trkpt lat="23.140197" lon="113.257703">
        <time>2026-10-03T03:00:09Z</time>
      </trkpt>
      <trkpt lat="23.140236" lon="113.25769">
        <time>2026-10-03T03:00:14Z</time>
      </trkpt>
      <trkpt lat="23.140272" lon="113.257689">
        <time>2026-10-03T03:00:19Z</time>
      </trkpt>
      <trkpt lat="23.140287" lon="113.25769">
        <time>2026-10-03T03:00:24Z</time>
      </trkpt>
      <trkpt lat="23.140305" lon="113.257685">
        <time>2026-10-03T03:00:29Z</time>
      </trkpt>
      <trkpt lat="23.140305" lon="113.257685">
        <time>2026-10-03T03:00:34Z</time>
      </trkpt>
      <trkpt lat="23.140317" lon="113.257681">
        <time>2026-10-03T03:00:39Z</time>
      </trkpt>
      <trkpt lat="23.140351" lon="113.257667">
        <time>2026-10-03T03:00:44Z</time>
      </trkpt>
      <trkpt lat="23.14037" lon="113.257658">
        <time>2026-10-03T03:00:49Z</time>
      </trkpt>
      <trkpt lat="23.140387" lon="113.257649">
        <time>2026-10-03T03:00:54Z</time>
      </trkpt>
      <trkpt lat="23.140387" lon="113.257649">
        <time>2026-10-03T03:00:59Z</time>
      </trkpt>
      <trkpt lat="23.140405" lon="113.257636">
        <time>2026-10-03T03:01:04Z</time>
      </trkpt>
      <trkpt lat="23.140426" lon="113.257624">
        <time>2026-10-03T03:01:09Z</time>
      </trkpt>
      <trkpt lat="23.140426" lon="113.257624">
        <time>2026-10-03T03:01:14Z</time>
      </trkpt>
      <trkpt lat="23.14045" lon="113.257611">
        <time>2026-10-03T03:01:19Z</time>
      </trkpt>
      <trkpt lat="23.14045" lon="113.257611">
        <time>2026-10-03T03:01:24Z</time>
      </trkpt>
      <trkpt lat="23.14045" lon="113.257611">
        <time>2026-10-03T03:01:29Z</time>
      </trkpt>
      <trkpt lat="23.14045" lon="113.257611">
        <time>2026-10-03T03:01:34Z</time>
      </trkpt>
      <trkpt lat="23.14045" lon="113.257611">
        <time>2026-10-03T03:01:39Z</time>
      </trkpt>
      <trkpt lat="23.14045" lon="113.257611">
        <time>2026-10-03T03:01:44Z</time>
      </trkpt>
      <trkpt lat="23.14045" lon="113.257611">
        <time>2026-10-03T03:01:49Z</time>
      </trkpt>
      <trkpt lat="23.140474" lon="113.257606">
        <time>2026-10-03T03:01:54Z</time>
      </trkpt>
      <trkpt lat="23.140474" lon="113.257606">
        <time>2026-10-03T03:01:59Z</time>
      </trkpt>
      <trkpt lat="23.140474" lon="113.257606">
        <time>2026-10-03T03:02:04Z</time>
      </trkpt>
      <trkpt lat="23.140474" lon="113.257606">
        <time>2026-10-03T03:02:09Z</time>
      </trkpt>
      <trkpt lat="23.140474" lon="113.257606">
        <time>2026-10-03T03:02:14Z</time>
      </trkpt>
      <trkpt lat="23.140474" lon="113.257606">
        <time>2026-10-03T03:02:19Z</time>
      </trkpt>
      <trkpt lat="23.140474" lon="113.257606">
        <time>2026-10-03T03:02:24Z</time>
      </trkpt>
      <trkpt lat="23.14049" lon="113.257602">
        <time>2026-10-03T03:02:29Z</time>
      </trkpt>
      <trkpt lat="23.140527" lon="113.257571">
        <time>2026-10-03T03:02:34Z</time>
      </trkpt>
      <trkpt lat="23.140539" lon="113.257565">
        <time>2026-10-03T03:02:39Z</time>
      </trkpt>
      <trkpt lat="23.140539" lon="113.257565">
        <time>2026-10-03T03:02:44Z</time>
      </trkpt>
      <trkpt lat="23.140539" lon="113.257565">
        <time>2026-10-03T03:02:49Z</time>
      </trkpt>
      <trkpt lat="23.140539" lon="113.257565">
        <time>2026-10-03T03:02:54Z</time>
      </trkpt>
      <trkpt lat="23.140539" lon="113.257565">
        <time>2026-10-03T03:02:59Z</time>
      </trkpt>
      <trkpt lat="23.140539" lon="113.257565">
        <time>2026-10-03T03:03:04Z</time>
      </trkpt>
      <trkpt lat="23.140539" lon="113.257565">
        <time>2026-10-03T03:03:09Z</time>
      </trkpt>
      <trkpt lat="23.140545" lon="113.257576">
        <time>2026-10-03T03:03:14Z</time>
      </trkpt>
      <trkpt lat="23.140566" lon="113.257595">
        <time>2026-10-03T03:03:19Z</time>
      </trkpt>
      <trkpt lat="23.140566" lon="113.257595">
        <time>2026-10-03T03:03:24Z</time>
      </trkpt>
      <trkpt lat="23.140566" lon="113.257595">
        <time>2026-10-03T03:03:29Z</time>
      </trkpt>
      <trkpt lat="23.140566" lon="113.257595">
        <time>2026-10-03T03:03:34Z</time>
      </trkpt>
      <trkpt lat="23.140567" lon="113.257596">
        <time>2026-10-03T03:03:39Z</time>
      </trkpt>
      <trkpt lat="23.140548" lon="113.257586">
        <time>2026-10-03T03:03:44Z</time>
      </trkpt>
      <trkpt lat="23.140516" lon="113.257553">
        <time>2026-10-03T03:03:49Z</time>
      </trkpt>
      <trkpt lat="23.140426" lon="113.257877">
        <time>2026-10-03T03:03:54Z</time>
      </trkpt>
      <trkpt lat="23.140426" lon="113.257877">
        <time>2026-10-03T03:03:59Z</time>
      </trkpt>
      <trkpt lat="23.140426" lon="113.257877">
        <time>2026-10-03T03:04:04Z</time>
      </trkpt>
      <trkpt lat="23.140426" lon="113.257877">
        <time>2026-10-03T03:04:09Z</time>
      </trkpt>
      <trkpt lat="23.140426" lon="113.257877">
        <time>2026-10-03T03:04:14Z</time>
      </trkpt>
      <trkpt lat="23.140426" lon="113.257877">
        <time>2026-10-03T03:04:19Z</time>
      </trkpt>
      <trkpt lat="23.140426" lon="113.257877">
        <time>2026-10-03T03:04:24Z</time>
      </trkpt>
      <trkpt lat="23.140426" lon="113.257877">
        <time>2026-10-03T03:04:29Z</time>
      </trkpt>
      <trkpt lat="23.14042" lon="113.257869">
        <time>2026-10-03T03:04:34Z</time>
      </trkpt>
      <trkpt lat="23.140394" lon="113.257858">
        <time>2026-10-03T03:04:39Z</time>
      </trkpt>
      <trkpt lat="23.140381" lon="113.257853">
        <time>2026-10-03T03:04:44Z</time>
      </trkpt>
      <trkpt lat="23.140342" lon="113.257847">
        <time>2026-10-03T03:04:49Z</time>
      </trkpt>
      <trkpt lat="23.140306" lon="113.257838">
        <time>2026-10-03T03:04:54Z</time>
      </trkpt>
      <trkpt lat="23.140273" lon="113.257821">
        <time>2026-10-03T03:04:59Z</time>
      </trkpt>
      <trkpt lat="23.140244" lon="113.257804">
        <time>2026-10-03T03:05:04Z</time>
      </trkpt>
      <trkpt lat="23.14022" lon="113.257783">
        <time>2026-10-03T03:05:09Z</time>
      </trkpt>
      <trkpt lat="23.140196" lon="113.257763">
        <time>2026-10-03T03:05:14Z</time>
      </trkpt>
      <trkpt lat="23.140182" lon="113.257749">
        <time>2026-10-03T03:05:19Z</time>
      </trkpt>
      <trkpt lat="23.140182" lon="113.257749">
        <time>2026-10-03T03:05:24Z</time>
      </trkpt>
      <trkpt lat="23.140172" lon="113.257732">
        <time>2026-10-03T03:05:29Z</time>
      </trkpt>
      <trkpt lat="23.140161" lon="113.257729">
        <time>2026-10-03T03:05:34Z</time>
      </trkpt>
      <trkpt lat="23.140161" lon="113.257729">
        <time>2026-10-03T03:05:39Z</time>
      </trkpt>
      <trkpt lat="23.140161" lon="113.257729">
        <time>2026-10-03T03:05:44Z</time>
      </trkpt>
      <trkpt lat="23.140161" lon="113.257729">
        <time>2026-10-03T03:05:49Z</time>
      </trkpt>
      <trkpt lat="23.140161" lon="113.257729">
        <time>2026-10-03T03:05:54Z</time>
      </trkpt>
      <trkpt lat="23.140161" lon="113.257729">
        <time>2026-10-03T03:05:59Z</time>
      </trkpt>
      <trkpt lat="23.140161" lon="113.257729">
        <time>2026-10-03T03:06:04Z</time>
      </trkpt>
      <trkpt lat="23.140161" lon="113.257729">
        <time>2026-10-03T03:06:09Z</time>
      </trkpt>
      <trkpt lat="23.140161" lon="113.257729">
        <time>2026-10-03T03:06:14Z</time>
      </trkpt>
      <trkpt lat="23.140161" lon="113.257729">
        <time>2026-10-03T03:06:19Z</time>
      </trkpt>
      <trkpt lat="23.140152" lon="113.257738">
        <time>2026-10-03T03:06:24Z</time>
      </trkpt>
      <trkpt lat="23.140152" lon="113.257738">
        <time>2026-10-03T03:06:29Z</time>
      </trkpt>
      <trkpt lat="23.140152" lon="113.257738">
        <time>2026-10-03T03:06:34Z</time>
      </trkpt>
      <trkpt lat="23.140152" lon="113.257738">
        <time>2026-10-03T03:06:39Z</time>
      </trkpt>
      <trkpt lat="23.140122" lon="113.257759">
        <time>2026-10-03T03:06:44Z</time>
      </trkpt>
      <trkpt lat="23.140092" lon="113.257764">
        <time>2026-10-03T03:06:49Z</time>
      </trkpt>
      <trkpt lat="23.140065" lon="113.257783">
        <time>2026-10-03T03:06:54Z</time>
      </trkpt>
      <trkpt lat="23.140053" lon="113.257814">
        <time>2026-10-03T03:06:59Z</time>
      </trkpt>
      <trkpt lat="23.140038" lon="113.257825">
        <time>2026-10-03T03:07:04Z</time>
      </trkpt>
      <trkpt lat="23.139997" lon="113.257838">
        <time>2026-10-03T03:07:09Z</time>
      </trkpt>
      <trkpt lat="23.139958" lon="113.257853">
        <time>2026-10-03T03:07:14Z</time>
      </trkpt>
      <trkpt lat="23.139917" lon="113.257862">
        <time>2026-10-03T03:07:19Z</time>
      </trkpt>
      <trkpt lat="23.139875" lon="113.257866">
        <time>2026-10-03T03:07:24Z</time>
      </trkpt>
      <trkpt lat="23.139834" lon="113.257866">
        <time>2026-10-03T03:07:29Z</time>
      </trkpt>
      <trkpt lat="23.1398" lon="113.257873">
        <time>2026-10-03T03:07:34Z</time>
      </trkpt>
      <trkpt lat="23.139762" lon="113.257871">
        <time>2026-10-03T03:07:39Z</time>
      </trkpt>
      <trkpt lat="23.139733" lon="113.257865">
        <time>2026-10-03T03:07:44Z</time>
      </trkpt>
      <trkpt lat="23.139705" lon="113.257863">
        <time>2026-10-03T03:07:49Z</time>
      </trkpt>
      <trkpt lat="23.139672" lon="113.257865">
        <time>2026-10-03T03:07:54Z</time>
      </trkpt>
      <trkpt lat="23.139641" lon="113.257866">
        <time>2026-10-03T03:07:59Z</time>
      </trkpt>
      <trkpt lat="23.139599" lon="113.257863">
        <time>2026-10-03T03:08:04Z</time>
      </trkpt>
      <trkpt lat="23.139557" lon="113.257852">
        <time>2026-10-03T03:08:09Z</time>
      </trkpt>
      <trkpt lat="23.139535" lon="113.257833">
        <time>2026-10-03T03:08:14Z</time>
      </trkpt>
      <trkpt lat="23.139535" lon="113.257833">
        <time>2026-10-03T03:08:19Z</time>
      </trkpt>
      <trkpt lat="23.139522" lon="113.257826">
        <time>2026-10-03T03:08:24Z</time>
      </trkpt>
      <trkpt lat="23.139507" lon="113.257825">
        <time>2026-10-03T03:08:29Z</time>
      </trkpt>
      <trkpt lat="23.139489" lon="113.257829">
        <time>2026-10-03T03:08:34Z</time>
      </trkpt>
      <trkpt lat="23.139472" lon="113.257861">
        <time>2026-10-03T03:08:39Z</time>
      </trkpt>
      <trkpt lat="23.139463" lon="113.257891">
        <time>2026-10-03T03:08:44Z</time>
      </trkpt>
      <trkpt lat="23.13945" lon="113.257919">
        <time>2026-10-03T03:08:49Z</time>
      </trkpt>
      <trkpt lat="23.139433" lon="113.257942">
        <time>2026-10-03T03:08:54Z</time>
      </trkpt>
      <trkpt lat="23.139416" lon="113.257962">
        <time>2026-10-03T03:08:59Z</time>
      </trkpt>
      <trkpt lat="23.139401" lon="113.257977">
        <time>2026-10-03T03:09:04Z</time>
      </trkpt>
      <trkpt lat="23.139378" lon="113.257997">
        <time>2026-10-03T03:09:09Z</time>
      </trkpt>
      <trkpt lat="23.139359" lon="113.258016">
        <time>2026-10-03T03:09:14Z</time>
      </trkpt>
      <trkpt lat="23.139347" lon="113.258045">
        <time>2026-10-03T03:09:19Z</time>
      </trkpt>
      <trkpt lat="23.13935" lon="113.258096">
        <time>2026-10-03T03:09:24Z</time>
      </trkpt>
      <trkpt lat="23.139348" lon="113.258157">
        <time>2026-10-03T03:09:29Z</time>
      </trkpt>
      <trkpt lat="23.139338" lon="113.258216">
        <time>2026-10-03T03:09:34Z</time>
      </trkpt>
      <trkpt lat="23.139335" lon="113.258265">
        <time>2026-10-03T03:09:39Z</time>
      </trkpt>
      <trkpt lat="23.139321" lon="113.258307">
        <time>2026-10-03T03:09:44Z</time>
      </trkpt>
      <trkpt lat="23.139308" lon="113.25834">
        <time>2026-10-03T03:09:49Z</time>
      </trkpt>
      <trkpt lat="23.139307" lon="113.258379">
        <time>2026-10-03T03:09:54Z</time>
      </trkpt>
      <trkpt lat="23.139313" lon="113.258429">
        <time>2026-10-03T03:09:59Z</time>
      </trkpt>
      <trkpt lat="23.139336" lon="113.258468">
        <time>2026-10-03T03:10:04Z</time>
      </trkpt>
      <trkpt lat="23.139362" lon="113.258512">
        <time>2026-10-03T03:10:09Z</time>
      </trkpt>
      <trkpt lat="23.139381" lon="113.258546">
        <time>2026-10-03T03:10:14Z</time>
      </trkpt>
      <trkpt lat="23.139402" lon="113.258579">
        <time>2026-10-03T03:10:19Z</time>
      </trkpt>
      <trkpt lat="23.139412" lon="113.258614">
        <time>2026-10-03T03:10:24Z</time>
      </trkpt>
      <trkpt lat="23.139407" lon="113.258651">
        <time>2026-10-03T03:10:29Z</time>
      </trkpt>
      <trkpt lat="23.139409" lon="113.25869">
        <time>2026-10-03T03:10:34Z</time>
      </trkpt>
      <trkpt lat="23.139423" lon="113.258733">
        <time>2026-10-03T03:10:39Z</time>
      </trkpt>
      <trkpt lat="23.139442" lon="113.258773">
        <time>2026-10-03T03:10:44Z</time>
      </trkpt>
      <trkpt lat="23.13946" lon="113.258813">
        <time>2026-10-03T03:10:49Z</time>
      </trkpt>
      <trkpt lat="23.139469" lon="113.258853">
        <time>2026-10-03T03:10:54Z</time>
      </trkpt>
      <trkpt lat="23.139464" lon="113.258894">
        <time>2026-10-03T03:10:59Z</time>
      </trkpt>
      <trkpt lat="23.139456" lon="113.25894">
        <time>2026-10-03T03:11:04Z</time>
      </trkpt>
      <trkpt lat="23.139458" lon="113.258991">
        <time>2026-10-03T03:11:09Z</time>
      </trkpt>
      <trkpt lat="23.139463" lon="113.259029">
        <time>2026-10-03T03:11:14Z</time>
      </trkpt>
      <trkpt lat="23.139463" lon="113.25907">
        <time>2026-10-03T03:11:19Z</time>
      </trkpt>
      <trkpt lat="23.139483" lon="113.259103">
        <time>2026-10-03T03:11:24Z</time>
      </trkpt>
      <trkpt lat="23.139515" lon="113.259143">
        <time>2026-10-03T03:11:29Z</time>
      </trkpt>
      <trkpt lat="23.139535" lon="113.259194">
        <time>2026-10-03T03:11:34Z</time>
      </trkpt>
      <trkpt lat="23.139557" lon="113.259245">
        <time>2026-10-03T03:11:39Z</time>
      </trkpt>
      <trkpt lat="23.139565" lon="113.259289">
        <time>2026-10-03T03:11:44Z</time>
      </trkpt>
      <trkpt lat="23.139566" lon="113.259324">
        <time>2026-10-03T03:11:49Z</time>
      </trkpt>
      <trkpt lat="23.139596" lon="113.259358">
        <time>2026-10-03T03:11:54Z</time>
      </trkpt>
      <trkpt lat="23.139632" lon="113.25939">
        <time>2026-10-03T03:11:59Z</time>
      </trkpt>
      <trkpt lat="23.139656" lon="113.259417">
        <time>2026-10-03T03:12:04Z</time>
      </trkpt>
      <trkpt lat="23.139686" lon="113.259447">
        <time>2026-10-03T03:12:09Z</time>
      </trkpt>
      <trkpt lat="23.139714" lon="113.25948">
        <time>2026-10-03T03:12:14Z</time>
      </trkpt>
      <trkpt lat="23.139746" lon="113.259513">
        <time>2026-10-03T03:12:19Z</time>
      </trkpt>
      <trkpt lat="23.139774" lon="113.259545">
        <time>2026-10-03T03:12:24Z</time>
      </trkpt>
      <trkpt lat="23.139796" lon="113.259579">
        <time>2026-10-03T03:12:29Z</time>
      </trkpt>
      <trkpt lat="23.139811" lon="113.25961">
        <time>2026-10-03T03:12:34Z</time>
      </trkpt>
      <trkpt lat="23.13983" lon="113.259629">
        <time>2026-10-03T03:12:39Z</time>
      </trkpt>
      <trkpt lat="23.139862" lon="113.259635">
        <time>2026-10-03T03:12:44Z</time>
      </trkpt>
      <trkpt lat="23.139884" lon="113.25967">
        <time>2026-10-03T03:12:49Z</time>
      </trkpt>
      <trkpt lat="23.139898" lon="113.259724">
        <time>2026-10-03T03:12:54Z</time>
      </trkpt>
      <trkpt lat="23.139923" lon="113.259767">
        <time>2026-10-03T03:12:59Z</time>
      </trkpt>
      <trkpt lat="23.139946" lon="113.259816">
        <time>2026-10-03T03:13:04Z</time>
      </trkpt>
      <trkpt lat="23.139967" lon="113.259862">
        <time>2026-10-03T03:13:09Z</time>
      </trkpt>
      <trkpt lat="23.139999" lon="113.259903">
        <time>2026-10-03T03:13:14Z</time>
      </trkpt>
      <trkpt lat="23.140009" lon="113.25994">
        <time>2026-10-03T03:13:19Z</time>
      </trkpt>
      <trkpt lat="23.140014" lon="113.259974">
        <time>2026-10-03T03:13:24Z</time>
      </trkpt>
      <trkpt lat="23.140021" lon="113.260004">
        <time>2026-10-03T03:13:29Z</time>
      </trkpt>
      <trkpt lat="23.140018" lon="113.260035">
        <time>2026-10-03T03:13:34Z</time>
      </trkpt>
      <trkpt lat="23.140025" lon="113.260072">
        <time>2026-10-03T03:13:39Z</time>
      </trkpt>
      <trkpt lat="23.140025" lon="113.260072">
        <time>2026-10-03T03:13:44Z</time>
      </trkpt>
      <trkpt lat="23.140026" lon="113.260083">
        <time>2026-10-03T03:13:49Z</time>
      </trkpt>
      <trkpt lat="23.140035" lon="113.260113">
        <time>2026-10-03T03:13:54Z</time>
      </trkpt>
      <trkpt lat="23.140043" lon="113.260128">
        <time>2026-10-03T03:13:59Z</time>
      </trkpt>
      <trkpt lat="23.140051" lon="113.26015">
        <time>2026-10-03T03:14:04Z</time>
      </trkpt>
      <trkpt lat="23.14006" lon="113.260179">
        <time>2026-10-03T03:14:09Z</time>
      </trkpt>
      <trkpt lat="23.140067" lon="113.260189">
        <time>2026-10-03T03:14:14Z</time>
      </trkpt>
      <trkpt lat="23.14008" lon="113.26021">
        <time>2026-10-03T03:14:19Z</time>
      </trkpt>
      <trkpt lat="23.140088" lon="113.260245">
        <time>2026-10-03T03:14:24Z</time>
      </trkpt>
      <trkpt lat="23.140094" lon="113.260284">
        <time>2026-10-03T03:14:29Z</time>
      </trkpt>
      <trkpt lat="23.140099" lon="113.260319">
        <time>2026-10-03T03:14:34Z</time>
      </trkpt>
      <trkpt lat="23.140097" lon="113.260329">
        <time>2026-10-03T03:14:39Z</time>
      </trkpt>
      <trkpt lat="23.140088" lon="113.260366">
        <time>2026-10-03T03:14:44Z</time>
      </trkpt>
      <trkpt lat="23.140086" lon="113.260414">
        <time>2026-10-03T03:14:49Z</time>
      </trkpt>
      <trkpt lat="23.140086" lon="113.260414">
        <time>2026-10-03T03:14:54Z</time>
      </trkpt>
      <trkpt lat="23.140089" lon="113.260425">
        <time>2026-10-03T03:14:59Z</time>
      </trkpt>
      <trkpt lat="23.140114" lon="113.260456">
        <time>2026-10-03T03:15:04Z</time>
      </trkpt>
      <trkpt lat="23.140146" lon="113.260475">
        <time>2026-10-03T03:15:09Z</time>
      </trkpt>
      <trkpt lat="23.140151" lon="113.260487">
        <time>2026-10-03T03:15:14Z</time>
      </trkpt>
      <trkpt lat="23.140151" lon="113.260487">
        <time>2026-10-03T03:15:19Z</time>
      </trkpt>
      <trkpt lat="23.140151" lon="113.260487">
        <time>2026-10-03T03:15:24Z</time>
      </trkpt>
      <trkpt lat="23.140151" lon="113.260487">
        <time>2026-10-03T03:15:29Z</time>
      </trkpt>
      <trkpt lat="23.140151" lon="113.260487">
        <time>2026-10-03T03:15:34Z</time>
      </trkpt>
      <trkpt lat="23.140151" lon="113.260487">
        <time>2026-10-03T03:15:39Z</time>
      </trkpt>
      <trkpt lat="23.140151" lon="113.260487">
        <time>2026-10-03T03:15:44Z</time>
      </trkpt>
      <trkpt lat="23.140151" lon="113.260487">
        <time>2026-10-03T03:15:49Z</time>
      </trkpt>
      <trkpt lat="23.140151" lon="113.260487">
        <time>2026-10-03T03:15:54Z</time>
      </trkpt>
      <trkpt lat="23.140143" lon="113.260502">
        <time>2026-10-03T03:15:59Z</time>
      </trkpt>
      <trkpt lat="23.140122" lon="113.260522">
        <time>2026-10-03T03:16:04Z</time>
      </trkpt>
      <trkpt lat="23.140095" lon="113.260538">
        <time>2026-10-03T03:16:09Z</time>
      </trkpt>
      <trkpt lat="23.140084" lon="113.260545">
        <time>2026-10-03T03:16:14Z</time>
      </trkpt>
      <trkpt lat="23.140067" lon="113.260575">
        <time>2026-10-03T03:16:19Z</time>
      </trkpt>
      <trkpt lat="23.140057" lon="113.260612">
        <time>2026-10-03T03:16:24Z</time>
      </trkpt>
      <trkpt lat="23.140048" lon="113.260631">
        <time>2026-10-03T03:16:29Z</time>
      </trkpt>
      <trkpt lat="23.140034" lon="113.260657">
        <time>2026-10-03T03:16:34Z</time>
      </trkpt>
      <trkpt lat="23.140017" lon="113.260674">
        <time>2026-10-03T03:16:39Z</time>
      </trkpt>
      <trkpt lat="23.139996" lon="113.260701">
        <time>2026-10-03T03:16:44Z</time>
      </trkpt>
      <trkpt lat="23.139976" lon="113.260729">
        <time>2026-10-03T03:16:49Z</time>
      </trkpt>
      <trkpt lat="23.139957" lon="113.260762">
        <time>2026-10-03T03:16:54Z</time>
      </trkpt>
      <trkpt lat="23.139945" lon="113.260795">
        <time>2026-10-03T03:16:59Z</time>
      </trkpt>
      <trkpt lat="23.139931" lon="113.26083">
        <time>2026-10-03T03:17:04Z</time>
      </trkpt>
      <trkpt lat="23.139914" lon="113.260866">
        <time>2026-10-03T03:17:09Z</time>
      </trkpt>
      <trkpt lat="23.139902" lon="113.260907">
        <time>2026-10-03T03:17:14Z</time>
      </trkpt>
      <trkpt lat="23.139891" lon="113.260954">
        <time>2026-10-03T03:17:19Z</time>
      </trkpt>
      <trkpt lat="23.139878" lon="113.261011">
        <time>2026-10-03T03:17:24Z</time>
      </trkpt>
      <trkpt lat="23.139868" lon="113.261071">
        <time>2026-10-03T03:17:29Z</time>
      </trkpt>
      <trkpt lat="23.139865" lon="113.261124">
        <time>2026-10-03T03:17:34Z</time>
      </trkpt>
      <trkpt lat="23.139874" lon="113.261181">
        <time>2026-10-03T03:17:39Z</time>
      </trkpt>
      <trkpt lat="23.139887" lon="113.261239">
        <time>2026-10-03T03:17:44Z</time>
      </trkpt>
      <trkpt lat="23.139901" lon="113.261285">
        <time>2026-10-03T03:17:49Z</time>
      </trkpt>
      <trkpt lat="23.139904" lon="113.261325">
        <time>2026-10-03T03:17:54Z</time>
      </trkpt>
      <trkpt lat="23.139915" lon="113.261364">
        <time>2026-10-03T03:17:59Z</time>
      </trkpt>
      <trkpt lat="23.139937" lon="113.261408">
        <time>2026-10-03T03:18:04Z</time>
      </trkpt>
      <trkpt lat="23.139959" lon="113.261451">
        <time>2026-10-03T03:18:09Z</time>
      </trkpt>
      <trkpt lat="23.13998" lon="113.26149">
        <time>2026-10-03T03:18:14Z</time>
      </trkpt>
      <trkpt lat="23.139993" lon="113.26152">
        <time>2026-10-03T03:18:19Z</time>
      </trkpt>
      <trkpt lat="23.140005" lon="113.261552">
        <time>2026-10-03T03:18:24Z</time>
      </trkpt>
      <trkpt lat="23.140029" lon="113.261594">
        <time>2026-10-03T03:18:29Z</time>
      </trkpt>
      <trkpt lat="23.140059" lon="113.261628">
        <time>2026-10-03T03:18:34Z</time>
      </trkpt>
      <trkpt lat="23.140083" lon="113.261656">
        <time>2026-10-03T03:18:39Z</time>
      </trkpt>
      <trkpt lat="23.140104" lon="113.261688">
        <time>2026-10-03T03:18:44Z</time>
      </trkpt>
      <trkpt lat="23.140126" lon="113.261723">
        <time>2026-10-03T03:18:49Z</time>
      </trkpt>
      <trkpt lat="23.140149" lon="113.261756">
        <time>2026-10-03T03:18:54Z</time>
      </trkpt>
      <trkpt lat="23.140177" lon="113.261788">
        <time>2026-10-03T03:18:59Z</time>
      </trkpt>
      <trkpt lat="23.140197" lon="113.261834">
        <time>2026-10-03T03:19:04Z</time>
      </trkpt>
      <trkpt lat="23.14021" lon="113.261884">
        <time>2026-10-03T03:19:09Z</time>
      </trkpt>
      <trkpt lat="23.140213" lon="113.26193">
        <time>2026-10-03T03:19:14Z</time>
      </trkpt>
      <trkpt lat="23.140208" lon="113.261969">
        <time>2026-10-03T03:19:19Z</time>
      </trkpt>
      <trkpt lat="23.140193" lon="113.262005">
        <time>2026-10-03T03:19:24Z</time>
      </trkpt>
      <trkpt lat="23.140176" lon="113.262039">
        <time>2026-10-03T03:19:29Z</time>
      </trkpt>
      <trkpt lat="23.140157" lon="113.262076">
        <time>2026-10-03T03:19:34Z</time>
      </trkpt>
      <trkpt lat="23.140139" lon="113.262107">
        <time>2026-10-03T03:19:39Z</time>
      </trkpt>
      <trkpt lat="23.140113" lon="113.262138">
        <time>2026-10-03T03:19:44Z</time>
      </trkpt>
      <trkpt lat="23.140084" lon="113.262162">
        <time>2026-10-03T03:19:49Z</time>
      </trkpt>
      <trkpt lat="23.140077" lon="113.262165">
        <time>2026-10-03T03:19:54Z</time>
      </trkpt>
      <trkpt lat="23.140074" lon="113.262166">
        <time>2026-10-03T03:19:59Z</time>
      </trkpt>
      <trkpt lat="23.140087" lon="113.262155">
        <time>2026-10-03T03:20:04Z</time>
      </trkpt>
      <trkpt lat="23.140119" lon="113.262131">
        <time>2026-10-03T03:20:09Z</time>
      </trkpt>
      <trkpt lat="23.140148" lon="113.262104">
        <time>2026-10-03T03:20:14Z</time>
      </trkpt>
      <trkpt lat="23.140177" lon="113.262077">
        <time>2026-10-03T03:20:19Z</time>
      </trkpt>
      <trkpt lat="23.140211" lon="113.262046">
        <time>2026-10-03T03:20:24Z</time>
      </trkpt>
      <trkpt lat="23.140245" lon="113.26203">
        <time>2026-10-03T03:20:29Z</time>
      </trkpt>
      <trkpt lat="23.14027" lon="113.262022">
        <time>2026-10-03T03:20:34Z</time>
      </trkpt>
      <trkpt lat="23.14027" lon="113.262022">
        <time>2026-10-03T03:20:39Z</time>
      </trkpt>
      <trkpt lat="23.14027" lon="113.262022">
        <time>2026-10-03T03:20:44Z</time>
      </trkpt>
      <trkpt lat="23.14027" lon="113.262022">
        <time>2026-10-03T03:20:49Z</time>
      </trkpt>
      <trkpt lat="23.140284" lon="113.262001">
        <time>2026-10-03T03:20:54Z</time>
      </trkpt>
      <trkpt lat="23.140263" lon="113.261959">
        <time>2026-10-03T03:20:59Z</time>
      </trkpt>
      <trkpt lat="23.14023" lon="113.261913">
        <time>2026-10-03T03:21:04Z</time>
      </trkpt>
      <trkpt lat="23.140233" lon="113.261864">
        <time>2026-10-03T03:21:09Z</time>
      </trkpt>
      <trkpt lat="23.140239" lon="113.261824">
        <time>2026-10-03T03:21:14Z</time>
      </trkpt>
      <trkpt lat="23.14025" lon="113.261807">
        <time>2026-10-03T03:21:19Z</time>
      </trkpt>
      <trkpt lat="23.14025" lon="113.261807">
        <time>2026-10-03T03:21:24Z</time>
      </trkpt>
      <trkpt lat="23.14025" lon="113.261807">
        <time>2026-10-03T03:21:29Z</time>
      </trkpt>
      <trkpt lat="23.14025" lon="113.261807">
        <time>2026-10-03T03:21:34Z</time>
      </trkpt>
      <trkpt lat="23.14025" lon="113.261807">
        <time>2026-10-03T03:21:39Z</time>
      </trkpt>
      <trkpt lat="23.14025" lon="113.261807">
        <time>2026-10-03T03:21:44Z</time>
      </trkpt>
      <trkpt lat="23.14025" lon="113.261807">
        <time>2026-10-03T03:21:49Z</time>
      </trkpt>
      <trkpt lat="23.14025" lon="113.261807">
        <time>2026-10-03T03:21:54Z</time>
      </trkpt>
      <trkpt lat="23.14025" lon="113.261807">
        <time>2026-10-03T03:21:59Z</time>
      </trkpt>
      <trkpt lat="23.140268" lon="113.261799">
        <time>2026-10-03T03:22:04Z</time>
      </trkpt>
      <trkpt lat="23.140284" lon="113.261788">
        <time>2026-10-03T03:22:09Z</time>
      </trkpt>
      <trkpt lat="23.140284" lon="113.261788">
        <time>2026-10-03T03:22:14Z</time>
      </trkpt>
      <trkpt lat="23.140284" lon="113.261788">
        <time>2026-10-03T03:22:19Z</time>
      </trkpt>
      <trkpt lat="23.140284" lon="113.261788">
        <time>2026-10-03T03:22:24Z</time>
      </trkpt>
      <trkpt lat="23.140284" lon="113.261788">
        <time>2026-10-03T03:22:29Z</time>
      </trkpt>
      <trkpt lat="23.140284" lon="113.261788">
        <time>2026-10-03T03:22:34Z</time>
      </trkpt>
      <trkpt lat="23.140276" lon="113.261775">
        <time>2026-10-03T03:22:39Z</time>
      </trkpt>
      <trkpt lat="23.140241" lon="113.261754">
        <time>2026-10-03T03:22:44Z</time>
      </trkpt>
      <trkpt lat="23.140211" lon="113.261726">
        <time>2026-10-03T03:22:49Z</time>
      </trkpt>
      <trkpt lat="23.140184" lon="113.261695">
        <time>2026-10-03T03:22:54Z</time>
      </trkpt>
      <trkpt lat="23.140153" lon="113.261662">
        <time>2026-10-03T03:22:59Z</time>
      </trkpt>
      <trkpt lat="23.140125" lon="113.261639">
        <time>2026-10-03T03:23:04Z</time>
      </trkpt>
      <trkpt lat="23.1401" lon="113.261614">
        <time>2026-10-03T03:23:09Z</time>
      </trkpt>
      <trkpt lat="23.140083" lon="113.261585">
        <time>2026-10-03T03:23:14Z</time>
      </trkpt>
      <trkpt lat="23.14007" lon="113.261548">
        <time>2026-10-03T03:23:19Z</time>
      </trkpt>
      <trkpt lat="23.140053" lon="113.261514">
        <time>2026-10-03T03:23:24Z</time>
      </trkpt>
      <trkpt lat="23.140036" lon="113.261481">
        <time>2026-10-03T03:23:29Z</time>
      </trkpt>
      <trkpt lat="23.140015" lon="113.261444">
        <time>2026-10-03T03:23:34Z</time>
      </trkpt>
      <trkpt lat="23.139989" lon="113.261407">
        <time>2026-10-03T03:23:39Z</time>
      </trkpt>
      <trkpt lat="23.139969" lon="113.261371">
        <time>2026-10-03T03:23:44Z</time>
      </trkpt>
      <trkpt lat="23.139951" lon="113.261338">
        <time>2026-10-03T03:23:49Z</time>
      </trkpt>
      <trkpt lat="23.139948" lon="113.261296">
        <time>2026-10-03T03:23:54Z</time>
      </trkpt>
      <trkpt lat="23.139949" lon="113.261251">
        <time>2026-10-03T03:23:59Z</time>
      </trkpt>
      <trkpt lat="23.13994" lon="113.261204">
        <time>2026-10-03T03:24:04Z</time>
      </trkpt>
      <trkpt lat="23.139933" lon="113.261157">
        <time>2026-10-03T03:24:09Z</time>
      </trkpt>
      <trkpt lat="23.139927" lon="113.261111">
        <time>2026-10-03T03:24:14Z</time>
      </trkpt>
      <trkpt lat="23.139918" lon="113.261064">
        <time>2026-10-03T03:24:19Z</time>
      </trkpt>
      <trkpt lat="23.139917" lon="113.261023">
        <time>2026-10-03T03:24:24Z</time>
      </trkpt>
      <trkpt lat="23.139919" lon="113.260979">
        <time>2026-10-03T03:24:29Z</time>
      </trkpt>
      <trkpt lat="23.13993" lon="113.260935">
        <time>2026-10-03T03:24:34Z</time>
      </trkpt>
      <trkpt lat="23.139946" lon="113.260889">
        <time>2026-10-03T03:24:39Z</time>
      </trkpt>
      <trkpt lat="23.13996" lon="113.260839">
        <time>2026-10-03T03:24:44Z</time>
      </trkpt>
      <trkpt lat="23.139982" lon="113.26079">
        <time>2026-10-03T03:24:49Z</time>
      </trkpt>
      <trkpt lat="23.140004" lon="113.260747">
        <time>2026-10-03T03:24:54Z</time>
      </trkpt>
      <trkpt lat="23.140028" lon="113.260714">
        <time>2026-10-03T03:24:59Z</time>
      </trkpt>
      <trkpt lat="23.140052" lon="113.260681">
        <time>2026-10-03T03:25:04Z</time>
      </trkpt>
      <trkpt lat="23.140082" lon="113.260645">
        <time>2026-10-03T03:25:09Z</time>
      </trkpt>
      <trkpt lat="23.140102" lon="113.260604">
        <time>2026-10-03T03:25:14Z</time>
      </trkpt>
      <trkpt lat="23.140112" lon="113.260564">
        <time>2026-10-03T03:25:19Z</time>
      </trkpt>
      <trkpt lat="23.140133" lon="113.260526">
        <time>2026-10-03T03:25:24Z</time>
      </trkpt>
      <trkpt lat="23.140161" lon="113.260485">
        <time>2026-10-03T03:25:29Z</time>
      </trkpt>
      <trkpt lat="23.140161" lon="113.260485">
        <time>2026-10-03T03:25:34Z</time>
      </trkpt>
      <trkpt lat="23.140165" lon="113.26047">
        <time>2026-10-03T03:25:39Z</time>
      </trkpt>
      <trkpt lat="23.140161" lon="113.260432">
        <time>2026-10-03T03:25:44Z</time>
      </trkpt>
      <trkpt lat="23.140159" lon="113.260381">
        <time>2026-10-03T03:25:49Z</time>
      </trkpt>
      <trkpt lat="23.140165" lon="113.260335">
        <time>2026-10-03T03:25:54Z</time>
      </trkpt>
      <trkpt lat="23.140164" lon="113.260303">
        <time>2026-10-03T03:25:59Z</time>
      </trkpt>
      <trkpt lat="23.140132" lon="113.260291">
        <time>2026-10-03T03:26:04Z</time>
      </trkpt>
      <trkpt lat="23.140103" lon="113.260264">
        <time>2026-10-03T03:26:09Z</time>
      </trkpt>
      <trkpt lat="23.140094" lon="113.260219">
        <time>2026-10-03T03:26:14Z</time>
      </trkpt>
      <trkpt lat="23.140087" lon="113.260165">
        <time>2026-10-03T03:26:19Z</time>
      </trkpt>
      <trkpt lat="23.140083" lon="113.260116">
        <time>2026-10-03T03:26:24Z</time>
      </trkpt>
      <trkpt lat="23.140081" lon="113.260078">
        <time>2026-10-03T03:26:29Z</time>
      </trkpt>
      <trkpt lat="23.14008" lon="113.260047">
        <time>2026-10-03T03:26:34Z</time>
      </trkpt>
      <trkpt lat="23.140071" lon="113.26001">
        <time>2026-10-03T03:26:39Z</time>
      </trkpt>
      <trkpt lat="23.140064" lon="113.259976">
        <time>2026-10-03T03:26:44Z</time>
      </trkpt>
      <trkpt lat="23.140062" lon="113.259936">
        <time>2026-10-03T03:26:49Z</time>
      </trkpt>
      <trkpt lat="23.140051" lon="113.259895">
        <time>2026-10-03T03:26:54Z</time>
      </trkpt>
      <trkpt lat="23.140033" lon="113.259856">
        <time>2026-10-03T03:26:59Z</time>
      </trkpt>
      <trkpt lat="23.140023" lon="113.259848">
        <time>2026-10-03T03:27:04Z</time>
      </trkpt>
      <trkpt lat="23.140023" lon="113.259848">
        <time>2026-10-03T03:27:09Z</time>
      </trkpt>
      <trkpt lat="23.140023" lon="113.259848">
        <time>2026-10-03T03:27:14Z</time>
      </trkpt>
      <trkpt lat="23.140011" lon="113.259839">
        <time>2026-10-03T03:27:19Z</time>
      </trkpt>
      <trkpt lat="23.139982" lon="113.259807">
        <time>2026-10-03T03:27:24Z</time>
      </trkpt>
      <trkpt lat="23.13995" lon="113.259761">
        <time>2026-10-03T03:27:29Z</time>
      </trkpt>
      <trkpt lat="23.139915" lon="113.259722">
        <time>2026-10-03T03:27:34Z</time>
      </trkpt>
      <trkpt lat="23.139871" lon="113.259698">
        <time>2026-10-03T03:27:39Z</time>
      </trkpt>
      <trkpt lat="23.139831" lon="113.259668">
        <time>2026-10-03T03:27:44Z</time>
      </trkpt>
      <trkpt lat="23.139802" lon="113.259628">
        <time>2026-10-03T03:27:49Z</time>
      </trkpt>
      <trkpt lat="23.139777" lon="113.259583">
        <time>2026-10-03T03:27:54Z</time>
      </trkpt>
      <trkpt lat="23.13975" lon="113.259532">
        <time>2026-10-03T03:27:59Z</time>
      </trkpt>
      <trkpt lat="23.139723" lon="113.259485">
        <time>2026-10-03T03:28:04Z</time>
      </trkpt>
      <trkpt lat="23.139708" lon="113.259442">
        <time>2026-10-03T03:28:09Z</time>
      </trkpt>
      <trkpt lat="23.139685" lon="113.259402">
        <time>2026-10-03T03:28:14Z</time>
      </trkpt>
      <trkpt lat="23.139659" lon="113.259365">
        <time>2026-10-03T03:28:19Z</time>
      </trkpt>
      <trkpt lat="23.139635" lon="113.259316">
        <time>2026-10-03T03:28:24Z</time>
      </trkpt>
      <trkpt lat="23.139614" lon="113.259263">
        <time>2026-10-03T03:28:29Z</time>
      </trkpt>
      <trkpt lat="23.139586" lon="113.259213">
        <time>2026-10-03T03:28:34Z</time>
      </trkpt>
      <trkpt lat="23.139556" lon="113.259168">
        <time>2026-10-03T03:28:39Z</time>
      </trkpt>
      <trkpt lat="23.139521" lon="113.259113">
        <time>2026-10-03T03:28:44Z</time>
      </trkpt>
      <trkpt lat="23.139493" lon="113.259059">
        <time>2026-10-03T03:28:49Z</time>
      </trkpt>
      <trkpt lat="23.13948" lon="113.259001">
        <time>2026-10-03T03:28:54Z</time>
      </trkpt>
      <trkpt lat="23.139471" lon="113.258937">
        <time>2026-10-03T03:28:59Z</time>
      </trkpt>
      <trkpt lat="23.139465" lon="113.258879">
        <time>2026-10-03T03:29:04Z</time>
      </trkpt>
      <trkpt lat="23.139459" lon="113.258825">
        <time>2026-10-03T03:29:09Z</time>
      </trkpt>
      <trkpt lat="23.139455" lon="113.258774">
        <time>2026-10-03T03:29:14Z</time>
      </trkpt>
      <trkpt lat="23.139443" lon="113.258716">
        <time>2026-10-03T03:29:19Z</time>
      </trkpt>
      <trkpt lat="23.139427" lon="113.25867">
        <time>2026-10-03T03:29:24Z</time>
      </trkpt>
      <trkpt lat="23.139416" lon="113.258632">
        <time>2026-10-03T03:29:29Z</time>
      </trkpt>
      <trkpt lat="23.139404" lon="113.258591">
        <time>2026-10-03T03:29:34Z</time>
      </trkpt>
      <trkpt lat="23.139381" lon="113.258545">
        <time>2026-10-03T03:29:39Z</time>
      </trkpt>
      <trkpt lat="23.139353" lon="113.258495">
        <time>2026-10-03T03:29:44Z</time>
      </trkpt>
      <trkpt lat="23.139328" lon="113.258444">
        <time>2026-10-03T03:29:49Z</time>
      </trkpt>
      <trkpt lat="23.139328" lon="113.258391">
        <time>2026-10-03T03:29:54Z</time>
      </trkpt>
      <trkpt lat="23.13933" lon="113.25833">
        <time>2026-10-03T03:29:59Z</time>
      </trkpt>
      <trkpt lat="23.139324" lon="113.258273">
        <time>2026-10-03T03:30:04Z</time>
      </trkpt>
      <trkpt lat="23.139324" lon="113.258213">
        <time>2026-10-03T03:30:09Z</time>
      </trkpt>
      <trkpt lat="23.139335" lon="113.258149">
        <time>2026-10-03T03:30:14Z</time>
      </trkpt>
      <trkpt lat="23.139347" lon="113.258089">
        <time>2026-10-03T03:30:19Z</time>
      </trkpt>
      <trkpt lat="23.139358" lon="113.258035">
        <time>2026-10-03T03:30:24Z</time>
      </trkpt>
      <trkpt lat="23.139374" lon="113.257993">
        <time>2026-10-03T03:30:29Z</time>
      </trkpt>
      <trkpt lat="23.139405" lon="113.257968">
        <time>2026-10-03T03:30:34Z</time>
      </trkpt>
      <trkpt lat="23.139443" lon="113.257942">
        <time>2026-10-03T03:30:39Z</time>
      </trkpt>
      <trkpt lat="23.13948" lon="113.257917">
        <time>2026-10-03T03:30:44Z</time>
      </trkpt>
      <trkpt lat="23.139508" lon="113.257881">
        <time>2026-10-03T03:30:49Z</time>
      </trkpt>
      <trkpt lat="23.139541" lon="113.257848">
        <time>2026-10-03T03:30:54Z</time>
      </trkpt>
      <trkpt lat="23.139568" lon="113.257805">
        <time>2026-10-03T03:30:59Z</time>
      </trkpt>
      <trkpt lat="23.139595" lon="113.257762">
        <time>2026-10-03T03:31:04Z</time>
      </trkpt>
      <trkpt lat="23.139633" lon="113.257728">
        <time>2026-10-03T03:31:09Z</time>
      </trkpt>
      <trkpt lat="23.139657" lon="113.25769">
        <time>2026-10-03T03:31:14Z</time>
      </trkpt>
      <trkpt lat="23.139661" lon="113.257658">
        <time>2026-10-03T03:31:19Z</time>
      </trkpt>
      <trkpt lat="23.139665" lon="113.257638">
        <time>2026-10-03T03:31:24Z</time>
      </trkpt>
      <trkpt lat="23.139673" lon="113.257601">
        <time>2026-10-03T03:31:29Z</time>
      </trkpt>
      <trkpt lat="23.139673" lon="113.257586">
        <time>2026-10-03T03:31:34Z</time>
      </trkpt>
      <trkpt lat="23.139673" lon="113.257586">
        <time>2026-10-03T03:31:39Z</time>
      </trkpt>
      <trkpt lat="23.139673" lon="113.257586">
        <time>2026-10-03T03:31:44Z</time>
      </trkpt>
      <trkpt lat="23.139673" lon="113.257586">
        <time>2026-10-03T03:31:49Z</time>
      </trkpt>
      <trkpt lat="23.139673" lon="113.257586">
        <time>2026-10-03T03:31:54Z</time>
      </trkpt>
      <trkpt lat="23.139673" lon="113.257586">
        <time>2026-10-03T03:31:59Z</time>
      </trkpt>
      <trkpt lat="23.139673" lon="113.257586">
        <time>2026-10-03T03:32:04Z</time>
      </trkpt>
      <trkpt lat="23.139673" lon="113.257586">
        <time>2026-10-03T03:32:09Z</time>
      </trkpt>
      <trkpt lat="23.139673" lon="113.257586">
        <time>2026-10-03T03:32:14Z</time>
      </trkpt>
      <trkpt lat="23.139673" lon="113.257586">
        <time>2026-10-03T03:32:19Z</time>
      </trkpt>
      <trkpt lat="23.139673" lon="113.257586">
        <time>2026-10-03T03:32:24Z</time>
      </trkpt>
      <trkpt lat="23.139673" lon="113.257586">
        <time>2026-10-03T03:32:29Z</time>
      </trkpt>
      <trkpt lat="23.139673" lon="113.257586">
        <time>2026-10-03T03:32:34Z</time>
      </trkpt>
      <trkpt lat="23.139672" lon="113.257575">
        <time>2026-10-03T03:32:39Z</time>
      </trkpt>
      <trkpt lat="23.139672" lon="113.257575">
        <time>2026-10-03T03:32:44Z</time>
      </trkpt>
      <trkpt lat="23.139672" lon="113.257575">
        <time>2026-10-03T03:32:49Z</time>
      </trkpt>
      <trkpt lat="23.139672" lon="113.257575">
        <time>2026-10-03T03:32:54Z</time>
      </trkpt>
      <trkpt lat="23.139672" lon="113.257575">
        <time>2026-10-03T03:32:59Z</time>
      </trkpt>
      <trkpt lat="23.139672" lon="113.257575">
        <time>2026-10-03T03:33:04Z</time>
      </trkpt>
      <trkpt lat="23.139672" lon="113.257575">
        <time>2026-10-03T03:33:09Z</time>
      </trkpt>
      <trkpt lat="23.139672" lon="113.257575">
        <time>2026-10-03T03:33:14Z</time>
      </trkpt>
      <trkpt lat="23.139672" lon="113.257575">
        <time>2026-10-03T03:33:19Z</time>
      </trkpt>
      <trkpt lat="23.139672" lon="113.257575">
        <time>2026-10-03T03:33:24Z</time>
      </trkpt>
      <trkpt lat="23.139672" lon="113.257575">
        <time>2026-10-03T03:33:29Z</time>
      </trkpt>
      <trkpt lat="23.139672" lon="113.257575">
        <time>2026-10-03T03:33:34Z</time>
      </trkpt>
      <trkpt lat="23.139672" lon="113.257575">
        <time>2026-10-03T03:33:39Z</time>
      </trkpt>
      <trkpt lat="23.139672" lon="113.257575">
        <time>2026-10-03T03:33:44Z</time>
      </trkpt>
      <trkpt lat="23.139672" lon="113.257575">
        <time>2026-10-03T03:33:49Z</time>
      </trkpt>
      <trkpt lat="23.139672" lon="113.257575">
        <time>2026-10-03T03:33:54Z</time>
      </trkpt>
      <trkpt lat="23.139672" lon="113.257575">
        <time>2026-10-03T03:33:59Z</time>
      </trkpt>
      <trkpt lat="23.139672" lon="113.257575">
        <time>2026-10-03T03:34:04Z</time>
      </trkpt>
      <trkpt lat="23.139672" lon="113.257575">
        <time>2026-10-03T03:34:09Z</time>
      </trkpt>
      <trkpt lat="23.139672" lon="113.257575">
        <time>2026-10-03T03:34:14Z</time>
      </trkpt>
      <trkpt lat="23.139672" lon="113.257575">
        <time>2026-10-03T03:34:19Z</time>
      </trkpt>
      <trkpt lat="23.139672" lon="113.257575">
        <time>2026-10-03T03:34:24Z</time>
      </trkpt>
      <trkpt lat="23.139672" lon="113.257575">
        <time>2026-10-03T03:34:29Z</time>
      </trkpt>
      <trkpt lat="23.139672" lon="113.257575">
        <time>2026-10-03T03:34:34Z</time>
      </trkpt>
      <trkpt lat="23.139672" lon="113.257575">
        <time>2026-10-03T03:34:39Z</time>
      </trkpt>
      <trkpt lat="23.139672" lon="113.257575">
        <time>2026-10-03T03:34:44Z</time>
      </trkpt>
      <trkpt lat="23.139672" lon="113.257575">
        <time>2026-10-03T03:34:49Z</time>
      </trkpt>
      <trkpt lat="23.139672" lon="113.257575">
        <time>2026-10-03T03:34:54Z</time>
      </trkpt>
      <trkpt lat="23.139672" lon="113.257575">
        <time>2026-10-03T03:34:59Z</time>
      </trkpt>
      <trkpt lat="23.139672" lon="113.257575">
        <time>2026-10-03T03:35:04Z</time>
      </trkpt>
      <trkpt lat="23.139672" lon="113.257575">
        <time>2026-10-03T03:35:09Z</time>
      </trkpt>
      <trkpt lat="23.139672" lon="113.257575">
        <time>2026-10-03T03:35:14Z</time>
      </trkpt>
      <trkpt lat="23.139672" lon="113.257575">
        <time>2026-10-03T03:35:19Z</time>
      </trkpt>
      <trkpt lat="23.139672" lon="113.257575">
        <time>2026-10-03T03:35:24Z</time>
      </trkpt>
      <trkpt lat="23.139672" lon="113.257575">
        <time>2026-10-03T03:35:29Z</time>
      </trkpt>
      <trkpt lat="23.139672" lon="113.257575">
        <time>2026-10-03T03:35:34Z</time>
      </trkpt>
      <trkpt lat="23.139672" lon="113.257575">
        <time>2026-10-03T03:35:39Z</time>
      </trkpt>
      <trkpt lat="23.139672" lon="113.257575">
        <time>2026-10-03T03:35:44Z</time>
      </trkpt>
      <trkpt lat="23.139672" lon="113.257575">
        <time>2026-10-03T03:35:49Z</time>
      </trkpt>
      <trkpt lat="23.139672" lon="113.257575">
        <time>2026-10-03T03:35:54Z</time>
      </trkpt>
      <trkpt lat="23.139672" lon="113.257575">
        <time>2026-10-03T03:35:59Z</time>
      </trkpt>
      <trkpt lat="23.139672" lon="113.257575">
        <time>2026-10-03T03:36:04Z</time>
      </trkpt>
      <trkpt lat="23.139672" lon="113.257575">
        <time>2026-10-03T03:36:09Z</time>
      </trkpt>
      <trkpt lat="23.139665" lon="113.257547">
        <time>2026-10-03T03:36:14Z</time>
      </trkpt>
      <trkpt lat="23.139638" lon="113.257539">
        <time>2026-10-03T03:36:19Z</time>
      </trkpt>
      <trkpt lat="23.139597" lon="113.257556">
        <time>2026-10-03T03:36:24Z</time>
      </trkpt>
      <trkpt lat="23.139543" lon="113.257575">
        <time>2026-10-03T03:36:29Z</time>
      </trkpt>
      <trkpt lat="23.139497" lon="113.257599">
        <time>2026-10-03T03:36:34Z</time>
      </trkpt>
      <trkpt lat="23.139453" lon="113.257614">
        <time>2026-10-03T03:36:39Z</time>
      </trkpt>
      <trkpt lat="23.139413" lon="113.257608">
        <time>2026-10-03T03:36:44Z</time>
      </trkpt>
      <trkpt lat="23.139389" lon="113.257585">
        <time>2026-10-03T03:36:49Z</time>
      </trkpt>
      <trkpt lat="23.139375" lon="113.257563">
        <time>2026-10-03T03:36:54Z</time>
      </trkpt>
      <trkpt lat="23.139372" lon="113.257524">
        <time>2026-10-03T03:36:59Z</time>
      </trkpt>
      <trkpt lat="23.139363" lon="113.257468">
        <time>2026-10-03T03:37:04Z</time>
      </trkpt>
      <trkpt lat="23.139345" lon="113.257398">
        <time>2026-10-03T03:37:09Z</time>
      </trkpt>
      <trkpt lat="23.139317" lon="113.257333">
        <time>2026-10-03T03:37:14Z</time>
      </trkpt>
      <trkpt lat="23.139291" lon="113.257287">
        <time>2026-10-03T03:37:19Z</time>
      </trkpt>
      <trkpt lat="23.139261" lon="113.257235">
        <time>2026-10-03T03:37:24Z</time>
      </trkpt>
      <trkpt lat="23.13922" lon="113.257184">
        <time>2026-10-03T03:37:29Z</time>
      </trkpt>
      <trkpt lat="23.139189" lon="113.257136">
        <time>2026-10-03T03:37:34Z</time>
      </trkpt>
      <trkpt lat="23.139174" lon="113.2571">
        <time>2026-10-03T03:37:39Z</time>
      </trkpt>
      <trkpt lat="23.139155" lon="113.257064">
        <time>2026-10-03T03:37:44Z</time>
      </trkpt>
      <trkpt lat="23.13913" lon="113.257017">
        <time>2026-10-03T03:37:49Z</time>
      </trkpt>
      <trkpt lat="23.1391" lon="113.256973">
        <time>2026-10-03T03:37:54Z</time>
      </trkpt>
      <trkpt lat="23.139061" lon="113.256946">
        <time>2026-10-03T03:37:59Z</time>
      </trkpt>
      <trkpt lat="23.139015" lon="113.2569">
        <time>2026-10-03T03:38:04Z</time>
      </trkpt>
      <trkpt lat="23.138987" lon="113.25685">
        <time>2026-10-03T03:38:09Z</time>
      </trkpt>
      <trkpt lat="23.138948" lon="113.256815">
        <time>2026-10-03T03:38:14Z</time>
      </trkpt>
      <trkpt lat="23.138911" lon="113.256772">
        <time>2026-10-03T03:38:19Z</time>
      </trkpt>
      <trkpt lat="23.138874" lon="113.256742">
        <time>2026-10-03T03:38:24Z</time>
      </trkpt>
      <trkpt lat="23.13884" lon="113.256709">
        <time>2026-10-03T03:38:29Z</time>
      </trkpt>
      <trkpt lat="23.138801" lon="113.256686">
        <time>2026-10-03T03:38:34Z</time>
      </trkpt>
      <trkpt lat="23.138773" lon="113.256661">
        <time>2026-10-03T03:38:39Z</time>
      </trkpt>
      <trkpt lat="23.138768" lon="113.256655">
        <time>2026-10-03T03:38:44Z</time>
      </trkpt>
      <trkpt lat="23.138739" lon="113.256645">
        <time>2026-10-03T03:38:49Z</time>
      </trkpt>
      <trkpt lat="23.138694" lon="113.256636">
        <time>2026-10-03T03:38:54Z</time>
      </trkpt>
      <trkpt lat="23.138637" lon="113.256621">
        <time>2026-10-03T03:38:59Z</time>
      </trkpt>
      <trkpt lat="23.138582" lon="113.256619">
        <time>2026-10-03T03:39:04Z</time>
      </trkpt>
      <trkpt lat="23.138533" lon="113.256612">
        <time>2026-10-03T03:39:09Z</time>
      </trkpt>
      <trkpt lat="23.138483" lon="113.256608">
        <time>2026-10-03T03:39:14Z</time>
      </trkpt>
      <trkpt lat="23.138442" lon="113.256616">
        <time>2026-10-03T03:39:19Z</time>
      </trkpt>
      <trkpt lat="23.138402" lon="113.256615">
        <time>2026-10-03T03:39:24Z</time>
      </trkpt>
      <trkpt lat="23.138361" lon="113.256602">
        <time>2026-10-03T03:39:29Z</time>
      </trkpt>
      <trkpt lat="23.138317" lon="113.256598">
        <time>2026-10-03T03:39:34Z</time>
      </trkpt>
      <trkpt lat="23.138251" lon="113.256601">
        <time>2026-10-03T03:39:39Z</time>
      </trkpt>
      <trkpt lat="23.138195" lon="113.256611">
        <time>2026-10-03T03:39:44Z</time>
      </trkpt>
      <trkpt lat="23.138142" lon="113.256624">
        <time>2026-10-03T03:39:49Z</time>
      </trkpt>
      <trkpt lat="23.138082" lon="113.256632">
        <time>2026-10-03T03:39:54Z</time>
      </trkpt>
      <trkpt lat="23.138023" lon="113.256631">
        <time>2026-10-03T03:39:59Z</time>
      </trkpt>
      <trkpt lat="23.137976" lon="113.25663">
        <time>2026-10-03T03:40:04Z</time>
      </trkpt>
      <trkpt lat="23.137941" lon="113.256627">
        <time>2026-10-03T03:40:09Z</time>
      </trkpt>
      <trkpt lat="23.137909" lon="113.256628">
        <time>2026-10-03T03:40:14Z</time>
      </trkpt>
      <trkpt lat="23.137856" lon="113.2566">
        <time>2026-10-03T03:40:19Z</time>
      </trkpt>
      <trkpt lat="23.137787" lon="113.256599">
        <time>2026-10-03T03:40:24Z</time>
      </trkpt>
      <trkpt lat="23.137728" lon="113.256618">
        <time>2026-10-03T03:40:29Z</time>
      </trkpt>
      <trkpt lat="23.137666" lon="113.256644">
        <time>2026-10-03T03:40:34Z</time>
      </trkpt>
      <trkpt lat="23.137617" lon="113.256671">
        <time>2026-10-03T03:40:39Z</time>
      </trkpt>
      <trkpt lat="23.137579" lon="113.256718">
        <time>2026-10-03T03:40:44Z</time>
      </trkpt>
      <trkpt lat="23.137525" lon="113.256752">
        <time>2026-10-03T03:40:49Z</time>
      </trkpt>
      <trkpt lat="23.13746" lon="113.256761">
        <time>2026-10-03T03:40:54Z</time>
      </trkpt>
      <trkpt lat="23.137396" lon="113.256753">
        <time>2026-10-03T03:40:59Z</time>
      </trkpt>
      <trkpt lat="23.137334" lon="113.256732">
        <time>2026-10-03T03:41:04Z</time>
      </trkpt>
      <trkpt lat="23.137276" lon="113.256706">
        <time>2026-10-03T03:41:09Z</time>
      </trkpt>
      <trkpt lat="23.137231" lon="113.25672">
        <time>2026-10-03T03:41:14Z</time>
      </trkpt>
      <trkpt lat="23.137217" lon="113.256795">
        <time>2026-10-03T03:41:19Z</time>
      </trkpt>
      <trkpt lat="23.137206" lon="113.256844">
        <time>2026-10-03T03:41:24Z</time>
      </trkpt>
      <trkpt lat="23.137145" lon="113.256835">
        <time>2026-10-03T03:41:29Z</time>
      </trkpt>
      <trkpt lat="23.137069" lon="113.256827">
        <time>2026-10-03T03:41:34Z</time>
      </trkpt>
      <trkpt lat="23.137027" lon="113.256845">
        <time>2026-10-03T03:41:39Z</time>
      </trkpt>
      <trkpt lat="23.137022" lon="113.256883">
        <time>2026-10-03T03:41:44Z</time>
      </trkpt>
      <trkpt lat="23.137022" lon="113.256932">
        <time>2026-10-03T03:41:49Z</time>
      </trkpt>
      <trkpt lat="23.137014" lon="113.256989">
        <time>2026-10-03T03:41:54Z</time>
      </trkpt>
      <trkpt lat="23.137003" lon="113.25705">
        <time>2026-10-03T03:41:59Z</time>
      </trkpt>
      <trkpt lat="23.136998" lon="113.257108">
        <time>2026-10-03T03:42:04Z</time>
      </trkpt>
      <trkpt lat="23.136988" lon="113.25717">
        <time>2026-10-03T03:42:09Z</time>
      </trkpt>
      <trkpt lat="23.136976" lon="113.257237">
        <time>2026-10-03T03:42:14Z</time>
      </trkpt>
      <trkpt lat="23.136977" lon="113.257303">
        <time>2026-10-03T03:42:19Z</time>
      </trkpt>
      <trkpt lat="23.136968" lon="113.257368">
        <time>2026-10-03T03:42:24Z</time>
      </trkpt>
      <trkpt lat="23.13694" lon="113.25743">
        <time>2026-10-03T03:42:29Z</time>
      </trkpt>
      <trkpt lat="23.136919" lon="113.257489">
        <time>2026-10-03T03:42:34Z</time>
      </trkpt>
      <trkpt lat="23.136908" lon="113.257552">
        <time>2026-10-03T03:42:39Z</time>
      </trkpt>
      <trkpt lat="23.136898" lon="113.257607">
        <time>2026-10-03T03:42:44Z</time>
      </trkpt>
      <trkpt lat="23.136888" lon="113.257657">
        <time>2026-10-03T03:42:49Z</time>
      </trkpt>
      <trkpt lat="23.136878" lon="113.257711">
        <time>2026-10-03T03:42:54Z</time>
      </trkpt>
      <trkpt lat="23.136865" lon="113.257773">
        <time>2026-10-03T03:42:59Z</time>
      </trkpt>
      <trkpt lat="23.136855" lon="113.257833">
        <time>2026-10-03T03:43:04Z</time>
      </trkpt>
      <trkpt lat="23.136843" lon="113.257901">
        <time>2026-10-03T03:43:09Z</time>
      </trkpt>
      <trkpt lat="23.136835" lon="113.257958">
        <time>2026-10-03T03:43:14Z</time>
      </trkpt>
      <trkpt lat="23.136828" lon="113.258004">
        <time>2026-10-03T03:43:19Z</time>
      </trkpt>
      <trkpt lat="23.136812" lon="113.25803">
        <time>2026-10-03T03:43:24Z</time>
      </trkpt>
      <trkpt lat="23.136784" lon="113.258051">
        <time>2026-10-03T03:43:29Z</time>
      </trkpt>
      <trkpt lat="23.136744" lon="113.258062">
        <time>2026-10-03T03:43:34Z</time>
      </trkpt>
      <trkpt lat="23.1367" lon="113.258059">
        <time>2026-10-03T03:43:39Z</time>
      </trkpt>
      <trkpt lat="23.136653" lon="113.258054">
        <time>2026-10-03T03:43:44Z</time>
      </trkpt>
      <trkpt lat="23.136612" lon="113.258048">
        <time>2026-10-03T03:43:49Z</time>
      </trkpt>
      <trkpt lat="23.136569" lon="113.258053">
        <time>2026-10-03T03:43:54Z</time>
      </trkpt>
      <trkpt lat="23.136516" lon="113.258055">
        <time>2026-10-03T03:43:59Z</time>
      </trkpt>
      <trkpt lat="23.136462" lon="113.258046">
        <time>2026-10-03T03:44:04Z</time>
      </trkpt>
      <trkpt lat="23.136415" lon="113.258033">
        <time>2026-10-03T03:44:09Z</time>
      </trkpt>
      <trkpt lat="23.136365" lon="113.258021">
        <time>2026-10-03T03:44:14Z</time>
      </trkpt>
      <trkpt lat="23.136308" lon="113.258015">
        <time>2026-10-03T03:44:19Z</time>
      </trkpt>
      <trkpt lat="23.136243" lon="113.258017">
        <time>2026-10-03T03:44:24Z</time>
      </trkpt>
      <trkpt lat="23.136188" lon="113.258022">
        <time>2026-10-03T03:56:46Z</time>
      </trkpt>
    </trkseg>
  </trk>
</gpx>